"locator_domain","location_name","street_address","city","state","zip","country_code","store_number","phone","location_type","latitude","longitude","hours_of_operation","page_url"
"https://www.baystatehealth.org","Baystate Adolescent Medicine","50 Wason Ave","Springfield","MA","01107","US","<MISSING>","413-794-0811","urgent care","42.1242469","-72.610784","Monday-Friday: 8 a.m.-5 p.m.","https://www.baystatehealth.org/locations/childrens-specialty-center/adolescent-medicine"
"https://www.baystatehealth.org","Baystate Behavioral Health - Adult Outpatient","3300 Main Street","Springfield","MA","01107","US","<MISSING>","413-794-7035","urgent care","42.1242469","-72.610784","Monday-Friday: 8 a.m.-5 p.m.","https://www.baystatehealth.org/locations/tolosky-center/behavioral-health-adult-outpatient"
"https://www.baystatehealth.org","Baystate Behavioral Health - Adult Partial Hospitalization Program - Springfield","140 High Street","Springfield","MA","01119","US","<MISSING>","413-794-5555","urgent care","42.1242469","-72.610784","Monday-Friday: 9 a.m.-3 p.m.","https://www.baystatehealth.org/locations/behavioral-health-adult-partial-hospitalization-program-springfield"
"https://www.baystatehealth.org","Baystate Behavioral Health - Child Outpatient","3300 Main Street","Springfield","MA","01199","US","<MISSING>","413-794-1038","urgent care","42.1242469","-72.610784","Monday-Friday: 8 a.m.-5 p.m.","https://www.baystatehealth.org/locations/tolosky-center/pediatric-behavioral-health"
"https://www.baystatehealth.org","Baystate Behavioral Health - Child Partial Hospitalization Program","150 Lower Westfield Road","Holyoke","MA","01040","US","<MISSING>","413-794-5555","urgent care","42.1242469","-72.610784","Monday-Friday: 9 a.m.-3 p.m.","https://www.baystatehealth.org/locations/behavioral-health-child-partial-hospitalization-program"
"https://www.baystatehealth.org","Baystate Behavioral Health - Griswold Center","40 Wright Street","Palmer","MA","01069","US","<MISSING>","413-370-5285","urgent care","42.1242469","-72.610784","Monday-Thursday: 7:45 a.m.-7 p.m. Friday: 7:45 a.m.-6 p.m.","https://www.baystatehealth.org/locations/behavioral-health-palmer"
"https://www.baystatehealth.org","Baystate Behavioral Health - Neuropsychology","3300 Main Street","Springfield","MA","01199","US","<MISSING>","413-794-1039","urgent care","42.1242469","-72.610784","Monday-Friday: 8 a.m.-5 p.m.","https://www.baystatehealth.org/locations/baystate-behavioral-health-neuropsychology"
"https://www.baystatehealth.org","Baystate Breast And Wellness Center","100 Wason Avenue","Springfield","MA","01107","US","<MISSING>","413-794-8899","radiology","42.1251412","-72.6135977","Monday-Friday: 7 a.m.-5 pm Saturday: 7:30 a.m.-12 p.m.","https://www.baystatehealth.org/locations/breast-and-wellness-center"
"https://www.baystatehealth.org","Baystate Brightwood Health Center","380 Plainfield Street","Springfield","MA","01199","US","<MISSING>","413-794-4458","primary care","42.1172354","-72.6144394","Monday and Friday:8 a.m.-5 p.m. Tuesday, Wednesday, and Thursday:  8 a.m.-8 p.m.","https://www.baystatehealth.org/locations/brightwood-health-center-centro-de-salud"
"https://www.baystatehealth.org","Baystate Cardiac Surgery","759 Chestnut Street","Springfield","MA","01199","US","<MISSING>","413-794-5550","primary care","42.1172354","-72.6144394","9 a.m. to 5 p.m. daily","https://www.baystatehealth.org/locations/baystate-medical-center/cardiac-surgery"
"https://www.baystatehealth.org","Baystate Cardiology - Longmeadow","21 Dwight Road","Longmeadow","MA","01106","US","<MISSING>","413-794-2273","primary care","42.1172354","-72.6144394","Monday-Friday: 8 a.m.-5 p.m.","https://www.baystatehealth.org/locations/health-and-wellness-center-longmeadow/cardiology-longmeadow"
"https://www.baystatehealth.org","Baystate Cardiology - Northampton","325B King Street","Northampton","MA","01060","US","<MISSING>","413-794-2273","primary care","42.1172354","-72.6144394","Monday-Friday: 8 a.m.-5 p.m.","https://www.baystatehealth.org/locations/cardiology-northampton"
"https://www.baystatehealth.org","Baystate Cardiology - Palmer","40 Wright Street","Palmer","MA","01069","US","<MISSING>","413-370-7880","primary care","42.1172354","-72.6144394","<MISSING>","https://www.baystatehealth.org/locations/cardiology-palmer"
"https://www.baystatehealth.org","Baystate Cardiology - Springfield - High Street","140 High Street","Springfield","MA","01105","US","<MISSING>","413-794-2273","primary care","42.1172354","-72.6144394","Monday-Friday: 8 a.m.-5 p.m.","https://www.baystatehealth.org/locations/high-street-health-center/cardiology"
"https://www.baystatehealth.org","Baystate Cardiology - Springfield - Main Street","3300 Main Street","Springfield","MA","01199","US","<MISSING>","<MISSING>","primary care","42.1172354","-72.6144394","Monday-Friday: 8 a.m.-5 p.m.","https://www.baystatehealth.org/locations/tolosky-center/cardiology"
"https://www.baystatehealth.org","Baystate Chestnut Surgery Center","759 Chestnut Street","Springfield","MA","01199","US","<MISSING>","413-794-0000","primary care","42.1172354","-72.6144394","<MISSING>","https://www.baystatehealth.org/locations/baystate-medical-center/chestnut-surgery-center"
"https://www.baystatehealth.org","Baystate Children's Hospital","759 Chestnut Street","Springfield","MA","01199","US","<MISSING>","413-794-0000","hospital","42.1216158","-72.6037013","<MISSING>","https://www.baystatehealth.org/locations/childrens-hospital"
"https://www.baystatehealth.org","Baystate Children's Specialty Center","50 Wason Avenue","Springfield","MA","01107","US","<MISSING>","<MISSING>","hospital","42.1216158","-72.6037013","Monday-Friday: 8 a.m.-5 p.m.","https://www.baystatehealth.org/locations/childrens-specialty-center"
"https://www.baystatehealth.org","Baystate Developmental Behavioral Pediatrics","50 Wason Avenue","Springfield","MA","01199","US","<MISSING>","<MISSING>","hospital","42.1216158","-72.6037013","Monday-Friday: 8 a.m.-5 p.m.","https://www.baystatehealth.org/locations/childrens-specialty-center/developmental-behavioral-pediatrics"
"https://www.baystatehealth.org","Baystate Ear, Nose & Throat - Longmeadow","21 Dwight Road","Longmeadow","MA","01106","US","<MISSING>","413-370-5131","hospital","42.1216158","-72.6037013","Wednesday: 1 p.m.-5 p.m.","https://www.baystatehealth.org/locations/health-and-wellness-center-longmeadow/ear-nose-and-throat-longmeadow"
"https://www.baystatehealth.org","Baystate Ear, Nose & Throat - Palmer","40 Wright Street","Palmer","MA","01069","US","<MISSING>","413-370-5400","hospital","42.1216158","-72.6037013","<MISSING>","https://www.baystatehealth.org/locations/ear-nose-and-throat"
"https://www.baystatehealth.org","Baystate Endocrinology - Longmeadow","21 Dwight Road","Longmeadow","MA","01028","US","<MISSING>","413-793-7031","hospital","42.1216158","-72.6037013","Monday-Friday: 8 a.m.-5 p.m.","https://www.baystatehealth.org/locations/health-and-wellness-center-longmeadow/endocrinology-and-diabetes"
"https://www.baystatehealth.org","Baystate Endocrinology - Palmer","40 Wright Street","Palmer","MA","01069","US","<MISSING>","413-370-7881","hospital","42.1216158","-72.6037013","Monday-Friday: 8 a.m.-5 p.m.","https://www.baystatehealth.org/locations/endocrinology-and-diabetes-palmer"
"https://www.baystatehealth.org","Baystate Endocrinology - Springfield","3300 Main Street","Springfield","MA","01107","US","<MISSING>","413-794-7031","hospital","42.1216158","-72.6037013","Monday-Friday: 8 a.m.-5 p.m.","https://www.baystatehealth.org/locations/tolosky-center/endocrinology"
"https://www.baystatehealth.org","Baystate Family Advocacy Center","300 Carew Street","Springfield","MA","01104","US","<MISSING>","413-794-9816","hospital","42.1216158","-72.6037013","<MISSING>","https://www.baystatehealth.org/locations/family-advocacy-center"
"https://www.baystatehealth.org","Baystate Family Medicine","325B King Street","Northampton","MA","01060","US","<MISSING>","413-387-4100","primary care","42.334858","-72.6360766","Monday-Friday: 8 a.m.-5 p.m.","https://www.baystatehealth.org/locations/outpatient-center-northampton/pioneer-valley-family-medicine"
"https://www.baystatehealth.org","Baystate Franklin Medical Center","164 High Street","Greenfield","MA","01301","US","<MISSING>","413-773-0211","radiology","42.5958396","-72.5925469","<MISSING>","https://www.baystatehealth.org/locations/franklin-medical-center"
"https://www.baystatehealth.org","Baystate Franklin Surgical Center","51 Sanderson Street","Greenfield","MA","01301","US","<MISSING>","413-773-0211","radiology","42.5958396","-72.5925469","<MISSING>","https://www.baystatehealth.org/locations/franklin-medical-center/surgical-center"
"https://www.baystatehealth.org","Baystate Gastroenterology - Greenfield","48 Sanderson Street","Greenfield","MA","01301","US","<MISSING>","413-773-2655","radiology","42.5958396","-72.5925469","Monday-Friday: 8 a.m.-5 p.m.","https://www.baystatehealth.org/locations/greenfield-gastroenterology"
"https://www.baystatehealth.org","Baystate Gastroenterology - Longmeadow","21 Dwight Road","Longmeadow","MA","01106","US","<MISSING>","413-794-7364","radiology","42.5958396","-72.5925469","Monday-Friday: 8 a.m.-5 p.m.","https://www.baystatehealth.org/locations/health-and-wellness-center-longmeadow/gastroenterology"
"https://www.baystatehealth.org","Baystate Gastroenterology - Palmer","40 Wright Street","Palmer","MA","01069","US","<MISSING>","413-370-7882","radiology","42.5958396","-72.5925469","Monday-Friday: 8 a.m.-5 p.m.","https://www.baystatehealth.org/locations/gastroenterology-palmer"
"https://www.baystatehealth.org","Baystate Gastroenterology - Springfield - High Street","140 High Street","Springfield","MA","01105","US","<MISSING>","413-794-2518","radiology","42.5958396","-72.5925469","Monday and Thursday: 8 a.m.-8 p.m. Tuesday, Wednesday, and Friday: 8 a.m.-5 p.m.","https://www.baystatehealth.org/locations/high-street-health-center/gastroenterology-springfield-high-street"
"https://www.baystatehealth.org","Baystate Gastroenterology - Springfield - Main Street","3300 Main Street","Springfield","MA","01107","US","<MISSING>","413-794-7364","radiology","42.5958396","-72.5925469","Monday-Friday: 8 a.m.-5 p.m.","https://www.baystatehealth.org/locations/tolosky-center/gastroenterology-springfield"
"https://www.baystatehealth.org","Baystate Gastroenterology - Ware","85 South Street","Ware","MA","01082","US","<MISSING>","413-967-2800","radiology","42.5958396","-72.5925469","Monday-Friday: 8 a.m.-5 p.m.","https://www.baystatehealth.org/locations/gastroenterology"
"https://www.baystatehealth.org","Baystate Gastroenterology - Westfield","115 West Silver Street","Westfield","MA","01085","US","<MISSING>","413-572-6069","radiology","42.5958396","-72.5925469","Monday-Friday: 8 a.m.-5 p.m.","https://www.baystatehealth.org/locations/noble-hospital/gastroenterology-westfield"
"https://www.baystatehealth.org","Baystate General Pediatrics - Springfield - High Street","140 High Street","Springfield","MA","01199","US","<MISSING>","413-794-2515","primary care","42.1053761","-72.5793371","Monday-Thursday: 8 a.m.-6:30 p.m. Friday: 8 a.m.-5 p.m.","https://www.baystatehealth.org/locations/high-street-health-center/general-pediatrics"
"https://www.baystatehealth.org","Baystate General Pediatrics - Springfield - Wason Avenue","50 Wason Avenue","Springfield","MA","01107","US","<MISSING>","413-794-2515","primary care","42.1053761","-72.5793371","Monday-Friday: 8 a.m.-5 p.m.","https://www.baystatehealth.org/locations/childrens-specialty-center/general-pediatrics-springfield-wason-avenue"
"https://www.baystatehealth.org","Baystate General Surgery - Greenfield","48 Sanderson Street","Greenfield","MA","01301","US","<MISSING>","413-773-2626","primary care","42.1053761","-72.5793371","Monday- Friday:8:00 a.m. -5:00p.m.","https://www.baystatehealth.org/locations/greenfield-surgery"
"https://www.baystatehealth.org","Baystate General Surgery - Longmeadow","21 Dwight Road","Longmeadow","MA","01106","US","<MISSING>","413-794-7020","primary care","42.1053761","-72.5793371","Monday-Friday: 8 a.m.-5 p.m.","https://www.baystatehealth.org/locations/health-and-wellness-center-longmeadow/general-surgery-longmeadow"
"https://www.baystatehealth.org","Baystate General Surgery - Northampton","325B King Street","Northampton","MA","01060","US","<MISSING>","413-794-7020","primary care","42.1053761","-72.5793371","Monday-Friday: 8 a.m.-5 p.m.","https://www.baystatehealth.org/locations/outpatient-center-northampton/general-surgery"
"https://www.baystatehealth.org","Baystate General Surgery - Palmer","40 Wright Street","Palmer","MA","01069","US","<MISSING>","413-370-5015","primary care","42.1053761","-72.5793371","Monday-Friday: 8 a.m.-5 p.m.","https://www.baystatehealth.org/locations/general-surgery-palmer"
"https://www.baystatehealth.org","Baystate General Surgery - Springfield - Medical Center Drive","2 Medical Center Drive","Springfield","MA","01107","US","<MISSING>","413-794-7020","primary care","42.1053761","-72.5793371","Monday-Friday: 8 a.m.-5 p.m.","https://www.baystatehealth.org/locations/medical-office-building-springfield/general-surgery"
"https://www.baystatehealth.org","Baystate General Surgery - Ware","83 South Street","Ware","MA","01082","US","<MISSING>","413-967-2371","primary care","42.1053761","-72.5793371","Wednesday: 8 a.m.-5 p.m.","https://www.baystatehealth.org/locations/general-surgery-ware"
"https://www.baystatehealth.org","Baystate General Surgery - Westfield","115 West Silver Street","Westfield","MA","01085","US","<MISSING>","413-794-7020","primary care","42.1053761","-72.5793371","Monday-Friday: 8 a.m.-5 p.m.","https://www.baystatehealth.org/locations/noble-hospital/general-surgery-westfield"
"https://www.baystatehealth.org","Baystate Geriatric Medicine - Springfield - Wilbraham Road","11 Wilbraham Road","Springfield","MA","01199","US","<MISSING>","413-794-3710","primary care","42.1053761","-72.5793371","<MISSING>","https://www.baystatehealth.org/locations/mason-square-neighborhood-health-center/geriatric-medicine"
"https://www.baystatehealth.org","Baystate Gynecologic Oncology - Northampton","325B King Street","Northampton","MA","01060","US","<MISSING>","413-794-5505","primary care","42.1053761","-72.5793371","<MISSING>","https://www.baystatehealth.org/locations/outpatient-center-northampton/gynecologic-oncology"
"https://www.baystatehealth.org","Baystate Gynecologic Oncology - Springfield","3300 Main Street","Springfield","MA","01199","US","<MISSING>","413-794-5505","primary care","42.1053761","-72.5793371","Monday-Friday: 8 a.m.-5 p.m.","https://www.baystatehealth.org/locations/tolosky-center/gynecologic-oncology"
"https://www.baystatehealth.org","Baystate Health & Wellness Center - Northampton","325B King Street","Northampton","MA","01060","US","<MISSING>","413-387-4100","primary care","42.1053761","-72.5793371","<MISSING>","https://www.baystatehealth.org/locations/outpatient-center-northampton"
"https://www.baystatehealth.org","Baystate Health Corporate Offices","280 Chestnut Street","Springfield","MA","01199","US","<MISSING>","<MISSING>","primary care","42.1053761","-72.5793371","<MISSING>","https://www.baystatehealth.org/locations/corporate-offices"
"https://www.baystatehealth.org","Baystate Health Education Center","361 Whitney Avenue","Holyoke","MA","01040","US","<MISSING>","<MISSING>","primary care","42.1053761","-72.5793371","<MISSING>","https://www.baystatehealth.org/locations/baystate-health-education-center"
"https://www.baystatehealth.org","Baystate Health Foundation","280 Chestnut Street","Springfield","MA","01199","US","<MISSING>","413-794-4288","primary care","42.1053761","-72.5793371","<MISSING>","https://www.baystatehealth.org/locations/corporate-offices/foundation"
"https://www.baystatehealth.org","Baystate Health Recruitment","280 Chestnut Street","Springfield","MA","01199","US","<MISSING>","413-794-3666","primary care","42.1053761","-72.5793371","<MISSING>","https://www.baystatehealth.org/locations/corporate-offices/recruitment"
"https://www.baystatehealth.org","Baystate Health Urgent Care - Belchertown","95 Sargent Street","Belchertown","MA","01007","US","<MISSING>","413-323-5016","urgent care","42.2879188","-72.3983871","Monday-Friday: 7:30 a.m.-4 p.m. Saturday: 8 a.m.-12 p.m.","https://www.baystatehealth.org/locations/urgent-care-belchertown"
"https://www.baystatehealth.org","Baystate Health Urgent Care - Feeding Hills","241 South Westfield Street","Feeding Hills","MA","01030","US","<MISSING>","413-789-1391","urgent care","42.0590445","-72.6753443","Monday-Friday: 9 a.m.-5 p.m. Saturday and Sunday: 9 a.m.-1 p.m.","https://www.baystatehealth.org/locations/urgent-care-feeding-hills"
"https://www.baystatehealth.org","Baystate Health Urgent Care - Longmeadow","688 Bliss Road","Longmeadow","MA","01106","US","<MISSING>","413-754-3273","urgent care","42.0570717","-72.5552556","Monday-Friday: 9 a.m.-5 p.m. Saturday and Sunday: 9 a.m.-1 p.m.","https://www.baystatehealth.org/locations/urgent-care-longmeadow"
"https://www.baystatehealth.org","Baystate Health Urgent Care - Westfield","57 Union Street","Westfield","MA","01085","US","<MISSING>","413-564-5267","urgent care","42.1309993","-72.7394444","Monday-Friday: 9 a.m.-5 p.m. Saturday and Sunday: 9 a.m.-1 p.m.","https://www.baystatehealth.org/locations/urgent-care-westfield"
"https://www.baystatehealth.org","Baystate Health and Wellness Center","21 Dwight Road","Longmeadow","MA","01106","US","<MISSING>","<MISSING>","urgent care","42.1309993","-72.7394444","<MISSING>","https://www.baystatehealth.org/locations/health-and-wellness-center-longmeadow"
"https://www.baystatehealth.org","Baystate Hematology Oncology","3350 Main Street","Springfield","MA","01107","US","<MISSING>","413-794-9338","urgent care","42.1309993","-72.7394444","Monday-Friday: 8 a.m.-5 p.m.","https://www.baystatehealth.org/locations/damour-center-for-cancer-care/baystate-hematology-oncology"
"https://www.baystatehealth.org","Baystate High Street Health Center","140 High Street","Springfield","MA","01105","US","<MISSING>","413-794-2511","urgent care","42.1309993","-72.7394444","Monday, Wednesday, Thursday: 8 a.m.-8 p.m. Tuesday and Friday: 8 a.m.-5 p.m.","https://www.baystatehealth.org/locations/high-street-health-center"
"https://www.baystatehealth.org","Baystate High Street Health Center Adult Medicine","140 High Street","Springfield","MA","01199","US","<MISSING>","413-794-2511","primary care","42.1053761","-72.5793371","Monday and Thursday: 8 a.m.-8 p.m. Tuesday, Wednesday, Friday: 8 a.m.-5 p.m.","https://www.baystatehealth.org/locations/high-street-health-center/adult-medicine"
"https://www.baystatehealth.org","Baystate Home Health","30 Capital Drive","West Springfield","MA","01089","US","<MISSING>","413-794-6411","primary care","42.1053761","-72.5793371","Monday-Friday: 8 a.m.-4 p.m.","https://www.baystatehealth.org/locations/home-health-west-springfield"
"https://www.baystatehealth.org","Baystate Infectious Disease - Springfield - Plainfield Street","380 Plainfield Street","Springfield","MA","01107","US","<MISSING>","413-794-4458","primary care","42.1053761","-72.5793371","Monday and Friday: 8 a.m.-5 p.m. Tuesday, Wednesday, and Thursday: 8 a.m.-8 p.m.","https://www.baystatehealth.org/locations/brightwood-health-center-centro-de-salud/infectious-disease-springfield-plainfield-street"
"https://www.baystatehealth.org","Baystate Infectious Diseases - Springfield - Main Street","3300 Main Street","Springfield","MA","01199","US","<MISSING>","413-794-7394","primary care","42.1053761","-72.5793371","Infectious Diseases: Monday - Friday:8:00 a.m. - 5:00 p.m. Hepatitis Clinic: Thursday 8 a.m. - 12 p.m. Travel Medicine: Monday - Thrusday: 9:30 a.m.- 7:00 p.m. Wound Care Clinic Monday through Friday: 8 a.m. - 4:30 p.m. plus emergency on-call 24/7","https://www.baystatehealth.org/locations/tolosky-center/infectious-diseases"
"https://www.baystatehealth.org","Baystate MRI And Imaging Center","80 Wason Avenue","Springfield","MA","01199","US","<MISSING>","800-258-4674","radiology","42.1247472","-72.6146762","MRI: Monday-Friday: 6 a.m.-11 p.m. Saturday and Sunday: 7:30 a.m.-11 p.m. PET/CT: Monday and Thursday: 6 a.m.-7 p.m.","https://www.baystatehealth.org/locations/mri-and-imaging-center"
"https://www.baystatehealth.org","Baystate Mary Lane Outpatient Center","85 South Street","Ware","MA","01082","US","<MISSING>","413-967-6211","radiology","42.253672","-72.242387","<MISSING>","https://www.baystatehealth.org/locations/mary-lane-outpatient-center"
"https://www.baystatehealth.org","Baystate Mason Square Neighborhood Health Center","11 Wilbraham Road","Springfield","MA","01109","US","<MISSING>","413-794-3710","primary care","42.110981","-72.5632829","Monday-Friday: 8 a.m.-5 p.m.","https://www.baystatehealth.org/locations/mason-square-neighborhood-health-center"
"https://www.baystatehealth.org","Baystate Maternal Fetal Medicine - Springfield","759 Chestnut Street","Springfield","MA","01199","US","<MISSING>","413-794-9939","primary care","42.110981","-72.5632829","Monday-Friday:8 a.m.-5 p.m.","https://www.baystatehealth.org/locations/baystate-medical-center/maternal-fetal-medicine"
"https://www.baystatehealth.org","Baystate Medical Center","759 Chestnut Street","Springfield","MA","01199","US","<MISSING>","413-794-0000","radiology","42.1216158","-72.6037013","<MISSING>","https://www.baystatehealth.org/locations/baystate-medical-center"
"https://www.baystatehealth.org","Baystate Medical Center Sports Concussion Clinic","Tolosky Center","Springfield","MA","01107","US","<MISSING>","413-794-5555","radiology","42.1216158","-72.6037013","<MISSING>","https://www.baystatehealth.org/locations/tolosky-center/sports-concussion-clinic"
"https://www.baystatehealth.org","Baystate Medical Genetics - Springfield - Wason Avenue","50 Wason Avenue","Springfield","MA","01199","US","<MISSING>","413-794-5437","radiology","42.1216158","-72.6037013","Monday-Friday: 8 a.m.-5 p.m.","https://www.baystatehealth.org/locations/childrens-specialty-center/medical-genetics"
"https://www.baystatehealth.org","Baystate Medical Practices -  Greenfield Family Medicine","48 Sanderson Street","Greenfield","MA","01301","US","<MISSING>","413-773-2022","primary care","42.5947798","-72.5934707","Monday-Friday: 7 a.m.- 5 p.m.","https://www.baystatehealth.org/locations/greenfield-family-medicine"
"https://www.baystatehealth.org","Baystate Medical Practices -  Northern Edge Adult and Pediatric Medicine","3400B Main Street","Springfield","MA","01199","US","<MISSING>","413-794-8777","primary care","42.1242469","-72.610784","Mondays: 8 a.m.-8 p.m. Tuesday-Friday:8 a.m.-5 p.m.","https://www.baystatehealth.org/locations/northern-edge-adult-medicine"
"https://www.baystatehealth.org","Baystate Medical Practices -  Pioneer Women's Health - Greenfield","48 Sanderson Street","Greenfield","MA","01301","US","<MISSING>","413-773-2200","primary care","42.1242469","-72.610784","Monday-Friday: 8 a.m.-5 p.m.","https://www.baystatehealth.org/locations/pioneer-womens-health"
"https://www.baystatehealth.org","Baystate Medical Practices - Adult Medicine - South Hadley","470 Granby Road","South Hadley","MA","01075","US","<MISSING>","413-794-8700","primary care","42.2336482","-72.5623203","Monday-Friday: 7 a.m.-5 p.m.","https://www.baystatehealth.org/locations/adult-medicine"
"https://www.baystatehealth.org","Baystate Medical Practices - Obstetrics & Gynecology","325B King Street","Northampton","MA","01060","US","<MISSING>","413-586-2496","primary care","42.2336482","-72.5623203","Monday-Friday: 8 a.m.-5 p.m.","https://www.baystatehealth.org/locations/outpatient-center-northampton/ob-gyn"
"https://www.baystatehealth.org","Baystate Medical Practices - Pioneer Women's Health - Northampton","325B King Street","Northampton","MA","01060","US","<MISSING>","413-387-4100","primary care","42.2336482","-72.5623203","Thursday: 1 p.m.-5 p.m.","https://www.baystatehealth.org/locations/outpatient-center-northampton/pioneer-womens-health"
"https://www.baystatehealth.org","Baystate Medical Practices - Quabbin Adult Medicine - Belchertown","95 Sargent Street","Belchertown","MA","01007","US","<MISSING>","413-323-7212","primary care","42.2879188","-72.3983871","Monday-Friday: 8 a.m.-5 p.m.","https://www.baystatehealth.org/locations/quabbin-adult-medicine-belchertown"
"https://www.baystatehealth.org","Baystate Medical Practices - Quabbin Adult Medicine - Ware","83 South Street","Ware","MA","01082","US","<MISSING>","413-967-2324","primary care","42.2535932","-72.2411393","Monday-Friday: 7 a.m.-5 p.m.","https://www.baystatehealth.org/locations/quabbin-adult-medicine-ware"
"https://www.baystatehealth.org","Baystate Medical Practices - Quabbin Pediatrics Medicine","83 South Street","Ware","MA","01082","US","<MISSING>","413-967-2040","primary care","42.2535932","-72.2411393","Monday-Thursday: 7:30 a.m.-5:30 p.m. Friday: 7:30 a.m.-5 p.m.","https://www.baystatehealth.org/locations/quabbin-pediatrics"
"https://www.baystatehealth.org","Baystate Medical Practices - Sports and Exercise Medicine - Amherst","17 Research drive","Amherst","MA","01002","US","<MISSING>","413-867-4125","primary care","42.2535932","-72.2411393","Tuesday: 1 p.m.-4:30 p.m.","https://www.baystatehealth.org/locations/sports-and-exercise-medicine-amherst"
"https://www.baystatehealth.org","Baystate Medical Practices - Sports and Exercise Medicine - Greenfield","48 Sanderson Street","Greenfield","MA","01301","US","<MISSING>","413-387-4125","primary care","42.2535932","-72.2411393","Monday-Friday: 8 a.m.-5 p.m.","https://www.baystatehealth.org/locations/sports-exercise-medicine-greenfield"
"https://www.baystatehealth.org","Baystate Medical Practices - Sports and Exercise Medicine - Northampton","325B King Street","Northampton","MA","01060","US","<MISSING>","413-387-4125","primary care","42.2535932","-72.2411393","Wednesday: 8 a.m.-5 p.m.","https://www.baystatehealth.org/locations/outpatient-center-northampton/sports-exercise-medicine-northampton"
"https://www.baystatehealth.org","Baystate Medical Practices - Valley Orthopedic and Sports Medicine - Greenfield","48 Sanderson Street","Greenfield","MA","01301","US","<MISSING>","413-773-2220","primary care","42.2535932","-72.2411393","Monday-Friday:8 a.m.-5 p.m.","https://www.baystatehealth.org/locations/valley-orthopedic-surgery-and-sports-medicine-greenfield"
"https://www.baystatehealth.org","Baystate Medical Practices - Valley Orthopedic and Sports Medicine - Northampton","325B King Street","Northampton","MA","01060","US","<MISSING>","413-387-4100","primary care","42.2535932","-72.2411393","Wednesday:8 a.m.-5 p.m.","https://www.baystatehealth.org/locations/outpatient-center-northampton/valley-orthopedic-surgery-and-sports-medicine-northampton"
"https://www.baystatehealth.org","Baystate Medical Practices - West Side Adult Medicine","46 Daggett Drive","West Springfield","MA","01089","US","<MISSING>","413-794-9110","primary care","42.1318523","-72.6242971","Monday-Friday: 7:30 a.m.-5 p.m.","https://www.baystatehealth.org/locations/west-side-adult-medicine"
"https://www.baystatehealth.org","Baystate Medical Practices - Wilbraham Adult Medicine","2344 Boston Road","Wilbraham","MA","01095","US","<MISSING>","413-596-5550","primary care","42.1492352","-72.4535421","Monday-Friday: 7 a.m.-5 p.m.","https://www.baystatehealth.org/locations/bmp-wilbraham-adult-medicine"
"https://www.baystatehealth.org","Baystate Midwifery & Women's Health - Springfield - Plainfield Street","380 Plainfield Street","Springfield","MA","01107","US","<MISSING>","413-794-4458","primary care","42.1492352","-72.4535421","Monday: 8 a.m.-5 p.m. Tuesday and Wednesday:  8 a.m.-8 p.m. Thursday: 9 a.m.-5 p.m. Friday: 8 a.m.-5 p.m.","https://www.baystatehealth.org/locations/brightwood-health-center-centro-de-salud/midwifery-and-womens-health"
"https://www.baystatehealth.org","Baystate Midwifery & Women's Health - Springfield - Wilbraham Road","11 Wilbraham Road","Springfield","MA","01199","US","<MISSING>","413-794-3710","primary care","42.1492352","-72.4535421","Monday-Friday: 8 a.m.-4 p.m.","https://www.baystatehealth.org/locations/mason-square-neighborhood-health-center/midwifery-and-womens-health"
"https://www.baystatehealth.org","Baystate Midwifery and Women's Health - Northampton","325B King Street","Northampton","MA","01060","US","<MISSING>","413-923-5500","primary care","42.1492352","-72.4535421","Thursday: 8 a.m.-12 p.m.","https://www.baystatehealth.org/locations/outpatient-center-northampton/midwifery-and-womens-health"
"https://www.baystatehealth.org","Baystate Midwifery and Women's Health - Springfield - Main Street","3300 Main Street","Springfield","MA","01199","US","<MISSING>","413-794-8336","primary care","42.1492352","-72.4535421","Monday: 8 a.m.-5 p.m. Tuesday and Wednesday:  8 a.m.-8 p.m. Thursday: 9 a.m.-5 p.m. Friday: 8 a.m.-5 p.m.","https://www.baystatehealth.org/locations/tolosky-center/midwifery-and-womens-health"
"https://www.baystatehealth.org","Baystate Neurology - Greenfield","48 Sanderson Street","Greenfield","MA","01301","US","<MISSING>","413-794-5600","primary care","42.1492352","-72.4535421","Monday-Friday: 8 a.m.-5 p.m.","https://www.baystatehealth.org/locations/neurology-greenfield"
"https://www.baystatehealth.org","Baystate Neurology - Longmeadow","21 Dwight Road","Longmeadow","MA","01106","US","<MISSING>","413-794-5600","primary care","42.1492352","-72.4535421","Monday-Friday: 8 a.m.-5 p.m.","https://www.baystatehealth.org/locations/health-and-wellness-center-longmeadow/neurology-longmeadow"
"https://www.baystatehealth.org","Baystate Neurology - Springfield - Main Street","3300 Main Street","Springfield","MA","01199","US","<MISSING>","413-794-5600","primary care","42.1492352","-72.4535421","Monday-Friday: 8 a.m.-5 p.m.","https://www.baystatehealth.org/locations/tolosky-center/neurology"
"https://www.baystatehealth.org","Baystate Neurology - Westfield","48 East Silver Street","Westfield","MA","01085","US","<MISSING>","413-794-5600","primary care","42.1492352","-72.4535421","Monday-Friday: 8 a.m.-5 p.m.","https://www.baystatehealth.org/locations/neurology"
"https://www.baystatehealth.org","Baystate Neurosurgery","2 Medical Center Drive","Springfield","MA","01107","US","<MISSING>","413-794-5600","primary care","42.1492352","-72.4535421","Monday-Friday: 8 a.m.-5 p.m.","https://www.baystatehealth.org/locations/medical-office-building-springfield/neurosurgery"
"https://www.baystatehealth.org","Baystate Noble Hospital","115 West Silver Street","Westfield","MA","01085","US","<MISSING>","413-571-0000","radiology","42.1180277","-72.7590708","<MISSING>","https://www.baystatehealth.org/locations/noble-hospital"
"https://www.baystatehealth.org","Baystate Orthopedic Surgery - Longmeadow","21 Dwight Road","Longmeadow","MA","01106","US","<MISSING>","413-370-5356","radiology","42.1180277","-72.7590708","Monday-Friday: 8 a.m.-5 p.m.","https://www.baystatehealth.org/locations/health-and-wellness-center-longmeadow/orthopedic-surgery-longmeadow"
"https://www.baystatehealth.org","Baystate Orthopedic Surgery - Palmer","40 Wright Street","Palmer","MA","01069","US","<MISSING>","413-370-5356","radiology","42.1180277","-72.7590708","Monday, Wednesday, Friday: 8:30 a.m.-5 p.m. Tuesday and Thursday: 1 p.m.-4:30 p.m.","https://www.baystatehealth.org/locations/orthopedic-surgery-palmer"
"https://www.baystatehealth.org","Baystate Orthopedic Surgery Center","50 Wason Avenue","Springfield","MA","01107","US","<MISSING>","413-794-1800","radiology","42.1180277","-72.7590708","Monday-Friday: 6 a.m.-5 p.m.","https://www.baystatehealth.org/locations/orthopedic-surgery-center"
"https://www.baystatehealth.org","Baystate Orthopedics - Belchertown","95 Sargent Street","Belchertown","MA","01007","US","<MISSING>","413-967-2577","radiology","42.1180277","-72.7590708","Friday: 8:30 a.m.-4:30 p.m.","https://www.baystatehealth.org/locations/orthopedics"
"https://www.baystatehealth.org","Baystate Orthopedics - Ware","83 South Street","Ware","MA","01082","US","<MISSING>","413-967-2577","radiology","42.1180277","-72.7590708","Monday-Thursday: 8:30 a.m.-4:30 p.m.","https://www.baystatehealth.org/locations/orthopedic-surgery-ware"
"https://www.baystatehealth.org","Baystate Pain Management Center","3400 Main Street","Springfield","MA","01107","US","<MISSING>","413-794-4681","radiology","42.1180277","-72.7590708","Monday-Friday: 7 a.m.-5 p.m.","https://www.baystatehealth.org/locations/pain-management-center"
"https://www.baystatehealth.org","Baystate Pediatric Cardiology - Pittsfield","777 North Street","Pittsfield","MA","01201","US","<MISSING>","413-794-5437","radiology","42.1180277","-72.7590708","Wednesday: 8 a.m.-12 p.m.","https://www.baystatehealth.org/locations/pediatric-cardiology-pittsfield"
"https://www.baystatehealth.org","Baystate Pediatric Cardiology - Springfield","50 Wason Avenue","Springfield","MA","01199","US","<MISSING>","<MISSING>","radiology","42.1180277","-72.7590708","Monday-Friday: 8 a.m.-5 p.m.","https://www.baystatehealth.org/locations/childrens-specialty-center/pediatric-cardiology"
"https://www.baystatehealth.org","Baystate Pediatric Critical Care Medicine","759 Chestnut Street","Springfield","MA","01199","US","<MISSING>","413-794-3400","radiology","42.1180277","-72.7590708","Open 24/7","https://www.baystatehealth.org/locations/baystate-medical-center/pediatric-critical-care"
"https://www.baystatehealth.org","Baystate Pediatric Endocrinology & Diabetes - Northampton","325B King Street","Northampton","MA","01060","US","<MISSING>","413-794-5437","radiology","42.1180277","-72.7590708","Monday-Friday: 8 a.m.-5 p.m.","https://www.baystatehealth.org/locations/outpatient-center-northampton/pediatric-endocrinology-and-diabetes"
"https://www.baystatehealth.org","Baystate Pediatric Endocrinology & Diabetes - Pittsfield","777 North Street","Pittsfield","MA","01201","US","<MISSING>","413-794-5437","radiology","42.1180277","-72.7590708","Monday-Friday: 8 a.m.-5 p.m.","https://www.baystatehealth.org/locations/pediatric-endocrinology-diabetes-pittsfield"
"https://www.baystatehealth.org","Baystate Pediatric Endocrinology & Diabetes - Springfield","50 Wason Avenue","Springfield","MA","01199","US","<MISSING>","<MISSING>","radiology","42.1180277","-72.7590708","Monday-Friday: 8 a.m.-5 p.m.","https://www.baystatehealth.org/locations/childrens-specialty-center/pediatric-endocrinology"
"https://www.baystatehealth.org","Baystate Pediatric Gastroenterology & Nutrition - Northampton","325B King Street","Northampton","MA","01060","US","<MISSING>","413-794-5437","radiology","42.1180277","-72.7590708","Monday-Friday: 8 a.m.-5 p.m.","https://www.baystatehealth.org/locations/outpatient-center-northampton/pediatric-gastroenterology-and-nutrition"
"https://www.baystatehealth.org","Baystate Pediatric Gastroenterology & Nutrition - Pittsfield","777 North Street","Pittsfield","MA","01201","US","<MISSING>","413-794-5437","radiology","42.1180277","-72.7590708","Friday: 8 a.m.-5 p.m.","https://www.baystatehealth.org/locations/pediatric-gastroenterology-nutrition-pittsfield"
"https://www.baystatehealth.org","Baystate Pediatric Gastroenterology & Nutrition - Springfield","50 Wason Avenue","Springfield","MA","01199","US","<MISSING>","<MISSING>","radiology","42.1180277","-72.7590708","Monday-Friday: 8 a.m.-5 p.m.","https://www.baystatehealth.org/locations/childrens-specialty-center/pediatric-gastroenterology-and-nutrition"
"https://www.baystatehealth.org","Baystate Pediatric Infectious Diseases","50 Wason Avenue","Springfield","MA","01107","US","<MISSING>","<MISSING>","radiology","42.1180277","-72.7590708","Monday-Friday: 8 a.m.-5 p.m.","https://www.baystatehealth.org/locations/childrens-specialty-center/pediatric-infectious-diseases"
"https://www.baystatehealth.org","Baystate Pediatric Neurology","50 Wason Avenue","Springfield","MA","01107","US","<MISSING>","<MISSING>","radiology","42.1180277","-72.7590708","Monday-Friday:8 a.m.-5 p.m.","https://www.baystatehealth.org/locations/childrens-specialty-center/pediatric-neurology"
"https://www.baystatehealth.org","Baystate Pediatric Neurosurgery","50 Wason Avenue","Springfield","MA","01107","US","<MISSING>","413-794-5437","radiology","42.1180277","-72.7590708","Monday-Friday: 8 a.m.-5 p.m.","https://www.baystatehealth.org/locations/childrens-specialty-center/pediatric-neurosurgery"
"https://www.baystatehealth.org","Baystate Pediatric Pulmonary","50 Wason Avenue","Springfield","MA","01199","US","<MISSING>","<MISSING>","radiology","42.1180277","-72.7590708","Monday-Friday: 8 a.m.-5 p.m.","https://www.baystatehealth.org/locations/childrens-specialty-center/pediatric-pulmonary-medicine"
"https://www.baystatehealth.org","Baystate Pediatric Rheumatology","50 Wason Avenue","Springfield","MA","01199","US","<MISSING>","<MISSING>","radiology","42.1180277","-72.7590708","Monday-Friday: 8 a.m.-5 p.m.","https://www.baystatehealth.org/locations/childrens-specialty-center/pediatric-rheumatology"
"https://www.baystatehealth.org","Baystate Pediatric Surgery","100 Wason Avenue","Springfield","MA","01107","US","<MISSING>","413-794-2442","radiology","42.1180277","-72.7590708","Monday-Friday: 8 a.m.-5 p.m. Patient Appointments Monday-Thursday: 1 p.m.-4 p.m. Friday: 9 a.m.-12:30 p.m.","https://www.baystatehealth.org/locations/pediatric-surgery"
"https://www.baystatehealth.org","Baystate Pharmacy - Springfield - Chestnut Street","759 Chestnut Street","Springfield","MA","01199","US","<MISSING>","413-794-3291","radiology","42.1180277","-72.7590708","Monday-Friday: 8 a.m.-8 p.m. Saturday and Sunday: 8 a.m.-6 p.m.","https://www.baystatehealth.org/locations/baystate-medical-center/baystate-pharmacy"
"https://www.baystatehealth.org","Baystate Pharmacy - Springfield - High Street","140 High Street","Springfield","MA","01105","US","<MISSING>","413-794-9960","radiology","42.1180277","-72.7590708","Monday-Friday: 8:30 a.m.-5 p.m.","https://www.baystatehealth.org/locations/high-street-health-center/baystate-pharmacy"
"https://www.baystatehealth.org","Baystate Pharmacy - Springfield - Plainfield Street","380 Plainfield Street","Springfield","MA","01107","US","<MISSING>","413-794-9442","radiology","42.1180277","-72.7590708","Monday-Friday:8:30 a.m.-5 p.m.","https://www.baystatehealth.org/locations/brightwood-health-center-centro-de-salud/baystate-pharmacy"
"https://www.baystatehealth.org","Baystate Pharmacy - Springfield - Wason Avenue","50 Wason Avenue","Springfield","MA","01107","US","<MISSING>","413-794-9009","radiology","42.1180277","-72.7590708","Monday-Friday: 8:30 a.m.-5 p.m.","https://www.baystatehealth.org/locations/childrens-specialty-center/baystate-pharmacy"
"https://www.baystatehealth.org","Baystate Physical Medicine & Rehabilitation - Longmeadow","21 Dwight Road","Longmeadow","MA","01106","US","<MISSING>","413-794-5600","radiology","42.1180277","-72.7590708","Monday-Friday: 8 a.m.-5 p.m.","https://www.baystatehealth.org/locations/health-and-wellness-center-longmeadow/physical-medicine-and-rehabilitation"
"https://www.baystatehealth.org","Baystate Plastic & Reconstructive Surgery - Longmeadow","21 Dwight Road","Longmeadow","MA","01106","US","<MISSING>","413-794-5363","radiology","42.1180277","-72.7590708","Monday-Friday: 8 a.m.-5 p.m.","https://www.baystatehealth.org/locations/health-and-wellness-center-longmeadow/plastic-reconstructive-surgery-longmeadow"
"https://www.baystatehealth.org","Baystate Plastic & Reconstructive Surgery - Springfield - Medical Center Drive","2 Medical Center Drive","Springfield","MA","01107","US","<MISSING>","413-794-5363","radiology","42.1180277","-72.7590708","Monday-Friday: 8 a.m.-5 p.m.","https://www.baystatehealth.org/locations/medical-office-building-springfield/plastic-and-reconstructive-surgery-springfield"
"https://www.baystatehealth.org","Baystate Plastic & Reconstructive Surgery - Springfield - Wason Avenue","100 Wason Avenue","Springfield","MA","01107","US","<MISSING>","413-794-5363","radiology","42.1180277","-72.7590708","Monday-Friday: 8 a.m.-5 p.m.","https://www.baystatehealth.org/locations/breast-and-wellness-center/plastic-and-reconstructive-surgery-wason-avenue"
"https://www.baystatehealth.org","Baystate Plastic Surgery - Northampton","325B King Street","Northampton","MA","01060","US","<MISSING>","413-794-5363","radiology","42.1180277","-72.7590708","<MISSING>","https://www.baystatehealth.org/locations/outpatient-center-northampton/plastic-and-reconstructive-surgery-northampton"
"https://www.baystatehealth.org","Baystate Primary Care - Feeding Hills","24 North Westfield Street","Feeding Hills","MA","01030","US","<MISSING>","413-831-7831","primary care","42.0678067","-72.6786952","Monday-Friday: 8 a.m.-5 p.m.","https://www.baystatehealth.org/locations/primary-care-feeding-hills"
"https://www.baystatehealth.org","Baystate Primary Care - Longmeadow","21 Dwight Road","Longmeadow","MA","01106","US","<MISSING>","413-795-4555","primary care","42.0808031","-72.5397022","Monday, Thursday, and Friday: 8 a.m.-5 p.m. Tuesday and Wednesday: 8 a.m.-6 p.m.","https://www.baystatehealth.org/locations/health-and-wellness-center-longmeadow/primary-care-longmeadow"
"https://www.baystatehealth.org","Baystate Primary Care - Ludlow","34 Hubbard Street","Ludlow","MA","01056","US","<MISSING>","413-370-8699","primary care","42.1603411","-72.4832966","Monday-Friday: 8 a.m.-5 p.m.","https://www.baystatehealth.org/locations/primary-care-ludlow"
"https://www.baystatehealth.org","Baystate Primary Care - Monson","2 Main Street","Monson","MA","01057","US","<MISSING>","413-370-8209","primary care","42.10871","-72.315493","Monday-Friday: 8 a.m.-5 p.m.","https://www.baystatehealth.org/locations/primary-care-monson"
"https://www.baystatehealth.org","Baystate Primary Care - Palmer","40 Wright Street","Palmer","MA","01069","US","<MISSING>","413-370-7892","primary care","42.1694156","-72.341697","Monday, Tuesday, Wednesday, Friday: 8 a.m.-5 p.m. Friday: 8 a.m.-7 p.m.","https://www.baystatehealth.org/locations/primary-care-palmer"
"https://www.baystatehealth.org","Baystate Primary Care - Southwick","800 College Highway","Southwick","MA","01077","US","<MISSING>","413-831-7860","primary care","42.0864695","-72.7639745","Monday-Friday: 8:30 a.m.-5 p.m.","https://www.baystatehealth.org/locations/primary-care-southwick"
"https://www.baystatehealth.org","Baystate Primary Care - Turners Falls","8 Burnham Street","Turners Falls","MA","01376","US","<MISSING>","413-774-5554","primary care","42.5882276","-72.5735901","Monday-Friday: 8 a.m.-5 p.m.","https://www.baystatehealth.org/locations/primary-care-turners-falls"
"https://www.baystatehealth.org","Baystate Primary Care - Westfield","57 Union Street","Westfield","MA","01085","US","<MISSING>","413-831-7950","primary care","42.1309993","-72.7394444","Monday-Friday:  8 a.m.-5 p.m.","https://www.baystatehealth.org/locations/primary-care-westfield-suite-201"
"https://www.baystatehealth.org","Baystate Pulmonary - Longmeadow","21 Dwight Road","Longmeadow","MA","01106","US","<MISSING>","413-794-7330","primary care","42.1309993","-72.7394444","Thursday: 8 a.m.-5 p.m.","https://www.baystatehealth.org/locations/health-and-wellness-center-longmeadow/pulmonary"
"https://www.baystatehealth.org","Baystate Pulmonary - Northampton","325B King Street","Northampton","MA","01060","US","<MISSING>","413-387-4100","primary care","42.1309993","-72.7394444","Thursday: 1 p.m.-5 p.m.","https://www.baystatehealth.org/locations/outpatient-center-northampton/pulmonary-and-sleep-medicine"
"https://www.baystatehealth.org","Baystate Pulmonary - Springfield","3300 Main Street","Springfield","MA","01107","US","<MISSING>","413-794-7330","primary care","42.1309993","-72.7394444","Monday-Friday: 8 a.m.-5 p.m.","https://www.baystatehealth.org/locations/tolosky-center/pulmonary-and-critical-care-medicine"
"https://www.baystatehealth.org","Baystate Pulmonary and Sleep Medicine - Greenfield","164 High Street","Greenfield","MA","01301","US","<MISSING>","413-773-2840","primary care","42.1309993","-72.7394444","Monday-Friday: 8 a.m.-5 p.m.","https://www.baystatehealth.org/locations/franklin-medical-center/pulmonary-and-sleep-medicine"
"https://www.baystatehealth.org","Baystate Radiation Oncology","3350 Main Street","Springfield","MA","01107","US","<MISSING>","413-794-9338","primary care","42.1309993","-72.7394444","Monday-Friday: 8 a.m.-5 p.m.","https://www.baystatehealth.org/locations/damour-center-for-cancer-care/radiation-oncology"
"https://www.baystatehealth.org","Baystate Radiology & Imaging - Enfield","113 Elm Street","Enfield","CT","06082","US","<MISSING>","413-827-7400","radiology","42.00042","-72.5810203","<MISSING>","https://www.baystatehealth.org/locations/radiology-enfield"
"https://www.baystatehealth.org","Baystate Radiology & Imaging - Longmeadow","21 Dwight Road","Longmeadow","MA","01106","US","<MISSING>","413-794-9336","radiology","42.0808031","-72.5397022","Monday-Friday: 8 a.m.-5 p.m.","https://www.baystatehealth.org/locations/health-and-wellness-center-longmeadow/radiology"
"https://www.baystatehealth.org","Baystate Radiology & Imaging - Northampton","325B King Street","Northampton","MA","01060","US","<MISSING>","413-827-7400","radiology","42.334858","-72.6360766","Monday-Friday: 8 a.m.-5 p.m. Open for walk-ins: Monday-Friday: 8 a.m.-8 p.m. Saturday and Sunday: 9 a.m.-5 p.m.","https://www.baystatehealth.org/locations/outpatient-center-northampton/radiology"
"https://www.baystatehealth.org","Baystate Radiology & Imaging - South Hadley","470 Granby Road","South Hadley","MA","01075","US","<MISSING>","413-827-7400","radiology","42.2336482","-72.5623203","Monday-Friday: 8 a.m.-5 p.m.","https://www.baystatehealth.org/locations/radiology"
"https://www.baystatehealth.org","Baystate Reference Laboratories - Agawam","2 South End Bridge Circle","Agawam","MA","01001","US","<MISSING>","413-322-4000","lab services","42.0819729","-72.5888459","Monday-Thursday: 7 a.m.-5 p.m. Closed for Lunch: 12:30 p.m.-1:30 p.m. Closed on Friday","https://www.baystatehealth.org/locations/brl-agawam"
"https://www.baystatehealth.org","Baystate Reference Laboratories - Amherst - Boltwood Walk","70 Boltwood Walk","Amherst","MA","01002","US","<MISSING>","413-322-4000","lab services","42.3768613","-72.518403","<MISSING>","https://www.baystatehealth.org/locations/brl-amherst-boltwood-walk"
"https://www.baystatehealth.org","Baystate Reference Laboratories - Amherst - Research Drive","Atkinson Building","Amherst","MA","01002","US","<MISSING>","413-322-4000","lab services","42.3516444","-72.4775442","Monday-Friday: 7 a.m.-3:30 p.m. Closed for Lunch: 12:30 p.m.-1:30 p.m.","https://www.baystatehealth.org/locations/brl-amherst-research-drive"
"https://www.baystatehealth.org","Baystate Reference Laboratories - Belchertown - Bridge Street","35 Bridge Street","Belchertown","MA","01007","US","<MISSING>","413-322-4000","lab services","42.2738962","-72.4108166","Monday-Friday: 7 a.m.-3:30 p.m. Closed for Lunch: 12:30 p.m.-1:30 p.m.","https://www.baystatehealth.org/locations/brl-belchertown-bridge-street"
"https://www.baystatehealth.org","Baystate Reference Laboratories - Belchertown - Sargent Street","95 Sargent Street","Belchertown","MA","01007","US","<MISSING>","413-322-4000","lab services","42.2879188","-72.3983871","Monday-Thursday: 7 a.m.-5 p.m. Friday: 7 a.m.-4:30 p.m.","https://www.baystatehealth.org/locations/brl-sargent-street"
"https://www.baystatehealth.org","Baystate Reference Laboratories - East Longmeadow","265 Benton Drive","East Longmeadow","MA","01028","US","<MISSING>","413-322-4000","lab services","42.0428032","-72.5290999","Monday-Friday: 8:30a.m.-5 p.m. Saturday: 8 a.m.-11:30 a.m.","https://www.baystatehealth.org/locations/brl-east-longmeadow-benton-drive"
"https://www.baystatehealth.org","Baystate Reference Laboratories - Fall River - Highland Avenue","484 Highland Avenue","Fall River","MA","02720","US","<MISSING>","413-322-4000","lab services","41.7122425","-71.1457216","Monday-Friday: 8 a.m.-4:30 p.m. Closed for Lunch: 12 p.m.-1 p.m.","https://www.baystatehealth.org/locations/brl-fall-river-highland-avenue"
"https://www.baystatehealth.org","Baystate Reference Laboratories - Fall River - Stetson Avenue","297 Stetson Avenue","Fall River","MA","02720","US","<MISSING>","413-322-4000","lab services","41.7103787","-71.1402474","Monday-Friday: 7 a.m.-3:30 p.m. Closed for Lunch: 12 p.m.-1 p.m.","https://www.baystatehealth.org/locations/brl-fall-river-new-boston-road"
"https://www.baystatehealth.org","Baystate Reference Laboratories - Foxborough","15 Payson Road","Foxborough","MA","02035","US","<MISSING>","413-322-4000","lab services","42.0764861","-71.2564778","Monday-Friday: 8 a.m.-4:30 p.m. Closed for Lunch: 12:30 p.m.-1 p.m.","https://www.baystatehealth.org/locations/brl-foxborough"
"https://www.baystatehealth.org","Baystate Reference Laboratories - Greenfield","48 Sanderson Street","Greenfield","MA","01301","US","<MISSING>","413-322-4000","lab services","42.5947798","-72.5934707","Monday-Friday: 8 a.m.-5 p.m.","https://www.baystatehealth.org/locations/brl-48-sanderson"
"https://www.baystatehealth.org","Baystate Reference Laboratories - Huntington","73 Russell Road","Huntington","MA","01050","US","<MISSING>","413-322-4000","lab services","42.2244836","-72.8709788","Monday-Friday: 8:30 a.m.-5 p.m. Closed for Lunch: 1:30-2:30 p.m.","https://www.baystatehealth.org/locations/brl-huntington"
"https://www.baystatehealth.org","Baystate Reference Laboratories - Hyde Park","1234 Hyde Park Avenue","Hyde Park","MA","02136","US","<MISSING>","800-778-5599","lab services","42.2567925","-71.1236381","Monday,Thursday, Friday: 8:30 a.m.-5 p.m. Tuesday and Wednesday: 8:30 a.m.-8 p.m.","https://www.baystatehealth.org/locations/brl-hyde-park"
"https://www.baystatehealth.org","Baystate Reference Laboratories - Lawrence","25 Marston Street","Lawrence","MA","01841","US","<MISSING>","800-778-5599","lab services","42.706943","-71.145573","Monday-Friday: 8 a.m.-4:30 p.m. Closed: 12:30 p.m.-1:30 p.m.","https://www.baystatehealth.org/locations/brl-lawrence"
"https://www.baystatehealth.org","Baystate Reference Laboratories - Longmeadow","21 Dwight Road","Longmeadow","MA","01106","US","<MISSING>","413-322-4000","lab services","42.0808031","-72.5397022","Monday, Thursday, Friday: 7 a.m.-5 p.m. Tuesday and Wednesday: 7 a.m.-6 p.m.","https://www.baystatehealth.org/locations/health-and-wellness-center-longmeadow/brl-longmeadow"
"https://www.baystatehealth.org","Baystate Reference Laboratories - North Andover","451 Andover Street","North Andover","MA","01845","US","<MISSING>","800-778-5599","lab services","42.6732531","-71.1267091","Monday-Thursday: 6:30 a.m.-4:30 p.m. Closed for Lunch: 12:30 p.m.-1:30 p.m.","https://www.baystatehealth.org/locations/brl-north-andover"
"https://www.baystatehealth.org","Baystate Reference Laboratories - Northampton - Hatfield Street","6 Hatfield Street","Northampton","MA","01060","US","<MISSING>","413-322-4000","lab services","42.3332053","-72.6566469","<MISSING>","https://www.baystatehealth.org/locations/brl-northampton-hatfield-street"
"https://www.baystatehealth.org","Baystate Reference Laboratories - Northampton - King Street","325B King Street","Northampton","MA","01060","US","<MISSING>","413-322-4000","lab services","42.334858","-72.6360766","Monday-Friday: 7 a.m.-5 p.m. Saturday: 8 a.m.-11:30 a.m.","https://www.baystatehealth.org/locations/outpatient-center-northampton/brl-king-street"
"https://www.baystatehealth.org","Baystate Reference Laboratories - Northborough","112 Main Street","Northborough","MA","01532","US","<MISSING>","800-778-5599","lab services","42.3211118","-71.6333796","Monday-Thursday: 8 a.m.-5 p.m. Closed for Lunch: 12:30 p.m.-1:30 p.m. Friday: 8 a.m.-11:30 a.m.","https://www.baystatehealth.org/locations/brl-northborough"
"https://www.baystatehealth.org","Baystate Reference Laboratories - Sharon","23 Pond Street","Sharon","MA","02067","US","<MISSING>","413-322-4000","lab services","42.122483","-71.1785727","Monday, Tuesday, Wednesday, Friday: 8 a.m.-5 p.m. Thursday: 8 a.m.- 8 p.m.","https://www.baystatehealth.org/locations/brl-sharon"
"https://www.baystatehealth.org","Baystate Reference Laboratories - South Hadley","470 Granby Road","South Hadley","MA","01075","US","<MISSING>","413-322-4000","lab services","42.2336482","-72.5623203","Monday-Friday: 7:30 a.m.-5 p.m.","https://www.baystatehealth.org/locations/brl-south-hadley"
"https://www.baystatehealth.org","Baystate Reference Laboratories - South Weymouth","70 Pleasant Street","South Weymouth","MA","02190","US","<MISSING>","800-778-5599","lab services","42.1734176","-70.9533332","Monday-Friday: 8 a.m.-4:30 p.m. Closed for Lunch: 12 p.m.-1 p.m.","https://www.baystatehealth.org/locations/brl-south-weymouth"
"https://www.baystatehealth.org","Baystate Reference Laboratories - Springfield - 100 Wason Avenue","100 Wason Avenue","Springfield","MA","01107","US","<MISSING>","413-322-4000","lab services","42.1251412","-72.6135978","Monday-Friday:8 a.m.-4:30 p.m.","https://www.baystatehealth.org/locations/brl-100--wason"
"https://www.baystatehealth.org","Baystate Reference Laboratories - Springfield - 3300 Main Street","3300 Main Street","Springfield","MA","01107","US","<MISSING>","413-322-4000","lab services","42.1229554","-72.6100348","Monday-Friday: 7 a.m.-5:30 p.m. Saturday: 7 a.m.-3:30 p.m. Sunday: 8 a.m.-12 p.m.","https://www.baystatehealth.org/locations/tolosky-center/brl-3300-main"
"https://www.baystatehealth.org","Baystate Reference Laboratories - Springfield - 3640 Main Street","3640 Main Street","Springfield","MA","01107","US","<MISSING>","413-322-4000","lab services","42.1271927","-72.6122789","Monday-Friday: 8:30 a.m.-4:30 p.m. Closed for Lunch: 12:30 p.m.-1:30 p.m.","https://www.baystatehealth.org/locations/brl-springfield-3640-main-street"
"https://www.baystatehealth.org","Baystate Reference Laboratories - Springfield - 50 Wason Avenue","50 Wason Avenue","Springfield","MA","01107","US","<MISSING>","413-322-4000","lab services","42.1248082","-72.6156713","Monday-Wednesday: 8 a.m.-5 p.m. Thursday: 8 a.m.-8 p.m. Friday: 8 a.m.-12 p.m.","https://www.baystatehealth.org/locations/childrens-specialty-center/brl-springfield-wason-avenue"
"https://www.baystatehealth.org","Baystate Reference Laboratories - Springfield - Carew Street","222 Carew Street","Springfield","MA","01104","US","<MISSING>","413-322-4000","lab services","42.1144743","-72.5960891","Monday-Friday: 8 a.m.-4:30 p.m.","https://www.baystatehealth.org/locations/brl-springfield-carew-street"
"https://www.baystatehealth.org","Baystate Reference Laboratories - Springfield - Chestnut Street","759 Chestnut Street","Springfield","MA","01199","US","<MISSING>","413-322-4000","lab services","42.1216158","-72.6037013","Monday, Tuesday, Wednesday, Friday: 8 a.m.-5 p.m. Thursday: 8 a.m.-8 p.m.","https://www.baystatehealth.org/locations/baystate-medical-center/brl-women-and-infants"
"https://www.baystatehealth.org","Baystate Reference Laboratories - Springfield - High Street","140 High Street","Springfield","MA","01105","US","<MISSING>","413-322-4000","lab services","42.1053761","-72.5793371","Monday, Tuesday, Wednesday, Friday: 8 a.m.-5 p.m. Thursday: 8 a.m.-8 p.m.","https://www.baystatehealth.org/locations/high-street-health-center/brl-springfield-140-high-street"
"https://www.baystatehealth.org","Baystate Reference Laboratories - Springfield - Liberty Street","125 Liberty Street","Springfield","MA","01103","US","<MISSING>","413-322-4000","lab services","42.1081417","-72.5932834","Monday-Friday: 8 a.m.-4:30 p.m. Closed for Lunch: 12 p.m.-1 p.m.","https://www.baystatehealth.org/locations/brl-springfield-liberty-street"
"https://www.baystatehealth.org","Baystate Reference Laboratories - Springfield - Medical Center Drive","2 Medical Center Drive","Springfield","MA","01107","US","<MISSING>","413-322-4000","lab services","42.1215649","-72.601547","Monday-Friday: 7 a.m.-5 p.m.","https://www.baystatehealth.org/locations/medical-office-building-springfield/brl-2-medical-center"
"https://www.baystatehealth.org","Baystate Reference Laboratories - Springfield - Worcester Street","827 Worcester Street","Springfield","MA","01151","US","<MISSING>","413-322-4000","lab services","42.1571549","-72.5156195","Wednesday: 7 a.m.-5 p.m. Saturday: Closed","https://www.baystatehealth.org/locations/brl-springfield-worcester-street"
"https://www.baystatehealth.org","Baystate Reference Laboratories - Turners Falls","8 Burnham Street","Turners Falls","MA","01376","US","<MISSING>","413-322-4000","lab services","42.5882276","-72.5735901","Monday-Friday: 8 a.m.-4 p.m.","https://www.baystatehealth.org/locations/brl-turners-falls"
"https://www.baystatehealth.org","Baystate Reference Laboratories - Ware","85 South Street","Ware","MA","01082","US","<MISSING>","413-322-4000","lab services","42.253672","-72.242387","Monday, Tuesday, Wednesday, Friday: 8 a.m.-5 p.m. Thursday: 8 a.m.-8 p.m. Saturday: 7:30 a.m.-12 p.m.","https://www.baystatehealth.org/locations/mary-lane-outpatient-center/brl-ware"
"https://www.baystatehealth.org","Baystate Reference Laboratories - West Bridgewater","711 West Center Street","West Bridgewater","MA","02379","US","<MISSING>","413-322-4000","lab services","42.0121497","-71.0517934","Monday-Friday: 7:30 a.m.-4 p.m. Closed for Lunch: 12 p.m.-1 p.m.","https://www.baystatehealth.org/locations/brl-west-bridgewater"
"https://www.baystatehealth.org","Baystate Reference Laboratories - West Roxbury","2081 Centre Street","West Roxbury","MA","02132","US","<MISSING>","800-778-5599","lab services","42.2790853","-71.1594961","Monday: 8 a.m.-5 p.m. Wednesday: 8 a.m.-7 p.m.","https://www.baystatehealth.org/locations/brl-west-roxbury"
"https://www.baystatehealth.org","Baystate Reference Laboratories - West Springfield","46 Daggett Drive","West Springfield","MA","01089","US","<MISSING>","413-322-4000","lab services","42.1318523","-72.6242971","Monday-Friday:8 a.m.-5 p.m.","https://www.baystatehealth.org/locations/brl-west-springfield"
"https://www.baystatehealth.org","Baystate Reference Laboratories - Westfield - 65 Springfield Road","65 Springfield Rd","Westfield","MA","01085","US","<MISSING>","413-322-4000","lab services","42.111426","-72.712843","Monday-Friday: 7:30 a.m.-4 p.m.","https://www.baystatehealth.org/locations/brl-westfield-65-springfield-road"
"https://www.baystatehealth.org","Baystate Reference Laboratories - Westfield - 75 Springfield Road","75 Springfield Rd","Westfield","MA","01085","US","<MISSING>","413-322-4000","lab services","42.1114281","-72.711906","<MISSING>","https://www.baystatehealth.org/locations/brl-westfield-75-springfield-road"
"https://www.baystatehealth.org","Baystate Reference Laboratories - Westfield - West Silver Street","115 West Silver Street","Westfield","MA","01085","US","<MISSING>","413-322-4000","lab services","42.1180277","-72.7590708","Monday-Friday: 6 a.m.-5 p.m. Saturday: 8 a.m.-12 p.m.","https://www.baystatehealth.org/locations/brl-westfield-west-silver-street"
"https://www.baystatehealth.org","Baystate Reference Laboratories - Wilbraham","2344 Boston Road","Wilbraham","MA","01095","US","<MISSING>","413-322-4000","lab services","42.1492352","-72.4535421","Monday-Friday: 7:30 a.m.-5 p.m.","https://www.baystatehealth.org/locations/brl-wilbraham"
"https://www.baystatehealth.org","Baystate Reference Laboratories - Worcester - Prescott Street","85 Prescott Street","Worcester","MA","01605","US","<MISSING>","413-322-4000","lab services","42.4701842","-72.6146786","Wednesday & Thursday: 8:30 a.m.-4:30 p.m. Closed for Lunch: 12:30 p.m.-1:30 p.m.","https://www.baystatehealth.org/locations/brl-worcester-prescott-street"
"https://www.baystatehealth.org","Baystate Reference Laboratories - Worcester - Queen Street","26 Queen Street","Worcester","MA","01610","US","<MISSING>","413-322-4000","lab services","42.2592515","-71.8146546","Monday, Wednesday, Friday: 8 a.m.-5:30 p.m. Tuesday, Thursday: 8 a.m.-7 p.m. Saturday: 9 a.m.-3 p.m.","https://www.baystatehealth.org/locations/brl-worcester-queen-street"
"https://www.baystatehealth.org","Baystate Rehabilitation Care - Agawam","200 Silver Street","Agawam","MA","01001","US","<MISSING>","413-794-3004","lab services","42.2592515","-71.8146546","Monday-Thursday: 7 a.m.-7 p.m. Friday: 7 a.m.-5 p.m.","https://www.baystatehealth.org/locations/rehabilitation-care-agawam"
"https://www.baystatehealth.org","Baystate Rehabilitation Care - Greenfield","48 Sanderson Street","Greenfield","MA","01301","US","<MISSING>","413-794-1150","lab services","42.2592515","-71.8146546","Monday-Thursday: 7:30 a.m.-6 p.m. Friday: 7:30 a.m.-4:30 p.m.","https://www.baystatehealth.org/locations/rehabilitation-care-greenfield"
"https://www.baystatehealth.org","Baystate Rehabilitation Care - Longmeadow","21 Dwight Road","Longmeadow","MA","01106","US","<MISSING>","413-795-5597","lab services","42.2592515","-71.8146546","Monday-Thursday: 7 a.m.-7 p.m. Friday: 7 a.m.-5 p.m.","https://www.baystatehealth.org/locations/health-and-wellness-center-longmeadow/rehabilitation-care"
"https://www.baystatehealth.org","Baystate Rehabilitation Care - Palmer","40 Wright Street","Palmer","MA","01069","US","<MISSING>","413-370-5254","lab services","42.2592515","-71.8146546","Monday-Thursday: 7 a.m.-6:30 p.m. Friday: 7 a.m.-5 p.m.","https://www.baystatehealth.org/locations/wing-hospital/rehabilitation-care"
"https://www.baystatehealth.org","Baystate Rehabilitation Care - South Hadley","470 Granby Road","South Hadley","MA","01075","US","<MISSING>","413-794-9920","lab services","42.2592515","-71.8146546","Monday-Thursday: 7 a.m.-7 p.m. Friday: 7 a.m.-5 p.m.","https://www.baystatehealth.org/locations/rehabilitation-care"
"https://www.baystatehealth.org","Baystate Rehabilitation Care - Springfield","360 Birnie Ave","Springfield","MA","01107","US","<MISSING>","413-794-1600","lab services","42.2592515","-71.8146546","Monday-Thursday: 7 a.m.-7 p.m. Friday: 7 a.m.-5 p.m.","https://www.baystatehealth.org/locations/rehabilitation-care-springfield"
"https://www.baystatehealth.org","Baystate Rehabilitation Care - Ware","85 South Street","Ware","MA","01082","US","<MISSING>","413-967-2180","lab services","42.2592515","-71.8146546","Monday, Tuesday, Thursday: 8 a.m.-6:30 p.m. Wednesday and Friday: 8 a.m.-4:30 p.m.","https://www.baystatehealth.org/locations/rehabilitation-care-ware"
"https://www.baystatehealth.org","Baystate Reproductive Medicine - Northampton","325B King Street","Northampton","MA","01060","US","<MISSING>","413-795-3378","lab services","42.2592515","-71.8146546","Monday-Friday: 8 a.m.-5 p.m.","https://www.baystatehealth.org/locations/outpatient-center-northampton/reproductive-medicine"
"https://www.baystatehealth.org","Baystate Reproductive Medicine - Springfield","3300 Main Street","Springfield","MA","01107","US","<MISSING>","413-795-3378","lab services","42.2592515","-71.8146546","Monday-Friday: 8 a.m.-5 p.m.","https://www.baystatehealth.org/locations/tolosky-center/reproductive-medicine"
"https://www.baystatehealth.org","Baystate Rheumatology","40 Wright Street","Palmer","MA","01069","US","<MISSING>","413-370-7889","lab services","42.2592515","-71.8146546","Monday-Thursday: 8:20 a.m.-5:20 p.m.","https://www.baystatehealth.org/locations/rheumatology-palmer"
"https://www.baystatehealth.org","Baystate Sleep Medicine - Greenfield","48 Sanderson Street","Greenfield","MA","01301","US","<MISSING>","413-794-5600","lab services","42.2592515","-71.8146546","Monday-Friday: 8 a.m.-5 p.m.","https://www.baystatehealth.org/locations/sleep-medicine-greenfield"
"https://www.baystatehealth.org","Baystate Sleep Medicine - Longmeadow","21 Dwight Road","Longmeadow","MA","01106","US","<MISSING>","413-794-5600","lab services","42.2592515","-71.8146546","Monday-Friday: 7:30 a.m.-5 p.m.","https://www.baystatehealth.org/locations/health-and-wellness-center-longmeadow/sleep-medicine-longmeadow"
"https://www.baystatehealth.org","Baystate Sleep Medicine - Northampton","325B King Street","Northampton","MA","01060","US","<MISSING>","413-794-5600","lab services","42.2592515","-71.8146546","Monday-Friday: 8 a.m.-5 p.m.","https://www.baystatehealth.org/locations/outpatient-center-northampton/sleep-medicine-northampton"
"https://www.baystatehealth.org","Baystate Sleep Medicine - Springfield","759 Chestnut Street","Springfield","MA","01199","US","<MISSING>","413-794-5600","lab services","42.2592515","-71.8146546","Monday-Friday: 8 a.m.-5 p.m.","https://www.baystatehealth.org/locations/baystate-medical-center/neurodiagnostics-and-sleep-center"
"https://www.baystatehealth.org","Baystate Specialty Pharmacy","3300 Main Street","Springfield","MA","01107","US","<MISSING>","855-865-5432","lab services","42.2592515","-71.8146546","Monday-Friday: 8 a.m.-6 p.m.","https://www.baystatehealth.org/locations/tolosky-center/specialty-pharmacy"
"https://www.baystatehealth.org","Baystate Surgical Oncology & Breast Specialists - Greenfield","48 Sanderson Street","Greenfield","MA","01301","US","<MISSING>","413-794-8899","lab services","42.2592515","-71.8146546","Monday-Friday: 7:30 a.m.-5 p.m.","https://www.baystatehealth.org/locations/surgical-oncology-breast-specialists-greenfield"
"https://www.baystatehealth.org","Baystate Surgical Oncology & Breast Specialists - Longmeadow","21 Dwight Road","Longmeadow","MA","01106","US","<MISSING>","413-794-8899","lab services","42.2592515","-71.8146546","Monday-Friday: 8 a.m.-5 p.m.","https://www.baystatehealth.org/locations/health-and-wellness-center-longmeadow/surgical-oncology-breast-specialists-longmeadow"
"https://www.baystatehealth.org","Baystate Surgical Oncology & Breast Specialists - Northampton","325B King Street","Northampton","MA","01060","US","<MISSING>","413-794-8899","lab services","42.2592515","-71.8146546","Monday-Friday: 7:30 a.m.-5 p.m.","https://www.baystatehealth.org/locations/outpatient-center-northampton/baystate-breast-surgery"
"https://www.baystatehealth.org","Baystate Surgical Oncology & Breast Specialists - Springfield","100 Wason Avenue","Springfield","MA","01107","US","<MISSING>","413-794-8899","lab services","42.2592515","-71.8146546","Monday-Friday: 8 a.m.-5 p.m.","https://www.baystatehealth.org/locations/breast-and-wellness-center/surgical-oncology-breast-specialists-springfield"
"https://www.baystatehealth.org","Baystate Surgical Oncology & Breast Specialists - Westfield","115 West Silver Street","Westfield","MA","01085","US","<MISSING>","413-794-8899","lab services","42.2592515","-71.8146546","Monday-Friday: 8 a.m.-4:30 p.m.","https://www.baystatehealth.org/locations/noble-hospital/surgical-oncology-and-breast-specialists"
"https://www.baystatehealth.org","Baystate Surgical Oncology - Northampton","325B King Street","Northampton","MA","01060","US","<MISSING>","413-794-9338","lab services","42.2592515","-71.8146546","Monday-Friday: 8 a.m.-4:30 p.m.","https://www.baystatehealth.org/locations/outpatient-center-northampton/surgical-oncology-northampton"
"https://www.baystatehealth.org","Baystate Surgical Oncology - Springfield - Main Street","3350 Main Street","Springfield","MA","01107","US","<MISSING>","413-794-9338","lab services","42.2592515","-71.8146546","Monday-Friday: 8 a.m.-5 p.m.","https://www.baystatehealth.org/locations/damour-center-for-cancer-care/surgical-oncology-springfield-main-street"
"https://www.baystatehealth.org","Baystate Surgical Oncology - Springfield - Wason Avenue","100 Wason Avenue","Springfield","MA","01107","US","<MISSING>","413-794-8899","lab services","42.2592515","-71.8146546","Monday-Friday: 8 a.m.-5 p.m.","https://www.baystatehealth.org/locations/breast-and-wellness-center/surgical-oncology-springfield-wason-avenue"
"https://www.baystatehealth.org","Baystate Thoracic Surgery - Northampton","325B King Street","Northampton","MA","01060","US","<MISSING>","413-794-8050","lab services","42.2592515","-71.8146546","Monday-Friday:8 a.m.-5 p.m.","https://www.baystatehealth.org/locations/outpatient-center-northampton/thoracic-surgery"
"https://www.baystatehealth.org","Baystate Thoracic Surgery - Springfield","2 Medical Center Drive","Springfield","MA","01107","US","<MISSING>","413-794-8050","lab services","42.2592515","-71.8146546","Monday-Friday:8 a.m.-5 p.m.","https://www.baystatehealth.org/locations/medical-office-building-springfield/thoracic-surgery"
"https://www.baystatehealth.org","Baystate Thoracic Surgery - Westfield","115 West Silver Street","Westfield","MA","01085","US","<MISSING>","413-794-8050","lab services","42.2592515","-71.8146546","Monday-Friday:8 a.m.-5 p.m.","https://www.baystatehealth.org/locations/thoracic-surgery"
"https://www.baystatehealth.org","Baystate Trauma and Acute Care Surgery - Springfield - Medical Center Drive","2 Medical Center Drive","Springfield","MA","01107","US","<MISSING>","413-794-8020","lab services","42.2592515","-71.8146546","Monday-Friday: 8 a.m.-5 p.m.","https://www.baystatehealth.org/locations/medical-office-building-springfield/trauma-surgery-office"
"https://www.baystatehealth.org","Baystate Travel Medicine - Longmeadow","21 Dwight Road","Longmeadow","MA","01106","US","<MISSING>","413-794-7015","lab services","42.2592515","-71.8146546","Wednesday: 8 a.m.-5 p.m.","https://www.baystatehealth.org/locations/health-and-wellness-center-longmeadow/travel-medicine-longmeadow"
"https://www.baystatehealth.org","Baystate Travel Medicine - Springfield","3300 Main Street","Springfield","MA","01107","US","<MISSING>","413-794-7015","lab services","42.2592515","-71.8146546","Monday-Thursday: 8 a.m.-6:30 p.m.","https://www.baystatehealth.org/locations/tolosky-center/travel-medicine-springfield"
"https://www.baystatehealth.org","Baystate Urgent Care - Northampton","325B King Street","Northampton","MA","01060","US","<MISSING>","413-387-4100","urgent care","42.334858","-72.6360766","Monday-Friday: 10 a.m.-8 p.m. Saturday and Sunday: 9 a.m.-5 p.m.","https://www.baystatehealth.org/locations/outpatient-center-northampton/urgent-care"
"https://www.baystatehealth.org","Baystate Urgent Care - Springfield","3400 Main Street","Springfield","MA","01107","US","<MISSING>","413-794-9560","urgent care","42.1242469","-72.610784","Monday-Friday: 10 a.m.-8 p.m. Saturday and Sunday: 9 a.m.-5 p.m.","https://www.baystatehealth.org/locations/urgent-care-springfield"
"https://www.baystatehealth.org","Baystate Urogynecology - Longmeadow","21 Dwight Road","Longmeadow","MA","01106","US","<MISSING>","413-795-8764","urgent care","42.1242469","-72.610784","Monday-Friday: 8 a.m.-5 p.m.","https://www.baystatehealth.org/locations/health-and-wellness-center-longmeadow/urogynecology-longmeadow"
"https://www.baystatehealth.org","Baystate Urogynecology - Northampton","325B King Street","Northampton","MA","01060","US","<MISSING>","413-795-8764","urgent care","42.1242469","-72.610784","Monday and Friday: 8 a.m.-5 p.m. Tuesday and Wednesday: 8 a.m.-8 p.m. Thursday: 9 a.m.-5 p.m.","https://www.baystatehealth.org/locations/outpatient-center-northampton/urogynecology"
"https://www.baystatehealth.org","Baystate Urogynecology - Springfield","3300 Main Street","Springfield","MA","01107","US","<MISSING>","413-795-8764","urgent care","42.1242469","-72.610784","Monday-Friday: 8 a.m.-5 p.m.","https://www.baystatehealth.org/locations/tolosky-center/urogynecology"
"https://www.baystatehealth.org","Baystate Urology - Greenfield","48 Sanderson Street","Greenfield","MA","01301","US","<MISSING>","413-773-2680","urgent care","42.1242469","-72.610784","Monday-Friday: 8 a.m.-5 p.m.","https://www.baystatehealth.org/locations/urology-greenfield"
"https://www.baystatehealth.org","Baystate Urology - Northampton","325B King Street","Northampton","MA","01060","US","<MISSING>","413-773-2680","urgent care","42.1242469","-72.610784","Monday-Friday: 8 a.m.-5 p.m.","https://www.baystatehealth.org/locations/outpatient-center-northampton/urology-northampton"
"https://www.baystatehealth.org","Baystate Vascular Services - Greenfield","164 High Street","Greenfield","MA","01301","US","<MISSING>","<MISSING>","urgent care","42.1242469","-72.610784","Monday-Friday: 8 a.m.-5 p.m.","https://www.baystatehealth.org/locations/franklin-medical-center/heart-and-vascular"
"https://www.baystatehealth.org","Baystate Vascular Services - Northampton","325B King Street","Northampton","MA","01060","US","<MISSING>","<MISSING>","urgent care","42.1242469","-72.610784","Monday-Friday: 8 a.m.-5 p.m.","https://www.baystatehealth.org/locations/outpatient-center-northampton/heart-and-vascular"
"https://www.baystatehealth.org","Baystate Vascular Services - Springfield","3500 Main Street","Springfield","MA","01107","US","<MISSING>","<MISSING>","urgent care","42.1242469","-72.610784","Monday-Friday: 8 a.m.-5 p.m.","https://www.baystatehealth.org/locations/vascular-services"
"https://www.baystatehealth.org","Baystate Wesson Women's Clinic","759 Chestnut Street","Springfield","MA","01199","US","<MISSING>","413-794-5307","urgent care","42.1242469","-72.610784","Monday, Tuesday, Friday: 7:30 a.m.-5 p.m. Wednesday and Thursday: 7:30 a.m.-8 p.m.","https://www.baystatehealth.org/locations/baystate-medical-center/wesson-womens-clinic"
"https://www.baystatehealth.org","Baystate Wesson Women's Group","3300 Main Street","Springfield","MA","01107","US","<MISSING>","413-794-7045","urgent care","42.1242469","-72.610784","Monday and Friday: 8 a.m.-5 p.m. Tuesday and Thursday: 8 a.m.-8 p.m. Thursday: 9 a.m.-5 p.m.","https://www.baystatehealth.org/locations/tolosky-center/wesson-womens-group"
"https://www.baystatehealth.org","Baystate Wing Hospital","40 Wright Street","Palmer","MA","01069","US","<MISSING>","413-283-7651","radiology","42.1694156","-72.341697","<MISSING>","https://www.baystatehealth.org/locations/wing-hospital"
"https://www.baystatehealth.org","Baystate Women's Health - Ludlow","34 Hubbard Street","Ludlow","MA","01056","US","<MISSING>","413-370-8699","radiology","42.1694156","-72.341697","Monday-Friday: 8 a.m.-5 p.m.","https://www.baystatehealth.org/locations/womens-health-ludlow"
"https://www.baystatehealth.org","Baystate Women's Health - Palmer","40 Wright Street","Palmer","MA","01069","US","<MISSING>","413-370-7886","radiology","42.1694156","-72.341697","Monday and Friday: 8 a.m.-5 p.m. Tuesday and Thursday: 8 a.m.-8 p.m. Thursday: 9 a.m.-5 p.m.","https://www.baystatehealth.org/locations/womens-health-palmer"
"https://www.baystatehealth.org","Baystate Women's Health - Westfield","57 Union Street","Westfield","MA","01085","US","<MISSING>","413-831-7960","radiology","42.1694156","-72.341697","Monday-Friday: 8 a.m.-5 p.m.","https://www.baystatehealth.org/locations/womens-health-westfield"
"https://www.baystatehealth.org","Baystate Wound Care and Hyperbaric Medicine Center - Greenfield","48 Sanderson Street","Greenfield","MA","01301","US","<MISSING>","413-773-2441","radiology","42.1694156","-72.341697","Monday-Friday: 8 a.m.-4 p.m.","https://www.baystatehealth.org/locations/wound-care-and-hyperbaric-medicine-center"
"https://www.baystatehealth.org","Baystate Wound Care and Hyperbaric Medicine Center - Springfield","759 Chestnut Street","Springfield","MA","01199","US","<MISSING>","413-794-8640","radiology","42.1694156","-72.341697","Monday-Friday: 7:30 a.m.-5 p.m.","https://www.baystatehealth.org/locations/baystate-medical-center/wound-care-and-hyperbaric-medicine-center"
"https://www.baystatehealth.org","Behavioral Health - Adult Partial Hospitalization Program - Westfield","115 West Silver Street","Westfield","MA","01085","US","<MISSING>","413-571-0177","radiology","42.1694156","-72.341697","Monday-Friday: 8 a.m.-4 p.m.","https://www.baystatehealth.org/locations/behavioral-health-adult-partial-hospitalization-program-westfield"
"https://www.baystatehealth.org","D'Amour Center For Cancer Care","3350 Main Street","Springfield","MA","01107","US","<MISSING>","413-794-9338","radiology","42.1694156","-72.341697","Monday-Friday: 8 a.m.-5 p.m.","https://www.baystatehealth.org/locations/damour-center-for-cancer-care"
"https://www.baystatehealth.org","Davis Family Heart And Vascular Center","759 Chestnut Street","Springfield","MA","01199","US","<MISSING>","800-377-4325","radiology","42.1694156","-72.341697","<MISSING>","https://www.baystatehealth.org/locations/baystate-medical-center/davis-family-heart-and-vascular-center"
"https://www.baystatehealth.org","Information & Technology Springfield 1550 Main Street","1550 Main Street","Springfield","MA","01199","US","<MISSING>","<MISSING>","radiology","42.1694156","-72.341697","<MISSING>","https://www.baystatehealth.org/locations/information-and-technology-1550-main"
"https://www.baystatehealth.org","Information & Technology Springfield 3601 Main Street","3601 Main Street","Springfield","MA","01199","US","<MISSING>","<MISSING>","radiology","42.1694156","-72.341697","<MISSING>","https://www.baystatehealth.org/locations/information-and-technology-3601-main"
"https://www.baystatehealth.org","Lynn Katz Oncology Unit","759 Chestnut Street","Springfield","MA","01199","US","<MISSING>","413-794-2727","radiology","42.1694156","-72.341697","<MISSING>","https://www.baystatehealth.org/locations/baystate-medical-center/lynn-katz-oncology-unit"
"https://www.baystatehealth.org","Medical Office Building","2 Medical Center Drive","Springfield","MA","01107","US","<MISSING>","413-794-0000","radiology","42.1694156","-72.341697","Monday-Friday: 7 a.m.-5 p.m.","https://www.baystatehealth.org/locations/medical-office-building-springfield"
"https://www.baystatehealth.org","New England Orthopedic Surgeons (NEOS)","300 Birnie Avenue","Springfield","MA","01107","US","<MISSING>","413-785-4666","radiology","42.1694156","-72.341697","Main Clinic Facility: 300 Birnie Avenue Springfield, MA Monday  Friday: 8:30 a.m.-5 p.m. Physical Therapy Services- 2 locations provided: 300 Birnie Avenue Springfield, MA 265 Benton Drive, Suite 104, East Longmeadow MA Monday-Thursday: 7 a.m.-7 p.m. Friday: 7 a.m.-5 p.m.","https://www.baystatehealth.org/locations/neos"
"https://www.baystatehealth.org","Pulmonary Rehabilitation","3300 Main Street","Springfield","MA","01199","US","<MISSING>","413-794-7026","radiology","42.1694156","-72.341697","Monday-Friday: 8:30 a.m.-5:30 p.m.","https://www.baystatehealth.org/locations/tolosky-center/pulmonary-rehabilitation"
"https://www.baystatehealth.org","Sadowsky Center for Children","759 Chestnut Street","Springfield","MA","01199","US","<MISSING>","413-794-9338","radiology","42.1694156","-72.341697","<MISSING>","https://www.baystatehealth.org/locations/baystate-medical-center/sadowsky-center-for-children"
"https://www.baystatehealth.org","Tolosky Center","3300 Main Street","Springfield","MA","01107","US","<MISSING>","<MISSING>","radiology","42.1229554","-72.6100348","<MISSING>","https://www.baystatehealth.org/locations/tolosky-center"
"https://www.baystatehealth.org","UMass Medical School - Baystate Campus","3601 Main Street","Springfield","MA","01199","US","<MISSING>","<MISSING>","radiology","42.1229554","-72.6100348","<MISSING>","https://www.baystatehealth.org/locations/umass-medical-school-baystate-campus"
