locator_domain,location_name,street_address,city,state,zip,country_code,store_number,phone,location_type,latitude,longitude,hours_of_operation
https://stores.barnesandnoble.com/stores?page=0&size=100&searchText=Huntsville%2C+AL&view=list&storeFilter=all,"Jones Valley Mall - Huntsville, AL","Jones Valley Mall, Valley Bend at Jones Farm Shopping Center, 2750 Carl T. Jones Parkway Suite 750",Huntsville,AL,35802,US,<MISSING>,256-885-0501,<MISSING>,<MISSING>,<MISSING>,"Store Hours:, Sun 10-8, Mon-Thu 10-9, Fri&Sat 9-10"
https://stores.barnesandnoble.com/stores?page=0&size=100&searchText=Huntsville%2C+AL&view=list&storeFilter=all,"Huntsville - Huntsville, AL","Huntsville, Suite 100, 300 The Bridge Street NW",Huntsville,AL,35806,US,<MISSING>,256-327-8700,<MISSING>,<MISSING>,<MISSING>,"Store Hours:, Sun 10-9, Mon-Thu 9-10, Fri&Sat 9-11"
https://stores.barnesandnoble.com/stores?page=0&size=100&searchText=Anchorage%2C+AK&view=list&storeFilter=all,"Anchorage - Anchorage, AK","Anchorage, 200 East Northern Lights Blvd",Anchorage,AK,99503,US,<MISSING>,907-279-7323,<MISSING>,<MISSING>,<MISSING>,"Store Hours:, Sun 9-9 & Mon-Sat 9-10"
https://stores.barnesandnoble.com/stores?page=0&size=100&searchText=Phoenix%2C+AZ&view=list&storeFilter=all,"Pima & Shea - Scottsdale, AZ","Pima & Shea, Scottsdale Fiesta Shopping Center, 10500 N. 90th Street",Scottsdale,AZ,85258,US,<MISSING>,480-391-0048,<MISSING>,<MISSING>,<MISSING>,"Store Hours:, Sun-Thu 9-8, Fri&Sat 9-9"
https://stores.barnesandnoble.com/stores?page=0&size=100&searchText=Phoenix%2C+AZ&view=list&storeFilter=all,"Metro - Phoenix, AZ","Metro, Metro Center, 10235 N Metro Parkway East",Phoenix,AZ,85051,US,<MISSING>,602-678-0088,<MISSING>,<MISSING>,<MISSING>,"Store Hours:, Sun 9-8, Mon-Sat 9-9"
https://stores.barnesandnoble.com/stores?page=0&size=100&searchText=Phoenix%2C+AZ&view=list&storeFilter=all,"Desert Ridge - Phoenix, AZ","Desert Ridge, Desert Ridge Marketplace, 21001 N. Tatum Blvd. Suite 42",Phoenix,AZ,85050,US,<MISSING>,480-538-8520,<MISSING>,<MISSING>,<MISSING>,"Store Hours:, Sun 10-8, Mon-Thu 10-9, Fri&Sat 10-10"
https://stores.barnesandnoble.com/stores?page=0&size=100&searchText=Phoenix%2C+AZ&view=list&storeFilter=all,"Tempe Marketplace - Tempe, AZ","Tempe Marketplace, 2000 E.Rio Salado Pkwy  #1032",Tempe,AZ,85281,US,<MISSING>,480-894-6954,<MISSING>,<MISSING>,<MISSING>,"Store Hours:, Sun 10-9, Mon-Thurs 9-9, Fri & Sat 9-10"
https://stores.barnesandnoble.com/stores?page=0&size=100&searchText=Phoenix%2C+AZ&view=list&storeFilter=all,"Happy Valley - Phoenix, AZ","Happy Valley, Happy Valley Towne Center, 2501 West Happy Valley Road Ste 20",Phoenix,AZ,85085,US,<MISSING>,623-780-3300,<MISSING>,<MISSING>,<MISSING>,"Store Hours:, Sun-Fri 10-8, Sat 10-9"
https://stores.barnesandnoble.com/stores?page=0&size=100&searchText=Phoenix%2C+AZ&view=list&storeFilter=all,"Arrowhead - Peoria, AZ","Arrowhead, 7685 West Bell Road",Peoria,AZ,85382,US,<MISSING>,623-487-9022,<MISSING>,<MISSING>,<MISSING>,"Store Hours:, Sun 10-9, Mon-Thu 9-9, Fri&Sat 9-10"
https://stores.barnesandnoble.com/stores?page=0&size=100&searchText=Phoenix%2C+AZ&view=list&storeFilter=all,"Chandler Fashion Mall - Chandler, AZ","Chandler Fashion Mall, 3111 W. Chandler Blvd #2054",Chandler,AZ,85226,US,<MISSING>,480-792-1312,<MISSING>,<MISSING>,<MISSING>,"Store Hours:, Sun 10-7, Mon-Sat 10-9"
https://stores.barnesandnoble.com/stores?page=0&size=100&searchText=Phoenix%2C+AZ&view=list&storeFilter=all,"Dana Park Village Square - Mesa, AZ","Dana Park Village Square, Village Square at Dana Park, 1758 South Val Vista Drive",Mesa,AZ,85204,US,<MISSING>,480-545-8507,<MISSING>,<MISSING>,<MISSING>,"Store Hours:, Sun 10-8, Mon-Sat 10-9"
https://stores.barnesandnoble.com/stores?page=0&size=100&searchText=Phoenix%2C+AZ&view=list&storeFilter=all,"Surprise Marketplace - Surprise, AZ","Surprise Marketplace, 13719 West Bell Road",Surprise,AZ,85374,US,<MISSING>,623-544-4435,<MISSING>,<MISSING>,<MISSING>,"Store Hours:, Sun-Thu 9-8, Fri&Sat 9-9"
https://stores.barnesandnoble.com/stores?page=0&size=100&searchText=Phoenix%2C+AZ&view=list&storeFilter=all,"Palm Valley Pavillions West - Goodyear, AZ","Palm Valley Pavillions West, 1446 N. Litchfield Road",Goodyear,AZ,85395,US,<MISSING>,623-935-0128,<MISSING>,<MISSING>,<MISSING>,"Store Hours:, Sun-Thu 9-9, Fri&Sat 9-10"
https://stores.barnesandnoble.com/stores?page=0&size=100&searchText=Phoenix%2C+AZ&view=list&storeFilter=all,"San Tan Village - Gilbert, AZ","San Tan Village, 2150 East Williams Field Rd #105",Gilbert,AZ,85295,US,<MISSING>,480-857-8033,<MISSING>,<MISSING>,<MISSING>,"Store Hours:, Sun 10-8, Mon-Thu 10-9, Fri&Sat 10-10"
https://stores.barnesandnoble.com/stores?page=0&size=100&searchText=Little Rock%2C+AR&view=list&storeFilter=all,"N. Little Rock - N. Little Rock, AR","N. Little Rock, The Other Center, 4000 McCain Blvd",N. Little Rock,AR,72116,US,<MISSING>,501-771-1124,<MISSING>,<MISSING>,<MISSING>,"Store Hours:, Sun 10-8, Mon-Sat 9-10"
https://stores.barnesandnoble.com/stores?page=0&size=100&searchText=Little Rock%2C+AR&view=list&storeFilter=all,"Little Rock - Little Rock, AR","Little Rock, 11500 Financial Ctr Pkwy",Little Rock,AR,72211,US,<MISSING>,501-954-7646,<MISSING>,<MISSING>,<MISSING>,"Store Hours:, Sun 9-9, Mon-Sat 9-10"
https://stores.barnesandnoble.com/stores?page=0&size=100&searchText=Los Angeles%2C+CA&view=list&storeFilter=all,"Media City Center - Burbank, CA","Media City Center, Burbank Town Center, 731 N San Fernando Blvd.",Burbank,CA,91502,US,<MISSING>,818-558-1383,<MISSING>,<MISSING>,<MISSING>,"Store Hours:, Sun-Thurs 10-10, Fri-Sat 10-11"
https://stores.barnesandnoble.com/stores?page=0&size=100&searchText=Los Angeles%2C+CA&view=list&storeFilter=all,"Glendale Americana - Glendale, CA","Glendale Americana, The Americana at Brand, 210 Americana Way",Glendale,CA,91210,US,<MISSING>,818-545-9146,<MISSING>,<MISSING>,<MISSING>,"Store Hours:, 10-11 Every Day"
https://stores.barnesandnoble.com/stores?page=0&size=100&searchText=Los Angeles%2C+CA&view=list&storeFilter=all,"Bookstar/Studio City - Studio City, CA","Bookstar/Studio City, Studio City Theatre, 12136 Ventura Blvd.",Studio City,CA,91604,US,<MISSING>,818-505-9528,<MISSING>,<MISSING>,<MISSING>,"Store Hours:, Sun 9-9, Mon-Sat 9-10"
https://stores.barnesandnoble.com/stores?page=0&size=100&searchText=Los Angeles%2C+CA&view=list&storeFilter=all,"The Grove at Farmers Market - Los Angeles, CA","The Grove at Farmers Market, 189 The Grove Drive Suite K 30",Los Angeles,CA,90036,US,<MISSING>,323-525-0270,<MISSING>,<MISSING>,<MISSING>,"Store Hours:, 10-11 Every Day"
https://stores.barnesandnoble.com/stores?page=0&size=100&searchText=Los Angeles%2C+CA&view=list&storeFilter=all,"Marina Del Rey - Marina Del Rey, CA","Marina Del Rey, 13400 Maxella",Marina Del Rey,CA,90292,US,<MISSING>,310-306-3213,<MISSING>,<MISSING>,<MISSING>,"Store Hours:, 9-10 Every Day"
https://stores.barnesandnoble.com/stores?page=0&size=100&searchText=Los Angeles%2C+CA&view=list&storeFilter=all,"Manhattan Beach - Manhattan Beach, CA","Manhattan Beach, Manhattan Gateway Shopping Center, 1800 Rosecrans Avenue Building B",Manhattan Beach,CA,90266,US,<MISSING>,310-725-7025,<MISSING>,<MISSING>,<MISSING>,"Store Hours:, 9-10 Every Day"
https://stores.barnesandnoble.com/stores?page=0&size=100&searchText=Los Angeles%2C+CA&view=list&storeFilter=all,"Calabasas - Calabasas, CA","Calabasas, The Commons at Calabasas Park, 4735 Commons Way",Calabasas,CA,91302,US,<MISSING>,818-222-0542,<MISSING>,<MISSING>,<MISSING>,"Store Hours:, Sun-Thu 9-9, Fri&Sat 9-10"
https://stores.barnesandnoble.com/stores?page=0&size=100&searchText=Los Angeles%2C+CA&view=list&storeFilter=all,"Del Amo - Torrance, CA","Del Amo, Del Amo Fashion Center, 21400 Hawthorne Blvd",Torrance,CA,90503,US,<MISSING>,310-370-5552,<MISSING>,<MISSING>,<MISSING>,"Store Hours:, Sun-Wed 9-10, Thurs-Sat 9-11"
https://stores.barnesandnoble.com/stores?page=0&size=100&searchText=Los Angeles%2C+CA&view=list&storeFilter=all,"Valencia - Santa Clarita, CA","Valencia, Creekside Place, 23630 Valencia Blvd.",Santa Clarita,CA,91355,US,<MISSING>,661-254-6604,<MISSING>,<MISSING>,<MISSING>,"Store Hours:, 9-10 Every Day"
https://stores.barnesandnoble.com/stores?page=0&size=100&searchText=Los Angeles%2C+CA&view=list&storeFilter=all,"Carson & 605 - Long Beach, CA","Carson & 605, Long Beach Towne Center, 7651 Carson St",Long Beach,CA,90808,US,<MISSING>,562-938-8330,<MISSING>,<MISSING>,<MISSING>,"Store Hours:, Sun 10-9, Mon-Thu 9-9, Fri&Sat 9-10"
https://stores.barnesandnoble.com/stores?page=0&size=100&searchText=Los Angeles%2C+CA&view=list&storeFilter=all,"Glendora - Glendora, CA","Glendora, 1315 E Gladstone Street",Glendora,CA,91740,US,<MISSING>,909-592-2873,<MISSING>,<MISSING>,<MISSING>,"Store Hours:, 9-10 Every Day"
https://stores.barnesandnoble.com/stores?page=0&size=100&searchText=Los Angeles%2C+CA&view=list&storeFilter=all,"Fullerton - Fullerton, CA","Fullerton, Amerige Heights Town Center, 1923 West Malvern Avenue",Fullerton,CA,92833,US,<MISSING>,714-871-9855,<MISSING>,<MISSING>,<MISSING>,"Store Hours:, Sun-Thu 9-9, Fri&Sat 9-10"
https://stores.barnesandnoble.com/stores?page=0&size=100&searchText=Los Angeles%2C+CA&view=list&storeFilter=all,"Long Beach - Long Beach, CA","Long Beach, Marina Pacifica Mall, 6326 East Pacific Coast Hwy",Long Beach,CA,90803,US,<MISSING>,562-431-2253,<MISSING>,<MISSING>,<MISSING>,"Store Hours:, Sun 10-8, Mon-Thu 9-9, Fri&Sat 10-10"
https://stores.barnesandnoble.com/stores?page=0&size=100&searchText=Los Angeles%2C+CA&view=list&storeFilter=all,"Thousand Oaks - Thousand Oaks, CA","Thousand Oaks, 160 S. Westlake Blvd.",Thousand Oaks,CA,91362,US,<MISSING>,805-446-2820,<MISSING>,<MISSING>,<MISSING>,"Store Hours:, Sun 9-9, Mon-Thu 9-10, Fri&Sat 9-11"
https://stores.barnesandnoble.com/stores?page=0&size=100&searchText=Los Angeles%2C+CA&view=list&storeFilter=all,"Palmdale - Palmdale, CA","Palmdale, The Marketplace at Palmdale, 39228 10th Street West",Palmdale,CA,93551,US,<MISSING>,661-272-9958,<MISSING>,<MISSING>,<MISSING>,"Store Hours:, 9-10 Every Day"
https://stores.barnesandnoble.com/stores?page=0&size=100&searchText=Los Angeles%2C+CA&view=list&storeFilter=all,"Huntington Beach - Huntington Beach, CA","Huntington Beach, Bella Terra, 7881 Edinger Ave. #110",Huntington Beach,CA,92647,US,<MISSING>,714-897-8781,<MISSING>,<MISSING>,<MISSING>,"Store Hours:, Sun-Thu 9-9, Fri&Sat 9-10"
https://stores.barnesandnoble.com/stores?page=0&size=100&searchText=Los Angeles%2C+CA&view=list&storeFilter=all,"Chino Hills - Chino Hills, CA","Chino Hills, 3625 Grand Ave",Chino Hills,CA,91709,US,<MISSING>,909-464-1457,<MISSING>,<MISSING>,<MISSING>,"Store Hours:, Sun 10-8, Mon-Thu 9-9, Fri&Sat 10-9"
https://stores.barnesandnoble.com/stores?page=0&size=100&searchText=Los Angeles%2C+CA&view=list&storeFilter=all,"Montclair Place - Montclair, CA","Montclair Place, 5183 Montclair Plaza Lane",Montclair,CA,91763,US,<MISSING>,909-399-1966,<MISSING>,<MISSING>,<MISSING>,"Store Hours:, Sun 10-8, Mon-Thu 9-10, Fri&Sat 9-11"
https://stores.barnesandnoble.com/stores?page=0&size=100&searchText=Los Angeles%2C+CA&view=list&storeFilter=all,"Orange - Orange, CA","Orange, Orange Town & Country, 791 South Main Street Suite 100",Orange,CA,92868,US,<MISSING>,714-558-0028,<MISSING>,<MISSING>,<MISSING>,"Store Hours:, Sun 10-9, Mon-Thurs 9-9, Fri& Sat 10-9"
https://stores.barnesandnoble.com/stores?page=0&size=100&searchText=Los Angeles%2C+CA&view=list&storeFilter=all,"Tustin - Irvine, CA","Tustin, The Market Place, 13712 Jamboree Road",Irvine,CA,92602,US,<MISSING>,714-508-9707,<MISSING>,<MISSING>,<MISSING>,"Store Hours:, Sun 10-9, Mon-Thu 9-9, Fri&Sat 10-9"
https://stores.barnesandnoble.com/stores?page=0&size=100&searchText=Los Angeles%2C+CA&view=list&storeFilter=all,"Rancho Cucamonga - Rancho Cucamonga, CA","Rancho Cucamonga, 11090 Foothill Blvd",Rancho Cucamonga,CA,91730,US,<MISSING>,909-980-5586,<MISSING>,<MISSING>,<MISSING>,"Store Hours:, Sun 10-8, Mon-Sat 9-9"
https://stores.barnesandnoble.com/stores?page=0&size=100&searchText=Los Angeles%2C+CA&view=list&storeFilter=all,"Irvine - Irvine, CA","Irvine, 4600 Barranca Parkway",Irvine,CA,92604,US,<MISSING>,949-857-0322,<MISSING>,<MISSING>,<MISSING>,"Store Hours:, Sun 10-8, Mon-Sat 10-9"
https://stores.barnesandnoble.com/stores?page=0&size=100&searchText=Los Angeles%2C+CA&view=list&storeFilter=all,"Fashion Island - Newport Beach, CA","Fashion Island, Fashion Island Mall, 401 Newport Center Drive Suite A215",Newport Beach,CA,92660,US,<MISSING>,949-718-0109,<MISSING>,<MISSING>,<MISSING>,"Store Hours:, Sun 10-8, Mon-Sat 9-9"
https://stores.barnesandnoble.com/stores?page=0&size=100&searchText=Los Angeles%2C+CA&view=list&storeFilter=all,"Spectrum - Irvine, CA","Spectrum, Irvine Spectrum Center, 728 Spectrum Center Drive",Irvine,CA,92618,US,<MISSING>,949-585-0233,<MISSING>,<MISSING>,<MISSING>,"Store Hours:, 9-10 Every Day"
https://stores.barnesandnoble.com/stores?page=0&size=100&searchText=Beverly Hills%2C+CA&view=list&storeFilter=all,"Ventura - Ventura, CA","Ventura, Ventura Gateway, 4820 Telephone Road",Ventura,CA,93003,US,<MISSING>,805-339-0990,<MISSING>,<MISSING>,<MISSING>,"Store Hours:, Sun-Thu 9-10, Fri&Sat 9-11"
https://stores.barnesandnoble.com/stores?page=0&size=100&searchText=Denver%2C+CO&view=list&storeFilter=all,"Aurora - Aurora, CO","Aurora, Aurora City Center, 170 S. Abilene St.",Aurora,CO,80012,US,<MISSING>,303-340-4475,<MISSING>,<MISSING>,<MISSING>,"Store Hours:, Sun 10-8, Mon-Thu 9-9, Fri&Sat 9-10"
https://stores.barnesandnoble.com/stores?page=0&size=100&searchText=Denver%2C+CO&view=list&storeFilter=all,"Co. Blvd II - Glendale, CO","Co. Blvd II, 960 S Colorado Blvd",Glendale,CO,80246,US,<MISSING>,303-691-2998,<MISSING>,<MISSING>,<MISSING>,"Store Hours:, 9-10 Every Day"
https://stores.barnesandnoble.com/stores?page=0&size=100&searchText=Denver%2C+CO&view=list&storeFilter=all,"Thorncreek Shopping Ctr - Thornton, CO","Thorncreek Shopping Ctr, 701 E. 120th Avenue",Thornton,CO,80233,US,<MISSING>,720-872-2619,<MISSING>,<MISSING>,<MISSING>,"Store Hours:, Sun 10-9, Mon-Thu 9-9, Fri&Sat 9-10"
https://stores.barnesandnoble.com/stores?page=0&size=100&searchText=Denver%2C+CO&view=list&storeFilter=all,"Westminster - Westminster, CO","Westminster, 9370 Sheridan Blvd",Westminster,CO,80030,US,<MISSING>,303-426-7733,<MISSING>,<MISSING>,<MISSING>,"Store Hours:, Sun 10-9, Mon-Sat 9-10"
https://stores.barnesandnoble.com/stores?page=0&size=100&searchText=Denver%2C+CO&view=list&storeFilter=all,"Lone Tree - Lone Tree, CO","Lone Tree, Shoppes at the Meadows, 8374 S. Willow Street",Lone Tree,CO,80124,US,<MISSING>,303-706-9660,<MISSING>,<MISSING>,<MISSING>,"Store Hours:, 9-10 Every Day"
https://stores.barnesandnoble.com/stores?page=0&size=100&searchText=Denver%2C+CO&view=list&storeFilter=all,"Southlands Town Center - Aurora, CO","Southlands Town Center, 6300 S. Main Street Suite N101",Aurora,CO,80016,US,<MISSING>,303-766-3069,<MISSING>,<MISSING>,<MISSING>,"Store Hours:, Sun 9-8, Mon-Thu 9-9, Fri&Sat 9-10"
https://stores.barnesandnoble.com/stores?page=0&size=100&searchText=Denver%2C+CO&view=list&storeFilter=all,"West Village - Lakewood, CO","West Village, Denver West Village, 14347 West Colfax Avenue",Lakewood,CO,80401,US,<MISSING>,303-215-9060,<MISSING>,<MISSING>,<MISSING>,"Store Hours:, Sun 10-8, Mon-Sat 9-9"
https://stores.barnesandnoble.com/stores?page=0&size=100&searchText=Denver%2C+CO&view=list&storeFilter=all,"Denver - Littleton, CO","Denver, Chanson Plaza, 8136 West Bowles Avenue",Littleton,CO,80123,US,<MISSING>,303-948-9565,<MISSING>,<MISSING>,<MISSING>,"Store Hours:, Sun-Thu 9-9, Fri&Sat 9-10"
https://stores.barnesandnoble.com/stores?page=0&size=100&searchText=Denver%2C+CO&view=list&storeFilter=all,"Crossroads Commons - Boulder, CO","Crossroads Commons, 2999 Pearl Street",Boulder,CO,80301,US,<MISSING>,303-444-0349,<MISSING>,<MISSING>,<MISSING>,"Store Hours:, Sun 10-9, Mon-Sat 9-10"
https://stores.barnesandnoble.com/stores?page=0&size=100&searchText=Denver%2C+CO&view=list&storeFilter=all,"The Promenade Shops at Centerra - Loveland, CO","The Promenade Shops at Centerra, The Shops at Centerra, 5835 Sky Pond Drive",Loveland,CO,80537,US,<MISSING>,970-663-9473,<MISSING>,<MISSING>,<MISSING>,"Store Hours:, Sun 10-8, Mon-Thu 9-9, Fri&Sat 9-10"
https://stores.barnesandnoble.com/stores?page=0&size=100&searchText=Hartford%2C+CT&view=list&storeFilter=all,"West Hartford - West Hartford, CT","West Hartford, Blue Back Square, 60 Isham Road",West Hartford,CT,06107,US,<MISSING>,860-236-9900,<MISSING>,<MISSING>,<MISSING>,"Store Hours:, Sun 11-8, Mon-Thu 10-9, Fri&Sat 10-10"
https://stores.barnesandnoble.com/stores?page=0&size=100&searchText=Hartford%2C+CT&view=list&storeFilter=all,"Farmington - Farmington, CT","Farmington, 1599 South East Rd",Farmington,CT,06032,US,<MISSING>,860-678-9494,<MISSING>,<MISSING>,<MISSING>,"Store Hours:, Sun 10-8, Mon-Thu 9-9, Fri&Sat 9-10"
https://stores.barnesandnoble.com/stores?page=0&size=100&searchText=Hartford%2C+CT&view=list&storeFilter=all,"Somerset Square - Glastonbury, CT","Somerset Square, 175 Glastonbury Blvd.",Glastonbury,CT,06033,US,<MISSING>,860-657-1636,<MISSING>,<MISSING>,<MISSING>,"Store Hours:, Sun 9-8, Mon-Thu 9-9, Fri&Sat 9-10"
https://stores.barnesandnoble.com/stores?page=0&size=100&searchText=Hartford%2C+CT&view=list&storeFilter=all,"Buckland Hills Mall - Manchester, CT","Buckland Hills Mall, The Shoppes at Buckland Hills, 270 Buckland Hills Dr. Suite 1024",Manchester,CT,06042,US,<MISSING>,860-648-1008,<MISSING>,<MISSING>,<MISSING>,"Store Hours:, Sun 10-7, Mon-Sat 9-9"
https://stores.barnesandnoble.com/stores?page=0&size=100&searchText=Hartford%2C+CT&view=list&storeFilter=all,"Canton - Canton, CT","Canton, The Shoppes at Farmington Valley, 110 Albany Tpk #305",Canton,CT,06019,US,<MISSING>,860-693-0115,<MISSING>,<MISSING>,<MISSING>,"Store Hours:, Sun 9-8, Mon-Thu 9-9, Fri&Sat 9-10"
https://stores.barnesandnoble.com/stores?page=0&size=100&searchText=Hartford%2C+CT&view=list&storeFilter=all,"Enfield - Enfield, CT","Enfield, Enfield Commons, 25 Hazard Ave",Enfield,CT,06082,US,<MISSING>,860-745-7315,<MISSING>,<MISSING>,<MISSING>,"Store Hours:, Sun 9-8, Mon-Thu 9-9, Fri&Sat 9-10"
https://stores.barnesandnoble.com/stores?page=0&size=100&searchText=Hartford%2C+CT&view=list&storeFilter=all,"Waterbury - Waterbury, CT","Waterbury, Brass Mill Commons, 235 Union Street",Waterbury,CT,06706,US,<MISSING>,203-759-7125,<MISSING>,<MISSING>,<MISSING>,"Store Hours:, Sun 10-7, Mon-Sat 9-9"
https://stores.barnesandnoble.com/stores?page=0&size=100&searchText=Hartford%2C+CT&view=list&storeFilter=all,"Holyoke - Holyoke, MA","Holyoke, 7 Holyoke Street",Holyoke,MA,01040,US,<MISSING>,413-532-3200,<MISSING>,<MISSING>,<MISSING>,"Store Hours:, Sun 10-7, Mon-Sat 9-10"
https://stores.barnesandnoble.com/stores?page=0&size=100&searchText=Hartford%2C+CT&view=list&storeFilter=all,"North Haven - North Haven, CT","North Haven, North Haven Crossing, 470 Universal Drive North",North Haven,CT,06473,US,<MISSING>,203-234-1805,<MISSING>,<MISSING>,<MISSING>,"Store Hours:, Sun-Thu 9-9, Fri&Sat 9-10"
https://stores.barnesandnoble.com/stores?page=0&size=100&searchText=Hartford%2C+CT&view=list&storeFilter=all,"Hadley - Hadley, MA","Hadley, Mountain Farms, 335 Russell Street",Hadley,MA,01035,US,<MISSING>,413-584-2558,<MISSING>,<MISSING>,<MISSING>,"Store Hours:, Sun 10-8, Mon-Thu 9-9, Fri&Sat 9-10"
https://stores.barnesandnoble.com/stores?page=0&size=100&searchText=Hartford%2C+CT&view=list&storeFilter=all,"Milford - Milford, CT","Milford, 1375 Boston Post Road",Milford,CT,06460,US,<MISSING>,203-301-0371,<MISSING>,<MISSING>,<MISSING>,"Store Hours:, Sun 10-7, Mon-Thu 9-9, Fri&Sat 9-10"
https://stores.barnesandnoble.com/stores?page=0&size=100&searchText=Hartford%2C+CT&view=list&storeFilter=all,"Danbury Square - Danbury, CT","Danbury Square, 15 Backus Ave",Danbury,CT,06810,US,<MISSING>,203-730-2733,<MISSING>,<MISSING>,<MISSING>,"Store Hours:, Sun 10-7, Mon-Thu 9-9, Fri&Sat 9-10"
https://stores.barnesandnoble.com/stores?page=0&size=100&searchText=Dover%2C+DE&view=list&storeFilter=all,"Christiana Mall - Newark, DE","Christiana Mall, 340 Christiana Mall",Newark,DE,19702,US,<MISSING>,302-369-7050,<MISSING>,<MISSING>,<MISSING>,"Store Hours:, Sun 10-7, Mon-Thu 9-9, Fri&Sat 9-10"
https://stores.barnesandnoble.com/stores?page=0&size=100&searchText=Dover%2C+DE&view=list&storeFilter=all,"Wilmington - Concord Square - Wilmington, DE","Wilmington - Concord Square, 4209 Concord Pike",Wilmington,DE,19803,US,<MISSING>,302-252-0997,<MISSING>,<MISSING>,<MISSING>,"Store Hours:, Sun 10-7, Mon-Fri 9-9, Sat 9-10"
https://stores.barnesandnoble.com/stores?page=0&size=100&searchText=Washington%2C+DC&view=list&storeFilter=all,"Potomac - Alexandria, VA","Potomac, Potomac Yard, 3651 Jefferson Davis Hwy",Alexandria,VA,22305,US,<MISSING>,703-299-9124,<MISSING>,<MISSING>,<MISSING>,"Store Hours:, Sun 9-8, Mon-Sat 9-10"
https://stores.barnesandnoble.com/stores?page=0&size=100&searchText=Washington%2C+DC&view=list&storeFilter=all,"Clarendon Market Common - Arlington, VA","Clarendon Market Common, 2800 Clarendon Blvd. Suite 500",Arlington,VA,22201,US,<MISSING>,703-248-8244,<MISSING>,<MISSING>,<MISSING>,"Store Hours:, Sun 10-9, Mon-Sat 9-10"
https://stores.barnesandnoble.com/stores?page=0&size=100&searchText=Washington%2C+DC&view=list&storeFilter=all,"Seven Corners - Falls Church, VA","Seven Corners, 6260 Seven Corners Center",Falls Church,VA,22044,US,<MISSING>,703-536-0774,<MISSING>,<MISSING>,<MISSING>,"Store Hours:, Sun 10-8, Mon-Sat 10-9"
https://stores.barnesandnoble.com/stores?page=0&size=100&searchText=Washington%2C+DC&view=list&storeFilter=all,"Springfield VA - Springfield, VA","Springfield VA, Loisdale Center, 6646 Loisdale Road",Springfield,VA,22150,US,<MISSING>,703-971-5383,<MISSING>,<MISSING>,<MISSING>,"Store Hours:, Sun 10-9, Mon-Thu 9-9, Fri&Sat 9-10"
https://stores.barnesandnoble.com/stores?page=0&size=100&searchText=Washington%2C+DC&view=list&storeFilter=all,"Tysons Corner Mall - McLean, VA","Tysons Corner Mall, Tysons Corner Center, 7851 L. Tysons Corner Center",McLean,VA,22102,US,<MISSING>,703-506-2937,<MISSING>,<MISSING>,<MISSING>,"Store Hours:, Sun 10-8, Mon-Thu 10-9:30, Fri&Sat 10-10"
https://stores.barnesandnoble.com/stores?page=0&size=100&searchText=Washington%2C+DC&view=list&storeFilter=all,"Mosaic - Fairfax, VA","Mosaic, Mosaic District, 2921 District Ave Suite 180",Fairfax,VA,22031,US,<MISSING>,703-245-9260,<MISSING>,<MISSING>,<MISSING>,"Store Hours:, Sun 8-7, Mon-Sat 8-9"
https://stores.barnesandnoble.com/stores?page=0&size=100&searchText=Washington%2C+DC&view=list&storeFilter=all,"Rockville Pike - Rockville, MD","Rockville Pike, Montrose Crossing, 12089 Rockville Pike",Rockville,MD,20852,US,<MISSING>,301-881-0237,<MISSING>,<MISSING>,<MISSING>,"Store Hours:, 9-10 Every Day"
https://stores.barnesandnoble.com/stores?page=0&size=100&searchText=Washington%2C+DC&view=list&storeFilter=all,"Bowie - Bowie, MD","Bowie, Bowie Town Center, 15455 Emerald Way",Bowie,MD,20716,US,<MISSING>,301-809-1552,<MISSING>,<MISSING>,<MISSING>,"Store Hours:, Sun 10-8, Mon-Thu 10-9, Fri&Sat 10-10"
https://stores.barnesandnoble.com/stores?page=0&size=100&searchText=Washington%2C+DC&view=list&storeFilter=all,"Fairfax - Fairfax, VA","Fairfax, Fair Lakes Promenade, 12193 Fair Lakes Promenade Drive",Fairfax,VA,22033,US,<MISSING>,703-278-0300,<MISSING>,<MISSING>,<MISSING>,"Store Hours:, Sun 10-9, Mon-Thu 9-9, Fri&Sat 9-10"
https://stores.barnesandnoble.com/stores?page=0&size=100&searchText=Washington%2C+DC&view=list&storeFilter=all,"Gaithersburg - Gaithersburg, MD","Gaithersburg, Washingtonian Center, 21 Grand Corner Ave.",Gaithersburg,MD,20878,US,<MISSING>,301-721-0860,<MISSING>,<MISSING>,<MISSING>,"Store Hours:, Sun-Thur 10-9, Fri&Sat 10-10"
https://stores.barnesandnoble.com/stores?page=0&size=100&searchText=Washington%2C+DC&view=list&storeFilter=all,"The Mall In Columbia - Columbia, MD","The Mall In Columbia, Mall in Columbia, 10300 Little Patuxent Pkwy",Columbia,MD,21044,US,<MISSING>,410-423-3022,<MISSING>,<MISSING>,<MISSING>,"Store Hours:, Sun 10-7, Mon-Thu 9-9:30, Fri&Sat 9-10"
https://stores.barnesandnoble.com/stores?page=0&size=100&searchText=Washington%2C+DC&view=list&storeFilter=all,"Annapolis - Annapolis, MD","Annapolis, 2516 Solomons Island Rd.",Annapolis,MD,21401,US,<MISSING>,410-573-1115,<MISSING>,<MISSING>,<MISSING>,"Store Hours:, Sun-Thu 9-9, Fri&Sat 9-10"
https://stores.barnesandnoble.com/stores?page=0&size=100&searchText=Washington%2C+DC&view=list&storeFilter=all,"VA/Ashburn/One Loudoun - Ashburn, VA","VA/Ashburn/One Loudoun, 20427 Exchange St",Ashburn,VA,20147,US,<MISSING>,571-298-8729,<MISSING>,<MISSING>,<MISSING>,"Store Hours:, 9-10 Every Day"
https://stores.barnesandnoble.com/stores?page=0&size=100&searchText=Washington%2C+DC&view=list&storeFilter=all,"Ellicott City - Ellicott City, MD","Ellicott City, Long Gate Shopping Center, 4300 Montgomery Road",Ellicott City,MD,21043,US,<MISSING>,410-203-9001,<MISSING>,<MISSING>,<MISSING>,"Store Hours:, Sun Thu 9-9, Fri&Sat 9-10"
https://stores.barnesandnoble.com/stores?page=0&size=100&searchText=Washington%2C+DC&view=list&storeFilter=all,"Manassas - Manassas, VA","Manassas, Westgate Plaza, 8117 Sudley Road",Manassas,VA,20109,US,<MISSING>,703-393-0910,<MISSING>,<MISSING>,<MISSING>,"Store Hours:, 10-9 Every Day"
https://stores.barnesandnoble.com/stores?page=0&size=100&searchText=Washington%2C+DC&view=list&storeFilter=all,"Power Plant - Baltimore, MD","Power Plant, The Power Plant, 601 E. Pratt Street",Baltimore,MD,21202,US,<MISSING>,410-385-1709,<MISSING>,<MISSING>,<MISSING>,"Store Hours:, Sun-Thu 10-9, Fri&Sat 10-10"
https://stores.barnesandnoble.com/stores?page=0&size=100&searchText=Washington%2C+DC&view=list&storeFilter=all,"Pikesville - Baltimore, MD","Pikesville, 1819 Reisterstown Rd.",Baltimore,MD,21208,US,<MISSING>,410-415-5758,<MISSING>,<MISSING>,<MISSING>,"Store Hours:, Sun 10-9, Mon-Sat 9-10"
https://stores.barnesandnoble.com/stores?page=0&size=100&searchText=Washington%2C+DC&view=list&storeFilter=all,"Francis Scott Key Mall - Frederick, MD","Francis Scott Key Mall, 5500 Buckeystown Pike",Frederick,MD,21703,US,<MISSING>,301-698-0121,<MISSING>,<MISSING>,<MISSING>,"Store Hours:, Sun 10-7, Mon-Thu 9-9, Fri&Sat 9-10"
https://stores.barnesandnoble.com/stores?page=0&size=100&searchText=Washington%2C+DC&view=list&storeFilter=all,"White Marsh - Baltimore, MD","White Marsh, The Avenue @ White Marsh, 8123 Honeygo Blvd. Suite E",Baltimore,MD,21236,US,<MISSING>,410-933-9670,<MISSING>,<MISSING>,<MISSING>,"Store Hours:, Sun-Thu 9-9, Fri&Sat 9-10"
https://stores.barnesandnoble.com/stores?page=0&size=100&searchText=Washington%2C+DC&view=list&storeFilter=all,"Fredericksburg/ Central Park - Fredericksburg, VA","Fredericksburg/ Central Park, 1220 Carl D. Silver Parkway",Fredericksburg,VA,22401,US,<MISSING>,540-785-3504,<MISSING>,<MISSING>,<MISSING>,"Store Hours:, Sun 11-7, Mon-Thu 10-9, Fri&Sat 10-9"
https://stores.barnesandnoble.com/stores?page=0&size=100&searchText=Pensacola%2C+FL&view=list&storeFilter=all,"Pensacola - Pensacola, FL","Pensacola, The Cordova Crossing, 1200 Airport Blvd.",Pensacola,FL,32504,US,<MISSING>,850-969-9554,<MISSING>,<MISSING>,<MISSING>,"Store Hours:, Sun 10-9, Mon-Thu 9-9, Fri&Sat 9-10"
https://stores.barnesandnoble.com/stores?page=0&size=100&searchText=Pensacola%2C+FL&view=list&storeFilter=all,"Eastern Shore - Spanish Fort, AL","Eastern Shore, Eastern Shore Centre, 30500 State Hwy 181 Suite 414",Spanish Fort,AL,36527,US,<MISSING>,251-621-3545,<MISSING>,<MISSING>,<MISSING>,"Store Hours:, Sun 11-7, Mon-Sat 10-9"
https://stores.barnesandnoble.com/stores?page=0&size=100&searchText=Pensacola%2C+FL&view=list&storeFilter=all,"Crystal Beach Plaza - Destin, FL","Crystal Beach Plaza, 34904 Emerald Coast Pkwy Suite 118",Destin,FL,32541,US,<MISSING>,850-837-3243,<MISSING>,<MISSING>,<MISSING>,"Store Hours:, Sunday 10am - 9pm, Monday - Saturday 9am - 9pm"
https://stores.barnesandnoble.com/stores?page=0&size=100&searchText=Miami%2C+FL&view=list&storeFilter=all,"Coral Gables - Coral Gables, FL","Coral Gables, 152 Miracle Mile",Coral Gables,FL,33134,US,<MISSING>,305-446-4152,<MISSING>,<MISSING>,<MISSING>,"Store Hours:, 9-10 Every Day"
https://stores.barnesandnoble.com/stores?page=0&size=100&searchText=Miami%2C+FL&view=list&storeFilter=all,"Sunset - S. Miami, FL","Sunset, The Shops at Sunset Place, 5701 Sunset Drive Suite 196",S. Miami,FL,33143,US,<MISSING>,305-662-4770,<MISSING>,<MISSING>,<MISSING>,"Store Hours:, Sun 11-9, Mon-Sat 10-9"
https://stores.barnesandnoble.com/stores?page=0&size=100&searchText=Miami%2C+FL&view=list&storeFilter=all,"West Kendall - Miami, FL","West Kendall, Kendall Village West, 12405 N Kendall Drive",Miami,FL,33186,US,<MISSING>,305-598-7727,<MISSING>,<MISSING>,<MISSING>,"Store Hours:, 9-11 Every Day"
https://stores.barnesandnoble.com/stores?page=0&size=100&searchText=Miami%2C+FL&view=list&storeFilter=all,"Pembroke Pines-Pines Blvd - Pembroke Pines, FL","Pembroke Pines-Pines Blvd, Pembroke Pines, 11820 Pines Blvd",Pembroke Pines,FL,33026,US,<MISSING>,954-441-0444,<MISSING>,<MISSING>,<MISSING>,"Store Hours:, Sun 10-9, Mon-Sat 10-10"
https://stores.barnesandnoble.com/stores?page=0&size=100&searchText=Miami%2C+FL&view=list&storeFilter=all,"Pembroke Pines-5th St - Pembroke Pines, FL","Pembroke Pines-5th St, The Shops at Pembrok Gardens, 14572 SW 5th St Suite 10140",Pembroke Pines,FL,33027,US,<MISSING>,954-437-7078,<MISSING>,<MISSING>,<MISSING>,"Store Hours:, Sun 11-10, Mon-Thu 10-10, Fri&Sat 10-11"
https://stores.barnesandnoble.com/stores?page=0&size=100&searchText=Miami%2C+FL&view=list&storeFilter=all,"Broward Mall - Plantation, FL","Broward Mall, 591 South University Dr",Plantation,FL,33324,US,<MISSING>,954-723-0489,<MISSING>,<MISSING>,<MISSING>,"Store Hours:, Sun 10-9, Mon-Thu 10-10, Fri&Sat 10-11"
https://stores.barnesandnoble.com/stores?page=0&size=100&searchText=Miami%2C+FL&view=list&storeFilter=all,"Fort Lauderdale - Fort Lauderdale, FL","Fort Lauderdale, Federal Highway, 2051 N. Federal Highway",Fort Lauderdale,FL,33305,US,<MISSING>,954-561-3732,<MISSING>,<MISSING>,<MISSING>,"Store Hours:, Sun 9-9, Mon-Sat 9-10"
https://stores.barnesandnoble.com/stores?page=0&size=100&searchText=Miami%2C+FL&view=list&storeFilter=all,"Coral Springs - Coral Springs, FL","Coral Springs, 2790 University Drive",Coral Springs,FL,33065,US,<MISSING>,954-344-6291,<MISSING>,<MISSING>,<MISSING>,"Store Hours:, Sun-Thu 10-9, Fri&Sat 10-10"
https://stores.barnesandnoble.com/stores?page=0&size=100&searchText=Miami%2C+FL&view=list&storeFilter=all,"Boca Raton - Boca Raton, FL","Boca Raton, University Commons, 1400 Glades Rd.",Boca Raton,FL,33431,US,<MISSING>,561-750-2134,<MISSING>,<MISSING>,<MISSING>,"Store Hours:, Sun-Thu 9-10, Fri&Sat 9-11"
https://stores.barnesandnoble.com/stores?page=0&size=100&searchText=Orlando%2C+FL&view=list&storeFilter=all,"Colonial - Orlando, FL","Colonial, Colonial Plaza Market Center, 2418 E Colonial Drive",Orlando,FL,32803,US,<MISSING>,407-894-6024,<MISSING>,<MISSING>,<MISSING>,"Store Hours:, Sun 10-9, Mon-Sat 9-10"
https://stores.barnesandnoble.com/stores?page=0&size=100&searchText=Orlando%2C+FL&view=list&storeFilter=all,"Florida Mall - Orlando, FL","Florida Mall, 8358 S Orange Blossom Tr",Orlando,FL,32809,US,<MISSING>,407-856-7200,<MISSING>,<MISSING>,<MISSING>,"Store Hours:, Sun 10-9, Mon-Sat 10-10"
https://stores.barnesandnoble.com/stores?page=0&size=100&searchText=Orlando%2C+FL&view=list&storeFilter=all,"Altamonte Mall - Altamonte Springs, FL","Altamonte Mall, 451 E. Altamonte Drive",Altamonte Springs,FL,32701,US,<MISSING>,407-261-0252,<MISSING>,<MISSING>,<MISSING>,"Store Hours:, Sun 10-7, Mon-Sat 9-10"
https://stores.barnesandnoble.com/stores?page=0&size=100&searchText=Orlando%2C+FL&view=list&storeFilter=all,"Plaza Venezia - Orlando, FL","Plaza Venezia, 7900 W. Sand Lake Road",Orlando,FL,32819,US,<MISSING>,407-345-0900,<MISSING>,<MISSING>,<MISSING>,"Store Hours:, 9-10 Every Day"
https://stores.barnesandnoble.com/stores?page=0&size=100&searchText=Orlando%2C+FL&view=list&storeFilter=all,"Waterford Lakes - Orlando, FL","Waterford Lakes, Waterford Lakes Town Center, 481 N. Alafaya Trail",Orlando,FL,32828,US,<MISSING>,407-275-1765,<MISSING>,<MISSING>,<MISSING>,"Store Hours:, Sun 10-9, Mon-Sat 9-10"
https://stores.barnesandnoble.com/stores?page=0&size=100&searchText=Orlando%2C+FL&view=list&storeFilter=all,"Oviedo - Oviedo, FL","Oviedo, The Oviedo Mall, 1260 Oviedo Mall Blvd",Oviedo,FL,32765,US,<MISSING>,407-977-5500,<MISSING>,<MISSING>,<MISSING>,"Store Hours:, Sun 12-6, Mon-Sat 10-9"
https://stores.barnesandnoble.com/stores?page=0&size=100&searchText=Orlando%2C+FL&view=list&storeFilter=all,"Lake Sumter Market Square - The Villages, FL","Lake Sumter Market Square, 1055 Old Camp Road",The Villages,FL,32162,US,<MISSING>,352-430-3029,<MISSING>,<MISSING>,<MISSING>,"Store Hours:, Sun 10-7, Mon-Sat 10-9"
https://stores.barnesandnoble.com/stores?page=0&size=100&searchText=Orlando%2C+FL&view=list&storeFilter=all,"Daytona - Daytona Beach, FL","Daytona, Daytona Tomoka Town Center, 1115 Cornerstone Blvd Suite C",Daytona Beach,FL,32117,US,<MISSING>,386-281-4960,<MISSING>,<MISSING>,<MISSING>,"Store Hours:, Sun 10-8, Mon-Sat 9-10"
https://stores.barnesandnoble.com/stores?page=0&size=100&searchText=Atlanta%2C+GA&view=list&storeFilter=all,"Edgewood Retail - Atlanta, GA","Edgewood Retail, Edgewood Retail District, 1217 Caroline Street at Moreland Av",Atlanta,GA,30307,US,<MISSING>,404-522-0212,<MISSING>,<MISSING>,<MISSING>,"Store Hours:, Sun 9-7, Mon-Sat 9-9"
https://stores.barnesandnoble.com/stores?page=0&size=100&searchText=Atlanta%2C+GA&view=list&storeFilter=all,"Buckhead - Atlanta, GA","Buckhead, 2900 Peachtree Road NE Suite 310",Atlanta,GA,30305,US,<MISSING>,404-261-7747,<MISSING>,<MISSING>,<MISSING>,"Store Hours:, Sun 9-8, Mon-Thu 9-9, Fri&Sat 9-10"
https://stores.barnesandnoble.com/stores?page=0&size=100&searchText=Atlanta%2C+GA&view=list&storeFilter=all,"Cumberland - Atlanta, GA","Cumberland, 2952 Cobb Pkwy.",Atlanta,GA,30339,US,<MISSING>,770-953-0966,<MISSING>,<MISSING>,<MISSING>,"Store Hours:, Sun 10-8, Mon-Sat 9-9"
https://stores.barnesandnoble.com/stores?page=0&size=100&searchText=Atlanta%2C+GA&view=list&storeFilter=all,"Perimeter - Atlanta, GA","Perimeter, 120 Perimeter Center West Ste 300",Atlanta,GA,30346,US,<MISSING>,770-396-1200,<MISSING>,<MISSING>,<MISSING>,"Store Hours:, Sun 10-9, Mon-Sat 9-10"
https://stores.barnesandnoble.com/stores?page=0&size=100&searchText=Atlanta%2C+GA&view=list&storeFilter=all,"Southlake - Morrow, GA","Southlake, 1939 Mount Zion Road",Morrow,GA,30260,US,<MISSING>,770-471-2227,<MISSING>,<MISSING>,<MISSING>,"Store Hours:, 9-9 Every Day"
https://stores.barnesandnoble.com/stores?page=0&size=100&searchText=Atlanta%2C+GA&view=list&storeFilter=all,"The Forum - Peachtree Corners, GA","The Forum, The Forum on Peachtree Parkway, 5141 Peachtree Parkway",Peachtree Corners,GA,30092,US,<MISSING>,770-209-4244,<MISSING>,<MISSING>,<MISSING>,"Store Hours:, Sun 11-8, Mon-Sat 9-10"
https://stores.barnesandnoble.com/stores?page=0&size=100&searchText=Atlanta%2C+GA&view=list&storeFilter=all,"Town Center Prado - Marietta, GA","Town Center Prado, 50 Barrett Pkwy Suite 3000 Bldg. 3",Marietta,GA,30066,US,<MISSING>,770-422-2261,<MISSING>,<MISSING>,<MISSING>,"Store Hours:, Sun 10-8, Mon-Thu 9-9, Fri&Sat 9-10"
https://stores.barnesandnoble.com/stores?page=0&size=100&searchText=Atlanta%2C+GA&view=list&storeFilter=all,"Mansell Crossings SC - Alpharetta, GA","Mansell Crossings SC, 7660 Northpoint Parkway Ste 200",Alpharetta,GA,30022,US,<MISSING>,770-993-8340,<MISSING>,<MISSING>,<MISSING>,"Store Hours:, Sun 10-9, Mon-Sat 9-10"
https://stores.barnesandnoble.com/stores?page=0&size=100&searchText=Atlanta%2C+GA&view=list&storeFilter=all,"The Ave at West Cobb - Marietta, GA","The Ave at West Cobb, The Avenue West Cobb, 3625 Dallas Hwy SW Suite 400",Marietta,GA,30064,US,<MISSING>,770-424-0511,<MISSING>,<MISSING>,<MISSING>,"Store Hours:, Sun 10-9, Mon-Thu 9-9, Fri & Sat 9-10"
https://stores.barnesandnoble.com/stores?page=0&size=100&searchText=Atlanta%2C+GA&view=list&storeFilter=all,"The Shoppes at Webb Gin - Snellville, GA","The Shoppes at Webb Gin, 1350 Scenic Highway Suite 100",Snellville,GA,30078,US,<MISSING>,770-979-0138,<MISSING>,<MISSING>,<MISSING>,"Store Hours:, Sun 11-8, Mon-Thu 9-9, Fri&Sat 9-10"
https://stores.barnesandnoble.com/stores?page=0&size=100&searchText=Atlanta%2C+GA&view=list&storeFilter=all,"The Collection at Forsyth - Cumming, GA","The Collection at Forsyth, Building 200 Suite 252, 410 Peachtree Pkwy",Cumming,GA,30041,US,<MISSING>,770-781-0867,<MISSING>,<MISSING>,<MISSING>,"Store Hours:, Sun 10-9, Mon-Sat 9-10"
https://stores.barnesandnoble.com/stores?page=0&size=100&searchText=Atlanta%2C+GA&view=list&storeFilter=all,"Mall Of Georgia - Buford, GA","Mall Of Georgia, 3333 Buford Drive Space VA01",Buford,GA,30519,US,<MISSING>,678-482-4150,<MISSING>,<MISSING>,<MISSING>,"Store Hours:, Sun 11-8, Mon-Sat 10-10"
https://stores.barnesandnoble.com/stores?page=0&size=100&searchText=Atlanta%2C+GA&view=list&storeFilter=all,"Newnan - Newnan, GA","Newnan, The Forum at Ashley Park, 342 Newnan Crossing Bypass",Newnan,GA,30265,US,<MISSING>,770-304-2114,<MISSING>,<MISSING>,<MISSING>,"Store Hours:, 9-9 Every Day"
https://stores.barnesandnoble.com/stores?page=0&size=100&searchText=Honolulu%2C+HI&view=list&storeFilter=all,"Ala Moana Mall - Honolulu, HI","Ala Moana Mall, Ala Moana Center, 1450 Ala Moana Blvd. STE 1272",Honolulu,HI,96814,US,<MISSING>,808-949-7307,<MISSING>,<MISSING>,<MISSING>,"Store Hours:, Sun-Thu 9-9, Fri&Sat 9-10"
https://stores.barnesandnoble.com/stores?page=0&size=100&searchText=Chicago%2C+IL&view=list&storeFilter=all,"State and Elm - Chicago, IL","State and Elm, 1130 North State Street",Chicago,IL,60610,US,<MISSING>,312-280-8155,<MISSING>,<MISSING>,<MISSING>,"Store Hours:, Sun-Thu 9-8, Fri&Sat 9-9"
https://stores.barnesandnoble.com/stores?page=0&size=100&searchText=Chicago%2C+IL&view=list&storeFilter=all,"Clybourn - Chicago, IL","Clybourn, Webster Place, 1441 West Webster Avenue",Chicago,IL,60614,US,<MISSING>,773-871-3610,<MISSING>,<MISSING>,<MISSING>,"Store Hours:, Sun 10-8, Mon-Sat 9-9, 90 minutes of free parking available for customers."
https://stores.barnesandnoble.com/stores?page=0&size=100&searchText=Chicago%2C+IL&view=list&storeFilter=all,"Skokie Village Crossing - Skokie, IL","Skokie Village Crossing, Village Crossing Shopping Center, 5405 Touhy Ave",Skokie,IL,60077,US,<MISSING>,847-329-8460,<MISSING>,<MISSING>,<MISSING>,"Store Hours:, Sun 10-8, Mon-Sat 9-9"
https://stores.barnesandnoble.com/stores?page=0&size=100&searchText=Chicago%2C+IL&view=list&storeFilter=all,"Sherman Plaza - Evanston, IL","Sherman Plaza, 1630 Sherman Avenue",Evanston,IL,60201,US,<MISSING>,847-424-0848,<MISSING>,<MISSING>,<MISSING>,"Store Hours:, Sun 10-8, Mon-Sat 9-9"
https://stores.barnesandnoble.com/stores?page=0&size=100&searchText=Chicago%2C+IL&view=list&storeFilter=all,"Skokie Old Orchard - Skokie, IL","Skokie Old Orchard, 55 Old Orchard Center",Skokie,IL,60077,US,<MISSING>,847-676-2230,<MISSING>,<MISSING>,<MISSING>,"Store Hours:, Sun 9-8, Mon-Sat 9-10"
https://stores.barnesandnoble.com/stores?page=0&size=100&searchText=Chicago%2C+IL&view=list&storeFilter=all,"Oakbrook Center - Oak Brook, IL","Oakbrook Center, 297 Oakbrook Center",Oak Brook,IL,60523,US,<MISSING>,630-684-0586,<MISSING>,<MISSING>,<MISSING>,"Store Hours:, Sun 10-8, Mon-Sat 9-10"
https://stores.barnesandnoble.com/stores?page=0&size=100&searchText=Chicago%2C+IL&view=list&storeFilter=all,"Orland Park Place - Orland Park, IL","Orland Park Place, 160 Orland Park Place",Orland Park,IL,60462,US,<MISSING>,708-226-9092,<MISSING>,<MISSING>,<MISSING>,"Store Hours:, Sun 10-9, Mon-Sat 9-10"
https://stores.barnesandnoble.com/stores?page=0&size=100&searchText=Chicago%2C+IL&view=list&storeFilter=all,"Deerfield Square - Deerfield, IL","Deerfield Square, 728 North Waukegan Road",Deerfield,IL,60015,US,<MISSING>,847-914-9293,<MISSING>,<MISSING>,<MISSING>,"Store Hours:, Sun 10-7, Mon-Sat 9-9"
https://stores.barnesandnoble.com/stores?page=0&size=100&searchText=Chicago%2C+IL&view=list&storeFilter=all,"Bolingbrook - Bolingbrook, IL","Bolingbrook, The Promenade Bolingbrook, 631 E. Boughton Road Suite 100",Bolingbrook,IL,60440,US,<MISSING>,630-783-0009,<MISSING>,<MISSING>,<MISSING>,"Store Hours:, Sun 10-7, Mon-Thu 9-9, Fri&Sat 9-10"
https://stores.barnesandnoble.com/stores?page=0&size=100&searchText=Chicago%2C+IL&view=list&storeFilter=all,"Schaumburg - Schaumburg, IL","Schaumburg, Woodfield Plaza Shopping Center, 590 East Golf Road",Schaumburg,IL,60173,US,<MISSING>,847-310-0450,<MISSING>,<MISSING>,<MISSING>,"Store Hours:, Sun 10-8, Mon-Thu 9-9, Fri&Sat 9-10"
https://stores.barnesandnoble.com/stores?page=0&size=100&searchText=Chicago%2C+IL&view=list&storeFilter=all,"Bloomingdale - Bloomingdale, IL","Bloomingdale, 200 South Gary Avenue",Bloomingdale,IL,60108,US,<MISSING>,630-671-9760,<MISSING>,<MISSING>,<MISSING>,"Store Hours:, Sun 10-7, Mon-Sat 9-9"
https://stores.barnesandnoble.com/stores?page=0&size=100&searchText=Chicago%2C+IL&view=list&storeFilter=all,"Naperville - Naperville, IL","Naperville, 47 East Chicago Ave. Suite #132",Naperville,IL,60540,US,<MISSING>,630-579-0200,<MISSING>,<MISSING>,<MISSING>,"Store Hours:, Sun 10-8, Mon-Thu 9-9, Fri&Sat 9-10"
https://stores.barnesandnoble.com/stores?page=0&size=100&searchText=Chicago%2C+IL&view=list&storeFilter=all,"Deer Park - Deer Park, IL","Deer Park, Deer Park Town Center, 20600 North Rand Road",Deer Park,IL,60010,US,<MISSING>,847-438-7444,<MISSING>,<MISSING>,<MISSING>,"Store Hours:, Sun 10-8, Mon-Sat 9-9"
https://stores.barnesandnoble.com/stores?page=0&size=100&searchText=Chicago%2C+IL&view=list&storeFilter=all,"Mellody Farm - Vernon Hills, IL","Mellody Farm, 901 N Milwaukee Ave Suite #500",Vernon Hills,IL,60061,US,<MISSING>,847-383-4311,<MISSING>,<MISSING>,<MISSING>,"Store Hours:, Sun 9-8, Mon-Sat 9-9:30"
https://stores.barnesandnoble.com/stores?page=0&size=100&searchText=Chicago%2C+IL&view=list&storeFilter=all,"Joliet - Joliet, IL","Joliet, 2621 Plainfield Road",Joliet,IL,60435,US,<MISSING>,815-254-2253,<MISSING>,<MISSING>,<MISSING>,"Store Hours:, Sun 10-9, Mon-Sat 9-10"
https://stores.barnesandnoble.com/stores?page=0&size=100&searchText=Chicago%2C+IL&view=list&storeFilter=all,"Geneva Commons - Geneva, IL","Geneva Commons, 102 Commons Drive",Geneva,IL,60134,US,<MISSING>,630-262-8568,<MISSING>,<MISSING>,<MISSING>,"Store Hours:, Sun 10-8, Mon-Sat 9-10"
https://stores.barnesandnoble.com/stores?page=0&size=100&searchText=Chicago%2C+IL&view=list&storeFilter=all,"Spring Hill Mall - West Dundee, IL","Spring Hill Mall, 1468 Springhill Mall Blvd",West Dundee,IL,60118,US,<MISSING>,847-426-5614,<MISSING>,<MISSING>,<MISSING>,"Store Hours:, Sun 10-6, Mon-Sat 9-9"
https://stores.barnesandnoble.com/stores?page=0&size=100&searchText=Chicago%2C+IL&view=list&storeFilter=all,"Valparaiso - Valparaiso, IN","Valparaiso, Valparaiso Marketplace, 150 Silhavy Road Suite 120",Valparaiso,IN,46383,US,<MISSING>,219-531-6551,<MISSING>,<MISSING>,<MISSING>,"Store Hours:, Sun 10-9, Mon-Sat 9-10"
https://stores.barnesandnoble.com/stores?page=0&size=100&searchText=Springfield%2C+IL&view=list&storeFilter=all,"Springfield IL - Springfield, IL","Springfield IL, 3111 South Veterans Pkwy",Springfield,IL,62704,US,<MISSING>,217-546-9440,<MISSING>,<MISSING>,<MISSING>,"Store Hours:, Sun 10-8, Mon-Sat 9-9"
https://stores.barnesandnoble.com/stores?page=0&size=100&searchText=Indianapolis%2C+IN&view=list&storeFilter=all,"Greenwood Park - Greenwood, IN","Greenwood Park, 1251 US 31 North",Greenwood,IN,46142,US,<MISSING>,317-859-8089,<MISSING>,<MISSING>,<MISSING>,"Store Hours:, Sun-Thur 9-9, Fri&Sat 9-10"
https://stores.barnesandnoble.com/stores?page=0&size=100&searchText=Indianapolis%2C+IN&view=list&storeFilter=all,"The Shops at River Crossing - Indianapolis, IN","The Shops at River Crossing, 8675 River Crossing Blvd",Indianapolis,IN,46240,US,<MISSING>,317-816-1370,<MISSING>,<MISSING>,<MISSING>,"Store Hours:, Sun 10-9, Mon-Sat 9-10"
https://stores.barnesandnoble.com/stores?page=0&size=100&searchText=Indianapolis%2C+IN&view=list&storeFilter=all,"Shops at Perry Crossing - Plainfield, IN","Shops at Perry Crossing, The Shops at Perry Crossing, 2540 Perry Crossing Way Ste #135",Plainfield,IN,46168,US,<MISSING>,317-838-7941,<MISSING>,<MISSING>,<MISSING>,"Store Hours:, Sun-Thu 9-9, Fri&Sat 9-10"
https://stores.barnesandnoble.com/stores?page=0&size=100&searchText=Indianapolis%2C+IN&view=list&storeFilter=all,"Carmel - Carmel, IN","Carmel, Greyhound Plaza, 14790 Greyhound Plaza",Carmel,IN,46032,US,<MISSING>,317-844-2501,<MISSING>,<MISSING>,<MISSING>,"Store Hours:, Sun 10-9, Mon-Sat 9-10"
https://stores.barnesandnoble.com/stores?page=0&size=100&searchText=Indianapolis%2C+IN&view=list&storeFilter=all,"Stony Creek Marketplace - Noblesville, IN","Stony Creek Marketplace, 17090 Mercantile Blvd.",Noblesville,IN,46060,US,<MISSING>,317-773-7952,<MISSING>,<MISSING>,<MISSING>,"Store Hours:, Sun 10-9, Mon-Sat 9-10"
https://stores.barnesandnoble.com/stores?page=0&size=100&searchText=Davenport%2C+IA&view=list&storeFilter=all,"North Park Mall - Davenport, IA","North Park Mall, 320 W. Kimberly Road",Davenport,IA,52806,US,<MISSING>,563-445-8760,<MISSING>,<MISSING>,<MISSING>,"Store Hours:, Sun 10-7, Mon-Sat 9-9"
https://stores.barnesandnoble.com/stores?page=0&size=100&searchText=New Orleans%2C+LA&view=list&storeFilter=all,"Metairie - Metairie, LA","Metairie, 3721 Veterans Boulevard",Metairie,LA,70002,US,<MISSING>,504-455-4929,<MISSING>,<MISSING>,<MISSING>,"Store Hours:, Sun 10-9, Mon-Thu 9-10, Fri & Sat 9-11"
https://stores.barnesandnoble.com/stores?page=0&size=100&searchText=New Orleans%2C+LA&view=list&storeFilter=all,"Westbank - Harvey, LA","Westbank, Centre @ Westbank, 1601B West Bank Expressway",Harvey,LA,70058,US,<MISSING>,504-263-1146,<MISSING>,<MISSING>,<MISSING>,"Store Hours:, Sun 11-8, Mon-Sat 9-9"
https://stores.barnesandnoble.com/stores?page=0&size=100&searchText=New Orleans%2C+LA&view=list&storeFilter=all,"Premier Center II - Mandeville, LA","Premier Center II, 3414 Highway 190 Suite 10",Mandeville,LA,70471,US,<MISSING>,985-626-8884,<MISSING>,<MISSING>,<MISSING>,"Store Hours:, Sun 10-8, Mon-Thu 9-9, Fri&Sat 9-10"
https://stores.barnesandnoble.com/stores?page=0&size=100&searchText=Freeport%2C+ME&view=list&storeFilter=all,"Augusta - Augusta, ME","Augusta, RR#10 Box 9, 9 Market Place Dr",Augusta,ME,04330,US,<MISSING>,207-621-0038,<MISSING>,<MISSING>,<MISSING>,"Store Hours:, Sun 10-8, Mon-Sat 9-9"
https://stores.barnesandnoble.com/stores?page=0&size=100&searchText=Baltimore%2C+MD&view=list&storeFilter=all,"Bel Air - Bel Air, MD","Bel Air, Tollgate Marketplace, 620 Marketplace Drive",Bel Air,MD,21014,US,<MISSING>,410-638-7023,<MISSING>,<MISSING>,<MISSING>,"Store Hours:, Sun 10-7:30, Mon-Thu 10-9, Fri&Sat 10-10"
https://stores.barnesandnoble.com/stores?page=0&size=100&searchText=Baltimore%2C+MD&view=list&storeFilter=all,"Lancaster - Lancaster, PA","Lancaster, Red Rose Commons, 1700 H Fruitville Pike",Lancaster,PA,17601,US,<MISSING>,717-290-8171,<MISSING>,<MISSING>,<MISSING>,"Store Hours:, Sun 10-9, Mon-Thu 9-9, Fri&Sat 9-10"
https://stores.barnesandnoble.com/stores?page=0&size=100&searchText=Boston%2C+MA&view=list&storeFilter=all,"Prudential Center - Boston, MA","Prudential Center, 800 Boylston Street Suite 179",Boston,MA,02199,US,<MISSING>,617-247-6959,<MISSING>,<MISSING>,<MISSING>,"Store Hours:, Sun 10-8, Mon-Sat 9-9"
https://stores.barnesandnoble.com/stores?page=0&size=100&searchText=Boston%2C+MA&view=list&storeFilter=all,"Saugus - Saugus, MA","Saugus, Staples Plaza, 444A Broadway",Saugus,MA,01906,US,<MISSING>,781-231-4711,<MISSING>,<MISSING>,<MISSING>,"Store Hours:, Sun 10-8, Mon-Sat 9-9"
https://stores.barnesandnoble.com/stores?page=0&size=100&searchText=Boston%2C+MA&view=list&storeFilter=all,"Braintree - Braintree, MA","Braintree, 150 Granite St",Braintree,MA,02184,US,<MISSING>,781-380-3655,<MISSING>,<MISSING>,<MISSING>,"Store Hours:, Sun 10-8, Mon-Thu 9-9, Fri&Sat 9-10"
https://stores.barnesandnoble.com/stores?page=0&size=100&searchText=Boston%2C+MA&view=list&storeFilter=all,"Burlington MA - Burlington, MA","Burlington MA, 98 Middlesex Turnpike",Burlington,MA,01803,US,<MISSING>,781-273-3871,<MISSING>,<MISSING>,<MISSING>,"Store Hours:, Sun 10-9, Mon-Thu 9-9, Fri&Sat 9-11"
https://stores.barnesandnoble.com/stores?page=0&size=100&searchText=Boston%2C+MA&view=list&storeFilter=all,"Peabody - Peabody, MA","Peabody, Northshore Mall, 210 Andover Street",Peabody,MA,01960,US,<MISSING>,978-573-3261,<MISSING>,<MISSING>,<MISSING>,"Store Hours:, Sun 10-8, Mon-Thu 9-9, Fri&Sat 9-10"
https://stores.barnesandnoble.com/stores?page=0&size=100&searchText=Boston%2C+MA&view=list&storeFilter=all,"Hingham - Hingham, MA","Hingham, The Derby Street Shoppes, 96 Derby Street Suite 300",Hingham,MA,02043,US,<MISSING>,781-749-3319,<MISSING>,<MISSING>,<MISSING>,"Store Hours:, Sun 11-7, Mon-Sat 9-9"
https://stores.barnesandnoble.com/stores?page=0&size=100&searchText=Boston%2C+MA&view=list&storeFilter=all,"Framingham - Framingham, MA","Framingham, 1 Worcester Rd",Framingham,MA,01701,US,<MISSING>,508-628-5567,<MISSING>,<MISSING>,<MISSING>,"Store Hours:, 9-10 Every Day"
https://stores.barnesandnoble.com/stores?page=0&size=100&searchText=Boston%2C+MA&view=list&storeFilter=all,"Walpole Mall - Walpole, MA","Walpole Mall, 82 Providence Highway",Walpole,MA,02032,US,<MISSING>,508-668-1303,<MISSING>,<MISSING>,<MISSING>,"Store Hours:, Sun 10-7, Mon-Thu 9-9, Fri&Sat 9-10"
https://stores.barnesandnoble.com/stores?page=0&size=100&searchText=Boston%2C+MA&view=list&storeFilter=all,"MA/Bellingham - Bellingham, MA","MA/Bellingham, Stallbrook Marketplace, 270 Hartford Avenue",Bellingham,MA,02019,US,<MISSING>,508-966-7600,<MISSING>,<MISSING>,<MISSING>,"Store Hours:, Sun 10-7, Mon-Sat 9-9"
https://stores.barnesandnoble.com/stores?page=0&size=100&searchText=Boston%2C+MA&view=list&storeFilter=all,"Salem - Salem, NH","Salem, 125 S Broadway Route 28",Salem,NH,03079,US,<MISSING>,603-898-1930,<MISSING>,<MISSING>,<MISSING>,"Store Hours:, Sun 10-8, Mon-Sat 9-9"
https://stores.barnesandnoble.com/stores?page=0&size=100&searchText=Boston%2C+MA&view=list&storeFilter=all,"Nashua - Nashua, NH","Nashua, 235 Daniel Webster Hwy",Nashua,NH,03060,US,<MISSING>,603-888-0533,<MISSING>,<MISSING>,<MISSING>,"Store Hours:, Sun 10-8, Mon-Thu 9-9, Fri&Sat 9-10"
https://stores.barnesandnoble.com/stores?page=0&size=100&searchText=Boston%2C+MA&view=list&storeFilter=all,"Worcester - Worcester, MA","Worcester, Lincoln Plaza, 541 D Lincoln Street",Worcester,MA,01605,US,<MISSING>,508-853-2236,<MISSING>,<MISSING>,<MISSING>,"Store Hours:, Sun 10-8, Mon-Thu 9-9, Fri&Sat 9-10"
https://stores.barnesandnoble.com/stores?page=0&size=100&searchText=Boston%2C+MA&view=list&storeFilter=all,"Leominster - Leominster, MA","Leominster, Watertower Plaza, 120 Watertower Plaza",Leominster,MA,01453,US,<MISSING>,978-537-6009,<MISSING>,<MISSING>,<MISSING>,"Store Hours:, Sun 10-8, Mon-Sat 9-9"
https://stores.barnesandnoble.com/stores?page=0&size=100&searchText=Boston%2C+MA&view=list&storeFilter=all,"Millbury - Millbury, MA","Millbury, The Shoppes at Blackstone Valley, 70 Worcester Providence Turnpike #5",Millbury,MA,01527,US,<MISSING>,508-865-2801,<MISSING>,<MISSING>,<MISSING>,"Store Hours:, Sun 10-8, Mon-Thu 9-9, Fri&Sat 9-10"
https://stores.barnesandnoble.com/stores?page=0&size=100&searchText=Boston%2C+MA&view=list&storeFilter=all,"Smithfield - Smithfield, RI","Smithfield, The Crossings at Smithfield, 371 Putnam Pike  Suite 330",Smithfield,RI,02917,US,<MISSING>,401-231-5828,<MISSING>,<MISSING>,<MISSING>,"Store Hours:, Sun 10-7, Mon-Sat 9-9"
https://stores.barnesandnoble.com/stores?page=0&size=100&searchText=Boston%2C+MA&view=list&storeFilter=all,"Manchester - Manchester, NH","Manchester, 1741 South Willow Street",Manchester,NH,03103,US,<MISSING>,603-668-5557,<MISSING>,<MISSING>,<MISSING>,"Store Hours:, Sun 10-7, Mon-Sat 9-9"
https://stores.barnesandnoble.com/stores?page=0&size=100&searchText=Boston%2C+MA&view=list&storeFilter=all,"North Dartmouth - North Dartmouth, MA","North Dartmouth, Dartmouth Towne Center, 392 State Road Route 6",North Dartmouth,MA,02747,US,<MISSING>,508-997-0701,<MISSING>,<MISSING>,<MISSING>,"Store Hours:, Sun 10-6, Mon-Sat 10-9"
https://stores.barnesandnoble.com/stores?page=0&size=100&searchText=Coldwater%2C+MI&view=list&storeFilter=all,"Lakeview Sq - Battle Creek, MI","Lakeview Sq, 5701 Beckley Rd.",Battle Creek,MI,49015,US,<MISSING>,269-979-8060,<MISSING>,<MISSING>,<MISSING>,"Store Hours:, Sun 10-7, Mon-Sat 9-9"
https://stores.barnesandnoble.com/stores?page=0&size=100&searchText=Coldwater%2C+MI&view=list&storeFilter=all,"Kalamazoo - Portage, MI","Kalamazoo, Southland SC, 6134 South Westnedge Ave",Portage,MI,49002,US,<MISSING>,269-324-1433,<MISSING>,<MISSING>,<MISSING>,"Store Hours:, Sun 10-8, Mon-Sat 9-10"
https://stores.barnesandnoble.com/stores?page=0&size=100&searchText=Duluth%2C+MN&view=list&storeFilter=all,"Miller Hill Mall - Duluth, MN","Miller Hill Mall, 1600 Miller Trunk Hwy. #L25",Duluth,MN,55811,US,<MISSING>,218-786-0710,<MISSING>,<MISSING>,<MISSING>,"Store Hours:, Sun 11-7, Mon-Sat 9-9"
https://stores.barnesandnoble.com/stores?page=0&size=100&searchText=Biloxi%2C+MS&view=list&storeFilter=all,"Gulfport - Gulfport, MS","Gulfport, Gulfport Shopping Center, 15246 Crossroads Parkway",Gulfport,MS,39503,US,<MISSING>,228-832-8906,<MISSING>,<MISSING>,<MISSING>,"Store Hours:, Sun 10-7, Mon-Thu 9-9, Fri&Sat 9-10"
https://stores.barnesandnoble.com/stores?page=0&size=100&searchText=St. Louis%2C+MO&view=list&storeFilter=all,"West County Mall - Des Peres, MO","West County Mall, 113 West County Center",Des Peres,MO,63131,US,<MISSING>,314-835-9980,<MISSING>,<MISSING>,<MISSING>,"Store Hours:, Sun 11-7, Mon-Sat 9-9"
https://stores.barnesandnoble.com/stores?page=0&size=100&searchText=St. Louis%2C+MO&view=list&storeFilter=all,"Ladue Rd - Ladue, MO","Ladue Rd, Ladue Crossing Shopping Center, 8871 Ladue Rd.",Ladue,MO,63124,US,<MISSING>,314-862-6280,<MISSING>,<MISSING>,<MISSING>,"Store Hours:, Sun 10-9, Mon-Sat 9-9"
https://stores.barnesandnoble.com/stores?page=0&size=100&searchText=St. Louis%2C+MO&view=list&storeFilter=all,"Chesterfield Oaks - Chesterfield, MO","Chesterfield Oaks, 1600 Clarkson Road",Chesterfield,MO,63017,US,<MISSING>,636-536-9636,<MISSING>,<MISSING>,<MISSING>,"Store Hours:, Sun 11-7, Mon-Sat 9-9"
https://stores.barnesandnoble.com/stores?page=0&size=100&searchText=St. Louis%2C+MO&view=list&storeFilter=all,"Fenton Commons Shopping Center - Fenton, MO","Fenton Commons Shopping Center, 721 Gravois Road",Fenton,MO,63026,US,<MISSING>,636-326-4619,<MISSING>,<MISSING>,<MISSING>,"Store Hours:, Sun 10-7, Mon-Sat 9-9"
https://stores.barnesandnoble.com/stores?page=0&size=100&searchText=St. Louis%2C+MO&view=list&storeFilter=all,"Mid Rivers - St Peters, MO","Mid Rivers, 320 Mid Rivers Center Drive",St Peters,MO,63376,US,<MISSING>,636-278-1118,<MISSING>,<MISSING>,<MISSING>,"Store Hours:, Sun 9-7, Mon-Sat 9-9"
https://stores.barnesandnoble.com/stores?page=0&size=100&searchText=St. Louis%2C+MO&view=list&storeFilter=all,"Fairview Heights - Fairview Heights, IL","Fairview Heights, Shoppes at St. Clair Square, 6510 N.Illinois Street",Fairview Heights,IL,62208,US,<MISSING>,618-624-4361,<MISSING>,<MISSING>,<MISSING>,"Store Hours:, Sun 10-8, Mon-Sat 9-10"
https://stores.barnesandnoble.com/stores?page=0&size=100&searchText=Laurel%2C+MT&view=list&storeFilter=all,"Billings - Billings, MT","Billings, 530 S 24th Street West",Billings,MT,59102,US,<MISSING>,406-655-9500,<MISSING>,<MISSING>,<MISSING>,"Store Hours:, Sun 10-7, Mon-Sat 9-9"
https://stores.barnesandnoble.com/stores?page=0&size=100&searchText=Reno%2C+NV&view=list&storeFilter=all,"Reno - Reno, NV","Reno, Meadow Wood Court, 5555 S. Virginia St.",Reno,NV,89502,US,<MISSING>,775-826-8882,<MISSING>,<MISSING>,<MISSING>,"Store Hours:, Sun-Thu 9-9, Fri&Sat 9-10"
https://stores.barnesandnoble.com/stores?page=0&size=100&searchText=Livingston%2C+NJ&view=list&storeFilter=all,"Livingston - Livingston, NJ","Livingston, 112 Eisenhower Parkway",Livingston,NJ,07039,US,<MISSING>,973-758-1310,<MISSING>,<MISSING>,<MISSING>,"Store Hours:, Sun 10-7, Mon-Thu 9-9, Fri&Sat 9-10"
https://stores.barnesandnoble.com/stores?page=0&size=100&searchText=Livingston%2C+NJ&view=list&storeFilter=all,"Springfield NJ - Springfield, NJ","Springfield NJ, 240 Route 22 West",Springfield,NJ,07081,US,<MISSING>,973-376-8544,<MISSING>,<MISSING>,<MISSING>,"Store Hours:, Sun 10-9, Mon-Sat 9-10"
https://stores.barnesandnoble.com/stores?page=0&size=100&searchText=Livingston%2C+NJ&view=list&storeFilter=all,"Woodland Park - Woodland Park, NJ","Woodland Park, Caldor Plaza, 1156 Route 46 West",Woodland Park,NJ,07424,US,<MISSING>,973-812-0180,<MISSING>,<MISSING>,<MISSING>,"Store Hours:, Sun 10-9, Mon-Sat 9-10"
https://stores.barnesandnoble.com/stores?page=0&size=100&searchText=Livingston%2C+NJ&view=list&storeFilter=all,"Morris Plains - Morris Plains, NJ","Morris Plains, 1940 Route 10 West",Morris Plains,NJ,07950,US,<MISSING>,973-644-9482,<MISSING>,<MISSING>,<MISSING>,"Store Hours:, Sun 10-9, Mon-Sat 9-9"
https://stores.barnesandnoble.com/stores?page=0&size=100&searchText=Livingston%2C+NJ&view=list&storeFilter=all,"Clifton - Clifton, NJ","Clifton, Clifton Commons, 395 Route 3 East",Clifton,NJ,07014,US,<MISSING>,973-779-5500,<MISSING>,<MISSING>,<MISSING>,"Store Hours:, Sun-Thu 9-10, Fri&Sat 9-11"
https://stores.barnesandnoble.com/stores?page=0&size=100&searchText=Livingston%2C+NJ&view=list&storeFilter=all,"Clark - Clark, NJ","Clark, 1180 Raritan Road",Clark,NJ,07066,US,<MISSING>,732-574-1818,<MISSING>,<MISSING>,<MISSING>,"Store Hours:, Sun 9-9, Mon-Thu 9-10, Fri&Sat 9-11"
https://stores.barnesandnoble.com/stores?page=0&size=100&searchText=Livingston%2C+NJ&view=list&storeFilter=all,"Staten Island Mall - Staten Island, NY","Staten Island Mall, 2655 Richmond Avenue Suite 1590",Staten Island,NY,10314,US,<MISSING>,718-355-6033,<MISSING>,<MISSING>,<MISSING>,"Store Hours:, Sun 11-7, Mon-Sat 10-9"
https://stores.barnesandnoble.com/stores?page=0&size=100&searchText=Livingston%2C+NJ&view=list&storeFilter=all,"Menlo Park Mall - Edison, NJ","Menlo Park Mall, 55 Parsonage Road",Edison,NJ,08837,US,<MISSING>,732-548-4179,<MISSING>,<MISSING>,<MISSING>,"Store Hours:, Sun 10-8, Mon-Sat 9-10"
https://stores.barnesandnoble.com/stores?page=0&size=100&searchText=Livingston%2C+NJ&view=list&storeFilter=all,"Tribeca - New York, NY","Tribeca, 97 Warren Street",New York,NY,10007,US,<MISSING>,212-587-5389,<MISSING>,<MISSING>,<MISSING>,"Store Hours:, Sun 10-7, Mon-Sat 10-9"
https://stores.barnesandnoble.com/stores?page=0&size=100&searchText=Livingston%2C+NJ&view=list&storeFilter=all,"The Shops at Riverside - Hackensack, NJ","The Shops at Riverside, 390 Hackensack Avenue",Hackensack,NJ,07601,US,<MISSING>,201-270-1280,<MISSING>,<MISSING>,<MISSING>,"Store Hours:, Sun 10-8, Mon-Thur 9-10, Fri&Sat 9-11"
https://stores.barnesandnoble.com/stores?page=0&size=100&searchText=Livingston%2C+NJ&view=list&storeFilter=all,"Union Square - New York, NY","Union Square, 33 East 17th Street",New York,NY,10003,US,<MISSING>,212-253-0810,<MISSING>,<MISSING>,<MISSING>,"Store Hours:, Sun 10-10, Mon-Sat 9-10"
https://stores.barnesandnoble.com/stores?page=0&size=100&searchText=Livingston%2C+NJ&view=list&storeFilter=all,"82nd & Broadway - New York, NY","82nd & Broadway, 2289 Broadway",New York,NY,10024,US,<MISSING>,212-362-8835,<MISSING>,<MISSING>,<MISSING>,"Store Hours:, Sun 9-9, Mon-Sat 9-10"
https://stores.barnesandnoble.com/stores?page=0&size=100&searchText=Livingston%2C+NJ&view=list&storeFilter=all,"Fifth Ave - New York, NY","Fifth Ave, 555 Fifth Avenue",New York,NY,10017,US,<MISSING>,212-697-3048,<MISSING>,<MISSING>,<MISSING>,"Store Hours:, Sun 10-9, Mon-Fri 9-9, Sat 10-9"
https://stores.barnesandnoble.com/stores?page=0&size=100&searchText=Livingston%2C+NJ&view=list&storeFilter=all,"Paramus - Paramus, NJ","Paramus, 765 Route 17 South",Paramus,NJ,07652,US,<MISSING>,201-445-4589,<MISSING>,<MISSING>,<MISSING>,"Store Hours:, Sun Closed, Mon-Thu 9-10, Fri&Sat 9-11"
https://stores.barnesandnoble.com/stores?page=0&size=100&searchText=Livingston%2C+NJ&view=list&storeFilter=all,"Court Street - Brooklyn, NY","Court Street, 106 Court Street",Brooklyn,NY,11201,US,<MISSING>,718-246-4996,<MISSING>,<MISSING>,<MISSING>,"Store Hours:, Sun 10-9, Mon-Sat 9-10"
https://stores.barnesandnoble.com/stores?page=0&size=100&searchText=Livingston%2C+NJ&view=list&storeFilter=all,"Ledgewood - Ledgewood, NJ","Ledgewood, Ledgewood Mall, 375 Route 10 E",Ledgewood,NJ,07852,US,<MISSING>,973-252-9300,<MISSING>,<MISSING>,<MISSING>,"Store Hours:, Sun 10-6, Mon-Sat 9-9"
https://stores.barnesandnoble.com/stores?page=0&size=100&searchText=Livingston%2C+NJ&view=list&storeFilter=all,"86th & Lexington Ave - New York, NY","86th & Lexington Ave, 150 East 86th Street",New York,NY,10028,US,<MISSING>,212-369-2180,<MISSING>,<MISSING>,<MISSING>,"Store Hours:, Sun 10-10, Mon-Sat 9-10"
https://stores.barnesandnoble.com/stores?page=0&size=100&searchText=Livingston%2C+NJ&view=list&storeFilter=all,"Park Slope - Brooklyn, NY","Park Slope, 267 7th Avenue",Brooklyn,NY,11215,US,<MISSING>,718-832-9066,<MISSING>,<MISSING>,<MISSING>,"Store Hours:, 9-10 Every Day"
https://stores.barnesandnoble.com/stores?page=0&size=100&searchText=Livingston%2C+NJ&view=list&storeFilter=all,"Somerville - Bridgewater, NJ","Somerville, Somerset Shopping Center, 319 Route 202/206",Bridgewater,NJ,08807,US,<MISSING>,908-526-7425,<MISSING>,<MISSING>,<MISSING>,"Store Hours:, Sun 10-8, Mon-Sat 9-9"
https://stores.barnesandnoble.com/stores?page=0&size=100&searchText=Livingston%2C+NJ&view=list&storeFilter=all,"East Brunswick - East Brunswick, NJ","East Brunswick, Brunswick Square Mall, 753 Rt 18 Brunswick Square Space 318",East Brunswick,NJ,08816,US,<MISSING>,732-432-0100,<MISSING>,<MISSING>,<MISSING>,"Store Hours:, Sun 10-8, Mon-Thu 9-10, Fri&Sat 9-11"
https://stores.barnesandnoble.com/stores?page=0&size=100&searchText=Livingston%2C+NJ&view=list&storeFilter=all,"Holmdel - Holmdel, NJ","Holmdel, The Commons at Holmdel, 2134 State Highway 35",Holmdel,NJ,07733,US,<MISSING>,732-275-0620,<MISSING>,<MISSING>,<MISSING>,"Store Hours:, Sun 9-9, Mon-Sat 9-10"
https://stores.barnesandnoble.com/stores?page=0&size=100&searchText=Livingston%2C+NJ&view=list&storeFilter=all,"Nanuet - Nanuet, NY","Nanuet, 140 Rockland Plaza",Nanuet,NY,10954,US,<MISSING>,845-624-2920,<MISSING>,<MISSING>,<MISSING>,"Store Hours:, Sun 10-7, Mon-Sat 10-9"
https://stores.barnesandnoble.com/stores?page=0&size=100&searchText=Livingston%2C+NJ&view=list&storeFilter=all,"Palisades - West Nyack, NY","Palisades, The Palisades Center, 4416 Palisades Center Drive",West Nyack,NY,10994,US,<MISSING>,845-348-4701,<MISSING>,<MISSING>,<MISSING>,"Store Hours:, Sun 11-7, Mon-Sat 10-9:30"
https://stores.barnesandnoble.com/stores?page=0&size=100&searchText=Livingston%2C+NJ&view=list&storeFilter=all,"Yonkers - Yonkers, NY","Yonkers, Central Plaza, 2614 Central Park Avenue",Yonkers,NY,10710,US,<MISSING>,914-771-6400,<MISSING>,<MISSING>,<MISSING>,"Store Hours:, Sun 9-7, Mon-Thu 9-9, Fri&Sat 9-10"
https://stores.barnesandnoble.com/stores?page=0&size=100&searchText=Livingston%2C+NJ&view=list&storeFilter=all,"NY/Eastchester - Scarsdale, NY","NY/Eastchester, Vernon Hills Shopping Center, 680 Post Road",Scarsdale,NY,10583,US,<MISSING>,914-472-0689,<MISSING>,<MISSING>,<MISSING>,"Store Hours:, 9-10 Every Day"
https://stores.barnesandnoble.com/stores?page=0&size=100&searchText=Livingston%2C+NJ&view=list&storeFilter=all,"Lake Success - New Hyde Park, NY","Lake Success, Lake Success SC, 1424 Union Tpke",New Hyde Park,NY,11040,US,<MISSING>,516-437-0324,<MISSING>,<MISSING>,<MISSING>,"Store Hours:, Sun 11-6, Mon-Sat 10-8"
https://stores.barnesandnoble.com/stores?page=0&size=100&searchText=Livingston%2C+NJ&view=list&storeFilter=all,"Manhasset - Manhasset, NY","Manhasset, 1542 Northern Blvd",Manhasset,NY,11030,US,<MISSING>,516-365-6723,<MISSING>,<MISSING>,<MISSING>,"Store Hours:, Sun 10-8, Mon-Sat 9-9"
https://stores.barnesandnoble.com/stores?page=0&size=100&searchText=Livingston%2C+NJ&view=list&storeFilter=all,"City Center - White Plains, NY","City Center, 230 Main St",White Plains,NY,10601,US,<MISSING>,914-397-2420,<MISSING>,<MISSING>,<MISSING>,"Store Hours:, Sun 10-7, Mon-Thu 10-9, Fri&Sat 10-10"
https://stores.barnesandnoble.com/stores?page=0&size=100&searchText=Livingston%2C+NJ&view=list&storeFilter=all,"Monmouth Mall - Eatontown, NJ","Monmouth Mall, 180 Route 35",Eatontown,NJ,07724,US,<MISSING>,732-460-9470,<MISSING>,<MISSING>,<MISSING>,"Store Hours:, Sun 10-7, Mon-Thu 9-10, Fri&Sat 9-11"
https://stores.barnesandnoble.com/stores?page=0&size=100&searchText=Livingston%2C+NJ&view=list&storeFilter=all,"Freehold - Freehold, NJ","Freehold, 3981 US Hwy 9",Freehold,NJ,07728,US,<MISSING>,732-409-2929,<MISSING>,<MISSING>,<MISSING>,"Store Hours:, Sun 9-9, Mon-Thu 9-10, Fri&Sat 9-11"
https://stores.barnesandnoble.com/stores?page=0&size=100&searchText=Livingston%2C+NJ&view=list&storeFilter=all,"Country Glen Center - Carle Place, NY","Country Glen Center, 91 Old Country Road",Carle Place,NY,11514,US,<MISSING>,516-741-9850,<MISSING>,<MISSING>,<MISSING>,"Store Hours:, Sun 9-9, Mon-Sat 9-10"
https://stores.barnesandnoble.com/stores?page=0&size=100&searchText=Livingston%2C+NJ&view=list&storeFilter=all,"Princeton/Market Fair - Princeton, NJ","Princeton/Market Fair, 3535 US Highway 1 Suite 400",Princeton,NJ,08540,US,<MISSING>,609-750-9010,<MISSING>,<MISSING>,<MISSING>,"Store Hours:, Sun 10-9, Mon-Thu 9-10, Fri&Sat 9-11"
https://stores.barnesandnoble.com/stores?page=0&size=100&searchText=Livingston%2C+NJ&view=list&storeFilter=all,"Hamilton - Hamilton, NJ","Hamilton, The Hamilton Marketplace, 425 Marketplace Boulevard",Hamilton,NJ,08691,US,<MISSING>,609-581-2523,<MISSING>,<MISSING>,<MISSING>,"Store Hours:, Sun 10-9, Mon-Sat 9-10"
https://stores.barnesandnoble.com/stores?page=0&size=100&searchText=Livingston%2C+NJ&view=list&storeFilter=all,"Mohegan Lake - Mohegan Lake, NY","Mohegan Lake, Cortlandt Town Center, 3089 E Main Street",Mohegan Lake,NY,10547,US,<MISSING>,914-528-6275,<MISSING>,<MISSING>,<MISSING>,"Store Hours:, Sun 10-7, Mon-Sat 9-9"
https://stores.barnesandnoble.com/stores?page=0&size=100&searchText=Livingston%2C+NJ&view=list&storeFilter=all,"Stamford Town Center - Stamford, CT","Stamford Town Center, 100 Greyrock Place Suite H009",Stamford,CT,06901,US,<MISSING>,203-323-1248,<MISSING>,<MISSING>,<MISSING>,"Store Hours:, Sun 10-6, Mon-Fri 9-9, Sat 10-9"
https://stores.barnesandnoble.com/stores?page=0&size=100&searchText=Livingston%2C+NJ&view=list&storeFilter=all,"Massapequa - Massapequa Park, NY","Massapequa, Sunrise Promenade, 5224 Sunrise Highway",Massapequa Park,NY,11762,US,<MISSING>,516-541-1456,<MISSING>,<MISSING>,<MISSING>,"Store Hours:, Sun 10-8, Mon-Thu 10-9, Fri&Sat 10-10"
https://stores.barnesandnoble.com/stores?page=0&size=100&searchText=Santa Fe%2C+NM&view=list&storeFilter=all,"Coronado Mall - Albuquerque, NM","Coronado Mall, 6600 Menaul Blvd NE",Albuquerque,NM,87110,US,<MISSING>,505-883-8200,<MISSING>,<MISSING>,<MISSING>,"Store Hours:, Sun 10-8, Mon-Sat 9-10"
https://stores.barnesandnoble.com/stores?page=0&size=100&searchText=Santa Fe%2C+NM&view=list&storeFilter=all,"West Side - Albuquerque, NM","West Side, Cottonwood Corners Shopping Center, 3701-A Ellison Drive NW",Albuquerque,NM,87114,US,<MISSING>,505-792-4234,<MISSING>,<MISSING>,<MISSING>,"Store Hours:, Sun 10-8, Mon-Thu 9-9, Fri&Sat 9-10"
https://stores.barnesandnoble.com/stores?page=0&size=100&searchText=New York%2C+NY&view=list&storeFilter=all,"East Northport - East Northport, NY","East Northport, Huntington Square Shopping Center, 4000 East Jericho Turnpike",East Northport,NY,11731,US,<MISSING>,631-462-0208,<MISSING>,<MISSING>,<MISSING>,"Store Hours:, Sun 10-8, Mon-Thu 10-9, Fri&Sat 10-10"
https://stores.barnesandnoble.com/stores?page=0&size=100&searchText=New York%2C+NY&view=list&storeFilter=all,"Bay Shore - Bay Shore, NY","Bay Shore, Gardiner Manor Mall, 842 Sunrise Highway",Bay Shore,NY,11706,US,<MISSING>,631-206-0198,<MISSING>,<MISSING>,<MISSING>,"Store Hours:, Sun 10-9, Mon-Thu 9-9, Fri&Sat 9-10"
https://stores.barnesandnoble.com/stores?page=0&size=100&searchText=New York%2C+NY&view=list&storeFilter=all,"Westport - Westport, CT","Westport, Post Plaza Shopping Center, 1076 Post Road East",Westport,CT,06880,US,<MISSING>,203-221-7955,<MISSING>,<MISSING>,<MISSING>,"Store Hours:, Sun 9-6, Mon-Sat 9-9"
https://stores.barnesandnoble.com/stores?page=0&size=100&searchText=New York%2C+NY&view=list&storeFilter=all,"Smith Haven Mall - Lake Grove, NY","Smith Haven Mall, 600 Smith Haven Mall",Lake Grove,NY,11755,US,<MISSING>,631-724-0341,<MISSING>,<MISSING>,<MISSING>,"Store Hours:, Sun 10-9, Mon-Thu 9-9, Fri&Sat 9-10"
https://stores.barnesandnoble.com/stores?page=0&size=100&searchText=Oxford%2C+NC&view=list&storeFilter=all,"New Hope Commons - Durham, NC","New Hope Commons, 5400 New Hope Commons",Durham,NC,27707,US,<MISSING>,919-489-3012,<MISSING>,<MISSING>,<MISSING>,"Store Hours:, Sun 10-9, Mon-Thu 9-9, Fri&Sat 9-10"
https://stores.barnesandnoble.com/stores?page=0&size=100&searchText=Oxford%2C+NC&view=list&storeFilter=all,"The Streets at Southpoint - Durham, NC","The Streets at Southpoint, 8030 Renaissance Parkway Suite 855",Durham,NC,27713,US,<MISSING>,919-806-1930,<MISSING>,<MISSING>,<MISSING>,"Store Hours:, Sun 10-9, Mon-Sat 10-10"
https://stores.barnesandnoble.com/stores?page=0&size=100&searchText=Oxford%2C+NC&view=list&storeFilter=all,"Brier Creek Commons - Raleigh, NC","Brier Creek Commons, 8431 Brier Creek Parkway",Raleigh,NC,27617,US,<MISSING>,919-484-9903,<MISSING>,<MISSING>,<MISSING>,"Store Hours:, Sun-Thu 10-9, Fri&Sat 10-10"
https://stores.barnesandnoble.com/stores?page=0&size=100&searchText=Oxford%2C+NC&view=list&storeFilter=all,"Cary - Cary, NC","Cary, Cary Commons, 760 SE Maynard",Cary,NC,27511,US,<MISSING>,919-467-3866,<MISSING>,<MISSING>,<MISSING>,"Store Hours:, Sun 9-9, Mon-Thu 9-10, Fri&Sat 9-11"
https://stores.barnesandnoble.com/stores?page=0&size=100&searchText=Oxford%2C+NC&view=list&storeFilter=all,"Crabtree Mall - Raleigh, NC","Crabtree Mall, 4325 Glenwood Ave",Raleigh,NC,27612,US,<MISSING>,919-782-0030,<MISSING>,<MISSING>,<MISSING>,"Store Hours:, Sun 10-8, Mon-Sat 9-10"
https://stores.barnesandnoble.com/stores?page=0&size=100&searchText=Oxford%2C+NC&view=list&storeFilter=all,"Triangle Town Center - Raleigh, NC","Triangle Town Center, 5959 Triangle Town Blvd Unit 2107",Raleigh,NC,27616,US,<MISSING>,919-792-2140,<MISSING>,<MISSING>,<MISSING>,"Store Hours:, Sun 11-8, Mon-Thu 10-9, Fri&Sat 10-10"
https://stores.barnesandnoble.com/stores?page=0&size=100&searchText=Oxford%2C+NC&view=list&storeFilter=all,"Burlington NC - Burlington, NC","Burlington NC, Alamance Crossing Shopping Center, 3125 Waltham Blvd",Burlington,NC,27215,US,<MISSING>,336-584-0869,<MISSING>,<MISSING>,<MISSING>,"Store Hours:, Sun 11-8, Mon-Thu 10-9, Fri&Sat 10-10"
https://stores.barnesandnoble.com/stores?page=0&size=100&searchText=Oxford%2C+NC&view=list&storeFilter=all,"Greensboro - Greensboro, NC","Greensboro, Friendly Center, 3102 Northline Avenue",Greensboro,NC,27408,US,<MISSING>,336-854-4200,<MISSING>,<MISSING>,<MISSING>,"Store Hours:, Sun 10-9, Mon-Thu 9-10, Fri&Sat 9-11"
https://stores.barnesandnoble.com/stores?page=0&size=100&searchText=Cleveland%2C+OH&view=list&storeFilter=all,"Eton Chagrin Boulevard - Woodmere, OH","Eton Chagrin Boulevard, 28801 Chagrin Blvd",Woodmere,OH,44122,US,<MISSING>,216-765-7520,<MISSING>,<MISSING>,<MISSING>,"Store Hours:, Sun 10-9, Mon-Thu 9-9, Fri&Sat 9-10"
https://stores.barnesandnoble.com/stores?page=0&size=100&searchText=Cleveland%2C+OH&view=list&storeFilter=all,"Crocker Park - Westlake, OH","Crocker Park, 198 Crocker Park Boulevard",Westlake,OH,44145,US,<MISSING>,440-250-9233,<MISSING>,<MISSING>,<MISSING>,"Store Hours:, Sun 10-9, Mon-Sat 9-10"
https://stores.barnesandnoble.com/stores?page=0&size=100&searchText=Cleveland%2C+OH&view=list&storeFilter=all,"Mentor/Great Lakes Mall - Mentor, OH","Mentor/Great Lakes Mall, Great Lakes Mall, 7900 Mentor Avenue",Mentor,OH,44060,US,<MISSING>,440-266-0212,<MISSING>,<MISSING>,<MISSING>,"Store Hours:, Sun 10-8, Mon-Thu 10-9, Fri 10-10, Sat 9-10"
https://stores.barnesandnoble.com/stores?page=0&size=100&searchText=Cleveland%2C+OH&view=list&storeFilter=all,"Akron - Akron, OH","Akron, 4015 Medina Road",Akron,OH,44333,US,<MISSING>,330-665-5199,<MISSING>,<MISSING>,<MISSING>,"Store Hours:, Sun 9-9, Mon-Thu 9-10, Fri&Sat 9-11"
https://stores.barnesandnoble.com/stores?page=0&size=100&searchText=Tulsa%2C+OK&view=list&storeFilter=all,"Southroads - Tulsa, OK","Southroads, Southroads Shopping Center, 5231 East 41st Street",Tulsa,OK,74135,US,<MISSING>,918-665-4580,<MISSING>,<MISSING>,<MISSING>,"Store Hours:, Sun 10-8, Mon-Sat 9-9"
https://stores.barnesandnoble.com/stores?page=0&size=100&searchText=Tulsa%2C+OK&view=list&storeFilter=all,"Tulsa/Woodland Plaza - Tulsa, OK","Tulsa/Woodland Plaza, Woodland Plaza, 8620 E 71 Street",Tulsa,OK,74133,US,<MISSING>,918-250-5034,<MISSING>,<MISSING>,<MISSING>,"Store Hours:, Sun 10-9, Mon-Sat 9-10"
https://stores.barnesandnoble.com/stores?page=0&size=100&searchText=Portland%2C+OR&view=list&storeFilter=all,"Lloyd Center - Portland, OR","Lloyd Center, 1317 Lloyd Center",Portland,OR,97232,US,<MISSING>,503-249-0800,<MISSING>,<MISSING>,<MISSING>,"Store Hours:, Sun 10-6, Mon-Sat 9-8"
https://stores.barnesandnoble.com/stores?page=0&size=100&searchText=Portland%2C+OR&view=list&storeFilter=all,"Clackamas Town Ctr Mall - Portland, OR","Clackamas Town Ctr Mall, 12000 SE 82nd Avenue",Portland,OR,97086,US,<MISSING>,503-786-3464,<MISSING>,<MISSING>,<MISSING>,"Store Hours:, Sun 10-8, Mon-Sat 9-9"
https://stores.barnesandnoble.com/stores?page=0&size=100&searchText=Portland%2C+OR&view=list&storeFilter=all,"Portland/ Bridgeport - Tigard, OR","Portland/ Bridgeport, 7227 SW Bridgeport Rd.",Tigard,OR,97224,US,<MISSING>,503-431-7575,<MISSING>,<MISSING>,<MISSING>,"Store Hours:, Sun 10-8, Mon-Thu 9-8, Fri-Sat 9-9"
https://stores.barnesandnoble.com/stores?page=0&size=100&searchText=Portland%2C+OR&view=list&storeFilter=all,"Tanasbourne - Beaverton, OR","Tanasbourne, 18300 NW Evergreen Pkwy",Beaverton,OR,97006,US,<MISSING>,503-645-3046,<MISSING>,<MISSING>,<MISSING>,"Store Hours:, Sun 10-8, Mon-Thu 9-9, Fri&Sat 9-10"
https://stores.barnesandnoble.com/stores?page=0&size=100&searchText=Portland%2C+OR&view=list&storeFilter=all,"Vancouver - Vancouver, WA","Vancouver, Vancouver Plaza, 7700 NE Fourth Plain Blvd",Vancouver,WA,98662,US,<MISSING>,360-253-9007,<MISSING>,<MISSING>,<MISSING>,"Store Hours:, Sun-Thu 9-9, Fri&Sat 9-10"
https://stores.barnesandnoble.com/stores?page=0&size=100&searchText=Pittsburgh%2C+PA&view=list&storeFilter=all,"Waterfront/Homestead - Homestead, PA","Waterfront/Homestead, The Stacks at the Waterfront, 100 West Bridge Street",Homestead,PA,15120,US,<MISSING>,412-462-5743,<MISSING>,<MISSING>,<MISSING>,"Store Hours:, Sun 10-8, Mon-Thu 10-9, Fri&Sat 10-10"
https://stores.barnesandnoble.com/stores?page=0&size=100&searchText=Pittsburgh%2C+PA&view=list&storeFilter=all,"Waterworks - Pittsburgh, PA","Waterworks, Waterworks Mall, 926 Freeport Road",Pittsburgh,PA,15238,US,<MISSING>,412-781-2321,<MISSING>,<MISSING>,<MISSING>,"Store Hours:, Sun 10-8, Mon-Thu 10-9, Fri&Sat 9-10"
https://stores.barnesandnoble.com/stores?page=0&size=100&searchText=Pittsburgh%2C+PA&view=list&storeFilter=all,"South Hills Village - Pittsburgh, PA","South Hills Village, 301 South Hills Village",Pittsburgh,PA,15241,US,<MISSING>,412-835-0379,<MISSING>,<MISSING>,<MISSING>,"Store Hours:, Sun 10-8, Mon-Sat 9-10"
https://stores.barnesandnoble.com/stores?page=0&size=100&searchText=Pittsburgh%2C+PA&view=list&storeFilter=all,"Settlers Ridge - Pittsburgh, PA","Settlers Ridge, 800 Settlers Ridge Center Drive",Pittsburgh,PA,15205,US,<MISSING>,412-809-8300,<MISSING>,<MISSING>,<MISSING>,"Store Hours:, Sun 10-8, Mon-Thu 10-9, Fri&Sat 10-10"
https://stores.barnesandnoble.com/stores?page=0&size=100&searchText=Pittsburgh%2C+PA&view=list&storeFilter=all,"Monroeville Mall - Monroeville, PA","Monroeville Mall, Streetscape at Monroeville Mall, 700 Mall Circle Drive",Monroeville,PA,15146,US,<MISSING>,412-856-0369,<MISSING>,<MISSING>,<MISSING>,"Store Hours:, Sun 11-7, Mon-Thu 10-9, Fri&Sat 10-10"
https://stores.barnesandnoble.com/stores?page=0&size=100&searchText=Pittsburgh%2C+PA&view=list&storeFilter=all,"Cranberry - Cranberry Township, PA","Cranberry, Cranberry Square Shopping Center, 1000 Cranberry Sq Dr.",Cranberry Township,PA,16066,US,<MISSING>,724-772-6200,<MISSING>,<MISSING>,<MISSING>,"Store Hours:, Sun 10-8, Mon-Thu 9-9, Fri&Sat 9-10"
https://stores.barnesandnoble.com/stores?page=0&size=100&searchText=Pittsburgh%2C+PA&view=list&storeFilter=all,"Greensburg - Greensburg, PA","Greensburg, 5155 Route 30",Greensburg,PA,15601,US,<MISSING>,724-832-0622,<MISSING>,<MISSING>,<MISSING>,"Store Hours:, Sun 9-8, Mon-Thu 9-9, Fri&Sat 9-10"
https://stores.barnesandnoble.com/stores?page=0&size=100&searchText=Newport%2C+RI&view=list&storeFilter=all,"Middletown - Middletown, RI","Middletown, Middletown Village, 1311 West Main Road",Middletown,RI,02842,US,<MISSING>,401-846-3313,<MISSING>,<MISSING>,<MISSING>,"Store Hours:, Sun 10-7, Mon-Sat 9-9"
https://stores.barnesandnoble.com/stores?page=0&size=100&searchText=Newport%2C+RI&view=list&storeFilter=all,"Warwick - Warwick, RI","Warwick, Warwick Centre, 1350-B Bald Hill Rd",Warwick,RI,02886,US,<MISSING>,401-826-8885,<MISSING>,<MISSING>,<MISSING>,"Store Hours:, Sun 10-7, Mon-Thu 9-9, Fri&Sat 9-10"
https://stores.barnesandnoble.com/stores?page=0&size=100&searchText=Camden%2C+SC&view=list&storeFilter=all,"Midtown at Forest Acres - Columbia, SC","Midtown at Forest Acres, Richland Fashion Mall, 3400 Forest Drive",Columbia,SC,29204,US,<MISSING>,803-787-5600,<MISSING>,<MISSING>,<MISSING>,"Store Hours:, Sun 11-8, Mon-Sat 10-9"
https://stores.barnesandnoble.com/stores?page=0&size=100&searchText=Camden%2C+SC&view=list&storeFilter=all,"Magnolia Mall - Florence, SC","Magnolia Mall, 2701 David Mcleod Blvd Unit # 1200",Florence,SC,29501,US,<MISSING>,843-665-2412,<MISSING>,<MISSING>,<MISSING>,"Store Hours:, Sun 12-8, Mon-Thu 9-9, Fri&Sat 9-10"
https://stores.barnesandnoble.com/stores?page=0&size=100&searchText=Nashville%2C+TN&view=list&storeFilter=all,"Cool Springs - Brentwood, TN","Cool Springs, 1701 Mallory Lane",Brentwood,TN,37027,US,<MISSING>,615-377-9979,<MISSING>,<MISSING>,<MISSING>,"Store Hours:, Sun 10-9, Mon-Thu 9-9, Fri&Sat 9-10"
https://stores.barnesandnoble.com/stores?page=0&size=100&searchText=Nashville%2C+TN&view=list&storeFilter=all,"The Streets of Indian Lake - Hendersonville, TN","The Streets of Indian Lake, 300 Indian Lake Blvd Suite 340",Hendersonville,TN,37075,US,<MISSING>,615-264-0183,<MISSING>,<MISSING>,<MISSING>,"Store Hours:, Sun 11-7, Mon-Thu 10-9, Fri&Sat 10-10"
https://stores.barnesandnoble.com/stores?page=0&size=100&searchText=Nashville%2C+TN&view=list&storeFilter=all,"The Avenue at Murfreesboro - Murfreesboro, TN","The Avenue at Murfreesboro, 2615 Medical Center Pkwy",Murfreesboro,TN,37129,US,<MISSING>,615-895-8580,<MISSING>,<MISSING>,<MISSING>,"Store Hours:, Sun 11-8, Mon-Thu 9-9, Fri&Sat 9-10"
https://stores.barnesandnoble.com/stores?page=0&size=100&searchText=Austin%2C+TX&view=list&storeFilter=all,"The Centre in Copperfield - Houston, TX","The Centre in Copperfield, 7026 Hwy 6 North",Houston,TX,77095,US,<MISSING>,281-861-6842,<MISSING>,<MISSING>,<MISSING>,"Store Hours:, Sun 10-9, Mon-Thu 9-10, Fri&Sat 9-11"
https://stores.barnesandnoble.com/stores?page=0&size=100&searchText=Austin%2C+TX&view=list&storeFilter=all,"West Oaks Village - Houston, TX","West Oaks Village, 2450 State Hwy 6",Houston,TX,77077,US,<MISSING>,281-293-8699,<MISSING>,<MISSING>,<MISSING>,"Store Hours:, Sun 11-8, Mon-Thu 10-9, Fri&Sat 10-10"
https://stores.barnesandnoble.com/stores?page=0&size=100&searchText=Austin%2C+TX&view=list&storeFilter=all,"Town & Country - Houston, TX","Town & Country, Town & Country Village, 12850 Memorial Drive Suite 1600",Houston,TX,77024,US,<MISSING>,713-465-5616,<MISSING>,<MISSING>,<MISSING>,"Store Hours:, Sun 10-9, Mon-Thu 9-9, Fri & Sat 9-10"
https://stores.barnesandnoble.com/stores?page=0&size=100&searchText=Austin%2C+TX&view=list&storeFilter=all,"First Colony Mall - Sugar Land, TX","First Colony Mall, 16535 Southwest Frwy Suite 4000",Sugar Land,TX,77479,US,<MISSING>,281-313-8323,<MISSING>,<MISSING>,<MISSING>,"Store Hours:, Sun 10-8, Mon-Sat 9-10"
https://stores.barnesandnoble.com/stores?page=0&size=100&searchText=Austin%2C+TX&view=list&storeFilter=all,"Houston Champions - Houston, TX","Houston Champions, 5303 FM 1960 West",Houston,TX,77069,US,<MISSING>,281-631-0681,<MISSING>,<MISSING>,<MISSING>,"Store Hours:, Sun 11-8, Mon-Sat 9-10"
https://stores.barnesandnoble.com/stores?page=0&size=100&searchText=Logan%2C+UT&view=list&storeFilter=all,"Layton - Layton, UT","Layton, Layton Market Center, 1780 North Woodland Park Drive",Layton,UT,84041,US,<MISSING>,801-773-9973,<MISSING>,<MISSING>,<MISSING>,"Store Hours:, Sun 11-7, Mon-Sat 9-10"
https://stores.barnesandnoble.com/stores?page=0&size=100&searchText=Altavista%2C+VA&view=list&storeFilter=all,"Lynchburg - Lynchburg, VA","Lynchburg, Wards Crossing, 4024-C Wards Road",Lynchburg,VA,24502,US,<MISSING>,434-239-8688,<MISSING>,<MISSING>,<MISSING>,"Store Hours:, Sun-Thu 10-9, Fri&Sat 10-10"
https://stores.barnesandnoble.com/stores?page=0&size=100&searchText=Altavista%2C+VA&view=list&storeFilter=all,"Roanoke - Roanoke, VA","Roanoke, Valley View Mall, 4802 Valley View Blvd NW",Roanoke,VA,24012,US,<MISSING>,540-563-5683,<MISSING>,<MISSING>,<MISSING>,"Store Hours:, Sun 11-7, Mon-Sat 10-9"
https://stores.barnesandnoble.com/stores?page=0&size=100&searchText=Altavista%2C+VA&view=list&storeFilter=all,"Tanglewood - Roanoke, VA","Tanglewood, 4478 Electric Road Southwest",Roanoke,VA,24018,US,<MISSING>,540-776-2960,<MISSING>,<MISSING>,<MISSING>,"Store Hours:, Sun 10-8, Mon-Thu 9-9, Fri&Sat 9-10"
https://stores.barnesandnoble.com/stores?page=0&size=100&searchText=Bellevue%2C+WA&view=list&storeFilter=all,"Bellevue - Bellevue, WA","Bellevue, 626 106th Ave NE",Bellevue,WA,98004,US,<MISSING>,425-451-8463,<MISSING>,<MISSING>,<MISSING>,"Store Hours:, Sun 10-8, Mon-Sat 10-9"
https://stores.barnesandnoble.com/stores?page=0&size=100&searchText=Bellevue%2C+WA&view=list&storeFilter=all,"Downtown Seattle - Seattle, WA","Downtown Seattle, Pacific Place, 600 Pine St Suite 107",Seattle,WA,98101,US,<MISSING>,206-264-0156,<MISSING>,<MISSING>,<MISSING>,"Store Hours:, Sun 10-9, Mon-Thu 9-9, Fri&Sat 9-10"
https://stores.barnesandnoble.com/stores?page=0&size=100&searchText=Bellevue%2C+WA&view=list&storeFilter=all,"Issaquah - Issaquah, WA","Issaquah, Pickering Place, 1530 11th Avenue NW",Issaquah,WA,98027,US,<MISSING>,425-557-8808,<MISSING>,<MISSING>,<MISSING>,"Store Hours:, Sun 10-8, Mon-Sat 9-9"
https://stores.barnesandnoble.com/stores?page=0&size=100&searchText=Bellevue%2C+WA&view=list&storeFilter=all,"Northgate - Seattle, WA","Northgate, Northgate Mall, 401 NE Northgate Way #1100",Seattle,WA,98125,US,<MISSING>,206-417-2967,<MISSING>,<MISSING>,<MISSING>,"Store Hours:, Sun 9-8, Mon-Thu 9-9, Fri&Sat 9-10"
https://stores.barnesandnoble.com/stores?page=0&size=100&searchText=Bellevue%2C+WA&view=list&storeFilter=all,"Woodinville - Woodinville, WA","Woodinville, Block C of Downtown Woodinville, 18025 Garden Way N.E.",Woodinville,WA,98072,US,<MISSING>,425-398-1990,<MISSING>,<MISSING>,<MISSING>,"Store Hours:, Sun 10-9, Mon-Thu 9-9, Fri&Sat 9-10"
https://stores.barnesandnoble.com/stores?page=0&size=100&searchText=Bellevue%2C+WA&view=list&storeFilter=all,"South Center - Tukwila, WA","South Center, 300 Andover Park W Ste 200",Tukwila,WA,98188,US,<MISSING>,206-575-3965,<MISSING>,<MISSING>,<MISSING>,"Store Hours:, Sun 9-8, Mon-Tu 9-9, Fri&Sat 9-10"
https://stores.barnesandnoble.com/stores?page=0&size=100&searchText=Bellevue%2C+WA&view=list&storeFilter=all,"Alderwood - Lynnwood, WA","Alderwood, 19401 Alderwood Mall Parkway",Lynnwood,WA,98036,US,<MISSING>,425-771-2220,<MISSING>,<MISSING>,<MISSING>,"Store Hours:, Sun-Thu 9-9, Fri&Sat 9-10"
https://stores.barnesandnoble.com/stores?page=0&size=100&searchText=Bellevue%2C+WA&view=list&storeFilter=all,"Federal Way - Federal Way, WA","Federal Way, Pavilions Centre, 31325 Pacific Highway South",Federal Way,WA,98003,US,<MISSING>,253-839-2535,<MISSING>,<MISSING>,<MISSING>,"Store Hours:, Sun 9-8, Mon-Sat 9-9"
https://stores.barnesandnoble.com/stores?page=0&size=100&searchText=Bellevue%2C+WA&view=list&storeFilter=all,"Kitsap Mall - Silverdale, WA","Kitsap Mall, PO Box 250, 10315 Silverdale Way NW",Silverdale,WA,98383,US,<MISSING>,360-698-0945,<MISSING>,<MISSING>,<MISSING>,"Store Hours:, Sun 10-7:30, Mon-Sat 9-9:30"
https://stores.barnesandnoble.com/stores?page=0&size=100&searchText=Bellevue%2C+WA&view=list&storeFilter=all,"Lakewood - Lakewood, WA","Lakewood, Lakewood Mall, 5711 Main Street SW",Lakewood,WA,98499,US,<MISSING>,253-983-0852,<MISSING>,<MISSING>,<MISSING>,"Store Hours:, Sun 9-8, Mon-Thu 9-9, Fri&Sat 9-10"
https://stores.barnesandnoble.com/stores?page=0&size=100&searchText=Milwaukee%2C+WI&view=list&storeFilter=all,"Greenfield - Greenfield, WI","Greenfield, 4935 South 76th St",Greenfield,WI,53220,US,<MISSING>,414-281-8222,<MISSING>,<MISSING>,<MISSING>,"Store Hours:, Sun 10-7, Mon-Sat 9-9"
https://stores.barnesandnoble.com/stores?page=0&size=100&searchText=Milwaukee%2C+WI&view=list&storeFilter=all,"Mayfair Mall - Wauwatosa, WI","Mayfair Mall, 2500 N. Mayfair Rd Suite 196",Wauwatosa,WI,53226,US,<MISSING>,414-475-6070,<MISSING>,<MISSING>,<MISSING>,"Store Hours:, Sun 10-7, Mon-Sat 9-9"
https://stores.barnesandnoble.com/stores?page=0&size=100&searchText=Milwaukee%2C+WI&view=list&storeFilter=all,"Bayshore Mall - Glendale, WI","Bayshore Mall, 5755 N Bayshore Drive",Glendale,WI,53217,US,<MISSING>,414-967-1610,<MISSING>,<MISSING>,<MISSING>,"Store Hours:, Sun 10-7, Mon-Sat 9-9"
https://stores.barnesandnoble.com/stores?page=0&size=100&searchText=Milwaukee%2C+WI&view=list&storeFilter=all,"Brookfield Mall - Brookfield, WI","Brookfield Mall, Brookfield Square Mall, 95 N. Moorland Road Unit C-1",Brookfield,WI,53005,US,<MISSING>,262-796-8550,<MISSING>,<MISSING>,<MISSING>,"Store Hours:, Sun 10-7, Mon-Sat 9-10"
https://stores.barnesandnoble.com/stores?page=0&size=100&searchText=Milwaukee%2C+WI&view=list&storeFilter=all,"Southland Center - Racine, WI","Southland Center, 2710 South Green Bay Rd",Racine,WI,53406,US,<MISSING>,262-598-9757,<MISSING>,<MISSING>,<MISSING>,"Store Hours:, Sun 10-8, Mon-Sat 9-9"
