"locator_domain","page_url","location_name","street_address","city","state","zip","country_code","store_number","phone","location_type","latitude","longitude","hours_of_operation"
"https://ironhillbrewery.com/","<MISSING>","Constitution Yards","308 Justison St ","Wilmington","DE","19801","US","<MISSING>","<MISSING>","Liquor Store","39.7363385","-75.5589168","<MISSING>"
"https://ironhillbrewery.com/","<MISSING>","Community Liquor Store","1401 Kirkwood Hwy ","Wilmington","DE","19805","US","<MISSING>","<MISSING>","Liquor Store","39.739322","-75.603128","<MISSING>"
"https://ironhillbrewery.com/","<MISSING>","Clifton Liquors","304 Edgemoor Rd, ,  ","Wilmington","DE","19809","US","<MISSING>","<MISSING>","Liquor Store","39.7609069","-75.5114337","<MISSING>"
"https://ironhillbrewery.com/","<MISSING>","Cheers Wine & Spirits","137 Jerome Dr, ","Dover","DE","19901","US","<MISSING>","<MISSING>","Liquor Store","39.2184804","-75.5708092","<MISSING>"
"https://ironhillbrewery.com/","<MISSING>","Bayside Wines & Spirits","31225 Americana Parkway ","Selbyville","DE","19975","US","<MISSING>","<MISSING>","Liquor Store","38.4696698","-75.1140124","<MISSING>"
"https://ironhillbrewery.com/","<MISSING>","1861 Southern Kitchen . Bourbon Bar","423 N Broad St  ","Middletown","DE","19709","US","<MISSING>","<MISSING>","Liquor Store","39.4539574","-75.7177592","<MISSING>"
"https://ironhillbrewery.com/","<MISSING>","American Grill","701 Ace Memorial Dr ","Hockessin","DE","19707","US","<MISSING>","<MISSING>","Liquor Store","39.793456","-75.709204","<MISSING>"
"https://ironhillbrewery.com/","<MISSING>","Dover Liquor Warehouse","825 White Oak Rd ","Dover","DE","19901","US","<MISSING>","<MISSING>","Liquor Store","39.1698511","-75.5155138","<MISSING>"
"https://ironhillbrewery.com/","<MISSING>","Grain H2O","3006 Summit Harbour Pl ","Bear","DE","19701","US","<MISSING>","<MISSING>","Liquor Store","39.5481714","-75.70578","<MISSING>"
"https://ironhillbrewery.com/","<MISSING>","The Hideout Arcade Bar & Grille","18693 Coastal Hwy ","Rehoboth Beach","DE","19971","US","<MISSING>","<MISSING>","Liquor Store","38.7355687","-75.1386217","<MISSING>"
"https://ironhillbrewery.com/","<MISSING>","Kreston Wine & Spirits","448 E Main St ","Middletown","DE","19709","US","<MISSING>","<MISSING>","Liquor Store","39.448707","-75.6983514","<MISSING>"
"https://ironhillbrewery.com/","<MISSING>","Limestone BBQ and Bourbon","2062 Limestone Rd ","Wilmington","DE","19808","US","<MISSING>","<MISSING>","Liquor Store","39.7219286","-75.6574412","<MISSING>"
"https://ironhillbrewery.com/","<MISSING>","Route 9 Liquors","22276 Lewes Georgetown Hwy ","Georgetown","DE","19947","US","<MISSING>","<MISSING>","Liquor Store","38.7018536","-75.3595479","<MISSING>"
"https://ironhillbrewery.com/","<MISSING>","Swigg Real Wine Craft Beer & Spirits","1601 Concord Pike ","Wilmington","DE","19803","US","<MISSING>","<MISSING>","Liquor Store","39.7811984","-75.5445233","<MISSING>"
"https://ironhillbrewery.com/","<MISSING>","Valentina Liquors","430 S Old Baltimore Pike # A ","Newark","DE","19702","US","<MISSING>","<MISSING>","Liquor Store","39.6497831","-75.6915482","<MISSING>"
"https://ironhillbrewery.com/","<MISSING>","Valley Liquors","4728 Limestone Rd ","Wilmington","DE","19808","US","<MISSING>","<MISSING>","Liquor Store","39.7401449","-75.693934","<MISSING>"
"https://ironhillbrewery.com/","<MISSING>","Rader","191 County Line Rd ","Boyertown","PA","19512","US","<MISSING>","<MISSING>","Liquor Store","40.3348793","-75.6215965","<MISSING>"
"https://ironhillbrewery.com/","<MISSING>","Philly Beer Baron","3290 Red Lion Rd ","Philadelphia","PA","19114","US","<MISSING>","<MISSING>","Liquor Store","40.079217","-74.992867","<MISSING>"
"https://ironhillbrewery.com/","<MISSING>","Beer Yard","218 Lancaster Ave ","Wayne","PA","19087","US","<MISSING>","<MISSING>","Liquor Store","40.0432825","-75.3833468","<MISSING>"
"https://ironhillbrewery.com/","<MISSING>","Beer Guys","1305 West Chester Pike  ","Havertown","PA","19083","US","<MISSING>","<MISSING>","Liquor Store","39.9744627","-75.3209708","<MISSING>"
"https://ironhillbrewery.com/","<MISSING>","Cold Spring Beverages","773 Durham Rd ","Newtown","PA","18940","US","<MISSING>","<MISSING>","Liquor Store","40.2796508","-74.9934995","<MISSING>"
"https://ironhillbrewery.com/","<MISSING>","A. Piermani & Son","10 E 2nd Ave  ","Conshohocken","PA","19428","US","<MISSING>","<MISSING>","Liquor Store","40.0745682","-75.3049457","<MISSING>"
"https://ironhillbrewery.com/","<MISSING>","Pennsburg Beer & Soda Mart","450 Pottstown Ave ","Pennsburg","PA","18073","US","<MISSING>","<MISSING>","Liquor Store","40.393145","-75.499718","<MISSING>"
"https://ironhillbrewery.com/","<MISSING>","Society Hill Beverage","129 Washington Ave ","Philadelphia","PA","19147","US","<MISSING>","<MISSING>","Liquor Store","39.9339416","-75.1468715","<MISSING>"
"https://ironhillbrewery.com/","<MISSING>","Ashton Beverage Company","9300 Ashton Rd ","Philadelphia","PA ","19114","US","<MISSING>","<MISSING>","Liquor Store","40.0681157","-75.0177035","<MISSING>"
"https://ironhillbrewery.com/","<MISSING>","Giant Food Stores","10 E Ridge Pike ","Conshohocken","PA","19428","US","<MISSING>","<MISSING>","Liquor Store","40.093384","-75.285867","<MISSING>"
"https://ironhillbrewery.com/","<MISSING>","Edgemont Beer & Cigars","5042B West Chester Pike ","Newtown Square","PA","19073","US","<MISSING>","<MISSING>","Liquor Store","39.973765","-75.452727","<MISSING>"
"https://ironhillbrewery.com/","<MISSING>","The Barn","4901 Catharine St ","Philadelphia","PA","19143","US","<MISSING>","<MISSING>","Liquor Store","39.948406","-75.221351","<MISSING>"
"https://ironhillbrewery.com/","<MISSING>","Kennett Beverage Company","710 W Baltimore Pike ","Kennett Square","PA","19348","US","<MISSING>","<MISSING>","Liquor Store","39.8447168","-75.722737","<MISSING>"
"https://ironhillbrewery.com/","<MISSING>","Stone's Beer & Beverage Market","1701 Fairmount Ave ","Philadelphia","PA","19130","US","<MISSING>","<MISSING>","Liquor Store","39.9674344","-75.1654318","<MISSING>"
"https://ironhillbrewery.com/","<MISSING>","ShopRite of Morrell Plaza","9910 Frankford Ave ","Philadelphia","PA","19114","US","<MISSING>","<MISSING>","Liquor Store","40.0647317","-74.9847586","<MISSING>"
"https://ironhillbrewery.com/","<MISSING>","GIANT Heirloom Market","3401 Chestnut St ","Philadelphia","PA","19104","US","<MISSING>","<MISSING>","Liquor Store","39.9547935","-75.1918484","<MISSING>"
"https://ironhillbrewery.com/","<MISSING>","GIANT Food Stores","471 Oxford Valley ","Fairless Hills","PA","19030","US","<MISSING>","<MISSING>","Liquor Store","40.172637","-74.850221","<MISSING>"
"https://ironhillbrewery.com/","<MISSING>","GIANT Food Stores","6542 Logan Square ","New Hope","PA","18938","US","<MISSING>","<MISSING>","Liquor Store","40.3570057","-74.9765235","<MISSING>"
"https://ironhillbrewery.com/","<MISSING>","Narberth Beverage","844 Montgomery Ave ","Narberth","PA","19072","US","<MISSING>","<MISSING>","Liquor Store","40.010877","-75.259213","<MISSING>"
"https://ironhillbrewery.com/","<MISSING>","GIANT Food Stores","849 W Baltimore Pike ","West Grove","PA","19390","US","<MISSING>","<MISSING>","Liquor Store","39.8222696","-75.8737922","<MISSING>"
"https://ironhillbrewery.com/","<MISSING>","GIANT Food Stores","310 S Henderson Rd ","King of Prussia","PA","19406","US","<MISSING>","<MISSING>","Liquor Store","40.0916737","-75.3579573","<MISSING>"
"https://ironhillbrewery.com/","<MISSING>","Redner's Warehouse Markets","4870 Penn Ave  ","Sinking Spring","PA","19608","US","<MISSING>","<MISSING>","Liquor Store","40.3252622","-76.0508115","<MISSING>"
"https://ironhillbrewery.com/","<MISSING>","ACME Markets","643 Conchester Pike ","Boothwyn","PA","19061","US","<MISSING>","<MISSING>","Liquor Store","39.8516234","-75.4512983","<MISSING>"
"https://ironhillbrewery.com/","<MISSING>","GIANT Food Stores","2180 West Chester Pike ","Broomall","PA","19008","US","<MISSING>","<MISSING>","Liquor Store","39.9765791","-75.3443599","<MISSING>"
"https://ironhillbrewery.com/","<MISSING>","GIANT Food Stores","721 W Sproul Rd ","Springfield","PA","19064","US","<MISSING>","<MISSING>","Liquor Store","39.9346379","-75.3510007","<MISSING>"
"https://ironhillbrewery.com/","<MISSING>","Southampton Beverage","453 2nd St Pike ","Southampton","PA","18966","US","<MISSING>","<MISSING>","Liquor Store","40.1675342","-75.0449083","<MISSING>"
"https://ironhillbrewery.com/","<MISSING>","Wind Gap Beverage","501 E Moorestown Rd ","Wind Gap","PA","18091","US","<MISSING>","<MISSING>","Liquor Store","40.8349729","-75.2980331","<MISSING>"
"https://ironhillbrewery.com/","<MISSING>","Old Nelson Food Company","3438-3448 Lancaster Ave ","Philadelphia","PA","19104","US","<MISSING>","<MISSING>","Liquor Store","39.9575688","-75.1920161","<MISSING>"
"https://ironhillbrewery.com/","<MISSING>","Drexel House","4039 Garrett Rd ","Drexel Hill","PA","19026","US","<MISSING>","<MISSING>","Liquor Store","39.9426132","-75.3007336","<MISSING>"
"https://ironhillbrewery.com/","<MISSING>","GIANT Food Stores","833 W Trenton Ave ","Morrisville","PA","19067","US","<MISSING>","<MISSING>","Liquor Store","40.2073362","-74.7994548","<MISSING>"
"https://ironhillbrewery.com/","<MISSING>","Fairway Beverage","1825 Limekiln Pike ","Dresher","PA","19025","US","<MISSING>","<MISSING>","Liquor Store","40.1304569","-75.1662515","<MISSING>"
"https://ironhillbrewery.com/","<MISSING>","ACME Markets","29 Snyder Ave  ","Philadelphia","PA","19148","US","<MISSING>","<MISSING>","Liquor Store","39.9232533","-75.1447786","<MISSING>"
"https://ironhillbrewery.com/","<MISSING>","Bound Beverages","308 Easton Rd  ","Warrington","PA","18976","US","<MISSING>","<MISSING>","Liquor Store","40.2212644","-75.1401027","<MISSING>"
"https://ironhillbrewery.com/","<MISSING>","The Foodery at Rittenhouse","1710 Sansom St ","Philadelphia","PA","19103","US","<MISSING>","<MISSING>","Liquor Store","39.9506964","-75.1693469","<MISSING>"
"https://ironhillbrewery.com/","<MISSING>","County Beverage","119 S Monroe St ","Media","PA","19063","US","<MISSING>","<MISSING>","Liquor Store","39.9172198","-75.387544","<MISSING>"
"https://ironhillbrewery.com/","<MISSING>","GIANT Food Stores","168 Eagleview Blvd ","Exton","PA","19341","US","<MISSING>","<MISSING>","Liquor Store","40.0504655","-75.6648089","<MISSING>"
"https://ironhillbrewery.com/","<MISSING>","ACME Markets","400 Simpson Dr ","Chester Springs","PA","19425","US","<MISSING>","<MISSING>","Liquor Store","40.0762896","-75.6894717","<MISSING>"
"https://ironhillbrewery.com/","<MISSING>","Old Nelson Food Market Spring Garden","1500 Spring Garden St ","Philadelphia","PA","19130","US","<MISSING>","<MISSING>","Liquor Store","39.962517","-75.16329","<MISSING>"
"https://ironhillbrewery.com/","<MISSING>","Oxford Beverage","282 S 3rd St  ","Oxford","PA","19363","US","<MISSING>","<MISSING>","Liquor Store","39.7794456","-75.9807453","<MISSING>"
"https://ironhillbrewery.com/","<MISSING>","Brewers' Outlet","1941 MacDade Boulevard ","Woodlyn","PA","19094","US","<MISSING>","<MISSING>","Liquor Store","39.8704706","-75.3563302","<MISSING>"
"https://ironhillbrewery.com/","<MISSING>","Doobies Bar","2201 Lombard St ","Philadelphia","PA","19107","US","<MISSING>","<MISSING>","Liquor Store","39.9464207","-75.178486","<MISSING>"
"https://ironhillbrewery.com/","<MISSING>","Broomall Beer","2056 Sproul Rd ","Broomall","PA","19008","US","<MISSING>","<MISSING>","Liquor Store","39.9667031","-75.3595827","<MISSING>"
"https://ironhillbrewery.com/","<MISSING>","The Beer Store Philadelphia","99 Franklin Mills Cir ","Philadelphia","PA","19154","US","<MISSING>","<MISSING>","Liquor Store","40.084487","-74.9649608","<MISSING>"
"https://ironhillbrewery.com/","<MISSING>","Newtown Square Beverage","105 S Newtown Street Rd ","Newtown Square","PA","19073","US","<MISSING>","<MISSING>","Liquor Store","39.9839597","-75.3977193","<MISSING>"
"https://ironhillbrewery.com/","<MISSING>","B & B Beverages","3670 Saw Mill Rd ","Doylestown","PA","18902","US","<MISSING>","<MISSING>","Liquor Store","40.335522","-75.1379751","<MISSING>"
"https://ironhillbrewery.com/","<MISSING>","The Bottle Shop","1616 E Passyunk Ave ","Philadelphia","PA","19148","US","<MISSING>","<MISSING>","Liquor Store","39.9295121","-75.1640339","<MISSING>"
"https://ironhillbrewery.com/","<MISSING>","Pac a Deli","200 S 12th St ","Philadelphia","PA","19107","US","<MISSING>","<MISSING>","Liquor Store","39.948684","-75.160755","<MISSING>"
"https://ironhillbrewery.com/","<MISSING>","HG Coal Fired Pizza","626 Easton Rd ","Warrington","PA","18976","US","<MISSING>","<MISSING>","Liquor Store","40.2305686","-75.1396467","<MISSING>"
"https://ironhillbrewery.com/","<MISSING>","Newtown Suds","3517 West Chester Pike ","Newtown Square","PA","19073","US","<MISSING>","<MISSING>","Liquor Store","39.986314","-75.395012","<MISSING>"
"https://ironhillbrewery.com/","<MISSING>","ACME Markets","785 Starr St ","Phoenixville","PA","19460","US","<MISSING>","<MISSING>","Liquor Store","40.1236568","-75.5073046","<MISSING>"
"https://ironhillbrewery.com/","<MISSING>","Maidencreek Distributing","850 Golden Dr ","Blandon","PA","19510","US","<MISSING>","<MISSING>","Liquor Store","40.4444326","-75.8615056","<MISSING>"
"https://ironhillbrewery.com/","<MISSING>","Berks Beer Outlet","3325 Kutztown Rd ","Reading","PA","19605","US","<MISSING>","<MISSING>","Liquor Store","40.386924","-75.920039","<MISSING>"
"https://ironhillbrewery.com/","<MISSING>","ACME Markets","39 Leopard Rd ","Paoli","PA","19301","US","<MISSING>","<MISSING>","Liquor Store","40.0398415","-75.477119","<MISSING>"
"https://ironhillbrewery.com/","<MISSING>","Costco Wholesale","900 Center Blvd S ","Newark","DE","19702","US","<MISSING>","<MISSING>","Liquor Store","39.6777101","-75.647514","<MISSING>"
"https://ironhillbrewery.com/","<MISSING>","Outlet Liquors","19724 Coastal Hwy #6198 ","Rehoboth Beach","DE","19971","US","<MISSING>","<MISSING>","Liquor Store","38.7167127","-75.1126816","<MISSING>"
"https://ironhillbrewery.com/","<MISSING>","Total Wine & More","691 Naamans Rd ","Claymont","DE","19703","US","<MISSING>","<MISSING>","Liquor Store","39.818493","-75.4567","<MISSING>"
"https://ironhillbrewery.com/","<MISSING>","Total Wine & More","1325 McKennans Church Rd ","Wilmington","DE","19808","US","<MISSING>","<MISSING>","Liquor Store","39.731975","-75.666996","<MISSING>"
"https://ironhillbrewery.com/","<MISSING>","Peco's Liquor Store","522 Philadelphia Pike ","Wilmington","DE","19809","US","<MISSING>","<MISSING>","Liquor Store","39.768766","-75.504173","<MISSING>"
"https://ironhillbrewery.com/","<MISSING>","Banks Wines & Spirits","38014 Town Center Dr ","Millville","DE","19967","US","<MISSING>","<MISSING>","Liquor Store","38.547225","-75.1090472","<MISSING>"
"https://ironhillbrewery.com/","<MISSING>","Fairfax Discount Liquors","2219 Concord Pike ","Wilmington","DE","19803","US","<MISSING>","<MISSING>","Liquor Store","39.7911192","-75.5458402","<MISSING>"
"https://ironhillbrewery.com/","<MISSING>","ABC Liquors","316-320 Fox Hunt Dr ","Bear","DE","19701","US","<MISSING>","<MISSING>","Liquor Store","39.6066906","-75.7109125","<MISSING>"
"https://ironhillbrewery.com/","<MISSING>","FranksWine","1206 N Union St ","Wilmington","DE","19806","US","<MISSING>","<MISSING>","Liquor Store","39.7567145","-75.5674509","<MISSING>"
"https://ironhillbrewery.com/","<MISSING>","Claymont Liquor Mart","2506 Philadelphia Pike ","Claymont","DE","19703","US","<MISSING>","<MISSING>","Liquor Store","39.7927325","-75.4690872","<MISSING>"
"https://ironhillbrewery.com/","<MISSING>","Cochran Liquors","560 W Main St  ","Middletown","DE","19709","US","<MISSING>","<MISSING>","Liquor Store","39.4472503","-75.7288425","<MISSING>"
"https://ironhillbrewery.com/","<MISSING>","Lewes Wine and Spirits","19413 Jingle Shell Way ","Lewes","DE","19958","US","<MISSING>","<MISSING>","Liquor Store","38.7491681","-75.183049","<MISSING>"
"https://ironhillbrewery.com/","<MISSING>","Avenue Wines and Spirits","2000 Delaware Ave ","Wilmington","DE","19806","US","<MISSING>","<MISSING>","Liquor Store","39.7604929","-75.56565","<MISSING>"
"https://ironhillbrewery.com/","<MISSING>","Tri State Liquors","333 Naamans Rd ","Claymont","DE","19703","US","<MISSING>","<MISSING>","Liquor Store","39.8155574","-75.4479524","<MISSING>"
"https://ironhillbrewery.com/","<MISSING>","Newark Bottle Shop","140 Pencader Plaza ","Newark","DE","19713","US","<MISSING>","<MISSING>","Liquor Store","39.6587997","-75.7368561","<MISSING>"
"https://ironhillbrewery.com/","<MISSING>","Hockessin Wine and Spirits","633 Yorklyn Rd ","Hockessin","DE","19707","US","<MISSING>","<MISSING>","Liquor Store","39.7893482","-75.6949331","<MISSING>"
"https://ironhillbrewery.com/","<MISSING>","Atlantic Liquors","19108 Coastal Hwy ","Rehoboth Beach","DE","19971","US","<MISSING>","<MISSING>","Liquor Store","38.7272391","-75.1293174","<MISSING>"
"https://ironhillbrewery.com/","<MISSING>","Joey's Liquors","602 E Basin Rd ","New Castle","DE","19720","US","<MISSING>","<MISSING>","Liquor Store","39.673286","-75.5848234","<MISSING>"
"https://ironhillbrewery.com/","<MISSING>","University Liquors","5 University Dr  ","Newark","DE","19702","US","<MISSING>","<MISSING>","Liquor Store","39.6668819","-75.6716214","<MISSING>"
"https://ironhillbrewery.com/","<MISSING>","Branmar Liquors","1812 Marsh Rd ","Wilmington","DE","19810","US","<MISSING>","<MISSING>","Liquor Store","39.8044284","-75.506912","<MISSING>"
"https://ironhillbrewery.com/","<MISSING>","Gilpin Liquors","1400 N Van Buren St ","Wilmington","DE","19806","US","<MISSING>","<MISSING>","Liquor Store","39.753124","-75.555241","<MISSING>"
"https://ironhillbrewery.com/","<MISSING>","American Discount Liquors","5481 Dupont Pkwy ","Smyrna","DE","19977","US","<MISSING>","<MISSING>","Liquor Store","39.3241585","-75.6220838","<MISSING>"
"https://ironhillbrewery.com/","<MISSING>","The Wine & Spirit Company of Greenville","4025 Kennett Pike ","Greenville","DE","19807","US","<MISSING>","<MISSING>","Liquor Store","39.781026","-75.599425","<MISSING>"
"https://ironhillbrewery.com/","<MISSING>","Van's Liquors","2413 Concord Pike ","Wilmington","DE","19803","US","<MISSING>","<MISSING>","Liquor Store","39.7944244","-75.5468053","<MISSING>"
"https://ironhillbrewery.com/","<MISSING>","Concord Pike Liquors","4013 Concord Pike ","Wilmington","DE","19803","US","<MISSING>","<MISSING>","Liquor Store","39.8087152","-75.5486704","<MISSING>"
"https://ironhillbrewery.com/","<MISSING>","Tim's Liquors","6303 Limestone Rd ","Hockessin","DE","19707","US","<MISSING>","<MISSING>","Liquor Store","39.7738777","-75.7139932","<MISSING>"
"https://ironhillbrewery.com/","<MISSING>","Brookside Liquors","17 Chestnut Hill Plaza ","Newark","DE","19713","US","<MISSING>","<MISSING>","Liquor Store","39.6615435","-75.7242396","<MISSING>"
"https://ironhillbrewery.com/","<MISSING>","Back Bay Liquor Warehouse","26205 John J Williams Hwy ","Millsboro","DE","19966","US","<MISSING>","<MISSING>","Liquor Store","38.6258333","-75.1961111","<MISSING>"
"https://ironhillbrewery.com/","<MISSING>","4 Seasons Liquors","680 Plaza Dr ","Newark","DE","19702","US","<MISSING>","<MISSING>","Liquor Store","39.6267929","-75.7451896","<MISSING>"
"https://ironhillbrewery.com/","<MISSING>","Long Neck Dispensaries","32369 Long Neck Rd ","Millsboro","DE","19966","US","<MISSING>","<MISSING>","Liquor Store","38.6326468","-75.1812388","<MISSING>"
"https://ironhillbrewery.com/","<MISSING>","Westgate Wine & Spirits","4115 Newport Gap Pike ","Wilmington","DE","19808","US","<MISSING>","<MISSING>","Liquor Store","39.7688415","-75.6679082","<MISSING>"
"https://ironhillbrewery.com/","<MISSING>","Fairfield Liquors","407 New London Rd ","Newark","DE","19711","US","<MISSING>","<MISSING>","Liquor Store","39.6943722","-75.765084","<MISSING>"
"https://ironhillbrewery.com/","<MISSING>","Mr B's Wine & Spirits","16 W Lebanon Rd ","Dover","DE","19901","US","<MISSING>","<MISSING>","Liquor Store","39.1173645","-75.5167809","<MISSING>"
"https://ironhillbrewery.com/","<MISSING>","New Castle Spirits","738 Ferry Cut Off St  ","New Castle","DE","19720","US","<MISSING>","<MISSING>","Liquor Store","39.6636505","-75.5681304","<MISSING>"
"https://ironhillbrewery.com/","<MISSING>","One Stop Liquor Mart","519 College Park Ln ","Georgetown","DE","19947","US","<MISSING>","<MISSING>","Liquor Store","38.7009169","-75.4043693","<MISSING>"
"https://ironhillbrewery.com/","<MISSING>","Kirkwood Liquors","2440 Red Lion Rd ","Bear","DE","19701","US","<MISSING>","<MISSING>","Liquor Store","39.570575","-75.697231","<MISSING>"
"https://ironhillbrewery.com/","<MISSING>","Liquor Mart","1005 Governors Pl ","Bear","DE","19701","US","<MISSING>","<MISSING>","Liquor Store","39.632839","-75.6653713","<MISSING>"
"https://ironhillbrewery.com/","<MISSING>","Polly Drummond Wine & Spirits"," 2 Polly Drummond Shopping Center ","Newark","DE","19711","US","<MISSING>","<MISSING>","Liquor Store","39.7186513","-75.7100692","<MISSING>"
"https://ironhillbrewery.com/","<MISSING>","Empire Wine & Spirits","812 Kohl Ave ","Middletown","DE","19709","US","<MISSING>","<MISSING>","Liquor Store","39.4413295","-75.7397478","<MISSING>"
"https://ironhillbrewery.com/","<MISSING>","The Grog Shop","20750 John J Williams Hwy ","Lewes","DE","19958","US","<MISSING>","<MISSING>","Liquor Store","38.700048","-75.1696827","<MISSING>"
"https://ironhillbrewery.com/","<MISSING>","Brandywine Liquors","2718 Naamans Rd ","Wilmington","DE","19810","US","<MISSING>","<MISSING>","Liquor Store","39.82791","-75.5240194","<MISSING>"
"https://ironhillbrewery.com/","<MISSING>","Park N Shop Liquors","245 S Main St ","Newark","DE","19711","US","<MISSING>","<MISSING>","Liquor Store","39.6766113","-75.7619186","<MISSING>"
"https://ironhillbrewery.com/","<MISSING>","Camden Liquor & Wine","380 Walmart Dr ","Camden","DE","19934","US","<MISSING>","<MISSING>","Liquor Store","39.1003763","-75.5465227","<MISSING>"
"https://ironhillbrewery.com/","<MISSING>","Cape Wine & Spirits","34156 Citizen Dr ","Lewes","DE","19958","US","<MISSING>","<MISSING>","Liquor Store","38.7450089","-75.1554195","<MISSING>"
"https://ironhillbrewery.com/","<MISSING>","Mike's Liquor Mart","358 Milford Harrington Hwy ","Milford","DE","19963","US","<MISSING>","<MISSING>","Liquor Store","38.9201077","-75.4490841","<MISSING>"
"https://ironhillbrewery.com/","<MISSING>","Pacific Wines & Spirits","18578 Coastal Hwy ","Rehoboth Beach","DE","19971","US","<MISSING>","<MISSING>","Liquor Store","38.736975","-75.143934","<MISSING>"
"https://ironhillbrewery.com/","<MISSING>","Boxwood Liquors","630 S Maryland Ave ","Wilmington","DE","19804","US","<MISSING>","<MISSING>","Liquor Store","39.7236431","-75.5920502","<MISSING>"
"https://ironhillbrewery.com/","<MISSING>","Boss Liquors","4681 Wheatleys Pond Rd ","Smyrna","DE","19977","US","<MISSING>","<MISSING>","Liquor Store","39.2871204","-75.6284249","<MISSING>"
"https://ironhillbrewery.com/","<MISSING>","Beaverbrook Liquors","1228 Beaverbrook plaza ","New Castle","DE","19720","US","<MISSING>","<MISSING>","Liquor Store","39.6414964","-75.6248094","<MISSING>"
"https://ironhillbrewery.com/","<MISSING>","Carpenter Liquors","26 Carpenter Station Rd  ","Wilmington","DE","19810","US","<MISSING>","<MISSING>","Liquor Store","39.821941","-75.4642698","<MISSING>"
"https://ironhillbrewery.com/","<MISSING>","The Delaware Growler","48 E Main St ","Newark","DE","19711","US","<MISSING>","<MISSING>","Liquor Store","39.6832932","-75.7515069","<MISSING>"
"https://ironhillbrewery.com/","<MISSING>","Liquor Stop","6129 S Rehoboth Blvd ","Milford","DE","19963","US","<MISSING>","<MISSING>","Liquor Store","38.9027778","-75.4058333","<MISSING>"
"https://ironhillbrewery.com/","<MISSING>","Tybouts Discount Liquor","775 Dupont Pkwy ","New Castle","DE","19720","US","<MISSING>","<MISSING>","Liquor Store","39.6272854","-75.6374281","<MISSING>"
"https://ironhillbrewery.com/","<MISSING>","Liquor Depot","1010 Forrest Ave ","Dover","DE","19904","US","<MISSING>","<MISSING>","Liquor Store","39.1580326","-75.5432412","<MISSING>"
"https://ironhillbrewery.com/","<MISSING>","Woodside Liquors","1307 Peachtree Run ","Magnolia","DE","19962","US","<MISSING>","<MISSING>","Liquor Store","39.0680139","-75.5339327","<MISSING>"
"https://ironhillbrewery.com/","<MISSING>","Premier Wine & Spirits Limestone","2052 Limestone Rd ","Wilmington","DE","19808","US","<MISSING>","<MISSING>","Liquor Store","39.721779","-75.657238","<MISSING>"
"https://ironhillbrewery.com/","<MISSING>","Dover Air Force Base Building 421","442 13th St ","Dover","DE","19902","US","<MISSING>","<MISSING>","Liquor Store","39.12773","-75.4684352","<MISSING>"
"https://ironhillbrewery.com/","<MISSING>","Geo's Liquors","9833 S Dupont Hwy, ","Felton","DE","19943","US","<MISSING>","<MISSING>","Liquor Store","39.0291498","-75.5616682","<MISSING>"
"https://ironhillbrewery.com/","<MISSING>","Kreston Wine & Spirits","904 DE-202 ","Wilmington","DE","19802","US","<MISSING>","<MISSING>","Liquor Store","39.762929","-75.542626","<MISSING>"
"https://ironhillbrewery.com/","<MISSING>","Woodside Liquor Warehouse","5504 S Dupont Hwy ","Dover","DE","19901","US","<MISSING>","<MISSING>","Liquor Store","39.0721809","-75.5540654","<MISSING>"
"https://ironhillbrewery.com/","<MISSING>","Masso Liquors","2607 Kirkwood Hwy ","Newark","DE","19711","US","<MISSING>","<MISSING>","Liquor Store","39.7072204","-75.6859435","<MISSING>"
"https://ironhillbrewery.com/","<MISSING>","Tally-Ho Spirits","3450 Naamans Rd ","Wilmington","DE","19810","US","<MISSING>","<MISSING>","Liquor Store","39.8282808","-75.5424997","<MISSING>"
"https://ironhillbrewery.com/","<MISSING>","Tax Free Liquors","38627 Benro Dr ","Delmar","DE","19940","US","<MISSING>","<MISSING>","Liquor Store","38.456731","-75.5558042","<MISSING>"
"https://ironhillbrewery.com/","<MISSING>","Boyd's Corner Liquors","2388 Dupont Pkwy ","Middletown","DE","19709","US","<MISSING>","<MISSING>","Liquor Store","39.5008328","-75.6487434","<MISSING>"
"https://ironhillbrewery.com/","<MISSING>","Cypress Wine & Spirits","28257 Lexus Dr ","Milford","DE","19963","US","<MISSING>","<MISSING>","Liquor Store","38.89634","-75.443056","<MISSING>"
"https://ironhillbrewery.com/","<MISSING>","Milford Discount Liquors","656 N Dupont Blvd ","Milford","DE","19963","US","<MISSING>","<MISSING>","Liquor Store","38.9167434","-75.4399673","<MISSING>"
"https://ironhillbrewery.com/","<MISSING>","JJ's Fine Wine & Spirits","9 Georgetown Plaza ","Georgetown","DE","19947","US","<MISSING>","<MISSING>","Liquor Store","38.6795015","-75.3960005","<MISSING>"
"https://ironhillbrewery.com/","<MISSING>","Midway Discount Liquor","1000 Midway Dr ","Harrington","DE","19952","US","<MISSING>","<MISSING>","Liquor Store","38.924699","-75.5651053","<MISSING>"
"https://ironhillbrewery.com/","<MISSING>","Hickman's Liquors","30447 Cedar Neck Rd ","Ocean View","DE","19970","US","<MISSING>","<MISSING>","Liquor Store","38.5643738","-75.0804151","<MISSING>"
"https://ironhillbrewery.com/","<MISSING>","Beer & Wine Discounters","220 Dove Run Centre Dr  ","Middletown","DE","19709","US","<MISSING>","<MISSING>","Liquor Store","39.4545333","-75.6882694","<MISSING>"
"https://ironhillbrewery.com/","<MISSING>","Liquid Assets","2051 Bridgeville Hwy ","Seaford","DE","19973","US","<MISSING>","<MISSING>","Liquor Store","38.6620777","-75.5991076","<MISSING>"
"https://ironhillbrewery.com/","<MISSING>","O'Neill's Liquor Store","931 N Dupont Blvd ","Milford","DE","19963","US","<MISSING>","<MISSING>","Liquor Store","38.9295683","-75.4328477","<MISSING>"
"https://ironhillbrewery.com/","<MISSING>","Fine Wine & Good Spirits","10975 E State St ","Delmar","DE","19940","US","<MISSING>","<MISSING>","Liquor Store","38.455955","-75.5596366","<MISSING>"
"https://ironhillbrewery.com/","<MISSING>","Liquor World","1651 E Lebanon Rd ","Dover","DE","19901","US","<MISSING>","<MISSING>","Liquor Store","39.1239965","-75.5002128","<MISSING>"
"https://ironhillbrewery.com/","<MISSING>","Beer Wine Liquor","56 W Birdie Ln ","Magnolia","DE","19962","US","<MISSING>","<MISSING>","Liquor Store","39.0833799","-75.4861875","<MISSING>"
"https://ironhillbrewery.com/","<MISSING>","Edgemoor Liquor Store","4823 Governor Printz Blvd ","Edgemoor","DE","19809","US","<MISSING>","<MISSING>","Liquor Store","39.754619","-75.500901","<MISSING>"
"https://ironhillbrewery.com/","<MISSING>","Liquor Land","9324 Corporate Ctr Dr ","Seaford","DE","19973","US","<MISSING>","<MISSING>","Liquor Store","38.6915898","-75.5910342","<MISSING>"
"https://ironhillbrewery.com/","<MISSING>","Paper Mill Liquors","364 Possum Park Rd ","Newark","DE","19711","US","<MISSING>","<MISSING>","Liquor Store","39.7152913","-75.7387228","<MISSING>"
"https://ironhillbrewery.com/","<MISSING>","Newark Discount Liquors","230 E Main St ","Newark","DE","19711","US","<MISSING>","<MISSING>","Liquor Store","39.6851407","-75.743327","<MISSING>"
"https://ironhillbrewery.com/","<MISSING>","Cheers Wine & Liquor","107 Delaware Ave ","Laurel","DE","19956","US","<MISSING>","<MISSING>","Liquor Store","38.5574401","-75.5703125","<MISSING>"
"https://ironhillbrewery.com/","<MISSING>","Millsboro Discount Liquor","28880 Dupont Hwy ","Millsboro","DE","19966","US","<MISSING>","<MISSING>","Liquor Store","38.5667235","-75.2795772","<MISSING>"
"https://ironhillbrewery.com/","<MISSING>","Elsmere Liquors","1 Sanders Rd ","Wilmington","DE","19805","US","<MISSING>","<MISSING>","Liquor Store","39.7397144","-75.5989723","<MISSING>"
"https://ironhillbrewery.com/","<MISSING>","Smith's Liquors","5988 Summit Bridge Rd ","Townsend","DE","19734","US","<MISSING>","<MISSING>","Liquor Store","39.3984018","-75.6857916","<MISSING>"
"https://ironhillbrewery.com/","<MISSING>","The Right Bottle","699 Jimmy Dr ","Smyrna","DE","19977","US","<MISSING>","<MISSING>","Liquor Store","39.2811388","-75.5948019","<MISSING>"
"https://ironhillbrewery.com/","<MISSING>","Summit Liquors","4475 Summit Bridge Rd ","Middletown","DE","19709","US","<MISSING>","<MISSING>","Liquor Store","39.512209","-75.710731","<MISSING>"
"https://ironhillbrewery.com/","<MISSING>","White Clay Liquor","4614 Ogletown Stanton Rd ","Newark","DE","19713","US","<MISSING>","<MISSING>","Liquor Store","39.6865806","-75.680831","<MISSING>"
"https://ironhillbrewery.com/","<MISSING>","Chestnut Hill Liquors","744 E Chestnut Hill Rd ","Newark","DE","19713","US","<MISSING>","<MISSING>","Liquor Store","39.6773924","-75.699916","<MISSING>"
"https://ironhillbrewery.com/","<MISSING>","Country Wine & Liquor","72 Holly Oak Ln ","Dover","DE","19904","US","<MISSING>","<MISSING>","Liquor Store","39.2197272","-75.5822732","<MISSING>"
"https://ironhillbrewery.com/","<MISSING>","Savannah Discount Liquor","32175 Dupont Blvd  ","Dagsboro","DE","19939","US","<MISSING>","<MISSING>","Liquor Store","38.5467615","-75.2609437","<MISSING>"
"https://ironhillbrewery.com/","<MISSING>","Big Liquor Shop","38223 Dupont Blvd ","Selbyville","DE","19975","US","<MISSING>","<MISSING>","Liquor Store","38.459163","-75.2320674","<MISSING>"
"https://ironhillbrewery.com/","<MISSING>","Bridgeville Discount Liquors","9577 Bridgeville Center Rd ","Bridgeville","DE","19933","US","<MISSING>","<MISSING>","Liquor Store","38.7211","-75.5875","<MISSING>"
"https://ironhillbrewery.com/","<MISSING>","Creekside Spirits","1124 Capitol Trail ","Newark","DE","19711","US","<MISSING>","<MISSING>","Liquor Store","39.6961512","-75.7129343","<MISSING>"
"https://ironhillbrewery.com/","<MISSING>","R&L Liquors","207 2nd St ","Lewes","DE","19958","US","<MISSING>","<MISSING>","Liquor Store","38.7757975","-75.1404484","<MISSING>"
"https://ironhillbrewery.com/","<MISSING>","Universal Liquors","1005 College Rd ","Dover","DE","19904","US","<MISSING>","<MISSING>","Liquor Store","39.176124","-75.5541303","<MISSING>"
"https://ironhillbrewery.com/","<MISSING>","M & M Liquors","1606 Bay Rd ","Milford","DE","19963","US","<MISSING>","<MISSING>","Liquor Store","38.9616374","-75.4290352","<MISSING>"
"https://ironhillbrewery.com/","<MISSING>","Inner Spirits","1622 Delaware Ave ","Wilmington","DE","19806","US","<MISSING>","<MISSING>","Liquor Store","39.7577439","-75.5624473","<MISSING>"
"https://ironhillbrewery.com/","<MISSING>","First State Liquors","2699 Pulaski Hwy ","Newark","DE","19702","US","<MISSING>","<MISSING>","Liquor Store","39.6045682","-75.758203","<MISSING>"
"https://ironhillbrewery.com/","<MISSING>","Peddler's Liquor Mart","110 College Square ","Newark","DE","19711","US","<MISSING>","<MISSING>","Liquor Store","39.6828854","-75.7351876","<MISSING>"
"https://ironhillbrewery.com/","<MISSING>","Steve's Tavern","1204 Centerville Rd ","Wilmington","DE","19808","US","<MISSING>","<MISSING>","Liquor Store","39.731248","-75.619848","<MISSING>"
"https://ironhillbrewery.com/","<MISSING>","Kwik Liquor","28544 Dupont Blvd ","Millsboro","DE","19966","US","<MISSING>","<MISSING>","Liquor Store","38.5819753","-75.2936994","<MISSING>"
"https://ironhillbrewery.com/","<MISSING>","Manor Park Liquor","1415 N Dupont Hwy ","New Castle","DE","19720","US","<MISSING>","<MISSING>","Liquor Store","39.6903065","-75.5829327","<MISSING>"
"https://ironhillbrewery.com/","<MISSING>","Mr B's Super Liquor Warehouse","321 Independence Blvd ","Dover","DE","19904","US","<MISSING>","<MISSING>","Liquor Store","39.1593204","-75.5517789","<MISSING>"
"https://ironhillbrewery.com/","<MISSING>","Christiana Wine & Spirits","1101 Churchmans Rd ","Newark","DE","19713","US","<MISSING>","<MISSING>","Liquor Store","39.6896676","-75.6594346","<MISSING>"
"https://ironhillbrewery.com/","<MISSING>","J & K Liquor Warehouse","19 S Broad St ","Middletown","DE","19709","US","<MISSING>","<MISSING>","Liquor Store","39.4490013","-75.7162529","<MISSING>"
"https://ironhillbrewery.com/","<MISSING>","Pat's Pizza & Pasta","160 S Main St ","Newark","DE","19711","US","<MISSING>","<MISSING>","Liquor Store","39.67911","-75.761062","<MISSING>"
"https://ironhillbrewery.com/","<MISSING>","Back Creek Golf Course","101 Back Creek Dr ","Middletown","DE","19709","US","<MISSING>","<MISSING>","Liquor Store","39.505463","-75.7593914","<MISSING>"
"https://ironhillbrewery.com/","<MISSING>","Fox's Pizza Restaurant and Bar","31225 Americana Parkway ","Selbyville","DE","19975","US","<MISSING>","<MISSING>","Liquor Store","38.4694974","-75.113793","<MISSING>"
"https://ironhillbrewery.com/","<MISSING>","Bankshots","2689 Pulaski Hwy ","Newark","DE","19702","US","<MISSING>","<MISSING>","Liquor Store","39.6046337","-75.7579261","<MISSING>"
"https://ironhillbrewery.com/","<MISSING>","McLaren's Irish Pub","1119 Churchmans Rd ","Newark","DE","19713","US","<MISSING>","<MISSING>","Liquor Store","39.6899431","-75.6587901","<MISSING>"
"https://ironhillbrewery.com/","<MISSING>","Salt Air","50 Wilmington Ave ","Rehoboth Beach","DE","19971","US","<MISSING>","<MISSING>","Liquor Store","38.7151302","-75.0810539","<MISSING>"
"https://ironhillbrewery.com/","<MISSING>","Blackwall Hitch","52 Rehoboth Ave ","Rehoboth Beach","DE","19971","US","<MISSING>","<MISSING>","Liquor Store","38.7160934","-75.077851","<MISSING>"
"https://ironhillbrewery.com/","<MISSING>","Arena's Deli","149 Rehoboth Ave ","Rehoboth Beach","DE","19971","US","<MISSING>","<MISSING>","Liquor Store","38.7167013","-75.0809231","<MISSING>"
"https://ironhillbrewery.com/","<MISSING>","The Green Stinger","235 Stadium St ","Smyrna","DE","19977","US","<MISSING>","<MISSING>","Liquor Store","39.2803522","-75.5904104","<MISSING>"
"https://ironhillbrewery.com/","<MISSING>","Holt's Wine & Spirits","34903 Atlantic Ave ","Ocean View","DE","19970","US","<MISSING>","<MISSING>","Liquor Store","38.5516122","-75.1328551","<MISSING>"
"https://ironhillbrewery.com/","<MISSING>","J D Shuckers","20750 John J Williams Hwy ","Lewes","DE","19958","US","<MISSING>","<MISSING>","Liquor Store","38.7002","-75.169871","<MISSING>"
"https://ironhillbrewery.com/","<MISSING>","Kemp's Liquors","22841 Milton Ellendale Hwy ","Milton","DE","19968","US","<MISSING>","<MISSING>","Liquor Store","38.7869608","-75.3403786","<MISSING>"
"https://ironhillbrewery.com/","<MISSING>","Oak Creek Wine & Spirits","28266 Lewes Georgetown Hwy ","Milton","DE","19968","US","<MISSING>","<MISSING>","Liquor Store","38.730275","-75.2567889","<MISSING>"
"https://ironhillbrewery.com/","<MISSING>","Pockets Discount Liquors","337 S Dupont Hwy ","New Castle","DE","19720","US","<MISSING>","<MISSING>","Liquor Store","39.6494787","-75.6219172","<MISSING>"
"https://ironhillbrewery.com/","<MISSING>","Smyrna Wine & Liquor Warehouse","2499 S Dupont Blvd ","Smyrna","DE","19977","US","<MISSING>","<MISSING>","Liquor Store","39.268761","-75.587764","<MISSING>"
"https://ironhillbrewery.com/","<MISSING>","Super Spirits","7 Old Camden Rd ","Camden","DE","19934","US","<MISSING>","<MISSING>","Liquor Store","39.118578","-75.5364361","<MISSING>"
"https://ironhillbrewery.com/","<MISSING>","Tom Foolery's Restaurant & Bar","714 Ash Blvd ","Middletown","DE","19709","US","<MISSING>","<MISSING>","Liquor Store","39.4590315","-75.7245001","<MISSING>"
"https://ironhillbrewery.com/","<MISSING>","Airport Liquors","202 Churchmans Rd ","New Castle","DE","19720","US","<MISSING>","<MISSING>","Liquor Store","39.6775402","-75.6265301","<MISSING>"
"https://ironhillbrewery.com/","<MISSING>","Court Street Liquor","460 S Dupont Hwy ","Dover","DE","19901","US","<MISSING>","<MISSING>","Liquor Store","39.1558502","-75.5134733","<MISSING>"
"https://ironhillbrewery.com/","<MISSING>","Good Earth Market & Organic Farm","31806 Good Earth Ln ","Ocean View","DE","19970","US","<MISSING>","<MISSING>","Liquor Store","38.5519548","-75.1377466","<MISSING>"
"https://ironhillbrewery.com/","<MISSING>","Just Hooked","1500 Coastal Hwy ","Fenwick Island","DE","19944","US","<MISSING>","<MISSING>","Liquor Store","38.4646197","-75.0523482","<MISSING>"
"https://ironhillbrewery.com/","<MISSING>","Sully's Irish Pub","12 W Main St ","Middletown","DE","19709","US","<MISSING>","<MISSING>","Liquor Store","39.4494133","-75.7171249","<MISSING>"
"https://ironhillbrewery.com/","<MISSING>","1 Stop Mini Market","700 S 8th St ","Philadelphia","PA","19147","US","<MISSING>","<MISSING>","Liquor Store","39.9413687","-75.1559854","<MISSING>"
"https://ironhillbrewery.com/","<MISSING>","5 Points Beer","408 Doylestown Rd ","Montgomeryville","PA","18936","US","<MISSING>","<MISSING>","Liquor Store","40.2497244","-75.2422751","<MISSING>"
"https://ironhillbrewery.com/","<MISSING>","A1 Beer Barn","4117 Edgmont Ave ","Brookhaven","PA","19015","US","<MISSING>","<MISSING>","Liquor Store","39.8731791","-75.3887176","<MISSING>"
"https://ironhillbrewery.com/","<MISSING>","Abe's Cold Beer","418 N 15th St ","Allentown","PA","18102","US","<MISSING>","<MISSING>","Liquor Store","40.6039279","-75.4911566","<MISSING>"
"https://ironhillbrewery.com/","<MISSING>","Abe's Six Pack & Deli","1301 W Broad St ","Bethlehem","PA","18018","US","<MISSING>","<MISSING>","Liquor Store","40.6222375","-75.4007299","<MISSING>"
"https://ironhillbrewery.com/","<MISSING>","Ambler Beverage Exchange","259 E Butler Ave ","Ambler","PA","19002","US","<MISSING>","<MISSING>","Liquor Store","40.1567946","-75.2180552","<MISSING>"
"https://ironhillbrewery.com/","<MISSING>","Amity 1st Stop Beverage","1212 Benjamin Franklin Hwy ","Douglassville","PA","19518","US","<MISSING>","<MISSING>","Liquor Store","40.2583186","-75.7271678","<MISSING>"
"https://ironhillbrewery.com/","<MISSING>","Andalusia Beer","801 Bristol Pike ","Bensalem","PA","19020","US","<MISSING>","<MISSING>","Liquor Store","40.0656359","-74.9745534","<MISSING>"
"https://ironhillbrewery.com/","<MISSING>","Aston Beverage Outlet","411 Marianville Rd ","Aston","PA","19014","US","<MISSING>","<MISSING>","Liquor Store","39.8645467","-75.4272103","<MISSING>"
"https://ironhillbrewery.com/","<MISSING>","Audubon Beverage","2864 Audubon Dr ","Audubon","PA","19403","US","<MISSING>","<MISSING>","Liquor Store","40.1285736","-75.43543","<MISSING>"
"https://ironhillbrewery.com/","<MISSING>","B2 Bistro + Bar","701 Reading Ave ","West Reading","PA","19611","US","<MISSING>","<MISSING>","Liquor Store","40.337576","-75.9517801","<MISSING>"
"https://ironhillbrewery.com/","<MISSING>","Back Alley Beverage","2214 State Rd  ","Drexel Hill","PA","19026","US","<MISSING>","<MISSING>","Liquor Store","39.9587809","-75.2881218","<MISSING>"
"https://ironhillbrewery.com/","<MISSING>","Beer-A-Rama","200 Levittown Pkwy ","Levittown","PA","19054","US","<MISSING>","<MISSING>","Liquor Store","40.1449367","-74.8194101","<MISSING>"
"https://ironhillbrewery.com/","<MISSING>","Beer Center","11000 Roosevelt Blvd ","Philadelphia","PA","19116","US","<MISSING>","<MISSING>","Liquor Store","40.1031213","-75.0103391","<MISSING>"
"https://ironhillbrewery.com/","<MISSING>","Beer City","701 E Girard Ave ","Philadelphia","PA","19125","US","<MISSING>","<MISSING>","Liquor Store","39.972203","-75.125942","<MISSING>"
"https://ironhillbrewery.com/","<MISSING>","Beer etc.","1540 Cowpath Rd ","Hatfield","PA","19440","US","<MISSING>","<MISSING>","Liquor Store","40.271599","-75.289755","<MISSING>"
"https://ironhillbrewery.com/","<MISSING>","Beer Hut","9911 Northeast Ave ","Philadelphia","PA","19115","US","<MISSING>","<MISSING>","Liquor Store","40.1005282","-75.0280809","<MISSING>"
"https://ironhillbrewery.com/","<MISSING>","Beer Mart","833 W Trenton Ave ","Morrisville","PA","19067","US","<MISSING>","<MISSING>","Liquor Store","40.208528","-74.799434","<MISSING>"
"https://ironhillbrewery.com/","<MISSING>","Beer Mart","301 Morgantown Rd ","Reading","PA","19611","US","<MISSING>","<MISSING>","Liquor Store","40.3202846","-75.9260113","<MISSING>"
"https://ironhillbrewery.com/","<MISSING>","Beermill","351 W Chestnut St ","West Chester","PA","19380","US","<MISSING>","<MISSING>","Liquor Store","39.9591997","-75.6116271","<MISSING>"
"https://ironhillbrewery.com/","<MISSING>","Beer Stop Beverage","793 Bethlehem Pike ","Colmar","PA","18915","US","<MISSING>","<MISSING>","Liquor Store","40.280913","-75.2613694","<MISSING>"
"https://ironhillbrewery.com/","<MISSING>","Bell Beverage","2809 S Front St ","Philadelphia","PA","19148","US","<MISSING>","<MISSING>","Liquor Store","39.9119859","-75.1498721","<MISSING>"
"https://ironhillbrewery.com/","<MISSING>","Ben Franklin Beer"," 27 S 2nd St ","Philadelphia","PA","19106","US","<MISSING>","<MISSING>","Liquor Store","39.9491512","-75.1438074","<MISSING>"
"https://ironhillbrewery.com/","<MISSING>","Bernville Beverage","7178 Bernville Rd ","Bernville","PA","19506","US","<MISSING>","<MISSING>","Liquor Store","40.4449541","-76.1289609","<MISSING>"
"https://ironhillbrewery.com/","<MISSING>","Beverage & Smokes","6366 Hamilton Blvd ","Allentown","PA","18106","US","<MISSING>","<MISSING>","Liquor Store","40.5552863","-75.5802812","<MISSING>"
"https://ironhillbrewery.com/","<MISSING>","Beverage & Smokes","78 S Whiteoak St ","Kutztown","PA","19530","US","<MISSING>","<MISSING>","Liquor Store","40.514648","-75.7766077","<MISSING>"
"https://ironhillbrewery.com/","<MISSING>","Beverage World","140 Main St ","Phoenixville","PA","19460","US","<MISSING>","<MISSING>","Liquor Store","40.1312526","-75.5157284","<MISSING>"
"https://ironhillbrewery.com/","<MISSING>","Richboro Pub","1034 2nd St Pike ","Richboro","PA","18954","US","<MISSING>","<MISSING>","Liquor Store","40.2163889","-75.0113889","<MISSING>"
"https://ironhillbrewery.com/","<MISSING>","Big Top Beverage","1555 Easton Rd ","Roslyn","PA","19001","US","<MISSING>","<MISSING>","Liquor Store","40.131626","-75.1260421","<MISSING>"
"https://ironhillbrewery.com/","<MISSING>","Bill's Beer","400 B W, E Broad St ","Shillington","PA","19607","US","<MISSING>","<MISSING>","Liquor Store","40.3026894","-75.9768216","<MISSING>"
"https://ironhillbrewery.com/","<MISSING>","Boulevard Beer","7015 Roosevelt Blvd ","Philadelphia","PA","19149","US","<MISSING>","<MISSING>","Liquor Store","40.0408709","-75.056998","<MISSING>"
"https://ironhillbrewery.com/","<MISSING>","Brewer's Bar & Grill","101 S 3rd Ave, West ","Reading","PA","19611","US","<MISSING>","<MISSING>","Liquor Store","40.333775","-75.943927","<MISSING>"
"https://ironhillbrewery.com/","<MISSING>","Brewers Outlet","7401 Germantown Ave ","Philadelphia","PA","19119","US","<MISSING>","<MISSING>","Liquor Store","40.0632472","-75.1927333","<MISSING>"
"https://ironhillbrewery.com/","<MISSING>","Brewers Outlet","257 Wilmington West Chester Pike ","Chadds Ford","PA","19317","US","<MISSING>","<MISSING>","Liquor Store","39.852657","-75.539525","<MISSING>"
"https://ironhillbrewery.com/","<MISSING>","Bridgeport Beer","18 E 4th St ","Bridgeport","PA","19405","US","<MISSING>","<MISSING>","Liquor Store","40.1050334","-75.3413874","<MISSING>"
"https://ironhillbrewery.com/","<MISSING>","Bryn Mawr Beverage","196 Landover Rd ","Bryn Mawr","PA","19010","US","<MISSING>","<MISSING>","Liquor Store","40.016146","-75.321243","<MISSING>"
"https://ironhillbrewery.com/","<MISSING>","Candlewyck Bar & Grill","2551 Durham Rd ","Doylestown","PA","18902","US","<MISSING>","<MISSING>","Liquor Store","40.3245242","-75.060722","<MISSING>"
"https://ironhillbrewery.com/","<MISSING>","Capone's","224 W Germantown Pike ","Norristown","PA","19401","US","<MISSING>","<MISSING>","Liquor Store","40.1465617","-75.3256932","<MISSING>"
"https://ironhillbrewery.com/","<MISSING>","Capri Pizza Restaurant & Bar","5855 Easton Rd ","Plumsteadville","PA","18949","US","<MISSING>","<MISSING>","Liquor Store","40.3871218","-75.1454802","<MISSING>"
"https://ironhillbrewery.com/","<MISSING>","Cattani's US 1 Beer","305 W Lincoln Hwy ","Penndel","PA","19047","US","<MISSING>","<MISSING>","Liquor Store","40.1571261","-74.9177833","<MISSING>"
"https://ironhillbrewery.com/","<MISSING>","Cicione Beverage","1729 S 20th St ","Philadelphia","PA","19145","US","<MISSING>","<MISSING>","Liquor Store","39.9295417","-75.1782217","<MISSING>"
"https://ironhillbrewery.com/","<MISSING>","Civera's Deli","2214 State Rd ","Drexel Hill","PA","19026","US","<MISSING>","<MISSING>","Liquor Store","39.958956","-75.288162","<MISSING>"
"https://ironhillbrewery.com/","<MISSING>","Country Place","1007 PA-313 ","Perkasie","PA","18944","US","<MISSING>","<MISSING>","Liquor Store","40.408469","-75.26093","<MISSING>"
"https://ironhillbrewery.com/","<MISSING>","Craft Beer Store","35 Baltimore Pike ","Springfield","PA","19064","US","<MISSING>","<MISSING>","Liquor Store","39.9238385","-75.3127244","<MISSING>"
"https://ironhillbrewery.com/","<MISSING>","D & R Beverage Center","4060 Easton-Nazareth Hwy ","Nazareth","PA","18064","US","<MISSING>","<MISSING>","Liquor Store","40.7324876","-75.3116071","<MISSING>"
"https://ironhillbrewery.com/","<MISSING>","Daddy's Place","650 Northampton St ","Easton","PA","18042","US","<MISSING>","<MISSING>","Liquor Store","40.6905371","-75.2163636","<MISSING>"
"https://ironhillbrewery.com/","<MISSING>","Doc's World of Beer","701 E Cathedral Rd ","Philadelphia","PA","19128","US","<MISSING>","<MISSING>","Liquor Store","40.0634621","-75.2383659","<MISSING>"
"https://ironhillbrewery.com/","<MISSING>","Domestic & Imported Beverages","485 Baltimore Pike ","Glen Mills","PA","19342","US","<MISSING>","<MISSING>","Liquor Store","39.8921804","-75.5054558","<MISSING>"
"https://ironhillbrewery.com/","<MISSING>","Dominick's Pizza & Pub","3337 County Line Rd ","Chalfont","PA","18914","US","<MISSING>","<MISSING>","Liquor Store","40.2463889","-75.1947222","<MISSING>"
"https://ironhillbrewery.com/","<MISSING>","Doylestown Beer Authority","10 Atkinson Dr  ","Doylestown","PA","18901","US","<MISSING>","<MISSING>","Liquor Store","40.3183558","-75.1321786","<MISSING>"
"https://ironhillbrewery.com/","<MISSING>","Dutton Mill Beverage","4401-4445 Pennell Rd ","Aston","PA","19014","US","<MISSING>","<MISSING>","Liquor Store","39.8562925","-75.4274836","<MISSING>"
"https://ironhillbrewery.com/","<MISSING>","East Falls Beverage","4024 Ridge Ave ","Philadelphia","PA","19129","US","<MISSING>","<MISSING>","Liquor Store","40.007353","-75.189882","<MISSING>"
"https://ironhillbrewery.com/","<MISSING>","Bear Swamp Beverage","100 W Main St ","Macungie","PA","18062","US","<MISSING>","<MISSING>","Liquor Store","40.517031","-75.5589347","<MISSING>"
"https://ironhillbrewery.com/","<MISSING>","Epps Beverages","80 W Ridge Pike ","Royersford","PA","19468","US","<MISSING>","<MISSING>","Liquor Store","40.2191695","-75.505493","<MISSING>"
"https://ironhillbrewery.com/","<MISSING>","Exton Beverage","310 E Lincoln Hwy ","Exton","PA","19341","US","<MISSING>","<MISSING>","Liquor Store","40.0283652","-75.6211331","<MISSING>"
"https://ironhillbrewery.com/","<MISSING>","E Z Beverage","600 MacDade Boulevard ","Folsom","PA","19033","US","<MISSING>","<MISSING>","Liquor Store","39.8902633","-75.3244008","<MISSING>"
"https://ironhillbrewery.com/","<MISSING>","Family Beverage","1200 Welsh Rd  ","North Wales","PA","19454","US","<MISSING>","<MISSING>","Liquor Store","40.22836","-75.259941","<MISSING>"
"https://ironhillbrewery.com/","<MISSING>","Farmhouse Tavern","380 N Main St ","Doylestown","PA","18901","US","<MISSING>","<MISSING>","Liquor Store","40.31869","-75.1308484","<MISSING>"
"https://ironhillbrewery.com/","<MISSING>","Fingers Wings & Other Things","107 Ridge Pike ","Conshohocken","PA","19428","US","<MISSING>","<MISSING>","Liquor Store","40.0942466","-75.2878646","<MISSING>"
"https://ironhillbrewery.com/","<MISSING>","Fireside Inn","237 Elmwood Ave ","Feasterville-Trevose","PA","19053","US","<MISSING>","<MISSING>","Liquor Store","40.1566271","-74.9854303","<MISSING>"
"https://ironhillbrewery.com/","<MISSING>","Fleetwood Beverages","2 E Race St ","Fleetwood","PA","19522","US","<MISSING>","<MISSING>","Liquor Store","40.457555","-75.818727","<MISSING>"
"https://ironhillbrewery.com/","<MISSING>","Flourtown Beverage","1114 Bethlehem Pike ","Flourtown","PA","19031","US","<MISSING>","<MISSING>","Liquor Store","40.0995138","-75.212149","<MISSING>"
"https://ironhillbrewery.com/","<MISSING>","The Foodery","324 S 10th St  ","Philadelphia","PA","19107","US","<MISSING>","<MISSING>","Liquor Store","39.9447968","-75.1582828","<MISSING>"
"https://ironhillbrewery.com/","<MISSING>","The Foodery","837 N 2nd St ","Philadelphia","PA","19123","US","<MISSING>","<MISSING>","Liquor Store","39.964008","-75.1404864","<MISSING>"
"https://ironhillbrewery.com/","<MISSING>","4 Seasons Food Market","236 S 21st St ","Philadelphia","PA","19103","US","<MISSING>","<MISSING>","Liquor Store","39.949897","-75.176084","<MISSING>"
"https://ironhillbrewery.com/","<MISSING>","Austin's Beverages","3905 Ridge Pike ","Collegeville","PA","19426","US","<MISSING>","<MISSING>","Liquor Store","40.179708","-75.43983","<MISSING>"
"https://ironhillbrewery.com/","<MISSING>","Frank A Smith Beverages","180 Shoemaker Rd ","Pottstown","PA","19464","US","<MISSING>","<MISSING>","Liquor Store","40.2525","-75.6588889","<MISSING>"
"https://ironhillbrewery.com/","<MISSING>","Frankie V Beer & Soda","86 W Water St ","Hellertown","PA","18055","US","<MISSING>","<MISSING>","Liquor Store","40.5790601","-75.3425154","<MISSING>"
"https://ironhillbrewery.com/","<MISSING>","Franklin Beverage","1837 Callowhill St ","Philadelphia","PA","19130","US","<MISSING>","<MISSING>","Liquor Store","39.9606594","-75.169588","<MISSING>"
"https://ironhillbrewery.com/","<MISSING>","Friendly Food Mart","4209 William Penn Hwy ","Easton","PA","18045","US","<MISSING>","<MISSING>","Liquor Store","40.6691443","-75.2747641","<MISSING>"
"https://ironhillbrewery.com/","<MISSING>","Frontier Saloon & Restaurant","336 Kedron Ave ","Folsom","PA","19033","US","<MISSING>","<MISSING>","Liquor Store","39.8972634","-75.3156375","<MISSING>"
"https://ironhillbrewery.com/","<MISSING>","Frosty Caps","1745 Old York Rd ","Abington","PA","19001","US","<MISSING>","<MISSING>","Liquor Store","40.1328899","-75.1152073","<MISSING>"
"https://ironhillbrewery.com/","<MISSING>","Garden Court Eatery","4721 Pine St ","Philadelphia","PA","19143","US","<MISSING>","<MISSING>","Liquor Store","39.952542","-75.2175547","<MISSING>"
"https://ironhillbrewery.com/","<MISSING>","Gardenville Hotel","4726 Durham Rd ","Pipersville","PA","18947","US","<MISSING>","<MISSING>","Liquor Store","40.3725675","-75.1088824","<MISSING>"
"https://ironhillbrewery.com/","<MISSING>","Giuliano's Deli","2202 Mt Carmel Ave ","Glenside","PA","19038","US","<MISSING>","<MISSING>","Liquor Store","40.100462","-75.14927","<MISSING>"
"https://ironhillbrewery.com/","<MISSING>","Goff's Suds & Soda","560 S Oak Ave  ","Clifton Heights","PA","19018","US","<MISSING>","<MISSING>","Liquor Store","39.919684","-75.298342","<MISSING>"
"https://ironhillbrewery.com/","<MISSING>","Golden Beverage","122 N Flowers Mill Rd ","Langhorne","PA","19047","US","<MISSING>","<MISSING>","Liquor Store","40.1820951","-74.905577","<MISSING>"
"https://ironhillbrewery.com/","<MISSING>","Golden Coast Beer","1218 Snyder Ave ","Philadelphia","PA","19148","US","<MISSING>","<MISSING>","Liquor Store","39.923785","-75.166748","<MISSING>"
"https://ironhillbrewery.com/","<MISSING>","Goshen Beverage Center","102 Turner Ln ","West Chester","PA","19380","US","<MISSING>","<MISSING>","Liquor Store","39.969114","-75.5886145","<MISSING>"
"https://ironhillbrewery.com/","<MISSING>","Graham's Pub","8919 Ridge Ave ","Philadelphia","PA","19128","US","<MISSING>","<MISSING>","Liquor Store","40.0692234","-75.2401571","<MISSING>"
"https://ironhillbrewery.com/","<MISSING>","The Greeks","239 Haverford Ave ","Narberth","PA","19072","US","<MISSING>","<MISSING>","Liquor Store","40.005817","-75.2605188","<MISSING>"
"https://ironhillbrewery.com/","<MISSING>","Gwynedd Beverage Outlet","830 N Bethlehem Pike ","Spring House","PA","19477","US","<MISSING>","<MISSING>","Liquor Store","40.1812156","-75.2251938","<MISSING>"
"https://ironhillbrewery.com/","<MISSING>","H & L Beverage","915 Lincoln Ave ","Prospect Park","PA","19076","US","<MISSING>","<MISSING>","Liquor Store","39.8858935","-75.3082551","<MISSING>"
"https://ironhillbrewery.com/","<MISSING>","Hatfield Beverage","1616 N Broad St ","Lansdale","PA","19446","US","<MISSING>","<MISSING>","Liquor Store","40.2562119","-75.2689579","<MISSING>"
"https://ironhillbrewery.com/","<MISSING>","IGA at Fishtown Crossing","2497 Aramingo Ave ","Philadelphia","PA","19125","US","<MISSING>","<MISSING>","Liquor Store","39.975283","-75.1198295","<MISSING>"
"https://ironhillbrewery.com/","<MISSING>","Javies Beverage","4901 Umbria St ","Philadelphia","PA","19128","US","<MISSING>","<MISSING>","Liquor Store","40.0349157","-75.2346321","<MISSING>"
"https://ironhillbrewery.com/","<MISSING>","Jerzee's Sports Bar & Pizzaria","2609 Mt Carmel Ave  ","Glenside","PA","19038","US","<MISSING>","<MISSING>","Liquor Store","40.106392","-75.160741","<MISSING>"
"https://ironhillbrewery.com/","<MISSING>","Joe Burns Beverages","1200 Horseshoe Pike ","Downingtown","PA","19335","US","<MISSING>","<MISSING>","Liquor Store","40.032915","-75.764651","<MISSING>"
"https://ironhillbrewery.com/","<MISSING>","Jordan Park Beverage","1208 MacArthur Rd ","Whitehall","PA","18052","US","<MISSING>","<MISSING>","Liquor Store","40.6220844","-75.4813934","<MISSING>"
"https://ironhillbrewery.com/","<MISSING>","K & Y Beer","242 W Baltimore Pike ","Clifton Heights","PA","19018","US","<MISSING>","<MISSING>","Liquor Store","39.9275551","-75.3017023","<MISSING>"
"https://ironhillbrewery.com/","<MISSING>","Somerton Beverage","13500 Bustleton Ave ","Philadelphia","PA","19116","US","<MISSING>","<MISSING>","Liquor Store","40.1288064","-75.0141857","<MISSING>"
"https://ironhillbrewery.com/","<MISSING>","Kunda Beverage","349 S Henderson Rd ","King of Prussia","PA","19406","US","<MISSING>","<MISSING>","Liquor Store","40.0881882","-75.35852","<MISSING>"
"https://ironhillbrewery.com/","<MISSING>","Leaf Cigar Bar","90 Mort Dr ","Easton","PA","18040","US","<MISSING>","<MISSING>","Liquor Store","40.7405457","-75.2231258","<MISSING>"
"https://ironhillbrewery.com/","<MISSING>","Lima Beverage","14 Pennell Rd ","Media","PA","19063","US","<MISSING>","<MISSING>","Liquor Store","39.9113225","-75.4400066","<MISSING>"
"https://ironhillbrewery.com/","<MISSING>","Link Beverages","315 E Thomas St ","Coopersburg","PA","18036","US","<MISSING>","<MISSING>","Liquor Store","40.508819","-75.3871444","<MISSING>"
"https://ironhillbrewery.com/","<MISSING>","Linden Food Market","833 Linden St ","Bethlehem","PA","18018","US","<MISSING>","<MISSING>","Liquor Store","40.6259131","-75.3707053","<MISSING>"
"https://ironhillbrewery.com/","<MISSING>","Lionville Beverage","75 E Uwchlan Ave ","Exton","PA","19341","US","<MISSING>","<MISSING>","Liquor Store","40.0602891","-75.6559664","<MISSING>"
"https://ironhillbrewery.com/","<MISSING>","Lou Beverage","602 E Lancaster Ave ","Downingtown","PA","19335","US","<MISSING>","<MISSING>","Liquor Store","40.0120837","-75.6932521","<MISSING>"
"https://ironhillbrewery.com/","<MISSING>","Mac's Neighborhood Beverage","511 Limekiln Pike ","Maple Glen","PA","19002","US","<MISSING>","<MISSING>","Liquor Store","40.178125","-75.183466","<MISSING>"
"https://ironhillbrewery.com/","<MISSING>","Manoa Beverage","1111 West Chester Pike ","Havertown","PA","19083","US","<MISSING>","<MISSING>","Liquor Store","39.972685","-75.315129","<MISSING>"
"https://ironhillbrewery.com/","<MISSING>","Maria's Ristorante","8100 Ridge Ave ","Philadelphia","PA","19128","US","<MISSING>","<MISSING>","Liquor Store","40.0567353","-75.2363424","<MISSING>"
"https://ironhillbrewery.com/","<MISSING>","McLaughlin's Beverage","2600 MacDade Boulevard ","Holmes","PA","19043","US","<MISSING>","<MISSING>","Liquor Store","39.8987593","-75.3032816","<MISSING>"
"https://ironhillbrewery.com/","<MISSING>","Moore Beverage","Moore Beverage, 601 Moore St ","Philadelphia","PA","19148","US","<MISSING>","<MISSING>","Liquor Store","39.9265278","-75.1561278","<MISSING>"
"https://ironhillbrewery.com/","<MISSING>","Mr Beer","4 Cheltenham Dr ","Wyomissing","PA","19610","US","<MISSING>","<MISSING>","Liquor Store","40.3414704","-75.989659","<MISSING>"
"https://ironhillbrewery.com/","<MISSING>","Mr Bottle Beverage","521 Lancaster Ave ","Berwyn","PA","19312","US","<MISSING>","<MISSING>","Liquor Store","40.0477246","-75.4360372","<MISSING>"
"https://ironhillbrewery.com/","<MISSING>","North Penn Beverage","39 Washington Ave ","Souderton","PA","18964","US","<MISSING>","<MISSING>","Liquor Store","40.3078128","-75.3202083","<MISSING>"
"https://ironhillbrewery.com/","<MISSING>","North Wales Beer","120 N 3rd St ","North Wales","PA","19454","US","<MISSING>","<MISSING>","Liquor Store","40.2121974","-75.2785813","<MISSING>"
"https://ironhillbrewery.com/","<MISSING>","Old Nelson Food Company","1833 John F Kennedy Blvd ","Philadelphia","PA","19103","US","<MISSING>","<MISSING>","Liquor Store","39.9545033","-75.1710755","<MISSING>"
"https://ironhillbrewery.com/","<MISSING>","Old Nelson Food Company","1100 W Montgomery Ave ","Philadelphia","PA","19122","US","<MISSING>","<MISSING>","Liquor Store","39.9794038","-75.1526122","<MISSING>"
"https://ironhillbrewery.com/","<MISSING>","Old City Beer Garden","240 Market St ","Philadelphia","PA","19106","US","<MISSING>","<MISSING>","Liquor Store","39.949699","-75.145341","<MISSING>"
"https://ironhillbrewery.com/","<MISSING>","Oxford Beverage","7517 Oxford Ave ","Philadelphia","PA","19111","US","<MISSING>","<MISSING>","Liquor Store","40.0663993","-75.0835866","<MISSING>"
"https://ironhillbrewery.com/","<MISSING>","Park Towne Beverage","310 N Lewis Rd ","Royersford","PA","19468","US","<MISSING>","<MISSING>","Liquor Store","40.1950076","-75.5335841","<MISSING>"
"https://ironhillbrewery.com/","<MISSING>","Pasqually's Pizza, Beer & Wine","200 S 43rd St ","Philadelphia","PA","19104","US","<MISSING>","<MISSING>","Liquor Store","39.9545027","-75.2090008","<MISSING>"
"https://ironhillbrewery.com/","<MISSING>","Pat Deon Beverages","540 S Oxford Valley Rd ","Fairless Hills","PA","19030","US","<MISSING>","<MISSING>","Liquor Store","40.1679217","-74.8504981","<MISSING>"
"https://ironhillbrewery.com/","<MISSING>","Pavlish Beverage & Ice","2800 Easton Ave ","Bethlehem","PA","18017","US","<MISSING>","<MISSING>","Liquor Store","40.6461047","-75.3428121","<MISSING>"
"https://ironhillbrewery.com/","<MISSING>","Penn Brew Station","627 W Baltimore Pike ","West Grove,","PA","19390","US","<MISSING>","<MISSING>","Liquor Store","39.8225833","-75.8649583","<MISSING>"
"https://ironhillbrewery.com/","<MISSING>","Pennridge Beverage","113 S 2nd St ","Perkasie","PA","18944","US","<MISSING>","<MISSING>","Liquor Store","40.369359","-75.293749","<MISSING>"
"https://ironhillbrewery.com/","<MISSING>","Perkiomen Distributors","3853 Perkiomen Ave ","Reading","PA","19606","US","<MISSING>","<MISSING>","Liquor Store","40.315451","-75.870924","<MISSING>"
"https://ironhillbrewery.com/","<MISSING>","Philadelphia Beer","2525 E York St ","Philadelphia","PA","19125","US","<MISSING>","<MISSING>","Liquor Store","39.976791","-75.122941","<MISSING>"
"https://ironhillbrewery.com/","<MISSING>","Philly Beverages","2517 W Girard Ave ","Philadelphia","PA","19130","US","<MISSING>","<MISSING>","Liquor Store","39.9740105","-75.1782263","<MISSING>"
"https://ironhillbrewery.com/","<MISSING>","Philly's Craft Beer","160 Bristol Oxford Valley Rd ","Langhorne","PA","19047","US","<MISSING>","<MISSING>","Liquor Store","40.1786806","-74.870975","<MISSING>"
"https://ironhillbrewery.com/","<MISSING>","Pinocchio's Restaurant","131 E Baltimore Ave ","Media","PA","19063","US","<MISSING>","<MISSING>","Liquor Store","39.9166643","-75.3865844","<MISSING>"
"https://ironhillbrewery.com/","<MISSING>","PJP Marketplace","8920 Frankford Ave ","Philadelphia","PA","19136","US","<MISSING>","<MISSING>","Liquor Store","40.0522333","-75.0104575","<MISSING>"
"https://ironhillbrewery.com/","<MISSING>","Pottstown Beverage","375 N Hanover St ","Pottstown","PA","19464","US","<MISSING>","<MISSING>","Liquor Store","40.253636","-75.647212","<MISSING>"
"https://ironhillbrewery.com/","<MISSING>","Quakertown Beverage","124 S West End Blvd ","Quakertown","PA","18951","US","<MISSING>","<MISSING>","Liquor Store","40.4394055","-75.3561664","<MISSING>"
"https://ironhillbrewery.com/","<MISSING>","Randazzo's Pizza","2395 York Rd ","Jamison","PA","18929","US","<MISSING>","<MISSING>","Liquor Store","40.2593879","-75.0849406","<MISSING>"
"https://ironhillbrewery.com/","<MISSING>","Rite Buy Beer","101 S Bishop Ave ","Clifton Heights","PA","19018","US","<MISSING>","<MISSING>","Liquor Store","39.9233513","-75.3103811","<MISSING>"
"https://ironhillbrewery.com/","<MISSING>","Rockland Beverage","1150 Rockland St ","Reading","PA","19604","US","<MISSING>","<MISSING>","Liquor Store","40.3643226","-75.9135023","<MISSING>"
"https://ironhillbrewery.com/","<MISSING>","Rocko's Beverage","4-A State Rd ","Media","PA","19063","US","<MISSING>","<MISSING>","Liquor Store","39.92736","-75.3854704","<MISSING>"
"https://ironhillbrewery.com/","<MISSING>","Shamrock Beverage","1010 MacDade Boulevard ","Folsom","PA","19033","US","<MISSING>","<MISSING>","Liquor Store","39.8922644","-75.321337","<MISSING>"
"https://ironhillbrewery.com/","<MISSING>","ShopRite","3745 Aramingo Ave ","Philadelphia","PA","19137","US","<MISSING>","<MISSING>","Liquor Store","39.9945617","-75.0915928","<MISSING>"
"https://ironhillbrewery.com/","<MISSING>","ShopRite","4701 Freemansburg Ave ","Bethlehem","PA","18045","US","<MISSING>","<MISSING>","Liquor Store","40.6511377","-75.2933845","<MISSING>"
"https://ironhillbrewery.com/","<MISSING>","Skippack Beverage","1120 Bridge Rd  ","Creamery","PA","19430","US","<MISSING>","<MISSING>","Liquor Store","40.2201433","-75.4137759","<MISSING>"
"https://ironhillbrewery.com/","<MISSING>","South Mountain Beer","5104 E Penn Ave ","Wernersville","PA","19565","US","<MISSING>","<MISSING>","Liquor Store","40.326857","-76.066455","<MISSING>"
"https://ironhillbrewery.com/","<MISSING>","Boom-A-Rang Beverage","2604 Dearborn St ","Easton","PA","18045","US","<MISSING>","<MISSING>","Liquor Store","40.67575","-75.2482124","<MISSING>"
"https://ironhillbrewery.com/","<MISSING>","Spaz Beverage","1015 West Chester Pike ","West Chester","PA","19382","US","<MISSING>","<MISSING>","Liquor Store","39.9683125","-75.577626","<MISSING>"
"https://ironhillbrewery.com/","<MISSING>","Spor's General Store","22 W Broad St ","Trumbauersville","PA","18970","US","<MISSING>","<MISSING>","Liquor Store","40.409927","-75.379024","<MISSING>"
"https://ironhillbrewery.com/","<MISSING>","Springfield Beer","2206 Washington Ave ","Philadelphia","PA","19146","US","<MISSING>","<MISSING>","Liquor Store","39.9392063","-75.1803023","<MISSING>"
"https://ironhillbrewery.com/","<MISSING>","Springfield Beverage","608 Baltimore Pike ","Springfield","PA","19064","US","<MISSING>","<MISSING>","Liquor Store","39.9199887","-75.326394","<MISSING>"
"https://ironhillbrewery.com/","<MISSING>","Springfield Suds N'Soda","1033 Woodland Ave ","Springfield","PA","19064","US","<MISSING>","<MISSING>","Liquor Store","39.9120761","-75.3310782","<MISSING>"
"https://ironhillbrewery.com/","<MISSING>","Sues Market","275 St James Pl ","Philadelphia","PA","19106","US","<MISSING>","<MISSING>","Liquor Store","39.9462254","-75.1454715","<MISSING>"
"https://ironhillbrewery.com/","<MISSING>","Super Beverages Warehouse","5042 Edgmont Ave ","Brookhaven","PA","19015","US","<MISSING>","<MISSING>","Liquor Store","39.8799765","-75.3948649","<MISSING>"
"https://ironhillbrewery.com/","<MISSING>","Super Value Beverage","625 Mearns Rd  ","Warminster","PA","18974","US","<MISSING>","<MISSING>","Liquor Store","40.2034834","-75.0923803","<MISSING>"
"https://ironhillbrewery.com/","<MISSING>","Superior Value Beverage Center","701 Wheatland St ","Phoenixville","PA","19460","US","<MISSING>","<MISSING>","Liquor Store","40.130765","-75.5248984","<MISSING>"
"https://ironhillbrewery.com/","<MISSING>","Tanczos Beverages","2330 Jacksonville Rd ","Bethlehem","PA","18017","US","<MISSING>","<MISSING>","Liquor Store","40.6415932","-75.3999449","<MISSING>"
"https://ironhillbrewery.com/","<MISSING>","Tanczos Beverages","2006 Center St ","Northampton","PA","18067","US","<MISSING>","<MISSING>","Liquor Store","40.6894282","-75.500503","<MISSING>"
"https://ironhillbrewery.com/","<MISSING>","Tasker's Beer Barn","6520 Perkiomen Ave ","Birdsboro","PA","19508","US","<MISSING>","<MISSING>","Liquor Store","40.2882882","-75.8205425","<MISSING>"
"https://ironhillbrewery.com/","<MISSING>","The Beer Peddlers","1942 S Christopher Columbus Blvd ","Philadelphia","PA","19148","US","<MISSING>","<MISSING>","Liquor Store","39.9216843","-75.1439888","<MISSING>"
"https://ironhillbrewery.com/","<MISSING>","The Beer Store Malvern","215 Lancaster Ave ","Malvern","PA","19355","US","<MISSING>","<MISSING>","Liquor Store","40.0420228","-75.5411704","<MISSING>"
"https://ironhillbrewery.com/","<MISSING>","3rd & Ferry Fish Market","56 S 3rd St ","Easton","PA","18042","US","<MISSING>","<MISSING>","Liquor Store","40.6898373","-75.2087626","<MISSING>"
"https://ironhillbrewery.com/","<MISSING>","Thorndale Beverage","65 N Bailey Rd ","Thorndale","PA","19372","US","<MISSING>","<MISSING>","Liquor Store","39.9957447","-75.759801","<MISSING>"
"https://ironhillbrewery.com/","<MISSING>","Top of The Hill Beverage","101 Cedar Ln  ","Chester Springs","PA","19425","US","<MISSING>","<MISSING>","Liquor Store","40.108109","-75.6961452","<MISSING>"
"https://ironhillbrewery.com/","<MISSING>","Towamencin Beverage","1555 Sumneytown Pike ","Lansdale","PA","19446","US","<MISSING>","<MISSING>","Liquor Store","40.2421526","-75.3347885","<MISSING>"
"https://ironhillbrewery.com/","<MISSING>","Township Line Beer & Cigars","5315 Township Line Rd ","Drexel Hill","PA","19026","US","<MISSING>","<MISSING>","Liquor Store","39.9453582","-75.3273081","<MISSING>"
"https://ironhillbrewery.com/","<MISSING>","Trappe Beer & Soda","325 W Main St ","Collegeville","PA","19426","US","<MISSING>","<MISSING>","Liquor Store","40.1981045","-75.4718494","<MISSING>"
"https://ironhillbrewery.com/","<MISSING>","Trenton Road Take Out","1024 Trenton Rd ","Levittown","PA","19054","US","<MISSING>","<MISSING>","Liquor Store","40.1889417","-74.8251889","<MISSING>"
"https://ironhillbrewery.com/","<MISSING>","Union Jack's Olde Congo Hotel","373 Hoffmansville Rd ","Barto","PA","19504","US","<MISSING>","<MISSING>","Liquor Store","40.3508753","-75.5843093","<MISSING>"
"https://ironhillbrewery.com/","<MISSING>","Valley Farm Market","1880 Stefko Blvd ","Bethlehem","PA","18017","US","<MISSING>","<MISSING>","Liquor Store","40.639224","-75.346957","<MISSING>"
"https://ironhillbrewery.com/","<MISSING>","VIP Market","1312 Walnut St ","Philadelphia","PA","19107","US","<MISSING>","<MISSING>","Liquor Store","39.9490815","-75.1627439","<MISSING>"
"https://ironhillbrewery.com/","<MISSING>","Wasco Beer","1025 Spring Garden St ","Philadelphia","PA","19123","US","<MISSING>","<MISSING>","Liquor Store","39.961951","-75.155385","<MISSING>"
"https://ironhillbrewery.com/","<MISSING>","Wayne Beverage","346 Lancaster Ave ","Wayne","PA","19087","US","<MISSING>","<MISSING>","Liquor Store","40.0439431","-75.3962484","<MISSING>"
"https://ironhillbrewery.com/","<MISSING>","Waywood Beverage","624 Millers Hill ","Kennett Square","PA","19348","US","<MISSING>","<MISSING>","Liquor Store","39.8522661","-75.6982431","<MISSING>"
"https://ironhillbrewery.com/","<MISSING>","Welsh Rd Beverage","2425 Welsh Rd  ","Philadelphia","PA","19114","US","<MISSING>","<MISSING>","Liquor Store","40.0710009","-75.0316804","<MISSING>"
"https://ironhillbrewery.com/","<MISSING>","Whitemarsh Beverage","425 Germantown Pike ","Lafayette Hill","PA","19444","US","<MISSING>","<MISSING>","Liquor Store","40.091782","-75.25968","<MISSING>"
"https://ironhillbrewery.com/","<MISSING>","Willow Grove Beer Store","434 York Rd ","Willow Grove","PA","19090","US","<MISSING>","<MISSING>","Liquor Store","40.149685","-75.115048","<MISSING>"
"https://ironhillbrewery.com/","<MISSING>","Windsor Distributing","800 S Fourth St ","Hamburg","PA","19526","US","<MISSING>","<MISSING>","Liquor Store","40.5440017","-75.9794661","<MISSING>"
"https://ironhillbrewery.com/","<MISSING>","Womelsdorf Beverage","440 N 3rd St  ","Womelsdorf","PA","19567","US","<MISSING>","<MISSING>","Liquor Store","40.3716675","-76.1895585","<MISSING>"
"https://ironhillbrewery.com/","<MISSING>","Woodland Avenue Beverage","4310 Woodland Ave ","Drexel Hill","PA","19026","US","<MISSING>","<MISSING>","Liquor Store","39.949163","-75.3080138","<MISSING>"
"https://ironhillbrewery.com/","<MISSING>","Yardley Beer Company","1 E Trenton Ave ","Morrisville","PA","19067","US","<MISSING>","<MISSING>","Liquor Store","40.2159898","-74.7834983","<MISSING>"
"https://ironhillbrewery.com/","<MISSING>","Redners Fresh Market","2850 Audubon Village Dr ","Audubon","PA","19403","US","<MISSING>","<MISSING>","Liquor Store","40.1283501","-75.4350301","<MISSING>"
"https://ironhillbrewery.com/","<MISSING>","Redner's Warehouse Markets","3745 Nicholas St ","Easton","PA","18045","US","<MISSING>","<MISSING>","Liquor Store","40.6705969","-75.2682604","<MISSING>"
"https://ironhillbrewery.com/","<MISSING>","Redner's Warehouse Markets","300 Kenhorst Plaza ","Reading","PA","19607","US","<MISSING>","<MISSING>","Liquor Store","40.2992127","-75.94925","<MISSING>"
"https://ironhillbrewery.com/","<MISSING>","Redner's Warehouse Markets","5471 Pottsville Pike ","Leesport","PA","19533","US","<MISSING>","<MISSING>","Liquor Store","40.4440049","-75.9512477","<MISSING>"
"https://ironhillbrewery.com/","<MISSING>","Redner's Warehouse Markets","1361 Lincoln Hwy ","Levittown","PA","19056","US","<MISSING>","<MISSING>","Liquor Store","40.1682944","-74.8930639","<MISSING>"
"https://ironhillbrewery.com/","<MISSING>","Redner's Warehouse Markets","101 Held Dr ","Northampton","PA","18067","US","<MISSING>","<MISSING>","Liquor Store","40.6973436","-75.5017875","<MISSING>"
"https://ironhillbrewery.com/","<MISSING>","Redner's Warehouse Markets","1300 N Charlotte St ","Pottstown","PA","19464","US","<MISSING>","<MISSING>","Liquor Store","40.264863","-75.6274509","<MISSING>"
"https://ironhillbrewery.com/","<MISSING>","Redner's Warehouse Markets","3205 N 5th Street Hwy ","Reading","PA","19605","US","<MISSING>","<MISSING>","Liquor Store","40.3824524","-75.9254113","<MISSING>"
"https://ironhillbrewery.com/","<MISSING>","Redner's Fresh Markets","1149 Berkshire Blvd ","Reading","PA","19610","US","<MISSING>","<MISSING>","Liquor Store","40.3426495","-75.980124","<MISSING>"
"https://ironhillbrewery.com/","<MISSING>","ACME Markets","3200-09 Red Lion Rd ","Philadelphia","PA","19114","US","<MISSING>","<MISSING>","Liquor Store","40.079395","-74.9930086","<MISSING>"
"https://ironhillbrewery.com/","<MISSING>","ACME Markets","851 Gap Newport Pike ","Avondale","PA","19311","US","<MISSING>","<MISSING>","Liquor Store","39.8354614","-75.7986136","<MISSING>"
"https://ironhillbrewery.com/","<MISSING>","ACME Markets","121 E City Ave ","Bala Cynwyd","PA","19004","US","<MISSING>","<MISSING>","Liquor Store","40.0037118","-75.223673","<MISSING>"
"https://ironhillbrewery.com/","<MISSING>","ACME Markets","2301 Bristol Rd ","Bensalem","PA","19020","US","<MISSING>","<MISSING>","Liquor Store","40.1317467","-74.9225989","<MISSING>"
"https://ironhillbrewery.com/","<MISSING>","ACME Markets","601 W Lancaster Ave ","Bryn Mawr","PA","19010","US","<MISSING>","<MISSING>","Liquor Store","40.018549","-75.31157","<MISSING>"
"https://ironhillbrewery.com/","<MISSING>","ACME Markets","5300 Baltimore Pike ","Clifton Heights","PA","19018","US","<MISSING>","<MISSING>","Liquor Store","39.924478","-75.3069448","<MISSING>"
"https://ironhillbrewery.com/","<MISSING>","ACME Markets","2101-41 Cottman Ave ","Philadelphia","PA","19149","US","<MISSING>","<MISSING>","Liquor Store","40.0505382","-75.0616622","<MISSING>"
"https://ironhillbrewery.com/","<MISSING>","ACME Markets","700 W Lancaster Ave ","Wayne","PA","19087","US","<MISSING>","<MISSING>","Liquor Store","40.045627","-75.4075394","<MISSING>"
"https://ironhillbrewery.com/","<MISSING>","ACME Markets","3951 Lincoln Hwy E ","Downingtown","PA","19335","US","<MISSING>","<MISSING>","Liquor Store","39.9979156","-75.7406397","<MISSING>"
"https://ironhillbrewery.com/","<MISSING>","ACME Markets","1825 Limekiln Pike ","Dresher","PA","19025","US","<MISSING>","<MISSING>","Liquor Store","40.1305313","-75.1658643","<MISSING>"
"https://ironhillbrewery.com/","<MISSING>","ACME Markets","105 E Street Rd ","Feasterville-Trevose","PA","19053","US","<MISSING>","<MISSING>","Liquor Store","40.1473165","-74.9994779","<MISSING>"
"https://ironhillbrewery.com/","<MISSING>","ACME Markets","1640 Bethlehem Pike ","Flourtown","PA","19031","US","<MISSING>","<MISSING>","Liquor Store","40.1071495","-75.2119989","<MISSING>"
"https://ironhillbrewery.com/","<MISSING>","ACME Markets","124 Morton Ave ","Folsom","PA","19033","US","<MISSING>","<MISSING>","Liquor Store","39.8848803","-75.328196","<MISSING>"
"https://ironhillbrewery.com/","<MISSING>","ACME Markets","7010 Germantown Ave ","Philadelphia","PA","19119","US","<MISSING>","<MISSING>","Liquor Store","40.0566437","-75.1895744","<MISSING>"
"https://ironhillbrewery.com/","<MISSING>","ACME Markets","180 W Girard Ave ","Philadelphia","PA","19123","US","<MISSING>","<MISSING>","Liquor Store","39.9689336","-75.1389405","<MISSING>"
"https://ironhillbrewery.com/","<MISSING>","ACME Markets","503 S MacDade Blvd ","Holmes","PA","19043","US","<MISSING>","<MISSING>","Liquor Store","39.8991212","-75.3015989","<MISSING>"
"https://ironhillbrewery.com/","<MISSING>","ACME Markets","6601 Roosevelt Blvd ","Philadelphia","PA","19149","US","<MISSING>","<MISSING>","Liquor Store","40.0357819","-75.0625412","<MISSING>"
"https://ironhillbrewery.com/","<MISSING>","ACME Markets","323 Old York Rd ","Jenkintown","PA","19046","US","<MISSING>","<MISSING>","Liquor Store","40.0917449","-75.1250716","<MISSING>"
"https://ironhillbrewery.com/","<MISSING>","ACME Markets","567 N Sproul Rd ","Broomall","PA","19008","US","<MISSING>","<MISSING>","Liquor Store","39.959698","-75.3540174","<MISSING>"
"https://ironhillbrewery.com/","<MISSING>","ACME Markets","6800 New Falls Rd ","Levittown","PA","19057","US","<MISSING>","<MISSING>","Liquor Store","40.1517746","-74.8571254","<MISSING>"
"https://ironhillbrewery.com/","<MISSING>","ACME Markets","527 E Baltimore Ave ","Media","PA","19063","US","<MISSING>","<MISSING>","Liquor Store","39.9158135","-75.3783482","<MISSING>"
"https://ironhillbrewery.com/","<MISSING>","ACME Markets","829 Montgomery Ave ","Narberth","PA","19072","US","<MISSING>","<MISSING>","Liquor Store","40.0107473","-75.257922","<MISSING>"
"https://ironhillbrewery.com/","<MISSING>","ACME Markets","48 W Rd ","Newtown","PA","18940","US","<MISSING>","<MISSING>","Liquor Store","40.234703","-74.9453201","<MISSING>"
"https://ironhillbrewery.com/","<MISSING>","ACME Markets","3590 West Chester Pike ","Newtown Square","PA","19073","US","<MISSING>","<MISSING>","Liquor Store","39.9855035","-75.3980436","<MISSING>"
"https://ironhillbrewery.com/","<MISSING>","ACME Markets","2761 W Ridge Pike ","Norristown","PA","19403","US","<MISSING>","<MISSING>","Liquor Store","40.1470765","-75.3938932","<MISSING>"
"https://ironhillbrewery.com/","<MISSING>","ACME Markets","1901 Johnston St ","Philadelphia","PA","19145","US","<MISSING>","<MISSING>","Liquor Store","39.9171634","-75.1804999","<MISSING>"
"https://ironhillbrewery.com/","<MISSING>","ACME Markets","920 Red Lion Rd ","Philadelphia","PA","19115","US","<MISSING>","<MISSING>","Liquor Store","40.1006633","-75.0268357","<MISSING>"
"https://ironhillbrewery.com/","<MISSING>","ACME Markets","1400 E Passyunk Ave ","Philadelphia","PA","19147","US","<MISSING>","<MISSING>","Liquor Store","39.932301","-75.1622973","<MISSING>"
"https://ironhillbrewery.com/","<MISSING>","ACME Markets","800 2nd St Pike ","Richboro","PA","18954","US","<MISSING>","<MISSING>","Liquor Store","40.2079202","-75.0125221","<MISSING>"
"https://ironhillbrewery.com/","<MISSING>","ACME Markets","5927-59 Ridge Ave ","Philadelphia","PA","19128","US","<MISSING>","<MISSING>","Liquor Store","40.0316999","-75.2116272","<MISSING>"
"https://ironhillbrewery.com/","<MISSING>","ACME Markets","1001 South St ","Philadelphia","PA","19147","US","<MISSING>","<MISSING>","Liquor Store","39.9430385","-75.1586948","<MISSING>"
"https://ironhillbrewery.com/","<MISSING>","ACME Markets","4001 Walnut St ","Philadelphia","PA","19104","US","<MISSING>","<MISSING>","Liquor Store","39.954459","-75.202926","<MISSING>"
"https://ironhillbrewery.com/","<MISSING>","ACME Markets","815 N Lansdowne Ave ","Upper Darby","PA","19082","US","<MISSING>","<MISSING>","Liquor Store","39.9602078","-75.2867257","<MISSING>"
"https://ironhillbrewery.com/","<MISSING>","ACME Markets","907 Paoli Pike  ","West Chester","PA","19380","US","<MISSING>","<MISSING>","Liquor Store","39.9698152","-75.5872974","<MISSING>"
"https://ironhillbrewery.com/","<MISSING>","ACME Markets","1336 Bristol Pike ","Bensalem","PA","19020","US","<MISSING>","<MISSING>","Liquor Store","40.0728537","-74.9666815","<MISSING>"
"https://ironhillbrewery.com/","<MISSING>","GIANT Food Stores","801 S 25th St  ","Easton","PA","18045","US","<MISSING>","<MISSING>","Liquor Store","40.6766633","-75.2495885","<MISSING>"
"https://ironhillbrewery.com/","<MISSING>","GIANT Food Stores","3070 Tilghman St ","Allentown","PA","18104","US","<MISSING>","<MISSING>","Liquor Store","40.5963419","-75.5248234","<MISSING>"
"https://ironhillbrewery.com/","<MISSING>","GIANT Heirloom Market","2303 Bainbridge St ","Philadelphia","PA","19146","US","<MISSING>","<MISSING>","Liquor Store","39.9447649","-75.180792","<MISSING>"
"https://ironhillbrewery.com/","<MISSING>","GIANT Food Stores","2721 Street Rd  ","Bensalem","PA","19020","US","<MISSING>","<MISSING>","Liquor Store","40.1112925","-74.9513911","<MISSING>"
"https://ironhillbrewery.com/","<MISSING>","GIANT Food Stores","2174 W Union Blvd ","Bethlehem","PA","18018","US","<MISSING>","<MISSING>","Liquor Store","40.6272224","-75.4187018","<MISSING>"
"https://ironhillbrewery.com/","<MISSING>","GIANT Food Stores","4275 County Line Rd ","Chalfont","PA","18914","US","<MISSING>","<MISSING>","Liquor Store","40.2674536","-75.225261","<MISSING>"
"https://ironhillbrewery.com/","<MISSING>","GIANT Food Stores","2450 Chemical Rd ","Plymouth Meeting","PA","19462","US","<MISSING>","<MISSING>","Liquor Store","40.105499","-75.2918604","<MISSING>"
"https://ironhillbrewery.com/","<MISSING>","GIANT Food Stores","216 E Fairmount St ","Coopersburg","PA","18036","US","<MISSING>","<MISSING>","Liquor Store","40.5169333","-75.3842293","<MISSING>"
"https://ironhillbrewery.com/","<MISSING>","GIANT Food Stores","202 Chestnut St ","Coplay","PA","18037","US","<MISSING>","<MISSING>","Liquor Store","40.6744156","-75.4937846","<MISSING>"
"https://ironhillbrewery.com/","<MISSING>","GIANT Food Stores","1393 Dilworthtown Xing ","West Chester","PA","19382","US","<MISSING>","<MISSING>","Liquor Store","39.9031349","-75.5620319","<MISSING>"
"https://ironhillbrewery.com/","<MISSING>","GIANT Food Stores","4357 Swamp Rd ","Doylestown","PA","18901","US","<MISSING>","<MISSING>","Liquor Store","40.3328113","-75.1333047","<MISSING>"
"https://ironhillbrewery.com/","<MISSING>","GIANT Food Stores","2918 Easton Ave ","Bethlehem","PA","18017","US","<MISSING>","<MISSING>","Liquor Store","40.6478245","-75.3372619","<MISSING>"
"https://ironhillbrewery.com/","<MISSING>","GIANT Food Stores","3015 West, W Emaus Ave ","Allentown","PA","18103","US","<MISSING>","<MISSING>","Liquor Store","40.5587758","-75.4828253","<MISSING>"
"https://ironhillbrewery.com/","<MISSING>","GIANT Food Stores","4655 Perkiomen Ave ","Reading","PA","19606","US","<MISSING>","<MISSING>","Liquor Store","40.3080347","-75.8582974","<MISSING>"
"https://ironhillbrewery.com/","<MISSING>","GIANT Food Stores","141 E Swedesford Rd ","Exton","PA","19341","US","<MISSING>","<MISSING>","Liquor Store","40.0349236","-75.6277167","<MISSING>"
"https://ironhillbrewery.com/","<MISSING>","GIANT Food Stores","176 W St Rd ","Feasterville-Trevose","PA","19053","US","<MISSING>","<MISSING>","Liquor Store","40.1525673","-75.0091258","<MISSING>"
"https://ironhillbrewery.com/","<MISSING>","GIANT Food Stores","1874 Bethlehem Pike ","Flourtown","PA","19031","US","<MISSING>","<MISSING>","Liquor Store","40.1117748","-75.2107474","<MISSING>"
"https://ironhillbrewery.com/","<MISSING>","GIANT Food Stores","301 Town Center Blvd ","Easton","PA","18040","US","<MISSING>","<MISSING>","Liquor Store","40.71298","-75.2225196","<MISSING>"
"https://ironhillbrewery.com/","<MISSING>","GIANT Food Stores","173 Holly Rd  ","Gilbertsville","PA","19525","US","<MISSING>","<MISSING>","Liquor Store","40.3355576","-75.6185451","<MISSING>"
"https://ironhillbrewery.com/","<MISSING>","GIANT Food Stores","2550 Grant Ave ","Philadelphia","PA","19114","US","<MISSING>","<MISSING>","Liquor Store","40.0782578","-75.0269136","<MISSING>"
"https://ironhillbrewery.com/","<MISSING>","GIANT Food Stores","1540 Cowpath Rd ","Hatfield","PA","19440","US","<MISSING>","<MISSING>","Liquor Store","40.2721132","-75.2905533","<MISSING>"
"https://ironhillbrewery.com/","<MISSING>","GIANT Food Stores","116 Township Line Rd ","Havertown","PA","19083","US","<MISSING>","<MISSING>","Liquor Store","39.966634","-75.3022734","<MISSING>"
"https://ironhillbrewery.com/","<MISSING>","GIANT Food Stores","1880 Leithsville Rd ","Hellertown","PA","18055","US","<MISSING>","<MISSING>","Liquor Store","40.5626352","-75.3407756","<MISSING>"
"https://ironhillbrewery.com/","<MISSING>","GIANT Food Stores","350 Scarlet Rd ","Kennett Square","PA","19348","US","<MISSING>","<MISSING>","Liquor Store","39.8400043","-75.7316381","<MISSING>"
"https://ironhillbrewery.com/","<MISSING>","GIANT Food Stores","1824 E Ridge Pike ","Linfield","PA","19468","US","<MISSING>","<MISSING>","Liquor Store","40.211579","-75.4989028","<MISSING>"
"https://ironhillbrewery.com/","<MISSING>","GIANT Food Stores","3926 Linden St  ","Bethlehem","PA","18020","US","<MISSING>","<MISSING>","Liquor Store","40.6751374","-75.3423543","<MISSING>"
"https://ironhillbrewery.com/","<MISSING>","GIANT Food Stores","1201 Knapp Rd ","North Wales","PA","19454","US","<MISSING>","<MISSING>","Liquor Store","40.2275466","-75.2404327","<MISSING>"
"https://ironhillbrewery.com/","<MISSING>","GIANT Food Stores","859 Nazareth Pike ","Nazareth","PA","18064","US","<MISSING>","<MISSING>","Liquor Store","40.7307564","-75.3155831","<MISSING>"
"https://ironhillbrewery.com/","<MISSING>","GIANT Food Stores","3 Double Woods Rd ","Langhorne","PA","19047","US","<MISSING>","<MISSING>","Liquor Store","40.2165725","-74.9266934","<MISSING>"
"https://ironhillbrewery.com/","<MISSING>","GIANT Food Stores","2670 Egypt Rd  ","Norristown","PA","19403","US","<MISSING>","<MISSING>","Liquor Store","40.129336","-75.4054946","<MISSING>"
"https://ironhillbrewery.com/","<MISSING>","GIANT Food Stores","700 Nutt Rd ","Phoenixville","PA","19460","US","<MISSING>","<MISSING>","Liquor Store","40.1341962","-75.5339697","<MISSING>"
"https://ironhillbrewery.com/","<MISSING>","GIANT Food Stores","967 S Township Line Rd ","Royersford","PA","19468","US","<MISSING>","<MISSING>","Liquor Store","40.1947043","-75.5296165","<MISSING>"
"https://ironhillbrewery.com/","<MISSING>","GIANT Food Stores","600 E Lancaster Av ","Reading","PA","19607","US","<MISSING>","<MISSING>","Liquor Store","40.3074094","-75.9545106","<MISSING>"
"https://ironhillbrewery.com/","<MISSING>","GIANT Food Stores","2641 Shillington Rd ","Reading","PA","19609","US","<MISSING>","<MISSING>","Liquor Store","40.3163367","-75.9991861","<MISSING>"
"https://ironhillbrewery.com/","<MISSING>","GIANT Food Stores","760 PA-113 ","Souderton","PA","18964","US","<MISSING>","<MISSING>","Liquor Store","40.3196301","-75.3080324","<MISSING>"
"https://ironhillbrewery.com/","<MISSING>","GIANT Food Stores","550 E Lancaster Ave ","St Davids","PA","19087","US","<MISSING>","<MISSING>","Liquor Store","40.0401439","-75.370529","<MISSING>"
"https://ironhillbrewery.com/","<MISSING>","GIANT Food Stores","180 Upland Square Dr ","Stowe","PA","19464","US","<MISSING>","<MISSING>","Liquor Store","40.2652499","-75.6540754","<MISSING>"
"https://ironhillbrewery.com/","<MISSING>","GIANT Food Stores","4320 N 5th Street Hwy ","Temple","PA","19560","US","<MISSING>","<MISSING>","Liquor Store","40.3994709","-75.9290041","<MISSING>"
"https://ironhillbrewery.com/","<MISSING>","GIANT Food Stores","3477 Lincoln Hwy E ","Thorndale","PA","19372","US","<MISSING>","<MISSING>","Liquor Store","39.9963396","-75.7546632","<MISSING>"
"https://ironhillbrewery.com/","<MISSING>","GIANT Food Stores","7150 Hamilton Blvd ","Trexlertown","PA","18087","US","<MISSING>","<MISSING>","Liquor Store","40.5484476","-75.5940163","<MISSING>"
"https://ironhillbrewery.com/","<MISSING>","GIANT Food Stores","698 Downingtown Pike ","West Chester","PA","19380","US","<MISSING>","<MISSING>","Liquor Store","39.9607095","-75.621889","<MISSING>"
"https://ironhillbrewery.com/","<MISSING>","GIANT Food Stores","300 S Best Ave ","Walnutport","PA","18088","US","<MISSING>","<MISSING>","Liquor Store","40.7534866","-75.5934377","<MISSING>"
"https://ironhillbrewery.com/","<MISSING>","GIANT Food Stores","1661 Easton Rd ","Warrington","PA","18976","US","<MISSING>","<MISSING>","Liquor Store","40.2691232","-75.1279873","<MISSING>"
"https://ironhillbrewery.com/","<MISSING>","GIANT Food Stores","1465 W Broad St ","Quakertown","PA","18951","US","<MISSING>","<MISSING>","Liquor Store","40.4449058","-75.3565443","<MISSING>"
"https://ironhillbrewery.com/","<MISSING>","GIANT Food Stores","2104 Van Reed Rd ","West Lawn","PA","19609","US","<MISSING>","<MISSING>","Liquor Store","40.3443011","-76.0014657","<MISSING>"
"https://ironhillbrewery.com/","<MISSING>","GIANT Food Stores","1502 West Chester Pike ","West Chester","PA","19382","US","<MISSING>","<MISSING>","Liquor Store","39.965307","-75.525599","<MISSING>"
"https://ironhillbrewery.com/","<MISSING>","GIANT Food Stores","2641 MacArthur Rd ","Whitehall","PA","18052","US","<MISSING>","<MISSING>","Liquor Store","40.6476678","-75.4914795","<MISSING>"
"https://ironhillbrewery.com/","<MISSING>","GIANT Food Stores","315 York Rd ","Willow Grove","PA","19090","US","<MISSING>","<MISSING>","Liquor Store","40.1468225","-75.1152416","<MISSING>"
"https://ironhillbrewery.com/","<MISSING>","GIANT Food Stores","837 Male Rd ","Wind Gap","PA","18091","US","<MISSING>","<MISSING>","Liquor Store","40.8387846","-75.2995693","<MISSING>"
"https://ironhillbrewery.com/","<MISSING>","896 Liquors","1017 S College Ave ","Newark","DE","19713","US","<MISSING>","<MISSING>","Liquor Store","39.6522712","-75.7493668","<MISSING>"
"https://ironhillbrewery.com/","<MISSING>","Larry's Liquor Store","6668 N Dupont Hwy ","Dover","DE","19901","US","<MISSING>","<MISSING>","Liquor Store","39.2402458","-75.5852508","<MISSING>"
"https://ironhillbrewery.com/","<MISSING>","The Copper Dram","3826 Kennett Pike ","Greenville","DE","19807","US","<MISSING>","<MISSING>","Liquor Store","39.7757629","-75.5960726","<MISSING>"
"https://ironhillbrewery.com/","<MISSING>","Kent Plaza Discount Liquors","3833 N Dupont Hwy ","Dover","DE","19901","US","<MISSING>","<MISSING>","Liquor Store","39.2040022","-75.5620475","<MISSING>"
