"locator_domain","page_url","location_name","street_address","city","state","zip","country_code","store_number","phone","location_type","latitude","longitude","hours_of_operation"
"http://nicksrestaurants.com/","http://nicksrestaurants.com/nicks-laguna-beach","NICK’S LAGUNA BEACH","440 South Coast Highway","Laguna Beach","CA","92651","US","<MISSING>","949.376.8595","<MISSING>","33.54397","-117.777858","
Lunch & Dinner Daily at 11am
Breakfast Sat & Sun 7:30am - 11:30am
"
"http://nicksrestaurants.com/","http://nicksrestaurants.com/nicks-san-clemente","NICK’S SAN CLEMENTE","213 Avenida Del Mar","San Clemente","CA","92672","US","<MISSING>","949.481.2200","<MISSING>","33.541237","-117.782508","
Lunch & Dinner Daily at 11am
"
"http://nicksrestaurants.com/","http://nicksrestaurants.com/nicks-on-2nd","NICK’S ON 2ND – LONG BEACH","4901 E Second St","Long Beach","CA","90803","US","<MISSING>","562.856.9000","<MISSING>","38.797206","-121.303779","
Lunch & Dinner Daily at 11am
Breakfast Sat & Sun 8am - 12noon
"
"http://nicksrestaurants.com/","http://nicksrestaurants.com/nicks-manhattan-beach","NICK’S MANHATTAN BEACH","451 Manhattan Beach Blvd","Manhattan Beach","CA","90266","US","<MISSING>","310.545.7373","<MISSING>","33.8861699","-118.4085643","
Lunch & Dinner Daily at 11am
Breakfast Sat & Sun 8am - 12noon
"
"http://nicksrestaurants.com/","http://nicksrestaurants.com/nicks-pasadena","NICK’S ON SOUTH LAKE AVENUE – PASADENA","336 South Lake Avenue","Pasadena","CA","91101","US","<MISSING>","626.787.1444","<MISSING>","34.1400336","-118.1340022","
Lunch & Dinner Daily at 11am
Brunch Sat & Sun 10am - 3pm
"
"http://nicksrestaurants.com/","http://nicksrestaurants.com/south-of-nicks","SOUTH OF NICK’S MEXICAN KITCHEN – SAN CLEMENTE","110 North El Camino Real","San Clemente","CA","92672","US","<MISSING>","949.481.4545","<MISSING>","33.7614","-118.137156","
Lunch & Dinner Daily at 11am
"
"http://nicksrestaurants.com/","http://nicksrestaurants.com/south-of-nicks-laguna-beach","SOUTH OF NICK’S MEXICAN KITCHEN – LAGUNA BEACH","540 South Coast Highway","Laguna Beach","CA","92651","US","<MISSING>","949.715.3717","<MISSING>","33.5406451","-117.7839155","
Lunch & Dinner Daily at 11am
Brunch Sat & Sun 10am - 3pm
Valet parking available
"
