"locator_domain","location_name","street_address","city","state","zip","country_code","store_number","phone","location_type","latitude","longitude","hours_of_operation","page_url"
"https://www.johnstonmurphy.com","The Shops at LaCantera","15900 LaCantera Parkway","San Antonio","TX","78256","US","<MISSING>","(210) 558-3340","<MISSING>","<INACCESSIBLE>","<INACCESSIBLE>"," Mon-Sat 10am-9pm, Sun 12pm-6pm ","<MISSING>"
"https://www.johnstonmurphy.com","Barton Creek Square Mall","2901 Capitol of Texas Hwy","Austin","TX","78746","US","<MISSING>","(512) 732-0867","<MISSING>","<INACCESSIBLE>","<INACCESSIBLE>"," Mon-Sat 10am-9pm, Sun 12pm-6pm ","<MISSING>"
"https://www.johnstonmurphy.com","Paragon Outlets Grand Prairie","2950 West Interstate 20","Grand Prairie","TX","75052","US","<MISSING>","(972) 352-2971","<MISSING>","<INACCESSIBLE>","<INACCESSIBLE>"," Mon-Sat 10am-9pm, Sun 11am-6pm ","<MISSING>"
"https://www.johnstonmurphy.com","Dallas/Ft Worth Intl. Airport","2040 N International Pkwy, Terminal A","Dallas","TX","75261","US","<MISSING>","(469) 629-5301","<MISSING>","<INACCESSIBLE>","<INACCESSIBLE>"," Mon - Fri: 6:30am - 7pm
Sat-Sun: 7am - 7pm ","<MISSING>"
"https://www.johnstonmurphy.com","The Shops at Willow Bend","6121 West Park Boulevard","Plano","TX","75093","US","<MISSING>","(469) 366-1076","<MISSING>","<INACCESSIBLE>","<INACCESSIBLE>"," Mon-Sat 10am-9pm, Sun 12pm-6pm ","<MISSING>"
"https://www.johnstonmurphy.com","Memorial City","303 Memorial City Way","Houston","TX","77024","US","<MISSING>","(713) 468-3607","<MISSING>","<INACCESSIBLE>","<INACCESSIBLE>"," Mon-Sat 10am-9pm, Sun 11am-7pm ","<MISSING>"
"https://www.johnstonmurphy.com","Denver International Airport","8900 Pena Boulevard","Denver","CO","80249-2026","US","<MISSING>","(303) 342-6935","<MISSING>","<INACCESSIBLE>","<INACCESSIBLE>"," Mon-Sun 6am-9pm ","<MISSING>"
"https://www.johnstonmurphy.com","Scottsdale Fashion Square","7014 E. Camelback Rd.","Scottsdale","AZ","85251","US","<MISSING>","(480) 425-7748","<MISSING>","<INACCESSIBLE>","<INACCESSIBLE>"," Mon - Sat 10am-9pm, Sun 11am-6pm ","<MISSING>"
"https://www.johnstonmurphy.com","Phoenix Sky Harbor International Airport","3800 East Sky Harbor Boulevard","Phoenix","AZ","85034","US","<MISSING>","(602) 231-5441","<MISSING>","<INACCESSIBLE>","<INACCESSIBLE>"," Sun-Fri 6am-9pm, Sat 6am-8pm ","<MISSING>"
"https://www.johnstonmurphy.com","Oak Park Mall","11251 W 95th St.","Overland Park","KS","66214","US","<MISSING>","(913) 894-5996","<MISSING>","<INACCESSIBLE>","<INACCESSIBLE>"," Mon-Sat 10am-9pm, Sun 11am-6pm ","<MISSING>"
"https://www.johnstonmurphy.com","Lakeside Center","3301 Veterans Blvd.","Metarie","LA","70002","US","<MISSING>","(504) 837-0449","<MISSING>","<INACCESSIBLE>","<INACCESSIBLE>"," Mon-Sat 10am-9pm, Sun 12pm-6pm ","<MISSING>"
"https://www.johnstonmurphy.com","West County Center","49 West County Center","Des Peres","MO","63131","US","<MISSING>","(314) 984-0204","<MISSING>","<INACCESSIBLE>","<INACCESSIBLE>"," Mon-Sat 10am-9pm, Sun 11am-6pm ","<MISSING>"
"https://www.johnstonmurphy.com","Saint Louis Galleria","1154 Saint Louis Galleria","St. Louis","MO","63117","US","<MISSING>","(314) 726-1056","<MISSING>","<INACCESSIBLE>","<INACCESSIBLE>"," Mon-Sat 10am-9:30pm, Sun 11am-6pm ","<MISSING>"
"https://www.johnstonmurphy.com","The Grand Canal Shoppes","3377 Las Vegas Boulevard South","Las Vegas","NV","89109","US","<MISSING>","(702) 366-1452","<MISSING>","<INACCESSIBLE>","<INACCESSIBLE>"," Sun-Thurs 10am-11pm, Fri-Sat 10am-12am ","<MISSING>"
"https://www.johnstonmurphy.com","Riverchase Galleria","2000 Riverchase Galleria","Birmingham","AL","35244","US","<MISSING>","(205) 985-7161","<MISSING>","<INACCESSIBLE>","<INACCESSIBLE>"," Mon-Sat 10am-9pm, Sun 12pm-6pm ","<MISSING>"
"https://www.johnstonmurphy.com","Galeria Atizapan","Local 322 PA.  Av. Ruiz Cortinez #25.","Col. Las Margaritas","MS","52390","US","<MISSING>","(205) 985-7161","<MISSING>","<INACCESSIBLE>","<INACCESSIBLE>"," Mon-Sat 10am-9pm, Sun 12pm-6pm ","<MISSING>"
"https://www.johnstonmurphy.com","Plaza Carso","Local A06 PB.  Lago Zurich 245.","Col. Ampliacion Granada","Distrito Federal","11529","US","<MISSING>","(205) 985-7161","<MISSING>","<INACCESSIBLE>","<INACCESSIBLE>"," Mon-Sat 10am-9pm, Sun 12pm-6pm ","<MISSING>"
"https://www.johnstonmurphy.com","Cool Springs Galleria","1800 Galleria Blvd.","Franklin","TN","37067","US","<MISSING>","(615) 771-9945","<MISSING>","<INACCESSIBLE>","<INACCESSIBLE>"," Mon-Sat 10am-9pm, Sun 12pm-6pm ","<MISSING>"
"https://www.johnstonmurphy.com","Westfield UTC","4525 La Jolla Village Drive","San Diego","CA","92122","US","<MISSING>","(858) 526-0978","<MISSING>","<INACCESSIBLE>","<INACCESSIBLE>"," Mon-Sat 10am-9pm, Sun 11am-7pm ","<MISSING>"
"https://www.johnstonmurphy.com","The Mall at Green Hills","2126 Abbott Martin Road","Nashville","TN","37215","US","<MISSING>","615-279-9485","<MISSING>","<INACCESSIBLE>","<INACCESSIBLE>"," Mon-Sat 10am-9pm, Sun 12pm-6pm ","<MISSING>"
"https://www.johnstonmurphy.com","Plaza Loreto","Altamirano #46 Tizapan San Angel","Mexico City","Alvaro Obreg n","01090","US","<MISSING>","615-279-9485","<MISSING>","<INACCESSIBLE>","<INACCESSIBLE>"," Mon-Sat 10am-9pm, Sun 12pm-6pm ","<MISSING>"
"https://www.johnstonmurphy.com","South Coast Plaza","3333 Bristol Street","Costa Mesa","CA","92626","US","<MISSING>","(714) 549-1833","<MISSING>","<INACCESSIBLE>","<INACCESSIBLE>"," Mon-Fri 10am-9pm, Sat 10am-7pm, Sun 11am-6:30pm ","<MISSING>"
"https://www.johnstonmurphy.com","Westfield Century City","10250 Santa Monica Boulevard","Los Angeles","CA","90067","US","<MISSING>","(310)552-1002","<MISSING>","<INACCESSIBLE>","<INACCESSIBLE>"," Mon-Sat 10am-9pm, Sun 11am-7pm ","<MISSING>"
"https://www.johnstonmurphy.com","Mall of America","144 West Market","Bloomington","MN","55425","US","<MISSING>","(952) 854-1930","<MISSING>","<INACCESSIBLE>","<INACCESSIBLE>"," Mon. - Sat. 10 am - 9:30 pm, Sun. 11am - 7pm ","<MISSING>"
"https://www.johnstonmurphy.com","Ridgedale Center","12229 Wayzata Boulevard","Minnetonka","MN","55305","US","<MISSING>","(952) 544-6233","<MISSING>","<INACCESSIBLE>","<INACCESSIBLE>"," Mon-Sat 10am-9pm, Sun 11pm-6pm ","<MISSING>"
"https://www.johnstonmurphy.com","Minneapolis-St. Paul International Airport","Terminal 1, Main Mall Concourse","St. Paul","MN","55111","US","<MISSING>","(612) 725-0343","<MISSING>","<INACCESSIBLE>","<INACCESSIBLE>"," Sun-Sat 6am-9pm ","<MISSING>"
"https://www.johnstonmurphy.com","Oxmoor Center","7900 Shelbyville Road","Louisville","KY","40222","US","<MISSING>","(502) 425-4837","<MISSING>","<INACCESSIBLE>","<INACCESSIBLE>"," Mon-Sat 10am-9pm, Sun 12pm-6pm ","<MISSING>"
"https://www.johnstonmurphy.com","Oakbrook Center","182 Oakbrook Center","Oakbrook","IL","60523","US","<MISSING>","(630) 574-9040","<MISSING>","<INACCESSIBLE>","<INACCESSIBLE>"," Mon-Sat 10am-9pm, Sun 11am-6pm ","<MISSING>"
"https://www.johnstonmurphy.com","Hartsfield-Jackson Atlanta International Airport","Concourse D","Atlanta","GA","30320","US","<MISSING>","(404) 761-3302","<MISSING>","<INACCESSIBLE>","<INACCESSIBLE>"," 7:00am-9:00pm daily ","<MISSING>"
"https://www.johnstonmurphy.com","O'Hare International Airport","Terminal 1, Gate B6","Chicago","IL","60666","US","<MISSING>","(773) 462-9031","<MISSING>","<INACCESSIBLE>","<INACCESSIBLE>"," 6am - 10pm Daily ","<MISSING>"
"https://www.johnstonmurphy.com","The Fashion Mall at Keystone","8702 Keystone Crossings","Indianapolis","IN","46240","US","<MISSING>","(317) 582-1440","<MISSING>","<INACCESSIBLE>","<INACCESSIBLE>"," Mon-Sat 10am-9pm, Sun 12pm-5pm ","<MISSING>"
"https://www.johnstonmurphy.com","Northbrook Court","1116 Northbrook Court","Northbrook","IL","60062","US","<MISSING>","(847) 480-1636","<MISSING>","<INACCESSIBLE>","<INACCESSIBLE>"," Mon-Sat 10am-9pm, Sun 11am-6pm ","<MISSING>"
"https://www.johnstonmurphy.com","Fayette Mall","3401 Nicholasville Rd","Lexington","KY","40503","US","<MISSING>","859-317-2613","<MISSING>","<INACCESSIBLE>","<INACCESSIBLE>"," Mon-Sat 10am-9pm, Sun 12pm-6pm ","<MISSING>"
"https://www.johnstonmurphy.com","Kenwood Towne Centre","7875 Montgomery Rd","Cincinnati","OH","45236","US","<MISSING>","(513) 791-1780","<MISSING>","<INACCESSIBLE>","<INACCESSIBLE>"," Mon-Sat 10am-9pm, Sun 12pm-6pm ","<MISSING>"
"https://www.johnstonmurphy.com","Woodland Mall","3167 28th Street","Grand Rapids","MI","49512","US","<MISSING>","(616) 975-1797","<MISSING>","<INACCESSIBLE>","<INACCESSIBLE>"," Mon-Sat 10am-9pm, Sun 12pm-6pm ","<MISSING>"
"https://www.johnstonmurphy.com","Polaris Fashion Place","1500 Polaris Fashion Pkwy.","Columbus","OH","43240","US","<MISSING>","(614) 842-6428","<MISSING>","<INACCESSIBLE>","<INACCESSIBLE>"," Mon-Thur 10am-9pm, Fri-Sat 10am-9:30pm, Sun 12pm-6pm ","<MISSING>"
"https://www.johnstonmurphy.com","International Plaza","2223 N West Shore Boulevard","Tampa","FL","33607","US","<MISSING>","(813) 353-2001","<MISSING>","<INACCESSIBLE>","<INACCESSIBLE>"," Mon-Sat 10am-9pm, Sun 12pm-6pm ","<MISSING>"
"https://www.johnstonmurphy.com","University Town Center","140 University Town Center Drive","Sarasota","FL","34243","US","<MISSING>","(941) 702-9666","<MISSING>","<INACCESSIBLE>","<INACCESSIBLE>"," Mon-Sat 10am-9pm, Sun 11am-6pm ","<MISSING>"
"https://www.johnstonmurphy.com","Cancun La Isla","Blvd. Kukulcan Lote 18-10 Mz 52, Local G-01, Zona Hotelera","Cancun","Quintana Roo","77500","US","<MISSING>","(941) 702-9666","<MISSING>","<INACCESSIBLE>","<INACCESSIBLE>"," Mon-Sat 10am-9pm, Sun 11am-6pm ","<MISSING>"
"https://www.johnstonmurphy.com","Charlotte/Douglas International Airport","Concourse C/D","Charlotte","NC","28208","US","<MISSING>","(704) 359-0133","<MISSING>","<INACCESSIBLE>","<INACCESSIBLE>"," 7:30am-9:00pm Weekly ","<MISSING>"
"https://www.johnstonmurphy.com","Union Square","299 Post Street","San Francisco","CA","94108","US","<MISSING>","(415) 392-0199","<MISSING>","<INACCESSIBLE>","<INACCESSIBLE>"," Mon-Sat 10am-7pm, Sun 11am-6pm ","<MISSING>"
"https://www.johnstonmurphy.com","Detroit Metropolitan Airport","2588 Worldgateway Place","Detroit","MI","48242","US","<MISSING>","(734) 941-6102","<MISSING>","<INACCESSIBLE>","<INACCESSIBLE>"," Mon-Sun 6AM-9PM ","<MISSING>"
"https://www.johnstonmurphy.com","Twelve Oaks Mall","27344 Novi Rd","Novi","MI","48377","US","<MISSING>","(248) 349-8270","<MISSING>","<INACCESSIBLE>","<INACCESSIBLE>"," Mon-Sat 10am-9pm, Sun 11am-6pm ","<MISSING>"
"https://www.johnstonmurphy.com","Laurel Park Place","37534 W 6 Mile Road","Livonia","MI","48152","US","<MISSING>","(734) 953-2514","<MISSING>","<INACCESSIBLE>","<INACCESSIBLE>"," Mon-Sat 10am-9pm, Sun 12pm-6pm ","<MISSING>"
"https://www.johnstonmurphy.com","Disney Springs","1520 E Buena Vista Drive","Lake Buena Vista","FL","32830","US","<MISSING>","(407) 828-6008","<MISSING>","<INACCESSIBLE>","<INACCESSIBLE>"," Sun-Thurs 10am-11pm, Fri-Sat 10am-11:30pm ","<MISSING>"
"https://www.johnstonmurphy.com","Orlando International Airport","Terminal B - Next to Food Court","Orlando","FL","32827","US","<MISSING>","407-825-7111","<MISSING>","<INACCESSIBLE>","<INACCESSIBLE>"," Sun-Sat 7am-9pm ","<MISSING>"
"https://www.johnstonmurphy.com","Lakeside Mall","14600 Lakeside Circle","Sterling Heights","MI","48313","US","<MISSING>","(586) 247-6400","<MISSING>","<INACCESSIBLE>","<INACCESSIBLE>"," Mon-Sat 10am-9pm, Sun 12pm-6pm ","<MISSING>"
"https://www.johnstonmurphy.com","Southpark Shopping Center","256 Southpark Center","Strongsville","OH","44136","US","<MISSING>","(440) 846-8993","<MISSING>","<INACCESSIBLE>","<INACCESSIBLE>"," Mon-Sat 10am-9pm, Sun 11am-6pm ","<MISSING>"
"https://www.johnstonmurphy.com","Cleveland Hopkins International Airport","5300 Riverside Drive","Cleveland","OH","44135","US","<MISSING>","(216) 898-0631","<MISSING>","<INACCESSIBLE>","<INACCESSIBLE>"," Sun-Fri 6:30am-8pm, Sat 6:30am-5:30pm ","<MISSING>"
"https://www.johnstonmurphy.com","The Shops at Friendly Center","3334 W. Friendly Center Drive","Greensboro","NC","27410","US","<MISSING>","(336) 852-5029","<MISSING>","<INACCESSIBLE>","<INACCESSIBLE>"," Mon-Sat 10am-9pm, Sun 1pm-6pm ","<MISSING>"
"https://www.johnstonmurphy.com","Beachwood Place","26300 Cedar Road","Beachwood","OH","44122","US","<MISSING>","(216) 292-3097","<MISSING>","<INACCESSIBLE>","<INACCESSIBLE>"," Mon-Sat 10am-9pm, Sun 12pm-6pm ","<MISSING>"
"https://www.johnstonmurphy.com","Pittsburgh International Airport","Center Core between Concourse A & B","Pittsburgh","PA","15231","US","<MISSING>","(412) 472-0943","<MISSING>","<INACCESSIBLE>","<INACCESSIBLE>"," Sun-Fri 5am-8pm, Sat 5am-7pm ","<MISSING>"
"https://www.johnstonmurphy.com","Crabtree Valley Mall","4325 Glenwood Ave","Raleigh","NC","27612","US","<MISSING>","(919) 781-2240","<MISSING>","<INACCESSIBLE>","<INACCESSIBLE>"," Mon-Sat 10am-9pm, Sun 12pm-6pm ","<MISSING>"
"https://www.johnstonmurphy.com","The Gardens","3101 PGA Blvd.","Palm Beach Gardens","FL","33410","US","<MISSING>","(561) 624-2455","<MISSING>","<INACCESSIBLE>","<INACCESSIBLE>"," Mon - Sat 10am-9pm, Sun 12pm-6pm ","<MISSING>"
"https://www.johnstonmurphy.com","Town Center at Boca Raton","6000 Glades Road","Boca Raton","FL","33431","US","<MISSING>","(561) 392-9784","<MISSING>","<INACCESSIBLE>","<INACCESSIBLE>"," Mon-Sat 10am-9pm, Sun 12pm-6pm ","<MISSING>"
"https://www.johnstonmurphy.com","Miami International Airport","4200 NW 21st St., Concourse D","Miami","FL","33122","US","<MISSING>","(305) 492-0676","<MISSING>","<INACCESSIBLE>","<INACCESSIBLE>"," Weekly 6am-10pm ","<MISSING>"
"https://www.johnstonmurphy.com","Aventura Mall","19575 Biscayne Boulevard","Aventura","FL","33180","US","<MISSING>","(305) 936-8608","<MISSING>","<INACCESSIBLE>","<INACCESSIBLE>"," Mon-Sat 10am-9:30pm, Sun 12pm - 8pm ","<MISSING>"
"https://www.johnstonmurphy.com","Mapleview Shopping Centre","900 Maple Avenue","Burlington","ON","L7S 2J8","CA","<MISSING>","(905) 637-3098","<MISSING>","<INACCESSIBLE>","<INACCESSIBLE>"," Mon-Fri 10am-9pm, Sat 9:30am-6pm, Sun 11am-6pm ","<MISSING>"
"https://www.johnstonmurphy.com","Toronto Pearson International Airport","6301 Silver Dart Drive","Mississauga","ON","L5P 1B2","CA","<MISSING>","(905) 637-3098","<MISSING>","<INACCESSIBLE>","<INACCESSIBLE>"," Mon-Fri 10am-9pm, Sat 9:30am-6pm, Sun 11am-6pm ","<MISSING>"
"https://www.johnstonmurphy.com","Sherway Gardens","25 The West Mall","Toronto","ON","M9C 1B8","CA","<MISSING>","(416) 621-2463","<MISSING>","<INACCESSIBLE>","<INACCESSIBLE>"," Mon-Fri 10am-9pm, Sat 9:30am-6pm, Sun 11am-6pm ","<MISSING>"
"https://www.johnstonmurphy.com","Portland International Airport","7000 NE Airport Way, Concourse D","Portland","OR","97218","US","<MISSING>","(503)281-0616","<MISSING>","<INACCESSIBLE>","<INACCESSIBLE>"," Daily 5AM-9:45PM ","<MISSING>"
"https://www.johnstonmurphy.com","Fair Oaks Mall","11753 L Fair Oaks","Fairfax","VA","22033","US","<MISSING>","(703) 385-0240","<MISSING>","<INACCESSIBLE>","<INACCESSIBLE>"," Mon-Sat 10am-9:30pm, Sun 11:30am-6pm ","<MISSING>"
"https://www.johnstonmurphy.com","Tysons Corner Center","8001 Tysons Corner Center","McLean","VA","22102","US","<MISSING>","(703) 556-9833","<MISSING>","<INACCESSIBLE>","<INACCESSIBLE>"," Mon-Sat 10am-9:30pm, Sun 11am-7pm ","<MISSING>"
"https://www.johnstonmurphy.com","Westfield Montgomery","7101 Democracy Boulevard","Bethesda","MD","20817","US","<MISSING>","(301) 469-4985","<MISSING>","<INACCESSIBLE>","<INACCESSIBLE>"," Mon-Sat 10am-9pm, Sun 11am-7pm ","<MISSING>"
"https://www.johnstonmurphy.com","Fashion Center at Pentagon City","1100 S. Hayes Street","Arlington","VA","22202","US","<MISSING>","(703) 418-6181","<MISSING>","<INACCESSIBLE>","<INACCESSIBLE>"," Mon - Sat 10am-9:30pm, Sun 11am-6pm ","<MISSING>"
"https://www.johnstonmurphy.com","Connecticut Avenue","1150 Connecticut Avenue N.","Washington","DC","20036","US","<MISSING>","(202) 872-0383","<MISSING>","<INACCESSIBLE>","<INACCESSIBLE>"," Mon-Fri 9:30am-7pm, Sat 10am-6pm, Sun 12pm-5pm ","<MISSING>"
"https://www.johnstonmurphy.com","The Mall in Columbia","10300 Little Patuxent Pkwy","Columbia","MD","21044","US","<MISSING>","(410) 730-0920","<MISSING>","<INACCESSIBLE>","<INACCESSIBLE>"," Mon-Sat 10am-9:00pm, Sun 11pm-6pm ","<MISSING>"
"https://www.johnstonmurphy.com","MacArthur Center","300 East Monticello Avenue","Norfolk","VA","23510-2426","US","<MISSING>","(757) 627-7045","<MISSING>","<INACCESSIBLE>","<INACCESSIBLE>"," Mon - Sat 10am-9pm; Sun 12pm-6pm ","<MISSING>"
"https://www.johnstonmurphy.com","Baltimore / Washington International Airport D","Concourse D","Baltimore","MD","21240","US","<MISSING>","(410) 684-6892","<MISSING>","<INACCESSIBLE>","<INACCESSIBLE>"," Weekly 5am-8pm ","<MISSING>"
"https://www.johnstonmurphy.com","Annapolis Mall","1435 Annapolis Mall","Annapolis","MD","21401","US","<MISSING>","(410) 571-6301","<MISSING>","<INACCESSIBLE>","<INACCESSIBLE>"," Mon-Fri 10:30am-9pm, Sat 10am-9pm, Sun 11am-6pm ","<MISSING>"
"https://www.johnstonmurphy.com","Towson Town Center","825 Dulaney Valley Road","Towson","MD","21204","US","<MISSING>","(410) 828-4435","<MISSING>","<INACCESSIBLE>","<INACCESSIBLE>"," Mon-Sat 10am-9pm, Sun 12pm-6pm ","<MISSING>"
"https://www.johnstonmurphy.com","Bellevue Square","2032 Bellevue Square","Bellevue","WA","98004","US","<MISSING>","(425) 451-8570","<MISSING>","<INACCESSIBLE>","<INACCESSIBLE>"," Mon-Sat 9:30am-9:30pm, Sun 11am-7pm ","<MISSING>"
"https://www.johnstonmurphy.com","The Court at King of Prussia","690 West Dekalb Pike","King of Prussia","PA","19406","US","<MISSING>","(610) 265-0165","<MISSING>","<INACCESSIBLE>","<INACCESSIBLE>"," Mon-Sat 10am-9pm, Sun 11am-7pm ","<MISSING>"
"https://www.johnstonmurphy.com","Promenade Shops Saucon Valley","2495 Center Valley Pkwy","Center Valley","PA","18034","US","<MISSING>","(610) 791-5108","<MISSING>","<INACCESSIBLE>","<INACCESSIBLE>"," Mon-Thu 10am-8pm, Fri-Sat 10am-9pm, Sun 11am-6pm ","<MISSING>"
"https://www.johnstonmurphy.com","Philadelphia International Airport","B-C Connector, Upper Level","Philadelphia","PA","19153","US","<MISSING>","(215) 365-4858","<MISSING>","<INACCESSIBLE>","<INACCESSIBLE>"," Sun-Sat 7am-10pm ","<MISSING>"
"https://www.johnstonmurphy.com","Bridgewater Commons","400 Commons Way","Bridgewater","NJ","08807","US","<MISSING>","(908) 218-0062","<MISSING>","<INACCESSIBLE>","<INACCESSIBLE>"," Mon-Sat 10am-8pm, Sun 11am-6pm ","<MISSING>"
"https://www.johnstonmurphy.com","Menlo Park Mall","55 Parsonage Road","Edison","NJ","08837","US","<MISSING>","732-767-3060","<MISSING>","<INACCESSIBLE>","<INACCESSIBLE>"," Mon-Sat 10am-9:30pm, Sun 11am-7pm ","<MISSING>"
"https://www.johnstonmurphy.com","The Mall at Short Hills","1200 Morris Turnpike","Short Hills","NJ","07078","US","<MISSING>","(973) 379-9055","<MISSING>","<INACCESSIBLE>","<INACCESSIBLE>"," Mon-Fri 10am-9pm, Sat 10am-8pm, Sun 11am-6pm ","<MISSING>"
"https://www.johnstonmurphy.com","Newark International Airport","3 Brewster Road","Newark","NJ","07114","US","<MISSING>","(973) 824-0856","<MISSING>","<INACCESSIBLE>","<INACCESSIBLE>"," Mon-Sun 6am-9pm ","<MISSING>"
"https://www.johnstonmurphy.com","Fifth Avenue","200 Fifth Ave","New York","NY","10010","US","<MISSING>","(212) 242-1636","<MISSING>","<INACCESSIBLE>","<INACCESSIBLE>"," Mon-Fri 9am-8pm, Sat-Sun 10am-6pm ","<MISSING>"
"https://www.johnstonmurphy.com","Roosevelt Field Mall","630 Old Country Road","Garden City","NY","11530","US","<MISSING>","(516) 742-0802","<MISSING>","<INACCESSIBLE>","<INACCESSIBLE>"," Mon-Sat 10am-9:30pm, Sun 11am-7pm ","<MISSING>"
"https://www.johnstonmurphy.com","The Westchester","125 Westchester Ave.","White Plains","NY","10601","US","<MISSING>","(914)428-4018","<MISSING>","<INACCESSIBLE>","<INACCESSIBLE>"," Mon-Sat 10am-9pm, Sun 11am-6:30pm ","<MISSING>"
"https://www.johnstonmurphy.com","Stamford Town Center","100 Greyrock Place","Stamford","CT","06901","US","<MISSING>","(203) 964-1331","<MISSING>","<INACCESSIBLE>","<INACCESSIBLE>"," Mon-Sat 10am-9pm, Sun 11am-6pm ","<MISSING>"
"https://www.johnstonmurphy.com","Walt Whitman Mall","160 Walt Whitman Rd","Huntington Station","NY","11746","US","<MISSING>","(631) 427-0861","<MISSING>","<INACCESSIBLE>","<INACCESSIBLE>"," Mon-Sat 10am-9:30pm, Sun 11am-7pm ","<MISSING>"
"https://www.johnstonmurphy.com","Smith Haven Mall","313 Smith Haven Mall","Lake Grove","NY","11755","US","<MISSING>","(631)240-0588","<MISSING>","<INACCESSIBLE>","<INACCESSIBLE>"," Mon-Sat 10am-9:30pm, Sun 11am-7pm ","<MISSING>"
"https://www.johnstonmurphy.com","Westfarms Mall","500 Westfarms Mall","Farmington","CT","06032","US","<MISSING>","(860) 521-2024","<MISSING>","<INACCESSIBLE>","<INACCESSIBLE>"," Mon - Sat 10am-9:30pm, Sun 11am-6pm ","<MISSING>"
"https://www.johnstonmurphy.com","The Natick Collection","1245 Worcester St.","Natick","MA","01760","US","<MISSING>","(508) 655-6010","<MISSING>","<INACCESSIBLE>","<INACCESSIBLE>"," Mon-Sat 10am-9pm, Sun 12pm-6pm ","<MISSING>"
"https://www.johnstonmurphy.com","Legacy Place","950 Providence Highway","Dedham","MA","02026","US","<MISSING>","(781) 326-5862","<MISSING>","<INACCESSIBLE>","<INACCESSIBLE>"," Mon-Sat 10am-9pm, Sun 11am-6pm ","<MISSING>"
"https://www.johnstonmurphy.com","Washington Street","292 Washington Street","Boston","MA","02108","US","<MISSING>","(617) 426-8086","<MISSING>","<INACCESSIBLE>","<INACCESSIBLE>"," Mon-Sat 9am-7pm, Sun 11am-6pm ","<MISSING>"
"https://www.johnstonmurphy.com","Multiplaza Pacific Mall","Store J&M, Floor #1, Area - Avenida de los Aves, Punta Pacifica","Panama City","<MISSING>"," 02890833","US","<MISSING>","(507)235-4744","<MISSING>","<INACCESSIBLE>","<INACCESSIBLE>"," Mon-Sat 10am-8pm, Sun & Holiday 11am-7pm ","<MISSING>"
"https://www.johnstonmurphy.com","Tanger Outlets Fort Worth","15853 North Freeway","Fort Worth","TX","76177","US","<MISSING>","682-831-1666","<MISSING>","<INACCESSIBLE>","<INACCESSIBLE>"," Mon-Sat 9am-9pm, Sun 10am-7pm ","<MISSING>"
"https://www.johnstonmurphy.com","Round Rock Premium Outlets","4401 North IH 35","Round Rock","TX","78664","US","<MISSING>","(512) 868-2096","<MISSING>","<INACCESSIBLE>","<INACCESSIBLE>"," Mon-Sat 10am-9pm, Sun 11am-7pm ","<MISSING>"
"https://www.johnstonmurphy.com","Outlet Shops at El Paso","7051 South Desert Boulevard","Canutillo","TX","79835","US","<MISSING>","(915) 877-3271","<MISSING>","<INACCESSIBLE>","<INACCESSIBLE>"," Mon-Sat 10am-9pm, Sun 11am-7pm ","<MISSING>"
"https://www.johnstonmurphy.com","San Marcos Premium Outlets","3939 IH35 South","San Marcos","TX","78666","US","<MISSING>","(512) 392-2766","<MISSING>","<INACCESSIBLE>","<INACCESSIBLE>"," Mon-Sat 10am-9pm, Sun 10am-7pm ","<MISSING>"
"https://www.johnstonmurphy.com","Allen Premium Outlets","820 West Stacy Road","Allen","TX","75013","US","<MISSING>","(972) 678-3052","<MISSING>","<INACCESSIBLE>","<INACCESSIBLE>"," Mon-Sat 10am-9pm, Sun 11am-6pm ","<MISSING>"
"https://www.johnstonmurphy.com","The Outlet Shoppes at Oklahoma City","7634 West Reno Avenue","Oklahoma City","OK","73127","US","<MISSING>","(405) 495-0400","<MISSING>","<INACCESSIBLE>","<INACCESSIBLE>"," Mon-Sat 10am-9pm, Sun 12pm-6pm ","<MISSING>"
"https://www.johnstonmurphy.com","Houston Premium Outlets","29300 Hempstead Rd.","Cypress","TX","77433","US","<MISSING>","(281) 758-1037","<MISSING>","<INACCESSIBLE>","<INACCESSIBLE>"," Mon-Sat 10am-9pm, Sun 10am-6pm ","<MISSING>"
"https://www.johnstonmurphy.com","Rio Grande Valley Premium Outlets","5001 East Expressway 83","Mercedes","TX","78570","US","<MISSING>","(956) 514-1223","<MISSING>","<INACCESSIBLE>","<INACCESSIBLE>"," Mon-Sat 10am-9pm, Sun 11am-7pm ","<MISSING>"
"https://www.johnstonmurphy.com","The Outlets at Castle Rock","5050 Factory Shops Boulevard","Castle Rock","CO","80108","US","<MISSING>","(303) 688-9311","<MISSING>","<INACCESSIBLE>","<INACCESSIBLE>"," Mon-Sat 10am-8pm, Sun 11am-6pm ","<MISSING>"
"https://www.johnstonmurphy.com","Denver Premium Outlets","13801 Grant St.","Thornton","CO","80023","US","<MISSING>","(303) 254-7472","<MISSING>","<INACCESSIBLE>","<INACCESSIBLE>"," Mon-Sat 10am-9pm, Sun 11am-7pm ","<MISSING>"
"https://www.johnstonmurphy.com","Phoenix Premium Outlets","4976 Premium Outlets Way","Chandler","AZ","85226","US","<MISSING>","(520) 796-1656","<MISSING>","<INACCESSIBLE>","<INACCESSIBLE>"," Mon-Sat 10am-9pm, Sun 10am-7pm ","<MISSING>"
"https://www.johnstonmurphy.com","The Outlets of Mississippi","200 Bass Pro Drive","Pearl","MS","39208","US","<MISSING>","(601) 936-0725","<MISSING>","<INACCESSIBLE>","<INACCESSIBLE>"," Mon-Sat 10am-9pm, Sun 12pm-7pm ","<MISSING>"
"https://www.johnstonmurphy.com","Nebraska Crossing Outlet Mall","21323 Nebraska Crossing Drive","Gretna","NE","68028","US","<MISSING>","(402) 332-3916","<MISSING>","<INACCESSIBLE>","<INACCESSIBLE>"," Mon-Sat 10am-9pm, Sun 11am-6pm ","<MISSING>"
"https://www.johnstonmurphy.com","Tanger Outlets - Memphis","5205 Airways Boulevard","Southaven","MS","38671","US","<MISSING>","(662) 349-0601","<MISSING>","<INACCESSIBLE>","<INACCESSIBLE>"," Mon-Sat 9am-9pm, Sun 10am-7pm ","<MISSING>"
"https://www.johnstonmurphy.com","The Outlet Collection at Riverwalk","500 Port of New Orleans Place","New Orleans","LA","70130","US","<MISSING>","(504) 522-9815","<MISSING>","<INACCESSIBLE>","<INACCESSIBLE>"," Mon Sat 10am 9pm, Sun 10am-7pm ","<MISSING>"
"https://www.johnstonmurphy.com","Prestige Outlets Chesterfield","17089 North Outer 40 Road","Chesterfield","MO","63005","US","<MISSING>","(636) 489-3774","<MISSING>","<INACCESSIBLE>","<INACCESSIBLE>"," Mon-Sat 10am-9pm, Sun 10am-6pm ","<MISSING>"
"https://www.johnstonmurphy.com","Foley Tanger Outlet","2601 South McKenzie Street","Foley","AL","36535","US","<MISSING>","(251) 943-3699","<MISSING>","<INACCESSIBLE>","<INACCESSIBLE>"," Mon-Sat 9am-9pm, Sun 11am-6pm ","<MISSING>"
"https://www.johnstonmurphy.com","Desert Hills Premium Outlets","48650 Seminole Drive","Cabazon","CA","92230","US","<MISSING>","(951) 849-3546","<MISSING>","<INACCESSIBLE>","<INACCESSIBLE>"," Sun-Thur 10am-8pm, Fri 10am-9pm, Sat 9am-9pm ","<MISSING>"
"https://www.johnstonmurphy.com","The Outlets at Grand River","6200 Grand River Boulevard East","Leeds","AL","35094","US","<MISSING>","(205) 699-3865","<MISSING>","<INACCESSIBLE>","<INACCESSIBLE>"," Mon-Sat 10am-9pm, Sun 12pm-6pm ","<MISSING>"
"https://www.johnstonmurphy.com","Silver Sands Premium Outlets","10746 Emerald Coast Parkway West","Destin","FL","32550","US","<MISSING>","(850) 654-4274","<MISSING>","<INACCESSIBLE>","<INACCESSIBLE>"," Mon-Sat 10am-9pm, Sun 10am-6pm ","<MISSING>"
"https://www.johnstonmurphy.com","Twin Cities Premium Outlets","3905 Eagan Outlets Parkway","Eagan","MN","55122","US","<MISSING>","(651) 365-0375","<MISSING>","<INACCESSIBLE>","<INACCESSIBLE>"," Mon-Sat 10am-9pm, Sun 10am-7pm ","<MISSING>"
"https://www.johnstonmurphy.com","Chicago Premium Outlets","1650 Premium Outlets Boulevard","Aurora","IL","60504","US","<MISSING>","(630) 236-9640","<MISSING>","<INACCESSIBLE>","<INACCESSIBLE>"," Mon-Sat 10am-9pm, Sun 10am-7pm ","<MISSING>"
"https://www.johnstonmurphy.com","The Outlet Shoppes of Atlanta","915 Ridgewalk Parkway","Woodstock","GA","30188","US","<MISSING>","(770) 591-9277","<MISSING>","<INACCESSIBLE>","<INACCESSIBLE>"," Mon-Sat 10am-9pm, Sun 11am-7pm ","<MISSING>"
"https://www.johnstonmurphy.com","Outlet Shoppes of the Bluegrass","1155 Buck Creek Road","Simpsonville","KY","40067","US","<MISSING>","(502) 722-6664","<MISSING>","<INACCESSIBLE>","<INACCESSIBLE>"," Mon-Sat 10am-9pm, Sun 10am-7pm ","<MISSING>"
"https://www.johnstonmurphy.com","Fashion Outlets of Chicago","5220 Fashion Outlets Way","Rosemont","IL","60018","US","<MISSING>","(847) 233-0343","<MISSING>","<INACCESSIBLE>","<INACCESSIBLE>"," Mon-Sat 10am-9pm, Sun 10am-7pm ","<MISSING>"
"https://www.johnstonmurphy.com","North Georgia Premium Outlet","800 Highway 400 South","Dawsonville","GA","30534","US","<MISSING>","(706) 216-4252","<MISSING>","<INACCESSIBLE>","<INACCESSIBLE>"," Mon-Sat 10am-9pm, Sun 11am-7pm ","<MISSING>"
"https://www.johnstonmurphy.com","Pleasant Prairie Premium Outlets","11211 120th Avenue","Pleasant Prairie","WI","53158","US","<MISSING>","(262) 857-2427","<MISSING>","<INACCESSIBLE>","<INACCESSIBLE>"," Mon-Sat 10am-9pm, Sun 10am-7pm ","<MISSING>"
"https://www.johnstonmurphy.com","Five Oaks Factory Stores","1645 Parkway","Sevierville","TN","37862","US","<MISSING>","(865) 428-6750","<MISSING>","<INACCESSIBLE>","<INACCESSIBLE>"," Mon-Sat 9am-9pm, Sun 10am-7pm ","<MISSING>"
"https://www.johnstonmurphy.com","Cincinnati Premium Outlets","604 Premium Outlets Drive","Monroe","OH","45050","US","<MISSING>","(513) 539-8775","<MISSING>","<INACCESSIBLE>","<INACCESSIBLE>"," Mon-Sat 10am-9pm, Sun 10am-6pm ","<MISSING>"
"https://www.johnstonmurphy.com","Asheville Outlets","800 Brevard Road","Asheville","NC","28806","US","<MISSING>","(828) 670-5888","<MISSING>","<INACCESSIBLE>","<INACCESSIBLE>"," Mon-Sat 10am-9pm, Sun 12am-6pm ","<MISSING>"
"https://www.johnstonmurphy.com","Tanger Outlets","350 84th Street SW","Byron Center","MI","49315","US","<MISSING>","(616) 878-4168","<MISSING>","<INACCESSIBLE>","<INACCESSIBLE>"," Mon-Sat 10am-9pm, Sun 11am-6pm ","<MISSING>"
"https://www.johnstonmurphy.com","Gilroy Premium Outlets","8300 Arroyo Circle","Gilroy","CA","95020","US","<MISSING>","(408) 848-4307","<MISSING>","<INACCESSIBLE>","<INACCESSIBLE>"," Mon-Sat 10am-9pm, Sun 10am-6pm ","<MISSING>"
"https://www.johnstonmurphy.com","San Francisco Premium Outlets","2660 Livermore Outlets Drive","Livermore","CA","94551","US","<MISSING>","(925) 961-9778","<MISSING>","<INACCESSIBLE>","<INACCESSIBLE>"," Mon-Sat 10am-9pm, Sun 10am-7pm ","<MISSING>"
"https://www.johnstonmurphy.com","Tampa Premium Outlets","2364 Grand Cypress Drive","Lutz","FL","33559","US","<MISSING>","(813) 379-3293","<MISSING>","<INACCESSIBLE>","<INACCESSIBLE>"," Mon-Sat 10am-9pm, Sun 10am-7pm ","<MISSING>"
"https://www.johnstonmurphy.com","Tanger Outlets - Columbus","400 South Wilson Road","Sunbury","OH","43074","US","<MISSING>","(740) 965-3892","<MISSING>","<INACCESSIBLE>","<INACCESSIBLE>"," Mon-Sat 9am-9pm, Sun 10am-7pm ","<MISSING>"
"https://www.johnstonmurphy.com","Ellenton Premium Outlets","5315 Factory Shop Boulevard","Ellenton","FL","34222","US","<MISSING>","(941) 729-6706","<MISSING>","<INACCESSIBLE>","<INACCESSIBLE>"," Mon-Sat 10am-9pm, Sun 10am-7pm ","<MISSING>"
"https://www.johnstonmurphy.com","Tanger Outlets","200 Tanger Outlets Boulevard","Pooler","GA","31322","US","<MISSING>","(912) 450-1114","<MISSING>","<INACCESSIBLE>","<INACCESSIBLE>"," Mon-Sat 10am-9pm, Sun 10am-7pm ","<MISSING>"
"https://www.johnstonmurphy.com","Hilton Head Factory Stores II","1414 Fording Island Road","Bluffton","SC","29910","US","<MISSING>","(843) 837-8844","<MISSING>","<INACCESSIBLE>","<INACCESSIBLE>"," Mon-Sat 9am-9pm, Sun 10am-7pm ","<MISSING>"
"https://www.johnstonmurphy.com","Great Lakes Crossing","4714 Baldwin Road","Auburn Hills","MI","48326","US","<MISSING>","(248) 874-3487","<MISSING>","<INACCESSIBLE>","<INACCESSIBLE>"," Mon-Sat 10am-9pm, Sun 11am-6pm ","<MISSING>"
"https://www.johnstonmurphy.com","Charleston Tanger Outlet","4840 Tanger Outlet Boulevard","North Charleston","SC","29418","US","<MISSING>","(843) 566-1381","<MISSING>","<INACCESSIBLE>","<INACCESSIBLE>"," Mon-Sat 10am-9pm, Sun 11am-6pm ","<MISSING>"
"https://www.johnstonmurphy.com","Miromar Outlet","10801 Corkscrew Road","Estero","FL","33928","US","<MISSING>","(239) 949-6853","<MISSING>","<INACCESSIBLE>","<INACCESSIBLE>"," Mon-Sat 10am-9pm, Sun 11am-6pm ","<MISSING>"
"https://www.johnstonmurphy.com","Mebane Tanger Outlet","4000 Arrowhead Boulevard","Mebane","NC","27302","US","<MISSING>","(919) 563-2826","<MISSING>","<INACCESSIBLE>","<INACCESSIBLE>"," Mon-Sat 9am-9pm, Sun 11am-7pm ","<MISSING>"
"https://www.johnstonmurphy.com","Myrtle Beach Tanger Outlet","4638 Factory Store Boulevard","South Myrtle Beach","SC","29579","US","<MISSING>","(843) 236-2032","<MISSING>","<INACCESSIBLE>","<INACCESSIBLE>"," Mon-Sat 9am-9pm, Sun 10am-7pm ","<MISSING>"
"https://www.johnstonmurphy.com","Grove City Premium Outlets","1911 Leesburg Grove City Road","Grove City","PA","16127","US","<MISSING>","(724) 748-4002","<MISSING>","<INACCESSIBLE>","<INACCESSIBLE>"," Mon-Sat 10am-9pm, Sun 11am-6pm ","<MISSING>"
"https://www.johnstonmurphy.com","Palm Beach Outlets","1781 Palm Beach Lakes Boulevard","West Palm Beach","FL","33401","US","<MISSING>","(561) 687-9892","<MISSING>","<INACCESSIBLE>","<INACCESSIBLE>"," Mon-Fri 10am-9pm, Sun 11am-7pm ","<MISSING>"
"https://www.johnstonmurphy.com","Hagerstown Premium Outlets","495 Premium Outlets Boulevard","Hagerstown","MD","21740","US","<MISSING>","(301) 766-7940","<MISSING>","<INACCESSIBLE>","<INACCESSIBLE>"," Mon-Sat 10am-9pm, Sun 10am-7pm ","<MISSING>"
"https://www.johnstonmurphy.com","Leesburg Corner Premium Outlet","241 Fort Evans Road NE","Leesburg","VA","20176","US","<MISSING>","(703) 443-0847","<MISSING>","<INACCESSIBLE>","<INACCESSIBLE>"," Mon-Sat 10am-9pm, Sun 11am-7pm ","<MISSING>"
"https://www.johnstonmurphy.com","Potomac Mills","2700 Potomac Mills Circle","Woodbridge","VA","22192","US","<MISSING>","(703) 490-8082","<MISSING>","<INACCESSIBLE>","<INACCESSIBLE>"," Mon-Sat 10am-9pm, Sun 11am-6pm ","<MISSING>"
"https://www.johnstonmurphy.com","Vaughan Mills","1 Bass Pro Mills Drive","Vaughan","ON","L4K 5W4","CA","<MISSING>","(905) 532-9556","<MISSING>","<INACCESSIBLE>","<INACCESSIBLE>"," Mon-Sat 10am-9pm, Sun 11am-7pm ","<MISSING>"
"https://www.johnstonmurphy.com","Fashion Outlets of Niagara Falls","2064 Military Road","Niagara Falls","NY","14304","US","<MISSING>","(716) 298-8370","<MISSING>","<INACCESSIBLE>","<INACCESSIBLE>"," Mon-Sat 10am-9pm, Sun 11am-6pm ","<MISSING>"
"https://www.johnstonmurphy.com","Clarksburg Premium Outlets","22705 Clarksburg Road","Clarksburg","MD","20871","US","<MISSING>","(301) 972-0959","<MISSING>","<INACCESSIBLE>","<INACCESSIBLE>"," Mon-Sat 10am-9pm, Sun 10am-7pm ","<MISSING>"
"https://www.johnstonmurphy.com","CrossIron Mills","261055 CrossIron Boulevard","Rocky View","AB","T4A 0G3","CA","<MISSING>","(403) 261-5074","<MISSING>","<INACCESSIBLE>","<INACCESSIBLE>"," Mon-Sat 10am-9pm, Sun 11am-6pm ","<MISSING>"
"https://www.johnstonmurphy.com","Williamsburg Premium Outlets","5709-70 Richmond Road","Williamsburg","VA","23188","US","<MISSING>","(757) 258-2581","<MISSING>","<INACCESSIBLE>","<INACCESSIBLE>"," Mon-Sat 10am-9pm, Sun 10pm-7pm ","<MISSING>"
"https://www.johnstonmurphy.com","Queenstown Premium Outlets","109 Outlet Center Drive","Queenstown","MD","21658","US","<MISSING>","(410) 827-4585","<MISSING>","<INACCESSIBLE>","<INACCESSIBLE>"," Mon-Sat 10am-9pm, Sun 10am-8pm ","<MISSING>"
"https://www.johnstonmurphy.com","Lancaster Tanger Outlet","313 Stanley K. Tanger Boulevard","Lancaster","PA","17602","US","<MISSING>","(717) 393-9415","<MISSING>","<INACCESSIBLE>","<INACCESSIBLE>"," Mon-Sat 9am-9pm, Sun 10am-6pm ","<MISSING>"
"https://www.johnstonmurphy.com","Philadelphia Premium Outlets","18 Lightcap Road","Pottstown","PA","19464","US","<MISSING>","(610) 705-6260","<MISSING>","<INACCESSIBLE>","<INACCESSIBLE>"," Mon-Sat 10am-9pm, Sun 10am-7pm ","<MISSING>"
"https://www.johnstonmurphy.com","Destiny USA","1 Destiny USA Drive","Syracuse","NY","13204","US","<MISSING>","(315) 422-9656","<MISSING>","<INACCESSIBLE>","<INACCESSIBLE>"," Mon-Sat 10am-9:30pm, Sun 11am-6pm ","<MISSING>"
"https://www.johnstonmurphy.com","The Crossing Premium Outlet","1000 Premium Outlets Drive","Tannersville","PA","18372","US","<MISSING>","(570) 619-8702","<MISSING>","<INACCESSIBLE>","<INACCESSIBLE>"," Mon-Sat 10am-9pm, Sun 10am-8pm ","<MISSING>"
"https://www.johnstonmurphy.com","Jersey Shore Premium Outlets","1 Premium Outlets Boulevard","Tinton Falls","NJ","07753","US","<MISSING>","(732) 493-1301","<MISSING>","<INACCESSIBLE>","<INACCESSIBLE>"," Mon-Sat 10am-9pm, Sun 10am-7pm ","<MISSING>"
"https://www.johnstonmurphy.com","Empire Outlets","35 Richmond Terrace","Staten Island","NY","10301","US","<MISSING>","(646) 690-5420","<MISSING>","<INACCESSIBLE>","<INACCESSIBLE>"," Mon-Sun 10am-9pm ","<MISSING>"
"https://www.johnstonmurphy.com","Lee Premium Outlets","20 Premium Outlets Boulevard","Lee","MA","01238","US","<MISSING>","(413) 243-4193","<MISSING>","<INACCESSIBLE>","<INACCESSIBLE>"," Mon-Sat 10am-9pm, Sun 10am-7pm ","<MISSING>"
"https://www.johnstonmurphy.com","Riverhead II Outlet","903 Tanger Mall Drive","Riverhead","NY","11901","US","<MISSING>","(631) 727-1058","<MISSING>","<INACCESSIBLE>","<INACCESSIBLE>"," Mon-Sat 9am-9pm, Sun 10am-8pm ","<MISSING>"
"https://www.johnstonmurphy.com","Clinton Crossing Premium Outlet","20-A Killingworth Turnpike","Clinton","CT","06413","US","<MISSING>","(860) 664-1783","<MISSING>","<INACCESSIBLE>","<INACCESSIBLE>"," Mon-Sat 10am-9pm, Sun 10am-6pm ","<MISSING>"
"https://www.johnstonmurphy.com","Manchester Center","497 Depot Street, Route 11/30","Manchester Center","VT","05255","US","<MISSING>","(802) 362-3446","<MISSING>","<INACCESSIBLE>","<INACCESSIBLE>"," Mon-Thu 10am-6pm, Fri-Sat 10am-7pm, Sun 10am-5pm ","<MISSING>"
"https://www.johnstonmurphy.com","Wrentham Premium Outlets","One Premium Outlets Boulevard","Wrentham","MA","02093","US","<MISSING>","(508) 384-1923","<MISSING>","<INACCESSIBLE>","<INACCESSIBLE>"," Mon-Sat 10am-9pm, Sun 10am-6pm ","<MISSING>"
"https://www.johnstonmurphy.com","Kittery Premium Outlet","345 US Route 1","Kittery","ME","03904","US","<MISSING>","(207) 439-0548","<MISSING>","<INACCESSIBLE>","<INACCESSIBLE>"," Sun-Sat 10am-6pm ","<MISSING>"
"https://www.johnstonmurphy.com","Dillard's","Midland Park Mall","Midland","TX","79705","US","<MISSING>","(207) 439-0548","<MISSING>","<INACCESSIBLE>","<INACCESSIBLE>"," Sun-Sat 10am-6pm ","<MISSING>"
"https://www.johnstonmurphy.com","Dillard's","Music City Mall","Odessa","TX","79762","US","<MISSING>","(207) 439-0548","<MISSING>","<INACCESSIBLE>","<INACCESSIBLE>"," Sun-Sat 10am-6pm ","<MISSING>"
"https://www.johnstonmurphy.com","The Model","Broadmoor Mall","Hobbs","NM","88240","US","<MISSING>","(207) 439-0548","<MISSING>","<INACCESSIBLE>","<INACCESSIBLE>"," Sun-Sat 10am-6pm ","<MISSING>"
"https://www.johnstonmurphy.com","Dillard's","South Plains","Lubbock","TX","79414","US","<MISSING>","<MISSING>","<MISSING>","<INACCESSIBLE>","<INACCESSIBLE>"," Sun-Sat 10am-6pm ","<MISSING>"
"https://www.johnstonmurphy.com","Dillard's","Sunset Mall","San Angelo","TX","76904","US","<MISSING>","<MISSING>","<MISSING>","<INACCESSIBLE>","<INACCESSIBLE>"," Sun-Sat 10am-6pm ","<MISSING>"
"https://www.johnstonmurphy.com","Dillard's","Mall Of Abilene","Abilene","TX","79606","US","<MISSING>","<MISSING>","<MISSING>","<INACCESSIBLE>","<INACCESSIBLE>"," Sun-Sat 10am-6pm ","<MISSING>"
"https://www.johnstonmurphy.com","Dillard's","North Plains Mall","Clovis","NM","88101","US","<MISSING>","<MISSING>","<MISSING>","<INACCESSIBLE>","<INACCESSIBLE>"," Sun-Sat 10am-6pm ","<MISSING>"
"https://www.johnstonmurphy.com","Dillard's","Westgate Mall","Amarillo","TX","79121","US","<MISSING>","<MISSING>","<MISSING>","<INACCESSIBLE>","<INACCESSIBLE>"," Sun-Sat 10am-6pm ","<MISSING>"
"https://www.johnstonmurphy.com","Shoe Closet","2906 Garnett Avenue","Wichita Falls","TX","76308","US","<MISSING>","<MISSING>","<MISSING>","<INACCESSIBLE>","<INACCESSIBLE>"," Sun-Sat 10am-6pm ","<MISSING>"
"https://www.johnstonmurphy.com","The Dienger Trading Co.","210 North Main Street","Boerne","TX","78006","US","<MISSING>","<MISSING>","<MISSING>","<INACCESSIBLE>","<INACCESSIBLE>"," Sun-Sat 10am-6pm ","<MISSING>"
"https://www.johnstonmurphy.com","Dillard's","Killeen Mall","Killeen","TX","76543","US","<MISSING>","<MISSING>","<MISSING>","<INACCESSIBLE>","<INACCESSIBLE>"," Sun-Sat 10am-6pm ","<MISSING>"
"https://www.johnstonmurphy.com","Dillard's","Central Mall","Lawton","OK","73501","US","<MISSING>","<MISSING>","<MISSING>","<INACCESSIBLE>","<INACCESSIBLE>"," Sun-Sat 10am-6pm ","<MISSING>"
"https://www.johnstonmurphy.com","Stanley Eisenman Fine Shoes","6333 Camp Bowie Blvd.","Ft. Worth","TX","76116","US","<MISSING>","<MISSING>","<MISSING>","<INACCESSIBLE>","<INACCESSIBLE>"," Sun-Sat 10am-6pm ","<MISSING>"
"https://www.johnstonmurphy.com","Dillard's","Lakeline Mall","Cedar Park","TX","78613","US","<MISSING>","<MISSING>","<MISSING>","<INACCESSIBLE>","<INACCESSIBLE>"," Sun-Sat 10am-6pm ","<MISSING>"
"https://www.johnstonmurphy.com","Dillard's","Hill Country Galleria","Bee Cave","TX","78738","US","<MISSING>","<MISSING>","<MISSING>","<INACCESSIBLE>","<INACCESSIBLE>"," Sun-Sat 10am-6pm ","<MISSING>"
"https://www.johnstonmurphy.com","Dillard's","Cielo Vista Mall","El Paso","TX","79925","US","<MISSING>","<MISSING>","<MISSING>","<INACCESSIBLE>","<INACCESSIBLE>"," Sun-Sat 10am-6pm ","<MISSING>"
"https://www.johnstonmurphy.com","Dillard's","Temple Mall","Temple","TX","76502","US","<MISSING>","<MISSING>","<MISSING>","<INACCESSIBLE>","<INACCESSIBLE>"," Sun-Sat 10am-6pm ","<MISSING>"
"https://www.johnstonmurphy.com","Dillard's","Northeast Mall","Hurst","TX","76053","US","<MISSING>","<MISSING>","<MISSING>","<INACCESSIBLE>","<INACCESSIBLE>"," Sun-Sat 10am-6pm ","<MISSING>"
"https://www.johnstonmurphy.com","Dillard's","Richland Fashion Mall","Waco","TX","76710","US","<MISSING>","<MISSING>","<MISSING>","<INACCESSIBLE>","<INACCESSIBLE>"," Sun-Sat 10am-6pm ","<MISSING>"
"https://www.johnstonmurphy.com","Dillard's","Golden Triangle Mall","Denton","TX","76205","US","<MISSING>","<MISSING>","<MISSING>","<INACCESSIBLE>","<INACCESSIBLE>"," Sun-Sat 10am-6pm ","<MISSING>"
"https://www.johnstonmurphy.com","Dillard's","Vista Ridge Mall","Lewisville","TX","75067","US","<MISSING>","<MISSING>","<MISSING>","<INACCESSIBLE>","<INACCESSIBLE>"," Sun-Sat 10am-6pm ","<MISSING>"
"https://www.johnstonmurphy.com","Dillard's","Uptown Village","Cedar Hill","TX","75104","US","<MISSING>","<MISSING>","<MISSING>","<INACCESSIBLE>","<INACCESSIBLE>"," Sun-Sat 10am-6pm ","<MISSING>"
"https://www.johnstonmurphy.com","Dillard's","Mesilla Valley","Las Cruces","NM","88001","US","<MISSING>","<MISSING>","<MISSING>","<INACCESSIBLE>","<INACCESSIBLE>"," Sun-Sat 10am-6pm ","<MISSING>"
"https://www.johnstonmurphy.com","Dillard's","Stonebriar Mall","Frisco","TX","75034","US","<MISSING>","<MISSING>","<MISSING>","<INACCESSIBLE>","<INACCESSIBLE>"," Sun-Sat 10am-6pm ","<MISSING>"
"https://www.johnstonmurphy.com","International Suit Warehouse","1621 North Central Expressway","Richardson","TX","75080","US","<MISSING>","<MISSING>","<MISSING>","<INACCESSIBLE>","<INACCESSIBLE>"," Sun-Sat 10am-6pm ","<MISSING>"
"https://www.johnstonmurphy.com","Dillard's","Town East Center","Mesquite","TX","75150","US","<MISSING>","<MISSING>","<MISSING>","<INACCESSIBLE>","<INACCESSIBLE>"," Sun-Sat 10am-6pm ","<MISSING>"
"https://www.johnstonmurphy.com","Dillard's","Firewheel Town Center","Garland","TX","75040","US","<MISSING>","<MISSING>","<MISSING>","<INACCESSIBLE>","<INACCESSIBLE>"," Sun-Sat 10am-6pm ","<MISSING>"
"https://www.johnstonmurphy.com","Dillard's","Village at Fairview","Fairview","TX","75069","US","<MISSING>","<MISSING>","<MISSING>","<INACCESSIBLE>","<INACCESSIBLE>"," Sun-Sat 10am-6pm ","<MISSING>"
"https://www.johnstonmurphy.com","Dillard's","Midway Mall","Sherman","TX","75090","US","<MISSING>","<MISSING>","<MISSING>","<INACCESSIBLE>","<INACCESSIBLE>"," Sun-Sat 10am-6pm ","<MISSING>"
"https://www.johnstonmurphy.com","Browns Shoe Fit","719 Main St.","Woodward","OK","73801","US","<MISSING>","<MISSING>","<MISSING>","<INACCESSIBLE>","<INACCESSIBLE>"," Sun-Sat 10am-6pm ","<MISSING>"
"https://www.johnstonmurphy.com","Dillard's","Sooner Fashion Mall","Norman","OK","73072","US","<MISSING>","<MISSING>","<MISSING>","<INACCESSIBLE>","<INACCESSIBLE>"," Sun-Sat 10am-6pm ","<MISSING>"
"https://www.johnstonmurphy.com","Dillard's","Villa Linda Mall","Santa Fe","NM","87505","US","<MISSING>","<MISSING>","<MISSING>","<INACCESSIBLE>","<INACCESSIBLE>"," Sun-Sat 10am-6pm ","<MISSING>"
"https://www.johnstonmurphy.com","Dillard's","Winrock Center","Albuquerque","NM","87110","US","<MISSING>","<MISSING>","<MISSING>","<INACCESSIBLE>","<INACCESSIBLE>"," Sun-Sat 10am-6pm ","<MISSING>"
"https://www.johnstonmurphy.com","Brown Shoe Fit","1413 North Kansas","Liberal","KS","67901","US","<MISSING>","<MISSING>","<MISSING>","<INACCESSIBLE>","<INACCESSIBLE>"," Sun-Sat 10am-6pm ","<MISSING>"
"https://www.johnstonmurphy.com","Suits Unlimited","5406 Menaul Blvd.","Alburqueruqe","NM","87110","US","<MISSING>","<MISSING>","<MISSING>","<INACCESSIBLE>","<INACCESSIBLE>"," Sun-Sat 10am-6pm ","<MISSING>"
"https://www.johnstonmurphy.com","Dillard's","Post Oak Mall","College Station","TX","77840","US","<MISSING>","<MISSING>","<MISSING>","<INACCESSIBLE>","<INACCESSIBLE>"," Sun-Sat 10am-6pm ","<MISSING>"
"https://www.johnstonmurphy.com","Shoenique","1006 Division Street","Sulphur","OK","74820","US","<MISSING>","<MISSING>","<MISSING>","<INACCESSIBLE>","<INACCESSIBLE>"," Sun-Sat 10am-6pm ","<MISSING>"
"https://www.johnstonmurphy.com","Browns Shoe Fit","113 W. Main","Ada","OK","74820","US","<MISSING>","<MISSING>","<MISSING>","<INACCESSIBLE>","<INACCESSIBLE>"," Sun-Sat 10am-6pm ","<MISSING>"
"https://www.johnstonmurphy.com","Joe Brand","P.O. Box 1120","Laredo","TX","78042","US","<MISSING>","<MISSING>","<MISSING>","<INACCESSIBLE>","<INACCESSIBLE>"," Sun-Sat 10am-6pm ","<MISSING>"
"https://www.johnstonmurphy.com","Sheperd's Menswear","116 East Main","Shawnee","OK","74801","US","<MISSING>","<MISSING>","<MISSING>","<INACCESSIBLE>","<INACCESSIBLE>"," Sun-Sat 10am-6pm ","<MISSING>"
"https://www.johnstonmurphy.com","Steppin Out","120 K Bent Street","Taos","NM","87571","US","<MISSING>","<MISSING>","<MISSING>","<INACCESSIBLE>","<INACCESSIBLE>"," Sun-Sat 10am-6pm ","<MISSING>"
"https://www.johnstonmurphy.com","Brown's Shoe Fit","2312 West Garriott Rd","Enid","OK","73703","US","<MISSING>","<MISSING>","<MISSING>","<INACCESSIBLE>","<INACCESSIBLE>"," Sun-Sat 10am-6pm ","<MISSING>"
"https://www.johnstonmurphy.com","Dillard's","Victoria Mall","Victoria","TX","77904","US","<MISSING>","<MISSING>","<MISSING>","<INACCESSIBLE>","<INACCESSIBLE>"," Sun-Sat 10am-6pm ","<MISSING>"
"https://www.johnstonmurphy.com","Dillard's","Broadway Square Mall","Tyler","TX","75703","US","<MISSING>","<MISSING>","<MISSING>","<INACCESSIBLE>","<INACCESSIBLE>"," Sun-Sat 10am-6pm ","<MISSING>"
"https://www.johnstonmurphy.com","Brown's Shoe Fit","201 S. Perkins Rd.","Stillwater","OK","74074","US","<MISSING>","<MISSING>","<MISSING>","<INACCESSIBLE>","<INACCESSIBLE>"," Sun-Sat 10am-6pm ","<MISSING>"
"https://www.johnstonmurphy.com","Dillard's","Woodlands","Woodlands","TX","77380","US","<MISSING>","<MISSING>","<MISSING>","<INACCESSIBLE>","<INACCESSIBLE>"," Sun-Sat 10am-6pm ","<MISSING>"
"https://www.johnstonmurphy.com","Nordstrom","The Woodlands Mall","The Woodlands","TX","77380","US","<MISSING>","<MISSING>","<MISSING>","<INACCESSIBLE>","<INACCESSIBLE>"," Sun-Sat 10am-6pm ","<MISSING>"
"https://www.johnstonmurphy.com","Dillard's","La Palmera Mall","Corpus Christi","TX","78411","US","<MISSING>","<MISSING>","<MISSING>","<INACCESSIBLE>","<INACCESSIBLE>"," Sun-Sat 10am-6pm ","<MISSING>"
"https://www.johnstonmurphy.com","Dillard's","First Colony Mall","Sugarland","TX","77479","US","<MISSING>","<MISSING>","<MISSING>","<INACCESSIBLE>","<INACCESSIBLE>"," Sun-Sat 10am-6pm ","<MISSING>"
"https://www.johnstonmurphy.com","Macy's","First Colony","Sugar Land","TX","77479","US","<MISSING>","<MISSING>","<MISSING>","<INACCESSIBLE>","<INACCESSIBLE>"," Sun-Sat 10am-6pm ","<MISSING>"
"https://www.johnstonmurphy.com","Dillard's","Longview Mall","Longview","TX","75605","US","<MISSING>","<MISSING>","<MISSING>","<INACCESSIBLE>","<INACCESSIBLE>"," Sun-Sat 10am-6pm ","<MISSING>"
"https://www.johnstonmurphy.com","Browns Shoe Fit","2101 N. 14th St.","Ponca City","OK","74601","US","<MISSING>","<MISSING>","<MISSING>","<INACCESSIBLE>","<INACCESSIBLE>"," Sun-Sat 10am-6pm ","<MISSING>"
"https://www.johnstonmurphy.com","Dillard's","Deerbrook Mall","Humble","TX","77338","US","<MISSING>","<MISSING>","<MISSING>","<INACCESSIBLE>","<INACCESSIBLE>"," Sun-Sat 10am-6pm ","<MISSING>"
"https://www.johnstonmurphy.com","Dillard's","Woodland Hills Mall","Tulsa","OK","74133","US","<MISSING>","<MISSING>","<MISSING>","<INACCESSIBLE>","<INACCESSIBLE>"," Sun-Sat 10am-6pm ","<MISSING>"
"https://www.johnstonmurphy.com","Dillard's","Baybrook Mall","Friendswood","TX","77546","US","<MISSING>","<MISSING>","<MISSING>","<INACCESSIBLE>","<INACCESSIBLE>"," Sun-Sat 10am-6pm ","<MISSING>"
"https://www.johnstonmurphy.com","Brown Shoe Fit","705 South Timberland","Lufkin","TX","75901","US","<MISSING>","<MISSING>","<MISSING>","<INACCESSIBLE>","<INACCESSIBLE>"," Sun-Sat 10am-6pm ","<MISSING>"
"https://www.johnstonmurphy.com","Dillard's","Brazos Mall","Lake Jackson","TX","77566","US","<MISSING>","<MISSING>","<MISSING>","<INACCESSIBLE>","<INACCESSIBLE>"," Sun-Sat 10am-6pm ","<MISSING>"
"https://www.johnstonmurphy.com","Brown's Shoe Fit","2234 E. Shawnee Bypass","Muskogee","OK","74403","US","<MISSING>","<MISSING>","<MISSING>","<INACCESSIBLE>","<INACCESSIBLE>"," Sun-Sat 10am-6pm ","<MISSING>"
"https://www.johnstonmurphy.com","Dillard's","Pueblo Mall","Pueblo","CO","81008","US","<MISSING>","<MISSING>","<MISSING>","<INACCESSIBLE>","<INACCESSIBLE>"," Sun-Sat 10am-6pm ","<MISSING>"
"https://www.johnstonmurphy.com","Dillard's","Central Mall","Texarkana","TX","75503","US","<MISSING>","<MISSING>","<MISSING>","<INACCESSIBLE>","<INACCESSIBLE>"," Sun-Sat 10am-6pm ","<MISSING>"
"https://www.johnstonmurphy.com","Dillard's","Towne East Mall","Wichita","KS","67207","US","<MISSING>","<MISSING>","<MISSING>","<INACCESSIBLE>","<INACCESSIBLE>"," Sun-Sat 10am-6pm ","<MISSING>"
"https://www.johnstonmurphy.com","Dillard's","Washington Park Mall","Bartlesville","OK","74006","US","<MISSING>","<MISSING>","<MISSING>","<INACCESSIBLE>","<INACCESSIBLE>"," Sun-Sat 10am-6pm ","<MISSING>"
"https://www.johnstonmurphy.com","Browns Shoe Fit","401 E. 30th Ave.","Hutchinson","KS","67502","US","<MISSING>","<MISSING>","<MISSING>","<INACCESSIBLE>","<INACCESSIBLE>"," Sun-Sat 10am-6pm ","<MISSING>"
"https://www.johnstonmurphy.com","Dillard's","La Plaza Mall","Mcallen","TX","78501","US","<MISSING>","<MISSING>","<MISSING>","<INACCESSIBLE>","<INACCESSIBLE>"," Sun-Sat 10am-6pm ","<MISSING>"
"https://www.johnstonmurphy.com","The Man's Shop Shoes","2221 S. 10th Street","McAllen","TX","78501","US","<MISSING>","<MISSING>","<MISSING>","<INACCESSIBLE>","<INACCESSIBLE>"," Sun-Sat 10am-6pm ","<MISSING>"
"https://www.johnstonmurphy.com","Felts Shoes","107 N Muskogee Avenue","Tahlequah","OK","74464","US","<MISSING>","<MISSING>","<MISSING>","<INACCESSIBLE>","<INACCESSIBLE>"," Sun-Sat 10am-6pm ","<MISSING>"
"https://www.johnstonmurphy.com","Dillard's","Mall St Vincent","Shreveport","LA","71104","US","<MISSING>","<MISSING>","<MISSING>","<INACCESSIBLE>","<INACCESSIBLE>"," Sun-Sat 10am-6pm ","<MISSING>"
"https://www.johnstonmurphy.com","Dillard's","Pierre Bossier Mall","Bossier City","LA","71111","US","<MISSING>","<MISSING>","<MISSING>","<INACCESSIBLE>","<INACCESSIBLE>"," Sun-Sat 10am-6pm ","<MISSING>"
"https://www.johnstonmurphy.com","Dillard's","Parkdale Mall","Beaumont","TX","77706","US","<MISSING>","<MISSING>","<MISSING>","<INACCESSIBLE>","<INACCESSIBLE>"," Sun-Sat 10am-6pm ","<MISSING>"
"https://www.johnstonmurphy.com","Dillard's","Central Mall","Fort Smith","AR","72903","US","<MISSING>","<MISSING>","<MISSING>","<INACCESSIBLE>","<INACCESSIBLE>"," Sun-Sat 10am-6pm ","<MISSING>"
"https://www.johnstonmurphy.com","Browns Shoe Fit","2520 Vine Street","Hays","KS","67601","US","<MISSING>","<MISSING>","<MISSING>","<INACCESSIBLE>","<INACCESSIBLE>"," Sun-Sat 10am-6pm ","<MISSING>"
"https://www.johnstonmurphy.com","Brown Shoe Fit","118 North Main Street","McPherson","KS","67480","US","<MISSING>","<MISSING>","<MISSING>","<INACCESSIBLE>","<INACCESSIBLE>"," Sun-Sat 10am-6pm ","<MISSING>"
"https://www.johnstonmurphy.com","Men's Collection","3100 Highway 365","Port Arthur","TX","77642","US","<MISSING>","<MISSING>","<MISSING>","<INACCESSIBLE>","<INACCESSIBLE>"," Sun-Sat 10am-6pm ","<MISSING>"
"https://www.johnstonmurphy.com","Brown Shoe Fit","871 Main Ave.","Durango","CO","81301","US","<MISSING>","<MISSING>","<MISSING>","<INACCESSIBLE>","<INACCESSIBLE>"," Sun-Sat 10am-6pm ","<MISSING>"
"https://www.johnstonmurphy.com","Dillard's","Chapel Hills Mall","Colorado Springs","CO","80920","US","<MISSING>","<MISSING>","<MISSING>","<INACCESSIBLE>","<INACCESSIBLE>"," Sun-Sat 10am-6pm ","<MISSING>"
"https://www.johnstonmurphy.com","Dillard's","Mall At Sierra Vista","Sierra Vista","AZ","85635","US","<MISSING>","<MISSING>","<MISSING>","<INACCESSIBLE>","<INACCESSIBLE>"," Sun-Sat 10am-6pm ","<MISSING>"
"https://www.johnstonmurphy.com","Dillard's","Sunrise Mall","Brownsville","TX","78526","US","<MISSING>","<MISSING>","<MISSING>","<INACCESSIBLE>","<INACCESSIBLE>"," Sun-Sat 10am-6pm ","<MISSING>"
"https://www.johnstonmurphy.com","Brown's Shoe Fit","2150 Planet avenue","Salina","KS","67401","US","<MISSING>","<MISSING>","<MISSING>","<INACCESSIBLE>","<INACCESSIBLE>"," Sun-Sat 10am-6pm ","<MISSING>"
"https://www.johnstonmurphy.com","Dillard's","Northwest Arkansas","Fayetteville","AR","72703","US","<MISSING>","<MISSING>","<MISSING>","<INACCESSIBLE>","<INACCESSIBLE>"," Sun-Sat 10am-6pm ","<MISSING>"
"https://www.johnstonmurphy.com","Dillard's","Pinnacle Hills","Rogers","AR","72758","US","<MISSING>","<MISSING>","<MISSING>","<INACCESSIBLE>","<INACCESSIBLE>"," Sun-Sat 10am-6pm ","<MISSING>"
"https://www.johnstonmurphy.com","L'Auberge Hotel & Casino","777 Ave. L'Auberge","Lake Charles","LA","70601","US","<MISSING>","<MISSING>","<MISSING>","<INACCESSIBLE>","<INACCESSIBLE>"," Sun-Sat 10am-6pm ","<MISSING>"
"https://www.johnstonmurphy.com","Dillard's","Hot Springs Mall","Hot Springs","AR","71913","US","<MISSING>","<MISSING>","<MISSING>","<INACCESSIBLE>","<INACCESSIBLE>"," Sun-Sat 10am-6pm ","<MISSING>"
"https://www.johnstonmurphy.com","Dillard's","Park Place Mall","Tucson","AZ","85711","US","<MISSING>","<MISSING>","<MISSING>","<INACCESSIBLE>","<INACCESSIBLE>"," Sun-Sat 10am-6pm ","<MISSING>"
"https://www.johnstonmurphy.com","Browns Shoe Fit","603 Commercial St.","Emphoria","KS","66801","US","<MISSING>","<MISSING>","<MISSING>","<INACCESSIBLE>","<INACCESSIBLE>"," Sun-Sat 10am-6pm ","<MISSING>"
"https://www.johnstonmurphy.com","Dillard's","Park Meadwows Center","Littleton","CO","80124","US","<MISSING>","<MISSING>","<MISSING>","<INACCESSIBLE>","<INACCESSIBLE>"," Sun-Sat 10am-6pm ","<MISSING>"
"https://www.johnstonmurphy.com","Vintage Vogue","144 South Main","Carl Junction","MO","64834","US","<MISSING>","<MISSING>","<MISSING>","<INACCESSIBLE>","<INACCESSIBLE>"," Sun-Sat 10am-6pm ","<MISSING>"
"https://www.johnstonmurphy.com","Ted's Clothiers","3476 S Broadway","Englewood","CO","80013","US","<MISSING>","<MISSING>","<MISSING>","<INACCESSIBLE>","<INACCESSIBLE>"," Sun-Sat 10am-6pm ","<MISSING>"
"https://www.johnstonmurphy.com","Jerry Lee","4001 Jackson Street","Alexandria","LA","71303","US","<MISSING>","<MISSING>","<MISSING>","<INACCESSIBLE>","<INACCESSIBLE>"," Sun-Sat 10am-6pm ","<MISSING>"
"https://www.johnstonmurphy.com","Browns Shoe Fit","303 Norris Avenue","McCook","NE","69001","US","<MISSING>","<MISSING>","<MISSING>","<INACCESSIBLE>","<INACCESSIBLE>"," Sun-Sat 10am-6pm ","<MISSING>"
"https://www.johnstonmurphy.com","Dillard's","Westminster Mall","Westminster","CO","80030","US","<MISSING>","<MISSING>","<MISSING>","<INACCESSIBLE>","<INACCESSIBLE>"," Sun-Sat 10am-6pm ","<MISSING>"
"https://www.johnstonmurphy.com","Bloomingbirds","461 E. Hopkins Avenue","Aspen","CO","81611","US","<MISSING>","<MISSING>","<MISSING>","<INACCESSIBLE>","<INACCESSIBLE>"," Sun-Sat 10am-6pm ","<MISSING>"
"https://www.johnstonmurphy.com","Dillard's","Flatirons Mall","Broomfield","CO","80021","US","<MISSING>","<MISSING>","<MISSING>","<INACCESSIBLE>","<INACCESSIBLE>"," Sun-Sat 10am-6pm ","<MISSING>"
"https://www.johnstonmurphy.com","Borck Brothers Clothier's","331 Southwind Place","Manhattan","KS","66503","US","<MISSING>","<MISSING>","<MISSING>","<INACCESSIBLE>","<INACCESSIBLE>"," Sun-Sat 10am-6pm ","<MISSING>"
"https://www.johnstonmurphy.com","Browns Shoe Fit","311 Poyntz Ave.","Manhatten","KS","66502","US","<MISSING>","<MISSING>","<MISSING>","<INACCESSIBLE>","<INACCESSIBLE>"," Sun-Sat 10am-6pm ","<MISSING>"
"https://www.johnstonmurphy.com","Vail Boot & Shoe","100 E. Meadow Dr.","Vail","CO","81657","US","<MISSING>","<MISSING>","<MISSING>","<INACCESSIBLE>","<INACCESSIBLE>"," Sun-Sat 10am-6pm ","<MISSING>"
"https://www.johnstonmurphy.com","Greenhaw's","10301 Rodney Parham Rd.","Little Rock","AR","72227","US","<MISSING>","<MISSING>","<MISSING>","<INACCESSIBLE>","<INACCESSIBLE>"," Sun-Sat 10am-6pm ","<MISSING>"
"https://www.johnstonmurphy.com","Pedestrian Shops","2525 Arapahoe Avenue","Boulder","CO","80302","US","<MISSING>","<MISSING>","<MISSING>","<INACCESSIBLE>","<INACCESSIBLE>"," Sun-Sat 10am-6pm ","<MISSING>"
"https://www.johnstonmurphy.com","Bell & Sward","1020 Oak Street","Conway","AR","72032","US","<MISSING>","<MISSING>","<MISSING>","<INACCESSIBLE>","<INACCESSIBLE>"," Sun-Sat 10am-6pm ","<MISSING>"
"https://www.johnstonmurphy.com","Dillard's","Promenade At Casa Grande","Casa Grande","AZ","85194","US","<MISSING>","<MISSING>","<MISSING>","<INACCESSIBLE>","<INACCESSIBLE>"," Sun-Sat 10am-6pm ","<MISSING>"
"https://www.johnstonmurphy.com","Vail Boot & Shoe","175 Main St # C -108","Edwards","CO","81632","US","<MISSING>","<MISSING>","<MISSING>","<INACCESSIBLE>","<INACCESSIBLE>"," Sun-Sat 10am-6pm ","<MISSING>"
"https://www.johnstonmurphy.com","Brown Shoe Fit","373 Main St.","Longmont","CO","80501","US","<MISSING>","<MISSING>","<MISSING>","<INACCESSIBLE>","<INACCESSIBLE>"," Sun-Sat 10am-6pm ","<MISSING>"
"https://www.johnstonmurphy.com","Dillard's","Mccain Mall","No. Little Rock","AR","72116","US","<MISSING>","<MISSING>","<MISSING>","<INACCESSIBLE>","<INACCESSIBLE>"," Sun-Sat 10am-6pm ","<MISSING>"
"https://www.johnstonmurphy.com","Dillard's","Superstition Springs","Mesa","AZ","85206","US","<MISSING>","<MISSING>","<MISSING>","<INACCESSIBLE>","<INACCESSIBLE>"," Sun-Sat 10am-6pm ","<MISSING>"
"https://www.johnstonmurphy.com","Mr. Mac","929 N. Val Vista Drive","Gilbert","AZ","85234","US","<MISSING>","<MISSING>","<MISSING>","<INACCESSIBLE>","<INACCESSIBLE>"," Sun-Sat 10am-6pm ","<MISSING>"
"https://www.johnstonmurphy.com","Dillard's","West Ridge Mall","Topeka","KS","66604","US","<MISSING>","<MISSING>","<MISSING>","<INACCESSIBLE>","<INACCESSIBLE>"," Sun-Sat 10am-6pm ","<MISSING>"
"https://www.johnstonmurphy.com","Dillard's","The Pines Mall","Pine Bluff","AR","71601","US","<MISSING>","<MISSING>","<MISSING>","<INACCESSIBLE>","<INACCESSIBLE>"," Sun-Sat 10am-6pm ","<MISSING>"
"https://www.johnstonmurphy.com","Dillard's","Greeley Mall","Greeley","CO","80631","US","<MISSING>","<MISSING>","<MISSING>","<INACCESSIBLE>","<INACCESSIBLE>"," Sun-Sat 10am-6pm ","<MISSING>"
"https://www.johnstonmurphy.com","Florio's","820 9th St","Greely","CO","80631","US","<MISSING>","<MISSING>","<MISSING>","<INACCESSIBLE>","<INACCESSIBLE>"," Sun-Sat 10am-6pm ","<MISSING>"
"https://www.johnstonmurphy.com","Brother's","101 Arnould Blvd.","Lafayette","LA","70506","US","<MISSING>","<MISSING>","<MISSING>","<INACCESSIBLE>","<INACCESSIBLE>"," Sun-Sat 10am-6pm ","<MISSING>"
"https://www.johnstonmurphy.com","Scheels","4755 Ronald Reagan Blvd","Johnstown","CO","80534","US","<MISSING>","<MISSING>","<MISSING>","<INACCESSIBLE>","<INACCESSIBLE>"," Sun-Sat 10am-6pm ","<MISSING>"
"https://www.johnstonmurphy.com","Plaza Shoes","2694 S. Glenstone Avenue","Springfield","MO","65804","US","<MISSING>","<MISSING>","<MISSING>","<INACCESSIBLE>","<INACCESSIBLE>"," Sun-Sat 10am-6pm ","<MISSING>"
"https://www.johnstonmurphy.com","Weaver's Dept. Store","901 Massachusetts Street","Lawrence","KS","66044","US","<MISSING>","<MISSING>","<MISSING>","<INACCESSIBLE>","<INACCESSIBLE>"," Sun-Sat 10am-6pm ","<MISSING>"
"https://www.johnstonmurphy.com","Dillard's","Flagstaff Mall","Flagstaff","AZ","86004","US","<MISSING>","<MISSING>","<MISSING>","<INACCESSIBLE>","<INACCESSIBLE>"," Sun-Sat 10am-6pm ","<MISSING>"
"https://www.johnstonmurphy.com","DeMarco's","FootHills Mall","Fort Collins","CO","80525","US","<MISSING>","<MISSING>","<MISSING>","<INACCESSIBLE>","<INACCESSIBLE>"," Sun-Sat 10am-6pm ","<MISSING>"
"https://www.johnstonmurphy.com","Brown Shoe Fit","425 Main Street","Grand Junction","CO","81501","US","<MISSING>","<MISSING>","<MISSING>","<INACCESSIBLE>","<INACCESSIBLE>"," Sun-Sat 10am-6pm ","<MISSING>"
"https://www.johnstonmurphy.com","Brown's Shoe Fit","4105 2nd. Avenue","Kearney","NE","68847","US","<MISSING>","<MISSING>","<MISSING>","<INACCESSIBLE>","<INACCESSIBLE>"," Sun-Sat 10am-6pm ","<MISSING>"
"https://www.johnstonmurphy.com","Macy's","Arrowhead Towne Center","Glendale","AZ","85308","US","<MISSING>","<MISSING>","<MISSING>","<INACCESSIBLE>","<INACCESSIBLE>"," Sun-Sat 10am-6pm ","<MISSING>"
"https://www.johnstonmurphy.com","Gary Michael's Clothier's","642 W. 2nd St.","Hastings","NE","68901","US","<MISSING>","<MISSING>","<MISSING>","<INACCESSIBLE>","<INACCESSIBLE>"," Sun-Sat 10am-6pm ","<MISSING>"
"https://www.johnstonmurphy.com","Macy's","Town Center Plaza (KS)","Leawood","KS","66211","US","<MISSING>","<MISSING>","<MISSING>","<INACCESSIBLE>","<INACCESSIBLE>"," Sun-Sat 10am-6pm ","<MISSING>"
"https://www.johnstonmurphy.com","In Clover","4018 W. 83rd St.","Praire Village","KS","66208","US","<MISSING>","<MISSING>","<MISSING>","<INACCESSIBLE>","<INACCESSIBLE>"," Sun-Sat 10am-6pm ","<MISSING>"
"https://www.johnstonmurphy.com","Browns Shoe Fit","401 North Dewey","North Platte","NE","69101","US","<MISSING>","<MISSING>","<MISSING>","<INACCESSIBLE>","<INACCESSIBLE>"," Sun-Sat 10am-6pm ","<MISSING>"
"https://www.johnstonmurphy.com","Hall's","200 East 25th Street","Kansas City","MO","64108","US","<MISSING>","<MISSING>","<MISSING>","<INACCESSIBLE>","<INACCESSIBLE>"," Sun-Sat 10am-6pm ","<MISSING>"
"https://www.johnstonmurphy.com","Dillard's","Grand Isle","Grand Island","NE","68803","US","<MISSING>","<MISSING>","<MISSING>","<INACCESSIBLE>","<INACCESSIBLE>"," Sun-Sat 10am-6pm ","<MISSING>"
"https://www.johnstonmurphy.com","Dillard's","Independence Center","Independence","MO","64057","US","<MISSING>","<MISSING>","<MISSING>","<INACCESSIBLE>","<INACCESSIBLE>"," Sun-Sat 10am-6pm ","<MISSING>"
"https://www.johnstonmurphy.com","Dillard's","Prescott Mall","Prescott","AZ","86303","US","<MISSING>","<MISSING>","<MISSING>","<INACCESSIBLE>","<INACCESSIBLE>"," Sun-Sat 10am-6pm ","<MISSING>"
"https://www.johnstonmurphy.com","Dillard's","Mall Of Louisiana","Baton Rouge","LA","70836","US","<MISSING>","<MISSING>","<MISSING>","<INACCESSIBLE>","<INACCESSIBLE>"," Sun-Sat 10am-6pm ","<MISSING>"
"https://www.johnstonmurphy.com","Dillard's","Pembertown Square","Vicksburg","MS","39180","US","<MISSING>","<MISSING>","<MISSING>","<INACCESSIBLE>","<INACCESSIBLE>"," Sun-Sat 10am-6pm ","<MISSING>"
"https://www.johnstonmurphy.com","Brown Shoe Fit","5116 Frontier Mall Drive","Cheyenne","WY","82009","US","<MISSING>","<MISSING>","<MISSING>","<INACCESSIBLE>","<INACCESSIBLE>"," Sun-Sat 10am-6pm ","<MISSING>"
"https://www.johnstonmurphy.com","Leibowitz Fine Menswear","3702 Frederick Avenue","St. Joseph","MO","64506","US","<MISSING>","<MISSING>","<MISSING>","<INACCESSIBLE>","<INACCESSIBLE>"," Sun-Sat 10am-6pm ","<MISSING>"
"https://www.johnstonmurphy.com","Abrahams","115 Front Street","Indianola","MS","38751","US","<MISSING>","<MISSING>","<MISSING>","<INACCESSIBLE>","<INACCESSIBLE>"," Sun-Sat 10am-6pm ","<MISSING>"
"https://www.johnstonmurphy.com","Von Maur","SouthPointe Pavilions","Lincoln","NE","68516","US","<MISSING>","<MISSING>","<MISSING>","<INACCESSIBLE>","<INACCESSIBLE>"," Sun-Sat 10am-6pm ","<MISSING>"
"https://www.johnstonmurphy.com","Edwin Houston Menswear","1525 North Washington","Forrest City","AR","72335","US","<MISSING>","<MISSING>","<MISSING>","<INACCESSIBLE>","<INACCESSIBLE>"," Sun-Sat 10am-6pm ","<MISSING>"
"https://www.johnstonmurphy.com","Johnny's Men's Shop","605 W. 3rd St.","Thibodeaux","LA","70301","US","<MISSING>","<MISSING>","<MISSING>","<INACCESSIBLE>","<INACCESSIBLE>"," Sun-Sat 10am-6pm ","<MISSING>"
"https://www.johnstonmurphy.com","Browns Shoe Fit","1608 Broadway","Scottsbluff","NE","69361","US","<MISSING>","<MISSING>","<MISSING>","<INACCESSIBLE>","<INACCESSIBLE>"," Sun-Sat 10am-6pm ","<MISSING>"
"https://www.johnstonmurphy.com","Dillard's","Hammond Square","Hammond","LA","70403","US","<MISSING>","<MISSING>","<MISSING>","<INACCESSIBLE>","<INACCESSIBLE>"," Sun-Sat 10am-6pm ","<MISSING>"
"https://www.johnstonmurphy.com","Shoe Station","220 Ridgeway","Flowood","MS","39232","US","<MISSING>","<MISSING>","<MISSING>","<INACCESSIBLE>","<INACCESSIBLE>"," Sun-Sat 10am-6pm ","<MISSING>"
"https://www.johnstonmurphy.com","Dillard's","Southland Mall","Houma","LA","70364","US","<MISSING>","<MISSING>","<MISSING>","<INACCESSIBLE>","<INACCESSIBLE>"," Sun-Sat 10am-6pm ","<MISSING>"
"https://www.johnstonmurphy.com","Red Square Clothiers","1000 Highland Colony Pkwy # 9004","Ridgeland","MS","39157","US","<MISSING>","<MISSING>","<MISSING>","<INACCESSIBLE>","<INACCESSIBLE>"," Sun-Sat 10am-6pm ","<MISSING>"
"https://www.johnstonmurphy.com","Brown's Shoe Fit","1406 South Main","Maryville","MO","64468","US","<MISSING>","<MISSING>","<MISSING>","<INACCESSIBLE>","<INACCESSIBLE>"," Sun-Sat 10am-6pm ","<MISSING>"
"https://www.johnstonmurphy.com","Red Square Clothiers","Highland Village","Jackson","MS","39211","US","<MISSING>","<MISSING>","<MISSING>","<INACCESSIBLE>","<INACCESSIBLE>"," Sun-Sat 10am-6pm ","<MISSING>"
"https://www.johnstonmurphy.com","Dillard's","Turtle Creek","Jonesboro","AR","72401","US","<MISSING>","<MISSING>","<MISSING>","<INACCESSIBLE>","<INACCESSIBLE>"," Sun-Sat 10am-6pm ","<MISSING>"
"https://www.johnstonmurphy.com","Brown's Shoe Fit","825 23rd St.","Colombus","NE","68601","US","<MISSING>","<MISSING>","<MISSING>","<INACCESSIBLE>","<INACCESSIBLE>"," Sun-Sat 10am-6pm ","<MISSING>"
"https://www.johnstonmurphy.com","Dillard's","Capital Mall","Jefferson City","MO","65109","US","<MISSING>","<MISSING>","<MISSING>","<INACCESSIBLE>","<INACCESSIBLE>"," Sun-Sat 10am-6pm ","<MISSING>"
"https://www.johnstonmurphy.com","Dillard's","Oakview Mall","Omaha","NE","68144","US","<MISSING>","<MISSING>","<MISSING>","<INACCESSIBLE>","<INACCESSIBLE>"," Sun-Sat 10am-6pm ","<MISSING>"
"https://www.johnstonmurphy.com","Dillard's","Lakeside Shopping Center","Metairie","LA","70002","US","<MISSING>","<MISSING>","<MISSING>","<INACCESSIBLE>","<INACCESSIBLE>"," Sun-Sat 10am-6pm ","<MISSING>"
"https://www.johnstonmurphy.com","Joe's Shoe Store","1814 North Causeway Blvd. Ste. 4","Mandeville","LA","70471","US","<MISSING>","<MISSING>","<MISSING>","<INACCESSIBLE>","<INACCESSIBLE>"," Sun-Sat 10am-6pm ","<MISSING>"
"https://www.johnstonmurphy.com","Dillard's","Oak Court","Memphis","TN","38117","US","<MISSING>","<MISSING>","<MISSING>","<INACCESSIBLE>","<INACCESSIBLE>"," Sun-Sat 10am-6pm ","<MISSING>"
"https://www.johnstonmurphy.com","Austin's Shoes","2202 West Jackson Ave","Oxford","MS","38665","US","<MISSING>","<MISSING>","<MISSING>","<INACCESSIBLE>","<INACCESSIBLE>"," Sun-Sat 10am-6pm ","<MISSING>"
"https://www.johnstonmurphy.com","Dillard's","Fremaux Town Center","Slidell","LA","70458","US","<MISSING>","<MISSING>","<MISSING>","<INACCESSIBLE>","<INACCESSIBLE>"," Sun-Sat 10am-6pm ","<MISSING>"
"https://www.johnstonmurphy.com","Dillard's","The Avenue Carriage C","Collierville","TN","38017","US","<MISSING>","<MISSING>","<MISSING>","<INACCESSIBLE>","<INACCESSIBLE>"," Sun-Sat 10am-6pm ","<MISSING>"
"https://www.johnstonmurphy.com","R Price & Co","Lake Forgetful 6156 Hwy 98 W","Hattiesburg","MS","39402","US","<MISSING>","<MISSING>","<MISSING>","<INACCESSIBLE>","<INACCESSIBLE>"," Sun-Sat 10am-6pm ","<MISSING>"
"https://www.johnstonmurphy.com","Gary's Shoes","126 N. Main Street","Richfield ","UT","84701","US","<MISSING>","<MISSING>","<MISSING>","<INACCESSIBLE>","<INACCESSIBLE>"," Sun-Sat 10am-6pm ","<MISSING>"
"https://www.johnstonmurphy.com","Dillard's","Yuma Palms","Yuma","AZ","85365","US","<MISSING>","<MISSING>","<MISSING>","<INACCESSIBLE>","<INACCESSIBLE>"," Sun-Sat 10am-6pm ","<MISSING>"
"https://www.johnstonmurphy.com","Adrian's","435 N. 1680 E #21","St. George","UT","84790","US","<MISSING>","<MISSING>","<MISSING>","<INACCESSIBLE>","<INACCESSIBLE>"," Sun-Sat 10am-6pm ","<MISSING>"
"https://www.johnstonmurphy.com","Dillard's","Red Cliffs Mall","St George","UT","84790","US","<MISSING>","<MISSING>","<MISSING>","<INACCESSIBLE>","<INACCESSIBLE>"," Sun-Sat 10am-6pm ","<MISSING>"
"https://www.johnstonmurphy.com","Progressive Shoes","11 W. Marion","Pontotoc","MS","38863","US","<MISSING>","<MISSING>","<MISSING>","<INACCESSIBLE>","<INACCESSIBLE>"," Sun-Sat 10am-6pm ","<MISSING>"
"https://www.johnstonmurphy.com","Reed's","302 University Drive","Starkville","MS","39759","US","<MISSING>","<MISSING>","<MISSING>","<INACCESSIBLE>","<INACCESSIBLE>"," Sun-Sat 10am-6pm ","<MISSING>"
"https://www.johnstonmurphy.com","Acred Shoe Store","100 Community Park Rd","Dyersburg","TN","38025","US","<MISSING>","<MISSING>","<MISSING>","<INACCESSIBLE>","<INACCESSIBLE>"," Sun-Sat 10am-6pm ","<MISSING>"
"https://www.johnstonmurphy.com","S. F. Alman","452-A Courthouse Rd","Gulfport","MS","39507","US","<MISSING>","<MISSING>","<MISSING>","<INACCESSIBLE>","<INACCESSIBLE>"," Sun-Sat 10am-6pm ","<MISSING>"
"https://www.johnstonmurphy.com","Dillard's","Bonita Lakes","Meridian","MS","39301","US","<MISSING>","<MISSING>","<MISSING>","<INACCESSIBLE>","<INACCESSIBLE>"," Sun-Sat 10am-6pm ","<MISSING>"
"https://www.johnstonmurphy.com","Von Maur","The Meadows","Lake St. Louis","MO","63367","US","<MISSING>","<MISSING>","<MISSING>","<INACCESSIBLE>","<INACCESSIBLE>"," Sun-Sat 10am-6pm ","<MISSING>"
"https://www.johnstonmurphy.com","Dillard's","Edgewater Mall","Biloxi","MS","39531","US","<MISSING>","<MISSING>","<MISSING>","<INACCESSIBLE>","<INACCESSIBLE>"," Sun-Sat 10am-6pm ","<MISSING>"
"https://www.johnstonmurphy.com","Rudolph's Shoes","4510 Southern Hills Dr","Sioux City","IA","51106","US","<MISSING>","<MISSING>","<MISSING>","<INACCESSIBLE>","<INACCESSIBLE>"," Sun-Sat 10am-6pm ","<MISSING>"
"https://www.johnstonmurphy.com","Reed's","131 W Main St","Tupelo","MS","38804","US","<MISSING>","<MISSING>","<MISSING>","<INACCESSIBLE>","<INACCESSIBLE>"," Sun-Sat 10am-6pm ","<MISSING>"
"https://www.johnstonmurphy.com","J. Laurie Shoe Boutique","628 Washington Avenue","Ocean Springs","MS","39564","US","<MISSING>","<MISSING>","<MISSING>","<INACCESSIBLE>","<INACCESSIBLE>"," Sun-Sat 10am-6pm ","<MISSING>"
"https://www.johnstonmurphy.com","DeMarco's","Eastridge Mall","Casper","WY","82609","US","<MISSING>","<MISSING>","<MISSING>","<INACCESSIBLE>","<INACCESSIBLE>"," Sun-Sat 10am-6pm ","<MISSING>"
"https://www.johnstonmurphy.com","Dillard's","Mid Rivers Mall","St. Peters","MO","63376","US","<MISSING>","<MISSING>","<MISSING>","<INACCESSIBLE>","<INACCESSIBLE>"," Sun-Sat 10am-6pm ","<MISSING>"
"https://www.johnstonmurphy.com","Modern Shoe","350 Center Street","Provo","UT","84601","US","<MISSING>","<MISSING>","<MISSING>","<INACCESSIBLE>","<INACCESSIBLE>"," Sun-Sat 10am-6pm ","<MISSING>"
"https://www.johnstonmurphy.com","Brown's Shoe Fit","201 S. Mount Auburn Rd.","Cape Girardeau","MO","63703","US","<MISSING>","<MISSING>","<MISSING>","<INACCESSIBLE>","<INACCESSIBLE>"," Sun-Sat 10am-6pm ","<MISSING>"
"https://www.johnstonmurphy.com","Macy's","University (UT)","Orem","UT","84097","US","<MISSING>","<MISSING>","<MISSING>","<INACCESSIBLE>","<INACCESSIBLE>"," Sun-Sat 10am-6pm ","<MISSING>"
"https://www.johnstonmurphy.com","Mr. Mac","62 Norht 600 West # F-1","American Fork","UT","84003","US","<MISSING>","<MISSING>","<MISSING>","<INACCESSIBLE>","<INACCESSIBLE>"," Sun-Sat 10am-6pm ","<MISSING>"
"https://www.johnstonmurphy.com","Five Seasons Mens","627 E Reelfoot Ave","Union City","TN","38281","US","<MISSING>","<MISSING>","<MISSING>","<INACCESSIBLE>","<INACCESSIBLE>"," Sun-Sat 10am-6pm ","<MISSING>"
"https://www.johnstonmurphy.com","Dillard's","Jordan Creek Town Center","Des Moines","IA","50266","US","<MISSING>","<MISSING>","<MISSING>","<INACCESSIBLE>","<INACCESSIBLE>"," Sun-Sat 10am-6pm ","<MISSING>"
"https://www.johnstonmurphy.com","Von Maur","300 Valley West Mall","West Des Moines","IA","50266","US","<MISSING>","<MISSING>","<MISSING>","<INACCESSIBLE>","<INACCESSIBLE>"," Sun-Sat 10am-6pm ","<MISSING>"
"https://www.johnstonmurphy.com","Hensley's Big & Tall","3342 100 Street","Urbandale","IA","50322","US","<MISSING>","<MISSING>","<MISSING>","<INACCESSIBLE>","<INACCESSIBLE>"," Sun-Sat 10am-6pm ","<MISSING>"
"https://www.johnstonmurphy.com","Austin's Shoes","1792 US-72 E","Corinth","MS","38834","US","<MISSING>","<MISSING>","<MISSING>","<INACCESSIBLE>","<INACCESSIBLE>"," Sun-Sat 10am-6pm ","<MISSING>"
"https://www.johnstonmurphy.com","Schuecking's Menswear","106 North 5th Street","Quincy","IL","62301","US","<MISSING>","<MISSING>","<MISSING>","<INACCESSIBLE>","<INACCESSIBLE>"," Sun-Sat 10am-6pm ","<MISSING>"
"https://www.johnstonmurphy.com","Park City Clothing Co.","558 Main Street","Park City","UT","84060","US","<MISSING>","<MISSING>","<MISSING>","<INACCESSIBLE>","<INACCESSIBLE>"," Sun-Sat 10am-6pm ","<MISSING>"
"https://www.johnstonmurphy.com","Dillard's","St Clair Square","Fairview Heights","IL","62208","US","<MISSING>","<MISSING>","<MISSING>","<INACCESSIBLE>","<INACCESSIBLE>"," Sun-Sat 10am-6pm ","<MISSING>"
"https://www.johnstonmurphy.com","Brown Shoe Fit","2732 S E Delaware Ave","Ankeny","IA","50021","US","<MISSING>","<MISSING>","<MISSING>","<INACCESSIBLE>","<INACCESSIBLE>"," Sun-Sat 10am-6pm ","<MISSING>"
"https://www.johnstonmurphy.com","Dillard's","Galleria @ Sunset","Henderson","NV","89014","US","<MISSING>","<MISSING>","<MISSING>","<INACCESSIBLE>","<INACCESSIBLE>"," Sun-Sat 10am-6pm ","<MISSING>"
"https://www.johnstonmurphy.com","Dillard's","Imperial Valley Mall","El Centro","CA","92243","US","<MISSING>","<MISSING>","<MISSING>","<INACCESSIBLE>","<INACCESSIBLE>"," Sun-Sat 10am-6pm ","<MISSING>"
"https://www.johnstonmurphy.com","Brown Shoe Fit","721 Franklin St","Pella","IA","50219","US","<MISSING>","<MISSING>","<MISSING>","<INACCESSIBLE>","<INACCESSIBLE>"," Sun-Sat 10am-6pm ","<MISSING>"
"https://www.johnstonmurphy.com","Mr. Mac","7208 S. Union Park Ave","Midvale","UT","84047","US","<MISSING>","<MISSING>","<MISSING>","<INACCESSIBLE>","<INACCESSIBLE>"," Sun-Sat 10am-6pm ","<MISSING>"
"https://www.johnstonmurphy.com","Brown Shoe Fit","101 S Market Street","Oskaloosa","IA","52577","US","<MISSING>","<MISSING>","<MISSING>","<INACCESSIBLE>","<INACCESSIBLE>"," Sun-Sat 10am-6pm ","<MISSING>"
"https://www.johnstonmurphy.com","Macy's","Cottonwood","Salt Lake City","UT","84117","US","<MISSING>","<MISSING>","<MISSING>","<INACCESSIBLE>","<INACCESSIBLE>"," Sun-Sat 10am-6pm ","<MISSING>"
"https://www.johnstonmurphy.com","Brown Shoe Fit","618 Lake Avenue North","Strom Lake","IA","50588","US","<MISSING>","<MISSING>","<MISSING>","<INACCESSIBLE>","<INACCESSIBLE>"," Sun-Sat 10am-6pm ","<MISSING>"
"https://www.johnstonmurphy.com","Shoe Station","741-C Hillcrest Road","Mobile","AL","36695","US","<MISSING>","<MISSING>","<MISSING>","<INACCESSIBLE>","<INACCESSIBLE>"," Sun-Sat 10am-6pm ","<MISSING>"
"https://www.johnstonmurphy.com","Dillard's","Fashion Place","Murray","UT","84107","US","<MISSING>","<MISSING>","<MISSING>","<INACCESSIBLE>","<INACCESSIBLE>"," Sun-Sat 10am-6pm ","<MISSING>"
"https://www.johnstonmurphy.com","Davis Clothing","9355 Ogden Landing Road","West Paducah","KY","42086","US","<MISSING>","<MISSING>","<MISSING>","<INACCESSIBLE>","<INACCESSIBLE>"," Sun-Sat 10am-6pm ","<MISSING>"
"https://www.johnstonmurphy.com","Macy's","City Creek Center","Salt lake City","UT","84111","US","<MISSING>","<MISSING>","<MISSING>","<INACCESSIBLE>","<INACCESSIBLE>"," Sun-Sat 10am-6pm ","<MISSING>"
"https://www.johnstonmurphy.com","Emerhoff's Footwear","215 Main St.","Ames","IA","50010","US","<MISSING>","<MISSING>","<MISSING>","<INACCESSIBLE>","<INACCESSIBLE>"," Sun-Sat 10am-6pm ","<MISSING>"
"https://www.johnstonmurphy.com","Dillard's","Kentucky Oaks","Paducah","KY","42001","US","<MISSING>","<MISSING>","<MISSING>","<INACCESSIBLE>","<INACCESSIBLE>"," Sun-Sat 10am-6pm ","<MISSING>"
"https://www.johnstonmurphy.com","Perfect Touch","923 Highway 80 East","Demopolis","AL","36732","US","<MISSING>","<MISSING>","<MISSING>","<INACCESSIBLE>","<INACCESSIBLE>"," Sun-Sat 10am-6pm ","<MISSING>"
"https://www.johnstonmurphy.com","Mr. Mac","1706 South 500 West","Bountiful","UT","84010","US","<MISSING>","<MISSING>","<MISSING>","<INACCESSIBLE>","<INACCESSIBLE>"," Sun-Sat 10am-6pm ","<MISSING>"
"https://www.johnstonmurphy.com","The Toggery","120 W Washington","Paris","TN","38242","US","<MISSING>","<MISSING>","<MISSING>","<INACCESSIBLE>","<INACCESSIBLE>"," Sun-Sat 10am-6pm ","<MISSING>"
"https://www.johnstonmurphy.com","Michael's Toggery","211 N. Main Street","Mitchell","SD","57301","US","<MISSING>","<MISSING>","<MISSING>","<INACCESSIBLE>","<INACCESSIBLE>"," Sun-Sat 10am-6pm ","<MISSING>"
"https://www.johnstonmurphy.com","Michael's Menswear","617 St. Joseph St.","Rapid City","SD","57701","US","<MISSING>","<MISSING>","<MISSING>","<INACCESSIBLE>","<INACCESSIBLE>"," Sun-Sat 10am-6pm ","<MISSING>"
"https://www.johnstonmurphy.com","Dillard's","Illinois Center","Marion","IL","62959","US","<MISSING>","<MISSING>","<MISSING>","<INACCESSIBLE>","<INACCESSIBLE>"," Sun-Sat 10am-6pm ","<MISSING>"
"https://www.johnstonmurphy.com","Brown Shoe Fit","210 S 25th Street","Fort Dodge","IA","50112","US","<MISSING>","<MISSING>","<MISSING>","<INACCESSIBLE>","<INACCESSIBLE>"," Sun-Sat 10am-6pm ","<MISSING>"
"https://www.johnstonmurphy.com","Macy's","Empire","Sioux Falls","SD","57106","US","<MISSING>","<MISSING>","<MISSING>","<INACCESSIBLE>","<INACCESSIBLE>"," Sun-Sat 10am-6pm ","<MISSING>"
"https://www.johnstonmurphy.com","Dillard's","Eastern Shore Center","Spanish Fort","AL","36527","US","<MISSING>","<MISSING>","<MISSING>","<INACCESSIBLE>","<INACCESSIBLE>"," Sun-Sat 10am-6pm ","<MISSING>"
"https://www.johnstonmurphy.com","CK Collection","326 Fairhope Avenue","Fairhope","AL","36532","US","<MISSING>","<MISSING>","<MISSING>","<INACCESSIBLE>","<INACCESSIBLE>"," Sun-Sat 10am-6pm ","<MISSING>"
"https://www.johnstonmurphy.com","Dillard's","Layton Hills","Layton","UT","84041","US","<MISSING>","<MISSING>","<MISSING>","<INACCESSIBLE>","<INACCESSIBLE>"," Sun-Sat 10am-6pm ","<MISSING>"
"https://www.johnstonmurphy.com","Tuscaloosa Clothier Inc.","1657 McFarland Blvd N","Tuscaloosa","AL","35406","US","<MISSING>","<MISSING>","<MISSING>","<INACCESSIBLE>","<INACCESSIBLE>"," Sun-Sat 10am-6pm ","<MISSING>"
"https://www.johnstonmurphy.com","Austin's Shoes","2206 Woodward Ave","Muscle Shoals","AL","35661","US","<MISSING>","<MISSING>","<MISSING>","<INACCESSIBLE>","<INACCESSIBLE>"," Sun-Sat 10am-6pm ","<MISSING>"
"https://www.johnstonmurphy.com","Dillard's","Regency Square Mall","Florence","AL","35630","US","<MISSING>","<MISSING>","<MISSING>","<INACCESSIBLE>","<INACCESSIBLE>"," Sun-Sat 10am-6pm ","<MISSING>"
"https://www.johnstonmurphy.com","Dillard's","Newgate Mall","Ogden","UT","84405","US","<MISSING>","<MISSING>","<MISSING>","<INACCESSIBLE>","<INACCESSIBLE>"," Sun-Sat 10am-6pm ","<MISSING>"
"https://www.johnstonmurphy.com","Nelson's Clothing","104 N Courthouse Square","Macomb","IL","61455","US","<MISSING>","<MISSING>","<MISSING>","<INACCESSIBLE>","<INACCESSIBLE>"," Sun-Sat 10am-6pm ","<MISSING>"
"https://www.johnstonmurphy.com","Tibbs Leather Works","366 S. Pierre St. #1","Pierre","SD","57501","US","<MISSING>","<MISSING>","<MISSING>","<INACCESSIBLE>","<INACCESSIBLE>"," Sun-Sat 10am-6pm ","<MISSING>"
"https://www.johnstonmurphy.com","Macy's","Palm Desert","Palm Desert","CA","92260","US","<MISSING>","<MISSING>","<MISSING>","<INACCESSIBLE>","<INACCESSIBLE>"," Sun-Sat 10am-6pm ","<MISSING>"
"https://www.johnstonmurphy.com","Jane Loves Shoes","27267 Perdido Beach Blvd","Orange Beach","AL","36561","US","<MISSING>","<MISSING>","<MISSING>","<INACCESSIBLE>","<INACCESSIBLE>"," Sun-Sat 10am-6pm ","<MISSING>"
"https://www.johnstonmurphy.com","Mr. Mac","1309 N. Main St","Logan","UT","84341","US","<MISSING>","<MISSING>","<MISSING>","<INACCESSIBLE>","<INACCESSIBLE>"," Sun-Sat 10am-6pm ","<MISSING>"
"https://www.johnstonmurphy.com","Dillard's","Coral Ridge Mall","Coralville","IA","52241","US","<MISSING>","<MISSING>","<MISSING>","<INACCESSIBLE>","<INACCESSIBLE>"," Sun-Sat 10am-6pm ","<MISSING>"
"https://www.johnstonmurphy.com","Von Maur","Sycamore Mall","Iowa City","IA","52240","US","<MISSING>","<MISSING>","<MISSING>","<INACCESSIBLE>","<INACCESSIBLE>"," Sun-Sat 10am-6pm ","<MISSING>"
"https://www.johnstonmurphy.com","Fussell's Men's Store","103 North Main St","Dickson","TN","37055","US","<MISSING>","<MISSING>","<MISSING>","<INACCESSIBLE>","<INACCESSIBLE>"," Sun-Sat 10am-6pm ","<MISSING>"
"https://www.johnstonmurphy.com","Mainly Shoes","248 West Garden Street","Pensacola","FL","32501","US","<MISSING>","<MISSING>","<MISSING>","<INACCESSIBLE>","<INACCESSIBLE>"," Sun-Sat 10am-6pm ","<MISSING>"
"https://www.johnstonmurphy.com","Dillard's","Colonial Mall","Decatur","AL","35601","US","<MISSING>","<MISSING>","<MISSING>","<INACCESSIBLE>","<INACCESSIBLE>"," Sun-Sat 10am-6pm ","<MISSING>"
"https://www.johnstonmurphy.com","Jack's Western Wear","114 Schwaiger Road","Cullman","AL","35055","US","<MISSING>","<MISSING>","<MISSING>","<INACCESSIBLE>","<INACCESSIBLE>"," Sun-Sat 10am-6pm ","<MISSING>"
"https://www.johnstonmurphy.com","Von Maur","Riverchase Mall","Hoover","AL","35244","US","<MISSING>","<MISSING>","<MISSING>","<INACCESSIBLE>","<INACCESSIBLE>"," Sun-Sat 10am-6pm ","<MISSING>"
"https://www.johnstonmurphy.com","Dillard's","Governors Square","Clarksville","TN","37040","US","<MISSING>","<MISSING>","<MISSING>","<INACCESSIBLE>","<INACCESSIBLE>"," Sun-Sat 10am-6pm ","<MISSING>"
"https://www.johnstonmurphy.com","Holley's Shop for Men","4444 1st Ave NW","Cedar Rapids","IA","52402","US","<MISSING>","<MISSING>","<MISSING>","<INACCESSIBLE>","<INACCESSIBLE>"," Sun-Sat 10am-6pm ","<MISSING>"
"https://www.johnstonmurphy.com","Brown Shoe Fit","6046 University Avenue","Cedar Falls","IA","50613","US","<MISSING>","<MISSING>","<MISSING>","<INACCESSIBLE>","<INACCESSIBLE>"," Sun-Sat 10am-6pm ","<MISSING>"
"https://www.johnstonmurphy.com","Dillard's","Crossroads Center","Waterloo","IA","50702","US","<MISSING>","<MISSING>","<MISSING>","<INACCESSIBLE>","<INACCESSIBLE>"," Sun-Sat 10am-6pm ","<MISSING>"
"https://www.johnstonmurphy.com","Fergen's","307 6th Street","Brookings","SD","57006","US","<MISSING>","<MISSING>","<MISSING>","<INACCESSIBLE>","<INACCESSIBLE>"," Sun-Sat 10am-6pm ","<MISSING>"
"https://www.johnstonmurphy.com","Moorman Clothiers","1 S. Federal","Mason City","IA","50401","US","<MISSING>","<MISSING>","<MISSING>","<INACCESSIBLE>","<INACCESSIBLE>"," Sun-Sat 10am-6pm ","<MISSING>"
"https://www.johnstonmurphy.com","Macy's","Temecula Promenade","Temecula","CA","92591","US","<MISSING>","<MISSING>","<MISSING>","<INACCESSIBLE>","<INACCESSIBLE>"," Sun-Sat 10am-6pm ","<MISSING>"
"https://www.johnstonmurphy.com","Von Maur","Hickory Point Mall","Forsyth","IL","62535","US","<MISSING>","<MISSING>","<MISSING>","<INACCESSIBLE>","<INACCESSIBLE>"," Sun-Sat 10am-6pm ","<MISSING>"
"https://www.johnstonmurphy.com","Dillard's","Northpark Mall","Davenport","IA","52806","US","<MISSING>","<MISSING>","<MISSING>","<INACCESSIBLE>","<INACCESSIBLE>"," Sun-Sat 10am-6pm ","<MISSING>"
"https://www.johnstonmurphy.com","Von Maur","SouthPark Mall","Moline","IL","61265","US","<MISSING>","<MISSING>","<MISSING>","<INACCESSIBLE>","<INACCESSIBLE>"," Sun-Sat 10am-6pm ","<MISSING>"
"https://www.johnstonmurphy.com","Dillard's","Parkway Place","Huntsville","AL","35801","US","<MISSING>","<MISSING>","<MISSING>","<INACCESSIBLE>","<INACCESSIBLE>"," Sun-Sat 10am-6pm ","<MISSING>"
"https://www.johnstonmurphy.com","Thomas's Shoes","2227 W Franklin Street","Evansville","IN","47712","US","<MISSING>","<MISSING>","<MISSING>","<INACCESSIBLE>","<INACCESSIBLE>"," Sun-Sat 10am-6pm ","<MISSING>"
"https://www.johnstonmurphy.com","Maggie B","2670 Via De La Valle","Del Mar","CA","92014","US","<MISSING>","<MISSING>","<MISSING>","<INACCESSIBLE>","<INACCESSIBLE>"," Sun-Sat 10am-6pm ","<MISSING>"
"https://www.johnstonmurphy.com","Dillard's","Santa Rosa Mall","Mary Esther","FL","32569","US","<MISSING>","<MISSING>","<MISSING>","<INACCESSIBLE>","<INACCESSIBLE>"," Sun-Sat 10am-6pm ","<MISSING>"
"https://www.johnstonmurphy.com","Jack & Bill's","1628 Broadway","Mattoon","IL","61938","US","<MISSING>","<MISSING>","<MISSING>","<INACCESSIBLE>","<INACCESSIBLE>"," Sun-Sat 10am-6pm ","<MISSING>"
"https://www.johnstonmurphy.com","Dillard's","Rivergate Mall","Goodlettsville","TN","37072","US","<MISSING>","<MISSING>","<MISSING>","<INACCESSIBLE>","<INACCESSIBLE>"," Sun-Sat 10am-6pm ","<MISSING>"
"https://www.johnstonmurphy.com","Shoe Stop","4650 Frederica Street","Owensboro","KY","42301","US","<MISSING>","<MISSING>","<MISSING>","<INACCESSIBLE>","<INACCESSIBLE>"," Sun-Sat 10am-6pm ","<MISSING>"
"https://www.johnstonmurphy.com","Von Maur","College Hills Mall","Normal","IL","61761","US","<MISSING>","<MISSING>","<MISSING>","<INACCESSIBLE>","<INACCESSIBLE>"," Sun-Sat 10am-6pm ","<MISSING>"
"https://www.johnstonmurphy.com","Dillard's","Stones River Mall","Murfreesboro","TN","37129","US","<MISSING>","<MISSING>","<MISSING>","<INACCESSIBLE>","<INACCESSIBLE>"," Sun-Sat 10am-6pm ","<MISSING>"
"https://www.johnstonmurphy.com","Dillard's","The Shoppes At Eastchase","Montgomery","AL","36117","US","<MISSING>","<MISSING>","<MISSING>","<INACCESSIBLE>","<INACCESSIBLE>"," Sun-Sat 10am-6pm ","<MISSING>"
"https://www.johnstonmurphy.com","Macy's","Victoria Gardens ","Rancho Cucamonga","CA","91739","US","<MISSING>","<MISSING>","<MISSING>","<INACCESSIBLE>","<INACCESSIBLE>"," Sun-Sat 10am-6pm ","<MISSING>"
"https://www.johnstonmurphy.com","Goodie 2 Shoes","81 S. King St.","Jackson Hole","WY","83001","US","<MISSING>","<MISSING>","<MISSING>","<INACCESSIBLE>","<INACCESSIBLE>"," Sun-Sat 10am-6pm ","<MISSING>"
"https://www.johnstonmurphy.com","Sikes & Kohn","US 231 South","Pine Level","AL","36065","US","<MISSING>","<MISSING>","<MISSING>","<INACCESSIBLE>","<INACCESSIBLE>"," Sun-Sat 10am-6pm ","<MISSING>"
"https://www.johnstonmurphy.com","Macy's","Mission Viejo","Mission Viejo","CA","92691","US","<MISSING>","<MISSING>","<MISSING>","<INACCESSIBLE>","<INACCESSIBLE>"," Sun-Sat 10am-6pm ","<MISSING>"
"https://www.johnstonmurphy.com","Graif Clothing","900 N. Riverfront Road","Mankato","MN","56001","US","<MISSING>","<MISSING>","<MISSING>","<INACCESSIBLE>","<INACCESSIBLE>"," Sun-Sat 10am-6pm ","<MISSING>"
"https://www.johnstonmurphy.com","The Vault","361 Forest Ave","Laguna Beach","CA","92651","US","<MISSING>","<MISSING>","<MISSING>","<INACCESSIBLE>","<INACCESSIBLE>"," Sun-Sat 10am-6pm ","<MISSING>"
"https://www.johnstonmurphy.com","Mosser's Shoes","6 Convenience Center","Champaign","IL","61820","US","<MISSING>","<MISSING>","<MISSING>","<INACCESSIBLE>","<INACCESSIBLE>"," Sun-Sat 10am-6pm ","<MISSING>"
"https://www.johnstonmurphy.com","Dillard's","Greenwood Mall","Bowling Green","KY","42104","US","<MISSING>","<MISSING>","<MISSING>","<INACCESSIBLE>","<INACCESSIBLE>"," Sun-Sat 10am-6pm ","<MISSING>"
"https://www.johnstonmurphy.com","Karisma Boutique","305 S. Main St","Aberdeen","SD","57401","US","<MISSING>","<MISSING>","<MISSING>","<INACCESSIBLE>","<INACCESSIBLE>"," Sun-Sat 10am-6pm ","<MISSING>"
"https://www.johnstonmurphy.com","Macy's","2850 North Main Street","Santa Ana","CA","92705","US","<MISSING>","<MISSING>","<MISSING>","<INACCESSIBLE>","<INACCESSIBLE>"," Sun-Sat 10am-6pm ","<MISSING>"
"https://www.johnstonmurphy.com","Bloomingdale's","Newport Beach Fashion","Newport Beach","CA","92660","US","<MISSING>","<MISSING>","<MISSING>","<INACCESSIBLE>","<INACCESSIBLE>"," Sun-Sat 10am-6pm ","<MISSING>"
"https://www.johnstonmurphy.com","Macy's","Brea ","Brea","CA","92821","US","<MISSING>","<MISSING>","<MISSING>","<INACCESSIBLE>","<INACCESSIBLE>"," Sun-Sat 10am-6pm ","<MISSING>"
"https://www.johnstonmurphy.com","Graham's Style Store for Men","890 Main Street","Dubuque","IA","52001","US","<MISSING>","<MISSING>","<MISSING>","<INACCESSIBLE>","<INACCESSIBLE>"," Sun-Sat 10am-6pm ","<MISSING>"
"https://www.johnstonmurphy.com","Siebert's","532 Main St.","Jasper","IN","47546","US","<MISSING>","<MISSING>","<MISSING>","<INACCESSIBLE>","<INACCESSIBLE>"," Sun-Sat 10am-6pm ","<MISSING>"
"https://www.johnstonmurphy.com","Macy's","500 Los Cerritos Center","Cerritos","CA","90701","US","<MISSING>","<MISSING>","<MISSING>","<INACCESSIBLE>","<INACCESSIBLE>"," Sun-Sat 10am-6pm ","<MISSING>"
"https://www.johnstonmurphy.com","Corey's Fine Footwear","515 Wabash Avenue","Terre Haute","IN","47807","US","<MISSING>","<MISSING>","<MISSING>","<INACCESSIBLE>","<INACCESSIBLE>"," Sun-Sat 10am-6pm ","<MISSING>"
"https://www.johnstonmurphy.com","Barefield's Store","115 Court Sq.","Ozark","AL","36360","US","<MISSING>","<MISSING>","<MISSING>","<INACCESSIBLE>","<INACCESSIBLE>"," Sun-Sat 10am-6pm ","<MISSING>"
"https://www.johnstonmurphy.com","Macy's","Pasadena - Paseo Colorado","Pasadena","CA","91101","US","<MISSING>","<MISSING>","<MISSING>","<INACCESSIBLE>","<INACCESSIBLE>"," Sun-Sat 10am-6pm ","<MISSING>"
"https://www.johnstonmurphy.com","Dillard's","Colonial University Village","Auburn","AL","36830","US","<MISSING>","<MISSING>","<MISSING>","<INACCESSIBLE>","<INACCESSIBLE>"," Sun-Sat 10am-6pm ","<MISSING>"
"https://www.johnstonmurphy.com","DeMarco's","Grand Teton Mall","Idaho Falls","ID","83404","US","<MISSING>","<MISSING>","<MISSING>","<INACCESSIBLE>","<INACCESSIBLE>"," Sun-Sat 10am-6pm ","<MISSING>"
"https://www.johnstonmurphy.com","Dillard's","Antelope Valley Mall","Palmdale","CA","93551","US","<MISSING>","<MISSING>","<MISSING>","<INACCESSIBLE>","<INACCESSIBLE>"," Sun-Sat 10am-6pm ","<MISSING>"
"https://www.johnstonmurphy.com","Macy's","Apache","Rochester","MN","55902","US","<MISSING>","<MISSING>","<MISSING>","<INACCESSIBLE>","<INACCESSIBLE>"," Sun-Sat 10am-6pm ","<MISSING>"
"https://www.johnstonmurphy.com","Macy's","The Shops at Montebello","Montebello","CA","90640","US","<MISSING>","<MISSING>","<MISSING>","<INACCESSIBLE>","<INACCESSIBLE>"," Sun-Sat 10am-6pm ","<MISSING>"
"https://www.johnstonmurphy.com","Hollywood Suits","23030 Hawthorne Blvd","Torrance","CA","90505","US","<MISSING>","<MISSING>","<MISSING>","<INACCESSIBLE>","<INACCESSIBLE>"," Sun-Sat 10am-6pm ","<MISSING>"
"https://www.johnstonmurphy.com","Macy's","Manhattan Beach","Manhattan Beach","CA","90266","US","<MISSING>","<MISSING>","<MISSING>","<INACCESSIBLE>","<INACCESSIBLE>"," Sun-Sat 10am-6pm ","<MISSING>"
"https://www.johnstonmurphy.com","Dillard's","Wiregrass Commons","Dothan","AL","36303","US","<MISSING>","<MISSING>","<MISSING>","<INACCESSIBLE>","<INACCESSIBLE>"," Sun-Sat 10am-6pm ","<MISSING>"
"https://www.johnstonmurphy.com","Freeman Clothing","160 W. 2nd Street  Ste 104","Rexburg","ID","83440","US","<MISSING>","<MISSING>","<MISSING>","<INACCESSIBLE>","<INACCESSIBLE>"," Sun-Sat 10am-6pm ","<MISSING>"
"https://www.johnstonmurphy.com","Yacoubians","629 Broad Street","Chattanooga","TN","37402","US","<MISSING>","<MISSING>","<MISSING>","<INACCESSIBLE>","<INACCESSIBLE>"," Sun-Sat 10am-6pm ","<MISSING>"
"https://www.johnstonmurphy.com","Bloomingdale's","Sherman Oaks","Sherman Oaks","CA","91423","US","<MISSING>","<MISSING>","<MISSING>","<INACCESSIBLE>","<INACCESSIBLE>"," Sun-Sat 10am-6pm ","<MISSING>"
"https://www.johnstonmurphy.com","Sears Shoes","2778 Lafayette Rd","Ft Oglethorpe","GA","30742","US","<MISSING>","<MISSING>","<MISSING>","<INACCESSIBLE>","<INACCESSIBLE>"," Sun-Sat 10am-6pm ","<MISSING>"
"https://www.johnstonmurphy.com","Bellagio Footwear","120 Broadway","Santa Monica","CA","90401","US","<MISSING>","<MISSING>","<MISSING>","<INACCESSIBLE>","<INACCESSIBLE>"," Sun-Sat 10am-6pm ","<MISSING>"
"https://www.johnstonmurphy.com","Macy's","Northridge Fashion Center","Northridge","CA","91324","US","<MISSING>","<MISSING>","<MISSING>","<INACCESSIBLE>","<INACCESSIBLE>"," Sun-Sat 10am-6pm ","<MISSING>"
"https://www.johnstonmurphy.com","J David's","24201 W. Valencia Blvd","Valencia","CA","91355","US","<MISSING>","<MISSING>","<MISSING>","<INACCESSIBLE>","<INACCESSIBLE>"," Sun-Sat 10am-6pm ","<MISSING>"
"https://www.johnstonmurphy.com","Macy's","Valencia Town Center","Santa Clarita","CA","91355","US","<MISSING>","<MISSING>","<MISSING>","<INACCESSIBLE>","<INACCESSIBLE>"," Sun-Sat 10am-6pm ","<MISSING>"
"https://www.johnstonmurphy.com","Barnes Store","1332 Bankhead Hwy","Carrollton","GA","30116","US","<MISSING>","<MISSING>","<MISSING>","<INACCESSIBLE>","<INACCESSIBLE>"," Sun-Sat 10am-6pm ","<MISSING>"
"https://www.johnstonmurphy.com","Bill's Toggery, Inc.","138 So. Lewis Street","Shakopee","MN","55379","US","<MISSING>","<MISSING>","<MISSING>","<INACCESSIBLE>","<INACCESSIBLE>"," Sun-Sat 10am-6pm ","<MISSING>"
"https://www.johnstonmurphy.com","Macy's","Topanga","Canoga Park","CA","91304","US","<MISSING>","<MISSING>","<MISSING>","<INACCESSIBLE>","<INACCESSIBLE>"," Sun-Sat 10am-6pm ","<MISSING>"
"https://www.johnstonmurphy.com","Macy's","Burnsville Center","Burnsville","MN","55306","US","<MISSING>","<MISSING>","<MISSING>","<INACCESSIBLE>","<INACCESSIBLE>"," Sun-Sat 10am-6pm ","<MISSING>"
"https://www.johnstonmurphy.com","Von Maur","Eden Prairie Center","Eden Prairie","MN","55344","US","<MISSING>","<MISSING>","<MISSING>","<INACCESSIBLE>","<INACCESSIBLE>"," Sun-Sat 10am-6pm ","<MISSING>"
"https://www.johnstonmurphy.com","Touch Of Class","312 Main Street","La Crosse","WI","54601","US","<MISSING>","<MISSING>","<MISSING>","<INACCESSIBLE>","<INACCESSIBLE>"," Sun-Sat 10am-6pm ","<MISSING>"
"https://www.johnstonmurphy.com","DiPrima Shoes","117 Wc Bryant Parkway","Calhoun","GA","30701","US","<MISSING>","<MISSING>","<MISSING>","<INACCESSIBLE>","<INACCESSIBLE>"," Sun-Sat 10am-6pm ","<MISSING>"
"https://www.johnstonmurphy.com","Macy's","Southdale Center","Edina","MN","55435","US","<MISSING>","<MISSING>","<MISSING>","<INACCESSIBLE>","<INACCESSIBLE>"," Sun-Sat 10am-6pm ","<MISSING>"
"https://www.johnstonmurphy.com","Jim's Slack Shack","1507 East Walnut","Dalton","GA","30721","US","<MISSING>","<MISSING>","<MISSING>","<INACCESSIBLE>","<INACCESSIBLE>"," Sun-Sat 10am-6pm ","<MISSING>"
"https://www.johnstonmurphy.com","Schuler Shoes","1175 East Wayzata Boulevard","Wayzata","MN","55391","US","<MISSING>","<MISSING>","<MISSING>","<INACCESSIBLE>","<INACCESSIBLE>"," Sun-Sat 10am-6pm ","<MISSING>"
"https://www.johnstonmurphy.com","Schuler Shoes","5201 Excelsior Boulevard","St Louis Park","MN","55416","US","<MISSING>","<MISSING>","<MISSING>","<INACCESSIBLE>","<INACCESSIBLE>"," Sun-Sat 10am-6pm ","<MISSING>"
"https://www.johnstonmurphy.com","HIM Gentlemens' Boutique","314 Pearl Street","New Albany","IN","47150","US","<MISSING>","<MISSING>","<MISSING>","<INACCESSIBLE>","<INACCESSIBLE>"," Sun-Sat 10am-6pm ","<MISSING>"
"https://www.johnstonmurphy.com","Macy's","Thousand Oaks","Thousand Oaks","CA","91360","US","<MISSING>","<MISSING>","<MISSING>","<INACCESSIBLE>","<INACCESSIBLE>"," Sun-Sat 10am-6pm ","<MISSING>"
"https://www.johnstonmurphy.com","Dillard's","Arbor Place","Douglasville","GA","30135","US","<MISSING>","<MISSING>","<MISSING>","<INACCESSIBLE>","<INACCESSIBLE>"," Sun-Sat 10am-6pm ","<MISSING>"
"https://www.johnstonmurphy.com","Heimie's Haberdashery","400 St Peter St","St Paul","MN","55102","US","<MISSING>","<MISSING>","<MISSING>","<INACCESSIBLE>","<INACCESSIBLE>"," Sun-Sat 10am-6pm ","<MISSING>"
"https://www.johnstonmurphy.com","Dillard's","The Forum At Ashley Park","Newnan","GA","30265","US","<MISSING>","<MISSING>","<MISSING>","<INACCESSIBLE>","<INACCESSIBLE>"," Sun-Sat 10am-6pm ","<MISSING>"
"https://www.johnstonmurphy.com","Schuler Shoes","7845 Main Street N","Maple Grove","MN","55369","US","<MISSING>","<MISSING>","<MISSING>","<INACCESSIBLE>","<INACCESSIBLE>"," Sun-Sat 10am-6pm ","<MISSING>"
"https://www.johnstonmurphy.com","Macy's","Rosedale Center","Roseville","MN","55113","US","<MISSING>","<MISSING>","<MISSING>","<INACCESSIBLE>","<INACCESSIBLE>"," Sun-Sat 10am-6pm ","<MISSING>"
"https://www.johnstonmurphy.com","Mosser Shoes","2415 Sagamore Parkway","LaFayette","IN","47905","US","<MISSING>","<MISSING>","<MISSING>","<INACCESSIBLE>","<INACCESSIBLE>"," Sun-Sat 10am-6pm ","<MISSING>"
"https://www.johnstonmurphy.com","Von Maur","Charlestowne Mall","St. Charles","IL","60174","US","<MISSING>","<MISSING>","<MISSING>","<INACCESSIBLE>","<INACCESSIBLE>"," Sun-Sat 10am-6pm ","<MISSING>"
"https://www.johnstonmurphy.com","The Shoe Box","1314 Canal Street","Black Earth","WI","53515","US","<MISSING>","<MISSING>","<MISSING>","<INACCESSIBLE>","<INACCESSIBLE>"," Sun-Sat 10am-6pm ","<MISSING>"
"https://www.johnstonmurphy.com","Dean's Clothing","226 S Main St","Naperville","IL","60540","US","<MISSING>","<MISSING>","<MISSING>","<INACCESSIBLE>","<INACCESSIBLE>"," Sun-Sat 10am-6pm ","<MISSING>"
"https://www.johnstonmurphy.com","Peacock on Third","122 North 3rd","Bardstown","KY","40004","US","<MISSING>","<MISSING>","<MISSING>","<INACCESSIBLE>","<INACCESSIBLE>"," Sun-Sat 10am-6pm ","<MISSING>"
"https://www.johnstonmurphy.com","Schuler Shoes","10150 Hudson Road","Woodbury","MN","55129","US","<MISSING>","<MISSING>","<MISSING>","<INACCESSIBLE>","<INACCESSIBLE>"," Sun-Sat 10am-6pm ","<MISSING>"
"https://www.johnstonmurphy.com","S & S Menswear","400 Barrett Pkwy","Kennesaw","GA","30144","US","<MISSING>","<MISSING>","<MISSING>","<INACCESSIBLE>","<INACCESSIBLE>"," Sun-Sat 10am-6pm ","<MISSING>"
"https://www.johnstonmurphy.com","Dillard's","Rimrock Mall","Billings","MT","59102","US","<MISSING>","<MISSING>","<MISSING>","<INACCESSIBLE>","<INACCESSIBLE>"," Sun-Sat 10am-6pm ","<MISSING>"
"https://www.johnstonmurphy.com","Miroballi's Shoes","143600 South LaGrange Road","Orland Park","IL","60462","US","<MISSING>","<MISSING>","<MISSING>","<INACCESSIBLE>","<INACCESSIBLE>"," Sun-Sat 10am-6pm ","<MISSING>"
"https://www.johnstonmurphy.com","Miroballi's Shoes","124 N Hale Street","Wheaton","IL","60187","US","<MISSING>","<MISSING>","<MISSING>","<INACCESSIBLE>","<INACCESSIBLE>"," Sun-Sat 10am-6pm ","<MISSING>"
"https://www.johnstonmurphy.com","Good Things","2184 4th St. #1","White Bear Lake","MN","55110","US","<MISSING>","<MISSING>","<MISSING>","<INACCESSIBLE>","<INACCESSIBLE>"," Sun-Sat 10am-6pm ","<MISSING>"
"https://www.johnstonmurphy.com","Schuler Shoes","342 3rd Street","Waite Park ","MN","56387","US","<MISSING>","<MISSING>","<MISSING>","<INACCESSIBLE>","<INACCESSIBLE>"," Sun-Sat 10am-6pm ","<MISSING>"
"https://www.johnstonmurphy.com","Macy's","Hilldale ","Madison","WI","53705","US","<MISSING>","<MISSING>","<MISSING>","<INACCESSIBLE>","<INACCESSIBLE>"," Sun-Sat 10am-6pm ","<MISSING>"
"https://www.johnstonmurphy.com","Guarantee Shoe Center","2101 Chester Ave","Bakersfield","CA","93301","US","<MISSING>","<MISSING>","<MISSING>","<INACCESSIBLE>","<INACCESSIBLE>"," Sun-Sat 10am-6pm ","<MISSING>"
"https://www.johnstonmurphy.com","Stout's Shoes","1430 N.Green St.","Brownsburg","IN","46112","US","<MISSING>","<MISSING>","<MISSING>","<INACCESSIBLE>","<INACCESSIBLE>"," Sun-Sat 10am-6pm ","<MISSING>"
"https://www.johnstonmurphy.com","Von Maur","Yorktown Shopping Center","Lombard","IL","60148","US","<MISSING>","<MISSING>","<MISSING>","<INACCESSIBLE>","<INACCESSIBLE>"," Sun-Sat 10am-6pm ","<MISSING>"
"https://www.johnstonmurphy.com","Macy's","Oakbrook Center","Oak Brook","IL","60523","US","<MISSING>","<MISSING>","<MISSING>","<INACCESSIBLE>","<INACCESSIBLE>"," Sun-Sat 10am-6pm ","<MISSING>"
"https://www.johnstonmurphy.com","Golden Shoes","12212 S Harlem Ave.","Palos Heights","IL","60463","US","<MISSING>","<MISSING>","<MISSING>","<INACCESSIBLE>","<INACCESSIBLE>"," Sun-Sat 10am-6pm ","<MISSING>"
"https://www.johnstonmurphy.com","Hellman Brothers Men's Clothing","717 E Main Avenue","Bismarck","ND","58501","US","<MISSING>","<MISSING>","<MISSING>","<INACCESSIBLE>","<INACCESSIBLE>"," Sun-Sat 10am-6pm ","<MISSING>"
"https://www.johnstonmurphy.com","Von Maur","Greenwood Park Mall","Greenwood","IN","46142","US","<MISSING>","<MISSING>","<MISSING>","<INACCESSIBLE>","<INACCESSIBLE>"," Sun-Sat 10am-6pm ","<MISSING>"
"https://www.johnstonmurphy.com","Johnson's","814 Tennessee Avenue","Etowah","TN","37331","US","<MISSING>","<MISSING>","<MISSING>","<INACCESSIBLE>","<INACCESSIBLE>"," Sun-Sat 10am-6pm ","<MISSING>"
"https://www.johnstonmurphy.com","Macy's","Woodfield","Schaumburg","IL","60173","US","<MISSING>","<MISSING>","<MISSING>","<INACCESSIBLE>","<INACCESSIBLE>"," Sun-Sat 10am-6pm ","<MISSING>"
"https://www.johnstonmurphy.com","Kern Bros.","7 Boone Village","Zionsville","IN","46077","US","<MISSING>","<MISSING>","<MISSING>","<INACCESSIBLE>","<INACCESSIBLE>"," Sun-Sat 10am-6pm ","<MISSING>"
"https://www.johnstonmurphy.com","The Shoe Gallery","606 Holcomb Bridge Road","Roswell","GA","30076","US","<MISSING>","<MISSING>","<MISSING>","<INACCESSIBLE>","<INACCESSIBLE>"," Sun-Sat 10am-6pm ","<MISSING>"
"https://www.johnstonmurphy.com","Von Maur","North Point Mall","Alpharetta","GA","30022","US","<MISSING>","<MISSING>","<MISSING>","<INACCESSIBLE>","<INACCESSIBLE>"," Sun-Sat 10am-6pm ","<MISSING>"
"https://www.johnstonmurphy.com","Zandstra's Store for Men","2627 Highway Avenue","Highland","IN","46322","US","<MISSING>","<MISSING>","<MISSING>","<INACCESSIBLE>","<INACCESSIBLE>"," Sun-Sat 10am-6pm ","<MISSING>"
"https://www.johnstonmurphy.com","Ballards of Blue Ridge","135 Roberts Way","Blue Ridge","GA","30513","US","<MISSING>","<MISSING>","<MISSING>","<INACCESSIBLE>","<INACCESSIBLE>"," Sun-Sat 10am-6pm ","<MISSING>"
"https://www.johnstonmurphy.com","Stout's Shoes","13155 N.Old Merdian Rd","Carmel","IN","46032","US","<MISSING>","<MISSING>","<MISSING>","<INACCESSIBLE>","<INACCESSIBLE>"," Sun-Sat 10am-6pm ","<MISSING>"
"https://www.johnstonmurphy.com","John Cicco's","8250 Mississippi Street","Merrillville","IN","46410","US","<MISSING>","<MISSING>","<MISSING>","<INACCESSIBLE>","<INACCESSIBLE>"," Sun-Sat 10am-6pm ","<MISSING>"
"https://www.johnstonmurphy.com","The Shoe Gallery","6000 Medlock Bridge Pkwy","Johns Creek","GA","30022","US","<MISSING>","<MISSING>","<MISSING>","<INACCESSIBLE>","<INACCESSIBLE>"," Sun-Sat 10am-6pm ","<MISSING>"
"https://www.johnstonmurphy.com","Von Maur","The Glen Town Center","Glenview","IL","60026","US","<MISSING>","<MISSING>","<MISSING>","<INACCESSIBLE>","<INACCESSIBLE>"," Sun-Sat 10am-6pm ","<MISSING>"
"https://www.johnstonmurphy.com","Macy's","Hawthorn Center","Vernon Hills","IL","60061","US","<MISSING>","<MISSING>","<MISSING>","<INACCESSIBLE>","<INACCESSIBLE>"," Sun-Sat 10am-6pm ","<MISSING>"
"https://www.johnstonmurphy.com","Dillard's","Stonecrest Mall","Lithonia","GA","30038","US","<MISSING>","<MISSING>","<MISSING>","<INACCESSIBLE>","<INACCESSIBLE>"," Sun-Sat 10am-6pm ","<MISSING>"
"https://www.johnstonmurphy.com","Bloomingdale's","Old Orchard","Skokie","IL","60077","US","<MISSING>","<MISSING>","<MISSING>","<INACCESSIBLE>","<INACCESSIBLE>"," Sun-Sat 10am-6pm ","<MISSING>"
"https://www.johnstonmurphy.com","Dillard's","Albany Mall","Albany","GA","31707","US","<MISSING>","<MISSING>","<MISSING>","<INACCESSIBLE>","<INACCESSIBLE>"," Sun-Sat 10am-6pm ","<MISSING>"
"https://www.johnstonmurphy.com","The Shoe Gallery","3630 Peachtree Parkway","Suwanee","GA","30024","US","<MISSING>","<MISSING>","<MISSING>","<INACCESSIBLE>","<INACCESSIBLE>"," Sun-Sat 10am-6pm ","<MISSING>"
"https://www.johnstonmurphy.com","Silcott's","18 Washington St.","Valparaiso","IN","46383","US","<MISSING>","<MISSING>","<MISSING>","<INACCESSIBLE>","<INACCESSIBLE>"," Sun-Sat 10am-6pm ","<MISSING>"
"https://www.johnstonmurphy.com","Brown Shoe Fit","201 West Main St.","Visalia","CA","93291","US","<MISSING>","<MISSING>","<MISSING>","<INACCESSIBLE>","<INACCESSIBLE>"," Sun-Sat 10am-6pm ","<MISSING>"
"https://www.johnstonmurphy.com","K&D Shoes","2240 Dogwood Dr","Conyers","GA","30013","US","<MISSING>","<MISSING>","<MISSING>","<INACCESSIBLE>","<INACCESSIBLE>"," Sun-Sat 10am-6pm ","<MISSING>"
"https://www.johnstonmurphy.com","Dillard's","Mall Of Georgia","Buford","GA","30519","US","<MISSING>","<MISSING>","<MISSING>","<INACCESSIBLE>","<INACCESSIBLE>"," Sun-Sat 10am-6pm ","<MISSING>"
"https://www.johnstonmurphy.com","Shoe Station","1400 Village Square","Tallahassee","FL","32312","US","<MISSING>","<MISSING>","<MISSING>","<INACCESSIBLE>","<INACCESSIBLE>"," Sun-Sat 10am-6pm ","<MISSING>"
"https://www.johnstonmurphy.com","Englin's Fine Footwear","1215 S Reed St","Kokomo","IN","46903","US","<MISSING>","<MISSING>","<MISSING>","<INACCESSIBLE>","<INACCESSIBLE>"," Sun-Sat 10am-6pm ","<MISSING>"
"https://www.johnstonmurphy.com","Ozzies","407 Leadville Ave.","Ketchum","ID","83340","US","<MISSING>","<MISSING>","<MISSING>","<INACCESSIBLE>","<INACCESSIBLE>"," Sun-Sat 10am-6pm ","<MISSING>"
"https://www.johnstonmurphy.com","Scheels","1551 45th Street South","Fargo","ND","58103","US","<MISSING>","<MISSING>","<MISSING>","<INACCESSIBLE>","<INACCESSIBLE>"," Sun-Sat 10am-6pm ","<MISSING>"
"https://www.johnstonmurphy.com","Chiapetta's Shoe Store","6821 39th Street","Kenosha","WI","53142","US","<MISSING>","<MISSING>","<MISSING>","<INACCESSIBLE>","<INACCESSIBLE>"," Sun-Sat 10am-6pm ","<MISSING>"
"https://www.johnstonmurphy.com","Jean-Paul Fortin","1 Place Ville-Marie","Montreal","QC","H3B 3Y1","CA","<MISSING>","<MISSING>","<MISSING>","<INACCESSIBLE>","<INACCESSIBLE>"," Sun-Sat 10am-6pm ","<MISSING>"
"https://www.johnstonmurphy.com","Dillard's","West Town Mall","Knoxville","TN","37919","US","<MISSING>","<MISSING>","<MISSING>","<INACCESSIBLE>","<INACCESSIBLE>"," Sun-Sat 10am-6pm ","<MISSING>"
"https://www.johnstonmurphy.com","Schnee's","35 E. Main Street","Bozeman","MT","59715","US","<MISSING>","<MISSING>","<MISSING>","<INACCESSIBLE>","<INACCESSIBLE>"," Sun-Sat 10am-6pm ","<MISSING>"
"https://www.johnstonmurphy.com","Dillard's","Shoppes At River Crossing","Macon","GA","31210","US","<MISSING>","<MISSING>","<MISSING>","<INACCESSIBLE>","<INACCESSIBLE>"," Sun-Sat 10am-6pm ","<MISSING>"
"https://www.johnstonmurphy.com","L & R Clothing","1611 Lincolnway","La Porte","IN","46350","US","<MISSING>","<MISSING>","<MISSING>","<INACCESSIBLE>","<INACCESSIBLE>"," Sun-Sat 10am-6pm ","<MISSING>"
"https://www.johnstonmurphy.com","Von Maur","20005 W. Bluemound Road","Brookfield","WI","53045","US","<MISSING>","<MISSING>","<MISSING>","<INACCESSIBLE>","<INACCESSIBLE>"," Sun-Sat 10am-6pm ","<MISSING>"
"https://www.johnstonmurphy.com","Macy's","Mayfair","Wauwatosa","WI","53226","US","<MISSING>","<MISSING>","<MISSING>","<INACCESSIBLE>","<INACCESSIBLE>"," Sun-Sat 10am-6pm ","<MISSING>"
"https://www.johnstonmurphy.com","Treat's Squire Shops","308 N Michigan St.","Plymouth","IN","46563","US","<MISSING>","<MISSING>","<MISSING>","<INACCESSIBLE>","<INACCESSIBLE>"," Sun-Sat 10am-6pm ","<MISSING>"
"https://www.johnstonmurphy.com","Macy's","Fresno Fashion Fair","Fresno","CA","93726","US","<MISSING>","<MISSING>","<MISSING>","<INACCESSIBLE>","<INACCESSIBLE>"," Sun-Sat 10am-6pm ","<MISSING>"
"https://www.johnstonmurphy.com","Sonia Says","798 Prince Avenue","Athens","GA","30606","US","<MISSING>","<MISSING>","<MISSING>","<INACCESSIBLE>","<INACCESSIBLE>"," Sun-Sat 10am-6pm ","<MISSING>"
"https://www.johnstonmurphy.com","The Big Store","346 Main St.","Tifton","GA","31794","US","<MISSING>","<MISSING>","<MISSING>","<INACCESSIBLE>","<INACCESSIBLE>"," Sun-Sat 10am-6pm ","<MISSING>"
"https://www.johnstonmurphy.com","Dillard's","Crestview Hills Mall","Crestview Hills","KY","41017","US","<MISSING>","<MISSING>","<MISSING>","<INACCESSIBLE>","<INACCESSIBLE>"," Sun-Sat 10am-6pm ","<MISSING>"
"https://www.johnstonmurphy.com","Dillard's","Richmond Square","Richmond","IN","47374","US","<MISSING>","<MISSING>","<MISSING>","<INACCESSIBLE>","<INACCESSIBLE>"," Sun-Sat 10am-6pm ","<MISSING>"
"https://www.johnstonmurphy.com","Macy's","University Park (IN)","Mishawaka","IN","46545","US","<MISSING>","<MISSING>","<MISSING>","<INACCESSIBLE>","<INACCESSIBLE>"," Sun-Sat 10am-6pm ","<MISSING>"
"https://www.johnstonmurphy.com","Bear Mountain Outfitters","302 Main St.","Highlands","NC","28741","US","<MISSING>","<MISSING>","<MISSING>","<INACCESSIBLE>","<INACCESSIBLE>"," Sun-Sat 10am-6pm ","<MISSING>"
"https://www.johnstonmurphy.com","Bill Paul LTD","112 W Wisconsin Avenue","Neenah","WI","54956","US","<MISSING>","<MISSING>","<MISSING>","<INACCESSIBLE>","<INACCESSIBLE>"," Sun-Sat 10am-6pm ","<MISSING>"
"https://www.johnstonmurphy.com","Dawson's Mens Shop","1720 W Andrew Johnson Hwy","Morristown","TN","37814","US","<MISSING>","<MISSING>","<MISSING>","<INACCESSIBLE>","<INACCESSIBLE>"," Sun-Sat 10am-6pm ","<MISSING>"
"https://www.johnstonmurphy.com","Dillard's","Liberty Center","Liberty Township","OH","45069","US","<MISSING>","<MISSING>","<MISSING>","<INACCESSIBLE>","<INACCESSIBLE>"," Sun-Sat 10am-6pm ","<MISSING>"
"https://www.johnstonmurphy.com","Woldruff's Footwear","129 S Main St","Goshen","IN","46526","US","<MISSING>","<MISSING>","<MISSING>","<INACCESSIBLE>","<INACCESSIBLE>"," Sun-Sat 10am-6pm ","<MISSING>"
"https://www.johnstonmurphy.com","Dublin Sir Shop","2034 Veterans Blvd","Dublin","GA","31021","US","<MISSING>","<MISSING>","<MISSING>","<INACCESSIBLE>","<INACCESSIBLE>"," Sun-Sat 10am-6pm ","<MISSING>"
"https://www.johnstonmurphy.com","Campbell & Haines","350 3rd Street","Wausau","WI","54403","US","<MISSING>","<MISSING>","<MISSING>","<INACCESSIBLE>","<INACCESSIBLE>"," Sun-Sat 10am-6pm ","<MISSING>"
"https://www.johnstonmurphy.com","Von Maur","Jefferson Pointe","Fort Wayne","IN","46804","US","<MISSING>","<MISSING>","<MISSING>","<INACCESSIBLE>","<INACCESSIBLE>"," Sun-Sat 10am-6pm ","<MISSING>"
"https://www.johnstonmurphy.com","Pure Panache","4930 Ilinois Road","Wayne","IN","46804","US","<MISSING>","<MISSING>","<MISSING>","<INACCESSIBLE>","<INACCESSIBLE>"," Sun-Sat 10am-6pm ","<MISSING>"
"https://www.johnstonmurphy.com","MH Frank","380 College Ave","Clemson","SC","29631","US","<MISSING>","<MISSING>","<MISSING>","<INACCESSIBLE>","<INACCESSIBLE>"," Sun-Sat 10am-6pm ","<MISSING>"
"https://www.johnstonmurphy.com","Thomas Clothing","3636 Harrison Ave # 1","Butte","MT","59701","US","<MISSING>","<MISSING>","<MISSING>","<INACCESSIBLE>","<INACCESSIBLE>"," Sun-Sat 10am-6pm ","<MISSING>"
"https://www.johnstonmurphy.com","Macy's","Glenbrook Square","Ft. Wayne","IN","46805","US","<MISSING>","<MISSING>","<MISSING>","<INACCESSIBLE>","<INACCESSIBLE>"," Sun-Sat 10am-6pm ","<MISSING>"
"https://www.johnstonmurphy.com","Piece Unique & Shoez","205 N. 10th Street","Boise","ID","83702","US","<MISSING>","<MISSING>","<MISSING>","<INACCESSIBLE>","<INACCESSIBLE>"," Sun-Sat 10am-6pm ","<MISSING>"
"https://www.johnstonmurphy.com","Macy's","Dayton","Dayton","OH","45458","US","<MISSING>","<MISSING>","<MISSING>","<INACCESSIBLE>","<INACCESSIBLE>"," Sun-Sat 10am-6pm ","<MISSING>"
"https://www.johnstonmurphy.com","Roderer Shoes","300 E Stroop Rd","Kettering","OH","45429","US","<MISSING>","<MISSING>","<MISSING>","<INACCESSIBLE>","<INACCESSIBLE>"," Sun-Sat 10am-6pm ","<MISSING>"
"https://www.johnstonmurphy.com","Von Maur","The Greene Towne Center","Beavercreek","OH","45440","US","<MISSING>","<MISSING>","<MISSING>","<INACCESSIBLE>","<INACCESSIBLE>"," Sun-Sat 10am-6pm ","<MISSING>"
"https://www.johnstonmurphy.com","Dillard's","Anderson Mall","Anderson","SC","29621","US","<MISSING>","<MISSING>","<MISSING>","<INACCESSIBLE>","<INACCESSIBLE>"," Sun-Sat 10am-6pm ","<MISSING>"
"https://www.johnstonmurphy.com","For the Love of Shoes","119 Butler St.","Saugatuck","MI","49453","US","<MISSING>","<MISSING>","<MISSING>","<INACCESSIBLE>","<INACCESSIBLE>"," Sun-Sat 10am-6pm ","<MISSING>"
"https://www.johnstonmurphy.com","Dillard's","Summit Sierra","Reno","NV","89511","US","<MISSING>","<MISSING>","<MISSING>","<INACCESSIBLE>","<INACCESSIBLE>"," Sun-Sat 10am-6pm ","<MISSING>"
"https://www.johnstonmurphy.com","Barclay's Mens Clothiers","314-318 N.Main St.","Piqua","OH","45356","US","<MISSING>","<MISSING>","<MISSING>","<INACCESSIBLE>","<INACCESSIBLE>"," Sun-Sat 10am-6pm ","<MISSING>"
"https://www.johnstonmurphy.com","Klika's Shoes","124 N Broadway","De Pere","WI","54115","US","<MISSING>","<MISSING>","<MISSING>","<INACCESSIBLE>","<INACCESSIBLE>"," Sun-Sat 10am-6pm ","<MISSING>"
"https://www.johnstonmurphy.com","V.& A. Bootery","6292 S.Westnedge","Portage","MI","49002","US","<MISSING>","<MISSING>","<MISSING>","<INACCESSIBLE>","<INACCESSIBLE>"," Sun-Sat 10am-6pm ","<MISSING>"
"https://www.johnstonmurphy.com","Loker's Shoe Co","31 East 8th St.","Holland","MI","49423","US","<MISSING>","<MISSING>","<MISSING>","<INACCESSIBLE>","<INACCESSIBLE>"," Sun-Sat 10am-6pm ","<MISSING>"
"https://www.johnstonmurphy.com","Jason Louis Clothing","2325 Holmgren Way","Green Bay","WI","54304","US","<MISSING>","<MISSING>","<MISSING>","<INACCESSIBLE>","<INACCESSIBLE>"," Sun-Sat 10am-6pm ","<MISSING>"
"https://www.johnstonmurphy.com","Houser's Shoes","5418 Asheville Highway","Hendersonville","NC","28791","US","<MISSING>","<MISSING>","<MISSING>","<INACCESSIBLE>","<INACCESSIBLE>"," Sun-Sat 10am-6pm ","<MISSING>"
"https://www.johnstonmurphy.com","Mainstream Fashions","206 West Superior Street","Duluth","MN","55802","US","<MISSING>","<MISSING>","<MISSING>","<INACCESSIBLE>","<INACCESSIBLE>"," Sun-Sat 10am-6pm ","<MISSING>"
"https://www.johnstonmurphy.com","Houser's Shoes","1290 S. Pleasantburg Drive","Greenville","SC","29605","US","<MISSING>","<MISSING>","<MISSING>","<INACCESSIBLE>","<INACCESSIBLE>"," Sun-Sat 10am-6pm ","<MISSING>"
"https://www.johnstonmurphy.com","Libin's","1028 Cork St.","Kalamazoo","MI","49001","US","<MISSING>","<MISSING>","<MISSING>","<INACCESSIBLE>","<INACCESSIBLE>"," Sun-Sat 10am-6pm ","<MISSING>"
"https://www.johnstonmurphy.com","Houser Shoes","3100 Wade Hampton Blvd.","Taylors","SC","29687","US","<MISSING>","<MISSING>","<MISSING>","<INACCESSIBLE>","<INACCESSIBLE>"," Sun-Sat 10am-6pm ","<MISSING>"
"https://www.johnstonmurphy.com","Houser Shoes","1525 East Stone Drive","Kingsport","TN","37660","US","<MISSING>","<MISSING>","<MISSING>","<INACCESSIBLE>","<INACCESSIBLE>"," Sun-Sat 10am-6pm ","<MISSING>"
"https://www.johnstonmurphy.com","Cabonas","10100 Donner Pass","Truckee","CA","96161","US","<MISSING>","<MISSING>","<MISSING>","<INACCESSIBLE>","<INACCESSIBLE>"," Sun-Sat 10am-6pm ","<MISSING>"
"https://www.johnstonmurphy.com","Macy's","Rivertown Crossings","Grandville","MI","49418","US","<MISSING>","<MISSING>","<MISSING>","<INACCESSIBLE>","<INACCESSIBLE>"," Sun-Sat 10am-6pm ","<MISSING>"
"https://www.johnstonmurphy.com","El Charro Western Wear","1333 Crows Landing Road","Modesto","CA","95351","US","<MISSING>","<MISSING>","<MISSING>","<INACCESSIBLE>","<INACCESSIBLE>"," Sun-Sat 10am-6pm ","<MISSING>"
"https://www.johnstonmurphy.com","Hofeller Hiatt & Clark","237 N Main St","Lima","OH","45801","US","<MISSING>","<MISSING>","<MISSING>","<INACCESSIBLE>","<INACCESSIBLE>"," Sun-Sat 10am-6pm ","<MISSING>"
"https://www.johnstonmurphy.com","Rice's Shoes","62 W Michigan Ave","Battle Creek","MI","49017","US","<MISSING>","<MISSING>","<MISSING>","<INACCESSIBLE>","<INACCESSIBLE>"," Sun-Sat 10am-6pm ","<MISSING>"
"https://www.johnstonmurphy.com","Dillard's","Augusta Mall","Augusta","GA","30909","US","<MISSING>","<MISSING>","<MISSING>","<INACCESSIBLE>","<INACCESSIBLE>"," Sun-Sat 10am-6pm ","<MISSING>"
"https://www.johnstonmurphy.com","Macy's","Woodland","Kentwood","MI","49512","US","<MISSING>","<MISSING>","<MISSING>","<INACCESSIBLE>","<INACCESSIBLE>"," Sun-Sat 10am-6pm ","<MISSING>"
"https://www.johnstonmurphy.com","Scioto Shoe Mart","615 harding Avenue","Portsmouth","OH","45662","US","<MISSING>","<MISSING>","<MISSING>","<INACCESSIBLE>","<INACCESSIBLE>"," Sun-Sat 10am-6pm ","<MISSING>"
"https://www.johnstonmurphy.com","Dillard's","Westgate Mall","Spartanburg","SC","29301","US","<MISSING>","<MISSING>","<MISSING>","<INACCESSIBLE>","<INACCESSIBLE>"," Sun-Sat 10am-6pm ","<MISSING>"
"https://www.johnstonmurphy.com","Scioto Shoe Mart","780 Western Avenue","Chillcothe","OH","45601","US","<MISSING>","<MISSING>","<MISSING>","<INACCESSIBLE>","<INACCESSIBLE>"," Sun-Sat 10am-6pm ","<MISSING>"
"https://www.johnstonmurphy.com","Dillard's","Oaks Mall","Gainesville","FL","32605","US","<MISSING>","<MISSING>","<MISSING>","<INACCESSIBLE>","<INACCESSIBLE>"," Sun-Sat 10am-6pm ","<MISSING>"
"https://www.johnstonmurphy.com","The Abelman Clothing Co","327 S Sophie Street","Bessemer","MI","49911","US","<MISSING>","<MISSING>","<MISSING>","<INACCESSIBLE>","<INACCESSIBLE>"," Sun-Sat 10am-6pm ","<MISSING>"
"https://www.johnstonmurphy.com","Snyder's Shoes","101 E Luddington Avenue","Luddington","MI","49431","US","<MISSING>","<MISSING>","<MISSING>","<INACCESSIBLE>","<INACCESSIBLE>"," Sun-Sat 10am-6pm ","<MISSING>"
"https://www.johnstonmurphy.com","Statesboro Sir Shop II","325 Northside Drive East","GA","Statesboro","30458","US","<MISSING>","<MISSING>","<MISSING>","<INACCESSIBLE>","<INACCESSIBLE>"," Sun-Sat 10am-6pm ","<MISSING>"
"https://www.johnstonmurphy.com","Dennis Shea Shoes","286 Lincoln Center","Stockton","CA","95207","US","<MISSING>","<MISSING>","<MISSING>","<INACCESSIBLE>","<INACCESSIBLE>"," Sun-Sat 10am-6pm ","<MISSING>"
"https://www.johnstonmurphy.com","Dillard's","Gulfview Square","Port Ritchey","FL","34668","US","<MISSING>","<MISSING>","<MISSING>","<INACCESSIBLE>","<INACCESSIBLE>"," Sun-Sat 10am-6pm ","<MISSING>"
"https://www.johnstonmurphy.com","On Deck Clothing","265 N 3rd Avenue","Sturgeon Bay","WI","54235","US","<MISSING>","<MISSING>","<MISSING>","<INACCESSIBLE>","<INACCESSIBLE>"," Sun-Sat 10am-6pm ","<MISSING>"
"https://www.johnstonmurphy.com","Dillard's","Countryside Mall","Clearwater","FL","33761","US","<MISSING>","<MISSING>","<MISSING>","<INACCESSIBLE>","<INACCESSIBLE>"," Sun-Sat 10am-6pm ","<MISSING>"
"https://www.johnstonmurphy.com","Kaufman's","411 Central Ave","Great Falls","MT","59401","US","<MISSING>","<MISSING>","<MISSING>","<INACCESSIBLE>","<INACCESSIBLE>"," Sun-Sat 10am-6pm ","<MISSING>"
"https://www.johnstonmurphy.com","Macy's","Monterey Del Monte Center","Monterey","CA","93940","US","<MISSING>","<MISSING>","<MISSING>","<INACCESSIBLE>","<INACCESSIBLE>"," Sun-Sat 10am-6pm ","<MISSING>"
"https://www.johnstonmurphy.com","Macy's","Huntington","Barboursville","WV","25504","US","<MISSING>","<MISSING>","<MISSING>","<INACCESSIBLE>","<INACCESSIBLE>"," Sun-Sat 10am-6pm ","<MISSING>"
"https://www.johnstonmurphy.com","Dillard's","Tyrone Square","St. Petersburg","FL","33710","US","<MISSING>","<MISSING>","<MISSING>","<INACCESSIBLE>","<INACCESSIBLE>"," Sun-Sat 10am-6pm ","<MISSING>"
"https://www.johnstonmurphy.com","Lucky's Shoes","3866 Townfair Way","Easton","OH","43219","US","<MISSING>","<MISSING>","<MISSING>","<INACCESSIBLE>","<INACCESSIBLE>"," Sun-Sat 10am-6pm ","<MISSING>"
"https://www.johnstonmurphy.com","Dillard's","Market Street","Ocala","FL","34474","US","<MISSING>","<MISSING>","<MISSING>","<INACCESSIBLE>","<INACCESSIBLE>"," Sun-Sat 10am-6pm ","<MISSING>"
"https://www.johnstonmurphy.com","Fred & Co","4143 WI-42","Fish Creek","WI","54212","US","<MISSING>","<MISSING>","<MISSING>","<INACCESSIBLE>","<INACCESSIBLE>"," Sun-Sat 10am-6pm ","<MISSING>"
"https://www.johnstonmurphy.com","Macy's","Arden Fair","Sacramento","CA","95815","US","<MISSING>","<MISSING>","<MISSING>","<INACCESSIBLE>","<INACCESSIBLE>"," Sun-Sat 10am-6pm ","<MISSING>"
"https://www.johnstonmurphy.com","Kositchek's","113 North Washington Square","Lansing","MI","48933","US","<MISSING>","<MISSING>","<MISSING>","<INACCESSIBLE>","<INACCESSIBLE>"," Sun-Sat 10am-6pm ","<MISSING>"
"https://www.johnstonmurphy.com","Dillard's","Fallen Timbers","Maumee","OH","43537","US","<MISSING>","<MISSING>","<MISSING>","<INACCESSIBLE>","<INACCESSIBLE>"," Sun-Sat 10am-6pm ","<MISSING>"
"https://www.johnstonmurphy.com","Dillard's","Orange Park Mall","Orange Park","FL","32073","US","<MISSING>","<MISSING>","<MISSING>","<INACCESSIBLE>","<INACCESSIBLE>"," Sun-Sat 10am-6pm ","<MISSING>"
"https://www.johnstonmurphy.com","Nordstrom","Valley Fair","San Jose","CA","95128","US","<MISSING>","<MISSING>","<MISSING>","<INACCESSIBLE>","<INACCESSIBLE>"," Sun-Sat 10am-6pm ","<MISSING>"
"https://www.johnstonmurphy.com","Sock Shop and Shoe","1515 Pacific Ave","Santa Cruz","CA","95060","US","<MISSING>","<MISSING>","<MISSING>","<INACCESSIBLE>","<INACCESSIBLE>"," Sun-Sat 10am-6pm ","<MISSING>"
"https://www.johnstonmurphy.com","Macy's","Valley Fair ","Santa Clara","CA","95050","US","<MISSING>","<MISSING>","<MISSING>","<INACCESSIBLE>","<INACCESSIBLE>"," Sun-Sat 10am-6pm ","<MISSING>"
"https://www.johnstonmurphy.com","Dillard's","Valley Hills Mall","Hickory","NC","28602","US","<MISSING>","<MISSING>","<MISSING>","<INACCESSIBLE>","<INACCESSIBLE>"," Sun-Sat 10am-6pm ","<MISSING>"
"https://www.johnstonmurphy.com","Dillard's","Franklin Park","Toledo","OH","43623","US","<MISSING>","<MISSING>","<MISSING>","<INACCESSIBLE>","<INACCESSIBLE>"," Sun-Sat 10am-6pm ","<MISSING>"
"https://www.johnstonmurphy.com","Macy's","Pleasanton Stoneridge","Pleasanton","CA","94588","US","<MISSING>","<MISSING>","<MISSING>","<INACCESSIBLE>","<INACCESSIBLE>"," Sun-Sat 10am-6pm ","<MISSING>"
"https://www.johnstonmurphy.com","Dillard's","Desoto Square Mall","Bradenton","FL","34205","US","<MISSING>","<MISSING>","<MISSING>","<INACCESSIBLE>","<INACCESSIBLE>"," Sun-Sat 10am-6pm ","<MISSING>"
"https://www.johnstonmurphy.com","Dillard's","Wiregrass","Wesley Chapel","FL","33543","US","<MISSING>","<MISSING>","<MISSING>","<INACCESSIBLE>","<INACCESSIBLE>"," Sun-Sat 10am-6pm ","<MISSING>"
"https://www.johnstonmurphy.com","The Mens Shop","49 N Congress St","York","SC","29745","US","<MISSING>","<MISSING>","<MISSING>","<INACCESSIBLE>","<INACCESSIBLE>"," Sun-Sat 10am-6pm ","<MISSING>"
"https://www.johnstonmurphy.com","On the Edge","3408 Blackhawk Plaza","Danville","CA","94506","US","<MISSING>","<MISSING>","<MISSING>","<INACCESSIBLE>","<INACCESSIBLE>"," Sun-Sat 10am-6pm ","<MISSING>"
"https://www.johnstonmurphy.com","Dillard's","Southgate Mall","Missoula","MT","59801","US","<MISSING>","<MISSING>","<MISSING>","<INACCESSIBLE>","<INACCESSIBLE>"," Sun-Sat 10am-6pm ","<MISSING>"
"https://www.johnstonmurphy.com","Cavalier's","321 Third St.","Havre","MT","59501","US","<MISSING>","<MISSING>","<MISSING>","<INACCESSIBLE>","<INACCESSIBLE>"," Sun-Sat 10am-6pm ","<MISSING>"
"https://www.johnstonmurphy.com","Dillard's","Brandon Town Center","Brandon","FL","33511","US","<MISSING>","<MISSING>","<MISSING>","<INACCESSIBLE>","<INACCESSIBLE>"," Sun-Sat 10am-6pm ","<MISSING>"
"https://www.johnstonmurphy.com","Wadsworth Menswear","204 Centre St","Fernandina Beach","FL","32034","US","<MISSING>","<MISSING>","<MISSING>","<INACCESSIBLE>","<INACCESSIBLE>"," Sun-Sat 10am-6pm ","<MISSING>"
"https://www.johnstonmurphy.com","Morgan's Shoes & Bootery","1876 South New Hope Road","Gastonia","NC","28054","US","<MISSING>","<MISSING>","<MISSING>","<INACCESSIBLE>","<INACCESSIBLE>"," Sun-Sat 10am-6pm ","<MISSING>"
"https://www.johnstonmurphy.com","Dillard's","St Johns Town Center","Jacksonville","FL","32246","US","<MISSING>","<MISSING>","<MISSING>","<INACCESSIBLE>","<INACCESSIBLE>"," Sun-Sat 10am-6pm ","<MISSING>"
"https://www.johnstonmurphy.com","Bloomingdale's","Stanford ","Palo Alto","CA","94304","US","<MISSING>","<MISSING>","<MISSING>","<INACCESSIBLE>","<INACCESSIBLE>"," Sun-Sat 10am-6pm ","<MISSING>"
"https://www.johnstonmurphy.com","Dillard's","Savannah Mall","Savannah","GA","31419","US","<MISSING>","<MISSING>","<MISSING>","<INACCESSIBLE>","<INACCESSIBLE>"," Sun-Sat 10am-6pm ","<MISSING>"
"https://www.johnstonmurphy.com","Macy's","Walnut Creek Broadway Plaza","Walnut Creek","CA","94596","US","<MISSING>","<MISSING>","<MISSING>","<INACCESSIBLE>","<INACCESSIBLE>"," Sun-Sat 10am-6pm ","<MISSING>"
"https://www.johnstonmurphy.com","Macy's","Concord Sunvalley","Concord","CA","94520","US","<MISSING>","<MISSING>","<MISSING>","<INACCESSIBLE>","<INACCESSIBLE>"," Sun-Sat 10am-6pm ","<MISSING>"
"https://www.johnstonmurphy.com","Von Maur","Briarwood Mall","Ann Arbor","MI","48108","US","<MISSING>","<MISSING>","<MISSING>","<INACCESSIBLE>","<INACCESSIBLE>"," Sun-Sat 10am-6pm ","<MISSING>"
"https://www.johnstonmurphy.com","Carla's Shoes","330 A1A North Suite","Ponte Vedra","FL","32082","US","<MISSING>","<MISSING>","<MISSING>","<INACCESSIBLE>","<INACCESSIBLE>"," Sun-Sat 10am-6pm ","<MISSING>"
"https://www.johnstonmurphy.com","Dafoe's Black Tie","1017 South Mission Street","Mount Pleasant","MI","48858","US","<MISSING>","<MISSING>","<MISSING>","<INACCESSIBLE>","<INACCESSIBLE>"," Sun-Sat 10am-6pm ","<MISSING>"
"https://www.johnstonmurphy.com","B&B Bootery","311 West Ave","Venice","FL","34285","US","<MISSING>","<MISSING>","<MISSING>","<INACCESSIBLE>","<INACCESSIBLE>"," Sun-Sat 10am-6pm ","<MISSING>"
"https://www.johnstonmurphy.com","Dillard's","Lakeland Square","Lakeland","FL","33809","US","<MISSING>","<MISSING>","<MISSING>","<INACCESSIBLE>","<INACCESSIBLE>"," Sun-Sat 10am-6pm ","<MISSING>"
"https://www.johnstonmurphy.com","Tailoring Unlimited","409 Main Street","Brighton","MI","48816","US","<MISSING>","<MISSING>","<MISSING>","<INACCESSIBLE>","<INACCESSIBLE>"," Sun-Sat 10am-6pm ","<MISSING>"
"https://www.johnstonmurphy.com","Models Shoe","1934 Shattuck Ave","Berkeley","CA","94704","US","<MISSING>","<MISSING>","<MISSING>","<INACCESSIBLE>","<INACCESSIBLE>"," Sun-Sat 10am-6pm ","<MISSING>"
"https://www.johnstonmurphy.com","Dillard's","Carolina Place Parkway","Pineville","NC","28134","US","<MISSING>","<MISSING>","<MISSING>","<INACCESSIBLE>","<INACCESSIBLE>"," Sun-Sat 10am-6pm ","<MISSING>"
"https://www.johnstonmurphy.com","Golden Shoes","122 E Front Street","Traverse City","MI","49684","US","<MISSING>","<MISSING>","<MISSING>","<INACCESSIBLE>","<INACCESSIBLE>"," Sun-Sat 10am-6pm ","<MISSING>"
"https://www.johnstonmurphy.com","Macy's","Southland","Taylor","MI","48180","US","<MISSING>","<MISSING>","<MISSING>","<INACCESSIBLE>","<INACCESSIBLE>"," Sun-Sat 10am-6pm ","<MISSING>"
"https://www.johnstonmurphy.com","Formal Education","334 Broadway Street","Chico","CA","91711","US","<MISSING>","<MISSING>","<MISSING>","<INACCESSIBLE>","<INACCESSIBLE>"," Sun-Sat 10am-6pm ","<MISSING>"
"https://www.johnstonmurphy.com","Louis Thomas","212 Corte Madera Town Center","Corte Madera","CA","94925","US","<MISSING>","<MISSING>","<MISSING>","<INACCESSIBLE>","<INACCESSIBLE>"," Sun-Sat 10am-6pm ","<MISSING>"
"https://www.johnstonmurphy.com","67 Richmond","178 Sandwich Street South","Amherstburg","ON","N9V 2A1","CA","<MISSING>","<MISSING>","<MISSING>","<INACCESSIBLE>","<INACCESSIBLE>"," Sun-Sat 10am-6pm ","<MISSING>"
"https://www.johnstonmurphy.com","Manno Clothing & Tailoring","23810 Michigan Avenue","Dearborn","MI","48124","US","<MISSING>","<MISSING>","<MISSING>","<INACCESSIBLE>","<INACCESSIBLE>"," Sun-Sat 10am-6pm ","<MISSING>"
"https://www.johnstonmurphy.com","In Her Shoes","1344 4th Street","San Rafael","CA","94901","US","<MISSING>","<MISSING>","<MISSING>","<INACCESSIBLE>","<INACCESSIBLE>"," Sun-Sat 10am-6pm ","<MISSING>"
"https://www.johnstonmurphy.com","Dillard's","Town Center","Port Charlotte","FL","33948","US","<MISSING>","<MISSING>","<MISSING>","<INACCESSIBLE>","<INACCESSIBLE>"," Sun-Sat 10am-6pm ","<MISSING>"
"https://www.johnstonmurphy.com","Hornor & Harrison","2709 Murdoch Avenue","Parkersburg","WV","26101","US","<MISSING>","<MISSING>","<MISSING>","<INACCESSIBLE>","<INACCESSIBLE>"," Sun-Sat 10am-6pm ","<MISSING>"
"https://www.johnstonmurphy.com","Eraldis","475 First Street West","Sonoma","CA","95476","US","<MISSING>","<MISSING>","<MISSING>","<INACCESSIBLE>","<INACCESSIBLE>"," Sun-Sat 10am-6pm ","<MISSING>"
"https://www.johnstonmurphy.com","The Shirt Box","32500 Northwestern Hwy","Farmington Hills","MI","48334","US","<MISSING>","<MISSING>","<MISSING>","<INACCESSIBLE>","<INACCESSIBLE>"," Sun-Sat 10am-6pm ","<MISSING>"
"https://www.johnstonmurphy.com","Sam Michael's Clothing","29437 W 12 Mile Road","Southfield","MI","48334","US","<MISSING>","<MISSING>","<MISSING>","<INACCESSIBLE>","<INACCESSIBLE>"," Sun-Sat 10am-6pm ","<MISSING>"
"https://www.johnstonmurphy.com","Junction Shoes","324 Sir Francis Drake Blvd.","San Anselmo","CA","94960","US","<MISSING>","<MISSING>","<MISSING>","<INACCESSIBLE>","<INACCESSIBLE>"," Sun-Sat 10am-6pm ","<MISSING>"
"https://www.johnstonmurphy.com","Sundance","6915 Orchard Lake Road","West Bloomfield","MI","48322","US","<MISSING>","<MISSING>","<MISSING>","<INACCESSIBLE>","<INACCESSIBLE>"," Sun-Sat 10am-6pm ","<MISSING>"
"https://www.johnstonmurphy.com","Macy's","Genesee Valley Center","Flint","MI","48507","US","<MISSING>","<MISSING>","<MISSING>","<INACCESSIBLE>","<INACCESSIBLE>"," Sun-Sat 10am-6pm ","<MISSING>"
"https://www.johnstonmurphy.com","Snyder's Shoes","397 River Street","Manistee","MI","49680","US","<MISSING>","<MISSING>","<MISSING>","<INACCESSIBLE>","<INACCESSIBLE>"," Sun-Sat 10am-6pm ","<MISSING>"
"https://www.johnstonmurphy.com","Mara's Shoes","824 Grant Avenue","Novato","CA","94945","US","<MISSING>","<MISSING>","<MISSING>","<INACCESSIBLE>","<INACCESSIBLE>"," Sun-Sat 10am-6pm ","<MISSING>"
"https://www.johnstonmurphy.com","Edward's Men's Shop","4928 Gratiot","Saginaw","MI","48603","US","<MISSING>","<MISSING>","<MISSING>","<INACCESSIBLE>","<INACCESSIBLE>"," Sun-Sat 10am-6pm ","<MISSING>"
"https://www.johnstonmurphy.com","Marios","1223 Main Street","St. Helena","CA","94574","US","<MISSING>","<MISSING>","<MISSING>","<INACCESSIBLE>","<INACCESSIBLE>"," Sun-Sat 10am-6pm ","<MISSING>"
"https://www.johnstonmurphy.com","Dillard's","Altamonte Mall","Altamonte Springs","FL","32701","US","<MISSING>","<MISSING>","<MISSING>","<INACCESSIBLE>","<INACCESSIBLE>"," Sun-Sat 10am-6pm ","<MISSING>"
"https://www.johnstonmurphy.com","Canadian Footwear","1504 St Mary's Road","Winnipeg","MB","R2M 3V7","CA","<MISSING>","<MISSING>","<MISSING>","<INACCESSIBLE>","<INACCESSIBLE>"," Sun-Sat 10am-6pm ","<MISSING>"
"https://www.johnstonmurphy.com","Teri Ann's","290 Front Street","Marietta","OH","45750","US","<MISSING>","<MISSING>","<MISSING>","<INACCESSIBLE>","<INACCESSIBLE>"," Sun-Sat 10am-6pm ","<MISSING>"
"https://www.johnstonmurphy.com","Dillard's","Seminole Town Center","Sanford","FL","32771","US","<MISSING>","<MISSING>","<MISSING>","<INACCESSIBLE>","<INACCESSIBLE>"," Sun-Sat 10am-6pm ","<MISSING>"
"https://www.johnstonmurphy.com","Siegel's Clothing","330 S Park Ave","Winter Park","FL","32789","US","<MISSING>","<MISSING>","<MISSING>","<INACCESSIBLE>","<INACCESSIBLE>"," Sun-Sat 10am-6pm ","<MISSING>"
"https://www.johnstonmurphy.com","F Rees Co","198 N Main","Mt. Airy","NC","27030","US","<MISSING>","<MISSING>","<MISSING>","<INACCESSIBLE>","<INACCESSIBLE>"," Sun-Sat 10am-6pm ","<MISSING>"
"https://www.johnstonmurphy.com","Freeds of Windsor","1526 Ottawa Street","Windsor","ON","N8X 2G5","CA","<MISSING>","<MISSING>","<MISSING>","<INACCESSIBLE>","<INACCESSIBLE>"," Sun-Sat 10am-6pm ","<MISSING>"
"https://www.johnstonmurphy.com","Macy's","Somerset Collection","Troy","MI","48084","US","<MISSING>","<MISSING>","<MISSING>","<INACCESSIBLE>","<INACCESSIBLE>"," Sun-Sat 10am-6pm ","<MISSING>"
"https://www.johnstonmurphy.com","Louis Thomas","150 Kentucky street","Petaluma","CA","94952","US","<MISSING>","<MISSING>","<MISSING>","<INACCESSIBLE>","<INACCESSIBLE>"," Sun-Sat 10am-6pm ","<MISSING>"
"https://www.johnstonmurphy.com","C. Anthony's","2 N. Main St","Sumter","SC","29150","US","<MISSING>","<MISSING>","<MISSING>","<INACCESSIBLE>","<INACCESSIBLE>"," Sun-Sat 10am-6pm ","<MISSING>"
"https://www.johnstonmurphy.com","Dillard's","Volusia Mall","Daytona Beach","FL","32114","US","<MISSING>","<MISSING>","<MISSING>","<INACCESSIBLE>","<INACCESSIBLE>"," Sun-Sat 10am-6pm ","<MISSING>"
"https://www.johnstonmurphy.com","Dillard's","Market Place","Oviedo","FL","32765","US","<MISSING>","<MISSING>","<MISSING>","<INACCESSIBLE>","<INACCESSIBLE>"," Sun-Sat 10am-6pm ","<MISSING>"
"https://www.johnstonmurphy.com","Garrett's","1136 East Main Street","Radford","VA","24141","US","<MISSING>","<MISSING>","<MISSING>","<INACCESSIBLE>","<INACCESSIBLE>"," Sun-Sat 10am-6pm ","<MISSING>"
"https://www.johnstonmurphy.com","Macy's","Santa Rosa Plaza","Santa Rosa","CA","95401","US","<MISSING>","<MISSING>","<MISSING>","<INACCESSIBLE>","<INACCESSIBLE>"," Sun-Sat 10am-6pm ","<MISSING>"
"https://www.johnstonmurphy.com","Dillard's","Hanes Mall","Winston-Salem","NC","27103","US","<MISSING>","<MISSING>","<MISSING>","<INACCESSIBLE>","<INACCESSIBLE>"," Sun-Sat 10am-6pm ","<MISSING>"
"https://www.johnstonmurphy.com","Dillard's","Eagle Ridge Mall","Lake Wales","FL","33859","US","<MISSING>","<MISSING>","<MISSING>","<INACCESSIBLE>","<INACCESSIBLE>"," Sun-Sat 10am-6pm ","<MISSING>"
"https://www.johnstonmurphy.com","Dillard's","Edison Mall","Ft. Myers","FL","33901","US","<MISSING>","<MISSING>","<MISSING>","<INACCESSIBLE>","<INACCESSIBLE>"," Sun-Sat 10am-6pm ","<MISSING>"
"https://www.johnstonmurphy.com","Outlander Mens Gear","103 Plaza Street","Healdsburg","CA","95448","US","<MISSING>","<MISSING>","<MISSING>","<INACCESSIBLE>","<INACCESSIBLE>"," Sun-Sat 10am-6pm ","<MISSING>"
"https://www.johnstonmurphy.com","Alexander's Men's Clothing","148 E Carolina Ave","Hartsville","SC","29550","US","<MISSING>","<MISSING>","<MISSING>","<INACCESSIBLE>","<INACCESSIBLE>"," Sun-Sat 10am-6pm ","<MISSING>"
"https://www.johnstonmurphy.com","Endless Summer","36840 Detroit Road","Avon","OH","44011","US","<MISSING>","<MISSING>","<MISSING>","<INACCESSIBLE>","<INACCESSIBLE>"," Sun-Sat 10am-6pm ","<MISSING>"
"https://www.johnstonmurphy.com","Yarid'S","204 W. Washington Street","Lewisburg","WV","24901","US","<MISSING>","<MISSING>","<MISSING>","<INACCESSIBLE>","<INACCESSIBLE>"," Sun-Sat 10am-6pm ","<MISSING>"
"https://www.johnstonmurphy.com","Dillard's","Great Northern","North Olmstead","OH","44070","US","<MISSING>","<MISSING>","<MISSING>","<INACCESSIBLE>","<INACCESSIBLE>"," Sun-Sat 10am-6pm ","<MISSING>"
"https://www.johnstonmurphy.com","Dillard's","Northwood Mall","N. Charleston","SC","29406","US","<MISSING>","<MISSING>","<MISSING>","<INACCESSIBLE>","<INACCESSIBLE>"," Sun-Sat 10am-6pm ","<MISSING>"
"https://www.johnstonmurphy.com","Dillard's","Coconut Point","Bonita Springs","FL","33928","US","<MISSING>","<MISSING>","<MISSING>","<INACCESSIBLE>","<INACCESSIBLE>"," Sun-Sat 10am-6pm ","<MISSING>"
"https://www.johnstonmurphy.com","Dillard's","Southpark Center","Strongville","OH","44136","US","<MISSING>","<MISSING>","<MISSING>","<INACCESSIBLE>","<INACCESSIBLE>"," Sun-Sat 10am-6pm ","<MISSING>"
"https://www.johnstonmurphy.com","Iannone's Shoe Clinic","2712 13th Avenue","Regina","SK","S4T 1N3","CA","<MISSING>","<MISSING>","<MISSING>","<INACCESSIBLE>","<INACCESSIBLE>"," Sun-Sat 10am-6pm ","<MISSING>"
"https://www.johnstonmurphy.com","Dillard's","Charleston Citadel Mall","Charleston","SC","29407","US","<MISSING>","<MISSING>","<MISSING>","<INACCESSIBLE>","<INACCESSIBLE>"," Sun-Sat 10am-6pm ","<MISSING>"
"https://www.johnstonmurphy.com","Dillard's","Summit Mall","Akron","OH","44333","US","<MISSING>","<MISSING>","<MISSING>","<INACCESSIBLE>","<INACCESSIBLE>"," Sun-Sat 10am-6pm ","<MISSING>"
"https://www.johnstonmurphy.com","Lucky's Shoes","2685 West Market St","Fairlawn","OH","44333","US","<MISSING>","<MISSING>","<MISSING>","<INACCESSIBLE>","<INACCESSIBLE>"," Sun-Sat 10am-6pm ","<MISSING>"
"https://www.johnstonmurphy.com","Yarids","300 West Main Street","White Sulphur Springs","WV","24986","US","<MISSING>","<MISSING>","<MISSING>","<INACCESSIBLE>","<INACCESSIBLE>"," Sun-Sat 10am-6pm ","<MISSING>"
"https://www.johnstonmurphy.com","Dillard's","Belden Village","Canton","OH","44718","US","<MISSING>","<MISSING>","<MISSING>","<INACCESSIBLE>","<INACCESSIBLE>"," Sun-Sat 10am-6pm ","<MISSING>"
"https://www.johnstonmurphy.com","Macy's","Naples Coastland Center","Naples","FL","34102","US","<MISSING>","<MISSING>","<MISSING>","<INACCESSIBLE>","<INACCESSIBLE>"," Sun-Sat 10am-6pm ","<MISSING>"
"https://www.johnstonmurphy.com","Male Image","3550 S Washington Avenue","Titusville","FL","32780","US","<MISSING>","<MISSING>","<MISSING>","<INACCESSIBLE>","<INACCESSIBLE>"," Sun-Sat 10am-6pm ","<MISSING>"
"https://www.johnstonmurphy.com","Pratt Shoes","1183 3rd St.","South Naples","FL","34102","US","<MISSING>","<MISSING>","<MISSING>","<INACCESSIBLE>","<INACCESSIBLE>"," Sun-Sat 10am-6pm ","<MISSING>"
"https://www.johnstonmurphy.com","Davidsons","4235 Electric Road","Roanoke","Virginia","24018","US","<MISSING>","<MISSING>","<MISSING>","<INACCESSIBLE>","<INACCESSIBLE>"," Sun-Sat 10am-6pm ","<MISSING>"
"https://www.johnstonmurphy.com","Dillard's","Merritt Square","Merritt Island","FL","32952","US","<MISSING>","<MISSING>","<MISSING>","<INACCESSIBLE>","<INACCESSIBLE>"," Sun-Sat 10am-6pm ","<MISSING>"
"https://www.johnstonmurphy.com","Mar-Lou Shoes","5471 Mayfield Rd","Lyndhurst","OH","44124","US","<MISSING>","<MISSING>","<MISSING>","<INACCESSIBLE>","<INACCESSIBLE>"," Sun-Sat 10am-6pm ","<MISSING>"
"https://www.johnstonmurphy.com","Dillard's","Melbourne Square","Melbourne","FL","32904","US","<MISSING>","<MISSING>","<MISSING>","<INACCESSIBLE>","<INACCESSIBLE>"," Sun-Sat 10am-6pm ","<MISSING>"
"https://www.johnstonmurphy.com","J.B. Evans","122 West Frederica Street","Thunder Bay","ON","P7E 3V7","CA","<MISSING>","<MISSING>","<MISSING>","<INACCESSIBLE>","<INACCESSIBLE>"," Sun-Sat 10am-6pm ","<MISSING>"
"https://www.johnstonmurphy.com","O'Connors Pendleton Shop","116 Newman St","E Tawas","MI","48730","US","<MISSING>","<MISSING>","<MISSING>","<INACCESSIBLE>","<INACCESSIBLE>"," Sun-Sat 10am-6pm ","<MISSING>"
"https://www.johnstonmurphy.com","Dillard's","Great Lakes","Mentor","OH","44060","US","<MISSING>","<MISSING>","<MISSING>","<INACCESSIBLE>","<INACCESSIBLE>"," Sun-Sat 10am-6pm ","<MISSING>"
"https://www.johnstonmurphy.com","Labels for Men","627 3rd Street East","Medicine Hat","AB","T1A 0H4","CA","<MISSING>","<MISSING>","<MISSING>","<INACCESSIBLE>","<INACCESSIBLE>"," Sun-Sat 10am-6pm ","<MISSING>"
"https://www.johnstonmurphy.com","Dillard's","Indian River Mall","Vero Beach","FL","32966","US","<MISSING>","<MISSING>","<MISSING>","<INACCESSIBLE>","<INACCESSIBLE>"," Sun-Sat 10am-6pm ","<MISSING>"
"https://www.johnstonmurphy.com","Dillard's","South Park Mall","Boardman","OH","44512","US","<MISSING>","<MISSING>","<MISSING>","<INACCESSIBLE>","<INACCESSIBLE>"," Sun-Sat 10am-6pm ","<MISSING>"
"https://www.johnstonmurphy.com","Daniel's","419 High St.","Morgantown","WV","26505","US","<MISSING>","<MISSING>","<MISSING>","<INACCESSIBLE>","<INACCESSIBLE>"," Sun-Sat 10am-6pm ","<MISSING>"
"https://www.johnstonmurphy.com","Joe Sugar's of St. Pauls","119 West Broad Street","St. Pauls","NC","28384","US","<MISSING>","<MISSING>","<MISSING>","<INACCESSIBLE>","<INACCESSIBLE>"," Sun-Sat 10am-6pm ","<MISSING>"
"https://www.johnstonmurphy.com","Centro Shoes","3319 Reed St","Myrtle Beach","SC","29577","US","<MISSING>","<MISSING>","<MISSING>","<INACCESSIBLE>","<INACCESSIBLE>"," Sun-Sat 10am-6pm ","<MISSING>"
"https://www.johnstonmurphy.com","Finan McDonald Clothing Co.","210 Sherman Ave","Coeur  D Alene","ID","83814","US","<MISSING>","<MISSING>","<MISSING>","<INACCESSIBLE>","<INACCESSIBLE>"," Sun-Sat 10am-6pm ","<MISSING>"
"https://www.johnstonmurphy.com","Monkees of Lynchburg","4925 Boonsboro Rd","Lynchburg","VA","24503","US","<MISSING>","<MISSING>","<MISSING>","<INACCESSIBLE>","<INACCESSIBLE>"," Sun-Sat 10am-6pm ","<MISSING>"
"https://www.johnstonmurphy.com","John Reyer's Shoe Store","40 S. Water St.","Sharon","PA","16146","US","<MISSING>","<MISSING>","<MISSING>","<INACCESSIBLE>","<INACCESSIBLE>"," Sun-Sat 10am-6pm ","<MISSING>"
"https://www.johnstonmurphy.com","Ticknor's","The Streets of Southpoint Mall","Durham","NC","27713","US","<MISSING>","<MISSING>","<MISSING>","<INACCESSIBLE>","<INACCESSIBLE>"," Sun-Sat 10am-6pm ","<MISSING>"
"https://www.johnstonmurphy.com","Peckitt's Menswear","78 Ontario Street","Grand Bend","ON","N0M 1T0","CA","<MISSING>","<MISSING>","<MISSING>","<INACCESSIBLE>","<INACCESSIBLE>"," Sun-Sat 10am-6pm ","<MISSING>"
"https://www.johnstonmurphy.com","Footloose/Richard's","1500 Washington Road","Pittsburg","PA","15228","US","<MISSING>","<MISSING>","<MISSING>","<INACCESSIBLE>","<INACCESSIBLE>"," Sun-Sat 10am-6pm ","<MISSING>"
"https://www.johnstonmurphy.com","Macy's","Bend River","Bend","OR","97701","US","<MISSING>","<MISSING>","<MISSING>","<INACCESSIBLE>","<INACCESSIBLE>"," Sun-Sat 10am-6pm ","<MISSING>"
"https://www.johnstonmurphy.com","Dillard's","Treasure Coast Square","Jensen Beach","FL","34957","US","<MISSING>","<MISSING>","<MISSING>","<INACCESSIBLE>","<INACCESSIBLE>"," Sun-Sat 10am-6pm ","<MISSING>"
"https://www.johnstonmurphy.com","Dillard's","Cary Village","Cary","NC","27511","US","<MISSING>","<MISSING>","<MISSING>","<INACCESSIBLE>","<INACCESSIBLE>"," Sun-Sat 10am-6pm ","<MISSING>"
"https://www.johnstonmurphy.com","Shoe Center","710 Hwy 17 South Ste l","N Myrtle Beach","SC","29582","US","<MISSING>","<MISSING>","<MISSING>","<INACCESSIBLE>","<INACCESSIBLE>"," Sun-Sat 10am-6pm ","<MISSING>"
"https://www.johnstonmurphy.com","Town Shoes","1680 Richmond Street North","London","ON","N6G3Y9","CA","<MISSING>","<MISSING>","<MISSING>","<INACCESSIBLE>","<INACCESSIBLE>"," Sun-Sat 10am-6pm ","<MISSING>"
"https://www.johnstonmurphy.com","Macy's","Northtown (WA)","Spokane","WA","99207","US","<MISSING>","<MISSING>","<MISSING>","<INACCESSIBLE>","<INACCESSIBLE>"," Sun-Sat 10am-6pm ","<MISSING>"
"https://www.johnstonmurphy.com","Leinwand's Inc","132 Broad St","Elizabethtown","NC","28337","US","<MISSING>","<MISSING>","<MISSING>","<INACCESSIBLE>","<INACCESSIBLE>"," Sun-Sat 10am-6pm ","<MISSING>"
"https://www.johnstonmurphy.com","Macy's","Monroeville","Monroeville","PA","15146","US","<MISSING>","<MISSING>","<MISSING>","<INACCESSIBLE>","<INACCESSIBLE>"," Sun-Sat 10am-6pm ","<MISSING>"
"https://www.johnstonmurphy.com","Berk's Clothing","12210 Route 30 West","North Huntingdon","PA","15146","US","<MISSING>","<MISSING>","<MISSING>","<INACCESSIBLE>","<INACCESSIBLE>"," Sun-Sat 10am-6pm ","<MISSING>"
"https://www.johnstonmurphy.com","Dillard's","Wellington Green","Wellington","FL","33414","US","<MISSING>","<MISSING>","<MISSING>","<INACCESSIBLE>","<INACCESSIBLE>"," Sun-Sat 10am-6pm ","<MISSING>"
"https://www.johnstonmurphy.com","The Shoe Fits","293 Bay Street","Sault Ste Marie","ON","P6A 1X3","CA","<MISSING>","<MISSING>","<MISSING>","<INACCESSIBLE>","<INACCESSIBLE>"," Sun-Sat 10am-6pm ","<MISSING>"
"https://www.johnstonmurphy.com","Macy's","Westmoreland","Greensburg","PA","15601","US","<MISSING>","<MISSING>","<MISSING>","<INACCESSIBLE>","<INACCESSIBLE>"," Sun-Sat 10am-6pm ","<MISSING>"
"https://www.johnstonmurphy.com","Classic Tuxedo","171 Neff Avenue","Harrisonburg","VA","22801","US","<MISSING>","<MISSING>","<MISSING>","<INACCESSIBLE>","<INACCESSIBLE>"," Sun-Sat 10am-6pm ","<MISSING>"
"https://www.johnstonmurphy.com","Wish","16850 Jog Road","Delray Beach","FL","33446","US","<MISSING>","<MISSING>","<MISSING>","<INACCESSIBLE>","<INACCESSIBLE>"," Sun-Sat 10am-6pm ","<MISSING>"
"https://www.johnstonmurphy.com","Macy's","Pembroke Lakes","Pembroke Pines","FL","33026","US","<MISSING>","<MISSING>","<MISSING>","<INACCESSIBLE>","<INACCESSIBLE>"," Sun-Sat 10am-6pm ","<MISSING>"
"https://www.johnstonmurphy.com","Dillard's","Broward Mall","Plantation","FL","33388","US","<MISSING>","<MISSING>","<MISSING>","<INACCESSIBLE>","<INACCESSIBLE>"," Sun-Sat 10am-6pm ","<MISSING>"
"https://www.johnstonmurphy.com","Shoe Palace","2900 W Sample Road","Pompano Beach","FL","33073","US","<MISSING>","<MISSING>","<MISSING>","<INACCESSIBLE>","<INACCESSIBLE>"," Sun-Sat 10am-6pm ","<MISSING>"
"https://www.johnstonmurphy.com","700 Shop","117 Market Street","Kittanning","PA","16201","US","<MISSING>","<MISSING>","<MISSING>","<INACCESSIBLE>","<INACCESSIBLE>"," Sun-Sat 10am-6pm ","<MISSING>"
"https://www.johnstonmurphy.com","Gadsby's","56 Ontario Street","Stratford","ON","N5A 3G8","CA","<MISSING>","<MISSING>","<MISSING>","<INACCESSIBLE>","<INACCESSIBLE>"," Sun-Sat 10am-6pm ","<MISSING>"
"https://www.johnstonmurphy.com","Dillard's","Galleria Mall","Ft. Lauderdale","FL","33304","US","<MISSING>","<MISSING>","<MISSING>","<INACCESSIBLE>","<INACCESSIBLE>"," Sun-Sat 10am-6pm ","<MISSING>"
"https://www.johnstonmurphy.com","Isaac Baker","1001 State Street","Erie","PA","16501","US","<MISSING>","<MISSING>","<MISSING>","<INACCESSIBLE>","<INACCESSIBLE>"," Sun-Sat 10am-6pm ","<MISSING>"
"https://www.johnstonmurphy.com","Macy's","Aventura","N. Miami","FL","33180","US","<MISSING>","<MISSING>","<MISSING>","<INACCESSIBLE>","<INACCESSIBLE>"," Sun-Sat 10am-6pm ","<MISSING>"
"https://www.johnstonmurphy.com","Murray's Clothing and Footwear","95 Peel Street","New Hamburg","ON","N3A 1E7","CA","<MISSING>","<MISSING>","<MISSING>","<INACCESSIBLE>","<INACCESSIBLE>"," Sun-Sat 10am-6pm ","<MISSING>"
"https://www.johnstonmurphy.com","700 Shop","700 Philadelphia Street","Indiana","PA","15701","US","<MISSING>","<MISSING>","<MISSING>","<INACCESSIBLE>","<INACCESSIBLE>"," Sun-Sat 10am-6pm ","<MISSING>"
"https://www.johnstonmurphy.com","Al's Shoes Simcoe","65 Donly Drive North","Simcoe","ON","N3Y 0C2","CA","<MISSING>","<MISSING>","<MISSING>","<INACCESSIBLE>","<INACCESSIBLE>"," Sun-Sat 10am-6pm ","<MISSING>"
"https://www.johnstonmurphy.com","Crooks Clothing","539 Main St.","Clarion","PA","16214","US","<MISSING>","<MISSING>","<MISSING>","<INACCESSIBLE>","<INACCESSIBLE>"," Sun-Sat 10am-6pm ","<MISSING>"
"https://www.johnstonmurphy.com","Dillard's","Independence Mall","Wilmington","NC","28403","US","<MISSING>","<MISSING>","<MISSING>","<INACCESSIBLE>","<INACCESSIBLE>"," Sun-Sat 10am-6pm ","<MISSING>"
"https://www.johnstonmurphy.com","Trends for Men","1400 Ottawa Street South","Kitchener","ON","N2E4E2","CA","<MISSING>","<MISSING>","<MISSING>","<INACCESSIBLE>","<INACCESSIBLE>"," Sun-Sat 10am-6pm ","<MISSING>"
"https://www.johnstonmurphy.com","Becker Shoes","310 10th Street","Hanover","ON","N4N 1P3","CA","<MISSING>","<MISSING>","<MISSING>","<INACCESSIBLE>","<INACCESSIBLE>"," Sun-Sat 10am-6pm ","<MISSING>"
"https://www.johnstonmurphy.com","Brown Shoe Fit","526 SE Jackson Street","Roseburg","OR","97470","US","<MISSING>","<MISSING>","<MISSING>","<INACCESSIBLE>","<INACCESSIBLE>"," Sun-Sat 10am-6pm ","<MISSING>"
"https://www.johnstonmurphy.com","Gadsby's","758 King Street East","Cambrige","ON","N3H 3N9","CA","<MISSING>","<MISSING>","<MISSING>","<INACCESSIBLE>","<INACCESSIBLE>"," Sun-Sat 10am-6pm ","<MISSING>"
"https://www.johnstonmurphy.com","Caswell's Co. Ltd","132-2nd Avenue South","Saskatoon","SK","S7K 7E6","CA","<MISSING>","<MISSING>","<MISSING>","<INACCESSIBLE>","<INACCESSIBLE>"," Sun-Sat 10am-6pm ","<MISSING>"
"https://www.johnstonmurphy.com","The Shoe-per Store","130 Silvercreek Parkway North","Guelph","ON","N1H 7Y5","CA","<MISSING>","<MISSING>","<MISSING>","<INACCESSIBLE>","<INACCESSIBLE>"," Sun-Sat 10am-6pm ","<MISSING>"
"https://www.johnstonmurphy.com","Brodericks","257 St Andrew Street West","Fergus","ON","N1M 1N8","CA","<MISSING>","<MISSING>","<MISSING>","<INACCESSIBLE>","<INACCESSIBLE>"," Sun-Sat 10am-6pm ","<MISSING>"
"https://www.johnstonmurphy.com","Kimberly's","103 W. Piccadilly Street","Winchester","VA","22601","US","<MISSING>","<MISSING>","<MISSING>","<INACCESSIBLE>","<INACCESSIBLE>"," Sun-Sat 10am-6pm ","<MISSING>"
"https://www.johnstonmurphy.com","Mr. Hanleys Shoes for Men","346 Wilson Street East","Ancaster","ON","L9G2C2","CA","<MISSING>","<MISSING>","<MISSING>","<INACCESSIBLE>","<INACCESSIBLE>"," Sun-Sat 10am-6pm ","<MISSING>"
"https://www.johnstonmurphy.com","Burch's Shoes","16 Oakway Center","Eugene","OR","97401","US","<MISSING>","<MISSING>","<MISSING>","<INACCESSIBLE>","<INACCESSIBLE>"," Sun-Sat 10am-6pm ","<MISSING>"
"https://www.johnstonmurphy.com","Becker Shoes","932 Second Avenue East","Owen Sound","ON","N4K 2N6","CA","<MISSING>","<MISSING>","<MISSING>","<INACCESSIBLE>","<INACCESSIBLE>"," Sun-Sat 10am-6pm ","<MISSING>"
"https://www.johnstonmurphy.com","Cruikshanks Clothing","59 King Street West","Dundas","ON","L9H 1T5","CA","<MISSING>","<MISSING>","<MISSING>","<INACCESSIBLE>","<INACCESSIBLE>"," Sun-Sat 10am-6pm ","<MISSING>"
"https://www.johnstonmurphy.com","Miller Shoes","1289 Upper James Street","Hamilton","ON","L9C 3A9","CA","<MISSING>","<MISSING>","<MISSING>","<INACCESSIBLE>","<INACCESSIBLE>"," Sun-Sat 10am-6pm ","<MISSING>"
"https://www.johnstonmurphy.com","Walking on a Cloud","3487 Wycroft Rd Unit G5","Oakville","ON","L6L 0B6","CA","<MISSING>","<MISSING>","<MISSING>","<INACCESSIBLE>","<INACCESSIBLE>"," Sun-Sat 10am-6pm ","<MISSING>"
"https://www.johnstonmurphy.com","Adolph's","648B Southpark Blvd.","Colonial Heights","VA","23834","US","<MISSING>","<MISSING>","<MISSING>","<INACCESSIBLE>","<INACCESSIBLE>"," Sun-Sat 10am-6pm ","<MISSING>"
"https://www.johnstonmurphy.com","Saxon Shoes","4500 Spotsylvania Towne Center","Fredericksburgh","VA","22407","US","<MISSING>","<MISSING>","<MISSING>","<INACCESSIBLE>","<INACCESSIBLE>"," Sun-Sat 10am-6pm ","<MISSING>"
"https://www.johnstonmurphy.com","Monkees of Fredericksburg","827 Caroline Street","Fredericksburg","VA","22401","US","<MISSING>","<MISSING>","<MISSING>","<INACCESSIBLE>","<INACCESSIBLE>"," Sun-Sat 10am-6pm ","<MISSING>"
"https://www.johnstonmurphy.com","Peacock's Plume","218 S. Front Street","New Bern","NC","28560","US","<MISSING>","<MISSING>","<MISSING>","<INACCESSIBLE>","<INACCESSIBLE>"," Sun-Sat 10am-6pm ","<MISSING>"
"https://www.johnstonmurphy.com","Sole to Soul","100 Anderson Road S.W","Calgary","AB","T2J 3V1","CA","<MISSING>","<MISSING>","<MISSING>","<INACCESSIBLE>","<INACCESSIBLE>"," Sun-Sat 10am-6pm ","<MISSING>"
"https://www.johnstonmurphy.com","Becker Shoes","73 Hurontario Street","Collingwood","ON","L9Y 2L7","CA","<MISSING>","<MISSING>","<MISSING>","<INACCESSIBLE>","<INACCESSIBLE>"," Sun-Sat 10am-6pm ","<MISSING>"
"https://www.johnstonmurphy.com","The Bay","25 The West Mall","Etobicoke","ON","M9C 1B8","CA","<MISSING>","<MISSING>","<MISSING>","<INACCESSIBLE>","<INACCESSIBLE>"," Sun-Sat 10am-6pm ","<MISSING>"
"https://www.johnstonmurphy.com","The Boot Shop","46 James Street","Ste Catharines","ON","L2R 5B8","CA","<MISSING>","<MISSING>","<MISSING>","<INACCESSIBLE>","<INACCESSIBLE>"," Sun-Sat 10am-6pm ","<MISSING>"
"https://www.johnstonmurphy.com","Lord & Taylor","21050 Dulles Town Center","Dulles","VA","20166","US","<MISSING>","<MISSING>","<MISSING>","<INACCESSIBLE>","<INACCESSIBLE>"," Sun-Sat 10am-6pm ","<MISSING>"
"https://www.johnstonmurphy.com","Macy's","Washington Square OR","Tigard","OR","97223","US","<MISSING>","<MISSING>","<MISSING>","<INACCESSIBLE>","<INACCESSIBLE>"," Sun-Sat 10am-6pm ","<MISSING>"
"https://www.johnstonmurphy.com","Town Shoes","1 Promenade Circle","Thornhill","ON","L4J 4P8","CA","<MISSING>","<MISSING>","<MISSING>","<INACCESSIBLE>","<INACCESSIBLE>"," Sun-Sat 10am-6pm ","<MISSING>"
"https://www.johnstonmurphy.com","Ara Shoes and Accessories","92 Queen Street","Niagara on the Lake","ON","L0S 1J0","CA","<MISSING>","<MISSING>","<MISSING>","<INACCESSIBLE>","<INACCESSIBLE>"," Sun-Sat 10am-6pm ","<MISSING>"
"https://www.johnstonmurphy.com","Hudson's Bay","9350 Yonge Street","Richmond Hill","ON","L4C 5G2","CA","<MISSING>","<MISSING>","<MISSING>","<INACCESSIBLE>","<INACCESSIBLE>"," Sun-Sat 10am-6pm ","<MISSING>"
"https://www.johnstonmurphy.com","Lord & Taylor","7950 Tysons Corner Center","Mclean","VA","22102","US","<MISSING>","<MISSING>","<MISSING>","<INACCESSIBLE>","<INACCESSIBLE>"," Sun-Sat 10am-6pm ","<MISSING>"
"https://www.johnstonmurphy.com","Town Shoes","21 Karl Fraser Road","North York","ON","M3C 0E6","CA","<MISSING>","<MISSING>","<MISSING>","<INACCESSIBLE>","<INACCESSIBLE>"," Sun-Sat 10am-6pm ","<MISSING>"
"https://www.johnstonmurphy.com","Shoe Fly","220 C Shorebird Street","Frederick","MD","21701","US","<MISSING>","<MISSING>","<MISSING>","<INACCESSIBLE>","<INACCESSIBLE>"," Sun-Sat 10am-6pm ","<MISSING>"
"https://www.johnstonmurphy.com","The Bay","1800 Sheppard Avenue East","Willowdale","ON","M2J 5A7","CA","<MISSING>","<MISSING>","<MISSING>","<INACCESSIBLE>","<INACCESSIBLE>"," Sun-Sat 10am-6pm ","<MISSING>"
"https://www.johnstonmurphy.com","Macy's","Nittany Mall","State College","PA","16801","US","<MISSING>","<MISSING>","<MISSING>","<INACCESSIBLE>","<INACCESSIBLE>"," Sun-Sat 10am-6pm ","<MISSING>"
"https://www.johnstonmurphy.com","Hudson's Bay","35 Eglington Square","Scarborough","ON","M1L 2K1","CA","<MISSING>","<MISSING>","<MISSING>","<INACCESSIBLE>","<INACCESSIBLE>"," Sun-Sat 10am-6pm ","<MISSING>"
"https://www.johnstonmurphy.com","Hudson's Bay","17600 Yonge Street","Newmarket","ON","L3Y 4Z1","CA","<MISSING>","<MISSING>","<MISSING>","<INACCESSIBLE>","<INACCESSIBLE>"," Sun-Sat 10am-6pm ","<MISSING>"
"https://www.johnstonmurphy.com","Lord & Taylor","Lake Forest Mall","Gaithersburg","MD","20877","US","<MISSING>","<MISSING>","<MISSING>","<INACCESSIBLE>","<INACCESSIBLE>"," Sun-Sat 10am-6pm ","<MISSING>"
"https://www.johnstonmurphy.com","Lord & Taylor","Walden Galleria","Cheektowaga","NY","14225","US","<MISSING>","<MISSING>","<MISSING>","<INACCESSIBLE>","<INACCESSIBLE>"," Sun-Sat 10am-6pm ","<MISSING>"
"https://www.johnstonmurphy.com","Macy's","Walden Galleria","Buffalo","NY","14225","US","<MISSING>","<MISSING>","<MISSING>","<INACCESSIBLE>","<INACCESSIBLE>"," Sun-Sat 10am-6pm ","<MISSING>"
"https://www.johnstonmurphy.com","Town Shoes","5000 Highway #7 East","Markham","ON","L3R 4M9","CA","<MISSING>","<MISSING>","<MISSING>","<INACCESSIBLE>","<INACCESSIBLE>"," Sun-Sat 10am-6pm ","<MISSING>"
"https://www.johnstonmurphy.com","Macy's","Metro Center (Downtown DC)","Washington D.C.","DC","20037","US","<MISSING>","<MISSING>","<MISSING>","<INACCESSIBLE>","<INACCESSIBLE>"," Sun-Sat 10am-6pm ","<MISSING>"
"https://www.johnstonmurphy.com","Lord & Taylor","White Flint Mall","Kensington","MD","20895","US","<MISSING>","<MISSING>","<MISSING>","<INACCESSIBLE>","<INACCESSIBLE>"," Sun-Sat 10am-6pm ","<MISSING>"
"https://www.johnstonmurphy.com","Barefeet","4001 Branch Avenue","Marlo Heights","MD","20848","US","<MISSING>","<MISSING>","<MISSING>","<INACCESSIBLE>","<INACCESSIBLE>"," Sun-Sat 10am-6pm ","<MISSING>"
"https://www.johnstonmurphy.com","Dillard's","Patrick Henry Mall","Newport News","VA","23602","US","<MISSING>","<MISSING>","<MISSING>","<INACCESSIBLE>","<INACCESSIBLE>"," Sun-Sat 10am-6pm ","<MISSING>"
"https://www.johnstonmurphy.com","Barefeet","10560 Campus Way South","Largo","MD","20774","US","<MISSING>","<MISSING>","<MISSING>","<INACCESSIBLE>","<INACCESSIBLE>"," Sun-Sat 10am-6pm ","<MISSING>"
"https://www.johnstonmurphy.com","Van Dyke & Bacon","9150 Baltimore National Pike","Ellicott City","MD","21042","US","<MISSING>","<MISSING>","<MISSING>","<INACCESSIBLE>","<INACCESSIBLE>"," Sun-Sat 10am-6pm ","<MISSING>"
"https://www.johnstonmurphy.com","Becker Shoes","33 Mississauga Street East","Orillia","ON","L3V 1V4","CA","<MISSING>","<MISSING>","<MISSING>","<INACCESSIBLE>","<INACCESSIBLE>"," Sun-Sat 10am-6pm ","<MISSING>"
"https://www.johnstonmurphy.com","Hudson's Bay","419 King Street","Oshawa","ON","L1J 2K5","CA","<MISSING>","<MISSING>","<MISSING>","<INACCESSIBLE>","<INACCESSIBLE>"," Sun-Sat 10am-6pm ","<MISSING>"
"https://www.johnstonmurphy.com","Reg Wilkinson","118 Durham Street","Sudbury","ON","P3E 3M7","CA","<MISSING>","<MISSING>","<MISSING>","<INACCESSIBLE>","<INACCESSIBLE>"," Sun-Sat 10am-6pm ","<MISSING>"
"https://www.johnstonmurphy.com","Shoe Fly","106 S 32rd Street","Camp Hill","PA","17011","US","<MISSING>","<MISSING>","<MISSING>","<INACCESSIBLE>","<INACCESSIBLE>"," Sun-Sat 10am-6pm ","<MISSING>"
"https://www.johnstonmurphy.com","Brocks","168 Queen Street","Port Perry","ON","L9L 1B8","CA","<MISSING>","<MISSING>","<MISSING>","<INACCESSIBLE>","<INACCESSIBLE>"," Sun-Sat 10am-6pm ","<MISSING>"
"https://www.johnstonmurphy.com","Batavia Bootery","210 E. Main Street","Batavia","NY","14020","US","<MISSING>","<MISSING>","<MISSING>","<INACCESSIBLE>","<INACCESSIBLE>"," Sun-Sat 10am-6pm ","<MISSING>"
"https://www.johnstonmurphy.com","Dillard's","Greenbriar Mall","Chesapeake","VA","23320","US","<MISSING>","<MISSING>","<MISSING>","<INACCESSIBLE>","<INACCESSIBLE>"," Sun-Sat 10am-6pm ","<MISSING>"
"https://www.johnstonmurphy.com","Van Dyke & Bacon","10015 York Road","Cockeysville","MD","21030","US","<MISSING>","<MISSING>","<MISSING>","<INACCESSIBLE>","<INACCESSIBLE>"," Sun-Sat 10am-6pm ","<MISSING>"
"https://www.johnstonmurphy.com","Barefeet","1014 Taylor Ave.","Towson ","MD","21286","US","<MISSING>","<MISSING>","<MISSING>","<INACCESSIBLE>","<INACCESSIBLE>"," Sun-Sat 10am-6pm ","<MISSING>"
"https://www.johnstonmurphy.com","Plum Bottom","2619 Brindle Drive","Harrisburg","PA","17110","US","<MISSING>","<MISSING>","<MISSING>","<INACCESSIBLE>","<INACCESSIBLE>"," Sun-Sat 10am-6pm ","<MISSING>"
"https://www.johnstonmurphy.com","Dillard's","Lynnhaven","Virginia Beach","VA","23452","US","<MISSING>","<MISSING>","<MISSING>","<INACCESSIBLE>","<INACCESSIBLE>"," Sun-Sat 10am-6pm ","<MISSING>"
"https://www.johnstonmurphy.com","Macy's","Lynnhaven","VA Beach","VA","23452","US","<MISSING>","<MISSING>","<MISSING>","<INACCESSIBLE>","<INACCESSIBLE>"," Sun-Sat 10am-6pm ","<MISSING>"
"https://www.johnstonmurphy.com","Bartels","486 N. Market St.","Chehalis","WA","98532","US","<MISSING>","<MISSING>","<MISSING>","<INACCESSIBLE>","<INACCESSIBLE>"," Sun-Sat 10am-6pm ","<MISSING>"
"https://www.johnstonmurphy.com","Chesler's Shoes","73 Kent Street","Lindsay","ON","K9V 2Y3","CA","<MISSING>","<MISSING>","<MISSING>","<INACCESSIBLE>","<INACCESSIBLE>"," Sun-Sat 10am-6pm ","<MISSING>"
"https://www.johnstonmurphy.com","Macy's","Tacoma","Tacoma","WA","98409","US","<MISSING>","<MISSING>","<MISSING>","<INACCESSIBLE>","<INACCESSIBLE>"," Sun-Sat 10am-6pm ","<MISSING>"
"https://www.johnstonmurphy.com","The Clothier","130 W. 4th. St.","Williamsport","PA","17701","US","<MISSING>","<MISSING>","<MISSING>","<INACCESSIBLE>","<INACCESSIBLE>"," Sun-Sat 10am-6pm ","<MISSING>"
"https://www.johnstonmurphy.com","Fritz Shoes","151 Westminster Avenue West","Penticton","BC","V2A 1J7","CA","<MISSING>","<MISSING>","<MISSING>","<INACCESSIBLE>","<INACCESSIBLE>"," Sun-Sat 10am-6pm ","<MISSING>"
"https://www.johnstonmurphy.com","Goulds Footwear","26 Walton Street","Port Hope","ON","L1A 1M9","CA","<MISSING>","<MISSING>","<MISSING>","<INACCESSIBLE>","<INACCESSIBLE>"," Sun-Sat 10am-6pm ","<MISSING>"
"https://www.johnstonmurphy.com","Milano for Men","#184, 2004-50th Avenue","Red Deer","AB","T4R 3A2","CA","<MISSING>","<MISSING>","<MISSING>","<INACCESSIBLE>","<INACCESSIBLE>"," Sun-Sat 10am-6pm ","<MISSING>"
"https://www.johnstonmurphy.com","G Miller","501 S. Capitol Way","Olympia","WA","98501","US","<MISSING>","<MISSING>","<MISSING>","<INACCESSIBLE>","<INACCESSIBLE>"," Sun-Sat 10am-6pm ","<MISSING>"
"https://www.johnstonmurphy.com","Macy's","Lycoming","Muncy","PA","17756","US","<MISSING>","<MISSING>","<MISSING>","<INACCESSIBLE>","<INACCESSIBLE>"," Sun-Sat 10am-6pm ","<MISSING>"
"https://www.johnstonmurphy.com","Chesler's Shoes","1111 Elgin Street West","Cobourg","ON","K9A 5H7","CA","<MISSING>","<MISSING>","<MISSING>","<INACCESSIBLE>","<INACCESSIBLE>"," Sun-Sat 10am-6pm ","<MISSING>"
"https://www.johnstonmurphy.com","Brixton Shoes","4100 - 70th Avenue","Lloydminster","AB","T9V 2X3","CA","<MISSING>","<MISSING>","<MISSING>","<INACCESSIBLE>","<INACCESSIBLE>"," Sun-Sat 10am-6pm ","<MISSING>"
"https://www.johnstonmurphy.com","Macy's","Seattle (Downtown)","Seattle","WA","98101","US","<MISSING>","<MISSING>","<MISSING>","<INACCESSIBLE>","<INACCESSIBLE>"," Sun-Sat 10am-6pm ","<MISSING>"
"https://www.johnstonmurphy.com","Bigley Shoes","39 Bolton Street","Bobcaygeon","ON","K0M 1A0","CA","<MISSING>","<MISSING>","<MISSING>","<INACCESSIBLE>","<INACCESSIBLE>"," Sun-Sat 10am-6pm ","<MISSING>"
"https://www.johnstonmurphy.com","Chesler's Shoes","1135 Landsdown Street West","Peterborough","ON","K9J 7M2","CA","<MISSING>","<MISSING>","<MISSING>","<INACCESSIBLE>","<INACCESSIBLE>"," Sun-Sat 10am-6pm ","<MISSING>"
"https://www.johnstonmurphy.com","Heels & Hobos","12 E. Market St","Corning","NY","14830","US","<MISSING>","<MISSING>","<MISSING>","<INACCESSIBLE>","<INACCESSIBLE>"," Sun-Sat 10am-6pm ","<MISSING>"
"https://www.johnstonmurphy.com","Torino Clothing Co","1045-2271 Harvey Avenue","Kelowna","BC","V1Y 6H2","CA","<MISSING>","<MISSING>","<MISSING>","<INACCESSIBLE>","<INACCESSIBLE>"," Sun-Sat 10am-6pm ","<MISSING>"
"https://www.johnstonmurphy.com","Macy's","Alderwood","Lynnwood","WA","98037","US","<MISSING>","<MISSING>","<MISSING>","<INACCESSIBLE>","<INACCESSIBLE>"," Sun-Sat 10am-6pm ","<MISSING>"
"https://www.johnstonmurphy.com","Lord & Taylor","Eastview Mall","Victor","NY","14564","US","<MISSING>","<MISSING>","<MISSING>","<INACCESSIBLE>","<INACCESSIBLE>"," Sun-Sat 10am-6pm ","<MISSING>"
"https://www.johnstonmurphy.com","Vernon Powell Shoes","2401 E. Naylor Mill Road","Salisbury","MD","21804","US","<MISSING>","<MISSING>","<MISSING>","<INACCESSIBLE>","<INACCESSIBLE>"," Sun-Sat 10am-6pm ","<MISSING>"
"https://www.johnstonmurphy.com","Sole City Shoes","4851-50th Street","Camrose","AB","T4V 1P6","CA","<MISSING>","<MISSING>","<MISSING>","<INACCESSIBLE>","<INACCESSIBLE>"," Sun-Sat 10am-6pm ","<MISSING>"
"https://www.johnstonmurphy.com","Steinberg & Mahn","25 Wilson Avenue","Timmins","ON","P4N 2S5","CA","<MISSING>","<MISSING>","<MISSING>","<INACCESSIBLE>","<INACCESSIBLE>"," Sun-Sat 10am-6pm ","<MISSING>"
"https://www.johnstonmurphy.com","Macy's","Exton Square","Exton","PA","19341","US","<MISSING>","<MISSING>","<MISSING>","<INACCESSIBLE>","<INACCESSIBLE>"," Sun-Sat 10am-6pm ","<MISSING>"
"https://www.johnstonmurphy.com","Benjamin Peters","120 East State street","Ithaca","NY","14850","US","<MISSING>","<MISSING>","<MISSING>","<INACCESSIBLE>","<INACCESSIBLE>"," Sun-Sat 10am-6pm ","<MISSING>"
"https://www.johnstonmurphy.com","Lafferty's","228 Front Street","Belleville","ON","K8N 2Z2","CA","<MISSING>","<MISSING>","<MISSING>","<INACCESSIBLE>","<INACCESSIBLE>"," Sun-Sat 10am-6pm ","<MISSING>"
"https://www.johnstonmurphy.com","Englunds Apparel For Men","115 W. King Street","Malvern","PA","19355","US","<MISSING>","<MISSING>","<MISSING>","<INACCESSIBLE>","<INACCESSIBLE>"," Sun-Sat 10am-6pm ","<MISSING>"
"https://www.johnstonmurphy.com","The Haberdashery","900 Rutter Ave","Forty Fort","PA","18704","US","<MISSING>","<MISSING>","<MISSING>","<INACCESSIBLE>","<INACCESSIBLE>"," Sun-Sat 10am-6pm ","<MISSING>"
"https://www.johnstonmurphy.com","Shooze","634 Market Street","Kingston","PA","18704","US","<MISSING>","<MISSING>","<MISSING>","<INACCESSIBLE>","<INACCESSIBLE>"," Sun-Sat 10am-6pm ","<MISSING>"
"https://www.johnstonmurphy.com","Booth's Corner Shoes","1362 Naamans Creek Road","Boothwyn","PA","19061","US","<MISSING>","<MISSING>","<MISSING>","<INACCESSIBLE>","<INACCESSIBLE>"," Sun-Sat 10am-6pm ","<MISSING>"
"https://www.johnstonmurphy.com","Cleo's","247 Rehoboth Avenue","Rehoboth Beach","DE","19971","US","<MISSING>","<MISSING>","<MISSING>","<INACCESSIBLE>","<INACCESSIBLE>"," Sun-Sat 10am-6pm ","<MISSING>"
"https://www.johnstonmurphy.com","Step in 4 More","1823 W. Allen Street","Allentown","PA","18104","US","<MISSING>","<MISSING>","<MISSING>","<INACCESSIBLE>","<INACCESSIBLE>"," Sun-Sat 10am-6pm ","<MISSING>"
"https://www.johnstonmurphy.com","Macy's","Suburban Square","Ardmore","PA","19003","US","<MISSING>","<MISSING>","<MISSING>","<INACCESSIBLE>","<INACCESSIBLE>"," Sun-Sat 10am-6pm ","<MISSING>"
"https://www.johnstonmurphy.com","Macy's","Lehigh Valley","Whitehall","PA","18052","US","<MISSING>","<MISSING>","<MISSING>","<INACCESSIBLE>","<INACCESSIBLE>"," Sun-Sat 10am-6pm ","<MISSING>"
"https://www.johnstonmurphy.com","McKnights Men's Wear","23 Whitewood Avenue","New Liskeard","ON","P0J 1P0","CA","<MISSING>","<MISSING>","<MISSING>","<INACCESSIBLE>","<INACCESSIBLE>"," Sun-Sat 10am-6pm ","<MISSING>"
"https://www.johnstonmurphy.com","Best Fit Menswear","Oakdale Mall","Johnson City","NY","13790","US","<MISSING>","<MISSING>","<MISSING>","<INACCESSIBLE>","<INACCESSIBLE>"," Sun-Sat 10am-6pm ","<MISSING>"
"https://www.johnstonmurphy.com","Lord & Taylor","Bala Cynwyd Shopping Center","Bala Cynwyd","PA","19004","US","<MISSING>","<MISSING>","<MISSING>","<INACCESSIBLE>","<INACCESSIBLE>"," Sun-Sat 10am-6pm ","<MISSING>"
"https://www.johnstonmurphy.com","Flocco's","110 Fayette St.","Conshohocken","PA","19424","US","<MISSING>","<MISSING>","<MISSING>","<INACCESSIBLE>","<INACCESSIBLE>"," Sun-Sat 10am-6pm ","<MISSING>"
"https://www.johnstonmurphy.com","Suburban Casuals","832 Scranton Carbondale Hwy","Scranton","PA","18508","US","<MISSING>","<MISSING>","<MISSING>","<INACCESSIBLE>","<INACCESSIBLE>"," Sun-Sat 10am-6pm ","<MISSING>"
"https://www.johnstonmurphy.com","Macy's","Montgomery (PA)","North Wales","PA","19454","US","<MISSING>","<MISSING>","<MISSING>","<INACCESSIBLE>","<INACCESSIBLE>"," Sun-Sat 10am-6pm ","<MISSING>"
"https://www.johnstonmurphy.com","Park Shoes","2020 Sherwood Drive","Sherwood Park","AB","T8A 3H9","CA","<MISSING>","<MISSING>","<MISSING>","<INACCESSIBLE>","<INACCESSIBLE>"," Sun-Sat 10am-6pm ","<MISSING>"
"https://www.johnstonmurphy.com","Bloomingdale's","Willow Grove Park","Willow Grove","PA","19090","US","<MISSING>","<MISSING>","<MISSING>","<INACCESSIBLE>","<INACCESSIBLE>"," Sun-Sat 10am-6pm ","<MISSING>"
"https://www.johnstonmurphy.com","Town Shoes","5015 - 111 Street","Edmonton","AB","T6H 4M6","CA","<MISSING>","<MISSING>","<MISSING>","<INACCESSIBLE>","<INACCESSIBLE>"," Sun-Sat 10am-6pm ","<MISSING>"
"https://www.johnstonmurphy.com","Ventresca","145 West State Street","Doylestown","PA","18901","US","<MISSING>","<MISSING>","<MISSING>","<INACCESSIBLE>","<INACCESSIBLE>"," Sun-Sat 10am-6pm ","<MISSING>"
"https://www.johnstonmurphy.com","Macy's","Cherry Hill","Cherry Hill","NJ","08002","US","<MISSING>","<MISSING>","<MISSING>","<INACCESSIBLE>","<INACCESSIBLE>"," Sun-Sat 10am-6pm ","<MISSING>"
"https://www.johnstonmurphy.com","Shoe Krazy","241 Second Street Pike","Southampton","PA","02460","US","<MISSING>","<MISSING>","<MISSING>","<INACCESSIBLE>","<INACCESSIBLE>"," Sun-Sat 10am-6pm ","<MISSING>"
"https://www.johnstonmurphy.com","Lord & Taylor","Moorestown Mall","Moorestown","NJ","08057","US","<MISSING>","<MISSING>","<MISSING>","<INACCESSIBLE>","<INACCESSIBLE>"," Sun-Sat 10am-6pm ","<MISSING>"
"https://www.johnstonmurphy.com","Kennell's Shoes","249 Victoria Street","Kamloops","BC","V2C 2A1","CA","<MISSING>","<MISSING>","<MISSING>","<INACCESSIBLE>","<INACCESSIBLE>"," Sun-Sat 10am-6pm ","<MISSING>"
"https://www.johnstonmurphy.com","Elegante Shoes","1711-152 Street","Surrey","BC","V4A 4N3","CA","<MISSING>","<MISSING>","<MISSING>","<INACCESSIBLE>","<INACCESSIBLE>"," Sun-Sat 10am-6pm ","<MISSING>"
"https://www.johnstonmurphy.com","Macy's","Hamilton","Mays Landing","NJ","08330","US","<MISSING>","<MISSING>","<MISSING>","<INACCESSIBLE>","<INACCESSIBLE>"," Sun-Sat 10am-6pm ","<MISSING>"
"https://www.johnstonmurphy.com","Knighton Menswear Fashions","107-314 McLeod Avenue","Spruce Grove","AB","T7X 0J6","CA","<MISSING>","<MISSING>","<MISSING>","<INACCESSIBLE>","<INACCESSIBLE>"," Sun-Sat 10am-6pm ","<MISSING>"
"https://www.johnstonmurphy.com","Macy's","Oxford Valley","Langhorne","PA","19047","US","<MISSING>","<MISSING>","<MISSING>","<INACCESSIBLE>","<INACCESSIBLE>"," Sun-Sat 10am-6pm ","<MISSING>"
"https://www.johnstonmurphy.com","Art's Apparel","843 Main Street","Honesdale","PA","18431","US","<MISSING>","<MISSING>","<MISSING>","<INACCESSIBLE>","<INACCESSIBLE>"," Sun-Sat 10am-6pm ","<MISSING>"
"https://www.johnstonmurphy.com","Town Shoes","2929 Barnett Highway","Coquitlam","BC","V3B 5R5","CA","<MISSING>","<MISSING>","<MISSING>","<INACCESSIBLE>","<INACCESSIBLE>"," Sun-Sat 10am-6pm ","<MISSING>"
"https://www.johnstonmurphy.com","Carella's Shoes","2431 Nottingham Way","Mercerville","NJ","08619","US","<MISSING>","<MISSING>","<MISSING>","<INACCESSIBLE>","<INACCESSIBLE>"," Sun-Sat 10am-6pm ","<MISSING>"
"https://www.johnstonmurphy.com","Lord & Taylor","Quakerbridge Mall","Lawrenceville","NJ","08648","US","<MISSING>","<MISSING>","<MISSING>","<INACCESSIBLE>","<INACCESSIBLE>"," Sun-Sat 10am-6pm ","<MISSING>"
"https://www.johnstonmurphy.com","Hudson's Bay","4850 Kingsway Avenue","Burnaby","BC","V5H 4P2","CA","<MISSING>","<MISSING>","<MISSING>","<INACCESSIBLE>","<INACCESSIBLE>"," Sun-Sat 10am-6pm ","<MISSING>"
"https://www.johnstonmurphy.com","The Bay","650 41st Avenue West","Vancouver","BC","V5Z2M9","CA","<MISSING>","<MISSING>","<MISSING>","<INACCESSIBLE>","<INACCESSIBLE>"," Sun-Sat 10am-6pm ","<MISSING>"
"https://www.johnstonmurphy.com","Cardino's","165 Craig Street","Duncan","BC","V9L 1V8","CA","<MISSING>","<MISSING>","<MISSING>","<INACCESSIBLE>","<INACCESSIBLE>"," Sun-Sat 10am-6pm ","<MISSING>"
"https://www.johnstonmurphy.com","Shoe Buckle","106 Mercer Street","Hightstown","NJ","08520","US","<MISSING>","<MISSING>","<MISSING>","<INACCESSIBLE>","<INACCESSIBLE>"," Sun-Sat 10am-6pm ","<MISSING>"
"https://www.johnstonmurphy.com","Town Shoes","788 Park Royal South","West Vancouver","BC","V7T 2W4","CA","<MISSING>","<MISSING>","<MISSING>","<INACCESSIBLE>","<INACCESSIBLE>"," Sun-Sat 10am-6pm ","<MISSING>"
"https://www.johnstonmurphy.com","The Bay","725 Park Royal North","WVncouver","BC","V7T 1H9","CA","<MISSING>","<MISSING>","<MISSING>","<INACCESSIBLE>","<INACCESSIBLE>"," Sun-Sat 10am-6pm ","<MISSING>"
"https://www.johnstonmurphy.com","Clothing Center","645 Hwy 18 south","East Brunswick","NJ","08816","US","<MISSING>","<MISSING>","<MISSING>","<INACCESSIBLE>","<INACCESSIBLE>"," Sun-Sat 10am-6pm ","<MISSING>"
"https://www.johnstonmurphy.com","Macy's","Rockaway Townsquare","Rockaway Township","NJ","07801","US","<MISSING>","<MISSING>","<MISSING>","<INACCESSIBLE>","<INACCESSIBLE>"," Sun-Sat 10am-6pm ","<MISSING>"
"https://www.johnstonmurphy.com","Scott Shoes","263 Raglan Street South","Renfrew","ON","07801","US","<MISSING>","<MISSING>","<MISSING>","<INACCESSIBLE>","<INACCESSIBLE>"," Sun-Sat 10am-6pm ","<MISSING>"
"https://www.johnstonmurphy.com","Cuirs Exclusifs","125 Avenue Principale","Rouyn Noranda","QC","J9X 4P1","CA","<MISSING>","<MISSING>","<MISSING>","<INACCESSIBLE>","<INACCESSIBLE>"," Sun-Sat 10am-6pm ","<MISSING>"
"https://www.johnstonmurphy.com","Macy's","Menlo Park","Menlo Park","NJ","08837","US","<MISSING>","<MISSING>","<MISSING>","<INACCESSIBLE>","<INACCESSIBLE>"," Sun-Sat 10am-6pm ","<MISSING>"
"https://www.johnstonmurphy.com","Karaz Shoes","New Hartford Shopping Center","New Hartford","NY","13413","US","<MISSING>","<MISSING>","<MISSING>","<INACCESSIBLE>","<INACCESSIBLE>"," Sun-Sat 10am-6pm ","<MISSING>"
"https://www.johnstonmurphy.com","Lord & Taylor","Rockaway Town Sq Mall","Rockaway","NJ","07866","US","<MISSING>","<MISSING>","<MISSING>","<INACCESSIBLE>","<INACCESSIBLE>"," Sun-Sat 10am-6pm ","<MISSING>"
"https://www.johnstonmurphy.com","Lord & Taylor","Freehold Raceway Mall","Freehold","NJ","07728","US","<MISSING>","<MISSING>","<MISSING>","<INACCESSIBLE>","<INACCESSIBLE>"," Sun-Sat 10am-6pm ","<MISSING>"
"https://www.johnstonmurphy.com","Orthostep","105 River Avenue","Lakewood","NJ","08701","US","<MISSING>","<MISSING>","<MISSING>","<INACCESSIBLE>","<INACCESSIBLE>"," Sun-Sat 10am-6pm ","<MISSING>"
"https://www.johnstonmurphy.com","Bob's Men's shop","602 Main street","Boonton","NJ","07005","US","<MISSING>","<MISSING>","<MISSING>","<INACCESSIBLE>","<INACCESSIBLE>"," Sun-Sat 10am-6pm ","<MISSING>"
"https://www.johnstonmurphy.com","Lord & Taylor","Westfield","Westfield","NJ","07090","US","<MISSING>","<MISSING>","<MISSING>","<INACCESSIBLE>","<INACCESSIBLE>"," Sun-Sat 10am-6pm ","<MISSING>"
"https://www.johnstonmurphy.com","Walk Well Shoes","413 Springfield Ave","Summit","NJ","07901","US","<MISSING>","<MISSING>","<MISSING>","<INACCESSIBLE>","<INACCESSIBLE>"," Sun-Sat 10am-6pm ","<MISSING>"
"https://www.johnstonmurphy.com","Hoch-Clinton","580 South Livingston","Livingston","NJ","07039","US","<MISSING>","<MISSING>","<MISSING>","<INACCESSIBLE>","<INACCESSIBLE>"," Sun-Sat 10am-6pm ","<MISSING>"
"https://www.johnstonmurphy.com","Footnotes","275 Millburn Avenue","Millburn","NJ","07041","US","<MISSING>","<MISSING>","<MISSING>","<INACCESSIBLE>","<INACCESSIBLE>"," Sun-Sat 10am-6pm ","<MISSING>"
"https://www.johnstonmurphy.com","Lord & Taylor","Monmouth Mall","Eatontown","NJ","07724","US","<MISSING>","<MISSING>","<MISSING>","<INACCESSIBLE>","<INACCESSIBLE>"," Sun-Sat 10am-6pm ","<MISSING>"
"https://www.johnstonmurphy.com","Piazza Della Sole","620 Valley Road","Montclair","NJ","07043","US","<MISSING>","<MISSING>","<MISSING>","<INACCESSIBLE>","<INACCESSIBLE>"," Sun-Sat 10am-6pm ","<MISSING>"
"https://www.johnstonmurphy.com","Michael Duru Clothiers","801 Route 35 Broad Street","Shrewsbury","NJ","07702","US","<MISSING>","<MISSING>","<MISSING>","<INACCESSIBLE>","<INACCESSIBLE>"," Sun-Sat 10am-6pm ","<MISSING>"
"https://www.johnstonmurphy.com","JEMS FHQ","841 W Park Ave","Ocean","NJ","07712","US","<MISSING>","<MISSING>","<MISSING>","<INACCESSIBLE>","<INACCESSIBLE>"," Sun-Sat 10am-6pm ","<MISSING>"
"https://www.johnstonmurphy.com","Victor's","55 East Ridgewood avenue","Ridgewood","NJ","07450","US","<MISSING>","<MISSING>","<MISSING>","<INACCESSIBLE>","<INACCESSIBLE>"," Sun-Sat 10am-6pm ","<MISSING>"
"https://www.johnstonmurphy.com","Macy's","Newport Centre (NJ)","Jersey City","NJ","07310","US","<MISSING>","<MISSING>","<MISSING>","<INACCESSIBLE>","<INACCESSIBLE>"," Sun-Sat 10am-6pm ","<MISSING>"
"https://www.johnstonmurphy.com","Aurora Boutique","One Garden State Plaza","Paramus","NJ","07652","US","<MISSING>","<MISSING>","<MISSING>","<INACCESSIBLE>","<INACCESSIBLE>"," Sun-Sat 10am-6pm ","<MISSING>"
"https://www.johnstonmurphy.com","Schwartz  Shoes","4908 16th avenue","Brooklyn","NY","11204","US","<MISSING>","<MISSING>","<MISSING>","<INACCESSIBLE>","<INACCESSIBLE>"," Sun-Sat 10am-6pm ","<MISSING>"
"https://www.johnstonmurphy.com","Tates Menswear","128 Railroad Ave","Hackensack","NJ","07601","US","<MISSING>","<MISSING>","<MISSING>","<INACCESSIBLE>","<INACCESSIBLE>"," Sun-Sat 10am-6pm ","<MISSING>"
"https://www.johnstonmurphy.com","Monsey Shoes","40 Main Street","Monsey","NY","10952","US","<MISSING>","<MISSING>","<MISSING>","<INACCESSIBLE>","<INACCESSIBLE>"," Sun-Sat 10am-6pm ","<MISSING>"
"https://www.johnstonmurphy.com","Macy's","Queens Center","Elmhurst","NY","11373","US","<MISSING>","<MISSING>","<MISSING>","<INACCESSIBLE>","<INACCESSIBLE>"," Sun-Sat 10am-6pm ","<MISSING>"
"https://www.johnstonmurphy.com","Tanda","499 Terry Fox Dr","Kanata","ON","K2T 1H7","CA","<MISSING>","<MISSING>","<MISSING>","<INACCESSIBLE>","<INACCESSIBLE>"," Sun-Sat 10am-6pm ","<MISSING>"
"https://www.johnstonmurphy.com","Lord & Taylor","Palisades Center","West Nyack","NY","10994","US","<MISSING>","<MISSING>","<MISSING>","<INACCESSIBLE>","<INACCESSIBLE>"," Sun-Sat 10am-6pm ","<MISSING>"
"https://www.johnstonmurphy.com","Tanda Shoes Barrhaven","3777 Strandherd Dr.","Nepean","ON","10994","US","<MISSING>","<MISSING>","<MISSING>","<INACCESSIBLE>","<INACCESSIBLE>"," Sun-Sat 10am-6pm ","<MISSING>"
"https://www.johnstonmurphy.com","MJ Footwear & Apparel","1516 College Point Blvd","College Point","NY","11356","US","<MISSING>","<MISSING>","<MISSING>","<INACCESSIBLE>","<INACCESSIBLE>"," Sun-Sat 10am-6pm ","<MISSING>"
"https://www.johnstonmurphy.com","Health Village","142-56 Roosevelt Avenue","Flushing","NY","11354","US","<MISSING>","<MISSING>","<MISSING>","<INACCESSIBLE>","<INACCESSIBLE>"," Sun-Sat 10am-6pm ","<MISSING>"
"https://www.johnstonmurphy.com","Macy's","Cross County Shopping Center","Yonkers","NY","10704","US","<MISSING>","<MISSING>","<MISSING>","<INACCESSIBLE>","<INACCESSIBLE>"," Sun-Sat 10am-6pm ","<MISSING>"
"https://www.johnstonmurphy.com","Love Shoes","65 Pondfield Road","Bronxville","NY","10708","US","<MISSING>","<MISSING>","<MISSING>","<INACCESSIBLE>","<INACCESSIBLE>"," Sun-Sat 10am-6pm ","<MISSING>"
"https://www.johnstonmurphy.com","Town Shoes","100 Bayshore Drive","Ottawa","ON","K2B 8C1","CA","<MISSING>","<MISSING>","<MISSING>","<INACCESSIBLE>","<INACCESSIBLE>"," Sun-Sat 10am-6pm ","<MISSING>"
"https://www.johnstonmurphy.com","Emporio","467 Central Avenue","Cedarhurst","NY","11516","US","<MISSING>","<MISSING>","<MISSING>","<INACCESSIBLE>","<INACCESSIBLE>"," Sun-Sat 10am-6pm ","<MISSING>"
"https://www.johnstonmurphy.com","Lord & Taylor","Westchester","Scarsdale","NY","10583","US","<MISSING>","<MISSING>","<MISSING>","<INACCESSIBLE>","<INACCESSIBLE>"," Sun-Sat 10am-6pm ","<MISSING>"
"https://www.johnstonmurphy.com","Jildor","42A Middle Neck Road","Great Neck","NY","11021","US","<MISSING>","<MISSING>","<MISSING>","<INACCESSIBLE>","<INACCESSIBLE>"," Sun-Sat 10am-6pm ","<MISSING>"
"https://www.johnstonmurphy.com","Lord & Taylor","1440 Northern Boulevard","Manhasset","NY","11030","US","<MISSING>","<MISSING>","<MISSING>","<INACCESSIBLE>","<INACCESSIBLE>"," Sun-Sat 10am-6pm ","<MISSING>"
"https://www.johnstonmurphy.com","Bertalia Clothing","22 N. Park Avenue","Rockville Centre","NY","11570","US","<MISSING>","<MISSING>","<MISSING>","<INACCESSIBLE>","<INACCESSIBLE>"," Sun-Sat 10am-6pm ","<MISSING>"
"https://www.johnstonmurphy.com","Eric's Comfort Shoes","426 Hillside Avenue","Williston Park","NY","11596","US","<MISSING>","<MISSING>","<MISSING>","<INACCESSIBLE>","<INACCESSIBLE>"," Sun-Sat 10am-6pm ","<MISSING>"
"https://www.johnstonmurphy.com","Macy's","Poughkeepsie Galleria","Poughkeepsie","NY","12590","US","<MISSING>","<MISSING>","<MISSING>","<INACCESSIBLE>","<INACCESSIBLE>"," Sun-Sat 10am-6pm ","<MISSING>"
"https://www.johnstonmurphy.com","Walin & Wolff","62 Purchase St.","Rye","NY","10580","US","<MISSING>","<MISSING>","<MISSING>","<INACCESSIBLE>","<INACCESSIBLE>"," Sun-Sat 10am-6pm ","<MISSING>"
"https://www.johnstonmurphy.com","Chaussures Monette","100 Boulevard Maloney Ouest","Gatineau","QC","J8T 6G3","CA","<MISSING>","<MISSING>","<MISSING>","<INACCESSIBLE>","<INACCESSIBLE>"," Sun-Sat 10am-6pm ","<MISSING>"
"https://www.johnstonmurphy.com","Heart & Sole","77 Kensico Drive","Mount Kisco","NY","10549","US","<MISSING>","<MISSING>","<MISSING>","<INACCESSIBLE>","<INACCESSIBLE>"," Sun-Sat 10am-6pm ","<MISSING>"
"https://www.johnstonmurphy.com","Shoes N More","251 Greenwich Avenue","Greenwich","CT","06830","US","<MISSING>","<MISSING>","<MISSING>","<INACCESSIBLE>","<INACCESSIBLE>"," Sun-Sat 10am-6pm ","<MISSING>"
"https://www.johnstonmurphy.com","Eric's Shoe Nuf","2590 Hempstead Turnpike","East Meadow","NY","11554","US","<MISSING>","<MISSING>","<MISSING>","<INACCESSIBLE>","<INACCESSIBLE>"," Sun-Sat 10am-6pm ","<MISSING>"
"https://www.johnstonmurphy.com","Salvatore Castellano, LLC","589 Old Country Rd.","Plainview","NY","11803","US","<MISSING>","<MISSING>","<MISSING>","<INACCESSIBLE>","<INACCESSIBLE>"," Sun-Sat 10am-6pm ","<MISSING>"
"https://www.johnstonmurphy.com","Chaussures Regional","2568 Boulebatd St-Joseph","Orleans","ON","K1C 1G3","CA","<MISSING>","<MISSING>","<MISSING>","<INACCESSIBLE>","<INACCESSIBLE>"," Sun-Sat 10am-6pm ","<MISSING>"
"https://www.johnstonmurphy.com","Amityville Men's Shop","184 Park avenue","Amityville","NY","11701","US","<MISSING>","<MISSING>","<MISSING>","<INACCESSIBLE>","<INACCESSIBLE>"," Sun-Sat 10am-6pm ","<MISSING>"
"https://www.johnstonmurphy.com","Darien Sport Shop","1127 Post Road","Darien","CT","06820","US","<MISSING>","<MISSING>","<MISSING>","<INACCESSIBLE>","<INACCESSIBLE>"," Sun-Sat 10am-6pm ","<MISSING>"
"https://www.johnstonmurphy.com","Shoes N More","120 Elm Street","New Canaan","CT","06840","US","<MISSING>","<MISSING>","<MISSING>","<INACCESSIBLE>","<INACCESSIBLE>"," Sun-Sat 10am-6pm ","<MISSING>"
"https://www.johnstonmurphy.com","Walin & Wolff","36 Elm St.","New Cannan","CT","06840","US","<MISSING>","<MISSING>","<MISSING>","<INACCESSIBLE>","<INACCESSIBLE>"," Sun-Sat 10am-6pm ","<MISSING>"
"https://www.johnstonmurphy.com","Huttons","15 Bailey Avenue","Ridgefield","CT","06877","US","<MISSING>","<MISSING>","<MISSING>","<INACCESSIBLE>","<INACCESSIBLE>"," Sun-Sat 10am-6pm ","<MISSING>"
"https://www.johnstonmurphy.com","Shoemart","3 Berkeley street","Norwalk","CT","06850","US","<MISSING>","<MISSING>","<MISSING>","<INACCESSIBLE>","<INACCESSIBLE>"," Sun-Sat 10am-6pm ","<MISSING>"
"https://www.johnstonmurphy.com","Entes","35 Danbury Rd","Wilton","CT","06897","US","<MISSING>","<MISSING>","<MISSING>","<INACCESSIBLE>","<INACCESSIBLE>"," Sun-Sat 10am-6pm ","<MISSING>"
"https://www.johnstonmurphy.com","Studio East","837 Fort Salonga Road","Northport","NY","11768","US","<MISSING>","<MISSING>","<MISSING>","<INACCESSIBLE>","<INACCESSIBLE>"," Sun-Sat 10am-6pm ","<MISSING>"
"https://www.johnstonmurphy.com","Craft Shoes","6149 Jericho Turnpike","Commack","NY","11725","US","<MISSING>","<MISSING>","<MISSING>","<INACCESSIBLE>","<INACCESSIBLE>"," Sun-Sat 10am-6pm ","<MISSING>"
"https://www.johnstonmurphy.com","Best Foot Forward","Danbury Mall","Danbury","CT","06810","US","<MISSING>","<MISSING>","<MISSING>","<INACCESSIBLE>","<INACCESSIBLE>"," Sun-Sat 10am-6pm ","<MISSING>"
"https://www.johnstonmurphy.com","Walin & Wolff","30 Post Rd.","Westport","CT","06880","US","<MISSING>","<MISSING>","<MISSING>","<INACCESSIBLE>","<INACCESSIBLE>"," Sun-Sat 10am-6pm ","<MISSING>"
"https://www.johnstonmurphy.com","Lord & Taylor","Bayshore","Bay Shore","NY","11706","US","<MISSING>","<MISSING>","<MISSING>","<INACCESSIBLE>","<INACCESSIBLE>"," Sun-Sat 10am-6pm ","<MISSING>"
"https://www.johnstonmurphy.com","Lord & Taylor","Trumbull Shopping Park","Trumball","CT","06611","US","<MISSING>","<MISSING>","<MISSING>","<INACCESSIBLE>","<INACCESSIBLE>"," Sun-Sat 10am-6pm ","<MISSING>"
"https://www.johnstonmurphy.com","Shoemart Warehouse","950 Bridgeport Avenue","Milford","CT","06460","US","<MISSING>","<MISSING>","<MISSING>","<INACCESSIBLE>","<INACCESSIBLE>"," Sun-Sat 10am-6pm ","<MISSING>"
"https://www.johnstonmurphy.com","Backer's","163 Boston Post Road","Orange","CT","06477","US","<MISSING>","<MISSING>","<MISSING>","<INACCESSIBLE>","<INACCESSIBLE>"," Sun-Sat 10am-6pm ","<MISSING>"
"https://www.johnstonmurphy.com","Shooz","44 Housatonic Street","Lenox","MA","01240","US","<MISSING>","<MISSING>","<MISSING>","<INACCESSIBLE>","<INACCESSIBLE>"," Sun-Sat 10am-6pm ","<MISSING>"
"https://www.johnstonmurphy.com","Walk-Rite Shoes","130 Oliver Street","Williams Lake","BC","V2G 1L8","CA","<MISSING>","<MISSING>","<MISSING>","<INACCESSIBLE>","<INACCESSIBLE>"," Sun-Sat 10am-6pm ","<MISSING>"
"https://www.johnstonmurphy.com","Ramanis Clothiers","470 Lewis Avenue","Meriden","CT","06451","US","<MISSING>","<MISSING>","<MISSING>","<INACCESSIBLE>","<INACCESSIBLE>"," Sun-Sat 10am-6pm ","<MISSING>"
"https://www.johnstonmurphy.com","Footprints Fashion Footwear","79 Costello Road","Newington","CT","06111","US","<MISSING>","<MISSING>","<MISSING>","<INACCESSIBLE>","<INACCESSIBLE>"," Sun-Sat 10am-6pm ","<MISSING>"
"https://www.johnstonmurphy.com","Formal's By Antonio","2244 Silas Deane Highway","Rocky Hill","CT","06067","US","<MISSING>","<MISSING>","<MISSING>","<INACCESSIBLE>","<INACCESSIBLE>"," Sun-Sat 10am-6pm ","<MISSING>"
"https://www.johnstonmurphy.com","Miller Bros.","109 Main street","Brattleboro","VT","05302","US","<MISSING>","<MISSING>","<MISSING>","<INACCESSIBLE>","<INACCESSIBLE>"," Sun-Sat 10am-6pm ","<MISSING>"
"https://www.johnstonmurphy.com","Urban Soles","33 Durkee St.","Plattsburgh","NY","12901","US","<MISSING>","<MISSING>","<MISSING>","<INACCESSIBLE>","<INACCESSIBLE>"," Sun-Sat 10am-6pm ","<MISSING>"
"https://www.johnstonmurphy.com","The Bay","6790 route Trans-Canada","Pointe-Claire","QC","H9R 1C5","CA","<MISSING>","<MISSING>","<MISSING>","<INACCESSIBLE>","<INACCESSIBLE>"," Sun-Sat 10am-6pm ","<MISSING>"
"https://www.johnstonmurphy.com","Fournier","3035, boul. Le Carrefour","Laval","QC","H7T 1C7","CA","<MISSING>","<MISSING>","<MISSING>","<INACCESSIBLE>","<INACCESSIBLE>"," Sun-Sat 10am-6pm ","<MISSING>"
"https://www.johnstonmurphy.com","Hudson's Bay","3045 Boulevard de Carrefour","Laval ","QC","H7T 1C7","CA","<MISSING>","<MISSING>","<MISSING>","<INACCESSIBLE>","<INACCESSIBLE>"," Sun-Sat 10am-6pm ","<MISSING>"
"https://www.johnstonmurphy.com","Hudson's Bay","2435 Chemin Rockland","Ville Mont-Royal","QC","H3P 2Z3","CA","<MISSING>","<MISSING>","<MISSING>","<INACCESSIBLE>","<INACCESSIBLE>"," Sun-Sat 10am-6pm ","<MISSING>"
"https://www.johnstonmurphy.com","Chaussures Dupuis","3963 Rue Wellington","Verdun","QC","H4G 1V6","CA","<MISSING>","<MISSING>","<MISSING>","<INACCESSIBLE>","<INACCESSIBLE>"," Sun-Sat 10am-6pm ","<MISSING>"
"https://www.johnstonmurphy.com","Chaussures Tony","1346 Greene Avenue","Westmount","QC","H3E 1N1","CA","<MISSING>","<MISSING>","<MISSING>","<INACCESSIBLE>","<INACCESSIBLE>"," Sun-Sat 10am-6pm ","<MISSING>"
"https://www.johnstonmurphy.com","Tony Pappas","9130 Boulevard Leduc Suite 150","Brossard","QC","J4Y 0L3","CA","<MISSING>","<MISSING>","<MISSING>","<INACCESSIBLE>","<INACCESSIBLE>"," Sun-Sat 10am-6pm ","<MISSING>"
"https://www.johnstonmurphy.com","Miller Bros.","105 Main street","Keene","NH","03431","US","<MISSING>","<MISSING>","<MISSING>","<INACCESSIBLE>","<INACCESSIBLE>"," Sun-Sat 10am-6pm ","<MISSING>"
"https://www.johnstonmurphy.com","Cordonnerie RL Plus","190 - 550 De Mortange","Boucherville","QC","J4B 5E4","CA","<MISSING>","<MISSING>","<MISSING>","<INACCESSIBLE>","<INACCESSIBLE>"," Sun-Sat 10am-6pm ","<MISSING>"
"https://www.johnstonmurphy.com","The Bay","800 Boulevard des Promenades","St-Bruno","QC","J3V 5J9","CA","<MISSING>","<MISSING>","<MISSING>","<INACCESSIBLE>","<INACCESSIBLE>"," Sun-Sat 10am-6pm ","<MISSING>"
"https://www.johnstonmurphy.com","Galapogos Boutique","5193 Old Post Road","Charlestown","RI","02813","US","<MISSING>","<MISSING>","<MISSING>","<INACCESSIBLE>","<INACCESSIBLE>"," Sun-Sat 10am-6pm ","<MISSING>"
"https://www.johnstonmurphy.com","Jean-Paul Fortin","244 Boulevard des Promenades","St-Bruno de Montarville","QC","J3V 5K4","CA","<MISSING>","<MISSING>","<MISSING>","<INACCESSIBLE>","<INACCESSIBLE>"," Sun-Sat 10am-6pm ","<MISSING>"
"https://www.johnstonmurphy.com","Chaussures Pierre-Roy","252 Richelieu","St Jean Sue Richelieu","QC","J3B 6X8","CA","<MISSING>","<MISSING>","<MISSING>","<INACCESSIBLE>","<INACCESSIBLE>"," Sun-Sat 10am-6pm ","<MISSING>"
"https://www.johnstonmurphy.com","Well Heeled","2850 Mountain Road","Stowe","VT","05672","US","<MISSING>","<MISSING>","<MISSING>","<INACCESSIBLE>","<INACCESSIBLE>"," Sun-Sat 10am-6pm ","<MISSING>"
"https://www.johnstonmurphy.com","Macy's","Warwick (RI)","Warwick","RI","02886","US","<MISSING>","<MISSING>","<MISSING>","<INACCESSIBLE>","<INACCESSIBLE>"," Sun-Sat 10am-6pm ","<MISSING>"
"https://www.johnstonmurphy.com","Macy's","Solomon Pond","Marlborough","MA","01503","US","<MISSING>","<MISSING>","<MISSING>","<INACCESSIBLE>","<INACCESSIBLE>"," Sun-Sat 10am-6pm ","<MISSING>"
"https://www.johnstonmurphy.com","Chaussures RL Brault","417 Rue Du Sud","Cowansville","QC","J2K 2X6","CA","<MISSING>","<MISSING>","<MISSING>","<INACCESSIBLE>","<INACCESSIBLE>"," Sun-Sat 10am-6pm ","<MISSING>"
"https://www.johnstonmurphy.com","Chaussures Boutiques Newport","40 Rue Evangeline","Granby","QC","J2G 8K1","CA","<MISSING>","<MISSING>","<MISSING>","<INACCESSIBLE>","<INACCESSIBLE>"," Sun-Sat 10am-6pm ","<MISSING>"
"https://www.johnstonmurphy.com","Michael's Shoes","262 Great Road","Acton","MA","01720","US","<MISSING>","<MISSING>","<MISSING>","<INACCESSIBLE>","<INACCESSIBLE>"," Sun-Sat 10am-6pm ","<MISSING>"
"https://www.johnstonmurphy.com","Alec's Shoes","201 Main street","Nashua","NH","03060","US","<MISSING>","<MISSING>","<MISSING>","<INACCESSIBLE>","<INACCESSIBLE>"," Sun-Sat 10am-6pm ","<MISSING>"
"https://www.johnstonmurphy.com","Footstock","35 Central Avenue","Wellesley","MA","02482","US","<MISSING>","<MISSING>","<MISSING>","<INACCESSIBLE>","<INACCESSIBLE>"," Sun-Sat 10am-6pm ","<MISSING>"
"https://www.johnstonmurphy.com","The Barn (The Republic Co)","25 Kempton place","West Newton","MA","02465","US","<MISSING>","<MISSING>","<MISSING>","<INACCESSIBLE>","<INACCESSIBLE>"," Sun-Sat 10am-6pm ","<MISSING>"
"https://www.johnstonmurphy.com","Shoe Horn","317 Walnut Street","Newton","MA","02460","US","<MISSING>","<MISSING>","<MISSING>","<INACCESSIBLE>","<INACCESSIBLE>"," Sun-Sat 10am-6pm ","<MISSING>"
"https://www.johnstonmurphy.com","Harve's Shoe Box","98 State Road","North Darthmouth","MA","02747","US","<MISSING>","<MISSING>","<MISSING>","<INACCESSIBLE>","<INACCESSIBLE>"," Sun-Sat 10am-6pm ","<MISSING>"
"https://www.johnstonmurphy.com","Miltons","176 Boylston Street","Chestnut Hill","MA","02467","US","<MISSING>","<MISSING>","<MISSING>","<INACCESSIBLE>","<INACCESSIBLE>"," Sun-Sat 10am-6pm ","<MISSING>"
"https://www.johnstonmurphy.com","Beyond","39 Brattle St.","Cambridge","MA","02138","US","<MISSING>","<MISSING>","<MISSING>","<INACCESSIBLE>","<INACCESSIBLE>"," Sun-Sat 10am-6pm ","<MISSING>"
"https://www.johnstonmurphy.com","Shaban's","9 Main Street","Andover","MA","01810","US","<MISSING>","<MISSING>","<MISSING>","<INACCESSIBLE>","<INACCESSIBLE>"," Sun-Sat 10am-6pm ","<MISSING>"
"https://www.johnstonmurphy.com","Lord & Taylor","South Shore Plaza","Braintree","MA","02184","US","<MISSING>","<MISSING>","<MISSING>","<INACCESSIBLE>","<INACCESSIBLE>"," Sun-Sat 10am-6pm ","<MISSING>"
"https://www.johnstonmurphy.com","Macy's","Mall at Rockingham Park","Salem","NH","03079","US","<MISSING>","<MISSING>","<MISSING>","<INACCESSIBLE>","<INACCESSIBLE>"," Sun-Sat 10am-6pm ","<MISSING>"
"https://www.johnstonmurphy.com","Walk-Rite Shoes","1249-4th Avenue","Prince George","BC","V2L 3J5","CA","<MISSING>","<MISSING>","<MISSING>","<INACCESSIBLE>","<INACCESSIBLE>"," Sun-Sat 10am-6pm ","<MISSING>"
"https://www.johnstonmurphy.com","Boutiques Newport","370 Rue Principale Ouest","Magog","QC","J1X 2A9","CA","<MISSING>","<MISSING>","<MISSING>","<INACCESSIBLE>","<INACCESSIBLE>"," Sun-Sat 10am-6pm ","<MISSING>"
"https://www.johnstonmurphy.com","Shoe Market","94 Derby Street","Hingham","MA","18966","US","<MISSING>","<MISSING>","<MISSING>","<INACCESSIBLE>","<INACCESSIBLE>"," Sun-Sat 10am-6pm ","<MISSING>"
"https://www.johnstonmurphy.com","Macy's","Northshore (MA)","Peabody","MA","01960","US","<MISSING>","<MISSING>","<MISSING>","<INACCESSIBLE>","<INACCESSIBLE>"," Sun-Sat 10am-6pm ","<MISSING>"
"https://www.johnstonmurphy.com","Caron Chaussures","4830 Boulevard des Forges","Trois Rivieres","QC","G8Y 1W9","CA","<MISSING>","<MISSING>","<MISSING>","<INACCESSIBLE>","<INACCESSIBLE>"," Sun-Sat 10am-6pm ","<MISSING>"
"https://www.johnstonmurphy.com","Nell","20 Main Ste.","Edgartown","MA","02539","US","<MISSING>","<MISSING>","<MISSING>","<INACCESSIBLE>","<INACCESSIBLE>"," Sun-Sat 10am-6pm ","<MISSING>"
"https://www.johnstonmurphy.com","Red's Shoe Barn Inc.","22 Plaistow Road","Plaistow","NH","03865","US","<MISSING>","<MISSING>","<MISSING>","<INACCESSIBLE>","<INACCESSIBLE>"," Sun-Sat 10am-6pm ","<MISSING>"
"https://www.johnstonmurphy.com","Caron Chaussures","2273 Rue King Ouest","Sherbrooke","QC","J1J 2G2","CA","<MISSING>","<MISSING>","<MISSING>","<INACCESSIBLE>","<INACCESSIBLE>"," Sun-Sat 10am-6pm ","<MISSING>"
"https://www.johnstonmurphy.com","Boutique Jerome","Place de la Cite","Quebec","QC","J4K 2V1","CA","<MISSING>","<MISSING>","<MISSING>","<INACCESSIBLE>","<INACCESSIBLE>"," Sun-Sat 10am-6pm ","<MISSING>"
"https://www.johnstonmurphy.com","Shoe Salon","22 Market Street","Mashpee","MA","02043","US","<MISSING>","<MISSING>","<MISSING>","<INACCESSIBLE>","<INACCESSIBLE>"," Sun-Sat 10am-6pm ","<MISSING>"
"https://www.johnstonmurphy.com","Red Shoe Barn","35 Broadway","Dover","NH","03820","US","<MISSING>","<MISSING>","<MISSING>","<INACCESSIBLE>","<INACCESSIBLE>"," Sun-Sat 10am-6pm ","<MISSING>"
"https://www.johnstonmurphy.com","Chaussures Beauchesne","3 Rue Tourigny","Victoriaville","QC","G6P 4C3","CA","<MISSING>","<MISSING>","<MISSING>","<INACCESSIBLE>","<INACCESSIBLE>"," Sun-Sat 10am-6pm ","<MISSING>"
"https://www.johnstonmurphy.com","Hepburn","3 Salem Street","Nantucket","MA","02554","US","<MISSING>","<MISSING>","<MISSING>","<INACCESSIBLE>","<INACCESSIBLE>"," Sun-Sat 10am-6pm ","<MISSING>"
"https://www.johnstonmurphy.com","Cape Cod Shoe Market","271 Main Street","Dennis Port","MA","02639","US","<MISSING>","<MISSING>","<MISSING>","<INACCESSIBLE>","<INACCESSIBLE>"," Sun-Sat 10am-6pm ","<MISSING>"
"https://www.johnstonmurphy.com","Macy's","South Portland","South Portland","ME","04106","US","<MISSING>","<MISSING>","<MISSING>","<INACCESSIBLE>","<INACCESSIBLE>"," Sun-Sat 10am-6pm ","<MISSING>"
"https://www.johnstonmurphy.com","Leclerc Chaussures","2700 Boulevard Laurier","Ste-Foy","QC","G1V 4P7","CA","<MISSING>","<MISSING>","<MISSING>","<INACCESSIBLE>","<INACCESSIBLE>"," Sun-Sat 10am-6pm ","<MISSING>"
"https://www.johnstonmurphy.com","Chaussures Rioux","298 Rue Lafontaine","Riviere du Loup","QC","G5R 3A8","CA","<MISSING>","<MISSING>","<MISSING>","<INACCESSIBLE>","<INACCESSIBLE>"," Sun-Sat 10am-6pm ","<MISSING>"
"https://www.johnstonmurphy.com","All Star Shoes","4617 Lakelse Avenue","Terrace","BC","V8G 1P9","CA","<MISSING>","<MISSING>","<MISSING>","<INACCESSIBLE>","<INACCESSIBLE>"," Sun-Sat 10am-6pm ","<MISSING>"
"https://www.johnstonmurphy.com","Quality Shoes","440 King Street","Fredericton","NB","E3B 5H8","CA","<MISSING>","<MISSING>","<MISSING>","<INACCESSIBLE>","<INACCESSIBLE>"," Sun-Sat 10am-6pm ","<MISSING>"
"https://www.johnstonmurphy.com","Mahone Bay","554 Main Street","Mahone Bay","NS","B0J 2E0","CA","<MISSING>","<MISSING>","<MISSING>","<INACCESSIBLE>","<INACCESSIBLE>"," Sun-Sat 10am-6pm ","<MISSING>"
"https://www.johnstonmurphy.com","Mahone Bay","201 Chain Lake Drive","Halifax","NS","B3S 1C8","CA","<MISSING>","<MISSING>","<MISSING>","<INACCESSIBLE>","<INACCESSIBLE>"," Sun-Sat 10am-6pm ","<MISSING>"
"https://www.johnstonmurphy.com","Uptown Shoes","134 Kent Street","Charlottetown","PE","C1A 1N2","CA","<MISSING>","<MISSING>","<MISSING>","<INACCESSIBLE>","<INACCESSIBLE>"," Sun-Sat 10am-6pm ","<MISSING>"
"https://www.johnstonmurphy.com","Novus Inc.","#655 Cubitas Street","Guaynabo","PR","00969","US","<MISSING>","<MISSING>","<MISSING>","<INACCESSIBLE>","<INACCESSIBLE>"," Sun-Sat 10am-6pm ","<MISSING>"
"https://www.johnstonmurphy.com","Stallones","600 E. Northern Lights Blvd.","Anchorage","AK","99503","US","<MISSING>","<MISSING>","<MISSING>","<INACCESSIBLE>","<INACCESSIBLE>"," Sun-Sat 10am-6pm ","<MISSING>"
"https://www.johnstonmurphy.com","Franks Menswear","535 3rd Ave Suite # B","Fairbanks","AK","99701","US","<MISSING>","<MISSING>","<MISSING>","<INACCESSIBLE>","<INACCESSIBLE>"," Sun-Sat 10am-6pm ","<MISSING>"
"https://www.johnstonmurphy.com","Shoe Emporium","2005 Kalia Rd","Honolulu","HI","96815","US","<MISSING>","<MISSING>","<MISSING>","<INACCESSIBLE>","<INACCESSIBLE>"," Sun-Sat 10am-6pm ","<MISSING>"
"https://www.johnstonmurphy.com","Macy's","Trumbull","Trumbull","CT","6611","US","<MISSING>","<MISSING>","<MISSING>","<INACCESSIBLE>","<INACCESSIBLE>"," Sun-Sat 10am-6pm ","<MISSING>"
"https://www.johnstonmurphy.com","Macy's","Plaza Las Americas","San Juan","PR","09180","US","<MISSING>","<MISSING>","<MISSING>","<INACCESSIBLE>","<INACCESSIBLE>"," Sun-Sat 10am-6pm ","<MISSING>"
