locator_domain,location_name,street_address,city,state,zip,country_code,store_number,phone,location_type,naics_code,latitude,longitude,hours_of_operation
marriott.com,,3590 Grandview Parkway,Birmingham,Alabama,35243,USA,,+1 205-968-3775,Hotel,,33.436518,-86.718458,
marriott.com,,101 St. Andrews Drive,Williamsburg,Virginia,23188,USA,,+1 757-258-1120,Hotel,,37.303588,-76.782928,
marriott.com,,1750 West Loop South,Houston,Texas,77027,USA,,+1 713-960-0111,Hotel,,29.749668,-95.456443,
marriott.com,,"Liman Mahallesi Ataturk Bulvari No:55, Ilkadim",Samsun,,55100,Turkey,,+90 362 312 00 00,Hotel,,41.316038,36.33536,
marriott.com,,35 Clarks Road,Amesbury,Massachusetts,01913,USA,,+1 978-388-3400,Hotel,,42.844295,-70.909385,
marriott.com,,500 Paddy Creek Circle,Rochester,New York,14615,USA,,+1 585-865-2090,Hotel,,43.205004,-77.67328,
marriott.com,,1295 US Highway 1,Avenel,New Jersey,07001,USA,,+1 732-396-9700,Hotel,,40.593535,-74.273717,
marriott.com,,Avenida de Aragon No 400,Madrid,,28022,Spain,,+34 914 00 44 00,Hotel,,40.449057,-3.558685,
marriott.com,,300 Ted Turner Drive NW,Atlanta,Georgia,30308,USA,,+1 678-515-0300,Hotel,,33.76281,-84.389763,
marriott.com,,1333 South Rural Road,Tempe,Arizona,85281,USA,,+1 480-968-3451,Hotel,,33.413723,-111.92604,
marriott.com,,400 David Hollowell Drive,Newark,Delaware,19716,USA,,+1 302-737-0900,Hotel,,39.687971,-75.759457,
marriott.com,,5059 Hopyard Road,Pleasanton,California,94588,USA,,+1 925-463-1414,Hotel,,37.694212,-121.903604,
marriott.com,,7415 East 41st Avenue,Denver,Colorado,80216,USA,,+1 303-333-3303,Hotel,,39.775101,-104.902437,
marriott.com,,Im Zollhof 5,Ludwigshafen am Rhein,,67061,Germany,,+49 621 37909007,Hotel,,49.484142,8.449386,
marriott.com,,14668 Duval Road,Jacksonville,Florida,32218,USA,,+1 904-741-1122,Hotel,,30.481662,-81.647512,
marriott.com,,"Avenida El Canal, Edificio Hotel de Golf Maracay, Urbanizacion Cantarrana",Maracay,,2102,Venezuela,,+58 243-2446222,Hotel,,10.28735,-67.579389,
marriott.com,,980 Midnight Pass,Lexington,Kentucky,40513,USA,,+1 859-368-9491,Hotel,,38.018083,-84.556994,
marriott.com,,Chemin des Palettes 14,Rougemont,,1659,Switzerland,,+41 26 921 01 01,Hotel,,46.4867,7.1986,
marriott.com,,5851 Rogerdale Road,Houston,Texas,77072,USA,,+1 832-300-0200,Hotel,,29.714778,-95.560237,
marriott.com,,2500 East Custer Avenue,Helena,Montana,59602,USA,,+1 406-443-8010,Hotel,,46.616649,-111.990678,
marriott.com,,1040 University Parkway,Sarasota,Florida,34234,USA,,+1 941-358-1468,Hotel,,27.381839,-82.550199,
marriott.com,,101 Progress Point Ct.,OFallon,Missouri,63368,USA,,+1 636-300-3535,Hotel,,38.716136,-90.702107,
marriott.com,,6853 North Dallas Parkway,Plano,Texas,75024,USA,,+1 214-474-2520,Hotel,,33.071013,-96.82561,
marriott.com,,2555 Venture Oaks Way,Sacramento,California,95833,USA,,+1 916-925-2280,Hotel,,38.610979,-121.514304,
marriott.com,,3 Pembroke Place,Edgewater,New Jersey,07020,USA,,+1 201-945-5440,Hotel,,40.802848,-73.993049,
marriott.com,,180 Barnes Avenue,Carrollton,Georgia,30117,USA,,+1 678-664-5200,Hotel,,33.581811,-85.076845,
marriott.com,,3 Rue Devosge,Dijon,,21000,France,,+33 3 80 40 40 40,Hotel,,47.324434,5.033947,
marriott.com,,250 Market Street,Portsmouth,New Hampshire,03801,USA,,+1 603-431-2300,Hotel,,43.079951,-70.759516,
marriott.com,,275 Independence Way,Danvers,Massachusetts,01923,USA,,+1 978-777-8630,Hotel,,42.554404,-70.93685,
marriott.com,,Pribinova 12,Bratislava,,81109,Slovak Republic,,+421 2/353 500 00,Hotel,,48.140762,17.121989,
marriott.com,,"1769 Jiang Hong Road, Binjiang District",Hangzhou,,310052,China,,+86 571 8790 7777,Hotel,,30.208245,120.196679,
marriott.com,,2024 4th Avenue South,Birmingham,Alabama,35233,USA,,+1 205-322-8600,Hotel,,33.509236,-86.801698,
marriott.com,,350 West Santa Clara Street,San Jose,California,95113,USA,,+1 408-924-0900,Hotel,,37.333222,-121.896161,
marriott.com,,"George Washington Ave. 367, Apto. Postal 769-2",Santo Domingo,,769-2,Dominican Republic,,+1 809-221-2222,Hotel,,18.461806,-69.899155,
marriott.com,,165 Courtland Street NE,Atlanta,Georgia,30303,USA,,+1 404-659-6500,Hotel,,33.758647,-84.383755,
marriott.com,,Katharinenstrae 29,Hamburg,,20457,Germany,,+49 40 29996660,Hotel,,53.545895,9.992406,
marriott.com,,7522 Teague Road,Hanover,Maryland,21076,USA,,+1 443-577-0050,Hotel,,39.155714,-76.717014,
marriott.com,,1219 West Highway 40,Vernal,Utah,84078,USA,,+1 435-789-8050,Hotel,,40.4488563537598,-109.55088806152,
marriott.com,,402 Ogletown Road,Newark,Delaware,19711,USA,,+1 302-273-1000,Hotel,,39.685414,-75.736433,
marriott.com,,8401 Angels Drive,Plano,Texas,75024,USA,,+1 469-362-7773,Hotel,,33.092821,-96.802636,
marriott.com,,1110 Marks Church Road,Augusta,Georgia,30909,USA,,+1 706-396-6600,Hotel,,33.481147,-82.082392,
marriott.com,,1 Sathorn Soi 3 South Sathorn Road,Bangkok,,10120,Thailand,,+66 2 343 6789,Hotel,,13.72313,100.5371,
marriott.com,,143 Colonial Drive,Oxford,Alabama,36203,USA,,+1 256-831-1921,Hotel,,33.612495,-85.789416,
marriott.com,,Corner of Bahnhof & Independence Avenues,Windhoek,,9000,Namibia,,+264 61 226 031,Hotel,,-22.560618,17.08378,
marriott.com,,7000 Church Ranch Boulevard,Westminster,Colorado,80021,USA,,+1 720-887-1177,Hotel,,39.8835,-105.0748,
marriott.com,,"No 46 Dongfang Road, Songgang, Bao'an District",Shenzhen,,518034,China,,+86 755 2986 9888,Hotel,,22.7668,113.8634,
marriott.com,,"Maxstoke Lane, Meriden",Birmingham,,CV7 7HR,United Kingdom,,,Hotel,,52.463366,-1.659983,
marriott.com,,205 Hillwood Ave.,Falls Church,Virginia,22046,USA,,+1 703-237-6172,Hotel,,38.878823,-77.171357,
marriott.com,,1725 W Filmore Avenue at Expressway 83,Harlingen,Texas,78550,USA,,+1 956-412-7800,Hotel,,26.186433,-97.711182,
marriott.com,,"Wardha Road, Opp. MIHAN Flyover",Nagpur,,441108,India,,+91 7103 663 333,Hotel,,21.043021,79.055381,
marriott.com,,5010 W. 88th Place,Westminster,Colorado,80031,USA,,+1 303-427-9500,Hotel,,39.858689,-105.052788,
marriott.com,,200 N Admiral Byrd Road,Salt Lake City,Utah,84116,USA,,+1 801-746-5200,Hotel,,40.772381,-112.021591,
marriott.com,,247 Willis Crescent,Saskatoon,,S7T 0V2,Canada,,+1 306-952-0400,Hotel,,52.088314,-106.627497,
marriott.com,,114 West 40th Street,New York,New York,10018,USA,,+1 212-391-0088,Hotel,,40.753891,-73.985825,
marriott.com,,8489 US Highway 64,Memphis,Tennessee,38133,USA,,+1 901-381-0085,Hotel,,35.204274,-89.77936,
marriott.com,,850 Joe Mann Blvd,Midland,Michigan,48642,USA,,+1 989-837-9990,Hotel,,43.659874,-84.236361,
marriott.com,,"No. 199 Lequn 2nd Road (intersection with Jinye 4th Road), ZhongShan District,",Taipei,,,Taiwan,,+886 2 8502 9999,Hotel,,25.080228,121.559351,
marriott.com,,"51 Newbury Street, Route 1",Danvers,Massachusetts,01923,USA,,+1 978-777-7171,Hotel,,42.558502,-70.978108,
marriott.com,,"Pacific Place, 88 Queensway",Hong Kong,,,"Hong Kong SAR, PRC",,+852 2810 8366,Hotel,,22.277495,114.165996,
marriott.com,,6235 McDonough Drive,Norcross,Georgia,30093,USA,,+1 770-242-7172,Hotel,,33.909774,-84.210981,
marriott.com,,1000 Airway Blvd,Livermore,California,94551,USA,,+1 925-373-1800,Hotel,,37.703197,-121.8185,
marriott.com,,P.O. Box 88,Arusha,,,Tanzania,,+255 27 250 7777,Hotel,,-2.373105,36.694657,
marriott.com,,2135 East El Segundo Blvd.,El Segundo,California,90245,USA,,+1 310-333-0888,Hotel,,33.916628,-118.387556,
marriott.com,,2201 Airport Freeway,Bedford,Texas,76021,USA,,+1 817-545-2202,Hotel,,32.837641,-97.129863,
marriott.com,,1300 Discovery Parkway,Wauwatosa,Wisconsin,53226,USA,,+1 414-258-2575,Hotel,,43.048197,-88.03109,
marriott.com,,"Camino de la Zarzuela , 3",Madrid,,28023,Spain,,+34 917 40 06 80,Hotel,,40.464581,-3.785219,
marriott.com,,"2099 Yan'an West Road, Changning District",Shanghai,,200336,China,,+86 21 6275 0000,Hotel,,31.203148,121.405792,
marriott.com,,425 Summer Street,Boston,Massachusetts,02210,USA,,+1 617-532-4600,Hotel,,42.346665,-71.042812,
marriott.com,,4741 28th Street SE,Grand Rapids,Michigan,49512,USA,,+1 616-954-0500,Hotel,,42.912532,-85.550155,
marriott.com,,6412 Backlick Road,Springfield,Virginia,22150,USA,,+1 703-644-0020,Hotel,,38.779842,-77.185025,
marriott.com,,One Riverfront Plaza,Lawrence,Kansas,66044,USA,,+1 785-841-2700,Hotel,,38.973037,-95.234363,
marriott.com,,120 East Redwood Street,Baltimore,Maryland,21202,USA,,+1 410-685-1095,Hotel,,39.288986,-76.612197,
marriott.com,,"88 Taisheng Road South, Qingyang District",Chengdu,,610016,China,,+86 28 6287 6666,Hotel,,30.660507,104.074302,
marriott.com,,230 Jumping Brook Road,Neptune,New Jersey,07753,USA,,+1 732-643-9350,Hotel,,40.217148,-74.087158,
marriott.com,,1300 River Run Court,Rock Hill,South Carolina,29732,USA,,+1 803-324-1400,Hotel,,34.977867,-80.989754,
marriott.com,,8125 Gatehouse Road,Falls Church,Virginia,22042,USA,,+1 703-573-5200,Hotel,,38.867632,-77.225315,
marriott.com,,1070 North OWA Boulevard,Foley,Alabama,36535,USA,,+1 251-581-9222,Hotel,,30.372383,-87.653606,
marriott.com,,1865 Hotel Circle South,San Diego,California,92108,USA,,+1 619-881-3600,Hotel,,32.759097,-117.182127,
marriott.com,,161 Elizabeth Street,Sydney,,2000,Australia,,+61 2 9286 6000,Hotel,,-33.871538,151.210037,
marriott.com,,5614 Vineland Road,Orlando,Florida,32819,USA,,+1 407-581-5600,Hotel,,28.482,-81.456625,
marriott.com,,"Kawasan Pariwisata Lot SW1, Nusa Dua",Bali,,80363,Indonesia,,+62 361 3003888,Hotel,,-8.806923,115.225304,
marriott.com,,14455 NE 29th Place,Bellevue,Washington,98007,USA,,+1 425-882-1222,Hotel,,47.633919,-122.14645,
marriott.com,,"Via Vittorio Veneto, 191",Rome,,00187,Italy,,+39 06 489929,Hotel,,41.90919,12.488399,
marriott.com,,401 Bullitt Lane,Louisville,Kentucky,40222,USA,,+1 502-409-8071,Hotel,,38.245327,-85.618826,
marriott.com,,761 Post Street,San Francisco,California,94109,USA,,+1 415-346-3800,Hotel,,37.787263,-122.41425,
marriott.com,,1248 Golden Mile Road,Towanda,Pennsylvania,18848,USA,,+1 570-265-5553,Hotel,,41.770966,-76.4137,
marriott.com,,"100 Liangdu Avenue, Hongqiao New District, Zhongshan Economic Development Zone",Liupanshui,,,China,,+86 858 870 9999,Hotel,,26.578904,104.856096,
marriott.com,,201 Hale Road,Manchester,Connecticut,06042,USA,,+1 860-432-4242,Hotel,,41.811044,-72.531923,
marriott.com,,875 New Durham Road,Edison,New Jersey,08817,USA,,+1 732-650-0011,Hotel,,40.541879,-74.394243,
marriott.com,,,,,,,,,Hotel,,,,
marriott.com,,1870 West First Street,Springfield,Ohio,45504,USA,,+1 937-323-9554,Hotel,,39.941737,-83.840353,
marriott.com,,2225 Stantonsburg Road (US 264),Greenville,North Carolina,27834,USA,,+1 252-329-2900,Hotel,,35.605581,-77.403276,
marriott.com,,3555 Centerpoint Parkway,Pontiac,Michigan,48341,USA,,+1 248-858-9595,Hotel,,42.606546,-83.251878,
marriott.com,,Piazza Ognissanti 3,Florence,,50123,Italy,,+39 055 27151,Hotel,,43.77187,11.245408,
marriott.com,,Via Tazzoli 2,Milan,,20154,Italy,,+39 02 2042 4211,Hotel,,45.485061,9.183777,
marriott.com,,1930 Taylor Rd,Roseville,California,95661,USA,,+1 916-772-5500,Hotel,,38.763736,-121.255417,
marriott.com,,Plaza de Juego de Pelota 7,Toledo,,45002,Spain,,+34 925 27 46 90,Hotel,,39.855492,-4.026242,
marriott.com,,555 Fellowship Road,Mount Laurel,New Jersey,08054,USA,,+1 856-778-7300,Hotel,,39.93335,-74.959077,
marriott.com,,"Nacoes Unidas Ave 12559, Brooklin Novo",Sao Paulo,,04578-903,Brazil,,+55 11 3055-8000,Hotel,,-23.608014,-46.697545,
marriott.com,,3275 SW 40th Boulevard,Gainesville,Florida,32608,USA,,+1 352-264-0000,Hotel,,29.623917,-82.390113,
marriott.com,,1175 Rogers Way,Kamloops,,V1S 1R5,Canada,,+1 250-374-4144,Hotel,,50.6518,-120.3674,
marriott.com,,32 Exchange Terrace at Memorial Blvd,Providence,Rhode Island,02903,USA,,+1 401-272-1191,Hotel,,41.825217,-71.414115,
marriott.com,,7601 Phoenix Avenue,Fort Smith,Arkansas,72903,USA,,+1 479-755-3111,Hotel,,35.347019,-94.348867,
marriott.com,,7690 South Las Vegas Boulevard,Las Vegas,Nevada,89123,USA,,+1 702-407-1942,Hotel,,36.049886,-115.172244,
marriott.com,,140 East Shaw Avenue,Fresno,California,93710,USA,,+1 559-221-6000,Hotel,,36.810751,-119.78712,
marriott.com,,801 University Avenue,Syracuse,New York,13210,USA,,+1 315-475-3000,Hotel,,43.041554,-76.134411,
marriott.com,,4991 Calypso Cay Way,Kissimmee,Florida,34746,USA,,+1 407-997-1300,Hotel,,28.338723,-81.482847,
marriott.com,,601 South College Street,Charlotte,North Carolina,28202,USA,,+1 704-375-2600,Hotel,,35.222302,-80.847441,
marriott.com,,1000 Charles Ewing Blvd,Ewing,New Jersey,08628,USA,,+1 609-530-0900,Hotel,,40.287285,-74.796413,
marriott.com,,Schloss Strasse 1,Hof bei Salzburg,,5322,Austria,,+43 6229 23720,Hotel,,47.810797,13.246665,
marriott.com,,"389 West Bay Road Seven Mile Beach, P.O. Box 30371",Grand Cayman,,KY1 -1202,Cayman Islands,,+1 345-949-0088,Hotel,,19.317453,-81.383516,
marriott.com,,785 College Drive,Dalton,Georgia,30720,USA,,+1 706-275-7215,Hotel,,34.765424,-85.003742,
marriott.com,,1807 Moreland Boulevard,Champaign,Illinois,61822,USA,,+1 217-355-0604,Hotel,,40.135809,-88.251005,
marriott.com,,Av Embaixador Abelardo Bueno 5001,Rio de Janeiro,,22775-039,Brazil,,+55 21 4560-2700,Hotel,,-22.974083,-43.400452,
marriott.com,,6708 Gessner Road,Houston,Texas,77040,USA,,+1 832-786-6400,Hotel,,29.864559,-95.541533,
marriott.com,,3896 Bigelow Boulevard,Pittsburgh,Pennsylvania,15213,USA,,+1 412-621-2200,Hotel,,40.453715,-79.954256,
marriott.com,,628 South Santa Rosa Ave,San Antonio,Texas,78204,USA,,+1 210-231-6000,Hotel,,29.41981,-98.499558,
marriott.com,,"34 bd de la Liberation, ZAC Pleyel, (GPS adress: 107 bd de la Liberation)",Saint Denis,,93200,France,,+33 1 58 34 91 10,Hotel,,48.922217,2.343001,
marriott.com,,1400 M Street NW,Washington,District Of Columbia,20005,USA,,+1 202-429-1700,Hotel,,38.905699,-77.032998,
marriott.com,,"Dibba Road, PO Box 3070",Fujairah,,,United Arab Emirates,,+971 9 244 9000,Hotel,,25.506786,56.361724,
marriott.com,,100 Brabham Drive,Enterprise,Alabama,36330,USA,,+1 334-348-1580,Hotel,,31.2938,-85.8468,
marriott.com,,"3-4-2 Kotobashi, Sumida-ku",Tokyo,,130-0022,Japan,,+81 3-5624-8801,Hotel,,35.693561,139.813275,
marriott.com,,4800 W. John Carpenter Freeway,Irving,Texas,75063,USA,,+1 972-929-7257,Hotel,,32.917164,-97.013172,
marriott.com,,9 Aba Even Street,Herzliya Pituach,,4672202,Israel,,+972 9-760-6666,Hotel,,32.16265,34.808031,
marriott.com,,670 White Plains Road,Tarrytown,New York,10591,USA,,+1 914-631-2200,Hotel,,41.060638,-73.832501,
marriott.com,,12000 Collegiate Way,Orlando,Florida,32817,USA,,+1 407-277-7676,Hotel,,28.59693,-81.212602,
marriott.com,,901 Raintree Road,Mankato,Minnesota,56001,USA,,+1 507-388-1234,Hotel,,44.174985,-93.957357,
marriott.com,,2150 11th Avenue,Helena,Montana,59601,USA,,+1 406-449-9944,Hotel,,46.589837,-112.002542,
marriott.com,,6415 Yorktown Circle,East Syracuse,New York,13057,USA,,+1 315-432-0300,Hotel,,43.091357,-76.087321,
marriott.com,,1201 NW Le Jeune Road,Miami,Florida,33126,USA,,+1 305-642-8200,Hotel,,25.785136,-80.262315,
marriott.com,,2855 Main Street,Irvine,California,92614,USA,,+1 949-261-2020,Hotel,,33.680042,-117.837143,
marriott.com,,13900 McAuley Boulevard,Oklahoma City,Oklahoma,73134,USA,,+1 405-286-1020,Hotel,,35.611269,-97.597725,
marriott.com,,4021 Lakeview Drive,Stone Mountain,Georgia,30083,USA,,+1 770-879-9900,Hotel,,33.798902,-84.12995,
marriott.com,,4110 Health Care Drive,North Little Rock,Arkansas,72117,USA,,+1 501-945-7777,Hotel,,34.78099,-92.2194,
marriott.com,,1101 Woodlawn Avenue,Georgetown,Texas,78628,USA,,+1 737-444-2700,Hotel,,30.648686,-97.686453,
marriott.com,,6400 South Connie Avenue,Sioux Falls,South Dakota,57108,USA,,+1 605-274-2480,Hotel,,43.487,-96.7699,
marriott.com,,"Rue de la Chapelle, Charles de Gaulle Airport",Le Mesnil-Amelot,,77990,France,,+33 1 60 03 63 00,Hotel,,49.022053,2.599717,
marriott.com,,1860 Remount Road,Gastonia,North Carolina,28054,USA,,+1 704-867-5073,Hotel,,35.269603,-81.146264,
marriott.com,,12 Lighthouse Lane,Hilton Head Island,South Carolina,29928,USA,,+1 843-363-3012,Hotel,,32.13581,-80.81148,
marriott.com,,No. 32 Wei Yang Road,Xian,,710014,China,,+86 29 8886 6888,Hotel,,34.29255,108.942008,
marriott.com,,1311 American Lane,Schaumburg,Illinois,60173,USA,,+1 847-619-8100,Hotel,,42.046107,-88.04752,
marriott.com,,2035 Kennedy Road,Toronto,,M1T 3G2,Canada,,+1 416-299-1500,Hotel,,43.77741,-79.283392,
marriott.com,,"1199 Vermont Avenue, NW",Washington,District Of Columbia,20005,USA,,+1 202-898-1100,Hotel,,38.904921,-77.03241,
marriott.com,,333 West W.T. Harris Blvd,Charlotte,North Carolina,28262,USA,,+1 704-549-4888,Hotel,,35.3080862,-80.7533231,
marriott.com,,Paseo de la Castellana 152,Madrid,,28046,Spain,,+34 914 58 49 70,Hotel,,40.455847,-3.689803,
marriott.com,,908 National Road,Wheeling,West Virginia,26003,USA,,+1 304-232-8903,Hotel,,40.077422,-80.692679,
marriott.com,,2500 McCue Road,Houston,Texas,77056,USA,,+1 713-840-9757,Hotel,,29.74182,-95.464195,
marriott.com,,7025 Northland Drive North,Brooklyn Park,Minnesota,55428,USA,,+1 763-536-8300,Hotel,,45.081612,-93.394638,
marriott.com,,806 W. 7th St.,Tifton,Georgia,31794,USA,,+1 229-387-8288,Hotel,,31.450234,-83.530686,
marriott.com,,Johan de Wittlaan 30,The Hague,,2517 JR,Netherlands,,+31 70 352 5354,Hotel,,52.090141,4.282769,
marriott.com,,Parkallee 3,Gelsenkirchen,,45891,Germany,,+49 209 8600,Hotel,,51.557198,7.068077,
marriott.com,,2301 Sadler Road,Fernandina Beach,Florida,32034,USA,,+1 904-277-2440,Hotel,,30.639532,-81.442595,
marriott.com,,222 North 10th Street,Omaha,Nebraska,68102,USA,,+1 402-807-8000,Hotel,,41.260383,-95.929128,
marriott.com,,760 Old Hickory Boulevard,Brentwood,Tennessee,37027,USA,,+1 615-964-5500,Hotel,,36.041673,-86.774397,
marriott.com,,770 W 47th Street,Kansas City,Missouri,64112,USA,,+1 816-931-4400,Hotel,,39.042723,-94.59592,
marriott.com,,"Via Vittorio E. Orlando, 3",Rome,,00185,Italy,,+39 06 47091,Hotel,,41.9037,12.495,
marriott.com,,"No 166 Beima Road, Hongqiao District",Tianjin,,300120,China,,+86 22 5898 5555,Hotel,,39.147198,117.174457,
marriott.com,,422 Bonham,San Antonio,Texas,78205,USA,,+1 210-212-6262,Hotel,,29.426309,-98.484286,
marriott.com,,28500 Bella Vista Parkway,Warrenville,Illinois,60555,USA,,+1 630-393-3444,Hotel,,41.809714,-88.16001,
marriott.com,,4695 W. Henrietta Rd.,Henrietta,New York,14467,USA,,+1 585-334-3350,Hotel,,43.059404,-77.651608,
marriott.com,,"6-1-55, Uehonmachi, Tennoji-ku",Osaka,,543-0001,Japan,,+81 6-6773-1111,Hotel,,34.665504,135.520326,
marriott.com,,One Marriott Drive,Greensboro,North Carolina,27409,USA,,+1 336-852-6450,Hotel,,36.10895,-79.940608,
marriott.com,,Via di Santa Chiara 4/A,Rome,,00186,Italy,,+39 06 8780 7070,Hotel,,41.897989,12.475978,
marriott.com,,24/1 Vittal Mallya Road,Bengaluru,,560001,India,,+91 80671 89999,Hotel,,12.972581,77.595199,
marriott.com,,151 Van Campen Boulevard,Wilmington,North Carolina,28403,USA,,+1 910-395-8224,Hotel,,34.241391,-77.87264,
marriott.com,,2350 Easton Road Route 611,Willow Grove,Pennsylvania,19090,USA,,+1 215-830-0550,Hotel,,40.166095,-75.125579,
marriott.com,,2701 Lake Vista Drive,Lewisville,Texas,75067,USA,,+1 972-316-3100,Hotel,,32.996248,-96.96533,
marriott.com,,"Jose Ma. Morelos 44, Fraccionamiento Bugambilias",Ixtapan de la Sal,,51900,Mexico,,+52 721 143 2010 ext= 808,Hotel,,18.850767,-99.673097,
marriott.com,,"262 Surawong Road, Si Phraya, Bangrak",Bangkok,,10500,Thailand,,+66 2 088 5666,Hotel,,13.727346,100.522306,
marriott.com,,"Jalan A.A Gede Rai, Mawang Kelod, Lodtunduh",Ubud,,80571,Indonesia,,+62 361 3018700,Hotel,,-8.572651,115.25951,
marriott.com,,64 University Avenue,Westwood,Massachusetts,02090,USA,,+1 781-467-1252,Hotel,,42.2093,-71.148487,
marriott.com,,"1, Yezhou Road, Haitang Bay",Sanya,,572013,China,,+86 898 3885 8888,Hotel,,18.398473,109.78054,
marriott.com,,800 Tabor Street,Golden,Colorado,80401,USA,,+1 303-232-7790,Hotel,,39.729165,-105.130586,
marriott.com,,1101 North 4th Street,Leavenworth,Kansas,66048,USA,,+1 913-758-9303,Hotel,,39.327811,-94.916131,
marriott.com,,30 South 7th Street,Minneapolis,Minnesota,55402,USA,,+1 612-349-4000,Hotel,,44.97752,-93.273425,
marriott.com,,3150 Oleander Drive,Myrtle Beach,South Carolina,29577,USA,,+1 843-444-8097,Hotel,,33.720195,-78.877024,
marriott.com,,"Basin Ekspress Yolu, Fatih Caddesi, Dereboyu Sokak No 2, Halkali",Istanbul,,34303,Turkey,,+90 212 692 00 00,Hotel,,41.028712,28.807622,
marriott.com,,229 Whiting Farms Road,Holyoke,Massachusetts,01040,USA,,+1 413-533-2800,Hotel,,42.175874,-72.641177,
marriott.com,,7921 Gateway Promenade Place,Gainesville,Virginia,20155,USA,,+1 703-753-0121,Hotel,,38.787756,-77.605733,
marriott.com,,45020 Aviation Drive,Dulles,Virginia,20166,USA,,+1 703-471-9500,Hotel,,38.959098,-77.448125,
marriott.com,,1025 Interstate Parkway,Akron,Ohio,44312,USA,,+1 330-245-0041,Hotel,,40.978984,-81.487531,
marriott.com,,102 East Cass Street,Tampa,Florida,33602,USA,,+1 813-229-1100,Hotel,,27.950821,-82.461046,
marriott.com,,2001 Meridian Blvd.,Franklin,Tennessee,37067,USA,,+1 615-778-0080,Hotel,,35.950889,-86.806773,
marriott.com,,50 N. Clovis Ave.,Clovis,California,93612,USA,,+1 559-323-8080,Hotel,,36.831307,-119.700076,
marriott.com,,1410 Dry Creek Drive,Longmont,Colorado,80503,USA,,+1 303-682-1166,Hotel,,40.140206,-105.1337,
marriott.com,,1505 East Franklin Street,Chapel Hill,North Carolina,27514,USA,,+1 919-929-4000,Hotel,,35.930396,-79.034532,
marriott.com,,600 Bair Island Road,Redwood City,California,94063,USA,,+1 650-216-9435,Hotel,,37.495839,-122.225147,
marriott.com,,Avenida Orellana 1172 y Avenida Amazonas,Quito,,,Ecuador,,+593 2-297-2000,Hotel,,-0.197045,-78.489109,
marriott.com,,2170 Lincoln Avenue,Montreal,,H3H 2N5,Canada,,+1 514-935-9224,Hotel,,45.491662,-73.585542,
marriott.com,,27477 Cabaret Drive,Novi,Michigan,48377,USA,,+1 248-735-7400,Hotel,,42.493831,-83.487007,
marriott.com,,Baron Van Reede Street,Oudtshoorn,,6620,South Africa,,+27 44 272 6161,Hotel,,-33.573125,22.206392,
marriott.com,,7750 Wolf River Blvd,Germantown,Tennessee,38138,USA,,+1 901-751-0230,Hotel,,35.114247,-89.809198,
marriott.com,,201 South Eleventh Street,Minneapolis,Minnesota,55403,USA,,+1 612-746-4600,Hotel,,44.971664,-93.272821,
marriott.com,,1820 Abriter Court,Naperville,Illinois,60563,USA,,+1 630-577-1820,Hotel,,41.803319,-88.128538,
marriott.com,,"38 Sinhwayeoksa-ro 304beon-gil, Andeok-myeon,Seogwipo-si",Jeju-do,,63522,South Korea,,+82 64-908-8888,Hotel,,33.302661,126.317956,
marriott.com,,"Boulevard Kukulcan KM 9, MZ 48 L-8-1, Zona Hotelera",Cancun,,77500,Mexico,,+52 998 848 9900,Hotel,,21.135563,-86.746523,
marriott.com,,588 Wentworth Rd.,New Castle,New Hampshire,03854,USA,,+1 603-422-7322,Hotel,,43.059582,-70.726659,
marriott.com,,8050 Harbour View Blvd,Suffolk,Virginia,23435,USA,,+1 757-483-5177,Hotel,,36.894872,-76.432535,
marriott.com,,300 Marriott Drive,Lincolnshire,Illinois,60069,USA,,+1 847-793-7500,Hotel,,42.195051,-87.932757,
marriott.com,,121 Northwest Point Boulevard,Elk Grove Village,Illinois,60007,USA,,+1 847-290-1600,Hotel,,42.036123,-87.977919,
marriott.com,,70 Orchard Park Drive,Greenville,South Carolina,29615,USA,,+1 864-234-0300,Hotel,,34.855511,-82.330697,
marriott.com,,521 North Rush Street,Chicago,Illinois,60611,USA,,+1 312-645-1500,Hotel,,41.891036,-87.625191,
marriott.com,,"Rua Professor Filadelfo Azevedo, 717   Vila Nova Conceicao",Sao Paulo,,04508-011,Brazil,,+55 11 3058-3000,Hotel,,-23.587818,-46.671199,
marriott.com,,2820 Merchants Mile,Columbus,Indiana,47201,USA,,+1 812-552-5333,Hotel,,39.197987,-85.956575,
marriott.com,,100 E Jefferson,Louisville,Kentucky,40202,USA,,+1 502-569-3553,Hotel,,38.253284,-85.75198,
marriott.com,,30100 Aurora Road,Solon,Ohio,44139,USA,,+1 440-248-9600,Hotel,,41.396898,-81.466113,
marriott.com,,"Paseo Republica Argentina, 4",San Sebastian,,20004,Spain,,+34 943 43 76 00,Hotel,,43.32116,-1.98073,
marriott.com,,1350 Broadfield Boulevard,Houston,Texas,77084,USA,,+1 281-398-3555,Hotel,,29.786661,-95.658146,
marriott.com,,8506 Fenton Street,Silver Spring,Maryland,20910,USA,,+1 301-589-4899,Hotel,,38.996702,-77.025293,
marriott.com,,Brussels National Airport,Brussels,,1930,Belgium,,+32 2 710 80 00,Hotel,,50.89689,4.483688,
marriott.com,,4081 2nd Avenue South,Lethbridge,,T1J 1Z2,Canada,,+1 587-425-0388,Hotel,,49.696946,-112.781629,
marriott.com,,2929 Green Mountain Drive,Branson,Missouri,65616,USA,,+1 417-348-3100,Hotel,,36.631746,-93.272496,
marriott.com,,42700 W 11 Mile Road,Novi,Michigan,48375,USA,,+1 248-380-1234,Hotel,,42.481424,-83.467323,
marriott.com,,91 Hall Street,Concord,New Hampshire,03301,USA,,+1 603-226-0012,Hotel,,43.188052,-71.525012,
marriott.com,,1050 Bay Area Boulevard,Houston,Texas,77058,USA,,+1 281-286-2132,Hotel,,29.555787,-95.118535,
marriott.com,,191 Cochran Street,Simi Valley,California,93065,USA,,+1 805-915-5000,Hotel,,34.281191,-118.793628,
marriott.com,,4860 West Kennedy Boulevard,Tampa,Florida,33609,USA,,+1 866-915-1557,Hotel,,27.943724,-82.525078,
marriott.com,,450 Eldridge Avenue,Orange Park,Florida,32073,USA,,+1 904-278-7442,Hotel,,30.187047,-81.705681,
marriott.com,,2110 Market Center Boulevard at Stemmons,Dallas,Texas,75207,USA,,+1 214-760-8800,Hotel,,32.798675,-96.825381,
marriott.com,,2300 Elm Hill Pike,Nashville,Tennessee,37214,USA,,+1 615-889-8600,Hotel,,36.153284,-86.68676,
marriott.com,,8800 Northpark Drive,Johnston,Iowa,50131,USA,,+1 515-727-4066,Hotel,,41.653477,-93.739701,
marriott.com,,"No. 1 Xiaojing Bay, Xiachong, Daya Bay",Huizhou,,516082,China,,+86 752 555 6000,Hotel,,22.791059,114.693146,
marriott.com,,2500 48th Avenue NE,Calgary,,T3J 4V8,Canada,,+1 403-238-1000,Hotel,,51.096111,-113.998711,
marriott.com,,10610 Westpark Drive,Houston,Texas,77042,USA,,+1 713-266-2210,Hotel,,29.722284,-95.558936,
marriott.com,,3299 Caroga Drive,Mississauga,,L4V 1A3,Canada,,+1 905-673-9800,Hotel,,43.689688,-79.606408,
marriott.com,,3425 Solano Avenue,Napa,California,94558,USA,,+1 707-253-8600,Hotel,,38.321729,-122.310875,
marriott.com,,109 East 7th Street,Austin,Texas,78701,USA,,+1 512-476-2222,Hotel,,30.26889,-97.742251,
marriott.com,,901 West Olympic Boulevard,Los Angeles,California,90015,USA,,+1 213-443-9200,Hotel,,34.0457,-118.2658,
marriott.com,,3635 Fashion Way,Torrance,California,90503,USA,,+1 310-316-3636,Hotel,,33.835903,-118.350066,
marriott.com,,2785 Freeport Road,Pittsburgh,Pennsylvania,15238,USA,,+1 412-423-1900,Hotel,,40.538717,-79.832572,
marriott.com,,105 S Franklin,Bloomington,Indiana,47404,USA,,+1 812-334-1234,Hotel,,39.168304,-86.570913,
marriott.com,,"No 1 Lane 888 Haijiang Road, Baoshan District",Shanghai,,200940,China,,+86 21 6077 1818,Hotel,,31.391742,121.483925,
marriott.com,,,,,,,,,Hotel,,,,
marriott.com,,Platz der Deutschen Einheit 2,Hamburg,,20457,Germany,,+49 40 8000100,Hotel,,53.541378,9.984298,
marriott.com,,2505 S I H-35,Round Rock,Texas,78664,USA,,+1 512-733-2400,Hotel,,30.486486,-97.673851,
marriott.com,,7901 NW Tiffany Springs Parkway,Kansas City,Missouri,64153,USA,,+1 816-891-7500,Hotel,,39.272635,-94.67106,
marriott.com,,8876 Old Lee Highway,Ooltewah,Tennessee,37363,USA,,+1 423-301-5669,Hotel,,35.08428,-85.069797,
marriott.com,,151 Douglas Avenue,Altamonte Springs,Florida,32714,USA,,+1 321-316-3111,Hotel,,28.663319,-81.389786,
marriott.com,,1294 South Interstate Drive,Cedar City,Utah,84720,USA,,+1 435-867-7300,Hotel,,37.655453,-113.080486,
marriott.com,,17240 Wright Street,Omaha,Nebraska,68130,USA,,+1 402-504-9444,Hotel,,41.233247,-96.184836,
marriott.com,,228 Macalister Road,George Town,,10400,Malaysia,,+60 4-228 3888,Hotel,,5.4192,100.3188,
marriott.com,,100 Cyberport Road,Hong Kong,,,China,,+852 2980 7788,Hotel,,22.262099,114.12956,
marriott.com,,3003 Colby Avenue,Everett,Washington,98201,USA,,+1 425-259-2200,Hotel,,47.9774,-122.208192,
marriott.com,,9075 South Dadeland Blvd,Miami,Florida,33156,USA,,+1 305-670-1220,Hotel,,25.686069,-80.314043,
marriott.com,,2410 North Yager Road,Fremont,Nebraska,68025,USA,,+1 402-620-4680,Hotel,,41.452836,-96.482608,
marriott.com,,5368 Cardinal Square Boulevard,Saginaw,Michigan,48604,USA,,+1 989-792-2200,Hotel,,43.484446,-83.968838,
marriott.com,,11 Monroe Avenue NW,Grand Rapids,Michigan,49503,USA,,+1 616-242-6000,Hotel,,42.963348,-85.673337,
marriott.com,,1599 Grafton St.,Halifax,,B3J 2C3,Canada,,+1 902-422-0493,Hotel,,44.645904,-63.574882,
marriott.com,,1245 Los Vallecitos Boulevard,San Marcos,California,92069,USA,,+1 760-591-9828,Hotel,,33.144866,-117.189613,
marriott.com,,2525 South Rd,Poughkeepsie,New York,12601,USA,,+1 845-463-4343,Hotel,,41.662419,-73.930207,
marriott.com,,No. 78 Sanya Bay Road,Sanya Bay,,572000,China,,+86 898 8888 8588,Hotel,,18.262777,109.488892,
marriott.com,,17450 Fox Drive,Livonia,Michigan,48152,USA,,+1 734-542-7400,Hotel,,42.412347,-83.429142,
marriott.com,,Grosse Bleichen,Hamburg,,20354,Germany,,+49 40 349180,Hotel,,53.552524,9.987841,
marriott.com,,1100 North Mathilda Avenue,Sunnyvale,California,94089,USA,,+1 408-745-6000,Hotel,,37.404,-122.026472,
marriott.com,,720 East Vista Ridge Mall Drive,Lewisville,Texas,75067,USA,,+1 972-221-2999,Hotel,,32.998072,-96.968668,
marriott.com,,1014 Wylie Drive,Bloomington,Illinois,61705,USA,,+1 309-827-8000,Hotel,,40.488569,-89.036775,
marriott.com,,Heilbronner Strasse 70,Stuttgart,,70191,Germany,,+49 711 87875000,Hotel,,48.790823,9.181607,
marriott.com,,42600 W 11 Mile Road,Novi,Michigan,48375,USA,,+1 248-305-5533,Hotel,,42.481472,-83.467324,
marriott.com,,111 Chestnut Street,Fort Collins,Colorado,80524,USA,,+1 970-490-2600,Hotel,,40.58755,-105.073861,
marriott.com,,1500 North East Coronado Drive,Blue Springs,Missouri,64014,USA,,+1 816-228-8100,Hotel,,39.026233,-94.242391,
marriott.com,,2700 Hoppe Trail,Round Rock,Texas,78681,USA,,+1 512-255-5551,Hotel,,30.53936,-97.693651,
marriott.com,,326 West 40th Street,New York,New York,10018,USA,,+1 212-967-8585,Hotel,,40.756446,-73.991871,
marriott.com,,3270 West State St,Olean,New York,14760,USA,,+1 716-372-7500,Hotel,,42.081338,-78.478325,
marriott.com,,1313 John Q Hammons Drive,Middleton,Wisconsin,53562,USA,,+1 608-831-2000,Hotel,,43.087166,-89.524546,
marriott.com,,321 W. Woodlawn Road,Charlotte,North Carolina,28217,USA,,+1 704-945-6800,Hotel,,35.180524662137,-80.888736471533,
marriott.com,,460 Bass Pro Drive Northwest,Altoona,Iowa,50009,USA,,+1 515-446-9888,Hotel,,41.653247,-93.514933,
marriott.com,,450 Century Parkway,Mount Laurel,New Jersey,08054,USA,,+1 856-778-8221,Hotel,,39.928284,-74.960247,
marriott.com,,Grna Gngen 1,Stockholm,,11149,Sweden,,+46 8 407 23 00,Hotel,,59.3247,18.0876,
marriott.com,,3214  South 79th East Avenue,Tulsa,Oklahoma,74145,USA,,+1 918-663-0000,Hotel,,36.116319,-95.890025,
marriott.com,,9003 Shadow Ridge Rd,Palm Desert,California,92211,USA,,+1 760-674-2600,Hotel,,33.782471,-116.384853,
marriott.com,,Pipers Way,Swindon,,SN3 1SH,United Kingdom,,+44 1793 512121,Hotel,,51.545415,-1.773304,
marriott.com,,97 Platinum Drive,Bridgeport,West Virginia,26330,USA,,+1 304-842-5200,Hotel,,39.280505,-80.276464,
marriott.com,,1 Johnson Street,Kingston,,K7L 5H7,Canada,,+1 613-549-8100,Hotel,,44.228205,-76.481054,
marriott.com,,2000 NW Executive Center Circle,Boca Raton,Florida,33431,USA,,+1 561-241-7070,Hotel,,26.368685,-80.122313,
marriott.com,,4385 Southside Boulevard,Jacksonville,Florida,32216,USA,,+1 904-997-6650,Hotel,,30.26616,-81.558141,
marriott.com,,11215 NE 124th Street,Kirkland,Washington,98034-4302,USA,,+1 425-602-3200,Hotel,,47.711045,-122.191403,
marriott.com,,120 National Business Parkway,Annapolis Junction,Maryland,20701,USA,,+1 301-498-7477,Hotel,,39.122367,-76.77802,
marriott.com,,305 Outlet Mall Blvd,St. Augustine,Florida,32084,USA,,+1 904-810-9892,Hotel,,29.92066,-81.409936,
marriott.com,,3377 Peachtree Road NE,Atlanta,Georgia,30326,USA,,+1 678-500-3100,Hotel,,33.847431,-84.366016,
marriott.com,,5901 Wayzata Blvd,St. Louis Park,Minnesota,55416,USA,,+1 952-738-7300,Hotel,,44.969931,-93.355531,
marriott.com,,7718 Front Beach Road,Panama City Beach,Florida,32407,USA,,+1 850-234-7422,Hotel,,30.187186,-85.769231,
marriott.com,,1008 Monterey Drive,Aiken,South Carolina,29803,USA,,+1 803-641-7373,Hotel,,33.5178561508655,-81.715244427323,
marriott.com,,"9 Namdaemun-ro, Jung-gu",Seoul,,04526,South Korea,,+82 2-2211-8000,Hotel,,37.561153,126.976972,
marriott.com,,"Kawasan Pariwisata, Nusa Dua, Lot S6, PO Box 44",Nusa Dua,,80363,Indonesia,,+62 361 8478111,Hotel,,-8.812646,115.226592,
marriott.com,,14402 Old St. Augustine Rd,Jacksonville,Florida,32258,USA,,+1 904-260-2027,Hotel,,30.140818,-81.534455,
marriott.com,,1041 E. Harriman Place,San Bernardino,California,92408,USA,,+1 909-382-4560,Hotel,,34.065703,-117.267733,
marriott.com,,"155/1 Soi Mahadlekluang 1, Ratchadamri Road",Bangkok,,10330,Thailand,,+66 2 690 1888,Hotel,,13.74103,100.54189,
marriott.com,,2620 32nd Avenue NE,Calgary,,T1Y 6B8,Canada,,+1 403-291-0107,Hotel,,51.0816,-114.0009,
marriott.com,,525 North 2nd Street,Minneapolis,Minnesota,55401,USA,,+1 612-340-1000,Hotel,,44.987123,-93.27378,
marriott.com,,292 Chezhan Avenue,Wenzhou,,325000,China,,+86 577 8888 5555,Hotel,,28.003837,120.679976,
marriott.com,,201 Retail Drive,Dothan,Alabama,36303,USA,,+1 334-944-6400,Hotel,,31.255506,-85.428622,
marriott.com,,800 Frank Sottile Boulevard,Kingston,New York,12401,USA,,+1 845-383-3695,Hotel,,41.969519,-73.983708,
marriott.com,,6141 Mercury Drive,Dearborn,Michigan,48126,USA,,+1 313-271-0200,Hotel,,42.333816,-83.212038,
marriott.com,,1590 North Military Highway,Norfolk,Virginia,23502,USA,,+1 757-333-3000,Hotel,,36.878874,-76.210908,
marriott.com,,1001 SW 2nd Avenue,Miami,Florida,33130,USA,,+1 305-854-6300,Hotel,,25.76409,-80.19699,
marriott.com,,660 Maryville Centre Drive,St. Louis,Missouri,63141,USA,,+1 314-878-2747,Hotel,,38.64166,-90.496638,
marriott.com,,2405 SE Creekview Drive,Ankeny,Iowa,50021,USA,,+1 515-422-5555,Hotel,,41.704969,-93.569368,
marriott.com,,"153, Convensia-Road, Yeonsu-Gu",Incheon,,21998,South Korea,,+82 32-835-1000,Hotel,,37.39055,126.645412,
marriott.com,,"1296 Ganjiang Road West, Gusu District",Suzhou,,215004,China,,+86 512 8225 8888,Hotel,,31.303469,120.581375,
marriott.com,,3000 Fairfield Lane,Ottawa,Illinois,61350,USA,,+1 815-431-8955,Hotel,,41.373056,-88.834722,
marriott.com,,914 Dallas Street,Houston,Texas,77002,USA,,+1 713-655-0002,Hotel,,29.754975,-95.366924,
marriott.com,,"Autopista Prospero Fernandez, Calle Marginal N, Plaza Itskatzu",San Jose,,10203,Costa Rica,,+506 2208 3000,Hotel,,9.943306,-84.145919,
marriott.com,,4100 Admiralty Way,Marina del Rey,California,90292,USA,,+1 310-301-3000,Hotel,,33.982285,-118.459409,
marriott.com,,2600 Louisiana Blvd NE,Albuquerque,New Mexico,87110,USA,,+1 505-881-0000,Hotel,,35.109322,-106.568885,
marriott.com,,220 South Hull Street,Athens,Georgia,30605,USA,,+1 706-850-2072,Hotel,,33.956147,-83.37845,
marriott.com,,11248 Lakeshore Reserve Drive,Orlando,Florida,32837,USA,,+1 407-393-6400,Hotel,,28.399706,-81.426136,
marriott.com,,300 South Charles Street,Baltimore,Maryland,21201,USA,,+1 410-962-8300,Hotel,,39.285449,-76.614756,
marriott.com,,,,,,,,,Hotel,,,,
marriott.com,,2 Dostyk Street,Nur-Sultan,,010016,Kazakhstan,,+7 717 262 0770,Hotel,,51.129244,71.408356,
marriott.com,,2960 Colonial Blvd.,Fort Myers,Florida,33966,USA,,+1 239-936-0110,Hotel,,26.597245,-81.851293,
marriott.com,,185 Beacon Hill Boulevard,New Cumberland,Pennsylvania,17070,USA,,+1 717-774-0100,Hotel,,40.215529,-76.878512,
marriott.com,,655 Creekside Way,Campbell,California,95008,USA,,+1 408-626-9590,Hotel,,37.292025,-121.934331,
marriott.com,,3265 NW 107th Avenue,Doral,Florida,33172,USA,,+1 786-272-7200,Hotel,,25.80362,-80.369132,
marriott.com,,100 College Road East,Princeton,New Jersey,08540,USA,,+1 609-452-7800,Hotel,,40.355577,-74.599372,
marriott.com,,7575 164th Ave. N.E.,Redmond,Washington,98052,USA,,+1 425-497-9226,Hotel,,47.672019,-122.121487,
marriott.com,,20 Telavi Street,Tbilisi,,0103,Georgia,,+995 322 77 20 20,Hotel,,41.688717,44.823083,
marriott.com,,7109 South Springs Drive,Franklin,Tennessee,37067,USA,,+1 615-435-8700,Hotel,,35.951436,-86.814015,
marriott.com,,1820 Checkered Flag Boulevard,Daytona Beach,Florida,32114,USA,,+1 386-254-4700,Hotel,,29.194293,-81.070541,
marriott.com,,6501 Mannheim Road,Rosemont,Illinois,60018,USA,,+1 847-699-6300,Hotel,,41.99695,-87.883755,
marriott.com,,5845 Dean Martin Drive,Las Vegas,Nevada,89118,USA,,+1 702-895-7519,Hotel,,36.085651,-115.18276,
marriott.com,,2045 Rue Peel,Montreal,,H3A 1T6,Canada,,+1 514-982-6064,Hotel,,45.501306,-73.575535,
marriott.com,,2811 Circleport Drive,Erlanger,Kentucky,41018,USA,,+1 859-282-7400,Hotel,,39.0516,-84.631931,
marriott.com,,4210 West Airport Freeway,Irving,Texas,75062,USA,,+1 214-441-9969,Hotel,,32.836042,-97.009853,
marriott.com,,1128 Ledsome Lane,Cary,North Carolina,27511,USA,,+1 919-977-7244,Hotel,,35.762047,-78.748939,
marriott.com,,10000 Ballantyne Commons Parkway,Charlotte,North Carolina,28277,USA,,+1 704-248-4000,Hotel,,35.0552,-80.846999,
marriott.com,,303 East Valley Boulevard,San Gabriel,California,91776,USA,,+1 626-639-0300,Hotel,,34.080365,-118.097331,
marriott.com,,One  Jay R. Turner Drive (Exit 104),Savannah,Georgia,31408,USA,,+1 912-330-5555,Hotel,,32.140689,-81.234316,
marriott.com,,4525 South Interstate Hwy 35,Austin,Texas,78744,USA,,+1 512-707-8899,Hotel,,30.210952,-97.753708,
marriott.com,,7539 Teague Road,Hanover,Maryland,21076,USA,,+1 410-694-9500,Hotel,,39.155606,-76.715745,
marriott.com,,2544 Southwest Boulevard,San Angelo,Texas,76901-5625,USA,,+1 325-949-6900,Hotel,,31.439676,-100.496308,
marriott.com,,201 Zhong Yang Road,Nanjing,,,China,,+86 25 8556 8888,Hotel,,32.072502,118.785639,
marriott.com,,Avenida Marina  N 15,Via del Mar,,,Chile,,+56 32 238 8600,Hotel,,-33.02106,-71.56832,
marriott.com,,7980 Howell Boulevard,Baton Rouge,Louisiana,70807,USA,,+1 225-356-6705,Hotel,,30.521267,-91.156757,
marriott.com,,521 West Dussel Dr,Maumee,Ohio,43537,USA,,+1 419-897-0865,Hotel,,41.580341,-83.681845,
marriott.com,,7615 SW Lost River Road,Stuart,Florida,34997,USA,,+1 772-781-3344,Hotel,,27.112192,-80.258411,
marriott.com,,Carretera Costera Norte Km 4.8,San Miguel de Cozumel,,77613,Mexico,,+52 987 872 9200,Hotel,,20.547698,-86.928159,
marriott.com,,400 West Peachtree Street NW,Atlanta,Georgia,30308,USA,,+1 404-418-1212,Hotel,,33.765428,-84.387775,
marriott.com,,"15220 NE Shen Street, Suite 150",Redmond,Washington,98052,USA,,+1 425-636-9922,Hotel,,47.635471,-122.1371,
marriott.com,,3800 State Highway,Eastham,Massachusetts,02642,USA,,+1 508-255-5000,Hotel,,41.845631,-69.9848,
marriott.com,,1741 West Nursery Road,Linthicum,Maryland,21090,USA,,+1 410-691-6969,Hotel,,39.195559,-76.679399,
marriott.com,,Avenida Diagonal 161-163,Barcelona,,8018,Spain,,+34 934 86 88 00,Hotel,,41.405378,2.196316,
marriott.com,,14635 Baldwin Park Towne Center,Baldwin Park,California,91706,USA,,+1 626-962-6000,Hotel,,34.071579,-117.958815,
marriott.com,,3209 South Atlantic Avenue,Daytona Beach Shores,Florida,32118,USA,,+1 386-944-2000,Hotel,,29.159761,-80.973321,
marriott.com,,12833 Ranch Road 620 North,Austin,Texas,78750,USA,,+1 512-580-0083,Hotel,,30.465947,-97.801203,
marriott.com,,1434 Centre Place Drive,Denton,Texas,76205,USA,,+1 940-383-4100,Hotel,,33.199311,-97.129226,
marriott.com,,"No.66 Li De Street, Xiaoguwei",Guangzhou,,510006,China,,+86 20 3100 0888,Hotel,,23.039471,113.406193,
marriott.com,,"No. 1669 Hong Gu Middle Avenue, Hong Gu Tan New District",Nanchang,,330038,China,,+86 791 8222 2228,Hotel,,28.691353,115.867799,
marriott.com,,2659 Roanoke Street,Christiansburg,Virginia,24073,USA,,+1 540-381-9596,Hotel,,37.136206,-80.35255,
marriott.com,,99 South 17th Street at Liberty Place,Philadelphia,Pennsylvania,19103,USA,,+1 215-563-1600,Hotel,,39.951896,-75.168393,
marriott.com,,12655 Southwest Freeway,Stafford,Texas,77477,USA,,+1 281-491-7700,Hotel,,29.637553,-95.582521,
marriott.com,,100 Westgate Circle,Annapolis,Maryland,21401,USA,,+1 410-972-4300,Hotel,,38.976675,-76.504417,
marriott.com,,7272 Huntington Park Drive,Columbus,Ohio,43235,USA,,+1 614-885-1557,Hotel,,40.114855,-83.006025,
marriott.com,,"101 Nanjing Road, Heping District",Tianjin,,300040,China,,+86 22 2389 0088,Hotel,,39.117326,117.204155,
marriott.com,,Al. Jana Pawla II 21,Warsaw,,00-854,Poland,,+48 22 450 80 00,Hotel,,52.235381,20.996915,
marriott.com,,1383 Washington Avenue,Albany,New York,12206,USA,,+1 518-435-1800,Hotel,,42.687671,-73.816866,
marriott.com,,Paseo Taulat 278,Barcelona,,08019,Spain,,+34 934 89 82 00,Hotel,,41.411136,2.219227,
marriott.com,,"Bath Road, Heathrow Airport",Hayes,,UB3 5AN,United Kingdom,,+44 20 8990 1100,Hotel,,51.481015,-0.438144,
marriott.com,,Calle 73 Nr 8-60,Bogota,,,Colombia,,+57 1 4816000,Hotel,,4.6569,-74.055625,
marriott.com,,Piazza di Pasquino 69,Rome,,00186,Italy,,+39 06 6880 1085,Hotel,,41.8979,12.4719,
marriott.com,,823-827 Washington Avenue,St. Louis,Missouri,63101,USA,,+1 314-231-7560,Hotel,,38.6310238,-90.1924921,
marriott.com,,4101 Fountain Square Place,Waukegan,Illinois,60085,USA,,+1 847-688-9800,Hotel,,42.344668,-87.901686,
marriott.com,,141 Furrow Way,Alcoa,Tennessee,37701,USA,,+1 865-977-8333,Hotel,,35.808181,-83.982361,
marriott.com,,3090 West County Line Road,Littleton,Colorado,80129,USA,,+1 303-791-3010,Hotel,,39.565897,-105.023242,
marriott.com,,400 West Sproul Road,Springfield,Pennsylvania,19064,USA,,+1 610-543-1080,Hotel,,39.926141,-75.351331,
marriott.com,,4021 NW 11th Street,Miami,Florida,33126,USA,,+1 305-779-0900,Hotel,,25.782956,-80.262431,
marriott.com,,8585 Marriott Drive,San Antonio,Texas,78229,USA,,+1 210-614-7100,Hotel,,29.518049,-98.571501,
marriott.com,,511 Lexington Avenue at 48th Street,New York,New York,10017,USA,,+1 212-755-4400,Hotel,,40.755013,-73.973252,
marriott.com,,5011 Westheimer at Post Oak,Houston,Texas,77056,USA,,+1 713-960-8100,Hotel,,29.740655,-95.461085,
marriott.com,,2649 South Bayshore Drive,Miami,Florida,33133,USA,,+1 305-858-2500,Hotel,,25.731177,-80.235257,
marriott.com,,725 Centre of New England Boulevard,West Greenwich,Rhode Island,02817,USA,,+1 401-828-1170,Hotel,,41.661146,-71.553462,
marriott.com,,7241 Tres Hermanas Boulevard,Odessa,Texas,79765,USA,,+1 432-563-1400,Hotel,,31.909084,-102.297379,
marriott.com,,2400 East Campus Drive,Mount Pleasant,Michigan,48858,USA,,+1 989-773-1444,Hotel,,43.578789,-84.769183,
marriott.com,,4300 International Gateway,Columbus,Ohio,43219,USA,,+1 614-237-2100,Hotel,,39.998683,-82.889803,
marriott.com,,"Jabal Al Kaaba, Makkah Al Mukarramah",Makkah,,24231,Saudi Arabia,,+966 12 551 8900,Hotel,,21.426273,39.819497,
marriott.com,,"Arroyo de Santo Domingo, 3",Salamanca,,37001,Spain,,+34 923 26 22 96,Hotel,,40.959327,-5.664561,
marriott.com,,,,,,,,,Hotel,,,,
marriott.com,,"102 Constitution Avenue, The Point",Littleton,Massachusetts,01460,USA,,+1 978-440-5040,Hotel,,42.551117,-71.478492,
marriott.com,,"Maude Street, Sandown",Sandton,,2126,South Africa,,+27 11 322 5000,Hotel,,-26.1038,28.058167,
marriott.com,,"Luis Fuentes Bejarano, 45",Seville,,41020,Spain,,+34 954 26 06 90,Hotel,,37.407912,-5.945878,
marriott.com,,944 Collins Avenue,Miami Beach,Florida,33139,USA,,+1 305-673-2262,Hotel,,25.780085,-80.132118,
marriott.com,,9425 N. Black Canyon Highway,Phoenix,Arizona,85021,USA,,+1 602-943-0010,Hotel,,33.571672,-112.116812,
marriott.com,,5211 Forest Drive,New Albany,Ohio,43054,USA,,+1 614-855-1505,Hotel,,40.0892181396484,-82.791320800781,
marriott.com,,22595 Shaw Road,Sterling,Virginia,20166,USA,,+1 703-444-3944,Hotel,,38.991103,-77.428801,
marriott.com,,"Peterborough Business Park, Lynch Wood",Peterborough,,PE2 6GB,United Kingdom,,+44 1733 371111,Hotel,,52.550634,-0.323464,
marriott.com,,Avenue des Olympiades 6,Brussels,,1140,Belgium,,+32 2 337 08 08,Hotel,,50.869938,4.405477,
marriott.com,,2006 Edwin C Moses Boulevard,Dayton,Ohio,45417,USA,,+1 937-220-9060,Hotel,,39.732712,-84.202414,
marriott.com,,Ave. Presidente Masaryk 390,Mexico City,,11560,Mexico,,+52 55 3300 3900,Hotel,,19.432932,-99.197182,
marriott.com,,601 West McKinley Avenue,Pomona,California,91768,USA,,+1 909-622-2220,Hotel,,34.077981,-117.760434,
marriott.com,,"Corredor Turistico KM 10, Lote D, Cabo Del Sol",Los Cabos,,23450,Mexico,,+52 624 145 8000,Hotel,,22.915333,-109.836072,
marriott.com,,4170 Steels Pointe,Stow,Ohio,44224,USA,,+1 330-940-1450,Hotel,,41.182002,-81.481468,
marriott.com,,720 University Drive East,College Station,Texas,77840,USA,,+1 979-268-2200,Hotel,,30.633385,-96.328658,
marriott.com,,"109 West Jiangyang Road, Hanjiang District",Yangzhou,,225009,China,,+86 514 8556 8000,Hotel,,32.37,119.38,
marriott.com,,Estrada do Istmo s/n,Cotai,,,Macau,,+853 2882 8898,Hotel,,22.147397,113.565679,
marriott.com,,675 El Camino Real,Palo Alto,California,94301,USA,,+1 650-321-4422,Hotel,,37.440045,-122.162921,
marriott.com,,515 Queen Street,Brisbane,,4000,Australia,,+61 7 3303 8000,Hotel,,-27.463762,153.031929,
marriott.com,,895 Bob Arnold Boulevard,Lithia Springs,Georgia,30122,USA,,+1 770-635-6600,Hotel,,33.767708,-84.601617,
marriott.com,,"Sungai Melinau, PO Box 1145",Mulu,,98008,Malaysia,,+60 85-792 388,Hotel,,4.029403,114.8008,
marriott.com,,1001 N Westshore Boulevard,Tampa,Florida,33607,USA,,+1 813-287-2555,Hotel,,27.953375,-82.523888,
marriott.com,,7807 Leonardo Drive,Durham,North Carolina,27713,USA,,+1 919-806-8200,Hotel,,35.901678,-78.958671,
marriott.com,,12260 Morris Bridge Road,Temple Terrace,Florida,33637,USA,,+1 813-989-0007,Hotel,,28.064906,-82.35446,
marriott.com,,2275 Interstate 10 South,Beaumont,Texas,77705,USA,,+1 409-840-5750,Hotel,,30.054015,-94.139621,
marriott.com,,300 SW 19th Street,Renton,Washington,98057,USA,,+1 425-917-2000,Hotel,,47.462766,-122.221741,
marriott.com,,3201 East Centrelake Drive,Ontario,California,91761,USA,,+1 909-390-9855,Hotel,,34.065951,-117.582349,
marriott.com,,"18-1 LuXun Road, Zhongshan District",Dalian,,116001,China,,+86 411 3907 1111,Hotel,,38.922508,121.646179,
marriott.com,,900 El Camino Real,Atascadero,California,93422,USA,,+1 805-462-3500,Hotel,,35.527427,-120.703106,
marriott.com,,95 Henry Street,New York,New York,10002,USA,,+1 212-227-0709,Hotel,,40.713227,-73.992893,
marriott.com,,3400 Market Street,Riverside,California,92501,USA,,+1 951-784-8000,Hotel,,33.986393,-117.373113,
marriott.com,,184 Tunnel Road,Asheville,North Carolina,28805,USA,,+1 828-274-2001,Hotel,,35.587969,-82.528325,
marriott.com,,400 Royal Hawaiian Avenue,Honolulu,Hawaii,96815,USA,,+1 808-954-4000,Hotel,,21.28082,-157.827736,
marriott.com,,"48 Charilaou Trikoupi str., Kifissia",Athens,,145 62,Greece,,+30 21 0628 4400,Hotel,,38.0744,23.82115,
marriott.com,,"1 Vryssi, Mykonos Town",Mykonos,,84600,Greece,,+30 2289 023415,Hotel,,37.436857,25.329701,
marriott.com,,300 East 9th St.,Coralville,Iowa,52241,USA,,+1 319-688-4000,Hotel,,41.681771,-91.55883,
marriott.com,,6021 Lima Road,Fort Wayne,Indiana,46818,USA,,+1 260-442-3040,Hotel,,41.133856,-85.162135,
marriott.com,,475 White Plains Road,Tarrytown,New York,10591,USA,,+1 914-631-1122,Hotel,,41.063473,-73.843982,
marriott.com,,2650 South Beulah Boulevard,Flagstaff,Arizona,86001,USA,,+1 928-774-5800,Hotel,,35.174887,-111.663553,
marriott.com,,10220 Regency Circle,Omaha,Nebraska,68114,USA,,+1 402-399-9000,Hotel,,41.260737,-96.072358,
marriott.com,,"Avenida 5ta A 76 - 80, Miramar District",Havana,,,Cuba,,+53 7 2141470,Hotel,,23.106782,-82.439604,
marriott.com,,2401 Music Valley Drive,Nashville,Tennessee,37214,USA,,+1 615-889-0800,Hotel,,36.217762,-86.696029,
marriott.com,,1014 Dockside Road,London,,E16 2FQ,United Kingdom,,+44 20 7031 1683,Hotel,,51.50829,0.04221,
marriott.com,,"Via Lombarda 5702, Plaza Citadela D1, Col Saucito",Chihuahua,,31110,Mexico,,+52 614 311 0200,Hotel,,28.66259,-106.127826,
marriott.com,,2421 South Acadian Thruway,Baton Rouge,Louisiana,70808,USA,,+1 225-924-6400,Hotel,,30.423449,-91.151224,
marriott.com,,7048 West Grandridge Boulevard,Kennewick,Washington,99336,USA,,+1 509-820-3026,Hotel,,46.21775,-119.217289,
marriott.com,,2662 Route 130,Cranbury,New Jersey,08512,USA,,+1 609-395-9447,Hotel,,40.318798,-74.508143,
marriott.com,,17369 Chesterfield Airport Road,Chesterfield,Missouri,63005,USA,,+1 636-778-3230,Hotel,,38.669983,-90.6037,
marriott.com,,2009 South National Avenue,Springfield,Missouri,65807,USA,,+1 417-881-8118,Hotel,,37.17772,-93.277131,
marriott.com,,13942 Village Lake Circle,Jacksonville,Florida,32258,USA,,+1 904-440-0500,Hotel,,30.139069,-81.54405,
marriott.com,,3929 NW 79th Avenue,Miami,Florida,33166,USA,,+1 305-477-8118,Hotel,,25.809666,-80.325326,
marriott.com,,4930 East 2nd Street,Casper,Wyoming,82609,USA,,+1 307-234-9008,Hotel,,42.847751,-106.260228,
marriott.com,,"86 Moo 3 Chaweng Noi Beach, Bophut",Koh Samui,,84320,Thailand,,+66 77 422 020,Hotel,,9.503879,100.055602,
marriott.com,,1250 Columbus Avenue,San Francisco,California,94133,USA,,+1 415-775-7555,Hotel,,37.805616,-122.417726,
marriott.com,,1121 15th Street,Sacramento,California,95814,USA,,+1 916-443-0500,Hotel,,38.576488,-121.487371,
marriott.com,,3 Eagle Road,Danbury,Connecticut,06810,USA,,+1 203-730-2228,Hotel,,41.410733,-73.415695,
marriott.com,,500 Westage Business Center Drive,Fishkill,New York,12524,USA,,+1 845-896-7200,Hotel,,41.524559,-73.89576,
marriott.com,,39 Avenue de Wagram,Paris,,75 017,France,,+33 1 55 37 55 37,Hotel,,48.87714,2.297179,
marriott.com,,"Av 31 Poniente 3333, Esq Blvd. Atlixco",Puebla,,72400,Mexico,,+52 222 477 2100,Hotel,,19.046223,-98.233932,
marriott.com,,2440 Maryland Road,Willow Grove,Pennsylvania,19090,USA,,+1 215-885-1130,Hotel,,40.160564,-75.132842,
marriott.com,,1385 Broadcloth Street,Fort Mill,South Carolina,29715,USA,,+1 803-548-0156,Hotel,,35.026967,-80.963978,
marriott.com,,1580 North Freedom Boulevard,Provo,Utah,84604,USA,,+1 801-373-0073,Hotel,,40.255175,-111.661705,
marriott.com,,5000 Express Drive South,Ronkonkoma,New York,11779,USA,,+1 631-612-5000,Hotel,,40.812346,-73.101683,
marriott.com,,2363 Stemmons Trail,Dallas,Texas,75220,USA,,+1 214-350-2300,Hotel,,32.856188,-96.886104,
marriott.com,,8800 Wickham Road,Romulus,Michigan,48174,USA,,+1 734-729-9000,Hotel,,42.241318,-83.347603,
marriott.com,,,,,,,,,Hotel,,,,
marriott.com,,Ave. Hidalgo 310 Oriente,Monterrey,,64000,Mexico,,+52 81 8380 7000,Hotel,,25.666712,-100.313413,
marriott.com,,"Building 894, Road 2414, Block 324, Al Fateh",Manama,,76151,Bahrain,,+973 1736 2900,Hotel,,26.219457,50.604734,
marriott.com,,1040 Waterwood Drive,Richardson,Texas,75082,USA,,+1 972-669-5888,Hotel,,32.98172,-96.707754,
marriott.com,,135 Southland Drive SE,Calgary,,T2J 5X5,Canada,,+1 403-278-5050,Hotel,,50.964786,-114.069147,
marriott.com,,1100 Airport Center Drive,Nashville,Tennessee,37214,USA,,+1 615-884-6111,Hotel,,36.145515,-86.662997,
marriott.com,,4415 Broadway,Quincy,Illinois,62305,USA,,+1 217-223-5922,Hotel,,39.935064,-91.346574,
marriott.com,,"No 999 TianFu Avenue North, High-Tech Zone",Chengdu,,610041,China,,+86 28 8808 8888,Hotel,,30.592842,104.076304,
marriott.com,,148 Highway 11 & 80,Meridian,Mississippi,39301,USA,,+1 601-453-3851,Hotel,,32.372691,-88.668481,
marriott.com,,1 Amiryan Street,Yerevan,,0010,Armenia,,+374 10 599000,Hotel,,40.17784,44.511505,
marriott.com,,550 Army Navy Drive,Arlington,Virginia,22202,USA,,+1 703-413-6630,Hotel,,38.864996,-77.055489,
marriott.com,,"No 6 Shuli Road, Suzhou Taihu National Tourism Vacation Zone",Suzhou,,215164,China,,+86 512 6569 6666,Hotel,,31.223286,120.388094,
marriott.com,,,,,,,,,Hotel,,,,
marriott.com,,1920 SW Fountainview Boulevard,Port St. Lucie,Florida,34986,USA,,+1 772-344-7814,Hotel,,27.309509,-80.410089,
marriott.com,,3031-41 North Roosevelt Boulevard,Key West,Florida,33040,USA,,+1 305-296-6595,Hotel,,24.567304,-81.770301,
marriott.com,,1530 Howe Avenue,Sacramento,California,95825,USA,,+1 916-920-9111,Hotel,,38.592953,-121.41541,
marriott.com,,7 Concourse Parkway NE,Atlanta,Georgia,30328,USA,,+1 770-395-3900,Hotel,,33.915278,-84.352912,
marriott.com,,"Vommuli Island, Dhaalu Atoll",Vommuli,,,Maldives,,+960 676-6333,Hotel,,2.910811,72.865534,
marriott.com,,"Marine Drive, Summerstrand",Port Elizabeth,,6001,South Africa,,+27 41 583 2101,Hotel,,-33.98405,25.666767,
marriott.com,,1620 Rue Notre-Dame Centre,Trois-Rivires,,G9A 6E5,Canada,,+1 819-376-1991,Hotel,,46.340332,-72.542192,
marriott.com,,600 East Van Asche Drive,Fayetteville,Arkansas,72703,USA,,+1 479-571-4900,Hotel,,36.117531,-94.150135,
marriott.com,,"12600 Roosevelt Boulevard, North",St. Petersburg,Florida,33716,USA,,+1 727-572-7800,Hotel,,27.886045,-82.669883,
marriott.com,,13501 Lyndhurst Street,Austin,Texas,78717,USA,,+1 512-257-0600,Hotel,,30.474858,-97.782519,
marriott.com,,1385 Enterprise Way,Huntsville,Alabama,35806,USA,,+1 256-971-0921,Hotel,,34.742496,-86.678039,
marriott.com,,100 Southborough Drive,South Portland,Maine,04106,USA,,+1 207-253-5005,Hotel,,43.628293,-70.34229,
marriott.com,,901 W Carl Sandburg Drive,Galesburg,Illinois,61401,USA,,+1 309-344-1911,Hotel,,40.973793,-90.38418,
marriott.com,,Halfhide Lane Turnford,Broxbourne,,EN10 6NG,United Kingdom,,+44 1992 451245,Hotel,,51.72055,-0.031977,
marriott.com,,2021 Cornell Road,Cleveland,Ohio,44106,USA,,+1 216-791-5678,Hotel,,41.507756486535,-81.605535373091,
marriott.com,,2000 East Mariposa Avenue,El Segundo,California,90245,USA,,+1 310-322-0700,Hotel,,33.922945,-118.392084,
marriott.com,,1 North Broadway Avenue,Oklahoma City,Oklahoma,73102,USA,,+1 405-235-2780,Hotel,,35.466646,-97.514656,
marriott.com,,1001 South Hamilton Road,Chapel Hill,North Carolina,27517,USA,,+1 919-932-7772,Hotel,,35.90752,-79.02335,
marriott.com,,"CTRA  MA 19 SALIDA 20, Tourism Registry License   A/2178",Llucmajor,,07620,Spain,,+34 971 70 52 00,Hotel,,39.473744,2.830022,
marriott.com,,"Ring Road- Mirage City- P.O.Box 427, Heliopolis",Cairo,,11757,Egypt,,+20 2 24115588,Hotel,,30.071958,31.43415,
marriott.com,,Piazza Duca D'Aosta 9,Milan,,20124,Italy,,+39 02 67851,Hotel,,45.48544,9.201329,
marriott.com,,1350 West Joe Harvey Boulevard,Hobbs,New Mexico,88240,USA,,+1 575-393-0667,Hotel,,32.740331,-103.1449,
marriott.com,,ABC Strasse 52,Hamburg,,20354,Germany,,+49 40 35050,Hotel,,53.554559,9.987275,
marriott.com,,601 From Road,Paramus,New Jersey,07652,USA,,+1 201-262-6900,Hotel,,40.960314,-74.067192,
marriott.com,,2117 South 10th Street,McAllen,Texas,78503,USA,,+1 956-971-9444,Hotel,,26.184102,-98.233311,
marriott.com,,5305 Marriott Lane,Hume,Virginia,22639,USA,,+1 540-364-2627,Hotel,,38.821991,-78.055412,
marriott.com,,801 Truxtun Avenue,Bakersfield,California,93301,USA,,+1 661-323-1900,Hotel,,35.373144,-119.010597,
marriott.com,,500 South Legacy Trail,St. Augustine,Florida,32092,USA,,+1 904-940-8000,Hotel,,29.990157,-81.467665,
marriott.com,,5020 Cowhorn Creek Loop,Texarkana,Texas,75503,USA,,+1 903-334-8800,Hotel,,33.46204,-94.078916,
marriott.com,,15W90 N Frontage Rd,Burr Ridge,Illinois,60527,USA,,+1 630-323-7530,Hotel,,41.762202,-87.916998,
marriott.com,,407 Riverwind Drive,Pearl,Mississippi,39208,USA,,+1 601-936-3434,Hotel,,32.268173,-90.135712,
marriott.com,,1800 Central Boulevard,Harvey,Louisiana,70058,USA,,+1 504-495-1144,Hotel,,29.87843,-90.05214,
marriott.com,,7979 Essen Park Avenue,Baton Rouge,Louisiana,70809,USA,,+1 225-766-5252,Hotel,,30.404386,-91.10135,
marriott.com,,"100 Nohea Kai Drive, Marriott Vacation Club Hawaii Tax ID # TA-070-692-2496-02",Lahaina - Maui,Hawaii,96761,USA,,+1 808-667-1200,Hotel,,20.916599,-156.694926,
marriott.com,,Jalan Embong Malang 85-89,Surabaya,,60261,Indonesia,,+62 31 5458888,Hotel,,-7.260116,112.734968,
marriott.com,,"Umm Al Qura, PO Box 2036",Makkah,,21955,Saudi Arabia,,+966 12 529 6666,Hotel,,21.423648,39.818809,
marriott.com,,16850 I-45 South,The Woodlands,Texas,77384,USA,,+1 936-271-0110,Hotel,,30.207708,-95.457118,
marriott.com,,3299 Holiday Court,La Jolla,California,92037,USA,,+1 858-453-5500,Hotel,,32.870599,-117.2322,
marriott.com,,30 Eastern Avenue,Chelsea,Massachusetts,02150,USA,,+1 617-887-0290,Hotel,,42.38742,-71.023925,
marriott.com,,3908 Arrow Drive,Raleigh,North Carolina,27612,USA,,+1 919-782-6868,Hotel,,35.836049,-78.673773,
marriott.com,,5001 North Cowhorn Creek Loop,Texarkana,Texas,75503,USA,,+1 903-334-7400,Hotel,,33.461791,-94.079858,
marriott.com,,5270 Cardinal Square Boulevard,Saginaw,Michigan,48604,USA,,+1 989-792-2800,Hotel,,43.484072,-83.969068,
marriott.com,,11920 Dublin Canyon Road,Pleasanton,California,94588,USA,,+1 925-227-0500,Hotel,,37.694786,-121.935187,
marriott.com,,1901 South Mountain Road,Tucumcari,New Mexico,88401,USA,,+1 575-461-7929,Hotel,,35.160036,-103.703756,
marriott.com,,"Al Multaqa Street, Post Office Box 414433",Dubai,,,United Arab Emirates,,+971 4 403 3111,Hotel,,25.208306,55.26065,
marriott.com,,30 Old Ridgebury Rd,Danbury,Connecticut,06810,USA,,+1 203-744-7333,Hotel,,41.386175,-73.515184,
marriott.com,,1117 South College Street,Auburn,Alabama,36832,USA,,+1 334-466-8390,Hotel,,32.583817,-85.490128,
marriott.com,,"Lote H-4, Carretera Federal 200, km 19.5",Punta de Mita,,63734,Mexico,,+52 329 291 5800,Hotel,,20.76791,-105.538033,
marriott.com,,2615 Ruth Street,Sulphur,Louisiana,70665,USA,,+1 337-528-2629,Hotel,,30.214042,-93.376186,
marriott.com,,4050 Northwest Avenue,Bellingham,Washington,98226,USA,,+1 360-714-9700,Hotel,,48.788788,-122.506555,
marriott.com,,2101 West Vineyard Ave.,Oxnard,California,93036,USA,,+1 805-278-2200,Hotel,,34.229677,-119.199984,
marriott.com,,"700 Matara Road, Pelana,",Weligama,,81700,Sri Lanka,,+94 41 4 600100,Hotel,,5.973011,80.439522,
marriott.com,,"838 Dong Fang Road/Weifang Road, Pudong New Area",Shanghai,,200122,China,,+86 21 6021 6888,Hotel,,31.225803,121.525719,
marriott.com,,,,,,,,,Hotel,,,,
marriott.com,,6320 Golden Triangle Drive,Greenbelt,Maryland,20770,USA,,+1 301-982-1600,Hotel,,38.997949,-76.896999,
marriott.com,,4545 W. John Carpenter Freeway,Irving,Texas,75063,USA,,+1 972-929-4500,Hotel,,32.916499,-97.008257,
marriott.com,,8300 Arista Place,Broomfield,Colorado,80021,USA,,+1 303-635-2000,Hotel,,39.905484,-105.089868,
marriott.com,,3713 Tudor Boulevard,Austin,Texas,78759,USA,,+1 512-502-8200,Hotel,,30.384588,-97.738539,
marriott.com,,804 East Morrison Road,Brownsville,Texas,78526,USA,,+1 956-667-5278,Hotel,,25.966278,-97.50215,
marriott.com,,21 E. 5th Street,Cincinnati,Ohio,45202,USA,,+1 513-621-7700,Hotel,,39.100978,-84.512617,
marriott.com,,A.J. Ernststraat 577,Amsterdam,,1082 LD,Netherlands,,+31 20 517 5300,Hotel,,52.331699,4.87754,
marriott.com,,"Khasra No. 1242, 1243, 1196/1726, Village Surajkund, Motisar Road",Pushkar,,305022,India,,+91 145 277 4400,Hotel,,26.454034,74.504299,
marriott.com,,1031 Voorhees Drive,Voorhees,New Jersey,08043,USA,,+1 856-782-2555,Hotel,,39.847607,-74.981938,
marriott.com,,800 Seacoast Drive,San Diego,California,91932,USA,,+1 619-621-5900,Hotel,,32.581449,-117.131757,
marriott.com,,Pfingstweidstrasse 100,Zurich,,8005,Switzerland,,+41 44 285 40 00,Hotel,,47.390796,8.510156,
marriott.com,,"3 Vasileos Georgiou A' str., Syntagma Square",Athens,,105 64,Greece,,+30 21 0322 2210,Hotel,,37.976435,23.734889,
marriott.com,,35 West Spring Street,Columbus,Ohio,43215,USA,,+1 614-228-3200,Hotel,,39.966169,-83.002399,
marriott.com,,3700 North Wilke Road,Arlington Heights,Illinois,60004,USA,,+1 847-394-9999,Hotel,,42.142451,-88.004631,
marriott.com,,106 South 15th Street,Omaha,Nebraska,68102,USA,,+1 402-342-4770,Hotel,,41.259465,-95.935977,
marriott.com,,1101 Magnolia Avenue,Webster,Texas,77598,USA,,+1 281-332-2999,Hotel,,29.5245828,-95.1227242,
marriott.com,,4300 Colonnade Parkway,Birmingham,Alabama,35243,USA,,+1 205-967-4466,Hotel,,33.435747,-86.736009,
marriott.com,,1520 NW 114th Street,Clive,Iowa,50325,USA,,+1 515-225-1222,Hotel,,41.604342,-93.773995,
marriott.com,,Jalan Ir H Juanda No 33,Bandung,,40116,Indonesia,,+62 22 4211333,Hotel,,-6.904275,107.610483,
marriott.com,,4231 Park Place Court,Glen Allen,Virginia,23060,USA,,+1 804-747-5253,Hotel,,37.652009,-77.579734,
marriott.com,,724 South Polk Street,Amarillo,Texas,79101,USA,,+1 806-553-4500,Hotel,,35.205868,-101.83746,
marriott.com,,7020 W. 133rd Street,Overland Park,Kansas,66209,USA,,+1 913-851-3100,Hotel,,38.88746,-94.666345,
marriott.com,,5250 28th St. SE,Grand Rapids,Michigan,49512,USA,,+1 616-464-1130,Hotel,,42.907361,-85.539328,
marriott.com,,Getreidegasse 37,Salzburg,,5020,Austria,,+43 662 80840,Hotel,,47.79962,13.040935,
marriott.com,,5380 Clearwater Ct,Beaumont,Texas,77705,USA,,+1 409-434-0600,Hotel,,30.041622,-94.150589,
marriott.com,,1712 Commerce Street,Dallas,Texas,75201,USA,,+1 214-290-0111,Hotel,,32.780103,-96.796326,
marriott.com,,18000 Von Karman Avenue,Irvine,California,92612,USA,,+1 949-553-0100,Hotel,,33.678408,-117.85027,
marriott.com,,Schiphol Boulevard 101,Amsterdam,,1118BG,Netherlands,,+31 20 316 4300,Hotel,,52.30814,4.756951,
marriott.com,,5300 Riverside Drive,Cleveland,Ohio,44135,USA,,+1 216-267-1500,Hotel,,41.407771,-81.835914,
marriott.com,,Kattengat 1,Amsterdam,,1012 SZ,Netherlands,,+31 20 621 2223,Hotel,,52.378132,4.89421,
marriott.com,,934 16th Street,Denver,Colorado,80202,USA,,+1 303-571-1114,Hotel,,39.746747,-104.995191,
marriott.com,,3401 Sumner Blvd,Raleigh,North Carolina,27616,USA,,+1 919-645-0088,Hotel,,35.866755,-78.580357,
marriott.com,,1880 Raymond Diehl Road,Tallahassee,Florida,32308,USA,,+1 850-422-0093,Hotel,,30.500206,-84.245548,
marriott.com,,4640 Murray Place,Lynchburg,Virginia,24502,USA,,+1 434-846-7900,Hotel,,37.368744,-79.173897,
marriott.com,,1014 Ashes Drive,Wilmington,North Carolina,28405,USA,,+1 910-239-9975,Hotel,,34.24035,-77.825838,
marriott.com,,3902 9th Avenue S,Fargo,North Dakota,58103,USA,,+1 701-281-0494,Hotel,,46.86675,-96.84571,
marriott.com,,1717 Denver West Boulevard,Golden,Colorado,80401,USA,,+1 303-279-9100,Hotel,,39.740357,-105.1619,
marriott.com,,3301 Countryside Drive,Turlock,California,95380,USA,,+1 209-668-3800,Hotel,,37.523881,-120.882204,
marriott.com,,"City Square, Vasundhara Colony, Tonk Road",Jaipur,,302018,India,,+91 141 710 4600,Hotel,,26.863592,75.795826,
marriott.com,,"22 Dorp Street, Stellenbosch",Cape Town,,7599,South Africa,,+27 21 883 9881,Hotel,,-33.940004,18.850945,
marriott.com,,6 Platt Street,New York,New York,10038,USA,,+1 212-273-9388,Hotel,,40.707407,-74.00621,
marriott.com,,900 N. Wood Dale Road,Wood Dale,Illinois,60191,USA,,+1 630-766-7775,Hotel,,41.982021,-87.980684,
marriott.com,,30 Mill Road,McDonough,Georgia,30253,USA,,+1 770-305-0180,Hotel,,33.463088,-84.215454,
marriott.com,,No 17 and 17/1 Madhava Nagar Extension Race Course Lane,Bengaluru,,560001,India,,+91 80 4685 5555,Hotel,,12.981856,77.575672,
marriott.com,,1200 Hampton Street,Columbia,South Carolina,29201,USA,,+1 803-771-7000,Hotel,,34.004635,-81.034954,
marriott.com,,2001 West Hundred Road,Chester,Virginia,23836,USA,,+1 804-414-1010,Hotel,,37.354202,-77.39956,
marriott.com,,560 Scott Avenue,Farmington,New Mexico,87401,USA,,+1 505-325-5111,Hotel,,36.72949,-108.19129,
marriott.com,,6189 Muhlhauser Road,West Chester,Ohio,45069,USA,,+1 513-874-7335,Hotel,,39.325081,-84.426459,
marriott.com,,4521 Eastgate Boulevard,Cincinnati,Ohio,45245,USA,,+1 513-947-9402,Hotel,,39.099255,-84.27428,
marriott.com,,6701 South Padre Island Drive,Corpus Christi,Texas,78412,USA,,+1 361-991-2011,Hotel,,27.695831,-97.350722,
marriott.com,,2800 Opryland Drive,Nashville,Tennessee,37214,USA,,+1 615-889-1000,Hotel,,36.2107115238904,-86.696821376681,
marriott.com,,2950 S. River Road,Des Plaines,Illinois,60018,USA,,+1 847-824-7000,Hotel,,42.000336,-87.863615,
marriott.com,,7959 Essen Park Avenue,Baton Rouge,Louisiana,70809,USA,,+1 225-766-9493,Hotel,,30.404635,-91.101787,
marriott.com,,603 South Sixth Street,Champaign,Illinois,61820,USA,,+1 217-344-1600,Hotel,,40.110294,-88.231005,
marriott.com,,27000 South Karevich Drive,Novi,Michigan,48377,USA,,+1 248-348-5000,Hotel,,42.488919,-83.478934,
marriott.com,,27-45 Jackson Avenue,Long Island City,New York,11101,USA,,+1 718-433-9305,Hotel,,40.74838,-73.93983,
marriott.com,,120 Fairfield Drive,Bloomington,Indiana,47404,USA,,+1 812-331-1122,Hotel,,39.166459,-86.570231,
marriott.com,,2225 NW Evangeline Thruway,Lafayette,Louisiana,70501,USA,,+1 337-235-9898,Hotel,,30.254159,-92.015456,
marriott.com,,1325 Broadway at Leveroni & Napa Roads,Sonoma,California,95476,USA,,+1 707-935-6600,Hotel,,38.277287,-122.460742,
marriott.com,,"199 Hami Road, Shengze Town, Wujiang District",Suzhou City,,215228,China,,+86 512 6303 7888,Hotel,,30.907603,120.610067,
marriott.com,,2823 South Outfitters Drive,Gonzales,Louisiana,70737,USA,,+1 225-450-3400,Hotel,,30.207553,-90.94905,
marriott.com,,404 S. Mint Street,Charlotte,North Carolina,28202,USA,,+1 704-340-4000,Hotel,,35.227076,-80.849018,
marriott.com,,2537 North Main Street,Fort Worth,Texas,76164,USA,,+1 817-624-1112,Hotel,,32.790272,-97.349183,
marriott.com,,Bitwy pod Plowcami 59,Sopot,,81-731,Poland,,+48 58 766 60 00,Hotel,,54.434169,18.583747,
marriott.com,,1815 Front Street,Durham,North Carolina,27705,USA,,+1 919-309-1500,Hotel,,36.030204,-78.936332,
marriott.com,,6435 Westwood Boulevard,Orlando,Florida,32821,USA,,+1 407-351-6600,Hotel,,28.419865,-81.465561,
marriott.com,,"355, rue McGill",Montreal,,H2Y 2E8,Canada,,+1 514-380-2222,Hotel,,45.5002,-73.5568,
marriott.com,,"Opposite Gujarat College, Ellis Bridge",Ahmedabad,,380006,India,,+91 79 4900 8888,Hotel,,23.022582,72.567841,
marriott.com,,1465 IH-35-N,New Braunfels,Texas,78130,USA,,+1 830-626-3133,Hotel,,29.705501,-98.091952,
marriott.com,,875 Mancill Mill Road,King of Prussia,Pennsylvania,19406,USA,,+1 610-783-1400,Hotel,,40.105513,-75.409986,
marriott.com,,555 Evergreen Street,Dallas,Texas,75201,USA,,+1 214-573-6555,Hotel,,32.777925,-96.794881,
marriott.com,,199 Kenmount Road,St. John's,,A1B 3P9,Canada,,+1 709-722-5540,Hotel,,47.553794,-52.769308,
marriott.com,,"789 Moo 14, Bangna-Trad Road, Km 10.5, Bangpleeyai, Bangplee",Samut Prakan,,10540,Thailand,,+66 2 118 7777,Hotel,,13.656513,100.705854,
marriott.com,,2450 Paces Ferry Road SE,Atlanta,Georgia,30339,USA,,+1 770-435-4500,Hotel,,33.862285,-84.482733,
marriott.com,,1255 North Palm Avenue,Sarasota,Florida,34236,USA,,+1 941-316-0808,Hotel,,27.336553,-82.544847,
marriott.com,,5621 Legend Lake Parkway,Waco,Texas,76712,USA,,+1 254-420-3000,Hotel,,31.494041,-97.16088,
marriott.com,,200 Civic Center,Tulsa,Oklahoma,74103,USA,,+1 918-947-8200,Hotel,,36.150128,-95.995485,
marriott.com,,33711 Camino Capistrano,San Juan Capistrano,California,92675,USA,,+1 949-443-3600,Hotel,,33.473415,-117.675321,
marriott.com,,10955 Turkey Drive,Knoxville,Tennessee,37934,USA,,+1 865-966-8888,Hotel,,35.903716,-84.148969,
marriott.com,,The Esplanade,Walvis Bay,,,Namibia,,+264 64 214 000,Hotel,,-22.961016,14.483099,
marriott.com,,6000 West Osceola Parkway,Kissimmee,Florida,34746,USA,,+1 407-586-0000,Hotel,,28.343637,-81.525283,
marriott.com,,4 Shelter Cove Lane,Hilton Head,South Carolina,29928,USA,,+1 843-686-7070,Hotel,,32.180641,-80.734591,
marriott.com,,640 Hawthorne Avenue SE,Salem,Oregon,97301,USA,,+1 503-585-6500,Hotel,,44.922717,-122.992427,
marriott.com,,Kawasan Pariwisata Nusa Dua Lot N2,Nusa Dua,,80363,Indonesia,,+62 361 771327,Hotel,,-8.797506,115.231178,
marriott.com,,Ctra. del Rinconcillo esq. C/ Hnos.Portilla,Algeciras,,11204,Spain,,+34 956 63 50 60,Hotel,,36.142943,-5.448371,
marriott.com,,3400 Creek Pointe Drive,East Point,Georgia,30344,USA,,+1 404-344-4414,Hotel,,33.655087,-84.500074,
marriott.com,,718 Southbridge Street,Auburn,Massachusetts,01501,USA,,+1 508-832-9500,Hotel,,42.183095,-71.860912,
marriott.com,,2747 South 11th Street,Kalamazoo,Michigan,49009,USA,,+1 269-375-6000,Hotel,,42.264131,-85.653519,
marriott.com,,2020 Pleasant Street,Bridgewater,Massachusetts,02324,USA,,+1 508-697-1412,Hotel,,41.958764,-71.035019,
marriott.com,,1043 Rieff Street,Springdale,Arkansas,72762,USA,,+1 479-419-5722,Hotel,,36.176518,-94.177605,
marriott.com,,74 State Street,Albany,New York,12207,USA,,+1 518-434-7410,Hotel,,42.649289,-73.752365,
marriott.com,,Gerberstrasse 15,Leipzig,,04105,Germany,,+49 341 9880,Hotel,,51.344974,12.375875,
marriott.com,,2200 Southwood Drive,Nashua,New Hampshire,03063,USA,,+1 603-880-9100,Hotel,,42.78659,-71.498154,
marriott.com,,2912 Collins Avenue,Miami Beach,Florida,33140,USA,,+1 786-264-4720,Hotel,,25.805177,-80.125359,
marriott.com,,1219 East Almond Avenue,Madera,California,93637,USA,,+1 559-664-9800,Hotel,,36.945422,-120.045793,
marriott.com,,526 South Lincoln Street,Burlington,Colorado,80807,USA,,+1 719-346-7094,Hotel,,39.292625,-102.277975,
marriott.com,,4862 Hayes Road,Madison,Wisconsin,53704,USA,,+1 608-244-5047,Hotel,,43.136085,-89.300041,
marriott.com,,285 Steamship Bay Road,Gravenhurst,,P1P 1Z9,Canada,,+1 705-687-6600,Hotel,,44.919356,-79.389279,
marriott.com,,6808 South 107th East Avenue,Tulsa,Oklahoma,74133,USA,,+1 918-307-2600,Hotel,,36.064853,-95.857824,
marriott.com,,Allee de l'Orme Rond,Bailly-Romainvilliers,,77700,France,,+33 1 60 42 90 00,Hotel,,48.852741,2.81204,
marriott.com,,1500 Park Lane Drive,Pittsburgh,Pennsylvania,15275,USA,,+1 412-787-3300,Hotel,,40.45534,-80.18849,
marriott.com,,Dorfstrasse 7,Adelboden,,3715,Switzerland,,+41 33 673 83 83,Hotel,,46.49361,7.5611,
marriott.com,,150 West 500 South,Salt Lake City,Utah,84101,USA,,+1 801-401-2000,Hotel,,40.758637,-111.895459,
marriott.com,,12520 North IH-35,Austin,Texas,78753,USA,,+1 512-833-8100,Hotel,,30.406868,-97.675348,
marriott.com,,299 2nd Street,San Francisco,California,94105,USA,,+1 415-947-0700,Hotel,,37.785529,-122.396703,
marriott.com,,11440 Chester Road,Cincinnati,Ohio,45246,USA,,+1 513-842-9112,Hotel,,39.281927,-84.443247,
marriott.com,,24 Via De Luna,Pensacola Beach,Florida,32561,USA,,+1 850-932-6000,Hotel,,30.334048,-87.131299,
marriott.com,,No 1 Raocheng South Line,Anji,,313300,China,,+86 572 561 8888,Hotel,,30.614168,119.707498,
marriott.com,,"333 North Dearborn Street, (Driveway entrance on 350 N. State Street)",Chicago,Illinois,60654,USA,,+1 312-245-0333,Hotel,,41.888589,-87.62831,
marriott.com,,28 Rustaveli Street,Batumi,,6000,Georgia,,+995 422 22 90 00,Hotel,,41.656882,41.641531,
marriott.com,,7024 Augusta National Drive,Orlando,Florida,32822,USA,,+1 407-856-2444,Hotel,,28.461596,-81.3061,
marriott.com,,7535 North Forest Drive,North Charleston,South Carolina,29420,USA,,+1 843-572-8866,Hotel,,32.938912,-80.052522,
marriott.com,,"59 Promenade des Anglais, Entre Rue Honore Sauvan",Nice,,06000,France,,+33 4 93 97 90 90,Hotel,,43.69385,7.25302,
marriott.com,,27790 Novi Road,Novi,Michigan,48377,USA,,+1 248-349-7800,Hotel,,42.493815,-83.474608,
marriott.com,,"1127 Connecticut Avenue NW, 7th Floor",Washington,District Of Columbia,20036,USA,,+1 202-347-3000,Hotel,,38.904422,-77.040162,
marriott.com,,215 10th Street,Marina,California,93933,USA,,+1 831-718-8540,Hotel,,36.665089,-121.808392,
marriott.com,,"Jalan Piere Tendean Boulevard, Sario",Manado,,95111,Indonesia,,+62 431 8803999,Hotel,,1.470161,124.83052,
marriott.com,,15151 Turkey Creek Drive,Gulfport,Mississippi,39503,USA,,+1 228-822-9000,Hotel,,30.421606,-89.092045,
marriott.com,,151 Southwest 18th Court,Dania Beach,Florida,33004,USA,,+1 954-920-9696,Hotel,,26.048735,-80.16063,
marriott.com,,"Periferico Oriente 1274, Colonia Perisur",Hermosillo,,83290,Mexico,,+52 662 313 9900,Hotel,,29.03753,-110.93864,
marriott.com,,120 Community Center Drive,Pigeon Forge,Tennessee,37863,USA,,+1 865-366-3201,Hotel,,35.807156,-83.580044,
marriott.com,,435 NE Wasco St,Portland,Oregon,97232,USA,,+1 503-234-3200,Hotel,,45.53224,-122.661373,
marriott.com,,163 Frontage Road,Lafayette,Indiana,47905,USA,,+1 765-446-8668,Hotel,,40.419181,-86.819429,
marriott.com,,"Route 27, 350 Metros Oeste Multiplaza",San Jos,,10203,Costa Rica,,+506 4055 0505,Hotel,,9.947558,-84.157248,
marriott.com,,850 Veterans Memorial Hwy.,Hauppauge,New York,11788,USA,,+1 631-724-4188,Hotel,,40.820533,-73.203782,
marriott.com,,110 9th Avenue SE,Calgary,,T2G 5A6,Canada,,+1 403-266-7331,Hotel,,51.044599,-114.062882,
marriott.com,,Kurfuerstendamm 25,Berlin,,10719,Germany,,+49 30 884370,Hotel,,52.5036,13.3289,
marriott.com,,1401 Shoreway Road,Belmont,California,94002,USA,,+1 650-622-9004,Hotel,,37.520767,-122.262317,
marriott.com,,Messe Strasse 1,Dornbirn,,A-6850,Austria,,+43 5572 38880,Hotel,,47.412013,9.713657,
marriott.com,,365 Canada Street,Lake George,New York,12845,USA,,+1 518-761-1150,Hotel,,43.427061,-73.712606,
marriott.com,,14620 Aviation Boulevard,Hawthorne,California,90250,USA,,+1 310-727-9595,Hotel,,33.899407,-118.378694,
marriott.com,,45 Schilling Road,Hunt Valley,Maryland,21031,USA,,+1 410-527-2333,Hotel,,39.492827,-76.65175,
marriott.com,,2061 North Roemer Court,Santa Maria,California,93454,USA,,+1 805-925-8500,Hotel,,34.975862,-120.434472,
marriott.com,,"Donegall Quay, Belfast Harbour",Belfast,,BT1 3FE,United Kingdom,,+44 28 9531 3180,Hotel,,54.604319,-5.920942,
marriott.com,,1865 North Highway 191,Moab,Utah,84532,USA,,+1 435-355-0042,Hotel,,38.605389,-109.582494,
marriott.com,,4501 12th Avenue NE,Seattle,Washington,98105,USA,,+1 206-322-8887,Hotel,,47.661611,-122.31569,
marriott.com,,Carrera 43 C #6 Sur 100,Medellin,,,Colombia,,+57 4 3197400,Hotel,,6.199227,-75.576228,
marriott.com,,360 Rockwood Road,Arden,North Carolina,28704,USA,,+1 828-684-5000,Hotel,,35.44581,-82.537762,
marriott.com,,901 Atlantic Avenue,Virginia Beach,Virginia,23451,USA,,+1 757-417-3982,Hotel,,36.837877,-75.972262,
marriott.com,,1330 Northland Drive,Mendota Heights,Minnesota,55120,USA,,+1 651-454-1978,Hotel,,44.863572,-93.163664,
marriott.com,,1224 Upper James Street,Hamilton,,L9C3B1,Canada,,+1 905-383-7772,Hotel,,43.214569,-79.8876,
marriott.com,,75 East Harmon Avenue,Las Vegas,Nevada,89109,USA,,+1 702-862-5600,Hotel,,36.108,-115.169215,
marriott.com,,1730 University Drive,State College,Pennsylvania,16801,USA,,+1 814-238-1881,Hotel,,40.78425,-77.837253,
marriott.com,,948 Platte River Boulevard,Brighton,Colorado,80601,USA,,+1 303-637-0910,Hotel,,39.971092,-104.830136,
marriott.com,,"Barbaros Mahallesi, Mor Sumbul Sokak, No: 1 Atasehir",Istanbul,,34746,Turkey,,+90 216 547 00 00,Hotel,,40.995066,29.100872,
marriott.com,,301 Norman Center Court,Norman,Oklahoma,73072,USA,,+1 405-447-1661,Hotel,,35.215899,-97.489585,
marriott.com,,10 S West Street,Indianapolis,Indiana,46204,USA,,+1 317-860-5800,Hotel,,39.767165,-86.16718,
marriott.com,,780 Bridgeport Avenue,Shelton,Connecticut,06484,USA,,+1 203-929-1500,Hotel,,41.27079,-73.127762,
marriott.com,,3145 Crain Highway,Waldorf,Maryland,20603,USA,,+1 301-885-3333,Hotel,,38.625304,-76.911782,
marriott.com,,80 Nelson Mandela Drive,Mahikeng,,2745,South Africa,,+27 18 381 0400,Hotel,,-25.858777,25.643546,
marriott.com,,Wiedner Hauptstrasse 12,Vienna,,1040,Austria,,+43 1 589180,Hotel,,48.1973,16.3672,
marriott.com,,Shenzhou Peninsula Resort District,Wanning,,571528,China,,+86 898 6253 8868,Hotel,,18.670072,110.357709,
marriott.com,,"Arabella Country Estate, R44 Kleinmond",Hermanus,,7195,South Africa,,+27 28 284 0000,Hotel,,-34.317399,19.134254,
marriott.com,,"Avenida Tulum, MZ 1 - Lote 2 - SM 12",Cancun,,77500,Mexico,,+52 998 283 0101,Hotel,,21.135935,-86.827708,
marriott.com,,700 Phillips Lane,Louisville,Kentucky,40209,USA,,+1 502-363-8800,Hotel,,38.190924,-85.744269,
marriott.com,,3400 Paradise Road,Las Vegas,Nevada,89169-2770,USA,,+1 702-784-5700,Hotel,,36.127613,-115.154927,
marriott.com,,8615 Vineland Avenue,Orlando,Florida,32821,USA,,+1 407-938-9001,Hotel,,28.377058,-81.502377,
marriott.com,,3640 East Sam Houston Parkway South,Pasadena,Texas,77505,USA,,+1 832-664-8870,Hotel,,29.653064,-95.157064,
marriott.com,,"1201 NW Le Jeune Road, Building A",Miami,Florida,33126,USA,,+1 305-649-5000,Hotel,,25.783879,-80.263087,
marriott.com,,#77 Wuyishan Road,Suzhou,,215163,China,,+86 512 8816 8888,Hotel,,31.344608,120.413537,
marriott.com,,1925 Cedar Creek Road,Fayetteville,North Carolina,28312,USA,,+1 910-433-2666,Hotel,,35.008739,-78.826694,
marriott.com,,2826 Taylor Road EXT,Reynoldsburg,Ohio,43068,USA,,+1 614-864-4555,Hotel,,39.935643,-82.786099,
marriott.com,,2663 Fairfield Commons Drive,Beavercreek,Ohio,45431,USA,,+1 937-429-9090,Hotel,,39.762961,-84.056543,
marriott.com,,10410 158th Street,Surrey,,V4N 5C2,Canada,,+1 604-930-4700,Hotel,,49.192051,-122.78392,
marriott.com,,168 Wolf Road,Albany,New York,12205,USA,,+1 518-482-8800,Hotel,,42.722363,-73.803437,
marriott.com,,"Via Israel & Calle 76, San Francisco",Panama City,,0819-05896,Panama,,+507 282-6000,Hotel,,8.988514,-79.502242,
marriott.com,,7737 West Jefferson Boulevard,Fort Wayne,Indiana,46804,USA,,+1 260-436-1000,Hotel,,41.040001,-85.242542,
marriott.com,,1620 SW Westport Drive,Topeka,Kansas,66604,USA,,+1 785-271-8903,Hotel,,39.036957,-95.758616,
marriott.com,,"41/12 Moo 3, Khuk Khak","Takuapa, Phang Nga",,82220,Thailand,,+66 76 584 888,Hotel,,8.70147,98.24116,
marriott.com,,198 Precision Drive,Horsham,Pennsylvania,19044,USA,,+1 215-323-9900,Hotel,,40.190906,-75.154457,
marriott.com,,170 Broadway,New York,New York,10007,USA,,+1 212-600-8900,Hotel,,40.709607,-74.009695,
marriott.com,,3630 North Clark Street,Chicago,Illinois,60613,USA,,+1 773-302-2300,Hotel,,41.947643,-87.657272,
marriott.com,,655 North Dupont Highway,Dover,Delaware,19901,USA,,+1 302-677-0900,Hotel,,39.178556,-75.52677,
marriott.com,,1009 Gould Drive,Bossier City,Louisiana,71111,USA,,+1 318-741-9090,Hotel,,32.517752,-93.710872,
marriott.com,,Jalan Benesari Banjar Pengabetan,Kuta,,80361,Indonesia,,+62 361 8496606,Hotel,,-8.713501,115.171587,
marriott.com,,128 James Comeaux Road,Lafayette,Louisiana,70508,USA,,+1 337-232-3341,Hotel,,30.187633,-92.012326,
marriott.com,,5520 Maxwell Place,Columbus,Ohio,43228,USA,,+1 614-643-4300,Hotel,,39.979513,-83.146322,
marriott.com,,225 Woodstock Road,Fredericton,,E3B 2H8,Canada,,+1 506-457-7000,Hotel,,45.964577,-66.662979,
marriott.com,,8623 Vineland Avenue,Orlando,Florida,32821,USA,,+1 407-938-9001,Hotel,,28.376435,-81.501458,
marriott.com,,425 Colorado Avenue,Santa Monica,California,90401,USA,,+1 310-394-1700,Hotel,,34.014726,-118.491455,
marriott.com,,Bukowska 3/9,Poznan,,60-809,Poland,,+48 61 655 20 00,Hotel,,52.407164,16.910627,
marriott.com,,975 North Perimeter Road,Manchester,New Hampshire,03103,USA,,+1 603-668-9400,Hotel,,42.935273,-71.446531,
marriott.com,,2500 Mason Street,San Francisco,California,94133,USA,,+1 415-362-5500,Hotel,,37.806826,-122.413552,
marriott.com,,West Bay Street,Nassau,,,Bahamas,,+1 242-302-2975,Hotel,,25.078536,-77.351192,
marriott.com,,581 Watiki Way,Box Elder,South Dakota,57719,USA,,+1 605-791-9600,Hotel,,44.099821,-103.147361,
marriott.com,,,,,,,,,Hotel,,,,
marriott.com,,71 Rathe Road,Colchester,Vermont,05446,USA,,+1 802-655-3100,Hotel,,44.514122,-73.18336,
marriott.com,,1337 Old Covington Highway,Conyers,Georgia,30013,USA,,+1 770-922-2251,Hotel,,33.655294,-84.001886,
marriott.com,,4670 Salisbury Road,Jacksonville,Florida,32256,USA,,+1 904-296-2222,Hotel,,30.247313,-81.589606,
marriott.com,,112 Donald Lynch Blvd.,Marlborough,Massachusetts,01752,USA,,+1 508-481-1500,Hotel,,42.364816,-71.594584,
marriott.com,,"Sahar Airport Road, Near International Airport, Andheri (East)",Mumbai,,400099,India,,+91 22 2830 3030,Hotel,,19.115041,72.882352,
marriott.com,,310 South England Street,Williamsburg,Virginia,23185,USA,,+1 757-220-7976,Hotel,,37.268347,-76.700764,
marriott.com,,2101 Richard Arrington Jr. Boulevard North,Birmingham,Alabama,35203,USA,,+1 205-324-5000,Hotel,,33.524669,-86.810561,
marriott.com,,7100 Augusta National Drive,Orlando,Florida,32822,USA,,+1 407-888-2666,Hotel,,28.460889,-81.306545,
marriott.com,,1438 Brodhead Road,Monaca,Pennsylvania,15061,USA,,+1 724-888-2696,Hotel,,40.672149,-80.307446,
marriott.com,,1255 Walker Avenue,East Point,Georgia,30344,USA,,+1 404-767-5374,Hotel,,33.663052,-84.429795,
marriott.com,,200 Maple Street,Chelsea,Massachusetts,02150,USA,,+1 617-889-9990,Hotel,,42.3979146033525,-71.038791909813,
marriott.com,,2180 Larkspur Lane,Redding,California,96002,USA,,+1 530-223-0690,Hotel,,40.5763931274414,-122.35610961914,
marriott.com,,17250 Fox Drive,Livonia,Michigan,48152,USA,,+1 734-462-4201,Hotel,,42.411315,-83.429108,
marriott.com,,,,,,,,,Hotel,,,,
marriott.com,,17190 West 87th Street,Lenexa,Kansas,66219,USA,,+1 913-225-9955,Hotel,,38.971164,-94.784111,
marriott.com,,"Taj Nagri, Phase II, Fatehabad Road",Agra,,282001,India,,+91 562 245 7777,Hotel,,27.156166,78.05958,
marriott.com,,157 Kinetic Drive,Huntington,West Virginia,25701,USA,,+1 304-525-4877,Hotel,,38.396212,-82.419722,
marriott.com,,1308 Freedom Road,Cranberry Township,Pennsylvania,16066,USA,,+1 724-779-1000,Hotel,,40.680895,-80.152409,
marriott.com,,1635 Yeager Street,Port Huron,Michigan,48060,USA,,+1 810-982-8500,Hotel,,42.99012,-82.450799,
marriott.com,,7010 McCutcheon Road,Chattanooga,Tennessee,37421,USA,,+1 423-834-9444,Hotel,,35.0465507507324,-85.157196044921,
marriott.com,,9719 Princess Palm Avenue,Tampa,Florida,33619,USA,,+1 813-627-8855,Hotel,,27.980217,-82.339064,
marriott.com,,261 Essa Road,Barrie,,L4N 9C7,Canada,,+1 705-737-9999,Hotel,,44.3508839791831,-79.700336783287,
marriott.com,,120 South Main Street,Greenville,South Carolina,29601,USA,,+1 864-421-9700,Hotel,,34.849389,-82.399771,
marriott.com,,5110 NW 8th Avenue,Boca Raton,Florida,33487,USA,,+1 561-994-7232,Hotel,,26.394622,-80.098107,
marriott.com,,3003 South Dogwood Avenue,El Centro,California,92243,USA,,+1 760-370-3800,Hotel,,32.767788,-115.535218,
marriott.com,,625 El Camino Real,Palo Alto,California,94301,USA,,+1 650-328-2800,Hotel,,37.440369,-122.163309,
marriott.com,,350 West Heritage Drive,Tyler,Texas,75703,USA,,+1 903-787-5899,Hotel,,32.266129,-95.310199,
marriott.com,,2001 Hospitality Court,Morrisville,North Carolina,27560,USA,,+1 919-467-9444,Hotel,,35.858774,-78.815636,
marriott.com,,"Jl. Raya Pantai Kuta, Banjar Legian Kelod",Legian Bali,,,Indonesia,,+62 361 3005888,Hotel,,-8.711431,115.167781,
marriott.com,,"Sheikh Zayed Road, P.O. Box 116162",Dubai,,,United Arab Emirates,,+971 4 323 0333,Hotel,,25.214187,55.275956,
marriott.com,,3815 US Route 1 @ Mapleton Rd,Princeton,New Jersey,08540,USA,,+1 609-716-9100,Hotel,,40.340269,-74.628349,
marriott.com,,"Moor Road, Morley",Derby,,DE7 6DL,United Kingdom,,+44 1332 832235,Hotel,,52.969062,-1.433761,
marriott.com,,Calle Uruguay & Balboa Avenue,Panama City,,,Panama,,+507 297-3200,Hotel,,8.97602,-79.525394,
marriott.com,,4026 Wiseman Blvd,San Antonio,Texas,78251,USA,,+1 210-682-6800,Hotel,,29.47597,-98.695545,
marriott.com,,536 Kinetic Drive,Huntington,West Virginia,25701,USA,,+1 304-696-8777,Hotel,,38.394397,-82.421275,
marriott.com,,500 South Orange Avenue,Orlando,Florida,32801,USA,,+1 407-380-3500,Hotel,,28.536826,-81.378597,
marriott.com,,2730 El Centro Road,Sacramento,California,95833,USA,,+1 916-923-7472,Hotel,,38.615479,-121.538516,
marriott.com,,2779 Fairfield Commons Blvd.,Beavercreek,Ohio,45431,USA,,+1 937-427-3914,Hotel,,39.769702,-84.054938,
marriott.com,,549 South San Fernando Boulevard,Burbank,California,91502,USA,,+1 818-524-2730,Hotel,,34.177239,-118.30411,
marriott.com,,25 Trafalgar Square,Nashua,New Hampshire,03063,USA,,+1 603-882-8300,Hotel,,42.784439,-71.503798,
marriott.com,,9815 Lantern Street,Jacksonville,Florida,32225,USA,,+1 904-247-6782,Hotel,,30.340875,-81.547479,
marriott.com,,433 Robson Street,Vancouver,,V6B 6L9,Canada,,+1 604-602-1999,Hotel,,49.279633,-123.11693,
marriott.com,,1058 Robert E Lee Drive,Stone Mountain,Georgia,30083,USA,,+1 770-469-3311,Hotel,,33.81391,-84.142861,
marriott.com,,"8-15 Ton Duc Thang Street, District 1",Ho Chi Minh City,,,Vietnam,,+84 283 8220 033,Hotel,,10.7744,106.70618,
marriott.com,,Revolution Avenue 38,Voronezh,,394000,Russian Federation,,+7 473 207-00-00,Hotel,,51.66825,39.205661,
marriott.com,,3399 Rodeo Drive,Sierra Vista,Arizona,85635,USA,,+1 520-515-9900,Hotel,,31.532434,-110.26044,
marriott.com,,755 SW 13th Place,Bend,Oregon,97702,USA,,+1 541-382-5006,Hotel,,44.042668,-121.330524,
marriott.com,,Sveavgen 48,Stockholm,,11186,Sweden,,+46 8 440 67 00,Hotel,,59.33763,18.06157,
marriott.com,,3628 Park East Drive,Beachwood,Ohio,44122,USA,,+1 216-831-3030,Hotel,,41.46142,-81.494026,
marriott.com,,1533 Clarendon Boulevard,Arlington,Virginia,22209,USA,,+1 703-528-2222,Hotel,,38.893587,-77.075666,
marriott.com,,18861 Katy Freeway,Houston,Texas,77094,USA,,+1 281-492-6300,Hotel,,29.784664,-95.701942,
marriott.com,,200 Columbus Blvd,Hartford,Connecticut,06103-2807,USA,,+1 860-249-8000,Hotel,,41.763728,-72.669859,
marriott.com,,5 Rue de Carnot,Saint Rmy de Provence,,13210,France,,+33 4 84 35 07 20,Hotel,,43.789121,4.830646,
marriott.com,,1475 Hugh Allan Drive,Kamloops,,V1S 1J3,Canada,,+1 778-471-0902,Hotel,,50.651215,-120.379573,
marriott.com,,1521 West 80th Street South,Tulsa,Oklahoma,74132,USA,,+1 918-392-8100,Hotel,,36.047866,-96.008967,
marriott.com,,"320 Havelock Road, Robertson Quay",Singapore,,169628,Singapore,,+65 6828 0000,Hotel,,1.289177,103.837495,
marriott.com,,155 Fair Brook Place,Clarksville,Tennessee,37040,USA,,+1 931-551-4480,Hotel,,36.597831,-87.289606,
marriott.com,,8400 Costa Verde Drive,Myrtle Beach,South Carolina,29572,USA,,+1 843-449-8880,Hotel,,33.74835,-78.807925,
marriott.com,,1625 S 67th Street,Omaha,Nebraska,68106,USA,,+1 402-951-4300,Hotel,,41.243766,-96.014708,
marriott.com,,821 20th Street South,Birmingham,Alabama,35205,USA,,+1 205-731-9595,Hotel,,33.504475,-86.798925,
marriott.com,,Entrance Road,Mulifanua,,,Samoa,,+685 45611,Hotel,,-13.847462,-172.0448,
marriott.com,,514 West Avenue P/Rancho Vista Blvd,Palmdale,California,93551,USA,,+1 661-947-4204,Hotel,,34.60165,-118.138353,
marriott.com,,2844 Cobb Parkway SE,Atlanta,Georgia,30339,USA,,+1 770-955-3900,Hotel,,33.883434,-84.468895,
marriott.com,,5460 James Temple Drive,Dallas,Texas,75240,USA,,+1 469-399-1013,Hotel,,32.928975,-96.816414,
marriott.com,,3100 Olentangy River Road,Columbus,Ohio,43202,USA,,+1 614-261-7994,Hotel,,40.023033,-83.025144,
marriott.com,,"Av. Sete de Setembro 4211, Agua Verde",Curitiba,,80250-210,Brazil,,+55 41 3340-4000,Hotel,,-25.43,-49.285,
marriott.com,,2641 South Road/Route 9,Poughkeepsie,New