"locator_domain","location_name","street_address","city","state","zip","country_code","store_number","phone","location_type","latitude","longitude","hours_of_operation"
"http://www.rubytuesday.com/locations","Ruby Tuesday of Presque Isle","830 MAIN STREET","PRESQUE ISLE","ME","04769","US","<MISSING>","207-764-2874","<MISSING>","<MISSING>","<MISSING>","Monday 11:00 - 22:00|  Tuesday 11:00 - 22:00|  Wednesday 11:00 - 22:00|  Thursday 11:00 - 22:00|  Friday 11:00 - 23:00|  Saturday 11:00 - 23:00|  Sunday 11:00 - 21:00"
"http://www.rubytuesday.com/locations","Ruby Tuesday of Brewer","5 WALTON DRIVE","BREWER","ME","04412","US","<MISSING>","207-989-8953","<MISSING>","<MISSING>","<MISSING>","Monday 11:00 - 21:00|  Tuesday 11:00 - 21:00|  Wednesday 11:00 - 21:00|  Thursday 11:00 - 21:00|  Friday 11:00 - 22:00|  Saturday 11:00 - 22:00|  Sunday 11:00 - 21:00"
"http://www.rubytuesday.com/locations","Ruby Tuesday of Waterville","20 WATERVILLE COMMONS DRIVE","WATERVILLE","ME","04901","US","<MISSING>","207-859-8991","<MISSING>","<MISSING>","<MISSING>","Monday 11:00 - 21:00|  Tuesday 11:00 - 21:00|  Wednesday 11:00 - 21:00|  Thursday 11:00 - 21:00|  Friday 11:00 - 22:00|  Saturday 11:00 - 22:00|  Sunday 11:00 - 21:00"
"http://www.rubytuesday.com/locations","Ruby Tuesday of Augusta","58 STEPHEN KING DRIVE","AUGUSTA","ME","04330","US","<MISSING>","207-623-8710","<MISSING>","<MISSING>","<MISSING>","Monday 11:00 - 21:00|  Tuesday 11:00 - 21:00|  Wednesday 11:00 - 21:00|  Thursday 11:00 - 21:00|  Friday 11:00 - 22:00|  Saturday 11:00 - 22:00|  Sunday 11:00 - 21:00"
"http://www.rubytuesday.com/locations","Ruby Tuesday of North 27th Street","2700 NORTH HILL ROAD","LINCOLN","NE","68504","US","<MISSING>","402-477-7829","<MISSING>","<MISSING>","<MISSING>","Monday 11:00 - 22:00|  Tuesday 11:00 - 22:00|  Wednesday 11:00 - 22:00|  Thursday 11:00 - 22:00|  Friday 11:00 - 23:00|  Saturday 11:00 - 23:00|  Sunday 11:00 - 22:00"
"http://www.rubytuesday.com/locations","Ruby Tuesday of Jefferson City","2300 MISSOURI BLVD.","JEFFERSON CITY","MO","65109","US","<MISSING>","573-556-8094","<MISSING>","<MISSING>","<MISSING>","Monday 11:00 - 22:00|  Tuesday 11:00 - 22:00|  Wednesday 11:00 - 22:00|  Thursday 11:00 - 22:00|  Friday 11:00 - 23:00|  Saturday 11:00 - 23:00|  Sunday 11:00 - 22:00"
"http://www.rubytuesday.com/locations","Ruby Tuesday of Urbandale","4900 86TH STREET","URBANDALE","IA","50322","US","<MISSING>","515-278-4476","<MISSING>","<MISSING>","<MISSING>","Monday 11:00 - 22:00|  Tuesday 11:00 - 22:00|  Wednesday 11:00 - 22:00|  Thursday 11:00 - 22:00|  Friday 11:00 - 23:00|  Saturday 11:00 - 23:00|  Sunday 10:00 - 22:00"
"http://www.rubytuesday.com/locations","Ruby Tuesday of North Springfield","2725 NORTH GLENSTONE AVENUE","SPRINGFIELD","MO","65803","US","<MISSING>","417-831-7829","<MISSING>","<MISSING>","<MISSING>","Monday 11:00 - 22:00|  Tuesday 11:00 - 22:00|  Wednesday 11:00 - 22:00|  Thursday 11:00 - 22:00|  Friday 11:00 - 23:00|  Saturday 11:00 - 23:00|  Sunday 11:00 - 22:00"
"http://www.rubytuesday.com/locations","Ruby Tuesday of Springfield","2825 SOUTH GLENSTONE AVENUE","SPRINGFIELD","MO","65804","US","<MISSING>","417-889-5866","<MISSING>","<MISSING>","<MISSING>","Monday 11:00 - 22:00|  Tuesday 11:00 - 22:00|  Wednesday 11:00 - 22:00|  Thursday 11:00 - 22:00|  Friday 11:00 - 23:00|  Saturday 11:00 - 23:00|  Sunday 11:00 - 22:00"
"http://www.rubytuesday.com/locations","Ruby Tuesday of St. Robert","135 ST. ROBERTS BLVD","ST. ROBERT","MO","65584","US","<MISSING>","573-336-5140","<MISSING>","<MISSING>","<MISSING>","Monday 11:00 - 22:00|  Tuesday 11:00 - 22:00|  Wednesday 11:00 - 22:00|  Thursday 11:00 - 22:00|  Friday 11:00 - 23:00|  Saturday 11:00 - 23:00|  Sunday 11:00 - 22:00"
"http://www.rubytuesday.com/locations","Ruby Tuesday of Branson","3316 WEST HIGHWAY 76","BRANSON","MO","65616","US","<MISSING>","417-335-5450","<MISSING>","<MISSING>","<MISSING>","Monday 11:00 - 23:00|  Tuesday 11:00 - 23:00|  Wednesday 11:00 - 23:00|  Thursday 11:00 - 23:00|  Friday 11:00 - 24:00|  Saturday 11:00 - 24:00|  Sunday 11:00 - 22:00"
"http://www.rubytuesday.com/locations","Ruby Tuesday of Wentzville","1218 WEST PEARCE","WENTZVILLE","MO","63385","US","<MISSING>","636-327-3339","<MISSING>","<MISSING>","<MISSING>","Monday 11:00 - 22:00|  Tuesday 11:00 - 22:00|  Wednesday 11:00 - 22:00|  Thursday 11:00 - 22:00|  Friday 11:00 - 23:00|  Saturday 11:00 - 23:00|  Sunday 11:00 - 22:00"
"http://www.rubytuesday.com/locations","Ruby Tuesday of Enterprise","625 BOLL WEEVIL CIRCLE","ENTERPRISE","AL","36330","US","<MISSING>","334-347-5549","<MISSING>","<MISSING>","<MISSING>","Monday 11:00 - 22:00|  Tuesday 11:00 - 22:00|  Wednesday 11:00 - 22:00|  Thursday 11:00 - 22:00|  Friday 11:00 - 23:00|  Saturday 11:00 - 23:00|  Sunday 11:00 - 22:00"
"http://www.rubytuesday.com/locations","Ruby Tuesday of Dallas - GA","101 THOMAS B. MURPHY DRIVE","DALLAS","GA","30132","US","<MISSING>","770-445-0432","<MISSING>","<MISSING>","<MISSING>","Monday 11:00 - 22:00|  Tuesday 11:00 - 22:00|  Wednesday 11:00 - 22:00|  Thursday 11:00 - 22:00|  Friday 11:00 - 23:00|  Saturday 11:00 - 23:00|  Sunday 11:00 - 22:00"
"http://www.rubytuesday.com/locations","Ruby Tuesday of Panola Road","3010 PANOLA RD","LITHONIA","GA","30038","US","<MISSING>","678-418-0847","<MISSING>","<MISSING>","<MISSING>","Monday 11:00 - 22:00|  Tuesday 11:00 - 22:00|  Wednesday 11:00 - 22:00|  Thursday 11:00 - 22:00|  Friday 11:00 - 0:00|  Saturday 11:00 - 0:00|  Sunday 11:00 - 22:00"
"http://www.rubytuesday.com/locations","Ruby Tuesday of Marietta","2435 DELK RD","MARIETTA","GA","30067","US","<MISSING>","770-933-9050","<MISSING>","<MISSING>","<MISSING>","Monday 11:00 - 22:00|  Tuesday 11:00 - 22:00|  Wednesday 11:00 - 22:00|  Thursday 11:00 - 22:00|  Friday 11:00 - 23:00|  Saturday 11:00 - 23:00|  Sunday 11:00 - 22:00"
"http://www.rubytuesday.com/locations","Ruby Tuesday of Windsor Locks","101 ELLA GRASSO TURNPIKE","Windsor Locks","CT","06096","US","<MISSING>","860-627-5906","<MISSING>","<MISSING>","<MISSING>","Monday 11:00 - 22:00|  Tuesday 11:00 - 22:00|  Wednesday 11:00 - 22:00|  Thursday 11:00 - 22:00|  Friday 11:00 - 23:00|  Saturday 11:00 - 23:00|  Sunday 11:00 - 22:00"
"http://www.rubytuesday.com/locations","Ruby Tuesday of Lisbon","160 RIVER ROAD SUITE A-200","Lisbon","CT","06351","US","<MISSING>","860-376-5608","<MISSING>","<MISSING>","<MISSING>","Monday 11:00 - 22:00|  Tuesday 11:00 - 22:00|  Wednesday 11:00 - 22:00|  Thursday 11:00 - 22:00|  Friday 11:00 - 23:00|  Saturday 11:00 - 23:00|  Sunday 11:00 - 22:00"
"http://www.rubytuesday.com/locations","Ruby Tuesday of Carrier Circle","6405 YORKTOWN CIRCLE","EAST SYRACUSE","NY","13057","US","<MISSING>","315-414-0450","<MISSING>","<MISSING>","<MISSING>","Monday 11:00 - 23:00|  Tuesday 11:00 - 23:00|  Wednesday 11:00 - 23:00|  Thursday 11:00 - 23:00|  Friday 11:00 - 23:00|  Saturday 11:00 - 23:00|  Sunday 11:00 - 22:00"
"http://www.rubytuesday.com/locations","Ruby Tuesday of Bristol","1444 FARMINGTON AVE RT 6","Bristol","CT","06010","US","<MISSING>","860-589-7050","<MISSING>","<MISSING>","<MISSING>","Monday 11:00 - 22:00|  Tuesday 11:00 - 22:00|  Wednesday 11:00 - 22:00|  Thursday 11:00 - 22:00|  Friday 11:00 - 23:00|  Saturday 11:00 - 23:00|  Sunday 11:00 - 22:00"
"http://www.rubytuesday.com/locations","Ruby Tuesday of Gaylord","499 DICKERSON ROAD","GAYLORD","MI","49735","US","<MISSING>","989-705-7990","<MISSING>","<MISSING>","<MISSING>","Monday 11:00 - 22:00|  Tuesday 11:00 - 22:00|  Wednesday 11:00 - 22:00|  Thursday 11:00 - 22:00|  Friday 11:00 - 23:00|  Saturday 11:00 - 23:00|  Sunday 11:00 - 22:00"
"http://www.rubytuesday.com/locations","Ruby Tuesday of Poughkeepsie Galleria Mall","2001 SOUTH ROAD","POUGHKEEPSIE","NY","12601","US","<MISSING>","845-298-7620","<MISSING>","<MISSING>","<MISSING>","Monday 11:00 - 22:00|  Tuesday 11:00 - 22:00|  Wednesday 11:00 - 22:00|  Thursday 11:00 - 22:00|  Friday 11:00 - 23:00|  Saturday 11:00 - 23:00|  Sunday 11:00 - 21:00"
"http://www.rubytuesday.com/locations","Ruby Tuesday of Shelton","811 BRIDGEPORT AVE.","SHELTON","CT","06484","US","<MISSING>","203-944-0812","<MISSING>","<MISSING>","<MISSING>","Monday 11:00 - 22:00|  Tuesday 11:00 - 22:00|  Wednesday 11:00 - 22:00|  Thursday 11:00 - 22:00|  Friday 11:00 - 23:00|  Saturday 11:00 - 23:00|  Sunday 11:00 - 21:00"
"http://www.rubytuesday.com/locations","Ruby Tuesday of Fargo South","2535 23RD AVE S","FARGO","ND","58103","US","<MISSING>","701-232-2012","<MISSING>","<MISSING>","<MISSING>","Monday 11:00 - 22:00|  Tuesday 11:00 - 22:00|  Wednesday 11:00 - 22:00|  Thursday 11:00 - 22:00|  Friday 11:00 - 23:00|  Saturday 11:00 - 23:00|  Sunday 11:00 - 22:00"
"http://www.rubytuesday.com/locations","Ruby Tuesday of Binghamton","HARRY L DRIVE & REYNOLDS ROAD 2838","JOHNSON CITY","NY","13790","US","<MISSING>","607-729-7550","<MISSING>","<MISSING>","<MISSING>","Monday 11:00 - 22:00|  Tuesday 11:00 - 22:00|  Wednesday 11:00 - 22:00|  Thursday 11:00 - 22:00|  Friday 11:00 - 23:00|  Saturday 11:00 - 23:00|  Sunday 11:00 - 21:00"
"http://www.rubytuesday.com/locations","Ruby Tuesday of Middletown II","41 ORANGE PLAZA LANE","WALLKILL","NY","10940","US","<MISSING>","845-342-9006","<MISSING>","<MISSING>","<MISSING>","Monday 11:00 - 22:00|  Tuesday 11:00 - 22:00|  Wednesday 11:00 - 22:00|  Thursday 11:00 - 22:00|  Friday 11:00 - 23:00|  Saturday 11:00 - 23:00|  Sunday 11:00 - 22:00"
"http://www.rubytuesday.com/locations","Ruby Tuesday of Walden","1669 WALDEN AVENUE","CHEEKTOWAGA","NY","14225","US","<MISSING>","716-897-2523","<MISSING>","<MISSING>","<MISSING>","Monday 11:00 - 22:00|  Tuesday 11:00 - 22:00|  Wednesday 11:00 - 22:00|  Thursday 11:00 - 22:00|  Friday 11:00 - 23:00|  Saturday 11:00 - 23:00|  Sunday 11:00 - 22:00"
"http://www.rubytuesday.com/locations","Ruby Tuesday of Sunshine Square","700 PATCHOGUE YAPHANK ROAD","MEDFORD","NY","11763","US","<MISSING>","631-924-0759","<MISSING>","<MISSING>","<MISSING>","Monday 11:00 - 22:00|  Tuesday 11:00 - 22:00|  Wednesday 11:00 - 22:00|  Thursday 11:00 - 22:00|  Friday 11:00 - 23:00|  Saturday 11:00 - 23:00|  Sunday 11:00 - 22:00"
"http://www.rubytuesday.com/locations","Ruby Tuesday of Bismarck","3520 STATE STREET","BISMARCK","ND","58503","US","<MISSING>","701-751-4100","<MISSING>","<MISSING>","<MISSING>","Monday 11:00 - 22:00|  Tuesday 11:00 - 22:00|  Wednesday 11:00 - 22:00|  Thursday 11:00 - 22:00|  Friday 11:00 - 23:00|  Saturday 11:00 - 23:00|  Sunday 11:00 - 22:00"
"http://www.rubytuesday.com/locations","Ruby Tuesday of Horseheads","3300 CHAMBERS ROAD","HORSEHEADS","NY","14845","US","<MISSING>","607-796-5269","<MISSING>","<MISSING>","<MISSING>","Monday 11:00 - 22:00|  Tuesday 11:00 - 22:00|  Wednesday 11:00 - 22:00|  Thursday 11:00 - 22:00|  Friday 11:00 - 23:00|  Saturday 11:00 - 23:00|  Sunday 11:00 - 21:00"
"http://www.rubytuesday.com/locations","Ruby Tuesday of Westbury","1226 OLD COUNTRY ROAD","WESTBURY","NY","11590","US","<MISSING>","516-228-5176","<MISSING>","<MISSING>","<MISSING>","Monday 11:00 - 22:00|  Tuesday 11:00 - 22:00|  Wednesday 11:00 - 22:00|  Thursday 11:00 - 22:00|  Friday 11:00 - 23:00|  Saturday 11:00 - 23:00|  Sunday 11:00 - 22:00"
"http://www.rubytuesday.com/locations","Ruby Tuesday of Dickson City","1132 Ravine St","Dickson City","PA","18508","US","<MISSING>","570-348-4718","<MISSING>","<MISSING>","<MISSING>","Monday 11:00 - 22:00|  Tuesday 11:00 - 22:00|  Wednesday 11:00 - 22:00|  Thursday 11:00 - 22:00|  Friday 11:00 - 23:00|  Saturday 11:00 - 23:00|  Sunday 11:00 - 21:00"
"http://www.rubytuesday.com/locations","Ruby Tuesday of Times Square","585 7TH AVENUE","NEW YORK","NY","10036","US","<MISSING>","212-382-3898","<MISSING>","<MISSING>","<MISSING>","Monday 8:00 - 0:00|  Tuesday 8:00 - 0:00|  Wednesday 8:00 - 0:00|  Thursday 8:00 - 0:00|  Friday 8:00 - 1:00|  Saturday 8:00 - 1:00|  Sunday 8:00 - 0:00"
"http://www.rubytuesday.com/locations","Ruby Tuesday of Cadillac","8711 EAST 34 ROAD","CADILLAC","MI","49601","US","<MISSING>","231-779-1240","<MISSING>","<MISSING>","<MISSING>","Monday 11:00 - 22:00|  Tuesday 11:00 - 22:00|  Wednesday 11:00 - 22:00|  Thursday 11:00 - 22:00|  Friday 11:00 - 23:00|  Saturday 11:00 - 23:00|  Sunday 11:00 - 22:00"
"http://www.rubytuesday.com/locations","Ruby Tuesday of Montage Mountain","15 RADCLIFF DRIVE","MOOSIC","PA","18507","US","<MISSING>","570-961-9330","<MISSING>","<MISSING>","<MISSING>","Monday 11:00 - 22:00|  Tuesday 11:00 - 22:00|  Wednesday 11:00 - 22:00|  Thursday 11:00 - 22:00|  Friday 11:00 - 23:00|  Saturday 11:00 - 23:00|  Sunday 11:00 - 22:00"
"http://www.rubytuesday.com/locations","Ruby Tuesday of the Newark Liberty International Airport","BEYOND SECURITY GATETERMINAL A-19 GATE 39","newark","NJ","07102","US","<MISSING>","908-289-8307","<MISSING>","<MISSING>","<MISSING>","Monday 6:00 - 21:00|  Tuesday 6:00 - 21:00|  Wednesday 6:00 - 21:00|  Thursday 6:00 - 21:00|  Friday 6:00 - 21:00|  Saturday 6:00 - 21:00|  Sunday 6:00 - 21:00"
"http://www.rubytuesday.com/locations","Ruby Tuesday of Elizabeth, N.J.","120 GLIMCHER REALTY WAY","ELIZABETH","NJ","07201","US","<MISSING>","908-289-8307","<MISSING>","<MISSING>","<MISSING>","Monday 11:00 - 23:00|  Tuesday 11:00 - 23:00|  Wednesday 11:00 - 23:00|  Thursday 11:00 - 23:00|  Friday 11:00 - 0:00|  Saturday 11:00 - 0:00|  Sunday 11:00 - 22:00"
"http://www.rubytuesday.com/locations","Ruby Tuesday of Stroudsburg Route 611","1055 NORTH 9TH STREET","STROUDSBURG","PA","18360","US","<MISSING>","570-420-9110","<MISSING>","<MISSING>","<MISSING>","Monday 11:00 - 22:00|  Tuesday 11:00 - 22:00|  Wednesday 11:00 - 22:00|  Thursday 11:00 - 22:00|  Friday 11:00 - 23:00|  Saturday 11:00 - 23:00|  Sunday 11:00 - 21:00"
"http://www.rubytuesday.com/locations","Ruby Tuesday of Midland","6800 EASTMAN AVENUE","MIDLAND","MI","48640","US","<MISSING>","989-631-4050","<MISSING>","<MISSING>","<MISSING>","Monday 11:00 - 22:00|  Tuesday 11:00 - 22:00|  Wednesday 11:00 - 22:00|  Thursday 11:00 - 22:00|  Friday 11:00 - 23:00|  Saturday 11:00 - 23:00|  Sunday 11:00 - 21:00"
"http://www.rubytuesday.com/locations","Ruby Tuesday of Somerset","250 DAVIDSON AVE.","SOMERSET","NJ","08873","US","<MISSING>","732-868-9160","<MISSING>","<MISSING>","<MISSING>","Monday 11:00 - 23:00|  Tuesday 11:00 - 23:00|  Wednesday 11:00 - 23:00|  Thursday 11:00 - 23:00|  Friday 11:00 - 0:00|  Saturday 11:00 - 0:00|  Sunday 11:00 - 22:00"
"http://www.rubytuesday.com/locations","Ruby Tuesday of Monmouth","RT 35 AT WYCKOFF RD SPACE 2154","EATONTOWN","NJ","07724","US","<MISSING>","732-542-4141","<MISSING>","<MISSING>","<MISSING>","Monday 11:00 - 22:00|  Tuesday 11:00 - 22:00|  Wednesday 11:00 - 22:00|  Thursday 11:00 - 22:00|  Friday 11:00 - 23:00|  Saturday 11:00 - 23:00|  Sunday 11:00 - 21:00"
"http://www.rubytuesday.com/locations","Ruby Tuesday of Phillipsburg","1278 U.S. ROUTE 22","PHILLIPSBURG","NJ","08865","US","<MISSING>","908-213-2200","<MISSING>","<MISSING>","<MISSING>","Monday 11:00 - 22:00|  Tuesday 11:00 - 22:00|  Wednesday 11:00 - 22:00|  Thursday 11:00 - 22:00|  Friday 11:00 - 23:00|  Saturday 11:00 - 23:00|  Sunday 11:00 - 22:00"
"http://www.rubytuesday.com/locations","Ruby Tuesday of Mt. Pleasant","1023 E PICKARD STREET","MT. PLEASANT","MI","48858","US","<MISSING>","989-775-8737","<MISSING>","<MISSING>","<MISSING>","Monday 11:00 - 22:00|  Tuesday 11:00 - 22:00|  Wednesday 11:00 - 22:00|  Thursday 11:00 - 22:00|  Friday 11:00 - 23:00|  Saturday 11:00 - 23:00|  Sunday 11:00 - 22:00"
"http://www.rubytuesday.com/locations","Ruby Tuesday of Neptune","3595 ROUTE 66","NEPTUNE","NJ","07753","US","<MISSING>","732-918-4776","<MISSING>","<MISSING>","<MISSING>","Monday 11:00 - 22:00|  Tuesday 11:00 - 22:00|  Wednesday 11:00 - 22:00|  Thursday 11:00 - 22:00|  Friday 11:00 - 23:00|  Saturday 11:00 - 23:00|  Sunday 11:00 - 22:00"
"http://www.rubytuesday.com/locations","Ruby Tuesday of Bethlehem Township","2102 EMERICK BLVD.","BETHLEHEM","PA","18020","US","<MISSING>","610-694-9801","<MISSING>","<MISSING>","<MISSING>","Monday 11:00 - 22:00|  Tuesday 11:00 - 22:00|  Wednesday 11:00 - 22:00|  Thursday 11:00 - 22:00|  Friday 11:00 - 23:00|  Saturday 11:00 - 23:00|  Sunday 11:00 - 22:00"
"http://www.rubytuesday.com/locations","Ruby Tuesday of Freehold","RT 9 SP 1302 FREEHOLD RACEWAY MALL","FREEHOLD","NJ","07728","US","<MISSING>","732-577-9644","<MISSING>","<MISSING>","<MISSING>","Monday 11:00 - 22:00|  Tuesday 11:00 - 22:00|  Wednesday 11:00 - 22:00|  Thursday 11:00 - 22:00|  Friday 11:00 - 23:00|  Saturday 11:00 - 23:00|  Sunday 11:00 - 21:00"
"http://www.rubytuesday.com/locations","Ruby Tuesday of Williamsport","1940 EAST THIRD STREET","WILLIAMSPORT","PA","17701","US","<MISSING>","570-321-6373","<MISSING>","<MISSING>","<MISSING>","Monday 11:00 - 22:00|  Tuesday 11:00 - 22:00|  Wednesday 11:00 - 22:00|  Thursday 11:00 - 22:00|  Friday 11:00 - 23:00|  Saturday 11:00 - 23:00|  Sunday 11:00 - 22:00"
"http://www.rubytuesday.com/locations","Ruby Tuesday of Big Rapids","15397 WALDRON WAY","BIG RAPIDS","MI","49307","US","<MISSING>","231-592-3454","<MISSING>","<MISSING>","<MISSING>","Monday 11:00 - 22:00|  Tuesday 11:00 - 22:00|  Wednesday 11:00 - 22:00|  Thursday 11:00 - 22:00|  Friday 11:00 - 23:00|  Saturday 11:00 - 23:00|  Sunday 11:00 - 22:00"
"http://www.rubytuesday.com/locations","Ruby Tuesday of Bloomsburg","11 RICKY AVE","BLOOMSBURG","PA","17815","US","<MISSING>","570-389-9750","<MISSING>","<MISSING>","<MISSING>","Monday 11:00 - 22:00|  Tuesday 11:00 - 22:00|  Wednesday 11:00 - 22:00|  Thursday 11:00 - 22:00|  Friday 11:00 - 23:00|  Saturday 11:00 - 23:00|  Sunday 11:00 - 22:00"
"http://www.rubytuesday.com/locations","Ruby Tuesday of Lehigh Valley Mall","101 LEHIGH VALLEY MALL","WHITEHALL","PA","18052","US","<MISSING>","610-264-7787","<MISSING>","<MISSING>","<MISSING>","Monday 11:00 - 21:00|  Tuesday 11:00 - 21:00|  Wednesday 11:00 - 21:00|  Thursday 11:00 - 21:00|  Friday 11:00 - 21:00|  Saturday 11:00 - 21:00|  Sunday 11:00 - 18:00"
"http://www.rubytuesday.com/locations","Ruby Tuesday of Allentown-Tilghman","3995 TILGHMAN STREET","ALLENTOWN","PA","18104","US","<MISSING>","610-530-8570","<MISSING>","<MISSING>","<MISSING>","Monday 11:00 - 22:00|  Tuesday 11:00 - 22:00|  Wednesday 11:00 - 22:00|  Thursday 11:00 - 22:00|  Friday 11:00 - 23:00|  Saturday 11:00 - 23:00|  Sunday 11:00 - 22:00"
"http://www.rubytuesday.com/locations","Ruby Tuesday of Brick","1875 ROUTE 70","LAKEWOOD","NJ","08701","US","<MISSING>","732-262-1331","<MISSING>","<MISSING>","<MISSING>","Monday 11:00 - 22:00|  Tuesday 11:00 - 22:00|  Wednesday 11:00 - 22:00|  Thursday 11:00 - 22:00|  Friday 11:00 - 23:00|  Saturday 11:00 - 23:00|  Sunday 11:00 - 22:00"
"http://www.rubytuesday.com/locations","Ruby Tuesday of Hamilton","500 MARKETPLACE BLVD","HAMILTON","NJ","08691","US","<MISSING>","609-581-7232","<MISSING>","<MISSING>","<MISSING>","Monday 11:00 - 22:00|  Tuesday 11:00 - 22:00|  Wednesday 11:00 - 22:00|  Thursday 11:00 - 22:00|  Friday 11:00 - 23:00|  Saturday 11:00 - 23:00|  Sunday 11:00 - 22:00"
"http://www.rubytuesday.com/locations","Ruby Tuesday of Toms River","1311 RT. 37 WEST","TOMS RIVER","NJ","08755","US","<MISSING>","732-505-3045","<MISSING>","<MISSING>","<MISSING>","Monday 11:00 - 22:00|  Tuesday 11:00 - 22:00|  Wednesday 11:00 - 22:00|  Thursday 11:00 - 22:00|  Friday 11:00 - 23:00|  Saturday 11:00 - 23:00|  Sunday 11:00 - 22:00"
"http://www.rubytuesday.com/locations","Ruby Tuesday of Pottsville","312 PA-61","POTTSVILLE","PA","17901","US","<MISSING>","570-624-7795","<MISSING>","<MISSING>","<MISSING>","Monday 11:00 - 22:00|  Tuesday 11:00 - 22:00|  Wednesday 11:00 - 22:00|  Thursday 11:00 - 22:00|  Friday 11:00 - 23:00|  Saturday 11:00 - 23:00|  Sunday 11:00 - 21:00"
"http://www.rubytuesday.com/locations","Ruby Tuesday of Lock Haven","281 1/2 HOGAN BLVD","MILL HALL","PA","17751","US","<MISSING>","570-748-6563","<MISSING>","<MISSING>","<MISSING>","Monday 11:00 - 22:00|  Tuesday 11:00 - 22:00|  Wednesday 11:00 - 22:00|  Thursday 11:00 - 22:00|  Friday 11:00 - 23:00|  Saturday 11:00 - 23:00|  Sunday 11:00 - 22:00"
"http://www.rubytuesday.com/locations","Ruby Tuesday of Langhorne","1440 EAST LINCOLN HIGHWAY","LANGHORNE","PA","19047","US","<MISSING>","267-572-2143","<MISSING>","<MISSING>","<MISSING>","Monday 11:00 - 22:00|  Tuesday 11:00 - 22:00|  Wednesday 11:00 - 22:00|  Thursday 11:00 - 22:00|  Friday 11:00 - 23:00|  Saturday 11:00 - 23:00|  Sunday 11:00 - 22:00"
"http://www.rubytuesday.com/locations","Ruby Tuesday of Montgomeryville","650 COWPATH ROAD","LANSDALE","PA","19446","US","<MISSING>","215-362-0713","<MISSING>","<MISSING>","<MISSING>","Monday 11:00 - 22:00|  Tuesday 11:00 - 22:00|  Wednesday 11:00 - 22:00|  Thursday 11:00 - 22:00|  Friday 11:00 - 23:00|  Saturday 11:00 - 23:00|  Sunday 11:00 - 22:00"
"http://www.rubytuesday.com/locations","Ruby Tuesday of Aberdeen","3125 6TH AVE. SE","ABERDEEN","SD","57401","US","<MISSING>","605-262-1500","<MISSING>","<MISSING>","<MISSING>","Monday 11:00 - 22:00|  Tuesday 11:00 - 22:00|  Wednesday 11:00 - 22:00|  Thursday 11:00 - 22:00|  Friday 11:00 - 23:00|  Saturday 11:00 - 23:00|  Sunday 11:00 - 22:00"
"http://www.rubytuesday.com/locations","Ruby Tuesday of Chesterfield","51295 GRATIOT AVE.","CHESTERFIELD TOWNSHIP","MI","48051","US","<MISSING>","586-948-3610","<MISSING>","<MISSING>","<MISSING>","Monday 11:00 - 22:00|  Tuesday 11:00 - 22:00|  Wednesday 11:00 - 22:00|  Thursday 11:00 - 22:00|  Friday 11:00 - 23:00|  Saturday 11:00 - 23:00|  Sunday 11:00 - 22:00"
"http://www.rubytuesday.com/locations","Ruby Tuesday of Shakopee","4135 DEAN LAKES BOULEVARD","SHAKOPEE","MN","55379","US","<MISSING>","952-403-7893","<MISSING>","<MISSING>","<MISSING>","Monday 11:00 - 22:00|  Tuesday 11:00 - 22:00|  Wednesday 11:00 - 22:00|  Thursday 11:00 - 22:00|  Friday 11:00 - 23:00|  Saturday 11:00 - 23:00|  Sunday 11:00 - 22:00"
"http://www.rubytuesday.com/locations","Ruby Tuesday of Clarkston","6898 SASHABAW RD","CLARKSTON","MI","48348","US","<MISSING>","248-625-2008","<MISSING>","<MISSING>","<MISSING>","Monday 11:00 - 22:00|  Tuesday 11:00 - 22:00|  Wednesday 11:00 - 22:00|  Thursday 11:00 - 22:00|  Friday 11:00 - 23:00|  Saturday 11:00 - 23:00|  Sunday 11:00 - 22:00"
"http://www.rubytuesday.com/locations","Ruby Tuesday of Limerick","18 LIGHTCAP RD. BLDG 701","POTTSTOWN","PA","19464","US","<MISSING>","610-718-8960","<MISSING>","<MISSING>","<MISSING>","Monday 11:00 - 22:00|  Tuesday 11:00 - 22:00|  Wednesday 11:00 - 22:00|  Thursday 11:00 - 22:00|  Friday 11:00 - 22:00|  Saturday 11:00 - 22:00|  Sunday 11:00 - 20:00"
"http://www.rubytuesday.com/locations","Ruby Tuesday of Mt. Laurel","4011 DEARBORN CIRCLE","MT. LAUREL","NJ","08054","US","<MISSING>","856-439-0042","<MISSING>","<MISSING>","<MISSING>","Monday 11:00 - 22:00|  Tuesday 11:00 - 22:00|  Wednesday 11:00 - 22:00|  Thursday 11:00 - 22:00|  Friday 11:00 - 23:00|  Saturday 11:00 - 23:00|  Sunday 11:00 - 22:00"
"http://www.rubytuesday.com/locations","Ruby Tuesday of Plymouth Meeting","2053 CHEMICAL ROAD","PLYMOUTH MEETING","PA","19462","US","<MISSING>","610-260-4466","<MISSING>","<MISSING>","<MISSING>","Monday 11:00 - 23:00|  Tuesday 11:00 - 23:00|  Wednesday 11:00 - 23:00|  Thursday 11:00 - 23:00|  Friday 11:00 - 0:00|  Saturday 11:00 - 0:00|  Sunday 11:00 - 22:00"
"http://www.rubytuesday.com/locations","Ruby Tuesday of Wyomissing","1665 STATE HILL ROAD","WYOMISSING","PA","19610","US","<MISSING>","610-373-6900","<MISSING>","<MISSING>","<MISSING>","Monday 11:00 - 22:00|  Tuesday 11:00 - 22:00|  Wednesday 11:00 - 22:00|  Thursday 11:00 - 22:00|  Friday 11:00 - 23:00|  Saturday 11:00 - 23:00|  Sunday 11:00 - 21:00"
"http://www.rubytuesday.com/locations","Ruby Tuesday of 15 Mi-Van Dyke","35500 VAN DYKE AVENUE","STERLING HEIGHTS","MI","48312","US","<MISSING>","586-264-1654","<MISSING>","<MISSING>","<MISSING>","Monday 11:00 - 22:00|  Tuesday 11:00 - 22:00|  Wednesday 11:00 - 22:00|  Thursday 11:00 - 22:00|  Friday 11:00 - 23:00|  Saturday 11:00 - 23:00|  Sunday 11:00 - 22:00"
"http://www.rubytuesday.com/locations","Ruby Tuesday of Roseville","30901 GRATIOT AVENUE","ROSEVILLE","MI","48066","US","<MISSING>","586-415-9478","<MISSING>","<MISSING>","<MISSING>","Monday 11:00 - 22:00|  Tuesday 11:00 - 22:00|  Wednesday 11:00 - 22:00|  Thursday 11:00 - 22:00|  Friday 11:00 - 23:00|  Saturday 11:00 - 23:00|  Sunday 11:00 - 22:00"
"http://www.rubytuesday.com/locations","Ruby Tuesday of Airport Interplex","8680 BARTRAM AVE","PHILADELPHIA","PA","19153","US","<MISSING>","215-365-7587","<MISSING>","<MISSING>","<MISSING>","Monday 11:00 - 23:00|  Tuesday 11:00 - 23:00|  Wednesday 11:00 - 23:00|  Thursday 11:00 - 23:00|  Friday 11:00 - 0:00|  Saturday 11:00 - 0:00|  Sunday 11:00 - 22:00"
"http://www.rubytuesday.com/locations","Ruby Tuesday of Dubois","690 SHAFFER ROAD & ROUTE 255","DUBOIS","PA","15801","US","<MISSING>","814-372-4990","<MISSING>","<MISSING>","<MISSING>","Monday 11:00 - 22:00|  Tuesday 11:00 - 22:00|  Wednesday 11:00 - 22:00|  Thursday 11:00 - 22:00|  Friday 11:00 - 23:00|  Saturday 11:00 - 23:00|  Sunday 11:00 - 22:00"
"http://www.rubytuesday.com/locations","Ruby Tuesday of Lebanon","1351 QUENTIN ROAD","LEBANON","PA","17042","US","<MISSING>","717-274-2081","<MISSING>","<MISSING>","<MISSING>","Monday 11:00 - 22:00|  Tuesday 11:00 - 22:00|  Wednesday 11:00 - 22:00|  Thursday 11:00 - 22:00|  Friday 11:00 - 23:00|  Saturday 11:00 - 23:00|  Sunday 11:00 - 21:00"
"http://www.rubytuesday.com/locations","Ruby Tuesday of Ridley MacDade Mall","2650 MACDADE BLVD","HOLMES","PA","19043","US","<MISSING>","610-583-3791","<MISSING>","<MISSING>","<MISSING>","Monday 11:00 - 22:00|  Tuesday 11:00 - 22:00|  Wednesday 11:00 - 22:00|  Thursday 11:00 - 22:00|  Friday 11:00 - 23:00|  Saturday 11:00 - 23:00|  Sunday 11:00 - 22:00"
"http://www.rubytuesday.com/locations","Ruby Tuesday of Deptford","CLEMENTS BRIDGE RD DEPTFORD MALL 1A","DEPTFORD","NJ","08096","US","<MISSING>","856-845-3330","<MISSING>","<MISSING>","<MISSING>","Monday 11:00 - 22:00|  Tuesday 11:00 - 22:00|  Wednesday 11:00 - 22:00|  Thursday 11:00 - 22:00|  Friday 11:00 - 23:00|  Saturday 11:00 - 23:00|  Sunday 11:00 - 21:00"
"http://www.rubytuesday.com/locations","Ruby Tuesday of Springfield","1250 BALTIMORE PIKE","SPRINGFIELD","PA","19064","US","<MISSING>","610-543-7509","<MISSING>","<MISSING>","<MISSING>","Monday 11:00 - 22:00|  Tuesday 11:00 - 22:00|  Wednesday 11:00 - 22:00|  Thursday 11:00 - 22:00|  Friday 11:00 - 23:00|  Saturday 11:00 - 23:00|  Sunday 11:00 - 21:00"
"http://www.rubytuesday.com/locations","Ruby Tuesday of Novi","39581 TWELVE MILE ROAD","NOVI","MI","48377","US","<MISSING>","248-348-7635","<MISSING>","<MISSING>","<MISSING>","Monday 11:00 - 22:00|  Tuesday 11:00 - 22:00|  Wednesday 11:00 - 22:00|  Thursday 11:00 - 22:00|  Friday 11:00 - 23:00|  Saturday 11:00 - 23:00|  Sunday 11:00 - 22:00"
"http://www.rubytuesday.com/locations","Ruby Tuesday of Mays Landing","4403 BLACK HORSE PIKE","MAYS LANDING","NJ","08330","US","<MISSING>","609-272-1550","<MISSING>","<MISSING>","<MISSING>","Monday 11:00 - 22:00|  Tuesday 11:00 - 22:00|  Wednesday 11:00 - 22:00|  Thursday 11:00 - 22:00|  Friday 11:00 - 23:00|  Saturday 11:00 - 23:00|  Sunday 11:00 - 21:00"
"http://www.rubytuesday.com/locations","Ruby Tuesday of Lancaster","2002 FRUITVILLE PIKE","LANCASTER","PA","17601","US","<MISSING>","717-560-5030","<MISSING>","<MISSING>","<MISSING>","Monday 11:00 - 22:00|  Tuesday 11:00 - 22:00|  Wednesday 11:00 - 22:00|  Thursday 11:00 - 22:00|  Friday 11:00 - 23:00|  Saturday 11:00 - 23:00|  Sunday 11:00 - 22:00"
"http://www.rubytuesday.com/locations","Ruby Tuesday of East Harrisburg","3991 PAXTON STREET","HARRISBURG","PA","17111","US","<MISSING>","717-561-0750","<MISSING>","<MISSING>","<MISSING>","Monday 11:00 - 22:00|  Tuesday 11:00 - 22:00|  Wednesday 11:00 - 22:00|  Thursday 11:00 - 22:00|  Friday 11:00 - 23:00|  Saturday 11:00 - 23:00|  Sunday 11:00 - 22:00"
"http://www.rubytuesday.com/locations","Ruby Tuesday of Mentor","9515 DIAMOND CENTRE DRIVE","MENTOR","OH","44060","US","<MISSING>","440-639-9670","<MISSING>","<MISSING>","<MISSING>","Monday 11:00 - 22:00|  Tuesday 11:00 - 22:00|  Wednesday 11:00 - 22:00|  Thursday 11:00 - 22:00|  Friday 11:00 - 23:00|  Saturday 11:00 - 23:00|  Sunday 11:00 - 21:00"
"http://www.rubytuesday.com/locations","Ruby Tuesday of Manor","1294 MILLERSVILLE PIKE","LANCASTER","PA","17603","US","<MISSING>","717-509-5701","<MISSING>","<MISSING>","<MISSING>","Monday 11:00 - 22:00|  Tuesday 11:00 - 22:00|  Wednesday 11:00 - 22:00|  Thursday 11:00 - 22:00|  Friday 11:00 - 23:00|  Saturday 11:00 - 23:00|  Sunday 11:00 - 22:00"
"http://www.rubytuesday.com/locations","Ruby Tuesday of South Canton","45660 MICHIGAN AVE","CANTON","MI","48188","US","<MISSING>","734-394-3002","<MISSING>","<MISSING>","<MISSING>","Monday 11:00 - 22:00|  Tuesday 11:00 - 22:00|  Wednesday 11:00 - 22:00|  Thursday 11:00 - 22:00|  Friday 11:00 - 23:00|  Saturday 11:00 - 23:00|  Sunday 11:00 - 22:00"
"http://www.rubytuesday.com/locations","Ruby Tuesday of the Detroit Airport","Detroit Metropolitan Wayne County Airport North Terminal Detroit Airport 601 W G Rogell Dr.","Detroit","MI","48242","US","<MISSING>","734-442-5761","<MISSING>","<MISSING>","<MISSING>","Monday 9:00 - 21:00|  Tuesday 9:00 - 21:00|  Wednesday 9:00 - 21:00|  Thursday 9:00 - 21:00|  Friday 9:00 - 21:00|  Saturday 9:00 - 21:00|  Sunday 9:00 - 21:00"
"http://www.rubytuesday.com/locations","Ruby Tuesday of Pike Creek","4732 LIMESTONE RD.","WILMINGTON","DE","19808","US","<MISSING>","302-995-9081","<MISSING>","<MISSING>","<MISSING>","Monday 11:00 - 22:00|  Tuesday 11:00 - 22:00|  Wednesday 11:00 - 22:00|  Thursday 11:00 - 22:00|  Friday 11:00 - 23:00|  Saturday 11:00 - 23:00|  Sunday 11:00 - 22:00"
"http://www.rubytuesday.com/locations","Ruby Tuesday of Bear","928 BEAR CORBITT ROAD","BEAR","DE","19702","US","<MISSING>","302-834-1039","<MISSING>","<MISSING>","<MISSING>","Monday 11:00 - 23:00|  Tuesday 11:00 - 23:00|  Wednesday 11:00 - 23:00|  Thursday 11:00 - 23:00|  Friday 11:00 - 23:00|  Saturday 11:00 - 23:00|  Sunday 11:00 - 22:00"
"http://www.rubytuesday.com/locations","Ruby Tuesday of Saline","1375 E MICHIGAN AVENUE","SALINE","MI","48176","US","<MISSING>","734-429-3873","<MISSING>","<MISSING>","<MISSING>","Monday 11:00 - 22:00|  Tuesday 11:00 - 22:00|  Wednesday 11:00 - 22:00|  Thursday 11:00 - 22:00|  Friday 11:00 - 23:00|  Saturday 11:00 - 23:00|  Sunday 11:00 - 22:00"
"http://www.rubytuesday.com/locations","Ruby Tuesday of Middletown","474 WEST MAIN ST","MIDDLETOWN","DE","19709","US","<MISSING>","302-449-1266","<MISSING>","<MISSING>","<MISSING>","Monday 11:00 - 22:00|  Tuesday 11:00 - 22:00|  Wednesday 11:00 - 22:00|  Thursday 11:00 - 22:00|  Friday 11:00 - 23:00|  Saturday 11:00 - 23:00|  Sunday 11:00 - 22:00"
"http://www.rubytuesday.com/locations","Ruby Tuesday of Shrewsbury","1020 FAR HILLS DRIVE","NEW FREEDOM","PA","17349","US","<MISSING>","717-235-0223","<MISSING>","<MISSING>","<MISSING>","Monday 11:00 - 22:00|  Tuesday 11:00 - 22:00|  Wednesday 11:00 - 22:00|  Thursday 11:00 - 22:00|  Friday 11:00 - 23:00|  Saturday 11:00 - 23:00|  Sunday 11:00 - 22:00"
"http://www.rubytuesday.com/locations","Ruby Tuesday of New Castle","2543 W. STATE STREET","NEW CASTLE","PA","16101","US","<MISSING>","724-654-1236","<MISSING>","<MISSING>","<MISSING>","Monday 11:00 - 22:00|  Tuesday 11:00 - 22:00|  Wednesday 11:00 - 22:00|  Thursday 11:00 - 22:00|  Friday 11:00 - 23:00|  Saturday 11:00 - 23:00|  Sunday 11:00 - 22:00"
"http://www.rubytuesday.com/locations","Ruby Tuesday of Indiana","1414 INDIAN SPRINGS RD.","INDIANA","PA","15701","US","<MISSING>","724-465-7853","<MISSING>","<MISSING>","<MISSING>","Monday 11:00 - 22:00|  Tuesday 11:00 - 22:00|  Wednesday 11:00 - 22:00|  Thursday 11:00 - 22:00|  Friday 11:00 - 23:00|  Saturday 11:00 - 23:00|  Sunday 11:00 - 22:00"
"http://www.rubytuesday.com/locations","Ruby Tuesday of Austintown","5555 MAHONING AVE","AUSTINTOWN","OH","44515","US","<MISSING>","330-779-3640","<MISSING>","<MISSING>","<MISSING>","Monday 11:00 - 22:00|  Tuesday 11:00 - 22:00|  Wednesday 11:00 - 22:00|  Thursday 11:00 - 22:00|  Friday 11:00 - 23:00|  Saturday 11:00 - 23:00|  Sunday 11:00 - 22:00"
"http://www.rubytuesday.com/locations","Ruby Tuesday of Seven Hills","7331 BROADVIEW ROAD","SEVEN HILLS","OH","44131","US","<MISSING>","216-447-1662","<MISSING>","<MISSING>","<MISSING>","Monday 11:00 - 22:00|  Tuesday 11:00 - 22:00|  Wednesday 11:00 - 22:00|  Thursday 11:00 - 22:00|  Friday 11:00 - 23:00|  Saturday 11:00 - 23:00|  Sunday 11:00 - 21:00"
"http://www.rubytuesday.com/locations","Ruby Tuesday of Greendale","5320 S 76TH STREET","GREENDALE","WI","53129","US","<MISSING>","414-423-0530","<MISSING>","<MISSING>","<MISSING>","Monday 11:00 - 21:00|  Tuesday 11:00 - 21:00|  Wednesday 11:00 - 21:00|  Thursday 11:00 - 21:00|  Friday 11:00 - 22:00|  Saturday 11:00 - 22:00|  Sunday 11:00 - 21:00"
"http://www.rubytuesday.com/locations","Ruby Tuesday of Streetsboro","9687 STATE ROUTE 14","STREETSBORO","OH","44241","US","<MISSING>","330-626-5115","<MISSING>","<MISSING>","<MISSING>","Monday 11:00 - 22:00|  Tuesday 11:00 - 22:00|  Wednesday 11:00 - 22:00|  Thursday 11:00 - 22:00|  Friday 11:00 - 23:00|  Saturday 11:00 - 23:00|  Sunday 11:00 - 21:00"
"http://www.rubytuesday.com/locations","Ruby Tuesday of Battle Creek","6083 B DRIVE NORTH","BATTLE CREEK","MI","49014","US","<MISSING>","269-979-8310","<MISSING>","<MISSING>","<MISSING>","Monday 11:00 - 22:00|  Tuesday 11:00 - 22:00|  Wednesday 11:00 - 22:00|  Thursday 11:00 - 22:00|  Friday 11:00 - 23:00|  Saturday 11:00 - 23:00|  Sunday 11:00 - 22:00"
"http://www.rubytuesday.com/locations","Ruby Tuesday of Canfield","4525 BOARDMAN-CANFIELD RD.","CANFIELD","OH","44406","US","<MISSING>","330-533-7530","<MISSING>","<MISSING>","<MISSING>","Monday 11:00 - 22:00|  Tuesday 11:00 - 22:00|  Wednesday 11:00 - 22:00|  Thursday 11:00 - 22:00|  Friday 11:00 - 23:00|  Saturday 11:00 - 23:00|  Sunday 11:00 - 22:00"
"http://www.rubytuesday.com/locations","Ruby Tuesday of Sheffield","5274 ABBE RD NORTH","ELYRIA","OH","44035","US","<MISSING>","440-934-1200","<MISSING>","<MISSING>","<MISSING>","Monday 11:00 - 22:00|  Tuesday 11:00 - 22:00|  Wednesday 11:00 - 22:00|  Thursday 11:00 - 22:00|  Friday 11:00 - 23:00|  Saturday 11:00 - 23:00|  Sunday 11:00 - 21:00"
"http://www.rubytuesday.com/locations","Ruby Tuesday of Gettysburg","25 CAMP LETTERMAN DRIVE","GETTYSBURG","PA","17325","US","<MISSING>","717-334-6127","<MISSING>","<MISSING>","<MISSING>","Monday 11:00 - 22:00|  Tuesday 11:00 - 22:00|  Wednesday 11:00 - 22:00|  Thursday 11:00 - 22:00|  Friday 11:00 - 23:00|  Saturday 11:00 - 23:00|  Sunday 11:00 - 22:00"
"http://www.rubytuesday.com/locations","Ruby Tuesday of Chambersburg","1121 LINCOLN HIGHWAY EAST","CHAMBERSBURG","PA","17201","US","<MISSING>","717-262-2205","<MISSING>","<MISSING>","<MISSING>","Monday 11:00 - 22:00|  Tuesday 11:00 - 22:00|  Wednesday 11:00 - 22:00|  Thursday 11:00 - 22:00|  Friday 11:00 - 23:00|  Saturday 11:00 - 23:00|  Sunday 11:00 - 22:00"
"http://www.rubytuesday.com/locations","Ruby Tuesday of Westminster, MD","210 MALCOLM DRIVE","WESTMINSTER","MD","21157","US","<MISSING>","410-751-7056","<MISSING>","<MISSING>","<MISSING>","Monday 11:00 - 22:00|  Tuesday 11:00 - 22:00|  Wednesday 11:00 - 22:00|  Thursday 11:00 - 22:00|  Friday 11:00 - 23:00|  Saturday 11:00 - 23:00|  Sunday 11:00 - 22:00"
"http://www.rubytuesday.com/locations","Ruby Tuesday of Medina","1001 NORTH COURT ST.","MEDINA","OH","44256","US","<MISSING>","330-723-6206","<MISSING>","<MISSING>","<MISSING>","Monday 11:00 - 22:00|  Tuesday 11:00 - 22:00|  Wednesday 11:00 - 22:00|  Thursday 11:00 - 22:00|  Friday 11:00 - 23:00|  Saturday 11:00 - 23:00|  Sunday 11:00 - 21:00"
"http://www.rubytuesday.com/locations","Ruby Tuesday of Milford DE","945 N DUPONT BLVD","MILFORD","DE","19963","US","<MISSING>","302-424-8049","<MISSING>","<MISSING>","<MISSING>","Monday 11:00 - 22:00|  Tuesday 11:00 - 22:00|  Wednesday 11:00 - 22:00|  Thursday 11:00 - 22:00|  Friday 11:00 - 23:00|  Saturday 11:00 - 23:00|  Sunday 11:00 - 22:00"
"http://www.rubytuesday.com/locations","Ruby Tuesday of North Canton","5449 DRESSLER ROAD NW","NORTH CANTON","OH","44720","US","<MISSING>","330-494-0232","<MISSING>","<MISSING>","<MISSING>","Monday 11:00 - 22:00|  Tuesday 11:00 - 22:00|  Wednesday 11:00 - 22:00|  Thursday 11:00 - 22:00|  Friday 11:00 - 23:00|  Saturday 11:00 - 23:00|  Sunday 11:00 - 21:00"
"http://www.rubytuesday.com/locations","Ruby Tuesday of Hagerstown","1645 WESEL BOULEVARD","HAGERSTOWN","MD","21740","US","<MISSING>","301-745-3114","<MISSING>","<MISSING>","<MISSING>","Monday 11:00 - 22:00|  Tuesday 11:00 - 22:00|  Wednesday 11:00 - 22:00|  Thursday 11:00 - 22:00|  Friday 11:00 - 23:00|  Saturday 11:00 - 23:00|  Sunday 11:00 - 22:00"
"http://www.rubytuesday.com/locations","Ruby Tuesday of Linthicum","950 INTERNATIONAL DRIVE","LINTHICUM","MD","21090","US","<MISSING>","410-694-0031","<MISSING>","<MISSING>","<MISSING>","Monday 11:00 - 23:00|  Tuesday 11:00 - 23:00|  Wednesday 11:00 - 23:00|  Thursday 11:00 - 23:00|  Friday 11:00 - 0:00|  Saturday 11:00 - 0:00|  Sunday 11:00 - 22:00"
"http://www.rubytuesday.com/locations","Ruby Tuesday of Somerset","1019 NORTH CENTER AVENUE","SOMERSET","PA","15501","US","<MISSING>","814-445-3934","<MISSING>","<MISSING>","<MISSING>","Monday 11:00 - 22:00|  Tuesday 11:00 - 22:00|  Wednesday 11:00 - 22:00|  Thursday 11:00 - 22:00|  Friday 11:00 - 23:00|  Saturday 11:00 - 23:00|  Sunday 11:00 - 22:00"
"http://www.rubytuesday.com/locations","Ruby Tuesday of Marley Station","7900 GOVERNOR RITCHIE HIGHWY","GLEN BURNIE","MD","21061","US","<MISSING>","410-766-4446","<MISSING>","<MISSING>","<MISSING>","Monday 11:00 - 22:00|  Tuesday 11:00 - 22:00|  Wednesday 11:00 - 22:00|  Thursday 11:00 - 22:00|  Friday 11:00 - 23:00|  Saturday 11:00 - 23:00|  Sunday 11:00 - 21:00"
"http://www.rubytuesday.com/locations","Ruby Tuesday of Columbia MD","9071 SNOWDEN RIVER PARKWAY","COLUMBIA","MD","21046","US","<MISSING>","410-312-0917","<MISSING>","<MISSING>","<MISSING>","Monday 11:00 - 22:00|  Tuesday 11:00 - 22:00|  Wednesday 11:00 - 22:00|  Thursday 11:00 - 22:00|  Friday 11:00 - 23:00|  Saturday 11:00 - 23:00|  Sunday 11:00 - 22:00"
"http://www.rubytuesday.com/locations","Ruby Tuesday of Frederick Crossing Guilford Dr.","7385 GUILFORD DR","FREDERICK","MD","21704","US","<MISSING>","240-379-6415","<MISSING>","<MISSING>","<MISSING>","Monday 11:00 - 22:00|  Tuesday 11:00 - 22:00|  Wednesday 11:00 - 22:00|  Thursday 11:00 - 22:00|  Friday 11:00 - 23:00|  Saturday 11:00 - 23:00|  Sunday 11:00 - 22:00"
"http://www.rubytuesday.com/locations","Ruby Tuesday of Angola","2304 NORTH WAYNE STREET","ANGOLA","IN","46703","US","<MISSING>","260-665-8791","<MISSING>","<MISSING>","<MISSING>","Monday 11:00 - 22:00|  Tuesday 11:00 - 22:00|  Wednesday 11:00 - 22:00|  Thursday 11:00 - 22:00|  Friday 11:00 - 23:00|  Saturday 11:00 - 23:00|  Sunday 11:00 - 22:00"
"http://www.rubytuesday.com/locations","Ruby Tuesday of Gillette","420 E. Boxelder Rd.","Gillette","WY","82718","US","<MISSING>","307-682-0707","<MISSING>","<MISSING>","<MISSING>","Monday 11:00 - 23:00|  Tuesday 11:00 - 23:00|  Wednesday 11:00 - 23:00|  Thursday 11:00 - 23:00|  Friday 11:00 - 24:00|  Saturday 11:00 - 24:00|  Sunday 11:00 - 22:00"
"http://www.rubytuesday.com/locations","Ruby Tuesday of Easton Plaza","505 GLEBE ROAD","EASTON","MD","21601","US","<MISSING>","410-763-8475","<MISSING>","<MISSING>","<MISSING>","Monday 11:00 - 22:00|  Tuesday 11:00 - 22:00|  Wednesday 11:00 - 22:00|  Thursday 11:00 - 22:00|  Friday 11:00 - 23:00|  Saturday 11:00 - 23:00|  Sunday 11:00 - 22:00"
"http://www.rubytuesday.com/locations","Ruby Tuesday of Martinsburg","960 FOXCROFT AVE.","MARTINSBURG","WV","25401","US","<MISSING>","304-264-9340","<MISSING>","<MISSING>","<MISSING>","Monday 11:00 - 22:00|  Tuesday 11:00 - 22:00|  Wednesday 11:00 - 22:00|  Thursday 11:00 - 22:00|  Friday 11:00 - 23:00|  Saturday 11:00 - 23:00|  Sunday 11:00 - 22:00"
"http://www.rubytuesday.com/locations","Ruby Tuesday of Lake Forest","701 RUSSELL AVE. SPACE D-223","GAITHERSBURG","MD","20877","US","<MISSING>","301-216-2772","<MISSING>","<MISSING>","<MISSING>","Monday 11:00 - 22:00|  Tuesday 11:00 - 22:00|  Wednesday 11:00 - 22:00|  Thursday 11:00 - 22:00|  Friday 11:00 - 23:00|  Saturday 11:00 - 23:00|  Sunday 11:00 - 21:00"
"http://www.rubytuesday.com/locations","Ruby Tuesday of Greenbelt","8811 GREENBELT ROAD","GREENBELT","MD","20770","US","<MISSING>","301-552-0100","<MISSING>","<MISSING>","<MISSING>","Monday 11:00 - 22:00|  Tuesday 11:00 - 22:00|  Wednesday 11:00 - 22:00|  Thursday 11:00 - 22:00|  Friday 11:00 - 0:00|  Saturday 11:00 - 0:00|  Sunday 11:00 - 22:00"
"http://www.rubytuesday.com/locations","Ruby Tuesday of Rapid City","821 FAIRMONT BLVD.","RAPID CITY","SD","57701","US","<MISSING>","605-343-1700","<MISSING>","<MISSING>","<MISSING>","Monday 11:00 - 22:00|  Tuesday 11:00 - 22:00|  Wednesday 11:00 - 22:00|  Thursday 11:00 - 22:00|  Friday 11:00 - 23:00|  Saturday 11:00 - 23:00|  Sunday 9:30 - 22:00"
"http://www.rubytuesday.com/locations","Ruby Tuesday of LaVale","1238 NATIONAL HIGHWAY RT. 40","LAVALE","MD","21502","US","<MISSING>","301-729-8738","<MISSING>","<MISSING>","<MISSING>","Monday 11:00 - 22:00|  Tuesday 11:00 - 22:00|  Wednesday 11:00 - 22:00|  Thursday 11:00 - 22:00|  Friday 11:00 - 23:00|  Saturday 11:00 - 23:00|  Sunday 11:00 - 22:00"
"http://www.rubytuesday.com/locations","Ruby Tuesday of Mitchell","1900 HIGHLAND WAY","MITCHELL","SD","57301","US","<MISSING>","605-996-5208","<MISSING>","<MISSING>","<MISSING>","Monday 11:00 - 23:00|  Tuesday 11:00 - 23:00|  Wednesday 11:00 - 23:00|  Thursday 11:00 - 23:00|  Friday 11:00 - 0:00|  Saturday 11:00 - 0:00|  Sunday 11:00 - 22:00"
"http://www.rubytuesday.com/locations","Ruby Tuesday of Charles Town","701 WILLOW SPRING DRIVE","CHARLES TOWN","WV","25414","US","<MISSING>","304-728-6680","<MISSING>","<MISSING>","<MISSING>","Monday 11:00 - 22:00|  Tuesday 11:00 - 22:00|  Wednesday 11:00 - 22:00|  Thursday 11:00 - 22:00|  Friday 11:00 - 23:00|  Saturday 11:00 - 23:00|  Sunday 11:00 - 22:00"
"http://www.rubytuesday.com/locations","Ruby Tuesday of Inglewood","9680 LOTTSFORD CT.","UPPER MARLBORO","MD","20774","US","<MISSING>","301-322-8029","<MISSING>","<MISSING>","<MISSING>","Monday 11:00 - 22:00|  Tuesday 11:00 - 22:00|  Wednesday 11:00 - 22:00|  Thursday 11:00 - 22:00|  Friday 11:00 - 0:00|  Saturday 11:00 - 0:00|  Sunday 11:00 - 22:00"
"http://www.rubytuesday.com/locations","Ruby Tuesday of Uniontown","101 MATTHEW DRIVE","UNIONTOWN","PA","15401","US","<MISSING>","724-439-5385","<MISSING>","<MISSING>","<MISSING>","Monday 11:00 - 22:00|  Tuesday 11:00 - 22:00|  Wednesday 11:00 - 22:00|  Thursday 11:00 - 22:00|  Friday 11:00 - 23:00|  Saturday 11:00 - 23:00|  Sunday 11:00 - 22:00"
"http://www.rubytuesday.com/locations","Ruby Tuesday of Sioux Falls","2425 S SHIRLEY AVE SUITE 110","SIOUX FALLS","SD","57106","US","<MISSING>","605-275-2425","<MISSING>","<MISSING>","<MISSING>","Monday 11:00 - 22:00|  Tuesday 11:00 - 22:00|  Wednesday 11:00 - 22:00|  Thursday 11:00 - 22:00|  Friday 11:00 - 23:00|  Saturday 11:00 - 23:00|  Sunday 9:30 - 22:00"
"http://www.rubytuesday.com/locations","Ruby Tuesday of Salisbury","2300 NORTH SALISBURY BOULEVARD H101","SALISBURY","MD","21801","US","<MISSING>","410-546-5049","<MISSING>","<MISSING>","<MISSING>","Monday 11:00 - 22:00|  Tuesday 11:00 - 22:00|  Wednesday 11:00 - 22:00|  Thursday 11:00 - 22:00|  Friday 11:00 - 23:00|  Saturday 11:00 - 23:00|  Sunday 11:00 - 21:00"
"http://www.rubytuesday.com/locations","Ruby Tuesday of Leesburg","1003 EDWARDS FERRY ROAD N.E.","LEESBURG","VA","20176","US","<MISSING>","703-771-4008","<MISSING>","<MISSING>","<MISSING>","Monday 11:00 - 22:00|  Tuesday 11:00 - 22:00|  Wednesday 11:00 - 22:00|  Thursday 11:00 - 22:00|  Friday 11:00 - 23:00|  Saturday 11:00 - 23:00|  Sunday 11:00 - 22:00"
"http://www.rubytuesday.com/locations","Ruby Tuesday of Fruitland","413 NORTH FRUITLAND BLVD","SALISBURY","MD","21804","US","<MISSING>","410-860-8212","<MISSING>","<MISSING>","<MISSING>","Monday 11:00 - 22:00|  Tuesday 11:00 - 22:00|  Wednesday 11:00 - 22:00|  Thursday 11:00 - 22:00|  Friday 11:00 - 23:00|  Saturday 11:00 - 23:00|  Sunday 11:00 - 22:00"
"http://www.rubytuesday.com/locations","Ruby Tuesday of Clinton Crossing","8881 BRANCH AVENUE","CLINTON","MD","20735","US","<MISSING>","301-877-8009","<MISSING>","<MISSING>","<MISSING>","Monday 11:00 - 23:00|  Tuesday 11:00 - 23:00|  Wednesday 11:00 - 23:00|  Thursday 11:00 - 23:00|  Friday 11:00 - 0:00|  Saturday 11:00 - 0:00|  Sunday 11:00 - 22:00"
"http://www.rubytuesday.com/locations","Ruby Tuesday of Baileys Cross Roads","5880 LEESBURG PIKE","FALLS CHURCH","VA","22041","US","<MISSING>","703-820-6602","<MISSING>","<MISSING>","<MISSING>","Monday 11:00 - 23:00|  Tuesday 11:00 - 23:00|  Wednesday 11:00 - 23:00|  Thursday 11:00 - 23:00|  Friday 11:00 - 23:00|  Saturday 11:00 - 23:00|  Sunday 11:00 - 22:00"
"http://www.rubytuesday.com/locations","Ruby Tuesday of Winchester","1685 SOUTH PLEASANT VALLEY ROAD","WINCHESTER","VA","22601","US","<MISSING>","540-662-3236","<MISSING>","<MISSING>","<MISSING>","Monday 11:00 - 22:00|  Tuesday 11:00 - 22:00|  Wednesday 11:00 - 22:00|  Thursday 11:00 - 22:00|  Friday 11:00 - 23:00|  Saturday 11:00 - 23:00|  Sunday 11:00 - 22:00"
"http://www.rubytuesday.com/locations","Ruby Tuesday of South Riding","25036 RIDING PLAZA","SOUTH RIDING","VA","20152","US","<MISSING>","703-327-2982","<MISSING>","<MISSING>","<MISSING>","Monday 11:00 - 22:00|  Tuesday 11:00 - 22:00|  Wednesday 11:00 - 22:00|  Thursday 11:00 - 22:00|  Friday 11:00 - 23:00|  Saturday 11:00 - 23:00|  Sunday 11:00 - 21:00"
"http://www.rubytuesday.com/locations","Ruby Tuesday of Kingstowne","6601 SOUTH VAN DORN ST","ALEXANDRIA","VA","22315","US","<MISSING>","703-921-5006","<MISSING>","<MISSING>","<MISSING>","Monday 11:00 - 23:00|  Tuesday 11:00 - 23:00|  Wednesday 11:00 - 23:00|  Thursday 11:00 - 23:00|  Friday 11:00 - 0:00|  Saturday 11:00 - 0:00|  Sunday 11:00 - 22:00"
"http://www.rubytuesday.com/locations","Ruby Tuesday of Morgantown","512 VENTURE DRIVE","MORGANTOWN","WV","26508","US","<MISSING>","304-292-6633","<MISSING>","<MISSING>","<MISSING>","Monday 11:00 - 22:00|  Tuesday 11:00 - 22:00|  Wednesday 11:00 - 22:00|  Thursday 11:00 - 22:00|  Friday 11:00 - 23:00|  Saturday 11:00 - 23:00|  Sunday 11:00 - 22:00"
"http://www.rubytuesday.com/locations","Ruby Tuesday of Pocomoke City","145 NEWTOWNE BLVD","POCOMOKE CITY","MD","21851","US","<MISSING>","410-957-0249","<MISSING>","<MISSING>","<MISSING>","Monday 11:00 - 22:00|  Tuesday 11:00 - 22:00|  Wednesday 11:00 - 22:00|  Thursday 11:00 - 22:00|  Friday 11:00 - 23:00|  Saturday 11:00 - 23:00|  Sunday 11:00 - 22:00"
"http://www.rubytuesday.com/locations","Ruby Tuesday of Mt. Vernon","1055 COSHOCTON AVENUE","MT. VERNON","OH","43050","US","<MISSING>","740-397-3113","<MISSING>","<MISSING>","<MISSING>","Monday 11:00 - 22:00|  Tuesday 11:00 - 22:00|  Wednesday 11:00 - 22:00|  Thursday 11:00 - 22:00|  Friday 11:00 - 23:00|  Saturday 11:00 - 23:00|  Sunday 11:00 - 21:00"
"http://www.rubytuesday.com/locations","Ruby Tuesday of Ft. Wayne","1050 E. COLISEUM BLVD.","FT. WAYNE","IN","46805","US","<MISSING>","260-471-9369","<MISSING>","<MISSING>","<MISSING>","Monday 11:00 - 22:00|  Tuesday 11:00 - 22:00|  Wednesday 11:00 - 22:00|  Thursday 11:00 - 22:00|  Friday 11:00 - 23:00|  Saturday 11:00 - 23:00|  Sunday 11:00 - 22:00"
"http://www.rubytuesday.com/locations","Ruby Tuesday of Signal Hill","9504 LIBERIA AVENUE","MANASSAS","VA","20110","US","<MISSING>","703-257-0501","<MISSING>","<MISSING>","<MISSING>","Monday 11:00 - 22:00|  Tuesday 11:00 - 22:00|  Wednesday 11:00 - 22:00|  Thursday 11:00 - 22:00|  Friday 11:00 - 23:00|  Saturday 11:00 - 23:00|  Sunday 11:00 - 22:00"
"http://www.rubytuesday.com/locations","Ruby Tuesday of Warsaw","3308 EAST CENTER STREET","WARSAW","IN","46582","US","<MISSING>","574-269-7821","<MISSING>","<MISSING>","<MISSING>","Monday 11:00 - 22:00|  Tuesday 11:00 - 22:00|  Wednesday 11:00 - 22:00|  Thursday 11:00 - 22:00|  Friday 11:00 - 23:00|  Saturday 11:00 - 23:00|  Sunday 11:00 - 22:00"
"http://www.rubytuesday.com/locations","Ruby Tuesday of Prince William Pkwy","12721 MARBLESTONE DRIVE","WOODBRIDGE","VA","22192","US","<MISSING>","703-580-7229","<MISSING>","<MISSING>","<MISSING>","Monday 11:00 - 23:00|  Tuesday 11:00 - 23:00|  Wednesday 11:00 - 23:00|  Thursday 11:00 - 23:00|  Friday 11:00 - 0:00|  Saturday 11:00 - 0:00|  Sunday 11:00 - 22:00"
"http://www.rubytuesday.com/locations","Ruby Tuesday of Lima","2404 ELIDA RD","ELIDA","OH","45807","US","<MISSING>","419-331-7829","<MISSING>","<MISSING>","<MISSING>","Monday 11:00 - 22:00|  Tuesday 11:00 - 22:00|  Wednesday 11:00 - 22:00|  Thursday 11:00 - 22:00|  Friday 11:00 - 23:00|  Saturday 11:00 - 23:00|  Sunday 11:00 - 22:00"
"http://www.rubytuesday.com/locations","Ruby Tuesday of Cambridge","2250 SOUTHGATE PARKWAY","CAMBRIDGE","OH","43725","US","<MISSING>","740-439-7585","<MISSING>","<MISSING>","<MISSING>","Monday 11:00 - 22:00|  Tuesday 11:00 - 22:00|  Wednesday 11:00 - 22:00|  Thursday 11:00 - 22:00|  Friday 11:00 - 23:00|  Saturday 11:00 - 23:00|  Sunday 11:00 - 21:00"
"http://www.rubytuesday.com/locations","Ruby Tuesday of Warrenton","74 BLACKWELL PARC LANE","WARRENTON","VA","20186","US","<MISSING>","540-341-4912","<MISSING>","<MISSING>","<MISSING>","Monday 11:00 - 22:00|  Tuesday 11:00 - 22:00|  Wednesday 11:00 - 22:00|  Thursday 11:00 - 22:00|  Friday 11:00 - 23:00|  Saturday 11:00 - 23:00|  Sunday 11:00 - 22:00"
"http://www.rubytuesday.com/locations","Ruby Tuesday of Aquia","2844 JEFFERSON DAVIS HIGHWAY","STAFFORD","VA","22554","US","<MISSING>","540-659-6911","<MISSING>","<MISSING>","<MISSING>","Monday 11:00 - 22:00|  Tuesday 11:00 - 22:00|  Wednesday 11:00 - 22:00|  Thursday 11:00 - 22:00|  Friday 11:00 - 23:00|  Saturday 11:00 - 23:00|  Sunday 11:00 - 22:00"
"http://www.rubytuesday.com/locations","Ruby Tuesday of Powell - Orange Township","8753 OWENFIELD DR","POWELL","OH","43065","US","<MISSING>","740-548-1670","<MISSING>","<MISSING>","<MISSING>","Monday 11:00 - 22:00|  Tuesday 11:00 - 22:00|  Wednesday 11:00 - 22:00|  Thursday 11:00 - 22:00|  Friday 11:00 - 23:00|  Saturday 11:00 - 23:00|  Sunday 11:00 - 22:00"
"http://www.rubytuesday.com/locations","Ruby Tuesday of Culpeper","755 JAMES MADISON HIGHWAY","CULPEPER","VA","22701","US","<MISSING>","540-829-1061","<MISSING>","<MISSING>","<MISSING>","Monday 11:00 - 22:00|  Tuesday 11:00 - 22:00|  Wednesday 11:00 - 22:00|  Thursday 11:00 - 22:00|  Friday 11:00 - 23:00|  Saturday 11:00 - 23:00|  Sunday 11:00 - 22:00"
"http://www.rubytuesday.com/locations","Ruby Tuesday of Clarksburg","509 EMILY DRIVE","CLARKSBURG","WV","26301","US","<MISSING>","304-623-1880","<MISSING>","<MISSING>","<MISSING>","Monday 11:00 - 22:00|  Tuesday 11:00 - 22:00|  Wednesday 11:00 - 22:00|  Thursday 11:00 - 22:00|  Friday 11:00 - 23:00|  Saturday 11:00 - 23:00|  Sunday 11:00 - 22:00"
"http://www.rubytuesday.com/locations","Ruby Tuesday of Central Park","2951 PLANK ROAD","FREDERICKSBURG","VA","22401","US","<MISSING>","540-785-4400","<MISSING>","<MISSING>","<MISSING>","Monday 11:00 - 22:00|  Tuesday 11:00 - 22:00|  Wednesday 11:00 - 22:00|  Thursday 11:00 - 22:00|  Friday 11:00 - 23:00|  Saturday 11:00 - 23:00|  Sunday 11:00 - 22:00"
"http://www.rubytuesday.com/locations","Ruby Tuesday of South Fredericksburg","4714 MINE ROAD","FREDERICKSBURG","VA","22408","US","<MISSING>","540-710-0588","<MISSING>","<MISSING>","<MISSING>","Monday 11:00 - 22:00|  Tuesday 11:00 - 22:00|  Wednesday 11:00 - 22:00|  Thursday 11:00 - 22:00|  Friday 11:00 - 23:00|  Saturday 11:00 - 23:00|  Sunday 11:00 - 22:00"
"http://www.rubytuesday.com/locations","Ruby Tuesday of Grove City","4065 MARLANE DRIVE","GROVE CITY","OH","43123","US","<MISSING>","614-801-1650","<MISSING>","<MISSING>","<MISSING>","Monday 11:00 - 22:00|  Tuesday 11:00 - 22:00|  Wednesday 11:00 - 22:00|  Thursday 11:00 - 22:00|  Friday 11:00 - 23:00|  Saturday 11:00 - 23:00|  Sunday 11:00 - 22:00"
"http://www.rubytuesday.com/locations","Ruby Tuesday of Harrisonburg Crossing","111 BURGESS ROAD","HARRISONBURG","VA","22801","US","<MISSING>","540-564-9601","<MISSING>","<MISSING>","<MISSING>","Monday 11:00 - 22:00|  Tuesday 11:00 - 22:00|  Wednesday 11:00 - 22:00|  Thursday 11:00 - 22:00|  Friday 11:00 - 23:00|  Saturday 11:00 - 23:00|  Sunday 11:00 - 22:00"
"http://www.rubytuesday.com/locations","Ruby Tuesday of Parkersburg","403 GRAND CENTRAL AVE","VIENNA","WV","26105","US","<MISSING>","304-422-7003","<MISSING>","<MISSING>","<MISSING>","Monday 11:00 - 22:00|  Tuesday 11:00 - 22:00|  Wednesday 11:00 - 22:00|  Thursday 11:00 - 22:00|  Friday 11:00 - 23:00|  Saturday 11:00 - 23:00|  Sunday 11:00 - 22:00"
"http://www.rubytuesday.com/locations","Ruby Tuesday of Troy","1780 W. MAIN STREET","TROY","OH","45373","US","<MISSING>","937-339-7175","<MISSING>","<MISSING>","<MISSING>","Monday 11:00 - 22:00|  Tuesday 11:00 - 22:00|  Wednesday 11:00 - 22:00|  Thursday 11:00 - 22:00|  Friday 11:00 - 23:00|  Saturday 11:00 - 23:00|  Sunday 11:00 - 22:00"
"http://www.rubytuesday.com/locations","Ruby Tuesday of Kokomo","515 EAST SOUTHWAY BLVD.","KOKOMO","IN","46902","US","<MISSING>","765-453-0396","<MISSING>","<MISSING>","<MISSING>","Monday 11:00 - 22:00|  Tuesday 11:00 - 22:00|  Wednesday 11:00 - 22:00|  Thursday 11:00 - 22:00|  Friday 11:00 - 23:00|  Saturday 11:00 - 23:00|  Sunday 11:00 - 21:00"
"http://www.rubytuesday.com/locations","Ruby Tuesday of Athens","951 E. STATE STREET","ATHENS","OH","45701","US","<MISSING>","740-594-0695","<MISSING>","<MISSING>","<MISSING>","Monday 11:00 - 22:00|  Tuesday 11:00 - 22:00|  Wednesday 11:00 - 22:00|  Thursday 11:00 - 22:00|  Friday 11:00 - 23:00|  Saturday 11:00 - 23:00|  Sunday 11:00 - 22:00"
"http://www.rubytuesday.com/locations","Ruby Tuesday of Gloucester","6749 FOX CENTER PARKWAY","GLOUCESTER","VA","23061","US","<MISSING>","804-694-4955","<MISSING>","<MISSING>","<MISSING>","Monday 11:00 - 22:00|  Tuesday 11:00 - 22:00|  Wednesday 11:00 - 22:00|  Thursday 11:00 - 22:00|  Friday 11:00 - 23:00|  Saturday 11:00 - 23:00|  Sunday 11:00 - 22:00"
"http://www.rubytuesday.com/locations","Ruby Tuesday of Muncie","1901 WEST MCGALLAIRD RD","MUNCIE","IN","47304","US","<MISSING>","765-288-4200","<MISSING>","<MISSING>","<MISSING>","Monday 11:00 - 22:00|  Tuesday 11:00 - 22:00|  Wednesday 11:00 - 22:00|  Thursday 11:00 - 22:00|  Friday 11:00 - 23:00|  Saturday 11:00 - 23:00|  Sunday 11:00 - 22:00"
"http://www.rubytuesday.com/locations","Ruby Tuesday of Vandalia","6425 MILLER LANE","DAYTON","OH","45414","US","<MISSING>","937-454-0535","<MISSING>","<MISSING>","<MISSING>","Monday 11:00 - 22:00|  Tuesday 11:00 - 22:00|  Wednesday 11:00 - 22:00|  Thursday 11:00 - 22:00|  Friday 11:00 - 23:00|  Saturday 11:00 - 23:00|  Sunday 11:00 - 22:00"
"http://www.rubytuesday.com/locations","Ruby Tuesday of Mechanicsville","7425 BELL CREEK ROAD","MECHANICSVILLE","VA","23111","US","<MISSING>","804-559-3050","<MISSING>","<MISSING>","<MISSING>","Monday 11:00 - 22:00|  Tuesday 11:00 - 22:00|  Wednesday 11:00 - 22:00|  Thursday 11:00 - 22:00|  Friday 11:00 - 23:00|  Saturday 11:00 - 23:00|  Sunday 11:00 - 22:00"
"http://www.rubytuesday.com/locations","Ruby Tuesday of Waynesboro","1941 ROSSER AVE","WAYNESBORO","VA","22980","US","<MISSING>","540-943-1610","<MISSING>","<MISSING>","<MISSING>","Monday 11:00 - 22:00|  Tuesday 11:00 - 22:00|  Wednesday 11:00 - 22:00|  Thursday 11:00 - 22:00|  Friday 11:00 - 23:00|  Saturday 11:00 - 23:00|  Sunday 11:00 - 22:00"
"http://www.rubytuesday.com/locations","Ruby Tuesday of Monticello Marketplace","4700 MONTICELLO AVE","WILLIAMSBURG","VA","23188","US","<MISSING>","757-564-6222","<MISSING>","<MISSING>","<MISSING>","Monday 11:00 - 22:00|  Tuesday 11:00 - 22:00|  Wednesday 11:00 - 22:00|  Thursday 11:00 - 22:00|  Friday 11:00 - 23:00|  Saturday 11:00 - 23:00|  Sunday 11:00 - 21:00"
"http://www.rubytuesday.com/locations","Ruby Tuesday of Anderson","5530 SCATTERFIELD RD","ANDERSON","IN","46013","US","<MISSING>","765-643-2496","<MISSING>","<MISSING>","<MISSING>","Monday 11:00 - 22:00|  Tuesday 11:00 - 22:00|  Wednesday 11:00 - 22:00|  Thursday 11:00 - 22:00|  Friday 11:00 - 23:00|  Saturday 11:00 - 23:00|  Sunday 11:00 - 22:00"
"http://www.rubytuesday.com/locations","Ruby Tuesday of Centerville","6061 FAR HILLS AVE","CENTERVILLE","OH","45459","US","<MISSING>","937-432-9655","<MISSING>","<MISSING>","<MISSING>","Monday 11:00 - 22:00|  Tuesday 11:00 - 22:00|  Wednesday 11:00 - 22:00|  Thursday 11:00 - 22:00|  Friday 11:00 - 23:00|  Saturday 11:00 - 23:00|  Sunday 11:00 - 22:00"
"http://www.rubytuesday.com/locations","Ruby Tuesday of Kiln Creek","3150 KILN CREEK PARKWAY","YORKTOWN","VA","23693","US","<MISSING>","757-877-6310","<MISSING>","<MISSING>","<MISSING>","Monday 11:00 - 22:00|  Tuesday 11:00 - 22:00|  Wednesday 11:00 - 22:00|  Thursday 11:00 - 22:00|  Friday 11:00 - 23:00|  Saturday 11:00 - 23:00|  Sunday 11:00 - 22:00"
"http://www.rubytuesday.com/locations","Ruby Tuesday of Hampton","60 TOWNE CENTRE PARKWAY","HAMPTON","VA","23666","US","<MISSING>","757-825-0825","<MISSING>","<MISSING>","<MISSING>","Monday 11:00 - 22:00|  Tuesday 11:00 - 22:00|  Wednesday 11:00 - 22:00|  Thursday 11:00 - 22:00|  Friday 11:00 - 23:00|  Saturday 11:00 - 23:00|  Sunday 11:00 - 22:00"
"http://www.rubytuesday.com/locations","Ruby Tuesday of Hull Street","10419 HULL STREET ROAD","MIDLOTHIAN","VA","23112","US","<MISSING>","804-674-8916","<MISSING>","<MISSING>","<MISSING>","Monday 11:00 - 22:00|  Tuesday 11:00 - 22:00|  Wednesday 11:00 - 22:00|  Thursday 11:00 - 22:00|  Friday 11:00 - 23:00|  Saturday 11:00 - 23:00|  Sunday 11:00 - 22:00"
"http://www.rubytuesday.com/locations","Ruby Tuesday of Tidewater","7725 TIDEWATER DR","NORFOLK","VA","23505","US","<MISSING>","757-480-3283","<MISSING>","<MISSING>","<MISSING>","Monday 11:00 - 22:00|  Tuesday 11:00 - 22:00|  Wednesday 11:00 - 22:00|  Thursday 11:00 - 22:00|  Friday 11:00 - 23:00|  Saturday 11:00 - 23:00|  Sunday 11:00 - 22:00"
"http://www.rubytuesday.com/locations","Ruby Tuesday of Hampton Blvd","8305 HAMPTON BLVD.","NORFOLK","VA","23505","US","<MISSING>","757-440-2980","<MISSING>","<MISSING>","<MISSING>","Monday 11:00 - 22:00|  Tuesday 11:00 - 22:00|  Wednesday 11:00 - 22:00|  Thursday 11:00 - 22:00|  Friday 11:00 - 23:00|  Saturday 11:00 - 23:00|  Sunday 11:00 - 22:00"
"http://www.rubytuesday.com/locations","Ruby Tuesday of Virginia Beach","4488 VIRGINIA BEACH BOULEVARD","VIRGINIA BEACH","VA","23462","US","<MISSING>","757-490-3930","<MISSING>","<MISSING>","<MISSING>","Monday 11:00 - 22:00|  Tuesday 11:00 - 22:00|  Wednesday 11:00 - 22:00|  Thursday 11:00 - 22:00|  Friday 11:00 - 23:00|  Saturday 11:00 - 23:00|  Sunday 11:00 - 22:00"
"http://www.rubytuesday.com/locations","Ruby Tuesday of Broad Creek","1201 MILITARY HWY","NORFOLK","VA","23502","US","<MISSING>","757-461-5116","<MISSING>","<MISSING>","<MISSING>","Monday 11:00 - 23:00|  Tuesday 11:00 - 23:00|  Wednesday 11:00 - 23:00|  Thursday 11:00 - 23:00|  Friday 11:00 - 23:00|  Saturday 11:00 - 23:00|  Sunday 11:00 - 22:00"
"http://www.rubytuesday.com/locations","Ruby Tuesday of Hopewell","5107 OAKLAWN BLVD.","HOPEWELL","VA","23860","US","<MISSING>","804-452-3713","<MISSING>","<MISSING>","<MISSING>","Monday 11:00 - 22:00|  Tuesday 11:00 - 22:00|  Wednesday 11:00 - 22:00|  Thursday 11:00 - 22:00|  Friday 11:00 - 23:00|  Saturday 11:00 - 23:00|  Sunday 11:00 - 22:00"
"http://www.rubytuesday.com/locations","Ruby Tuesday of 96th Street","8133 EAST 96TH STREET","INDIANAPOLIS","IN","46256","US","<MISSING>","317-842-8368","<MISSING>","<MISSING>","<MISSING>","Monday 11:00 - 22:00|  Tuesday 11:00 - 22:00|  Wednesday 11:00 - 22:00|  Thursday 11:00 - 22:00|  Friday 11:00 - 23:00|  Saturday 11:00 - 23:00|  Sunday 11:00 - 22:00"
"http://www.rubytuesday.com/locations","Ruby Tuesday of Southpark","431 SOUTH PARK CIRCLE","COLONIAL HEIGHTS","VA","23834","US","<MISSING>","804-524-2240","<MISSING>","<MISSING>","<MISSING>","Monday 11:00 - 22:00|  Tuesday 11:00 - 22:00|  Wednesday 11:00 - 22:00|  Thursday 11:00 - 22:00|  Friday 11:00 - 23:00|  Saturday 11:00 - 23:00|  Sunday 11:00 - 22:00"
"http://www.rubytuesday.com/locations","Ruby Tuesday of Harbour View","6249 COLLEGE DRIVE","SUFFOLK","VA","23435","US","<MISSING>","757-638-4755","<MISSING>","<MISSING>","<MISSING>","Monday 11:00 - 22:00|  Tuesday 11:00 - 22:00|  Wednesday 11:00 - 22:00|  Thursday 11:00 - 22:00|  Friday 11:00 - 23:00|  Saturday 11:00 - 23:00|  Sunday 11:00 - 22:00"
"http://www.rubytuesday.com/locations","Ruby Tuesday of Greenbrier","1412 GREENBRIER PARKWAY #130","Chesapeake","VA","23320","US","<MISSING>","757-366-0739","<MISSING>","<MISSING>","<MISSING>","Monday 11:00 - 22:00|  Tuesday 11:00 - 22:00|  Wednesday 11:00 - 22:00|  Thursday 11:00 - 22:00|  Friday 11:00 - 23:00|  Saturday 11:00 - 23:00|  Sunday 11:00 - 22:00"
"http://www.rubytuesday.com/locations","Ruby Tuesday of Michigan Rd","9106 WESLEYAN ROAD","INDIANAPOLIS","IN","46268","US","<MISSING>","317-228-9630","<MISSING>","<MISSING>","<MISSING>","Monday 11:00 - 22:00|  Tuesday 11:00 - 22:00|  Wednesday 11:00 - 22:00|  Thursday 11:00 - 22:00|  Friday 11:00 - 23:00|  Saturday 11:00 - 23:00|  Sunday 11:00 - 22:00"
"http://www.rubytuesday.com/locations","Ruby Tuesday of Portsmouth","4066 VICTORY BLVD","PORTSMOUTH","VA","23701","US","<MISSING>","757-488-7747","<MISSING>","<MISSING>","<MISSING>","Monday 11:00 - 23:00|  Tuesday 11:00 - 23:00|  Wednesday 11:00 - 23:00|  Thursday 11:00 - 23:00|  Friday 11:00 - 23:00|  Saturday 11:00 - 23:00|  Sunday 11:00 - 22:00"
"http://www.rubytuesday.com/locations","Ruby Tuesday of Kings Mill","5456 KINGS CENTER DRIVE","MASON","OH","45040","US","<MISSING>","513-459-7366","<MISSING>","<MISSING>","<MISSING>","Monday 11:00 - 22:00|  Tuesday 11:00 - 22:00|  Wednesday 11:00 - 22:00|  Thursday 11:00 - 22:00|  Friday 11:00 - 23:00|  Saturday 11:00 - 23:00|  Sunday 11:00 - 22:00"
"http://www.rubytuesday.com/locations","Ruby Tuesday of Lexington","1120 NORTH LEE HIGHWAY","LEXINGTON","VA","24450","US","<MISSING>","540-463-2094","<MISSING>","<MISSING>","<MISSING>","Monday 11:00 - 23:00|  Tuesday 11:00 - 23:00|  Wednesday 11:00 - 23:00|  Thursday 11:00 - 23:00|  Friday 11:00 - 0:00|  Saturday 11:00 - 0:00|  Sunday 11:00 - 22:00"
"http://www.rubytuesday.com/locations","Ruby Tuesday of Centerbrooke Village","2757 GODWIN BLVD.","SUFFOLK","VA","23434","US","<MISSING>","757-923-2860","<MISSING>","<MISSING>","<MISSING>","Monday 11:00 - 22:00|  Tuesday 11:00 - 22:00|  Wednesday 11:00 - 22:00|  Thursday 11:00 - 22:00|  Friday 11:00 - 23:00|  Saturday 11:00 - 23:00|  Sunday 11:00 - 22:00"
"http://www.rubytuesday.com/locations","Ruby Tuesday of Sharonville","2235 E SHARON ROAD","SHARONVILLE","OH","45241","US","<MISSING>","513-771-0533","<MISSING>","<MISSING>","<MISSING>","Monday 11:00 - 23:00|  Tuesday 11:00 - 23:00|  Wednesday 11:00 - 23:00|  Thursday 11:00 - 23:00|  Friday 11:00 - 0:00|  Saturday 11:00 - 0:00|  Sunday 11:00 - 22:00"
"http://www.rubytuesday.com/locations","Ruby Tuesday of Kenwood","7800 MONTGOMERY RD SPACE 14","CINCINNATI","OH","45236","US","<MISSING>","513-791-8837","<MISSING>","<MISSING>","<MISSING>","Monday 11:00 - 22:00|  Tuesday 11:00 - 22:00|  Wednesday 11:00 - 22:00|  Thursday 11:00 - 22:00|  Friday 11:00 - 23:00|  Saturday 11:00 - 23:00|  Sunday 11:00 - 22:00"
"http://www.rubytuesday.com/locations","Ruby Tuesday of US 31 South","7940 US 31 SOUTH","INDIANAPOLIS","IN","46227","US","<MISSING>","317-885-5801","<MISSING>","<MISSING>","<MISSING>","Monday 11:00 - 22:00|  Tuesday 11:00 - 22:00|  Wednesday 11:00 - 22:00|  Thursday 11:00 - 22:00|  Friday 11:00 - 23:00|  Saturday 11:00 - 23:00|  Sunday 11:00 - 22:00"
"http://www.rubytuesday.com/locations","Ruby Tuesday of Milford","315 RIVERS EDGE DRIVE","MILFORD","OH","45150","US","<MISSING>","513-831-4100","<MISSING>","<MISSING>","<MISSING>","Monday 11:00 - 22:00|  Tuesday 11:00 - 22:00|  Wednesday 11:00 - 22:00|  Thursday 11:00 - 22:00|  Friday 11:00 - 23:00|  Saturday 11:00 - 23:00|  Sunday 11:00 - 22:00"
"http://www.rubytuesday.com/locations","Ruby Tuesday of Farmville","1807 S MAIN STREET","FARMVILLE","VA","23901","US","<MISSING>","434-391-3475","<MISSING>","<MISSING>","<MISSING>","Monday 11:00 - 22:00|  Tuesday 11:00 - 22:00|  Wednesday 11:00 - 22:00|  Thursday 11:00 - 22:00|  Friday 11:00 - 23:00|  Saturday 11:00 - 23:00|  Sunday 11:00 - 21:00"
"http://www.rubytuesday.com/locations","Ruby Tuesday of Lewisburg","151 COLEMAN DRIVE","LEWISBURG","WV","24901","US","<MISSING>","304-647-3170","<MISSING>","<MISSING>","<MISSING>","Monday 11:00 - 22:00|  Tuesday 11:00 - 22:00|  Wednesday 11:00 - 22:00|  Thursday 11:00 - 22:00|  Friday 11:00 - 23:00|  Saturday 11:00 - 23:00|  Sunday 11:00 - 22:00"
"http://www.rubytuesday.com/locations","Ruby Tuesday of Huntington","500 MALL ROAD SPACE #395","Barboursville","WV","25504","US","<MISSING>","304-733-2223","<MISSING>","<MISSING>","<MISSING>","Monday 11:00 - 22:00|  Tuesday 11:00 - 22:00|  Wednesday 11:00 - 22:00|  Thursday 11:00 - 22:00|  Friday 11:00 - 23:00|  Saturday 11:00 - 23:00|  Sunday 11:00 - 21:00"
"http://www.rubytuesday.com/locations","Ruby Tuesday of Elizabeth City","503 HUGHES BLVD.","ELIZABETH CITY","NC","27909","US","<MISSING>","252-331-1521","<MISSING>","<MISSING>","<MISSING>","Monday 11:00 - 23:00|  Tuesday 11:00 - 23:00|  Wednesday 11:00 - 23:00|  Thursday 11:00 - 23:00|  Friday 11:00 - 0:00|  Saturday 11:00 - 0:00|  Sunday 11:00 - 22:00"
"http://www.rubytuesday.com/locations","Ruby Tuesday of Ashland","399 ARMCO ROAD","ASHLAND","KY","41101","US","<MISSING>","606-329-1176","<MISSING>","<MISSING>","<MISSING>","Monday 11:00 - 22:00|  Tuesday 11:00 - 22:00|  Wednesday 11:00 - 22:00|  Thursday 11:00 - 22:00|  Friday 11:00 - 23:00|  Saturday 11:00 - 23:00|  Sunday 11:00 - 22:00"
"http://www.rubytuesday.com/locations","Ruby Tuesday of Taylorsville","3715 WEST MARKET PLACE","EDINBURGH","IN","46124","US","<MISSING>","812-526-5311","<MISSING>","<MISSING>","<MISSING>","Monday 11:00 - 22:00|  Tuesday 11:00 - 22:00|  Wednesday 11:00 - 22:00|  Thursday 11:00 - 22:00|  Friday 11:00 - 23:00|  Saturday 11:00 - 23:00|  Sunday 11:00 - 22:00"
"http://www.rubytuesday.com/locations","Ruby Tuesday of Bedford","1355 BOXWOOD TERRACE","BEDFORD","VA","24523","US","<MISSING>","540-587-5770","<MISSING>","<MISSING>","<MISSING>","Monday 11:00 - 22:00|  Tuesday 11:00 - 22:00|  Wednesday 11:00 - 22:00|  Thursday 11:00 - 22:00|  Friday 11:00 - 23:00|  Saturday 11:00 - 23:00|  Sunday 11:00 - 22:00"
"http://www.rubytuesday.com/locations","Ruby Tuesday of Beckley","2082 HARPER ROAD","BECKLEY","WV","25801","US","<MISSING>","304-254-0481","<MISSING>","<MISSING>","<MISSING>","Monday 11:00 - 22:00|  Tuesday 11:00 - 22:00|  Wednesday 11:00 - 22:00|  Thursday 11:00 - 22:00|  Friday 11:00 - 23:00|  Saturday 11:00 - 23:00|  Sunday 11:00 - 22:00"
"http://www.rubytuesday.com/locations","Ruby Tuesday of Terre Haute","3451 SOUTH US HWY 41","TERRE HAUTE","IN","47802","US","<MISSING>","812-238-5200","<MISSING>","<MISSING>","<MISSING>","Monday 11:00 - 22:00|  Tuesday 11:00 - 22:00|  Wednesday 11:00 - 22:00|  Thursday 11:00 - 22:00|  Friday 11:00 - 23:00|  Saturday 11:00 - 23:00|  Sunday 11:00 - 22:00"
"http://www.rubytuesday.com/locations","Ruby Tuesday of Roanoke Rapids","1812 JULIAN ALLSBROOK HWY","ROANOKE RAPIDS","NC","27870","US","<MISSING>","252-535-1853","<MISSING>","<MISSING>","<MISSING>","Monday 11:00 - 23:00|  Tuesday 11:00 - 23:00|  Wednesday 11:00 - 23:00|  Thursday 11:00 - 23:00|  Friday 11:00 - 0:00|  Saturday 11:00 - 0:00|  Sunday 11:00 - 22:00"
"http://www.rubytuesday.com/locations","Ruby Tuesday of Cave Springs","3250 ELECTRIC ROAD","ROANOKE","VA","24018","US","<MISSING>","540-725-1833","<MISSING>","<MISSING>","<MISSING>","Monday 11:00 - 22:00|  Tuesday 11:00 - 22:00|  Wednesday 11:00 - 22:00|  Thursday 11:00 - 22:00|  Friday 11:00 - 23:00|  Saturday 11:00 - 23:00|  Sunday 11:00 - 22:00"
"http://www.rubytuesday.com/locations","Ruby Tuesday of Kirksville","2510 NORTH BALTIMORE STREET","KIRKSVILLE","MO","63501","US","<MISSING>","660-665-3588","<MISSING>","<MISSING>","<MISSING>","Monday 11:00 - 22:00|  Tuesday 11:00 - 22:00|  Wednesday 11:00 - 22:00|  Thursday 11:00 - 22:00|  Friday 11:00 - 23:00|  Saturday 11:00 - 23:00|  Sunday 11:00 - 22:00"
"http://www.rubytuesday.com/locations","Ruby Tuesday of Christiansburg","2380 ROANOKE STREET","CHRISTIANSBURG","VA","24073","US","<MISSING>","540-382-9474","<MISSING>","<MISSING>","<MISSING>","Monday 11:00 - 22:00|  Tuesday 11:00 - 22:00|  Wednesday 11:00 - 22:00|  Thursday 11:00 - 22:00|  Friday 11:00 - 23:00|  Saturday 11:00 - 23:00|  Sunday 11:00 - 21:00"
"http://www.rubytuesday.com/locations","Ruby Tuesday of North Platte","2320 S. JEFFERS ST.","NORTH PLATTE","NE","69101","US","<MISSING>","308-534-7829","<MISSING>","<MISSING>","<MISSING>","Monday 11:00 - 22:00|  Tuesday 11:00 - 22:00|  Wednesday 11:00 - 22:00|  Thursday 11:00 - 22:00|  Friday 11:00 - 23:00|  Saturday 11:00 - 23:00|  Sunday 11:00 - 22:00"
"http://www.rubytuesday.com/locations","Ruby Tuesday of Henderson","101 EXCHANGE STREET","HENDERSON","NC","27536","US","<MISSING>","252-492-6243","<MISSING>","<MISSING>","<MISSING>","Monday 11:00 - 23:00|  Tuesday 11:00 - 23:00|  Wednesday 11:00 - 23:00|  Thursday 11:00 - 23:00|  Friday 11:00 - 0:00|  Saturday 11:00 - 0:00|  Sunday 11:00 - 22:00"
"http://www.rubytuesday.com/locations","Ruby Tuesday of Georgetown","100 TIGER WAY","GEORGETOWN","KY","40324","US","<MISSING>","502-570-9959","<MISSING>","<MISSING>","<MISSING>","Monday 11:00 - 23:00|  Tuesday 11:00 - 23:00|  Wednesday 11:00 - 23:00|  Thursday 11:00 - 23:00|  Friday 11:00 - 0:00|  Saturday 11:00 - 0:00|  Sunday 11:00 - 22:00"
"http://www.rubytuesday.com/locations","Ruby Tuesday of Rocky Mount","1457 BENVENUE RD","ROCKY MOUNT","NC","27803","US","<MISSING>","252-212-1570","<MISSING>","<MISSING>","<MISSING>","Monday 11:00 - 22:00|  Tuesday 11:00 - 22:00|  Wednesday 11:00 - 22:00|  Thursday 11:00 - 22:00|  Friday 11:00 - 23:00|  Saturday 11:00 - 23:00|  Sunday 11:00 - 22:00"
"http://www.rubytuesday.com/locations","Ruby Tuesday of Kearney","108 FIRST AVENUE PLACE","KEARNEY","NE","68847","US","<MISSING>","308-234-2500","<MISSING>","<MISSING>","<MISSING>","Monday 11:00 - 22:00|  Tuesday 11:00 - 22:00|  Wednesday 11:00 - 22:00|  Thursday 11:00 - 22:00|  Friday 11:00 - 23:00|  Saturday 11:00 - 23:00|  Sunday 11:00 - 22:00"
"http://www.rubytuesday.com/locations","Ruby Tuesday of Wytheville","145 COMMONWEALTH AVENUE","WYTHEVILLE","VA","24382","US","<MISSING>","276-223-4380","<MISSING>","<MISSING>","<MISSING>","Monday 11:00 - 22:00|  Tuesday 11:00 - 22:00|  Wednesday 11:00 - 22:00|  Thursday 11:00 - 22:00|  Friday 11:00 - 23:00|  Saturday 11:00 - 23:00|  Sunday 11:00 - 22:00"
"http://www.rubytuesday.com/locations","Ruby Tuesday of Eden","706 SOUTH VAN BUREN","EDEN","NC","27288","US","<MISSING>","336-623-7920","<MISSING>","<MISSING>","<MISSING>","Monday 11:00 - 22:00|  Tuesday 11:00 - 22:00|  Wednesday 11:00 - 22:00|  Thursday 11:00 - 22:00|  Friday 11:00 - 23:00|  Saturday 11:00 - 23:00|  Sunday 11:00 - 22:00"
"http://www.rubytuesday.com/locations","Ruby Tuesday of Litchfield","7 CORVETTE DRIVE","LITCHFIELD","IL","62056","US","<MISSING>","217-324-2808","<MISSING>","<MISSING>","<MISSING>","Monday 11:00 - 22:00|  Tuesday 11:00 - 22:00|  Wednesday 11:00 - 22:00|  Thursday 11:00 - 22:00|  Friday 11:00 - 23:00|  Saturday 11:00 - 23:00|  Sunday 11:00 - 22:00"
"http://www.rubytuesday.com/locations","Ruby Tuesday of Carolina East Mall","3510 S MEMORIAL DR","GREENVILLE","NC","27834","US","<MISSING>","252-355-4060","<MISSING>","<MISSING>","<MISSING>","Monday 11:00 - 22:00|  Tuesday 11:00 - 22:00|  Wednesday 11:00 - 22:00|  Thursday 11:00 - 22:00|  Friday 11:00 - 23:00|  Saturday 11:00 - 23:00|  Sunday 11:00 - 22:00"
"http://www.rubytuesday.com/locations","Ruby Tuesday of Wilson","2935 RALEIGH ROAD WEST","WILSON","NC","27896","US","<MISSING>","252-291-4203","<MISSING>","<MISSING>","<MISSING>","Monday 11:00 - 22:00|  Tuesday 11:00 - 22:00|  Wednesday 11:00 - 22:00|  Thursday 11:00 - 22:00|  Friday 11:00 - 23:00|  Saturday 11:00 - 23:00|  Sunday 11:00 - 22:00"
"http://www.rubytuesday.com/locations","Ruby Tuesday of Capital Blvd.","6201 CAPITAL BLVD.","RALEIGH","NC","27616","US","<MISSING>","919-876-9900","<MISSING>","<MISSING>","<MISSING>","Monday 11:00 - 22:00|  Tuesday 11:00 - 22:00|  Wednesday 11:00 - 22:00|  Thursday 11:00 - 22:00|  Friday 11:00 - 23:00|  Saturday 11:00 - 23:00|  Sunday 11:00 - 22:00"
"http://www.rubytuesday.com/locations","Ruby Tuesday of Mebane","103 SPRING FOREST DRIVE","MEBANE","NC","27302","US","<MISSING>","919-563-0703","<MISSING>","<MISSING>","<MISSING>","Monday 11:00 - 23:00|  Tuesday 11:00 - 23:00|  Wednesday 11:00 - 23:00|  Thursday 11:00 - 23:00|  Friday 11:00 - 0:00|  Saturday 11:00 - 0:00|  Sunday 11:00 - 22:00"
"http://www.rubytuesday.com/locations","Ruby Tuesday of New Hope Commons","4411 NEW BERN AVENUE","RALEIGH","NC","27610","US","<MISSING>","919-255-1801","<MISSING>","<MISSING>","<MISSING>","Monday 11:00 - 22:00|  Tuesday 11:00 - 22:00|  Wednesday 11:00 - 22:00|  Thursday 11:00 - 22:00|  Friday 11:00 - 23:00|  Saturday 11:00 - 23:00|  Sunday 11:00 - 22:00"
"http://www.rubytuesday.com/locations","Ruby Tuesday of Durham Hwy 54","210 NC HIGHWAY 54","DURHAM","NC","27713","US","<MISSING>","919-405-4118","<MISSING>","<MISSING>","<MISSING>","Monday 11:00 - 23:00|  Tuesday 11:00 - 23:00|  Wednesday 11:00 - 23:00|  Thursday 11:00 - 23:00|  Friday 11:00 - 23:00|  Saturday 11:00 - 23:00|  Sunday 11:00 - 22:00"
"http://www.rubytuesday.com/locations","Ruby Tuesday of Mt. Airy","2139 ROCKFORD STREET","MT. AIRY","NC","27030","US","<MISSING>","336-789-0815","<MISSING>","<MISSING>","<MISSING>","Monday 11:00 - 22:00|  Tuesday 11:00 - 22:00|  Wednesday 11:00 - 22:00|  Thursday 11:00 - 22:00|  Friday 11:00 - 23:00|  Saturday 11:00 - 23:00|  Sunday 11:00 - 22:00"
"http://www.rubytuesday.com/locations","Ruby Tuesday of New Bern","1004 HIGHWAY 70 EAST","NEW BERN","NC","28560","US","<MISSING>","252-638-8004","<MISSING>","<MISSING>","<MISSING>","Monday 11:00 - 22:00|  Tuesday 11:00 - 22:00|  Wednesday 11:00 - 22:00|  Thursday 11:00 - 22:00|  Friday 11:00 - 23:00|  Saturday 11:00 - 23:00|  Sunday 11:00 - 22:00"
"http://www.rubytuesday.com/locations","Ruby Tuesday of Clayton","65 SON LAN PKWY","GARNER","NC","27529","US","<MISSING>","919-772-3838","<MISSING>","<MISSING>","<MISSING>","Monday 11:00 - 22:00|  Tuesday 11:00 - 22:00|  Wednesday 11:00 - 22:00|  Thursday 11:00 - 22:00|  Friday 11:00 - 23:00|  Saturday 11:00 - 23:00|  Sunday 11:00 - 22:00"
"http://www.rubytuesday.com/locations","Ruby Tuesday of Kinston","3725 WEST VERNON AVENUE","KINSTON","NC","28504","US","<MISSING>","252-523-4067","<MISSING>","<MISSING>","<MISSING>","Monday 11:00 - 22:00|  Tuesday 11:00 - 22:00|  Wednesday 11:00 - 22:00|  Thursday 11:00 - 22:00|  Friday 11:00 - 23:00|  Saturday 11:00 - 23:00|  Sunday 11:00 - 22:00"
"http://www.rubytuesday.com/locations","Ruby Tuesday of Smithfield","160 SMITHFIELD XING","SMITHFIELD","NC","27577","US","<MISSING>","919-938-3640","<MISSING>","<MISSING>","<MISSING>","Monday 11:00 - 22:00|  Tuesday 11:00 - 22:00|  Wednesday 11:00 - 22:00|  Thursday 11:00 - 22:00|  Friday 11:00 - 23:00|  Saturday 11:00 - 23:00|  Sunday 11:00 - 22:00"
"http://www.rubytuesday.com/locations","Ruby Tuesday of Greensboro","4218WEST WENDOVER AVENUE","GREENSBORO","NC","27407","US","<MISSING>","336-294-4344","<MISSING>","<MISSING>","<MISSING>","Monday 11:00 - 23:00|  Tuesday 11:00 - 23:00|  Wednesday 11:00 - 23:00|  Thursday 11:00 - 23:00|  Friday 11:00 - 0:00|  Saturday 11:00 - 0:00|  Sunday 11:00 - 22:00"
"http://www.rubytuesday.com/locations","Ruby Tuesday of Deep River Corporate Center","7611 THORNDIKE ROAD","GREENSBORO","NC","27409","US","<MISSING>","336-841-0066","<MISSING>","<MISSING>","<MISSING>","Monday 11:00 - 23:00|  Tuesday 11:00 - 23:00|  Wednesday 11:00 - 23:00|  Thursday 11:00 - 23:00|  Friday 11:00 - 0:00|  Saturday 11:00 - 0:00|  Sunday 11:00 - 22:00"
"http://www.rubytuesday.com/locations","Ruby Tuesday of Fuquay - Varina","1260 NORTH MAIN STREET","FUQUAY-VARINA","NC","27526","US","<MISSING>","919-557-0341","<MISSING>","<MISSING>","<MISSING>","Monday 11:00 - 22:00|  Tuesday 11:00 - 22:00|  Wednesday 11:00 - 22:00|  Thursday 11:00 - 22:00|  Friday 11:00 - 23:00|  Saturday 11:00 - 23:00|  Sunday 11:00 - 22:00"
"http://www.rubytuesday.com/locations","Ruby Tuesday of Collinsville","604 N. BLUFF ROAD","COLLINSVILLE","IL","62234","US","<MISSING>","618-345-9148","<MISSING>","<MISSING>","<MISSING>","Monday 11:00 - 22:00|  Tuesday 11:00 - 22:00|  Wednesday 11:00 - 22:00|  Thursday 11:00 - 22:00|  Friday 11:00 - 23:00|  Saturday 11:00 - 23:00|  Sunday 11:00 - 22:00"
"http://www.rubytuesday.com/locations","Ruby Tuesday of Elizabethtown KY","201 COMMERCE DRIVE","ELIZABETHTOWN","KY","42701","US","<MISSING>","270-769-1513","<MISSING>","<MISSING>","<MISSING>","Monday 11:00 - 22:00|  Tuesday 11:00 - 22:00|  Wednesday 11:00 - 22:00|  Thursday 11:00 - 22:00|  Friday 11:00 - 23:00|  Saturday 11:00 - 23:00|  Sunday 11:00 - 22:00"
"http://www.rubytuesday.com/locations","Ruby Tuesday of Mid-Rivers","190 MID RIVERS MALL CIRCLE","ST. PETERS","MO","63376","US","<MISSING>","636-279-1356","<MISSING>","<MISSING>","<MISSING>","Monday 11:00 - 22:00|  Tuesday 11:00 - 22:00|  Wednesday 11:00 - 22:00|  Thursday 11:00 - 22:00|  Friday 11:00 - 23:00|  Saturday 11:00 - 23:00|  Sunday 11:00 - 22:00"
"http://www.rubytuesday.com/locations","Ruby Tuesday of Clemmons - Westwood Village Rd","6412 SESSIONS CT.","CLEMMONS","NC","27012","US","<MISSING>","336-766-3463","<MISSING>","<MISSING>","<MISSING>","Monday 11:00 - 22:00|  Tuesday 11:00 - 22:00|  Wednesday 11:00 - 22:00|  Thursday 11:00 - 22:00|  Friday 11:00 - 23:00|  Saturday 11:00 - 23:00|  Sunday 11:00 - 22:00"
"http://www.rubytuesday.com/locations","Ruby Tuesday of Fairview Heights","6565 NORTH ILLINOIS AVENUE","FAIRVIEW HEIGHTS","IL","62208","US","<MISSING>","618-394-3561","<MISSING>","<MISSING>","<MISSING>","Monday 11:00 - 22:00|  Tuesday 11:00 - 22:00|  Wednesday 11:00 - 22:00|  Thursday 11:00 - 22:00|  Friday 11:00 - 23:00|  Saturday 11:00 - 23:00|  Sunday 11:00 - 21:00"
"http://www.rubytuesday.com/locations","Ruby Tuesday of Thomasville","1044 RANDOLPH STREET","THOMASVILLE","NC","27360","US","<MISSING>","336-475-4152","<MISSING>","<MISSING>","<MISSING>","Monday 11:00 - 22:00|  Tuesday 11:00 - 22:00|  Wednesday 11:00 - 22:00|  Thursday 11:00 - 22:00|  Friday 11:00 - 0:00|  Saturday 11:00 - 0:00|  Sunday 11:00 - 22:00"
"http://www.rubytuesday.com/locations","Ruby Tuesday of Sanford","3210 NC HIGHWAY 87","SANFORD","NC","27330","US","<MISSING>","919-776-0292","<MISSING>","<MISSING>","<MISSING>","Monday 11:00 - 22:00|  Tuesday 11:00 - 22:00|  Wednesday 11:00 - 22:00|  Thursday 11:00 - 22:00|  Friday 11:00 - 23:00|  Saturday 11:00 - 23:00|  Sunday 11:00 - 22:00"
"http://www.rubytuesday.com/locations","Ruby Tuesday of Columbia Plaza","2010 BERNADETTE DR.","COLUMBIA","MO","65203","US","<MISSING>","573-446-8212","<MISSING>","<MISSING>","<MISSING>","Monday 11:00 - 22:00|  Tuesday 11:00 - 22:00|  Wednesday 11:00 - 22:00|  Thursday 11:00 - 22:00|  Friday 11:00 - 23:00|  Saturday 11:00 - 23:00|  Sunday 11:00 - 22:00"
"http://www.rubytuesday.com/locations","Ruby Tuesday of Wilkesboro","1512 WINKLER MILL EXTENSION","WILKESBORO","NC","28697","US","<MISSING>","336-838-5216","<MISSING>","<MISSING>","<MISSING>","Monday 11:00 - 22:00|  Tuesday 11:00 - 22:00|  Wednesday 11:00 - 22:00|  Thursday 11:00 - 22:00|  Friday 11:00 - 23:00|  Saturday 11:00 - 23:00|  Sunday 11:00 - 22:00"
"http://www.rubytuesday.com/locations","Ruby Tuesday of Jacksonville","1067 WESTERN BLVD","JACKSONVILLE","NC","28546","US","<MISSING>","910-346-4544","<MISSING>","<MISSING>","<MISSING>","Monday 11:00 - 22:00|  Tuesday 11:00 - 22:00|  Wednesday 11:00 - 22:00|  Thursday 11:00 - 22:00|  Friday 11:00 - 23:00|  Saturday 11:00 - 23:00|  Sunday 11:00 - 22:00"
"http://www.rubytuesday.com/locations","Ruby Tuesday of Tiffany Springs","9770 NW PRAIRIEVIEW ROAD","KANSAS CITY","MO","64153","US","<MISSING>","816-891-7091","<MISSING>","<MISSING>","<MISSING>","Monday 11:00 - 22:00|  Tuesday 11:00 - 22:00|  Wednesday 11:00 - 22:00|  Thursday 11:00 - 22:00|  Friday 11:00 - 23:00|  Saturday 11:00 - 23:00|  Sunday 11:00 - 22:00"
"http://www.rubytuesday.com/locations","Ruby Tuesday of Valley Park","942 MERAMAC STATION ROAD","VALLEY PARK","MO","63088","US","<MISSING>","636-825-6330","<MISSING>","<MISSING>","<MISSING>","Monday 11:00 - 22:00|  Tuesday 11:00 - 22:00|  Wednesday 11:00 - 22:00|  Thursday 11:00 - 22:00|  Friday 11:00 - 23:00|  Saturday 11:00 - 23:00|  Sunday 11:00 - 22:00"
"http://www.rubytuesday.com/locations","Ruby Tuesday of Somerset","1975 S. HIGHWAY 27","SOMERSET","KY","42501","US","<MISSING>","606-677-2800","<MISSING>","<MISSING>","<MISSING>","Monday 11:00 - 22:00|  Tuesday 11:00 - 22:00|  Wednesday 11:00 - 22:00|  Thursday 11:00 - 22:00|  Friday 11:00 - 23:00|  Saturday 11:00 - 23:00|  Sunday 11:00 - 22:00"
"http://www.rubytuesday.com/locations","Ruby Tuesday of Clinton NC","1118 SUNSET AVENUE","CLINTON","NC","28328","US","<MISSING>","910-590-0020","<MISSING>","<MISSING>","<MISSING>","Monday 11:00 - 22:00|  Tuesday 11:00 - 22:00|  Wednesday 11:00 - 22:00|  Thursday 11:00 - 22:00|  Friday 11:00 - 23:00|  Saturday 11:00 - 23:00|  Sunday 11:00 - 22:00"
"http://www.rubytuesday.com/locations","Ruby Tuesday of Spring Lake","215 S. BRAGG BLVD.","SPRING LAKE","NC","28390","US","<MISSING>","910-436-1008","<MISSING>","<MISSING>","<MISSING>","Monday 11:00 - 22:00|  Tuesday 11:00 - 22:00|  Wednesday 11:00 - 22:00|  Thursday 11:00 - 22:00|  Friday 11:00 - 23:00|  Saturday 11:00 - 23:00|  Sunday 11:00 - 22:00"
"http://www.rubytuesday.com/locations","Ruby Tuesday of Johnson City - ETSU","1208 HARRIS DRIVE WEST","JOHNSON CITY","TN","37604","US","<MISSING>","423-926-1336","<MISSING>","<MISSING>","<MISSING>","Monday 11:00 - 22:00|  Tuesday 11:00 - 22:00|  Wednesday 11:00 - 22:00|  Thursday 11:00 - 22:00|  Friday 11:00 - 23:00|  Saturday 11:00 - 23:00|  Sunday 11:00 - 22:00"
"http://www.rubytuesday.com/locations","Ruby Tuesday of Statesville","210 TURNERSBURG HIGHWAY","STATESVILLE","NC","28625","US","<MISSING>","704-883-7883","<MISSING>","<MISSING>","<MISSING>","Monday 11:00 - 22:00|  Tuesday 11:00 - 22:00|  Wednesday 11:00 - 22:00|  Thursday 11:00 - 22:00|  Friday 11:00 - 23:00|  Saturday 11:00 - 23:00|  Sunday 11:00 - 22:00"
"http://www.rubytuesday.com/locations","Ruby Tuesday of Independence","14001 E. 40 HIGHWAY","KANSAS CITY","MO","64136","US","<MISSING>","816-373-6465","<MISSING>","<MISSING>","<MISSING>","Monday 11:00 - 22:00|  Tuesday 11:00 - 22:00|  Wednesday 11:00 - 22:00|  Thursday 11:00 - 22:00|  Friday 11:00 - 23:00|  Saturday 11:00 - 23:00|  Sunday 11:00 - 22:00"
"http://www.rubytuesday.com/locations","Ruby Tuesday of Fayetteville","1812 SKIBO ROAD","FAYETTEVILLE","NC","28303","US","<MISSING>","910-864-4400","<MISSING>","<MISSING>","<MISSING>","Monday 11:00 - 22:00|  Tuesday 11:00 - 22:00|  Wednesday 11:00 - 22:00|  Thursday 11:00 - 22:00|  Friday 11:00 - 23:00|  Saturday 11:00 - 23:00|  Sunday 11:00 - 22:00"
"http://www.rubytuesday.com/locations","Ruby Tuesday of Bureau Drive","1936 CEDAR CREEK RD","FAYETTEVILLE","NC","28337","US","<MISSING>","910-484-7122","<MISSING>","<MISSING>","<MISSING>","Monday 11:00 - 23:00|  Tuesday 11:00 - 23:00|  Wednesday 11:00 - 23:00|  Thursday 11:00 - 23:00|  Friday 11:00 - 0:00|  Saturday 11:00 - 0:00|  Sunday 11:00 - 22:00"
"http://www.rubytuesday.com/locations","Ruby Tuesday of Fayetteville - Owen Dr","1870 OWEN DRIVE","FAYETTEVILLE","NC","28304","US","<MISSING>","910-323-1742","<MISSING>","<MISSING>","<MISSING>","Monday 11:00 - 22:00|  Tuesday 11:00 - 22:00|  Wednesday 11:00 - 22:00|  Thursday 11:00 - 22:00|  Friday 11:00 - 23:00|  Saturday 11:00 - 23:00|  Sunday 11:00 - 22:00"
"http://www.rubytuesday.com/locations","Ruby Tuesday of Lenoir","425 BLOWING ROCK BLVD","LENOIR","NC","28645","US","<MISSING>","828-758-7725","<MISSING>","<MISSING>","<MISSING>","Monday 11:00 - 22:00|  Tuesday 11:00 - 22:00|  Wednesday 11:00 - 22:00|  Thursday 11:00 - 22:00|  Friday 11:00 - 23:00|  Saturday 11:00 - 23:00|  Sunday 11:00 - 22:00"
"http://www.rubytuesday.com/locations","Ruby Tuesday of Tower Road","6751 TOWER ROAD","DENVER","CO","80249","US","<MISSING>","303-373-5800","<MISSING>","<MISSING>","<MISSING>","Monday 11:00 - 23:00|  Tuesday 11:00 - 23:00|  Wednesday 11:00 - 23:00|  Thursday 11:00 - 23:00|  Friday 11:00 - 23:00|  Saturday 11:00 - 23:00|  Sunday 11:00 - 23:00"
"http://www.rubytuesday.com/locations","Ruby Tuesday of Festus Sharpiro Place","1120 SHAPIRO DRIVE","FESTUS","MO","63028","US","<MISSING>","636-933-6650","<MISSING>","<MISSING>","<MISSING>","Monday 11:00 - 22:00|  Tuesday 11:00 - 22:00|  Wednesday 11:00 - 22:00|  Thursday 11:00 - 22:00|  Friday 11:00 - 23:00|  Saturday 11:00 - 23:00|  Sunday 11:00 - 22:00"
"http://www.rubytuesday.com/locations","Ruby Tuesday of Arvada","5525 WADSWORTH BYPASS","ARVADA","CO","80002","US","<MISSING>","303-940-0441","<MISSING>","<MISSING>","<MISSING>","Monday 11:00 - 22:00|  Tuesday 11:00 - 22:00|  Wednesday 11:00 - 22:00|  Thursday 11:00 - 22:00|  Friday 11:00 - 23:00|  Saturday 11:00 - 23:00|  Sunday 11:00 - 22:00"
"http://www.rubytuesday.com/locations","Ruby Tuesday of Mililani","95-1249 Mehe' Ula Parkway","Mililani","HI","96789","US","<MISSING>","808-623-4949","<MISSING>","<MISSING>","<MISSING>","Monday 08:00 - 21:00|  Tuesday 08:00 - 21:00|  Wednesday 08:00 - 21:00|  Thursday 08:00 - 21:00|  Friday 08:00 - 22:00|  Saturday 08:00 - 22:00|  Sunday 08:00 - 21:00"
"http://www.rubytuesday.com/locations","Ruby Tuesday of North Lite","2461 WONDER DRIVE NE","KANNAPOLIS","NC","28083","US","<MISSING>","704-720-7829","<MISSING>","<MISSING>","<MISSING>","Monday 11:00 - 22:00|  Tuesday 11:00 - 22:00|  Wednesday 11:00 - 22:00|  Thursday 11:00 - 22:00|  Friday 11:00 - 23:00|  Saturday 11:00 - 23:00|  Sunday 11:00 - 22:00"
"http://www.rubytuesday.com/locations","Ruby Tuesday of Hickory","1821 US HIGHWAY 70 SE","HICKORY","NC","28602","US","<MISSING>","828-267-2981","<MISSING>","<MISSING>","<MISSING>","Monday 11:00 - 22:00|  Tuesday 11:00 - 22:00|  Wednesday 11:00 - 22:00|  Thursday 11:00 - 22:00|  Friday 11:00 - 23:00|  Saturday 11:00 - 23:00|  Sunday 11:00 - 22:00"
"http://www.rubytuesday.com/locations","Ruby Tuesday of Moanalua","930 Valkenburgh Street #211","Honolulu","HI","96818","US","<MISSING>","808-422-8585","<MISSING>","<MISSING>","<MISSING>","Monday 08:00 - 21:00|  Tuesday 08:00 - 21:00|  Wednesday 08:00 - 21:00|  Thursday 08:00 - 21:00|  Friday 08:00 - 22:00|  Saturday 08:00 - 22:00|  Sunday 08:00 - 21:00"
"http://www.rubytuesday.com/locations","Ruby Tuesday of Windward Mall","45-056 Kamehameha Hwy","Kaneohe","HI","96744","US","<MISSING>","808-235-5800","<MISSING>","<MISSING>","<MISSING>","Monday 08:00 - 21:00|  Tuesday 08:00 - 21:00|  Wednesday 08:00 - 21:00|  Thursday 08:00 - 21:00|  Friday 08:00 - 22:00|  Saturday 08:00 - 22:00|  Sunday 08:00 - 21:00"
"http://www.rubytuesday.com/locations","Ruby Tuesday of Morristown","483 SOUTH DAVY CROCKETT PARKWAY","MORRISTOWN","TN","37813","US","<MISSING>","(423) 586-0830","<MISSING>","<MISSING>","<MISSING>","Monday 11:00 - 22:00|  Tuesday 11:00 - 22:00|  Wednesday 11:00 - 22:00|  Thursday 11:00 - 22:00|  Friday 11:00 - 23:00|  Saturday 11:00 - 23:00|  Sunday 11:00 - 22:00"
"http://www.rubytuesday.com/locations","Ruby Tuesday of Kapolei","4470 Kapolei Parkway #500","Kapolei","HI","96707","US","<MISSING>","808-492-1395","<MISSING>","<MISSING>","<MISSING>","Monday 08:00 - 21:00|  Tuesday 08:00 - 21:00|  Wednesday 08:00 - 21:00|  Thursday 08:00 - 21:00|  Friday 08:00 - 22:00|  Saturday 08:00 - 22:00|  Sunday 08:00 - 21:00"
"http://www.rubytuesday.com/locations","Ruby Tuesday of Speedway Blvd.","7780 LYLES LANE NW","CONCORD","NC","28027","US","<MISSING>","704-979-1741","<MISSING>","<MISSING>","<MISSING>","Monday 11:00 - 22:00|  Tuesday 11:00 - 22:00|  Wednesday 11:00 - 22:00|  Thursday 11:00 - 22:00|  Friday 11:00 - 23:00|  Saturday 11:00 - 23:00|  Sunday 11:00 - 22:00"
"http://www.rubytuesday.com/locations","Ruby Tuesday of Mayfaire","1138 MILITARY CUTOFF ROAD","WILMINGTON","NC","28405","US","<MISSING>","910-509-0129","<MISSING>","<MISSING>","<MISSING>","Monday 11:00 - 22:00|  Tuesday 11:00 - 22:00|  Wednesday 11:00 - 22:00|  Thursday 11:00 - 22:00|  Friday 11:00 - 23:00|  Saturday 11:00 - 23:00|  Sunday 11:00 - 22:00"
"http://www.rubytuesday.com/locations","Ruby Tuesday of Lumberton","5005 FAYETTEVILLE ROAD","LUMBERTON","NC","28358","US","<MISSING>","910-739-6030","<MISSING>","<MISSING>","<MISSING>","Monday 11:00 - 23:00|  Tuesday 11:00 - 23:00|  Wednesday 11:00 - 23:00|  Thursday 11:00 - 23:00|  Friday 11:00 - 0:00|  Saturday 11:00 - 0:00|  Sunday 11:00 - 22:00"
"http://www.rubytuesday.com/locations","Ruby Tuesday of Bowling Green","2945 SCOTTSVILLE RD","BOWLING GREEN","KY","42104","US","<MISSING>","270-393-8242","<MISSING>","<MISSING>","<MISSING>","Monday 11:00 - 22:00|  Tuesday 11:00 - 22:00|  Wednesday 11:00 - 22:00|  Thursday 11:00 - 22:00|  Friday 11:00 - 23:00|  Saturday 11:00 - 23:00|  Sunday 11:00 - 22:00"
"http://www.rubytuesday.com/locations","Ruby Tuesday of Lumberton-5th Street","2950 WEST 5TH STREET","LUMBERTON","NC","28358","US","<MISSING>","910-739-8117","<MISSING>","<MISSING>","<MISSING>","Monday 11:00 - 22:00|  Tuesday 11:00 - 22:00|  Wednesday 11:00 - 22:00|  Thursday 11:00 - 22:00|  Friday 11:00 - 23:00|  Saturday 11:00 - 23:00|  Sunday 11:00 - 22:00"
"http://www.rubytuesday.com/locations","Ruby Tuesday of Monkey Junction","5218 SOUTH COLLEGE ROAD","WILMINGTON","NC","28412","US","<MISSING>","910-395-2396","<MISSING>","<MISSING>","<MISSING>","Monday 11:00 - 22:00|  Tuesday 11:00 - 22:00|  Wednesday 11:00 - 22:00|  Thursday 11:00 - 22:00|  Friday 11:00 - 23:00|  Saturday 11:00 - 23:00|  Sunday 11:00 - 22:00"
"http://www.rubytuesday.com/locations","Ruby Tuesday of Newport","1005 COSBY HIGHWAY","NEWPORT","TN","37821","US","<MISSING>","423-613-0769","<MISSING>","<MISSING>","<MISSING>","Monday 11:00 - 22:00|  Tuesday 11:00 - 22:00|  Wednesday 11:00 - 22:00|  Thursday 11:00 - 22:00|  Friday 11:00 - 23:00|  Saturday 11:00 - 23:00|  Sunday 11:00 - 22:00"
"http://www.rubytuesday.com/locations","Ruby Tuesday of Dandridge","523 PATRIOT DRIVE","JEFFERSON CITY","TN","37725","US","<MISSING>","865-397-1393","<MISSING>","<MISSING>","<MISSING>","Monday 11:00 - 23:00|  Tuesday 11:00 - 23:00|  Wednesday 11:00 - 23:00|  Thursday 11:00 - 23:00|  Friday 11:00 - 0:00|  Saturday 11:00 - 0:00|  Sunday 11:00 - 22:00"
"http://www.rubytuesday.com/locations","Ruby Tuesday of Gastonia","424 COX RD","GASTONIA","NC","28054","US","<MISSING>","704-852-3985","<MISSING>","<MISSING>","<MISSING>","Monday 11:00 - 22:00|  Tuesday 11:00 - 22:00|  Wednesday 11:00 - 22:00|  Thursday 11:00 - 22:00|  Friday 11:00 - 23:00|  Saturday 11:00 - 23:00|  Sunday 11:00 - 22:00"
"http://www.rubytuesday.com/locations","Ruby Tuesday of Arrowood Road","8905 RED OAK BLVD","CHARLOTTE","NC","28217","US","<MISSING>","704-525-5025","<MISSING>","<MISSING>","<MISSING>","Monday 11:00 - 22:00|  Tuesday 11:00 - 22:00|  Wednesday 11:00 - 22:00|  Thursday 11:00 - 22:00|  Friday 11:00 - 0:00|  Saturday 11:00 - 0:00|  Sunday 11:00 - 22:00"
"http://www.rubytuesday.com/locations","Ruby Tuesday of Emory Road","508 EAST EMORY ROAD","POWELL","TN","37849","US","<MISSING>","865-938-9102","<MISSING>","<MISSING>","<MISSING>","Monday 11:00 - 22:00|  Tuesday 11:00 - 22:00|  Wednesday 11:00 - 22:00|  Thursday 11:00 - 22:00|  Friday 11:00 - 23:00|  Saturday 11:00 - 23:00|  Sunday 11:00 - 21:00"
"http://www.rubytuesday.com/locations","Ruby Tuesday of Shelby","2003 EAST DIXON BLVD.","SHELBY","NC","28152","US","<MISSING>","704-481-1925","<MISSING>","<MISSING>","<MISSING>","Monday 11:00 - 22:00|  Tuesday 11:00 - 22:00|  Wednesday 11:00 - 22:00|  Thursday 11:00 - 22:00|  Friday 11:00 - 23:00|  Saturday 11:00 - 23:00|  Sunday 11:00 - 22:00"
"http://www.rubytuesday.com/locations","Ruby Tuesday of Sevierville","630 WINFIELD DUNN PARKWAY","SEVIERVILLE","TN","37876","US","<MISSING>","865-428-7842","<MISSING>","<MISSING>","<MISSING>","Monday 11:00 - 22:00|  Tuesday 11:00 - 22:00|  Wednesday 11:00 - 22:00|  Thursday 11:00 - 22:00|  Friday 11:00 - 23:00|  Saturday 11:00 - 23:00|  Sunday 11:00 - 22:00"
"http://www.rubytuesday.com/locations","Ruby Tuesday of Chapman Highway-WalMart","7406 CHAPMAN HIGHWAY","KNOXVILLE","TN","37920","US","<MISSING>","865-577-4070","<MISSING>","<MISSING>","<MISSING>","Monday 11:00 - 22:00|  Tuesday 11:00 - 22:00|  Wednesday 11:00 - 22:00|  Thursday 11:00 - 22:00|  Friday 11:00 - 23:00|  Saturday 11:00 - 23:00|  Sunday 11:00 - 22:00"
"http://www.rubytuesday.com/locations","Ruby Tuesday of Rock Hill","1410 OLD SPRINGDALE ROAD","ROCK HILL","SC","29730","US","<MISSING>","803-980-8313","<MISSING>","<MISSING>","<MISSING>","Monday 11:00 - 22:00|  Tuesday 11:00 - 22:00|  Wednesday 11:00 - 22:00|  Thursday 11:00 - 22:00|  Friday 11:00 - 23:00|  Saturday 11:00 - 23:00|  Sunday 11:00 - 22:00"
"http://www.rubytuesday.com/locations","Ruby Tuesday of Fletcher","260 UNDERWOOD RD","FLETCHER","NC","28732","US","<MISSING>","828-684-5201","<MISSING>","<MISSING>","<MISSING>","Monday 11:00 - 23:00|  Tuesday 11:00 - 23:00|  Wednesday 11:00 - 23:00|  Thursday 11:00 - 23:00|  Friday 11:00 - 23:00|  Saturday 11:00 - 23:00|  Sunday 11:00 - 22:00"
"http://www.rubytuesday.com/locations","Ruby Tuesday of Alcoa Highway","109 FURROW WAY","Alcoa","TN","37701","US","<MISSING>","865-379-8321","<MISSING>","<MISSING>","<MISSING>","Monday 11:00 - 23:00|  Tuesday 11:00 - 23:00|  Wednesday 11:00 - 23:00|  Thursday 11:00 - 23:00|  Friday 11:00 - 23:00|  Saturday 11:00 - 23:00|  Sunday 11:00 - 22:00"
"http://www.rubytuesday.com/locations","Ruby Tuesday of McGhee Tyson Airport","BEYOND SECURITY GATE 2055 ALCOA HIGHWAY","Alcoa","TN","37701","US","<MISSING>","865-342-3280","<MISSING>","<MISSING>","<MISSING>","Monday 4:30 - 20:00|  Tuesday 4:30 - 20:00|  Wednesday 4:30 - 20:00|  Thursday 4:30 - 20:00|  Friday 4:30 - 20:00|  Saturday 4:30 - 20:00|  Sunday 4:30 - 20:00"
"http://www.rubytuesday.com/locations","Ruby Tuesday of Lenoir City","120 INTERCHANGE PARK LANE","LENOIR CITY","TN","37771","US","<MISSING>","865-986-0973","<MISSING>","<MISSING>","<MISSING>","Monday 11:00 - 23:00|  Tuesday 11:00 - 23:00|  Wednesday 11:00 - 23:00|  Thursday 11:00 - 23:00|  Friday 11:00 - 23:00|  Saturday 11:00 - 23:00|  Sunday 11:00 - 22:00"
"http://www.rubytuesday.com/locations","Ruby Tuesday of Harriman","1640 S. ROANE ST","HARRIMAN","TN","37748","US","<MISSING>","865-590-0671","<MISSING>","<MISSING>","<MISSING>","Monday 11:00 - 22:00|  Tuesday 11:00 - 22:00|  Wednesday 11:00 - 22:00|  Thursday 11:00 - 22:00|  Friday 11:00 - 23:00|  Saturday 11:00 - 23:00|  Sunday 11:00 - 21:00"
"http://www.rubytuesday.com/locations","Ruby Tuesday of Crossville","2316 N. MAIN STREET","CROSSVILLE","TN","38555","US","<MISSING>","931-456-8132","<MISSING>","<MISSING>","<MISSING>","Monday 11:00 - 22:00|  Tuesday 11:00 - 22:00|  Wednesday 11:00 - 22:00|  Thursday 11:00 - 22:00|  Friday 11:00 - 23:00|  Saturday 11:00 - 23:00|  Sunday 11:00 - 22:00"
"http://www.rubytuesday.com/locations","Ruby Tuesday of Ft. Campbell","1826 FT. CAMPBELL BLVD.","CLARKSVILLE","TN","37042","US","<MISSING>","931-221-0330","<MISSING>","<MISSING>","<MISSING>","Monday 11:00 - 22:00|  Tuesday 11:00 - 22:00|  Wednesday 11:00 - 22:00|  Thursday 11:00 - 22:00|  Friday 11:00 - 23:00|  Saturday 11:00 - 23:00|  Sunday 11:00 - 22:00"
"http://www.rubytuesday.com/locations","Ruby Tuesday of Hillcrest","1941 E. MAIN STREET","SPARTANBURG","SC","29307","US","<MISSING>","864-585-7829","<MISSING>","<MISSING>","<MISSING>","Monday 11:00 - 22:00|  Tuesday 11:00 - 22:00|  Wednesday 11:00 - 22:00|  Thursday 11:00 - 22:00|  Friday 11:00 - 23:00|  Saturday 11:00 - 23:00|  Sunday 11:00 - 22:00"
"http://www.rubytuesday.com/locations","Ruby Tuesday of Clarksville","2239 MADISON STREET","CLARKSVILLE","TN","37043","US","<MISSING>","931-552-1278","<MISSING>","<MISSING>","<MISSING>","Monday 11:00 - 22:00|  Tuesday 11:00 - 22:00|  Wednesday 11:00 - 22:00|  Thursday 11:00 - 22:00|  Friday 11:00 - 23:00|  Saturday 11:00 - 23:00|  Sunday 11:00 - 22:00"
"http://www.rubytuesday.com/locations","Ruby Tuesday of West Spartanburg","191 DORMAN CENTER DRIVE","SPARTANBURG","SC","29301","US","<MISSING>","864-595-0341","<MISSING>","<MISSING>","<MISSING>","Monday 11:00 - 22:00|  Tuesday 11:00 - 22:00|  Wednesday 11:00 - 22:00|  Thursday 11:00 - 22:00|  Friday 11:00 - 23:00|  Saturday 11:00 - 23:00|  Sunday 11:00 - 22:00"
"http://www.rubytuesday.com/locations","Ruby Tuesday of North Florence Hwy 52","1812 WEST LUCAS STREET","FLORENCE","SC","29501","US","<MISSING>","843-629-1947","<MISSING>","<MISSING>","<MISSING>","Monday 11:00 - 23:00|  Tuesday 11:00 - 23:00|  Wednesday 11:00 - 23:00|  Thursday 11:00 - 23:00|  Friday 11:00 - 0:00|  Saturday 11:00 - 0:00|  Sunday 11:00 - 22:00"
"http://www.rubytuesday.com/locations","Ruby Tuesday of Lebanon","1317 WEST MAIN ST","LEBANON","TN","37087","US","<MISSING>","615-453-0577","<MISSING>","<MISSING>","<MISSING>","Monday 11:00 - 22:00|  Tuesday 11:00 - 22:00|  Wednesday 11:00 - 22:00|  Thursday 11:00 - 22:00|  Friday 11:00 - 23:00|  Saturday 11:00 - 23:00|  Sunday 11:00 - 21:00"
"http://www.rubytuesday.com/locations","Ruby Tuesday of Magnolia Mall","2701 DAVID MCLEOD BOULEVARD","FLORENCE","SC","29501","US","<MISSING>","843-673-0545","<MISSING>","<MISSING>","<MISSING>","Monday 11:00 - 22:00|  Tuesday 11:00 - 22:00|  Wednesday 11:00 - 22:00|  Thursday 11:00 - 22:00|  Friday 11:00 - 23:00|  Saturday 11:00 - 23:00|  Sunday 11:00 - 22:00"
"http://www.rubytuesday.com/locations","Ruby Tuesday of South Florence","1550 AMERICAN DRIVE","FLORENCE","SC","29505","US","<MISSING>","843-317-6348","<MISSING>","<MISSING>","<MISSING>","Monday 11:00 - 22:00|  Tuesday 11:00 - 22:00|  Wednesday 11:00 - 22:00|  Thursday 11:00 - 22:00|  Friday 11:00 - 23:00|  Saturday 11:00 - 23:00|  Sunday 11:00 - 22:00"
"http://www.rubytuesday.com/locations","Ruby Tuesday of Sikeston","2612 E. MALONE AVE.","MINER","MO","63801","US","<MISSING>","573-472-2190","<MISSING>","<MISSING>","<MISSING>","Monday 11:00 - 22:00|  Tuesday 11:00 - 22:00|  Wednesday 11:00 - 22:00|  Thursday 11:00 - 22:00|  Friday 11:00 - 23:00|  Saturday 11:00 - 23:00|  Sunday 11:00 - 22:00"
"http://www.rubytuesday.com/locations","Ruby Tuesday of Tanger Center","4632 FACTORY STORES BLVD.","MYRTLE BEACH","SC","29579","US","<MISSING>","843-903-7410","<MISSING>","<MISSING>","<MISSING>","Monday 11:00 - 22:00|  Tuesday 11:00 - 22:00|  Wednesday 11:00 - 22:00|  Thursday 11:00 - 22:00|  Friday 11:00 - 23:00|  Saturday 11:00 - 23:00|  Sunday 11:00 - 22:00"
"http://www.rubytuesday.com/locations","Ruby Tuesday of Donelson Pike","520 DONELSON PIKE","NASHVILLE","TN","37214","US","<MISSING>","615-316-0278","<MISSING>","<MISSING>","<MISSING>","Monday 11:00 - 23:00|  Tuesday 11:00 - 23:00|  Wednesday 11:00 - 23:00|  Thursday 11:00 - 23:00|  Friday 11:00 - 0:00|  Saturday 11:00 - 0:00|  Sunday 11:00 - 23:00"
"http://www.rubytuesday.com/locations","Ruby Tuesday of Cherrydale Point","6 STATE PARK ROAD","GREENVILLE","SC","29609","US","<MISSING>","864-242-5017","<MISSING>","<MISSING>","<MISSING>","Monday 11:00 - 22:00|  Tuesday 11:00 - 22:00|  Wednesday 11:00 - 22:00|  Thursday 11:00 - 22:00|  Friday 11:00 - 23:00|  Saturday 11:00 - 23:00|  Sunday 11:00 - 22:00"
"http://www.rubytuesday.com/locations","Ruby Tuesday of Nashboro Square","2304 MURFREESBORO PIKE","NASHVILLE","TN","37217","US","<MISSING>","615-366-0314","<MISSING>","<MISSING>","<MISSING>","Monday 11:00 - 22:00|  Tuesday 11:00 - 22:00|  Wednesday 11:00 - 22:00|  Thursday 11:00 - 22:00|  Friday 11:00 - 23:00|  Saturday 11:00 - 23:00|  Sunday 11:00 - 22:00"
"http://www.rubytuesday.com/locations","Ruby Tuesday of Athens","1830 HOLIDAY DRIVE","ATHENS","TN","37303","US","<MISSING>","423-746-1775","<MISSING>","<MISSING>","<MISSING>","Monday 11:00 - 22:00|  Tuesday 11:00 - 22:00|  Wednesday 11:00 - 22:00|  Thursday 11:00 - 22:00|  Friday 11:00 - 23:00|  Saturday 11:00 - 23:00|  Sunday 11:00 - 22:00"
"http://www.rubytuesday.com/locations","Ruby Tuesday of Smyrna","2675 HIGHWOOD BLVD","SMYRNA","TN","37167","US","<MISSING>","615-220-1328","<MISSING>","<MISSING>","<MISSING>","Monday 11:00 - 22:00|  Tuesday 11:00 - 22:00|  Wednesday 11:00 - 22:00|  Thursday 11:00 - 22:00|  Friday 11:00 - 23:00|  Saturday 11:00 - 23:00|  Sunday 11:00 - 22:00"
"http://www.rubytuesday.com/locations","Ruby Tuesday of Simpsonville","3901 GRANDVIEW DRIVE","SIMPSONVILLE","SC","29680","US","<MISSING>","864-228-0087","<MISSING>","<MISSING>","<MISSING>","Monday 11:00 - 22:00|  Tuesday 11:00 - 22:00|  Wednesday 11:00 - 22:00|  Thursday 11:00 - 22:00|  Friday 11:00 - 23:00|  Saturday 11:00 - 23:00|  Sunday 11:00 - 22:00"
"http://www.rubytuesday.com/locations","Ruby Tuesday of Sumter","1135 BROAD STREET","SUMTER","SC","29151","US","<MISSING>","803-778-0771","<MISSING>","<MISSING>","<MISSING>","Monday 11:00 - 22:00|  Tuesday 11:00 - 22:00|  Wednesday 11:00 - 22:00|  Thursday 11:00 - 22:00|  Friday 11:00 - 23:00|  Saturday 11:00 - 23:00|  Sunday 11:00 - 22:00"
"http://www.rubytuesday.com/locations","Ruby Tuesday of Dickson","140 SUZANNE DRIVE","DICKSON","TN","37055","US","<MISSING>","615-740-1488","<MISSING>","<MISSING>","<MISSING>","Monday 11:00 - 22:00|  Tuesday 11:00 - 22:00|  Wednesday 11:00 - 22:00|  Thursday 11:00 - 22:00|  Friday 11:00 - 23:00|  Saturday 11:00 - 23:00|  Sunday 11:00 - 22:00"
"http://www.rubytuesday.com/locations","Ruby Tuesday of Pueblo","4150 N. FREEWAY","PUEBLO","CO","81008","US","<MISSING>","719-542-1722","<MISSING>","<MISSING>","<MISSING>","Monday 11:00 - 22:00|  Tuesday 11:00 - 22:00|  Wednesday 11:00 - 22:00|  Thursday 11:00 - 22:00|  Friday 11:00 - 23:00|  Saturday 11:00 - 23:00|  Sunday 11:00 - 22:00"
"http://www.rubytuesday.com/locations","Ruby Tuesday of Clemson","900 TIGER BLVD.","CLEMSON","SC","29631","US","<MISSING>","864-653-8050","<MISSING>","<MISSING>","<MISSING>","Monday 11:00 - 22:00|  Tuesday 11:00 - 22:00|  Wednesday 11:00 - 22:00|  Thursday 11:00 - 22:00|  Friday 11:00 - 23:00|  Saturday 11:00 - 23:00|  Sunday 11:00 - 22:00"
"http://www.rubytuesday.com/locations","Ruby Tuesday of Columbiana","120 COLUMBIANA CIRCLE","COLUMBIA","SC","29212","US","<MISSING>","803-732-7303","<MISSING>","<MISSING>","<MISSING>","Monday 11:00 - 22:00|  Tuesday 11:00 - 22:00|  Wednesday 11:00 - 22:00|  Thursday 11:00 - 22:00|  Friday 11:00 - 23:00|  Saturday 11:00 - 23:00|  Sunday 11:00 - 22:00"
"http://www.rubytuesday.com/locations","Ruby Tuesday of Dutch Square","511 BUSH RIVER RD","COLUMBIA","SC","29210","US","<MISSING>","803-798-1243","<MISSING>","<MISSING>","<MISSING>","Monday 11:00 - 22:00|  Tuesday 11:00 - 22:00|  Wednesday 11:00 - 22:00|  Thursday 11:00 - 22:00|  Friday 11:00 - 23:00|  Saturday 11:00 - 23:00|  Sunday 11:00 - 22:00"
"http://www.rubytuesday.com/locations","Ruby Tuesday of Sumter Hwy","7490 GARNERS FERRY ROAD","COLUMBIA","SC","29209","US","<MISSING>","803-783-4181","<MISSING>","<MISSING>","<MISSING>","Monday 11:00 - 23:00|  Tuesday 11:00 - 23:00|  Wednesday 11:00 - 23:00|  Thursday 11:00 - 23:00|  Friday 11:00 - 23:00|  Saturday 11:00 - 23:00|  Sunday 11:00 - 22:00"
"http://www.rubytuesday.com/locations","Ruby Tuesday of West Columbia","2504 AUGUSTA ROAD","WEST COLUMBIA","SC","29169","US","<MISSING>","803-739-1302","<MISSING>","<MISSING>","<MISSING>","Monday 11:00 - 22:00|  Tuesday 11:00 - 22:00|  Wednesday 11:00 - 22:00|  Thursday 11:00 - 22:00|  Friday 11:00 - 23:00|  Saturday 11:00 - 23:00|  Sunday 11:00 - 22:00"
"http://www.rubytuesday.com/locations","Ruby Tuesday of Lexington Place","5464 SUNSET BLVD.","LEXINGTON","SC","29072","US","<MISSING>","803-358-0911","<MISSING>","<MISSING>","<MISSING>","Monday 11:00 - 22:00|  Tuesday 11:00 - 22:00|  Wednesday 11:00 - 22:00|  Thursday 11:00 - 22:00|  Friday 11:00 - 23:00|  Saturday 11:00 - 23:00|  Sunday 11:00 - 22:00"
"http://www.rubytuesday.com/locations","Ruby Tuesday of West Plains","1008 WOORLEY DRIVE","WEST PLAINS","MO","65775","US","<MISSING>","417-255-1510","<MISSING>","<MISSING>","<MISSING>","Monday 11:00 - 22:00|  Tuesday 11:00 - 22:00|  Wednesday 11:00 - 22:00|  Thursday 11:00 - 22:00|  Friday 11:00 - 23:00|  Saturday 11:00 - 23:00|  Sunday 11:00 - 22:00"
"http://www.rubytuesday.com/locations","Ruby Tuesday of Chattanooga-Hixson","5595 HWY. 153","HIXSON","TN","37343","US","<MISSING>","423-875-2480","<MISSING>","<MISSING>","<MISSING>","Monday 11:00 - 22:00|  Tuesday 11:00 - 22:00|  Wednesday 11:00 - 22:00|  Thursday 11:00 - 22:00|  Friday 11:00 - 23:00|  Saturday 11:00 - 23:00|  Sunday 11:00 - 22:00"
"http://www.rubytuesday.com/locations","Ruby Tuesday of Tullahoma","1936 N. JACKSON ST.","TULLAHOMA","TN","37388","US","<MISSING>","931-455-1774","<MISSING>","<MISSING>","<MISSING>","Monday 11:00 - 22:00|  Tuesday 11:00 - 22:00|  Wednesday 11:00 - 22:00|  Thursday 11:00 - 22:00|  Friday 11:00 - 23:00|  Saturday 11:00 - 23:00|  Sunday 11:00 - 22:00"
"http://www.rubytuesday.com/locations","Ruby Tuesday of Columbia","827 SOUTH JAMES CAMPBELL BLVD.","COLUMBIA","TN","38401","US","<MISSING>","931-381-7089","<MISSING>","<MISSING>","<MISSING>","Monday 11:00 - 22:00|  Tuesday 11:00 - 22:00|  Wednesday 11:00 - 22:00|  Thursday 11:00 - 22:00|  Friday 11:00 - 23:00|  Saturday 11:00 - 23:00|  Sunday 11:00 - 22:00"
"http://www.rubytuesday.com/locations","Ruby Tuesday of Orangeburg","724 CITADEL ROAD","ORANGEBURG","SC","29118","US","<MISSING>","803-531-0022","<MISSING>","<MISSING>","<MISSING>","Monday 11:00 - 23:00|  Tuesday 11:00 - 23:00|  Wednesday 11:00 - 23:00|  Thursday 11:00 - 23:00|  Friday 11:00 - 0:00|  Saturday 11:00 - 0:00|  Sunday 11:00 - 22:00"
"http://www.rubytuesday.com/locations","Ruby Tuesday of Ellijay","47 HIGHLAND CROSSING","EAST ELLIJAY","GA","30540","US","<MISSING>","706-515-3301","<MISSING>","<MISSING>","<MISSING>","Monday 11:00 - 22:00|  Tuesday 11:00 - 22:00|  Wednesday 11:00 - 22:00|  Thursday 11:00 - 22:00|  Friday 11:00 - 23:00|  Saturday 11:00 - 23:00|  Sunday 11:00 - 22:00"
"http://www.rubytuesday.com/locations","Ruby Tuesday of Commerce","167 STEVEN B. TANGER BLVD","COMMERCE","GA","30529","US","<MISSING>","706-335-6676","<MISSING>","<MISSING>","<MISSING>","Monday 11:00 - 22:00|  Tuesday 11:00 - 22:00|  Wednesday 11:00 - 22:00|  Thursday 11:00 - 22:00|  Friday 11:00 - 23:00|  Saturday 11:00 - 23:00|  Sunday 11:00 - 22:00"
"http://www.rubytuesday.com/locations","Ruby Tuesday of Dawsonville","796 HIGHWAY 400 SOUTH","DAWSONVILLE","GA","30534","US","<MISSING>","706-216-2333","<MISSING>","<MISSING>","<MISSING>","Monday 11:00 - 22:00|  Tuesday 11:00 - 22:00|  Wednesday 11:00 - 22:00|  Thursday 11:00 - 22:00|  Friday 11:00 - 23:00|  Saturday 11:00 - 23:00|  Sunday 11:00 - 22:00"
"http://www.rubytuesday.com/locations","Ruby Tuesday of Summerville","1320 NORTH MAIN STREET","SUMMERVILLE","SC","29483","US","<MISSING>","843-832-3128","<MISSING>","<MISSING>","<MISSING>","Monday 11:00 - 22:00|  Tuesday 11:00 - 22:00|  Wednesday 11:00 - 22:00|  Thursday 11:00 - 22:00|  Friday 11:00 - 23:00|  Saturday 11:00 - 23:00|  Sunday 11:00 - 22:00"
"http://www.rubytuesday.com/locations","Ruby Tuesday of Ashley Phosphate","7400 NORTHSIDE DRIVE","NORTH CHARLESTON","SC","29420","US","<MISSING>","843-764-0649","<MISSING>","<MISSING>","<MISSING>","Monday 11:00 - 22:00|  Tuesday 11:00 - 22:00|  Wednesday 11:00 - 22:00|  Thursday 11:00 - 22:00|  Friday 11:00 - 23:00|  Saturday 11:00 - 23:00|  Sunday 11:00 - 22:00"
"http://www.rubytuesday.com/locations","Ruby Tuesday of Aiken","2285 WHISKEY RD","AIKEN","SC","29803","US","<MISSING>","803-642-7266","<MISSING>","<MISSING>","<MISSING>","Monday 11:00 - 22:00|  Tuesday 11:00 - 22:00|  Wednesday 11:00 - 22:00|  Thursday 11:00 - 22:00|  Friday 11:00 - 23:00|  Saturday 11:00 - 23:00|  Sunday 11:00 - 22:00"
"http://www.rubytuesday.com/locations","Ruby Tuesday of Calhoun","731 HIGHWAY 53E","CALHOUN","GA","30701","US","<MISSING>","706-602-2458","<MISSING>","<MISSING>","<MISSING>","Monday 11:00 - 22:00|  Tuesday 11:00 - 22:00|  Wednesday 11:00 - 22:00|  Thursday 11:00 - 22:00|  Friday 11:00 - 23:00|  Saturday 11:00 - 23:00|  Sunday 11:00 - 22:00"
"http://www.rubytuesday.com/locations","Ruby Tuesday of N. Augusta","1183 KNOX AVENUE","N AUGUSTA","SC","29841","US","<MISSING>","803-442-9431","<MISSING>","<MISSING>","<MISSING>","Monday 11:00 - 22:00|  Tuesday 11:00 - 22:00|  Wednesday 11:00 - 22:00|  Thursday 11:00 - 22:00|  Friday 11:00 - 23:00|  Saturday 11:00 - 23:00|  Sunday 11:00 - 22:00"
"http://www.rubytuesday.com/locations","Ruby Tuesday of Mullins Crossing","4203 WASHINGTON ROAD","EVANS","GA","30809","US","<MISSING>","706-869-7458","<MISSING>","<MISSING>","<MISSING>","Monday 11:00 - 22:00|  Tuesday 11:00 - 22:00|  Wednesday 11:00 - 22:00|  Thursday 11:00 - 22:00|  Friday 11:00 - 23:00|  Saturday 11:00 - 23:00|  Sunday 11:00 - 22:00"
"http://www.rubytuesday.com/locations","Ruby Tuesday of Jonesboro","2915 KAZI STREET","JONESBORO","AR","72401","US","<MISSING>","870-934-8394","<MISSING>","<MISSING>","<MISSING>","Monday 11:00 - 22:00|  Tuesday 11:00 - 22:00|  Wednesday 11:00 - 22:00|  Thursday 11:00 - 22:00|  Friday 11:00 - 23:00|  Saturday 11:00 - 23:00|  Sunday 11:00 - 22:00"
"http://www.rubytuesday.com/locations","Ruby Tuesday of West Ashley","1953 SAVANNAH HIGHWAY","CHARLESTON","SC","29407","US","<MISSING>","843-763-5110","<MISSING>","<MISSING>","<MISSING>","Monday 11:00 - 22:00|  Tuesday 11:00 - 22:00|  Wednesday 11:00 - 22:00|  Thursday 11:00 - 22:00|  Friday 11:00 - 23:00|  Saturday 11:00 - 23:00|  Sunday 11:00 - 22:00"
"http://www.rubytuesday.com/locations","Ruby Tuesday of Scottsboro","252 MICAH WAY","SCOTTSBORO","AL","35769","US","<MISSING>","256-574-2619","<MISSING>","<MISSING>","<MISSING>","Monday 11:00 - 22:00|  Tuesday 11:00 - 22:00|  Wednesday 11:00 - 22:00|  Thursday 11:00 - 22:00|  Friday 11:00 - 23:00|  Saturday 11:00 - 23:00|  Sunday 11:00 - 22:00"
"http://www.rubytuesday.com/locations","Ruby Tuesday of Winder","25 SOUTH BROAD ST.","WINDER","GA","30680","US","<MISSING>","678-425-1904","<MISSING>","<MISSING>","<MISSING>","Monday 11:00 - 22:00|  Tuesday 11:00 - 22:00|  Wednesday 11:00 - 22:00|  Thursday 11:00 - 22:00|  Friday 11:00 - 23:00|  Saturday 11:00 - 23:00|  Sunday 11:00 - 22:00"
"http://www.rubytuesday.com/locations","Ruby Tuesday of Walterboro","1480 SNIDER'S HIGHWAY","WALTERBORO","SC","29488","US","<MISSING>","843-539-1227","<MISSING>","<MISSING>","<MISSING>","Monday 11:00 - 23:00|  Tuesday 11:00 - 23:00|  Wednesday 11:00 - 23:00|  Thursday 11:00 - 23:00|  Friday 11:00 - 23:00|  Saturday 11:00 - 23:00|  Sunday 11:00 - 22:00"
"http://www.rubytuesday.com/locations","Ruby Tuesday of Athens - AL","21366 ATHENS LIMESTONE LANE","ATHENS","AL","35611","US","<MISSING>","256-230-6108","<MISSING>","<MISSING>","<MISSING>","Monday 11:00 - 22:00|  Tuesday 11:00 - 22:00|  Wednesday 11:00 - 22:00|  Thursday 11:00 - 22:00|  Friday 11:00 - 23:00|  Saturday 11:00 - 23:00|  Sunday 11:00 - 22:00"
"http://www.rubytuesday.com/locations","Ruby Tuesday of Ft. Payne","301 RUBY TUESDAY LANE","FT. PAYNE","AL","35967","US","<MISSING>","256-844-2963","<MISSING>","<MISSING>","<MISSING>","Monday 11:00 - 22:00|  Tuesday 11:00 - 22:00|  Wednesday 11:00 - 22:00|  Thursday 11:00 - 22:00|  Friday 11:00 - 23:00|  Saturday 11:00 - 23:00|  Sunday 11:00 - 22:00"
"http://www.rubytuesday.com/locations","Ruby Tuesday of South Huntsville","11594 MEMORIAL PARKWAY S.W.","HUNTSVILLE","AL","35803","US","<MISSING>","256-883-3105","<MISSING>","<MISSING>","<MISSING>","Monday 11:00 - 22:00|  Tuesday 11:00 - 22:00|  Wednesday 11:00 - 22:00|  Thursday 11:00 - 22:00|  Friday 11:00 - 23:00|  Saturday 11:00 - 23:00|  Sunday 11:00 - 22:00"
"http://www.rubytuesday.com/locations","Ruby Tuesday of Loganville","4121 ATLANTA HIGHWAY","LOGANVILLE","GA","30052","US","<MISSING>","678-957-6243","<MISSING>","<MISSING>","<MISSING>","Monday 11:00 - 22:00|  Tuesday 11:00 - 22:00|  Wednesday 11:00 - 22:00|  Thursday 11:00 - 22:00|  Friday 11:00 - 23:00|  Saturday 11:00 - 23:00|  Sunday 11:00 - 22:00"
"http://www.rubytuesday.com/locations","Ruby Tuesday of Muscle Shoals","1704 WOODWARD AVE.","MUSCLE SHOALS","AL","35661","US","<MISSING>","256-383-7031","<MISSING>","<MISSING>","<MISSING>","Monday 11:00 - 22:00|  Tuesday 11:00 - 22:00|  Wednesday 11:00 - 22:00|  Thursday 11:00 - 22:00|  Friday 11:00 - 23:00|  Saturday 11:00 - 23:00|  Sunday 11:00 - 22:00"
"http://www.rubytuesday.com/locations","Ruby Tuesday of Corinth","2110 HIGHWAY 72 WEST","CORINTH","MS","38834","US","<MISSING>","662-287-2890","<MISSING>","<MISSING>","<MISSING>","Monday 11:00 - 22:00|  Tuesday 11:00 - 22:00|  Wednesday 11:00 - 22:00|  Thursday 11:00 - 22:00|  Friday 11:00 - 23:00|  Saturday 11:00 - 23:00|  Sunday 11:00 - 22:00"
"http://www.rubytuesday.com/locations","Ruby Tuesday of Sycamore","1653 SYCAMORE VIEW ROAD","MEMPHIS","TN","38134","US","<MISSING>","901-382-9280","<MISSING>","<MISSING>","<MISSING>","Monday 11:00 - 22:00|  Tuesday 11:00 - 22:00|  Wednesday 11:00 - 22:00|  Thursday 11:00 - 22:00|  Friday 11:00 - 23:00|  Saturday 11:00 - 23:00|  Sunday 11:00 - 22:00"
"http://www.rubytuesday.com/locations","Ruby Tuesday of Lithia Springs","642 THORNTON ROAD","LITHIA SPRINGS","GA","30122","US","<MISSING>","770-948-3707","<MISSING>","<MISSING>","<MISSING>","Monday 11:00 - 22:00|  Tuesday 11:00 - 22:00|  Wednesday 11:00 - 22:00|  Thursday 11:00 - 22:00|  Friday 11:00 - 23:00|  Saturday 11:00 - 23:00|  Sunday 11:00 - 22:00"
"http://www.rubytuesday.com/locations","Ruby Tuesday of Virginia Ave East Point","1230 VIRGINIA AVENUE","EAST POINT","GA","30344","US","<MISSING>","404-559-4887","<MISSING>","<MISSING>","<MISSING>","Monday 11:00 - 23:00|  Tuesday 11:00 - 23:00|  Wednesday 11:00 - 23:00|  Thursday 11:00 - 23:00|  Friday 11:00 - 0:00|  Saturday 11:00 - 0:00|  Sunday 11:00 - 22:00"
"http://www.rubytuesday.com/locations","Ruby Tuesday of Camp Creek","3390 CAMP CREEK PARKWAY","EAST POINT","GA","30344","US","<MISSING>","404-344-0221","<MISSING>","<MISSING>","<MISSING>","Monday 11:00 - 22:00|  Tuesday 11:00 - 22:00|  Wednesday 11:00 - 22:00|  Thursday 11:00 - 22:00|  Friday 11:00 - 0:00|  Saturday 11:00 - 0:00|  Sunday 11:00 - 22:00"
"http://www.rubytuesday.com/locations","Ruby Tuesday of Beaufort","346 ROBERT SMALLS PARKWAY","BEAUFORT","SC","29902","US","<MISSING>","843-522-1972","<MISSING>","<MISSING>","<MISSING>","Monday 11:00 - 22:00|  Tuesday 11:00 - 22:00|  Wednesday 11:00 - 22:00|  Thursday 11:00 - 22:00|  Friday 11:00 - 23:00|  Saturday 11:00 - 23:00|  Sunday 11:00 - 22:00"
"http://www.rubytuesday.com/locations","Ruby Tuesday of 31st &amp; Memorial","7806 EAST SKELLY DRIVE","TULSA","OK","74145","US","<MISSING>","918-622-0781","<MISSING>","<MISSING>","<MISSING>","Monday 11:00 - 22:00|  Tuesday 11:00 - 22:00|  Wednesday 11:00 - 22:00|  Thursday 11:00 - 22:00|  Friday 11:00 - 23:00|  Saturday 11:00 - 23:00|  Sunday 11:00 - 22:00"
"http://www.rubytuesday.com/locations","Ruby Tuesday of College Park","1925 SULLIVAN ROAD","COLLEGE PARK","GA","30337","US","<MISSING>","770-994-1122","<MISSING>","<MISSING>","<MISSING>","Monday 11:00 - 22:00|  Tuesday 11:00 - 22:00|  Wednesday 11:00 - 22:00|  Thursday 11:00 - 22:00|  Friday 11:00 - 0:00|  Saturday 11:00 - 0:00|  Sunday 11:00 - 22:00"
"http://www.rubytuesday.com/locations","Ruby Tuesday of Cullman","6076 ALABAMA HIGHWAY 157 NORTH WEST","CULLMAN","AL","35055","US","<MISSING>","256-734-7616","<MISSING>","<MISSING>","<MISSING>","Monday 11:00 - 22:00|  Tuesday 11:00 - 22:00|  Wednesday 11:00 - 22:00|  Thursday 11:00 - 22:00|  Friday 11:00 - 23:00|  Saturday 11:00 - 23:00|  Sunday 11:00 - 22:00"
"http://www.rubytuesday.com/locations","Ruby Tuesday of Milledgeville","2440 NORTH COLUMBIA STREET","MILLEDGEVILLE","GA","31061","US","<MISSING>","478-452-5050","<MISSING>","<MISSING>","<MISSING>","Monday 11:00 - 22:00|  Tuesday 11:00 - 22:00|  Wednesday 11:00 - 22:00|  Thursday 11:00 - 22:00|  Friday 11:00 - 23:00|  Saturday 11:00 - 23:00|  Sunday 11:00 - 22:00"
"http://www.rubytuesday.com/locations","Ruby Tuesday of Fayetteville Pavilion","1405 HWY 85 NORTH","FAYETTEVILLE","GA","30214","US","<MISSING>","770-716-6801","<MISSING>","<MISSING>","<MISSING>","Monday 11:00 - 22:00|  Tuesday 11:00 - 22:00|  Wednesday 11:00 - 22:00|  Thursday 11:00 - 22:00|  Friday 11:00 - 23:00|  Saturday 11:00 - 23:00|  Sunday 11:00 - 22:00"
"http://www.rubytuesday.com/locations","Ruby Tuesday of Gadsden/Attalla","113 WALKER STREET","GADSDEN","AL","35904","US","<MISSING>","256-538-9996","<MISSING>","<MISSING>","<MISSING>","Monday 11:00 - 22:00|  Tuesday 11:00 - 22:00|  Wednesday 11:00 - 22:00|  Thursday 11:00 - 22:00|  Friday 11:00 - 23:00|  Saturday 11:00 - 23:00|  Sunday 11:00 - 22:00"
"http://www.rubytuesday.com/locations","Ruby Tuesday of Craig Road","865 WEST CRAIG ROAD","LAS VEGAS","NV","89032","US","<MISSING>","702-256-5449","<MISSING>","<MISSING>","<MISSING>","Monday 11:00 - 22:00|  Tuesday 11:00 - 22:00|  Wednesday 11:00 - 22:00|  Thursday 11:00 - 22:00|  Friday 11:00 - 23:00|  Saturday 11:00 - 23:00|  Sunday 11:00 - 22:00"
"http://www.rubytuesday.com/locations","Ruby Tuesday of Carrollton","1685 SOUTH HIGHWAY 27","CARROLLTON","GA","30117","US","<MISSING>","770-838-5897","<MISSING>","<MISSING>","<MISSING>","Monday 11:00 - 22:00|  Tuesday 11:00 - 22:00|  Wednesday 11:00 - 22:00|  Thursday 11:00 - 22:00|  Friday 11:00 - 23:00|  Saturday 11:00 - 23:00|  Sunday 11:00 - 22:00"
"http://www.rubytuesday.com/locations","Ruby Tuesday of Statesboro","195 NORTHSIDE DRIVE EAST","STATESBORO","GA","30458","US","<MISSING>","912-764-4333","<MISSING>","<MISSING>","<MISSING>","Monday 11:00 - 22:00|  Tuesday 11:00 - 22:00|  Wednesday 11:00 - 22:00|  Thursday 11:00 - 22:00|  Friday 11:00 - 23:00|  Saturday 11:00 - 23:00|  Sunday 11:00 - 22:00"
"http://www.rubytuesday.com/locations","Ruby Tuesday of Russellville","115 EAST HARRELL DRIVE","RUSSELLVILLE","AR","72802","US","<MISSING>","479-858-7151","<MISSING>","<MISSING>","<MISSING>","Monday 11:00 - 22:00|  Tuesday 11:00 - 22:00|  Wednesday 11:00 - 22:00|  Thursday 11:00 - 22:00|  Friday 11:00 - 23:00|  Saturday 11:00 - 23:00|  Sunday 11:00 - 22:00"
"http://www.rubytuesday.com/locations","Ruby Tuesday of Pooler","110 POOLER PARKWAY","POOLER","GA","31322","US","<MISSING>","912-330-9754","<MISSING>","<MISSING>","<MISSING>","Monday 11:00 - 22:00|  Tuesday 11:00 - 22:00|  Wednesday 11:00 - 22:00|  Thursday 11:00 - 22:00|  Friday 11:00 - 0:00|  Saturday 11:00 - 0:00|  Sunday 11:00 - 22:00"
"http://www.rubytuesday.com/locations","Ruby Tuesday of Jasper","258 HIGHWAY 78 WEST","JASPER","AL","35501","US","<MISSING>","205-387-9400","<MISSING>","<MISSING>","<MISSING>","Monday 11:00 - 22:00|  Tuesday 11:00 - 22:00|  Wednesday 11:00 - 22:00|  Thursday 11:00 - 22:00|  Friday 11:00 - 23:00|  Saturday 11:00 - 23:00|  Sunday 11:00 - 22:00"
"http://www.rubytuesday.com/locations","Ruby Tuesday of Savannah","580 AI HENDERSON BLVD.","SAVANNAH","GA","31419","US","<MISSING>","912-920-0128","<MISSING>","<MISSING>","<MISSING>","Monday 11:00 - 23:00|  Tuesday 11:00 - 23:00|  Wednesday 11:00 - 23:00|  Thursday 11:00 - 23:00|  Friday 11:00 - 0:00|  Saturday 11:00 - 0:00|  Sunday 11:00 - 22:00"
"http://www.rubytuesday.com/locations","Ruby Tuesday of Trussville","5957 CHALKVILLE MOUNTAIN RD","BIRMINGHAM","AL","35235","US","<MISSING>","205-655-8284","<MISSING>","<MISSING>","<MISSING>","Monday 11:00 - 22:00|  Tuesday 11:00 - 22:00|  Wednesday 11:00 - 22:00|  Thursday 11:00 - 22:00|  Friday 11:00 - 23:00|  Saturday 11:00 - 23:00|  Sunday 11:00 - 22:00"
"http://www.rubytuesday.com/locations","Ruby Tuesday of Dublin","2190 HIGHWAY 441 SOUTH","DUBLIN","GA","31021","US","<MISSING>","478-296-3900","<MISSING>","<MISSING>","<MISSING>","Monday 11:00 - 22:00|  Tuesday 11:00 - 22:00|  Wednesday 11:00 - 22:00|  Thursday 11:00 - 22:00|  Friday 11:00 - 23:00|  Saturday 11:00 - 23:00|  Sunday 11:00 - 22:00"
"http://www.rubytuesday.com/locations","Ruby Tuesday of Moody","2023 VILLAGE DR.","LEEDS","AL","35094","US","<MISSING>","205-640-7829","<MISSING>","<MISSING>","<MISSING>","Monday 11:00 - 22:00|  Tuesday 11:00 - 22:00|  Wednesday 11:00 - 22:00|  Thursday 11:00 - 22:00|  Friday 11:00 - 23:00|  Saturday 11:00 - 23:00|  Sunday 11:00 - 22:00"
"http://www.rubytuesday.com/locations","Ruby Tuesday of Vidalia","2711 EAST 1ST STREET","VIDALIA","GA","30474","US","<MISSING>","912-538-9268","<MISSING>","<MISSING>","<MISSING>","Monday 11:00 - 22:00|  Tuesday 11:00 - 22:00|  Wednesday 11:00 - 22:00|  Thursday 11:00 - 22:00|  Friday 11:00 - 23:00|  Saturday 11:00 - 23:00|  Sunday 11:00 - 22:00"
"http://www.rubytuesday.com/locations","Ruby Tuesday of Warner Robins","403 RUSSELL PARKWAY","WARNER ROBINS","GA","31088","US","<MISSING>","478-929-4828","<MISSING>","<MISSING>","<MISSING>","Monday 11:00 - 22:00|  Tuesday 11:00 - 22:00|  Wednesday 11:00 - 22:00|  Thursday 11:00 - 22:00|  Friday 11:00 - 23:00|  Saturday 11:00 - 23:00|  Sunday 11:00 - 22:00"
"http://www.rubytuesday.com/locations","Ruby Tuesday of Hinesville","543 W. OGLETHORPE HIGHWAY","HINESVILLE","GA","31313","US","<MISSING>","912-448-2552","<MISSING>","<MISSING>","<MISSING>","Monday 11:00 - 22:00|  Tuesday 11:00 - 22:00|  Wednesday 11:00 - 22:00|  Thursday 11:00 - 22:00|  Friday 11:00 - 23:00|  Saturday 11:00 - 23:00|  Sunday 11:00 - 22:00"
"http://www.rubytuesday.com/locations","Ruby Tuesday of Bessemer","808 ACADEMY DR","BESSEMER","AL","35022","US","<MISSING>","205-425-3152","<MISSING>","<MISSING>","<MISSING>","Monday 11:00 - 22:00|  Tuesday 11:00 - 22:00|  Wednesday 11:00 - 22:00|  Thursday 11:00 - 22:00|  Friday 11:00 - 23:00|  Saturday 11:00 - 23:00|  Sunday 11:00 - 22:00"
"http://www.rubytuesday.com/locations","Ruby Tuesday of Alabaster","710 COLONIAL PROMENADE PARKWAY","ALABASTER","AL","35007","US","<MISSING>","205-621-5416","<MISSING>","<MISSING>","<MISSING>","Monday 11:00 - 22:00|  Tuesday 11:00 - 22:00|  Wednesday 11:00 - 22:00|  Thursday 11:00 - 22:00|  Friday 11:00 - 23:00|  Saturday 11:00 - 23:00|  Sunday 11:00 - 22:00"
"http://www.rubytuesday.com/locations","Ruby Tuesday of Alexander City","4097 U. S. HIGHWAY 280","ALEXANDER CITY","AL","35010","US","<MISSING>","256-234-4047","<MISSING>","<MISSING>","<MISSING>","Monday 11:00 - 22:00|  Tuesday 11:00 - 22:00|  Wednesday 11:00 - 22:00|  Thursday 11:00 - 22:00|  Friday 11:00 - 23:00|  Saturday 11:00 - 23:00|  Sunday 11:00 - 22:00"
"http://www.rubytuesday.com/locations","Ruby Tuesday of Tuscaloosa-Northport","311 MERCHANTS WALK","TUSCALOOSA","AL","35406","US","<MISSING>","205-345-4540","<MISSING>","<MISSING>","<MISSING>","Monday 11:00 - 22:00|  Tuesday 11:00 - 22:00|  Wednesday 11:00 - 22:00|  Thursday 11:00 - 22:00|  Friday 11:00 - 23:00|  Saturday 11:00 - 23:00|  Sunday 11:00 - 22:00"
"http://www.rubytuesday.com/locations","Ruby Tuesday of Columbus","3431 MANCHESTER EXPRESSWAY","COLUMBUS","GA","31909","US","<MISSING>","706-327-2203","<MISSING>","<MISSING>","<MISSING>","Monday 11:00 - 22:00|  Tuesday 11:00 - 22:00|  Wednesday 11:00 - 22:00|  Thursday 11:00 - 22:00|  Friday 11:00 - 23:00|  Saturday 11:00 - 23:00|  Sunday 11:00 - 20:00"
"http://www.rubytuesday.com/locations","Ruby Tuesday of Tuscaloosa","6421 INTERSTATE DRIVE","COTTONDALE","AL","35453","US","<MISSING>","205-633-3939","<MISSING>","<MISSING>","<MISSING>","Monday 11:00 - 22:00|  Tuesday 11:00 - 22:00|  Wednesday 11:00 - 22:00|  Thursday 11:00 - 22:00|  Friday 11:00 - 23:00|  Saturday 11:00 - 23:00|  Sunday 11:00 - 22:00"
"http://www.rubytuesday.com/locations","Ruby Tuesday of Starkville","110-A HIGHWAY 12 W","STARKVILLE","MS","39759","US","<MISSING>","662-615-4245","<MISSING>","<MISSING>","<MISSING>","Monday 11:00 - 22:00|  Tuesday 11:00 - 22:00|  Wednesday 11:00 - 22:00|  Thursday 11:00 - 22:00|  Friday 11:00 - 23:00|  Saturday 11:00 - 23:00|  Sunday 11:00 - 22:00"
"http://www.rubytuesday.com/locations","Ruby Tuesday of Brunswick","513 MALL BLVD.","BRUNSWICK","GA","31525","US","<MISSING>","912-264-5525","<MISSING>","<MISSING>","<MISSING>","Monday 11:00 - 22:00|  Tuesday 11:00 - 22:00|  Wednesday 11:00 - 22:00|  Thursday 11:00 - 22:00|  Friday 11:00 - 23:00|  Saturday 11:00 - 23:00|  Sunday 11:00 - 22:00"
"http://www.rubytuesday.com/locations","Ruby Tuesday of Americus","102 LONNIE LANE","AMERICUS","GA","31709","US","<MISSING>","229-928-4035","<MISSING>","<MISSING>","<MISSING>","Monday 11:00 - 22:00|  Tuesday 11:00 - 22:00|  Wednesday 11:00 - 22:00|  Thursday 11:00 - 22:00|  Friday 11:00 - 23:00|  Saturday 11:00 - 23:00|  Sunday 11:00 - 22:00"
"http://www.rubytuesday.com/locations","Ruby Tuesday of Douglas","1324 SOUTH MADISON AVENUE","DOUGLAS","GA","31533","US","<MISSING>","912-393-7829","<MISSING>","<MISSING>","<MISSING>","Monday 11:00 - 22:00|  Tuesday 11:00 - 22:00|  Wednesday 11:00 - 22:00|  Thursday 11:00 - 22:00|  Friday 11:00 - 23:00|  Saturday 11:00 - 23:00|  Sunday 11:00 - 22:00"
"http://www.rubytuesday.com/locations","Ruby Tuesday of Waycross","2263 MEMORIAL DRIVE","WAYCROSS","GA","31501","US","<MISSING>","912-283-3769","<MISSING>","<MISSING>","<MISSING>","Monday 11:00 - 22:00|  Tuesday 11:00 - 22:00|  Wednesday 11:00 - 22:00|  Thursday 11:00 - 22:00|  Friday 11:00 - 23:00|  Saturday 11:00 - 23:00|  Sunday 11:00 - 22:00"
"http://www.rubytuesday.com/locations","Ruby Tuesday of Tifton","1306 US HWY 82 WEST","TIFTON","GA","31794","US","<MISSING>","229-386-8581","<MISSING>","<MISSING>","<MISSING>","Monday 11:00 - 22:00|  Tuesday 11:00 - 22:00|  Wednesday 11:00 - 22:00|  Thursday 11:00 - 22:00|  Friday 11:00 - 23:00|  Saturday 11:00 - 23:00|  Sunday 11:00 - 22:00"
"http://www.rubytuesday.com/locations","Ruby Tuesday of Kingsland","100 CROWN POINTE PARKWAY","KINGSLAND","GA","31548","US","<MISSING>","912-882-1611","<MISSING>","<MISSING>","<MISSING>","Monday 11:00 - 22:00|  Tuesday 11:00 - 22:00|  Wednesday 11:00 - 22:00|  Thursday 11:00 - 22:00|  Friday 11:00 - 23:00|  Saturday 11:00 - 23:00|  Sunday 11:00 - 22:00"
"http://www.rubytuesday.com/locations","Ruby Tuesday of Albany","2626 DAWSON ROAD","ALBANY","GA","31707","US","<MISSING>","229-435-8414","<MISSING>","<MISSING>","<MISSING>","Monday 11:00 - 22:00|  Tuesday 11:00 - 22:00|  Wednesday 11:00 - 22:00|  Thursday 11:00 - 22:00|  Friday 11:00 - 23:00|  Saturday 11:00 - 23:00|  Sunday 11:00 - 22:00"
"http://www.rubytuesday.com/locations","Ruby Tuesday of Airport Road","1360 AIRPORT ROAD","JACKSONVILLE","FL","32218","US","<MISSING>","904-741-3692","<MISSING>","<MISSING>","<MISSING>","Monday 11:00 - 23:00|  Tuesday 11:00 - 23:00|  Wednesday 11:00 - 23:00|  Thursday 11:00 - 23:00|  Friday 11:00 - 0:00|  Saturday 11:00 - 0:00|  Sunday 11:00 - 23:00"
"http://www.rubytuesday.com/locations","Ruby Tuesday of Troy","101 TROY PLAZA LOOP","TROY","AL","36081","US","<MISSING>","334-566-9311","<MISSING>","<MISSING>","<MISSING>","Monday 11:00 - 22:00|  Tuesday 11:00 - 22:00|  Wednesday 11:00 - 22:00|  Thursday 11:00 - 22:00|  Friday 11:00 - 23:00|  Saturday 11:00 - 23:00|  Sunday 11:00 - 22:00"
"http://www.rubytuesday.com/locations","Ruby Tuesday of Monument Road","1022 HOSPITALITY LANE","JACKSONVILLE","FL","32225","US","<MISSING>","904-727-7017","<MISSING>","<MISSING>","<MISSING>","Monday 11:00 - 23:00|  Tuesday 11:00 - 23:00|  Wednesday 11:00 - 23:00|  Thursday 11:00 - 23:00|  Friday 11:00 - 23:00|  Saturday 11:00 - 23:00|  Sunday 11:00 - 22:00"
"http://www.rubytuesday.com/locations","Ruby Tuesday of Windsor Commons","4784 WINDSOR COMMONS COURT","JACKSONVILLE","FL","32224","US","<MISSING>","904-821-0394","<MISSING>","<MISSING>","<MISSING>","Monday 11:00 - 22:00|  Tuesday 11:00 - 22:00|  Wednesday 11:00 - 22:00|  Thursday 11:00 - 22:00|  Friday 11:00 - 23:00|  Saturday 11:00 - 23:00|  Sunday 11:00 - 22:00"
"http://www.rubytuesday.com/locations","Ruby Tuesday of Greenville","91 CAHABA ROAD","GREENVILLE","AL","36037","US","<MISSING>","334-382-1450","<MISSING>","<MISSING>","<MISSING>","Monday 11:00 - 22:00|  Tuesday 11:00 - 22:00|  Wednesday 11:00 - 22:00|  Thursday 11:00 - 22:00|  Friday 11:00 - 23:00|  Saturday 11:00 - 23:00|  Sunday 11:00 - 22:00"
"http://www.rubytuesday.com/locations","Ruby Tuesday of The Avenues","10300 SOUTHSIDE BOULEVARD #242","Jacksonville","FL","32256","US","<MISSING>","904-363-1540","<MISSING>","<MISSING>","<MISSING>","Monday 11:00 - 22:00|  Tuesday 11:00 - 22:00|  Wednesday 11:00 - 22:00|  Thursday 11:00 - 22:00|  Friday 11:00 - 23:00|  Saturday 11:00 - 23:00|  Sunday 11:00 - 21:00"
"http://www.rubytuesday.com/locations","Ruby Tuesday of Texarkana","4330 ST. MICHAEL DRIVE","TEXARKANA","TX","75503","US","<MISSING>","903-838-6838","<MISSING>","<MISSING>","<MISSING>","Monday 11:00 - 22:00|  Tuesday 11:00 - 22:00|  Wednesday 11:00 - 22:00|  Thursday 11:00 - 22:00|  Friday 11:00 - 23:00|  Saturday 11:00 - 23:00|  Sunday 11:00 - 22:00"
"http://www.rubytuesday.com/locations","Ruby Tuesday of Eagle Harbor","1521 COUNTY ROAD 220","ORANGE PARK","FL","32003","US","<MISSING>","904-269-6900","<MISSING>","<MISSING>","<MISSING>","Monday 11:00 - 22:00|  Tuesday 11:00 - 22:00|  Wednesday 11:00 - 22:00|  Thursday 11:00 - 22:00|  Friday 11:00 - 23:00|  Saturday 11:00 - 23:00|  Sunday 11:00 - 22:00"
"http://www.rubytuesday.com/locations","Ruby Tuesday of Thomasville","15047 US 19 HIGHWAY SOUTH","THOMASVILLE","GA","31792","US","<MISSING>","229-227-9670","<MISSING>","<MISSING>","<MISSING>","Monday 11:00 - 22:00|  Tuesday 11:00 - 22:00|  Wednesday 11:00 - 22:00|  Thursday 11:00 - 22:00|  Friday 11:00 - 23:00|  Saturday 11:00 - 23:00|  Sunday 11:00 - 22:00"
"http://www.rubytuesday.com/locations","Ruby Tuesday of St. Augustine - State Road 16","2443 STATE ROAD 16","ST. AUGUSTINE","FL","32092","US","<MISSING>","904-829-0950","<MISSING>","<MISSING>","<MISSING>","Monday 11:00 - 23:00|  Tuesday 11:00 - 23:00|  Wednesday 11:00 - 23:00|  Thursday 11:00 - 23:00|  Friday 11:00 - 23:00|  Saturday 11:00 - 23:00|  Sunday 11:00 - 22:00"
"http://www.rubytuesday.com/locations","Ruby Tuesday of Lake City","245 SOUTHWEST COMMERCE DRIVE","LAKE CITY","FL","32025","US","<MISSING>","386-719-3845","<MISSING>","<MISSING>","<MISSING>","Monday 11:00 - 23:00|  Tuesday 11:00 - 23:00|  Wednesday 11:00 - 23:00|  Thursday 11:00 - 23:00|  Friday 11:00 - 23:00|  Saturday 11:00 - 23:00|  Sunday 11:00 - 22:00"
"http://www.rubytuesday.com/locations","Ruby Tuesday of Pearl","320 SOUTH PEARSON RD","PEARL","MS","39208","US","<MISSING>","601-420-9353","<MISSING>","<MISSING>","<MISSING>","Monday 11:00 - 23:00|  Tuesday 11:00 - 23:00|  Wednesday 11:00 - 23:00|  Thursday 11:00 - 23:00|  Friday 11:00 - 0:00|  Saturday 11:00 - 0:00|  Sunday 11:00 - 22:00"
"http://www.rubytuesday.com/locations","Ruby Tuesday of Palm Coast","60 GARDEN STREET S","Palm Coast","FL","32137","US","<MISSING>","386-986-4314","<MISSING>","<MISSING>","<MISSING>","Monday 11:00 - 22:00|  Tuesday 11:00 - 22:00|  Wednesday 11:00 - 22:00|  Thursday 11:00 - 22:00|  Friday 11:00 - 23:00|  Saturday 11:00 - 23:00|  Sunday 11:00 - 22:00"
"http://www.rubytuesday.com/locations","Ruby Tuesday of Capital Circle","2491 CARE DRIVE","TALLAHASSEE","FL","32308","US","<MISSING>","850-219-7829","<MISSING>","<MISSING>","<MISSING>","Monday 11:00 - 22:00|  Tuesday 11:00 - 22:00|  Wednesday 11:00 - 22:00|  Thursday 11:00 - 22:00|  Friday 11:00 - 23:00|  Saturday 11:00 - 23:00|  Sunday 11:00 - 22:00"
"http://www.rubytuesday.com/locations","Ruby Tuesday of Marianna","2171 POST OAK LANE","MARIANNA","FL","32448","US","<MISSING>","850-526-7100","<MISSING>","<MISSING>","<MISSING>","Monday 11:00 - 22:00|  Tuesday 11:00 - 22:00|  Wednesday 11:00 - 22:00|  Thursday 11:00 - 22:00|  Friday 11:00 - 23:00|  Saturday 11:00 - 23:00|  Sunday 11:00 - 22:00"
"http://www.rubytuesday.com/locations","Ruby Tuesday of Bellaire Plaza","2695 N ATLANTIC AVE","DAYTONA BEACH","FL","32118","US","<MISSING>","386-677-2345","<MISSING>","<MISSING>","<MISSING>","Monday 11:00 - 22:00|  Tuesday 11:00 - 22:00|  Wednesday 11:00 - 22:00|  Thursday 11:00 - 22:00|  Friday 11:00 - 23:00|  Saturday 11:00 - 23:00|  Sunday 11:00 - 22:00"
"http://www.rubytuesday.com/locations","Ruby Tuesday of Gainesville, FL","6329 NEWBERRY ROAD","GAINESVILLE","FL","32605","US","<MISSING>","352-331-0033","<MISSING>","<MISSING>","<MISSING>","Monday 11:00 - 22:00|  Tuesday 11:00 - 22:00|  Wednesday 11:00 - 22:00|  Thursday 11:00 - 22:00|  Friday 11:00 - 23:00|  Saturday 11:00 - 23:00|  Sunday 11:00 - 21:00"
"http://www.rubytuesday.com/locations","Ruby Tuesday of 44th Street &amp; Washington","4415 EAST MONROE STREET","PHOENIX","AZ","85034","US","<MISSING>","602-275-3405","<MISSING>","<MISSING>","<MISSING>","Monday 11:00 - 22:00|  Tuesday 11:00 - 22:00|  Wednesday 11:00 - 22:00|  Thursday 11:00 - 22:00|  Friday 11:00 - 23:00|  Saturday 11:00 - 23:00|  Sunday 11:00 - 22:00"
"http://www.rubytuesday.com/locations","Ruby Tuesday of Tempe Marketplace","27 S. MCCLINTOCK DRIVE LOT 15","TEMPE","AZ","85281","US","<MISSING>","480-921-0099","<MISSING>","<MISSING>","<MISSING>","Monday 11:00 - 22:00|  Tuesday 11:00 - 22:00|  Wednesday 11:00 - 22:00|  Thursday 11:00 - 22:00|  Friday 11:00 - 23:00|  Saturday 11:00 - 23:00|  Sunday 11:00 - 21:00"
"http://www.rubytuesday.com/locations","Ruby Tuesday of Orange City","1212 SAXON BLVD","Orange City","FL","32763","US","<MISSING>","386-917-0300","<MISSING>","<MISSING>","<MISSING>","Monday 11:00 - 22:00|  Tuesday 11:00 - 22:00|  Wednesday 11:00 - 22:00|  Thursday 11:00 - 22:00|  Friday 11:00 - 23:00|  Saturday 11:00 - 23:00|  Sunday 11:00 - 22:00"
"http://www.rubytuesday.com/locations","Ruby Tuesday of Ocala","3500 S.W. COLLEGE ROAD #100","Ocala","FL","34474","US","<MISSING>","352-873-1999","<MISSING>","<MISSING>","<MISSING>","Monday 11:00 - 22:00|  Tuesday 11:00 - 22:00|  Wednesday 11:00 - 22:00|  Thursday 11:00 - 22:00|  Friday 11:00 - 23:00|  Saturday 11:00 - 23:00|  Sunday 11:00 - 22:00"
"http://www.rubytuesday.com/locations","Ruby Tuesday of Bay Minette","806 MCMEANS AVE.","BAY MINETTE","AL","36507","US","<MISSING>","251-580-0430","<MISSING>","<MISSING>","<MISSING>","Monday 11:00 - 22:00|  Tuesday 11:00 - 22:00|  Wednesday 11:00 - 22:00|  Thursday 11:00 - 22:00|  Friday 11:00 - 23:00|  Saturday 11:00 - 23:00|  Sunday 11:00 - 22:00"
"http://www.rubytuesday.com/locations","Ruby Tuesday of Niceville","191 EAST JOHN SIMS PARKWAY","NICEVILLE","FL","32578","US","<MISSING>","850-729-1014","<MISSING>","<MISSING>","<MISSING>","Monday 11:00 - 23:00|  Tuesday 11:00 - 23:00|  Wednesday 11:00 - 23:00|  Thursday 11:00 - 23:00|  Friday 11:00 - 23:00|  Saturday 11:00 - 23:00|  Sunday 11:00 - 22:00"
"http://www.rubytuesday.com/locations","Ruby Tuesday of Pace","4917HIGHWAY 90","PACE","FL","32571","US","<MISSING>","850-994-3660","<MISSING>","<MISSING>","<MISSING>","Monday 11:00 - 22:00|  Tuesday 11:00 - 22:00|  Wednesday 11:00 - 22:00|  Thursday 11:00 - 22:00|  Friday 11:00 - 23:00|  Saturday 11:00 - 23:00|  Sunday 11:00 - 22:00"
"http://www.rubytuesday.com/locations","Ruby Tuesday of The Villages","1168 MAIN ST","The Villages","FL","32159","US","<MISSING>","352-751-1801","<MISSING>","<MISSING>","<MISSING>","Monday 11:00 - 22:00|  Tuesday 11:00 - 22:00|  Wednesday 11:00 - 22:00|  Thursday 11:00 - 22:00|  Friday 11:00 - 22:00|  Saturday 11:00 - 22:00|  Sunday 11:00 - 21:00"
"http://www.rubytuesday.com/locations","Ruby Tuesday of Beal Pkwy @ Meco","573 NORTH BEAL PARKWAY","FT. WALTON BEACH","FL","32548","US","<MISSING>","850-862-0295","<MISSING>","<MISSING>","<MISSING>","Monday 11:00 - 22:00|  Tuesday 11:00 - 22:00|  Wednesday 11:00 - 22:00|  Thursday 11:00 - 22:00|  Friday 11:00 - 23:00|  Saturday 11:00 - 23:00|  Sunday 11:00 - 22:00"
"http://www.rubytuesday.com/locations","Ruby Tuesday of Saraland","1206 SHELTON BEACH ROAD","SARALAND","AL","36571","US","<MISSING>","251-679-4072","<MISSING>","<MISSING>","<MISSING>","Monday 11:00 - 23:00|  Tuesday 11:00 - 23:00|  Wednesday 11:00 - 23:00|  Thursday 11:00 - 23:00|  Friday 11:00 - 0:00|  Saturday 11:00 - 0:00|  Sunday 11:00 - 22:00"
"http://www.rubytuesday.com/locations","Ruby Tuesday of Leesburg","9616 US HWY 441","Leesburg","FL","34788","US","<MISSING>","352-360-0455","<MISSING>","<MISSING>","<MISSING>","Monday 11:00 - 22:00|  Tuesday 11:00 - 22:00|  Wednesday 11:00 - 22:00|  Thursday 11:00 - 22:00|  Friday 11:00 - 23:00|  Saturday 11:00 - 23:00|  Sunday 11:00 - 22:00"
"http://www.rubytuesday.com/locations","Ruby Tuesday of UCF","11401 UNIVERSITY BLVD.","Orlando","FL","32817","US","<MISSING>","407-249-5497","<MISSING>","<MISSING>","<MISSING>","Monday 11:00 - 22:00|  Tuesday 11:00 - 22:00|  Wednesday 11:00 - 22:00|  Thursday 11:00 - 22:00|  Friday 11:00 - 23:00|  Saturday 11:00 - 23:00|  Sunday 11:00 - 22:00"
"http://www.rubytuesday.com/locations","Ruby Tuesday of Merritt Island","777 EAST MERRITT CAUSEWAY","Merritt Island","FL","32952","US","<MISSING>","321-453-6340","<MISSING>","<MISSING>","<MISSING>","Monday 11:00 - 22:00|  Tuesday 11:00 - 22:00|  Wednesday 11:00 - 22:00|  Thursday 11:00 - 22:00|  Friday 11:00 - 23:00|  Saturday 11:00 - 23:00|  Sunday 11:00 - 21:00"
"http://www.rubytuesday.com/locations","Ruby Tuesday of Spanish Fort","30500 HIGHWAY 181 SUITE E","SPANISH FORT","AL","36527","US","<MISSING>","251-625-0491","<MISSING>","<MISSING>","<MISSING>","Monday 11:00 - 22:00|  Tuesday 11:00 - 22:00|  Wednesday 11:00 - 22:00|  Thursday 11:00 - 22:00|  Friday 11:00 - 23:00|  Saturday 11:00 - 23:00|  Sunday 11:00 - 22:00"
"http://www.rubytuesday.com/locations","Ruby Tuesday of Pensacola Pine Forest","110 LOBLOLLY LANE","PENSACOLA","FL","32526","US","<MISSING>","850-941-2512","<MISSING>","<MISSING>","<MISSING>","Monday 11:00 - 22:00|  Tuesday 11:00 - 22:00|  Wednesday 11:00 - 22:00|  Thursday 11:00 - 22:00|  Friday 11:00 - 23:00|  Saturday 11:00 - 23:00|  Sunday 11:00 - 22:00"
"http://www.rubytuesday.com/locations","Ruby Tuesday of McComb","1803 PIKES POINT PLACE","MCCOMB","MS","39648","US","<MISSING>","601-684-0983","<MISSING>","<MISSING>","<MISSING>","Monday 11:00 - 22:00|  Tuesday 11:00 - 22:00|  Wednesday 11:00 - 22:00|  Thursday 11:00 - 22:00|  Friday 11:00 - 23:00|  Saturday 11:00 - 23:00|  Sunday 11:00 - 22:00"
"http://www.rubytuesday.com/locations","Ruby Tuesday of Tiger Pointe Gulf Breeze","3805 GULF BREEZE PKWY","GULF BREEZE","FL","32563","US","<MISSING>","850-916-6565","<MISSING>","<MISSING>","<MISSING>","Monday 11:00 - 22:00|  Tuesday 11:00 - 22:00|  Wednesday 11:00 - 22:00|  Thursday 11:00 - 22:00|  Friday 11:00 - 23:00|  Saturday 11:00 - 23:00|  Sunday 11:00 - 22:00"
"http://www.rubytuesday.com/locations","Ruby Tuesday of Rockledge","3780 FISKE BLVD.","Rockledge","FL","32955","US","<MISSING>","321-639-1058","<MISSING>","<MISSING>","<MISSING>","Monday 11:00 - 22:00|  Tuesday 11:00 - 22:00|  Wednesday 11:00 - 22:00|  Thursday 11:00 - 22:00|  Friday 11:00 - 23:00|  Saturday 11:00 - 23:00|  Sunday 11:00 - 22:00"
"http://www.rubytuesday.com/locations","Ruby Tuesday of McGregor Square","3930-2 AIRPORT BLVD","MOBILE","AL","36608","US","<MISSING>","251-340-8168","<MISSING>","<MISSING>","<MISSING>","Monday 11:00 - 22:00|  Tuesday 11:00 - 22:00|  Wednesday 11:00 - 22:00|  Thursday 11:00 - 22:00|  Friday 11:00 - 23:00|  Saturday 11:00 - 23:00|  Sunday 11:00 - 22:00"
"http://www.rubytuesday.com/locations","Ruby Tuesday of Navy Blvd.","545 North Navy Blvd.","PENSACOLA","FL","32507","US","<MISSING>","850-456-9939","<MISSING>","<MISSING>","<MISSING>","Monday 11:00 - 22:00|  Tuesday 11:00 - 22:00|  Wednesday 11:00 - 22:00|  Thursday 11:00 - 22:00|  Friday 11:00 - 23:00|  Saturday 11:00 - 23:00|  Sunday 11:00 - 22:00"
"http://www.rubytuesday.com/locations","Ruby Tuesday of Inverness","2235E GULF TO LAKE HWY","Inverness","FL","34453","US","<MISSING>","352-344-1752","<MISSING>","<MISSING>","<MISSING>","Monday 11:00 - 22:00|  Tuesday 11:00 - 22:00|  Wednesday 11:00 - 22:00|  Thursday 11:00 - 22:00|  Friday 11:00 - 23:00|  Saturday 11:00 - 23:00|  Sunday 11:00 - 22:00"
"http://www.rubytuesday.com/locations","Ruby Tuesday of the Orlando Airport","Orlando International Airport Tram","Orlando","FL","32827","US","<MISSING>","407-506-7379","<MISSING>","<MISSING>","<MISSING>","Monday 10:00 - 20:00|  Tuesday 10:00 - 20:00|  Wednesday 10:00 - 20:00|  Thursday 10:00 - 20:00|  Friday 10:00 - 20:00|  Saturday 10:00 - 20:00|  Sunday 10:00 - 20:00"
"http://www.rubytuesday.com/locations","Ruby Tuesday of Fairhope","901 FAIRHOPE AVE.","FAIRHOPE","AL","36532","US","<MISSING>","251-990-5077","<MISSING>","<MISSING>","<MISSING>","Monday 11:00 - 22:00|  Tuesday 11:00 - 22:00|  Wednesday 11:00 - 22:00|  Thursday 11:00 - 22:00|  Friday 11:00 - 23:00|  Saturday 11:00 - 23:00|  Sunday 11:00 - 22:00"
"http://www.rubytuesday.com/locations","Ruby Tuesday of Tillmans Corner","5205 SERVICE RD SOUTH HIGGINS RD","MOBILE","AL","36619","US","<MISSING>","251-662-1287","<MISSING>","<MISSING>","<MISSING>","Monday 11:00 - 22:00|  Tuesday 11:00 - 22:00|  Wednesday 11:00 - 22:00|  Thursday 11:00 - 22:00|  Friday 11:00 - 23:00|  Saturday 11:00 - 23:00|  Sunday 11:00 - 22:00"
"http://www.rubytuesday.com/locations","Ruby Tuesday of Clermont","2650 EAST HIGHWAY 50","Clermont","FL","34711","US","<MISSING>","352-536-9341","<MISSING>","<MISSING>","<MISSING>","Monday 11:00 - 22:00|  Tuesday 11:00 - 22:00|  Wednesday 11:00 - 22:00|  Thursday 11:00 - 22:00|  Friday 11:00 - 23:00|  Saturday 11:00 - 23:00|  Sunday 11:00 - 22:00"
"http://www.rubytuesday.com/locations","Ruby Tuesday of Southchase","13145 S ORANGE BLOSSOM TRAIL","Orlando","FL","32837","US","<MISSING>","407-854-8308","<MISSING>","<MISSING>","<MISSING>","Monday 11:00 - 22:00|  Tuesday 11:00 - 22:00|  Wednesday 11:00 - 22:00|  Thursday 11:00 - 22:00|  Friday 11:00 - 23:00|  Saturday 11:00 - 23:00|  Sunday 11:00 - 22:00"
"http://www.rubytuesday.com/locations","Ruby Tuesday of Foley","2500 SOUTH MCKENZIE STREET","FOLEY","AL","36535","US","<MISSING>","251-971-2800","<MISSING>","<MISSING>","<MISSING>","Monday 11:00 - 22:00|  Tuesday 11:00 - 22:00|  Wednesday 11:00 - 22:00|  Thursday 11:00 - 22:00|  Friday 11:00 - 23:00|  Saturday 11:00 - 23:00|  Sunday 11:00 - 22:00"
"http://www.rubytuesday.com/locations","Ruby Tuesday of Sebastian","13675 US HWY 1","SEBASTIAN","FL","32958","US","<MISSING>","772-589-2623","<MISSING>","<MISSING>","<MISSING>","Monday 11:00 - 22:00|  Tuesday 11:00 - 22:00|  Wednesday 11:00 - 22:00|  Thursday 11:00 - 22:00|  Friday 11:00 - 23:00|  Saturday 11:00 - 23:00|  Sunday 11:00 - 22:00"
"http://www.rubytuesday.com/locations","Ruby Tuesday of Moss Point","6736 HIGHWAY 63","MOSS POINT","MS","39563","US","<MISSING>","228-475-5100","<MISSING>","<MISSING>","<MISSING>","Monday 11:00 - 23:00|  Tuesday 11:00 - 23:00|  Wednesday 11:00 - 23:00|  Thursday 11:00 - 23:00|  Friday 11:00 - 0:00|  Saturday 11:00 - 0:00|  Sunday 11:00 - 22:00"
"http://www.rubytuesday.com/locations","Ruby Tuesday of Spring Hill","13095 CORTEZ BLVD.","SPRING HILL","FL","34613","US","<MISSING>","352-592-4435","<MISSING>","<MISSING>","<MISSING>","Monday 11:00 - 22:00|  Tuesday 11:00 - 22:00|  Wednesday 11:00 - 22:00|  Thursday 11:00 - 22:00|  Friday 11:00 - 23:00|  Saturday 11:00 - 23:00|  Sunday 11:00 - 22:00"
"http://www.rubytuesday.com/locations","Ruby Tuesday of Diberville","12037 INDIAN RIVER ROAD","DIBERVILLE","MS","39540","US","<MISSING>","228-392-0881","<MISSING>","<MISSING>","<MISSING>","Monday 11:00 - 22:00|  Tuesday 11:00 - 22:00|  Wednesday 11:00 - 22:00|  Thursday 11:00 - 22:00|  Friday 11:00 - 23:00|  Saturday 11:00 - 23:00|  Sunday 11:00 - 22:00"
"http://www.rubytuesday.com/locations","Ruby Tuesday of Vero Beach","1825 58TH STREET","VERO BEACH","FL","32966","US","<MISSING>","772-569-6464","<MISSING>","<MISSING>","<MISSING>","Monday 11:00 - 22:00|  Tuesday 11:00 - 22:00|  Wednesday 11:00 - 22:00|  Thursday 11:00 - 22:00|  Friday 11:00 - 23:00|  Saturday 11:00 - 23:00|  Sunday 11:00 - 22:00"
"http://www.rubytuesday.com/locations","Ruby Tuesday of Zephyrhills","7909 GALL BLVD.","ZEPHYRHILLS","FL","33542","US","<MISSING>","813-783-1115","<MISSING>","<MISSING>","<MISSING>","Monday 11:00 - 22:00|  Tuesday 11:00 - 22:00|  Wednesday 11:00 - 22:00|  Thursday 11:00 - 22:00|  Friday 11:00 - 23:00|  Saturday 11:00 - 23:00|  Sunday 11:00 - 22:00"
"http://www.rubytuesday.com/locations","Ruby Tuesday of Cypress Gardens","5995 CYPRESS GARDENS BLVD.","WINTER HAVEN","FL","33884","US","<MISSING>","863-324-6300","<MISSING>","<MISSING>","<MISSING>","Monday 11:00 - 22:00|  Tuesday 11:00 - 22:00|  Wednesday 11:00 - 22:00|  Thursday 11:00 - 22:00|  Friday 11:00 - 23:00|  Saturday 11:00 - 23:00|  Sunday 11:00 - 22:00"
"http://www.rubytuesday.com/locations","Ruby Tuesday of New Port Richey","8512 RIDGE RD","NEW PORT RICHEY","FL","34654","US","<MISSING>","727-843-8809","<MISSING>","<MISSING>","<MISSING>","Monday 11:00 - 22:00|  Tuesday 11:00 - 22:00|  Wednesday 11:00 - 22:00|  Thursday 11:00 - 22:00|  Friday 11:00 - 23:00|  Saturday 11:00 - 23:00|  Sunday 11:00 - 22:00"
"http://www.rubytuesday.com/locations","Ruby Tuesday of Lakeland","3635 SOUTH FLORIDA AVE.","LAKELAND","FL","33813","US","<MISSING>","863-701-7829","<MISSING>","<MISSING>","<MISSING>","Monday 11:00 - 22:00|  Tuesday 11:00 - 22:00|  Wednesday 11:00 - 22:00|  Thursday 11:00 - 22:00|  Friday 11:00 - 23:00|  Saturday 11:00 - 23:00|  Sunday 11:00 - 22:00"
"http://www.rubytuesday.com/locations","Ruby Tuesday of Bartow","1710 N. BROADWAY","BARTOW","FL","33830","US","<MISSING>","863-519-9622","<MISSING>","<MISSING>","<MISSING>","Monday 11:00 - 22:00|  Tuesday 11:00 - 22:00|  Wednesday 11:00 - 22:00|  Thursday 11:00 - 22:00|  Friday 11:00 - 23:00|  Saturday 11:00 - 23:00|  Sunday 11:00 - 22:00"
"http://www.rubytuesday.com/locations","Ruby Tuesday of Las Cruces","2611 N. TELSHOR BLVD.","LAS CRUCES","NM","88011","US","<MISSING>","575-521-4100","<MISSING>","<MISSING>","<MISSING>","Monday 11:00 - 22:00|  Tuesday 11:00 - 22:00|  Wednesday 11:00 - 22:00|  Thursday 11:00 - 22:00|  Friday 11:00 - 23:00|  Saturday 11:00 - 23:00|  Sunday 11:00 - 22:00"
"http://www.rubytuesday.com/locations","Ruby Tuesday of St Lucie","1500 NW COURTYARD CIRCLE","PORT ST LUCIE","FL","34986","US","<MISSING>","772-340-2575","<MISSING>","<MISSING>","<MISSING>","Monday 11:00 - 22:00|  Tuesday 11:00 - 22:00|  Wednesday 11:00 - 22:00|  Thursday 11:00 - 22:00|  Friday 11:00 - 23:00|  Saturday 11:00 - 23:00|  Sunday 11:00 - 22:00"
"http://www.rubytuesday.com/locations","Ruby Tuesday of Treasure Coast","3000 N.W. FEDERAL HWY.","JENSEN BEACH","FL","34957","US","<MISSING>","772-692-2974","<MISSING>","<MISSING>","<MISSING>","Monday 11:00 - 22:00|  Tuesday 11:00 - 22:00|  Wednesday 11:00 - 22:00|  Thursday 11:00 - 22:00|  Friday 11:00 - 22:00|  Saturday 11:00 - 22:00|  Sunday 11:00 - 21:00"
"http://www.rubytuesday.com/locations","Ruby Tuesday of Palm City","3290 SW MARTIN DOWNS","PALM CITY","FL","34990","US","<MISSING>","772-463-5302","<MISSING>","<MISSING>","<MISSING>","Monday 11:00 - 22:00|  Tuesday 11:00 - 22:00|  Wednesday 11:00 - 22:00|  Thursday 11:00 - 22:00|  Friday 11:00 - 23:00|  Saturday 11:00 - 23:00|  Sunday 11:00 - 22:00"
"http://www.rubytuesday.com/locations","Ruby Tuesday of Oldsmar","3138 TAMPA ROAD","OLDSMAR","FL","34677","US","<MISSING>","727-789-2577","<MISSING>","<MISSING>","<MISSING>","Monday 11:00 - 22:00|  Tuesday 11:00 - 22:00|  Wednesday 11:00 - 22:00|  Thursday 11:00 - 22:00|  Friday 11:00 - 23:00|  Saturday 11:00 - 23:00|  Sunday 11:00 - 22:00"
"http://www.rubytuesday.com/locations","Ruby Tuesday of Gibsonton","10509 GIBSONTON DRIVE","RIVERVIEW","FL","33569","US","<MISSING>","813-672-4524","<MISSING>","<MISSING>","<MISSING>","Monday 11:00 - 22:00|  Tuesday 11:00 - 22:00|  Wednesday 11:00 - 22:00|  Thursday 11:00 - 22:00|  Friday 11:00 - 23:00|  Saturday 11:00 - 23:00|  Sunday 11:00 - 22:00"
"http://www.rubytuesday.com/locations","Ruby Tuesday of Sebring","4228 SEBRING PARKWAY","SEBRING","FL","33870","US","<MISSING>","863-386-1110","<MISSING>","<MISSING>","<MISSING>","Monday 11:00 - 22:00|  Tuesday 11:00 - 22:00|  Wednesday 11:00 - 22:00|  Thursday 11:00 - 22:00|  Friday 11:00 - 23:00|  Saturday 11:00 - 23:00|  Sunday 11:00 - 22:00"
"http://www.rubytuesday.com/locations","Ruby Tuesday of St. Petersburg","6708 TYRONESQUARE","ST. PETERSBURG","FL","33710","US","<MISSING>","727-347-6611","<MISSING>","<MISSING>","<MISSING>","Monday 11:00 - 22:00|  Tuesday 11:00 - 22:00|  Wednesday 11:00 - 22:00|  Thursday 11:00 - 22:00|  Friday 11:00 - 23:00|  Saturday 11:00 - 23:00|  Sunday 11:00 - 21:00"
"http://www.rubytuesday.com/locations","Ruby Tuesday of Royal Palm Beach","1271 N. STATE RD 7","ROYAL PALM BEACH","FL","33411","US","<MISSING>","561-383-8200","<MISSING>","<MISSING>","<MISSING>","Monday 11:00 - 22:00|  Tuesday 11:00 - 22:00|  Wednesday 11:00 - 22:00|  Thursday 11:00 - 22:00|  Friday 11:00 - 23:00|  Saturday 11:00 - 23:00|  Sunday 11:00 - 22:00"
"http://www.rubytuesday.com/locations","Ruby Tuesday of Ellenton","5802 20TH ST EAST","ELLENTON","FL","34222","US","<MISSING>","941-721-6341","<MISSING>","<MISSING>","<MISSING>","Monday 11:00 - 22:00|  Tuesday 11:00 - 22:00|  Wednesday 11:00 - 22:00|  Thursday 11:00 - 22:00|  Friday 11:00 - 23:00|  Saturday 11:00 - 23:00|  Sunday 11:00 - 22:00"
"http://www.rubytuesday.com/locations","Ruby Tuesday of Cooper Creek","8306 TOURIST CENTER DRIVE","BRADENTON","FL","34201","US","<MISSING>","941-360-3687","<MISSING>","<MISSING>","<MISSING>","Monday 11:00 - 22:00|  Tuesday 11:00 - 22:00|  Wednesday 11:00 - 22:00|  Thursday 11:00 - 22:00|  Friday 11:00 - 23:00|  Saturday 11:00 - 23:00|  Sunday 11:00 - 22:00"
"http://www.rubytuesday.com/locations","Ruby Tuesday of New Iberia","2813 HIGHWAY 14","NEW IBERIA","LA","70560","US","<MISSING>","337-367-7101","<MISSING>","<MISSING>","<MISSING>","Monday 11:00 - 23:00|  Tuesday 11:00 - 23:00|  Wednesday 11:00 - 23:00|  Thursday 11:00 - 23:00|  Friday 11:00 - 23:00|  Saturday 11:00 - 23:00|  Sunday 11:00 - 23:00"
"http://www.rubytuesday.com/locations","Ruby Tuesday of Deerfield Beach","3887 W HILLSBOROUGH BLVD","DEERFIELD BEACH","FL","33442","US","<MISSING>","954-725-8151","<MISSING>","<MISSING>","<MISSING>","Monday 11:00 - 22:00|  Tuesday 11:00 - 22:00|  Wednesday 11:00 - 22:00|  Thursday 11:00 - 22:00|  Friday 11:00 - 23:00|  Saturday 11:00 - 23:00|  Sunday 11:00 - 22:00"
"http://www.rubytuesday.com/locations","Ruby Tuesday of Pt Charlotte","1441 TAMIAMI TRAIL SPACE #995","Port Charlotte","FL","33948","US","<MISSING>","941-629-7144","<MISSING>","<MISSING>","<MISSING>","Monday 11:00 - 22:00|  Tuesday 11:00 - 22:00|  Wednesday 11:00 - 22:00|  Thursday 11:00 - 22:00|  Friday 11:00 - 23:00|  Saturday 11:00 - 23:00|  Sunday 11:00 - 22:00"
"http://www.rubytuesday.com/locations","Ruby Tuesday of Pompano Beach","299 SW 26TH AVE","POMPANO BEACH","FL","33069","US","<MISSING>","954-969-8082","<MISSING>","<MISSING>","<MISSING>","Monday 11:00 - 22:00|  Tuesday 11:00 - 22:00|  Wednesday 11:00 - 22:00|  Thursday 11:00 - 22:00|  Friday 11:00 - 23:00|  Saturday 11:00 - 23:00|  Sunday 11:00 - 22:00"
"http://www.rubytuesday.com/locations","Ruby Tuesday of Universal Plaza","7736 W COMMERCIALBLVD","LAUDERHILL","FL","33351","US","<MISSING>","954-749-4242","<MISSING>","<MISSING>","<MISSING>","Monday 11:00 - 23:00|  Tuesday 11:00 - 23:00|  Wednesday 11:00 - 23:00|  Thursday 11:00 - 23:00|  Friday 11:00 - 0:00|  Saturday 11:00 - 0:00|  Sunday 11:00 - 23:00"
"http://www.rubytuesday.com/locations","Ruby Tuesday of Hiatus-Davie","11590 WEST STATE ROAD 84","DAVIE","FL","33325","US","<MISSING>","954-472-8288","<MISSING>","<MISSING>","<MISSING>","Monday 11:00 - 22:00|  Tuesday 11:00 - 22:00|  Wednesday 11:00 - 22:00|  Thursday 11:00 - 22:00|  Friday 11:00 - 23:00|  Saturday 11:00 - 23:00|  Sunday 11:00 - 22:00"
"http://www.rubytuesday.com/locations","Ruby Tuesday of Cape Coral Northpoint","1851 PINE ISLAND ROAD NE","CAPE CORAL","FL","33909","US","<MISSING>","239-573-0469","<MISSING>","<MISSING>","<MISSING>","Monday 11:00 - 22:00|  Tuesday 11:00 - 22:00|  Wednesday 11:00 - 22:00|  Thursday 11:00 - 22:00|  Friday 11:00 - 23:00|  Saturday 11:00 - 23:00|  Sunday 11:00 - 22:00"
"http://www.rubytuesday.com/locations","Ruby Tuesday of Cape Coral Midpoint","2514 SANTA BARBARA BLVD","Cape Coral","FL","33914","US","<MISSING>","239-242-2131","<MISSING>","<MISSING>","<MISSING>","Monday 11:00 - 22:00|  Tuesday 11:00 - 22:00|  Wednesday 11:00 - 22:00|  Thursday 11:00 - 22:00|  Friday 11:00 - 23:00|  Saturday 11:00 - 23:00|  Sunday 11:00 - 22:00"
"http://www.rubytuesday.com/locations","Ruby Tuesday of Miami Lakes","15281 NORTH WEST 67TH AVE","MIAMI LAKES","FL","33014","US","<MISSING>","305-820-6065","<MISSING>","<MISSING>","<MISSING>","Monday 11:00 - 23:00|  Tuesday 11:00 - 23:00|  Wednesday 11:00 - 23:00|  Thursday 11:00 - 23:00|  Friday 11:00 - 0:00|  Saturday 11:00 - 0:00|  Sunday 11:00 - 23:00"
"http://www.rubytuesday.com/locations","Ruby Tuesday of Healthpark","9001 PARK ROYAL DRIVE","FT. MYERS","FL","33908","US","<MISSING>","239-267-8988","<MISSING>","<MISSING>","<MISSING>","Monday 11:00 - 23:00|  Tuesday 11:00 - 23:00|  Wednesday 11:00 - 23:00|  Thursday 11:00 - 23:00|  Friday 11:00 - 23:00|  Saturday 11:00 - 23:00|  Sunday 11:00 - 23:00"
"http://www.rubytuesday.com/locations","Ruby Tuesday of Estero","21301 TOWN COMMONS DRIVE","ESTERO","FL","33928","US","<MISSING>","239-495-8672","<MISSING>","<MISSING>","<MISSING>","Monday 11:00 - 22:00|  Tuesday 11:00 - 22:00|  Wednesday 11:00 - 22:00|  Thursday 11:00 - 22:00|  Friday 11:00 - 23:00|  Saturday 11:00 - 23:00|  Sunday 11:00 - 21:00"
"http://www.rubytuesday.com/locations","Ruby Tuesday of Deerwood Plaza","12075 SW 152ND STREET","MIAMI","FL","33177","US","<MISSING>","305-238-6036","<MISSING>","<MISSING>","<MISSING>","Monday 11:00 - 23:00|  Tuesday 11:00 - 23:00|  Wednesday 11:00 - 23:00|  Thursday 11:00 - 23:00|  Friday 11:00 - 0:00|  Saturday 11:00 - 0:00|  Sunday 11:00 - 22:00"
