"locator_domain","location_name","street_address","city","state","zip","country_code","store_number","phone","location_type","latitude","longitude","hours_of_operation"
"https://www.cnbbank.bank/","Main Office","31 S. Second St.","Clearfield","PA","16830","US","<MISSING>","(814) 765-9621","<MISSING>","41.021679","-78.438447","Lobby Hours
Monday 9:00 am - 4:00 pm
Tuesday 9:00 am - 4:00 pm
Wednesday 9:00 am - 4:00 pm
Thursday 9:00 am - 4:00 pm
Friday 9:00 am - 7:00 pm
Saturday 9:00 am - 12:00 pmDrive-Up Hours
Monday 8:30 am - 5:00 pm
Tuesday 8:30 am - 5:00 pm
Wednesday 8:30 am - 5:00 pm
Thursday 8:30 am - 6:00 pm
Friday 8:30 am - 7:00 pm
Saturday 9:00 am - 12:00 pm"
"https://www.cnbbank.bank/","Old Town Road","1231 S. Second St.","Clearfield","PA","16830","US","<MISSING>","(814) 765-2817","<MISSING>","41.006951","-78.453536","Lobby Hours
Monday 9:00 am - 4:00 pm
Tuesday 9:00 am - 4:00 pm
Wednesday 9:00 am - 4:00 pm
Thursday 9:00 am - 4:00 pm
Friday 9:00 am - 7:00 pm
Saturday 9:00 am - 12:00 pmDrive-Up Hours
Monday 8:30 am - 5:00 pm
Tuesday 8:30 am - 5:00 pm
Wednesday 8:30 am - 5:00 pm
Thursday 8:30 am - 6:00 pm
Friday 8:30 am - 7:00 pm
Saturday 9:00 am - 12:00 pm"
"https://www.cnbbank.bank/","Industrial Park Road","101 Industrial Park Rd.","Clearfield","PA","16830","US","<MISSING>","(814) 765-1660","<MISSING>","41.030410","-78.406658","Lobby Hours
Monday 9:00 am - 4:00 pm
Tuesday 9:00 am - 4:00 pm
Wednesday 9:00 am - 4:00 pm
Thursday 9:00 am - 4:00 pm
Friday 9:00 am - 7:00 pm
Saturday 9:00 am - 12:00 pmDrive-Up Hours
Monday 8:30 am - 5:00 pm
Tuesday 8:30 am - 5:00 pm
Wednesday 8:30 am - 5:00 pm
Thursday 8:30 am - 6:00 pm
Friday 8:30 am - 7:00 pm
Saturday 9:00 am - 12:00 pm"
"https://www.cnbbank.bank/","DuBois","1574 Bee Line Hwy.","DuBois","PA","15801","US","<MISSING>","(814) 375-6800","<MISSING>","41.121499","-78.724040","Lobby Hours
Monday 9:00 am - 4:00 pm
Tuesday 9:00 am - 4:00 pm
Wednesday 9:00 am - 4:00 pm
Thursday 9:00 am - 4:00 pm
Friday 9:00 am - 6:00 pm
Saturday 9:00 am - 12:00 pmDrive-Up Hours
Monday 8:30 am - 5:00 pm
Tuesday 8:30 am - 5:00 pm
Wednesday 8:30 am - 5:00 pm
Thursday 8:30 am - 6:00 pm
Friday 8:30 am - 6:00 pm
Saturday 9:00 am - 12:00 pm"
"https://www.cnbbank.bank/","Karthaus","3602 Main St.","Karthaus","PA","16845","US","<MISSING>","(814) 263-4811","<MISSING>","41.119774","-78.113093","Lobby Hours
Monday 9:00 am - 5:00 pm
Tuesday 9:00 am - 5:00 pm
Wednesday 9:00 am - 5:00 pm
Thursday 9:00 am - 5:00 pm
Friday 9:00 am - 5:00 pm
Saturday Closed
Closed 12:30 pm - 1:00 pmDrive-Up Hours
Drive-Up not available"
"https://www.cnbbank.bank/","Kylertown","111 Rolling Stone Rd.","Kylertown","PA","16847","US","<MISSING>","(814) 345-1130","<MISSING>","40.991148","-78.168795","Lobby Hours
Monday 9:00 am - 4:00 pm
Tuesday 9:00 am - 4:00 pm
Wednesday 9:00 am - 4:00 pm
Thursday 9:00 am - 4:00 pm
Friday 9:00 am - 6:00 pm
Saturday 9:00 am - 12:00 pmDrive-Up Hours
Monday 8:30 am - 5:00 pm
Tuesday 8:30 am - 5:00 pm
Wednesday 8:30 am - 5:00 pm
Thursday 8:30 am - 6:00 pm
Friday 8:30 am - 6:00 pm
Saturday 9:00 am - 12:00 pm"
"https://www.cnbbank.bank/","Houtzdale","485 Spring St.","Houtzdale","PA","16651","US","<MISSING>","(814) 378-2000","<MISSING>","40.825864","-78.344383","Lobby Hours
Monday 9:00 am - 4:00 pm
Tuesday 9:00 am - 4:00 pm
Wednesday 9:00 am - 4:00 pm
Thursday 9:00 am - 4:00 pm
Friday 9:00 am - 7:00 pm
Saturday 9:00 am - 12:00 pmDrive-Up Hours
Monday 8:30 am - 5:00 pm
Tuesday 8:30 am - 5:00 pm
Wednesday 8:30 am - 5:00 pm
Thursday 8:30 am - 6:00 pm
Friday 8:30 am - 7:00 pm
Saturday 9:00 am - 12:00 pm"
"https://www.cnbbank.bank/","Osceola Mills","611 Lingle St.","Osceola Mills","PA","16666","US","<MISSING>","(814) 339-6681","<MISSING>","40.851168","-78.268749","Lobby Hours
Monday 9:00 am - 4:00 pm
Tuesday 9:00 am - 4:00 pm
Wednesday 9:00 am - 4:00 pm
Thursday 9:00 am - 4:00 pm
Friday 9:00 am - 7:00 pm
Saturday ClosedDrive-Up Hours
Monday 8:30 am - 5:00 pm
Tuesday 8:30 am - 5:00 pm
Wednesday 8:30 am - 5:00 pm
Thursday 8:30 am - 5:00 pm
Friday 8:30 am - 7:00 pm
Saturday Closed"
"https://www.cnbbank.bank/","Plaza","25 Irwin Dr.","Philipsburg","PA","16866","US","<MISSING>","(814) 342-1000","<MISSING>","40.903880","-78.234051","Lobby Hours
Monday 9:00 am - 4:00 pm
Tuesday 9:00 am - 4:00 pm
Wednesday 9:00 am - 4:00 pm
Thursday 9:00 am - 4:00 pm
Friday 9:00 am - 7:00 pm
Saturday 9:00 am - 12:00 pmDrive-Up Hours
Monday 8:30 am - 5:00 pm
Tuesday 8:30 am - 5:00 pm
Wednesday 8:30 am - 5:00 pm
Thursday 8:30 am - 7:00 pm
Friday 8:30 am - 7:00 pm
Saturday 9:00 am - 12:00 pm"
"https://www.cnbbank.bank/","Presqueisle Street","117 E. Presqueisle St.","Philipsburg","PA","16866","US","<MISSING>","(814) 342-4000","<MISSING>","40.896067","-78.221824","Lobby Hours
Monday 9:00 am - 4:00 pm
Tuesday 9:00 am - 4:00 pm
Wednesday 9:00 am - 4:00 pm
Thursday 9:00 am - 4:00 pm
Friday 9:00 am - 7:00 pm
Saturday 9:00 am - 12:00 pmDrive-Up Hours
Monday 8:30 am - 5:00 pm
Tuesday 8:30 am - 5:00 pm
Wednesday 8:30 am - 5:00 pm
Thursday 8:30 am - 6:00 pm
Friday 8:30 am - 7:00 pm
Saturday 9:00 am - 12:00 pm"
"https://www.cnbbank.bank/","Bradford","1001 East Main St.","Bradford","PA","16701","US","<MISSING>","(814) 362-5000","<MISSING>","41.979246","-78.618835","Lobby Hours
Monday 9:00 am - 4:00 pm
Tuesday 9:00 am - 4:00 pm
Wednesday 9:00 am - 4:00 pm
Thursday 9:00 am - 4:00 pm
Friday 9:00 am - 6:00 pm
Saturday 9:00 am - 12:00 pmDrive-Up Hours
Monday 8:30 am - 5:00 pm
Tuesday 8:30 am - 5:00 pm
Wednesday 8:30 am - 5:00 pm
Thursday 8:30 am - 5:00 pm
Friday 8:30 am - 6:00 pm
Saturday 9:00 am - 12:00 pm"
"https://www.cnbbank.bank/","Bradford - Downtown","12 Chambers St.","Bradford","PA","16701","US","<MISSING>","(814) 368-3101","<MISSING>","41.955637","-78.649085","Lobby Hours
Monday 9:00 am - 4:00 pm
Tuesday 9:00 am - 4:00 pm
Wednesday 9:00 am - 4:00 pm
Thursday 9:00 am - 4:00 pm
Friday 9:00 am - 6:00 pm
Saturday 9:00 am - 12:00 pmDrive-Up Hours
Monday 8:30 am - 5:00 pm
Tuesday 8:30 am - 5:00 pm
Wednesday 8:30 am - 5:00 pm
Thursday 8:30 am - 5:00 pm
Friday 8:30 am - 6:00 pm
Saturday 9:00 am - 12:00 pm"
"https://www.cnbbank.bank/","Kane","87 Fraley St.","Kane","PA","16735","US","<MISSING>","(814) 837-7300","<MISSING>","41.660966","-78.811336","Lobby Hours
Monday 9:00 am - 4:00 pm
Tuesday 9:00 am - 4:00 pm
Wednesday 9:00 am - 4:00 pm
Thursday 9:00 am - 4:00 pm
Friday 9:00 am - 6:00 pm
Saturday 9:00 am - 12:00 pmDrive-Up Hours
Monday 8:30 am - 5:00 pm
Tuesday 8:30 am - 5:00 pm
Wednesday 8:30 am - 5:00 pm
Thursday 8:30 am - 5:00 pm
Friday 8:30 am - 6:00 pm
Saturday 9:00 am - 12:00 pm"
"https://www.cnbbank.bank/","Ridgway","301 Main St.","Ridgway","PA","15853","US","<MISSING>","(814) 776-6147","<MISSING>","41.422406","-78.729179","Lobby Hours
Monday 9:00 am - 4:00 pm
Tuesday 9:00 am - 4:00 pm
Wednesday 9:00 am - 4:00 pm
Thursday 9:00 am - 4:00 pm
Friday 9:00 am - 6:00 pm
Saturday 9:00 am - 12:00 pmDrive-Up Hours
Monday 8:30 am - 5:00 pm
Tuesday 8:30 am - 5:00 pm
Wednesday 8:30 am - 5:00 pm
Thursday 8:30 am - 5:00 pm
Friday 8:30 am - 6:00 pm
Saturday 9:00 am - 12:00 pm"
"https://www.cnbbank.bank/","Fox Township","1104 Million Dollar Hwy.","St. Marys","PA","15857","US","<MISSING>","(814) 834-1661","<MISSING>","41.390843","-78.558992","Lobby Hours
Monday 9:00 am - 4:00 pm
Tuesday 9:00 am - 4:00 pm
Wednesday 9:00 am - 4:00 pm
Thursday 9:00 am - 4:00 pm
Friday 9:00 am - 6:00 pm
Saturday 9:00 am - 12:00 pmDrive-Up Hours
Monday 8:30 am - 5:00 pm
Tuesday 8:30 am - 5:00 pm
Wednesday 8:30 am - 5:00 pm
Thursday 8:30 am - 6:00 pm
Friday 8:30 am - 6:00 pm
Saturday 9:00 am - 12:00 pm"
"https://www.cnbbank.bank/","Washington St.","133 Washington St.","St. Marys","PA","15857","US","<MISSING>","(814) 834-1600","<MISSING>","41.429533","-78.559913","Lobby Hours
Monday 9:00 am - 4:00 pm
Tuesday 9:00 am - 4:00 pm
Wednesday 9:00 am - 4:00 pm
Thursday 9:00 am - 4:00 pm
Friday 9:00 am - 6:00 pm
Saturday ClosedDrive-Up Hours
Monday 8:30 am - 5:00 pm
Tuesday 8:30 am - 5:00 pm
Wednesday 8:30 am - 5:00 pm
Thursday 8:30 am - 6:00 pm
Friday 8:30 am - 6:00 pm
Saturday Closed"
"https://www.cnbbank.bank/","Punxsutawney","559 W. Mahoning St.","Punxsutawney","PA","15767","US","<MISSING>","(814) 938-2615","<MISSING>","40.942253","-78.982049","Lobby Hours
Monday 9:00 am - 4:00 pm
Tuesday 9:00 am - 4:00 pm
Wednesday 9:00 am - 4:00 pm
Thursday 9:00 am - 4:00 pm
Friday 9:00 am - 6:00 pm
Saturday 9:00 am - 12:00 pmDrive-Up Hours
Monday 8:30 am - 5:00 pm
Tuesday 8:30 am - 5:00 pm
Wednesday 8:30 am - 5:00 pm
Thursday 8:30 am - 6:00 pm
Friday 8:30 am - 6:00 pm
Saturday 9:00 am - 12:00 pm"
"https://www.cnbbank.bank/","Northern Cambria","1808 Bigler Ave.","Northern Cambria","PA","15714","US","<MISSING>","(814) 948-6410","<MISSING>","40.641795","-78.771966","Lobby Hours
Monday 9:00 am - 4:00 pm
Tuesday 9:00 am - 4:00 pm
Wednesday 9:00 am - 4:00 pm
Thursday 9:00 am - 4:00 pm
Friday 9:00 am - 6:00 pm
Saturday 9:00 am - 12:00 pmDrive-Up Hours
Monday 8:30 am - 5:00 pm
Tuesday 8:30 am - 5:00 pm
Wednesday 8:30 am - 5:00 pm
Thursday 8:30 am - 5:00 pm
Friday 8:30 am - 6:00 pm
Saturday 9:00 am - 12:00 pm"
"https://www.cnbbank.bank/","Indiana","The Atrium Suite 100    665 Philadelphia St.","Indiana","PA","15701","US","<MISSING>","(724) 471-2175","<MISSING>","40.623341","-79.152739","Lobby Hours
Monday 9:00 am - 5:00 pm
Tuesday 9:00 am - 5:00 pm
Wednesday 9:00 am - 5:00 pm
Thursday 9:00 am - 5:00 pm
Friday 9:00 am - 5:00 pm
Saturday closedDrive-Up Hours
Drive-Up not available"
"https://www.cnbbank.bank/","Duncansville","107 Lamppost Lane","Duncansville","PA","16635","US","<MISSING>","(814) 693-5006","<MISSING>","40.452409","-78.412162","Lobby Hours
Monday 9:00 am - 4:00 pm
Tuesday 9:00 am - 4:00 pm
Wednesday 9:00 am - 4:00 pm
Thursday 9:00 am - 4:00 pm
Friday 9:00 am - 6:00 pm
Saturday 9:00 am - 12:00 pmDrive-Up Hours
Monday 8:30 am - 5:00 pm
Tuesday 8:30 am - 5:00 pm
Wednesday 8:30 am - 5:00 pm
Thursday 8:30 am - 5:00 pm
Friday 8:30 am - 6:00 pm
Saturday 9:00 am - 12:00 pm"
