"locator_domain","location_name","street_address","city","state","zip","country_code","store_number","phone","location_type","latitude","longitude","hours_of_operation"
"https://autoparts2020.com","Btb Lancaster","104 S. Monroe St.","Lancaster","WI","53813","US","<MISSING>","6087236455","auto valueParts Store","42.84787323","-90.70840359","Mon-Fri: 7:30am-5:00pm, Sat: 8:00am-Noon, Sun: closed"
"https://autoparts2020.com","Btb Boscobel","308 W. Bluff","Boscobel","WI","53805","US","<MISSING>","6083755261","auto valueParts Store","43.13372276","-90.71023018","Mon-Fri: 7:30am-5:00pm, Sat: 7:30am-Noon, Sun: closed"
"https://autoparts2020.com","Bumper To Bumper Muscoda","132 N. Wisconsin","Muscoda","WI","53573","US","<MISSING>","6087394406","auto valueParts Store","43.18637935","-90.44291692","Mon-Fri: 8:00am-5:00pm, Sat: 8:00am-Noon, Sun: closed"
"https://autoparts2020.com","MD Auto Parts","322 W.State St","New Lisbon ","WI","53950","US","<MISSING>","6085625799","auto valueParts Store","43.882087","-90.166612","Mon-Fri: 8:00am-5:00pm, Sat: 8:00am-Noon, Sun: closed"
"https://autoparts2020.com","Btb Reedsburg","139 Main St.","Reedsburg","WI","53959","US","<MISSING>","6085244356","auto valueParts Store","43.53268265","-90.00914097","Mon-Fri: 7:30am-5:30pm, Sat: 7:30am-Noon, Sun: closed"
"https://autoparts2020.com","Bumper To Bumper Madison","4333 Robertson Road","Madison","WI","53714","US","<MISSING>","6082410606","auto valueParts Store","43.092533","-89.310314","Mon-Fri: 7:30am-6:00pm, Sat: 8:00am-3:00pm, Sun: closed"
"https://autoparts2020.com","Btb Stoughton","1107 W. Main St.","Stoughton","WI","53589","US","<MISSING>","6088733346","auto valueParts Store","42.91639501","-89.23357487","Mon-Fri: 7:30am-5:30pm, Sat: 7:30am-3:00pm, Sun: closed"
"https://autoparts2020.com","Bumper to Bumper","1535 Center Ave","Janesville","WI","53545","US","<MISSING>","6087547100","auto valueParts Store","42.65786935","-89.03052325","Mon-Sat: 8:00am-7:00pm, Sun: 10:00am-4:00pm"
"https://autoparts2020.com","Motor Parts And Exhaust","15 North Main","Edgerton","WI","53534","US","<MISSING>","6088841900","auto valueParts Store","42.83361893","-89.069519","Mon-Fri: 7:30am-5:30pm, Sat: 8:00am-Noon, Sun: closed"
"https://autoparts2020.com","Btb Janesville","2625 Milton Ave.","Janesville","WI","53545","US","<MISSING>","6087527456","auto valueParts Store","42.71450043","-89.00016526","Mon-Fri: 8:00am-5:30pm, Sat: 8:00am-1:00pm, Sun: closed"
"https://autoparts2020.com","Bumper To Bumper Dekalb","950 North Peace Road","Dekalb","IL","60115","US","<MISSING>","8157562727","auto valueParts Store","41.93710742","-88.72355717","Mon-Fri: 7:30am-6:00pm, Sat: 8:00am-Noon, Sun: closed"
"https://autoparts2020.com","Bumper To Bumper Sandwich","523 E. Church","Sandwich","IL","60548","US","<MISSING>","8157862129","auto valueParts Store","41.64469021","-88.61488713","Mon-Fri: 7:30am-6:00pm, Sat: 8:00am-Noon, Sun: closed"
"https://autoparts2020.com","Btb Lake Mills","201 N. Main St.","Lake Mills","WI","53551","US","<MISSING>","9206482383","auto valueParts Store","43.08067711","-88.91226756","Mon-Fri: 8:00am-5:00pm, Sat: 8:00am-1:00pm, Sun: closed"
"https://autoparts2020.com","Btb Fort Atkinson","201 Washington St.","Fort Atkinson","WI","53538","US","<MISSING>","9205636341","auto valueParts Store","42.93005472","-88.83986615","Mon-Fri: 7:30am-5:30pm, Sat: 8:00am-Noon, Sun: closed"
"https://autoparts2020.com","Bumper To Bumper Tomahawk","128 W. Wisconsin","Tomahawk","WI","54487","US","<MISSING>","7154533022","auto valueParts Store","45.47114029","-89.73201628","Mon-Fri: 8:00am-5:00pm, Sat: 8:00am-Noon, Sun: closed"
"https://autoparts2020.com","Markesan Auto Home & Farm","7 N. Bridge","Markesan","WI","53946","US","<MISSING>","9203982305","auto valueParts Store","43.7071147","-88.98789999","Mon-Fri: 7:30am-6:00pm, Sat: 7:30am-5:00pm, Sun: closed"
"https://autoparts2020.com","Walworth Bumper To Bumper","217 N. Main St.","Walworth","WI","53184","US","<MISSING>","2622752146","auto valueParts Store","42.53211389","-88.59967712","Mon-Fri: 8:00am-5:00pm, Sat: 8:00am-Noon, Sun: closed"
"https://autoparts2020.com","Btb Watertown","1701 Utah St","Watertown","WI","53094","US","<MISSING>","9202611850","auto valueParts Store","43.174263","-88.730739","Mon-Fri: 8:00am-6:00pm, Sat: 8:00am-3:00pm, Sun: closed"
"https://autoparts2020.com","Bumper To Bumper Aurora","423 S. Lake St.","Aurora","IL","60507","US","<MISSING>","6308965095","auto valueParts Store","41.75316133","-88.3280611","Mon-Fri: 7:30am-6:00pm, Sat: 8:00am-2:00pm, Sun: closed"
"https://autoparts2020.com","Bumper To Bumper Batavia","920 W. Wilson","Batavia","IL","60510","US","<MISSING>","6308796363","auto valueParts Store","41.8494183","-88.3226467","Mon-Fri: 8:00am-6:00pm, Sat: 8:00am-1:00pm, Sun: closed"
"https://autoparts2020.com","Bumper To Bumper St Charles","6 North 9th St","St Charles","IL","60174","US","<MISSING>","6305841340","auto valueParts Store","41.9130013","-88.324115","Mon-Fri: 8:00am-6:00pm, Sat: 8:00am-1:00pm, Sun: closed"
"https://autoparts2020.com","Btb Lake Geneva","451 Interchange N.","Lake Geneva","WI","53147","US","<MISSING>","2622491132","auto valueParts Store","42.60524863","-88.42964172","Mon-Fri: 7:30am-6:00pm, Sat: 8:00am-4:00pm, Sun: closed"
"https://autoparts2020.com","Bumper To Bumper Elgin","364 Dundee Rd","Elgin","IL","60120","US","<MISSING>","8476085000","auto valueParts Store","42.04441671","-88.27788502","Mon-Fri: 8:00am-6:00pm, Sat: 8:00am-3:00pm, Sun: closed"
"https://autoparts2020.com","Bumper To Bumper Crystal Lake","5313 Northwest Hwy","Crystal Lake","IL","60014","US","<MISSING>","8154590541","auto valueParts Store","42.22585593","-88.30228507","Mon-Fri: 8:00am-6:00pm, Sat: 8:00am-2:00pm, Sun: closed"
"https://autoparts2020.com","Manawa Auto Supply","961 Depot St","Manawa","WI","54949","US","<MISSING>","9205962277","auto valueParts Store","44.45587","-88.926955","Mon-Fri: 8:00am-5:00pm, Sat: 8:00am-Noon, Sun: closed"
"https://autoparts2020.com","Tim's Auto Parts","502 E. Wisconsin","Oconomowoc","WI","53066","US","<MISSING>","2625672620","auto valueParts Store","43.10694944","-88.48091379","Mon-Fri: 7:30am-6:00pm, Sat: 8:00am-4:00pm, Sun: 9:00am-1:00pm"
"https://autoparts2020.com","Antigo Auto Parts","1025 5th Ave.","Antigo","WI","54409","US","<MISSING>","7156235128","auto valueParts Store","45.14027769","-89.15915966","Mon-Fri: 7:00am-5:00pm, Sat: 8:00am-Noon, Sun: closed"
"https://autoparts2020.com","Tim's Auto Parts - Mayville","20 Bridge St.","Mayville","WI","53050","US","<MISSING>","9203875941","auto valueParts Store","43.495871","-88.542283","Mon-Fri: 7:30am-5:30pm, Sat: 8:00am-1:00pm, Sun: closed"
"https://autoparts2020.com","Bumper To Bumper Wheaton","517 S. Carlton","Wheaton","IL","60187","US","<MISSING>","6306819600","auto valueParts Store","41.85997972","-88.11602792","Mon-Fri: 8:00am-6:00pm, Sat: 8:00am-Noon, Sun: closed"
"https://autoparts2020.com","Burlington Auto Parts","701 N. Pine St.","Burlington","WI","53105","US","<MISSING>","2627639184","auto valueParts Store","42.667148","-88.26606","Mon-Fri: 8:00am-6:00pm, Sat: 8:00am-3:00pm, Sun: 9:00am-Noon"
"https://autoparts2020.com","Btb Hartland","710 Cardinal ","Hartland ","WI","53029","US","<MISSING>","2623678200","auto valueParts Store","43.09389353","-88.3598282","Mon-Fri: 8:00am-5:00pm, Sat: 8:00am-1:00pm, Sun: closed"
"https://autoparts2020.com","Bumper To Bumper Volo","26735 West Commerce Dr Unit 703","Volo","IL","60073","US","<MISSING>","2243380389","auto valueParts Store","42.32171551","-88.1545651","Mon-Fri: 8:00am-6:00pm, Sat: 8:00am-2:00pm, Sun: closed"
"https://autoparts2020.com","Bumper To Bumper Schaumburg","922 Estes Ct","Schaumburg","IL","60193","US","<MISSING>","8478913305","auto valueParts Store","42.04945198","-88.08318615","Mon-Fri: 8:00am-6:00pm, Sat: 8:00am-4:00pm, Sun: closed"
"https://autoparts2020.com","Btb New London","104 S. Pearl St.","New London","WI","54961","US","<MISSING>","9209828585","auto valueParts Store","44.3914488","-88.73947978","Mon-Fri: 8:00am-5:30pm, Sat: 8:00am-Noon, Sun: closed"
"https://autoparts2020.com","Btb Hartford","721 E. Sumner St.","Hartford","WI","53027","US","<MISSING>","2626732740","auto valueParts Store","43.31627942","-88.36828083","Mon-Fri: 7:00am-5:30pm, Sat: 8:00am-3:00pm, Sun: closed"
"https://autoparts2020.com","Bumper To Bumper Palatine","503 S Vermont St","Palatine","IL","60067","US","<MISSING>","8473982223","auto valueParts Store","42.10100065","-88.03690597","Mon-Fri: 7:00am-5:00pm, Sat: 8:00am-Noon, Sun: closed"
"https://autoparts2020.com","Bumper To Bumper R & V","27640 75th St.","Salem","WI","53168","US","<MISSING>","2628432451","auto valueParts Store","42.56822138","-88.14155102","Mon-Fri: 8:00am-6:00pm, Sat: 8:00am-4:00pm, Sun: 9:00am-2:00pm"
"https://autoparts2020.com","Btb Waukesha","735 Pleasant ","Waukesha","WI","53186","US","<MISSING>","2625445321","auto valueParts Store","43.00973535","-88.22537592","Mon-Fri: 8:00am-6:00pm, Sat: 8:00am-1:00pm, Sun: closed"
"https://autoparts2020.com","Bumper To Bumper Elmhurst","747 N Church Rd G3","Elmhurst","IL","60126","US","<MISSING>","6302793552","auto valueParts Store","41.9260854","-87.9534643","Mon-Fri: 7:30am-6:00pm, Sat: 8:00am-1:00pm, Sun: closed"
"https://autoparts2020.com","Wind Lake Auto Parts","7957 W. Wind Lake Rd","Wind Lake","WI","53185","US","<MISSING>","2628952890","auto valueParts Store","42.82846494","-88.15537729","Mon-Thu: 8:00am-6:00pm, Fri: 8:00am-5:00pm, Sat: 8:00am-2:00pm, Sun: closed"
"https://autoparts2020.com","Bumper To Bumper Mundelein","1035 E. High St","Mundelein","IL","60060","US","<MISSING>","8475668540","auto valueParts Store","42.258992","-87.987296","Mon-Fri: 8:00am-6:00pm, Sat: 8:00am-2:00pm, Sun: closed"
"https://autoparts2020.com","Auto Value Danville","610 North Oak St.","Danville","IL","61832","US","<MISSING>","2174461047","auto valueParts Store","40.134818","-87.63433","Mon-Fri: 8:00am-5:00pm, Sat-Sun: closed"
"https://autoparts2020.com","Btb Muskego","S73 W16511 Janesville Road","Muskego","WI","53150","US","<MISSING>","4144221200","auto valueParts Store","42.91161762","-88.12065125","Mon-Fri: 8:00am-6:00pm, Sat: 8:00am-4:00pm, Sun: closed"
"https://autoparts2020.com","Raffa Auto Parts","3201 W. Lake St.","Melrose Park","IL","60160","US","<MISSING>","7086816121","auto valueParts Store","41.89697457","-87.87294388","Mon-Fri: 8:00am-7:00pm, Sat: 8:00am-4:30pm, Sun: closed"
"https://autoparts2020.com","Bumper To Bumper Elk Grove","450 Crossen Ave","Elk Grove Village","IL","60007","US","<MISSING>","8472997766","auto valueParts Store","42.04112232","-87.88793043","Mon-Fri: 7:00am-6:00pm, Sat: 8:00am-4:00pm, Sun: closed"
"https://autoparts2020.com","Btb West Bend","3520 W. Washington","West Bend","WI","53095","US","<MISSING>","2623347818","auto valueParts Store","43.42764517","-88.23181808","Mon-Fri: 7:00am-5:30pm, Sat: 8:00am-Noon, Sun: closed"
"https://autoparts2020.com","Bumper To Bumper Schiller Park","3821 N. Willow St.","Schiller Park","IL","60176","US","<MISSING>","7084572995","auto valueParts Store","41.948596","-87.858445","Mon-Fri: 7:30am-5:30pm, Sat: 8:00am-1:00pm, Sun: closed"
"https://autoparts2020.com","Bumper To Bumper Bridgeview","8916 S Moore","Bridgeview","IL","60455","US","<MISSING>","7082331105","auto valueParts Store","41.728967","-87.803275","Mon-Fri: 8:00am-6:00pm, Sat: 8:00am-2:00pm, Sun: closed"
"https://autoparts2020.com","Btb Northbrook","340 Wainwright Dr","Northbrook","IL","60062","US","<MISSING>","8473982223","auto valueParts Store","42.147056","-87.859747","Mon-Fri: 7:30am-6:00pm, Sat: 8:00am-4:00pm, Sun: closed"
"https://autoparts2020.com","Btb West Allis","2373 S. 108th St.","West Allis","WI","53227","US","<MISSING>","4145460610","auto valueParts Store","43.00078678","-88.04756641","Mon-Fri: 7:30am-6:00pm, Sat: 8:00am-1:00pm, Sun: closed"
"https://autoparts2020.com","Target Auto Supply","6239 W. Ogden","Berwyn","IL","60402","US","<MISSING>","7087881411","auto valueParts Store","41.83181801","-87.77956265","Mon-Fri: 8:00am-8:00pm, Sat: 8:00am-4:00pm, Sun: 9:00am-3:00pm"
"https://autoparts2020.com","Btb Shawano","117 N. Andrews","Shawano","WI","54166","US","<MISSING>","7155269282","auto valueParts Store","44.78277362","-88.60583067","Mon-Fri: 7:30am-5:30pm, Sat: 8:00am-12:30pm, Sun: closed"
"https://autoparts2020.com","Cicero Auto Parts","6231 W. 26th Street","Cicero","IL","60402","US","<MISSING>","7084849258","auto valueParts Store","41.85795916","-87.76724339","Mon-Fri: 8:00am-6:00pm, Sat: 8:00am-3:00pm, Sun: closed"
"https://autoparts2020.com","Bumper To Bumper Waukegan","2750 W. Grand Ave.","Waukegan","IL","60085","US","<MISSING>","8472490100","auto valueParts Store","42.370671","-87.869976","Mon-Fri: 8:00am-6:00pm, Sat: 8:00am-2:00pm, Sun: closed"
"https://autoparts2020.com","Aztek Automotive Chicago","6425 S. Pulaski Rd","Chicago","IL","60629","US","<MISSING>","7737353388","auto valueParts Store","41.776334","-87.722243","Mon-Fri: 8:00am-8:00pm, Sat: 8:00am-7:00pm, Sun: 8:30am-6:00pm"
"https://autoparts2020.com","Laredo Auto Parts","3001 W. 26th St.","Chicago","IL","60623","US","<MISSING>","7732472818","auto valueParts Store","41.8446007","-87.70020951","Mon-Fri: 8:00am-8:00pm, Sat: 8:00am-6:00pm, Sun: 8:00am-3:00pm"
"https://autoparts2020.com","Parkview Auto Parts","2625 W. 51st St.","Chicago","IL","60632","US","<MISSING>","7734760471","auto valueParts Store","41.80104459","-87.69010766","Mon-Sat: 8:00am-7:00pm, Sun: 8:00am-3:00pm"
"https://autoparts2020.com","Btb Kenosha","2801 Roosevelt Road","Kenosha","WI","53143","US","<MISSING>","2626542178","auto valueParts Store","42.57448838","-87.8404811","Mon-Fri: 8:00am-6:00pm, Sat: 8:00am-2:00pm, Sun: closed"
"https://autoparts2020.com","Aztek Auto Supply","11010 S Halsted","Chicago","IL","60629","US","<MISSING>","7734681925","auto valueParts Store","41.693757","-87.642805","Mon-Fri: 8:00am-7:00pm, Sat: 8:00am-6:00pm, Sun: closed"
"https://autoparts2020.com","Bumper To Bumper Racine","6201 Regency West Drive","Mt Pleasant","WI","53406","US","<MISSING>","2625540400","auto valueParts Store","42.70217","-87.85617","Mon-Fri: 7:30am-6:00pm, Sat: 8:00am-1:00pm, Sun: closed"
"https://autoparts2020.com","Sparks Auto Parts","4444 S. Ashland Ave","Chicago","IL","60609","US","<MISSING>","7739273600","auto valueParts Store","41.808505","-87.658842","Mon-Fri: 8:00am-6:00pm, Sat: 8:00am-5:00pm, Sun: closed"
"https://autoparts2020.com","Laredo Auto Parts","2991 S. Archer","Chicago","IL","60608","US","<MISSING>","7733766198","auto valueParts Store","41.84026353","-87.660772","Mon-Fri: 8:00am-8:00pm, Sat: 8:00am-6:00pm, Sun: closed"
"https://autoparts2020.com","Btb Evanston","641 Howard","Evanston","IL","60202","US","<MISSING>","8473287400","auto valueParts Store","42.019695","-87.680243","Mon-Fri: 7:30am-6:00pm, Sat: 7:30am-2:00pm, Sun: closed"
"https://autoparts2020.com","Bumper To Bumper Lansing","17835 Torrence Ave.","Lansing","IL","60438","US","<MISSING>","7084745533","auto valueParts Store","41.570794","-87.558676","Mon-Fri: 8:00am-5:30pm, Sat: 8:00am-1:00pm, Sun: closed"
"https://autoparts2020.com","Bumper To Bumper Skyway","10458 Ewing Ave","Chicago","IL","60617","US","<MISSING>","7732215100","auto valueParts Store","41.704789","-87.535434","Mon-Fri: 8:00am-5:30pm, Sat: 8:00am-4:00pm, Sun: closed"
"https://autoparts2020.com","Van Senus Auto Value Highland","2930 Highway Ave","Highland","IN","46322","US","<MISSING>","2198380900","auto valueParts Store","41.555182","-87.458049","Mon-Fri: 7:30am-6:00pm, Sat: 8:00am-4:00pm, Sun: closed"
"https://autoparts2020.com","Auto Value Rockville","780 N. Lincoln Road","Rockville","IN","47872","US","<MISSING>","7655692085","auto valueParts Store","39.770444","-87.236644","Mon-Sat: 8:00am-5:00pm, Sun: closed"
"https://autoparts2020.com","Van Senus Auto Value Hammond","6920 KENNEDY AVE","Hammond","IN","46323","US","<MISSING>","2198442900","auto valueParts Store","41.58751521","-87.4618509","Mon-Fri: 8:00am-6:00pm, Sat: 8:00am-4:00pm, Sun: closed"
"https://autoparts2020.com","Bumper To Bumper Pulaski","134  W Pulaski","Pulaski","WI","54162","US","<MISSING>","9208223031","auto valueParts Store","44.67231581","-88.24364167","Mon-Fri: 8:00am-5:30pm, Sat: 8:00am-1:00pm, Sun: closed"
"https://autoparts2020.com","Btb Gillett","6159 N. Hwy 32","Gillett","WI","54124","US","<MISSING>","9208552009","auto valueParts Store","44.8904178","-88.30741883","Mon-Fri: 7:30am-5:00pm, Sat: 8:00am-1:00pm, Sun: closed"
"https://autoparts2020.com","Auto Value Gary","4088 Broadway","Gary ","IN","46408","US","<MISSING>","2198875294","auto valueParts Store","41.544218","-87.336601","Mon-Fri: 7:30am-5:00pm, Sat: 8:00am-2:00pm, Sun: closed"
"https://autoparts2020.com","Btb Green Bay West","2015 Velp Ave","Green Bay","WI","54303","US","<MISSING>","9204343682","auto valueParts Store","44.55821548","-88.06559086","Mon-Fri: 7:30am-5:30pm, Sat: 8:00am-3:00pm, Sun: closed"
"https://autoparts2020.com","Auto Value Iron River","411 Adams St.","Iron River","MI","49935","US","<MISSING>","9062655133","auto valueParts Store","46.09229259","-88.64302754","Mon-Fri: 8:00am-6:00pm, Sat: 8:00am-5:00pm, Sun: 10:00am-3:00pm"
"https://autoparts2020.com","Auto Value Rensselaer","1650 N. McKinley Ave.","Rensselaer","IN","47978","US","<MISSING>","2198664184","auto valueParts Store","40.951844","-87.151737","Mon-Fri: 7:00am-5:00pm, Sat: 7:00am-2:00pm, Sun: closed"
"https://autoparts2020.com","Bumper To Bumper Manitowoc","10 Maritime Dr","Manitowoc","WI","54220","US","<MISSING>","9206826888","auto valueParts Store","44.0931839","-87.6599549","Mon-Fri: 7:00am-5:00pm, Sat: 8:00am-1:00pm, Sun: closed"
"https://autoparts2020.com","Auto Value Valparaiso","1501 E. Lincolnway","Valparaiso","IN","46383","US","<MISSING>","2194621136","auto valueParts Store","41.46799409","-87.04282232","Mon-Fri: 7:30am-5:30pm, Sat: 7:30am-4:00pm, Sun: closed"
"https://autoparts2020.com","Bumper To Bumper Crivitz","107 S Hwy 141","Crivitz","WI","54114","US","<MISSING>","7158542323","auto valueParts Store","45.2172289","-87.9966204","Mon-Fri: 7:30am-5:00pm, Sat: 8:00am-1:00pm, Sun: closed"
"https://autoparts2020.com","Auto Value Monon","309 N. Market (PO Box 625)","Monon","IN","47959","US","<MISSING>","2192536661","auto valueParts Store","40.861702","-86.87882","Mon-Fri: 7:30am-5:00pm, Sat: 8:00am-2:00pm, Sun: closed"
"https://autoparts2020.com","Crystal Auto Value","45 Superior Ave","Crystal Falls","MI","49920","US","<MISSING>","9068756558","auto valueParts Store","46.096759","-88.3273333","Mon-Fri: 8:00am-6:00pm, Sat: 8:00am-2:00pm, Sun: closed"
"https://autoparts2020.com","Auto Value Michigan City","651 US Highway 20 E. Unit 1","Michigan City","IN","46360","US","<MISSING>","2198144541","auto valueParts Store","41.68396208","-86.87985063","Mon-Fri: 7:30am-6:00pm, Sat: 8:00am-3:00pm, Sun: closed"
"https://autoparts2020.com","Auto Value Iron Mountain","1245 Carpenter","Iron Mountain","MI","49801","US","<MISSING>","9067741811","auto valueParts Store","45.81003603","-88.06843754","Mon-Fri: 7:30am-6:00pm, Sat: 8:00am-5:00pm, Sun: closed"
"https://autoparts2020.com","Breeze Auto Parts","1225 Roosevelt Rd.","Niagara","WI","54151","US","<MISSING>","7152511126","auto valueParts Store","45.784292","-88.008644","Mon-Fri: 7:30am-5:30pm, Sat-Sun: closed"
"https://autoparts2020.com","Skyttas Country Feed & General Store","725 E. Broad St.","L'Anse","MI","49946","US","<MISSING>","9065247281","auto valueParts Store","46.75015326","-88.44367504","Mon-Fri: 8:00am-5:30pm, Sat: 8:00am-2:00pm, Sun: closed"
"https://autoparts2020.com","Auto Value Houghton","700 W. Sharon Ave","Houghton","MI","49931","US","<MISSING>","9064823180","auto valueParts Store","47.11277319","-88.57948251","Mon-Fri: 7:30am-6:00pm, Sat: 9:00am-4:00pm, Sun: closed"
"https://autoparts2020.com","Btb  Marinette","3435 Gallagher Road","Marinette","WI","54143","US","<MISSING>","7157321358","auto valueParts Store","45.07618754","-87.66205788","Mon-Fri: 7:30am-6:00pm, Sat: 8:00am-4:00pm, Sun: 10:00am-2:00pm"
"https://autoparts2020.com","Elias Auto Parts","W6622 Hwy. 180","Wausaukee","WI","54177","US","<MISSING>","7158565886","auto valueParts Store","45.27968042","-87.70684845","Mon-Fri: 8:00am-5:00pm, Sat: 8:00am-Noon, Sun: closed"
"https://autoparts2020.com","Auto Value Winamac","214 N. Monticello","Winamac","IN","46996","US","<MISSING>","5749463121","auto valueParts Store","41.052809","-86.603506","Mon-Fri: 7:30am-5:00pm, Sat: 8:00am-2:00pm, Sun: closed"
"https://autoparts2020.com","Auto Value Calumet","101 Sixth St ","Calumet ","MI","49913","US","<MISSING>","9063372612","auto valueParts Store","47.24456166","-88.4539702","Mon-Fri: 8:00am-5:30pm, Sat: 9:00am-4:00pm, Sun: closed"
"https://autoparts2020.com","Auto Value Walkerton","626 Roosevelt Rd.","Walkerton","IN","46574","US","<MISSING>","5745862337","auto valueParts Store","41.466191","-86.482507","Mon-Fri: 8:00am-5:00pm, Sat: 8:00am-2:00pm, Sun: closed"
"https://autoparts2020.com","Auto Value Of Powers","N15998 US 2 & HWY  41","Powers","MI","49874","US","<MISSING>","9064975851","auto valueParts Store","45.692375","-87.519264","Mon-Fri: 7:30am-5:00pm, Sat: 8:00am-Noon, Sun: closed"
"https://autoparts2020.com","Auto Value Benton Harbor S","1904  M139","Benton Harbor ","MI","49022","US","<MISSING>","2699251183","auto valueParts Store","42.08372247","-86.43708525","Mon-Fri: 7:30am-7:00pm, Sat: 8:00am-4:00pm, Sun: closed"
"https://autoparts2020.com","Auto Value Of W. Ishpeming","1500 Us Hwy. 41 West","Ishpeming","MI","49849","US","<MISSING>","9064856328","auto valueParts Store","46.488904","-87.710164","Mon-Fri: 7:00am-7:00pm, Sat: 8:00am-5:00pm, Sun: 9:00am-4:00pm"
"https://autoparts2020.com","Auto Value Coloma","7053 Red Arrow Hwy","Coloma","MI","49038","US","<MISSING>","2694686458","auto valueParts Store","42.18634415","-86.28765793","Mon-Fri: 7:30am-6:00pm, Sat: 8:00am-3:00pm, Sun: closed"
"https://autoparts2020.com","Auto Value South Haven","08668 M-140 Hwy","South Haven","MI","49090","US","<MISSING>","2696376063","auto valueParts Store","42.3860956","-86.26949787","Mon-Fri: 7:30am-7:00pm, Sat: 8:00am-5:00pm, Sun: 10:00am-3:00pm"
"https://autoparts2020.com","Auto Value Gwinn","10 West M-35","Gwinn","MI","49841","US","<MISSING>","9063469251","auto valueParts Store","46.27750409","-87.4294138","Mon-Fri: 8:00am-6:00pm, Sat: 8:00am-5:00pm, Sun: 10:00am-3:00pm"
"https://autoparts2020.com","Auto Value Hartford","441 E Main","Hartford","MI","49057","US","<MISSING>","2696213300","auto valueParts Store","42.2076225","-86.1592331","Mon-Fri: 7:30am-6:00pm, Sat: 8:00am-3:00pm, Sun: closed"
"https://autoparts2020.com","Clipp Auto Supply","151 S. Clark St.","Nappanee","IN","46550","US","<MISSING>","5747734741","auto valueParts Store","41.44226841","-86.00264795","Mon-Fri: 6:00am-5:30pm, Sat: 7:00am-Noon, Sun: closed"
"https://autoparts2020.com","Auto Value Bangor","108 W Monroe","Bangor","MI","49013","US","<MISSING>","2694271919","auto valueParts Store","42.31316674","-86.11112783","Mon-Fri: 7:30am-6:00pm, Sat: 8:00am-3:00pm, Sun: closed"
"https://autoparts2020.com","Twin Cities Parts, Inc.","615 East Colby","Whitehall","MI","49461","US","<MISSING>","2318933485","auto valueParts Store","43.409291","-86.338604","Mon-Fri: 8:00am-5:30pm, Sat: 8:00am-Noon, Sun: closed"
"https://autoparts2020.com","Auto Value Escanaba","2000 Ludington Street ","Escanaba","MI","49829","US","<MISSING>","9067865101","auto valueParts Store","45.74590375","-87.07596419","Mon-Fri: 7:30am-6:00pm, Sat: 8:00am-5:00pm, Sun: closed"
"https://autoparts2020.com","Auto Value Marquette","344 W. Washington","Marquette","MI","49855","US","<MISSING>","9062266551","auto valueParts Store","46.54439898","-87.39933014","Mon-Fri: 7:30am-6:00pm, Sat: 8:00am-5:00pm, Sun: closed"
"https://autoparts2020.com","Cass Auto Supply Company","109 N. Broadway","Cassopolis","MI","49031","US","<MISSING>","2694458616","auto valueParts Store","41.91179482","-86.01268172","Mon-Fri: 8:00am-5:00pm, Sat-Sun: closed"
"https://autoparts2020.com","Auto Value Grand Haven","615 S. Beechtree St","Grand Haven","MI","49417","US","<MISSING>","6168447432","auto valueParts Store","43.05541317","-86.20576859","Mon-Fri: 7:30am-7:00pm, Sat: 8:00am-5:00pm, Sun: 10:00am-3:00pm"
"https://autoparts2020.com","Auto Value Muskegon","1350 Whitehall Rd.","Muskegon","MI","49445","US","<MISSING>","2317442426","auto valueParts Store","43.32517398","-86.26658012","Mon-Fri: 7:30am-6:00pm, Sat: 8:00am-4:00pm, Sun: closed"
"https://autoparts2020.com","Auto Value Fennville","303 W. Main","Fennville","MI","49408","US","<MISSING>","2695616451","auto valueParts Store","42.59388015","-86.10684872","Mon-Fri: 8:00am-5:30pm, Sat: 8:00am-1:00pm, Sun: closed"
"https://autoparts2020.com","Auto Value Muskegon South","907 E Broadway","Muskegon","MI","49444","US","<MISSING>","2317377766","auto valueParts Store","43.201422","-86.2218","Mon-Fri: 7:30am-5:30pm, Sat: 8:00am-Noon, Sun: closed"
"https://autoparts2020.com","Auto Value Holland South","963 S. Washington","Holland","MI","49423","US","<MISSING>","6163921886","auto valueParts Store","42.762447","-86.116378","Mon-Fri: 8:00am-5:30pm, Sat: 8:00am-Noon, Sun: closed"
"https://autoparts2020.com","Auto Value Spring Lake","14964 Cleveland","Spring Lake","MI","49456","US","<MISSING>","6168420484","auto valueParts Store","43.07405525","-86.15875193","Mon-Fri: 8:00am-5:30pm, Sat: 8:00am-4:00pm, Sun: closed"
"https://autoparts2020.com","Auto Value Ludington","3909 W Us-10","Ludington","MI","49431","US","<MISSING>","2318459045","auto valueParts Store","43.956197","-86.377358","Mon-Fri: 7:30am-6:00pm, Sat: 8:00am-5:00pm, Sun: 10:00am-3:00pm"
"https://autoparts2020.com","Auto Value Holland Main","488 Baypark Dr","Holland","MI","49424","US","<MISSING>","6163928571","auto valueParts Store","42.80424888","-86.08865261","Mon-Fri: 7:30am-7:00pm, Sat: 8:00am-5:00pm, Sun: closed"
"https://autoparts2020.com","Auto Value North Manchester","806 W. State Road 114","North Manchester","IN","46962","US","<MISSING>","2609829300","auto valueParts Store","40.999695","-85.781713","Mon-Fri: 8:00am-5:30pm, Sat: 8:00am-2:00pm, Sun: closed"
"https://autoparts2020.com","Auto Value Zeeland","10636 Chicago Dr","Zeeland","MI","49464","US","<MISSING>","6163930177","auto valueParts Store","42.80946396","-86.04343101","Mon-Fri: 7:30am-5:30pm, Sat: 8:00am-Noon, Sun: closed"
"https://autoparts2020.com","Auto Value Hamilton","3438 M-40 Hwy","Hamilton","MI","49419","US","<MISSING>","2697512331","auto valueParts Store","42.67013045","-85.99797249","Mon-Fri: 8:00am-6:00pm, Sat: 8:00am-4:00pm, Sun: closed"
"https://autoparts2020.com","Auto Value Marion","695 N. Miller","Marion","IN","46952","US","<MISSING>","7653845471","auto valueParts Store","40.568858","-85.694411","Mon-Fri: 7:30am-6:00pm, Sat: 8:00am-2:00pm, Sun: closed"
"https://autoparts2020.com","Bailey's Auto Parts","300 S Division","Bristol","IN","46507","US","<MISSING>","5748485798","auto valueParts Store","41.71871007","-85.81758398","Mon-Fri: 7:30am-6:00pm, Sat: 8:00am-4:00pm, Sun: closed"
"https://autoparts2020.com","Auto Value Manistee","281 River St.","Manistee","MI","49660","US","<MISSING>","2313982976","auto valueParts Store","44.24931999","-86.31758941","Mon-Fri: 7:30am-7:00pm, Sat: 8:00am-5:00pm, Sun: 10:00am-3:00pm"
"https://autoparts2020.com","Brian's Auto Parts","2515 Grant Highway","Manistee","MI","49660","US","<MISSING>","2317236288","auto valueParts Store","44.2125718","-86.30464554","Mon-Fri: 8:00am-5:00pm, Sat: 9:00am-3:00pm, Sun: closed"
"https://autoparts2020.com","Auto Value Gas City","223 E MAIN ST","Gas City","IN","46933","US","<MISSING>","7656742215","auto valueParts Store","40.488161","-85.611897","Mon-Fri: 8:00am-6:00pm, Sat: 8:00am-4:00pm, Sun: closed"
"https://autoparts2020.com","Auto Value North Webster","405 N. Main St","North Webster","IN","46555","US","<MISSING>","5748342835","auto valueParts Store","41.328828","-85.697604","Mon-Fri: 7:30am-5:30pm, Sat: 8:00am-1:00pm, Sun: closed"
"https://autoparts2020.com","Auto Value Allegan","322 Water St","Allegan","MI","49010","US","<MISSING>","2696735358","auto valueParts Store","42.528464","-85.848229","Mon-Fri: 8:00am-5:30pm, Sat: 8:00am-1:00pm, Sun: closed"
"https://autoparts2020.com","Coopersville Auto Sup  C","271 Main St.","Coopersville","MI","49404","US","<MISSING>","6168378163","auto valueParts Store","43.06384004","-85.93394279","Mon-Fri: 8:00am-5:30pm, Sat: 8:00am-2:00pm, Sun: closed"
"https://autoparts2020.com","Hesperia Automotive","106 N. Division","Hesperia","MI","49421","US","<MISSING>","2318541700","auto valueParts Store","43.57031743","-86.03917122","Mon-Fri: 8:00am-6:00pm, Sat: 8:00am-5:30pm, Sun: 10:00am-2:00pm"
"https://autoparts2020.com","White Pigeon Auto Parts","208 W. Chicago Rd.","White Pigeon","MI","49099","US","<MISSING>","2694832277","auto valueParts Store","41.79804955","-85.64501925","Mon-Fri: 7:00am-6:00pm, Sat: 8:00am-3:00pm, Sun: closed"
"https://autoparts2020.com","Auto Value Huntington #2","20 Commerce Drive","Huntington","IN","46750","US","<MISSING>","2603569800","auto valueParts Store","40.892675","-85.524258","Mon-Fri: 8:00am-5:30pm, Sat: 8:00am-Noon, Sun: closed"
"https://autoparts2020.com","Apc Fremont","412 W. Main St.","Fremont","MI","49412","US","<MISSING>","2319244520","auto valueParts Store","43.46696769","-85.9532547","Mon-Fri: 7:30am-7:00pm, Sat: 8:00am-5:00pm, Sun: 10:00am-3:00pm"
"https://autoparts2020.com","Kenowa Auto Value Jenison","6944  12th Ave","Jenison","MI","49428","US","<MISSING>","6164573860","auto valueParts Store","42.89477986","-85.81198322","Mon-Fri: 8:00am-5:30pm, Sat: 8:00am-2:00pm, Sun: closed"
"https://autoparts2020.com","Auto Value Huntington","400 Poplar St.","Huntington","IN","46750","US","<MISSING>","2603560900","auto valueParts Store","40.881504","-85.498114","Mon-Fri: 7:00am-6:00pm, Sat: 8:00am-2:00pm, Sun: closed"
"https://autoparts2020.com","Kenowa Auto Value Standale","0-217 Lake Michigan Dr","Grand Rapids","MI","49534","US","<MISSING>","6164534439","auto valueParts Store","42.97268536","-85.79120125","Mon-Fri: 8:00am-5:30pm, Sat: 8:00am-2:00pm, Sun: closed"
"https://autoparts2020.com","Auto Value Bear Lake","7737 Lake St","Bear Lake","MI","49614","US","<MISSING>","2318642661","auto valueParts Store","44.423516","-86.146503","Mon-Fri: 8:00am-6:00pm, Sat: 8:00am-4:00pm, Sun: closed"
"https://autoparts2020.com","Kenowa Auto Value Dorr","1815  142nd Ave","Dorr","MI","49323","US","<MISSING>","6166817278","auto valueParts Store","42.72522932","-85.72349594","Mon-Fri: 8:00am-6:00pm, Sat: 8:00am-2:00pm, Sun: closed"
"https://autoparts2020.com","Kenowa Auto Value G/Ville","3849 Oakes St SW","Grandville","MI","49418","US","<MISSING>","6165385240","auto valueParts Store","42.9131","-85.759725","Mon-Fri: 7:30am-5:00pm, Sat-Sun: closed"
"https://autoparts2020.com","Auto Value Kalamazoo","3617 Stadium St.","Kalamazoo","MI","49008","US","<MISSING>","2693721936","auto valueParts Store","42.27079908","-85.63426495","Mon-Fri: 7:30am-6:30pm, Sat: 8:00am-4:00pm, Sun: closed"
"https://autoparts2020.com","Kenowa Auto Value Byron Center","2665 84th St SW","Byron Center","MI","49315","US","<MISSING>","6168781549","auto valueParts Store","42.81245601","-85.7296026","Mon-Fri: 8:00am-6:00pm, Sat: 8:00am-2:00pm, Sun: closed"
"https://autoparts2020.com","Auto Value Kalamazoo-2","5630 S. Westnedge Ave Ste A","Portage","MI","49002","US","<MISSING>","2693882240","auto valueParts Store","42.235011","-85.590129","Mon-Sat: 7:30am-8:00pm, Sun: 9:00am-5:00pm"
"https://autoparts2020.com","Auto Value Portage","5330 Portage Rd","Portage","MI","49002","US","<MISSING>","2693819590","auto valueParts Store","42.239191","-85.5601221","Mon-Fri: 7:30am-6:30pm, Sat: 8:00am-4:00pm, Sun: closed"
"https://autoparts2020.com","Auto Masters","6521 S. Division","Grand Rapids","MI","49548","US","<MISSING>","6164554510","auto valueParts Store","42.8457512","-85.6643325","Mon-Fri: 8:00am-8:00pm, Sat: 8:00am-4:00pm, Sun: closed"
"https://autoparts2020.com","Auto Value S-G Grand Rapids","440 Kirtland S.W.","Grand Rapids","MI","49507","US","<MISSING>","6162451353","auto valueParts Store","42.92310473","-85.67725539","Mon-Fri: 7:00am-6:00pm, Sat: 8:00am-2:00pm, Sun: closed"
"https://autoparts2020.com","The Parts Store","607 S Orange","Albion","IN","46701","US","<MISSING>","2606367278","auto valueParts Store","41.390212","-85.424421","Mon-Fri: 8:00am-7:00pm, Sat: 8:00am-3:00pm, Sun: closed"
"https://autoparts2020.com","Maxi Automotive-Grand Rapids","3109 MADISON AVE SE","Grand Rapids","MI","49548","US","<MISSING>","6164522232","auto valueParts Store","42.9072744","-85.6566584","Mon-Fri: 8:00am-6:00pm, Sat: 8:00am-3:00pm, Sun: closed"
"https://autoparts2020.com","Auto Value Sparta","235 E. Division St.","Sparta","MI","49345","US","<MISSING>","6168877357","auto valueParts Store","43.16074742","-85.70409355","Mon-Fri: 7:30am-6:00pm, Sat: 8:00am-3:00pm, Sun: closed"
"https://autoparts2020.com","Auto Value Munising","224 W. Superior","Munising","MI","49862","US","<MISSING>","9063872440","auto valueParts Store","46.41200613","-86.65834153","Mon-Fri: 7:30am-6:00pm, Sat: 8:00am-5:00pm, Sun: 10:00am-3:00pm"
"https://autoparts2020.com","Auto Value Rockford","4165 14 Mile Road NE","Rockford","MI","49341","US","<MISSING>","6166960870","auto valueParts Store","43.1758343","-85.5666177","Mon-Fri: 8:00am-6:00pm, Sat: 8:00am-3:00pm, Sun: closed"
"https://autoparts2020.com","Kendallville Auto Value","101 S. Main Street","Kendallville","IN","46755","US","<MISSING>","2603471430","auto valueParts Store","41.44412964","-85.26566371","Mon-Fri: 8:00am-6:00pm, Sat: 8:00am-3:00pm, Sun: closed"
"https://autoparts2020.com","Auto Value Fort Wayne","6229 Cross Creek Blvd.","Fort Wayne","IN","46818","US","<MISSING>","2604893344","auto valueParts Store","41.135865","-85.167743","Mon-Fri: 7:30am-6:00pm, Sat: 8:00am-2:00pm, Sun: closed"
"https://autoparts2020.com","Auto Value Fort Wayne #2","919 Production Road","Fort Wayne","IN","46808","US","<MISSING>","2607396670","auto valueParts Store","41.12096","-85.155065","Mon-Fri: 8:00am-5:30pm, Sat: 8:00am-4:00pm, Sun: closed"
"https://autoparts2020.com","Auto Value Manistique","164 River St","Manistique","MI","49854","US","<MISSING>","9063412168","auto valueParts Store","45.96023706","-86.24813178","Mon-Fri: 7:30am-6:00pm, Sat: 8:00am-5:00pm, Sun: 10:00am-3:00pm"
"https://autoparts2020.com","Barone Hardware & Auto","119 EAST CHICAGO","Bronson","MI","49028","US","<MISSING>","5173694175","auto valueParts Store","41.8725854","-85.193801","Mon-Sat: 8:00am-5:00pm, Sun: closed"
"https://autoparts2020.com","Showboat Automotive","1450 W. Main St.","Lowell","MI","49331","US","<MISSING>","6168979231","auto valueParts Store","42.93129054","-85.35591602","Mon-Fri: 8:00am-7:00pm, Sat: 8:00am-5:30pm, Sun: 9:00am-3:00pm"
"https://autoparts2020.com","Goldsworthy's Auto Value","8860 S. M-37","Hastings","MI","49058","US","<MISSING>","2697218888","auto valueParts Store","42.52477472","-85.25446213","Mon-Fri: 8:00am-5:30pm, Sat: 8:00am-3:00pm, Sun: 9:00am-2:00pm"
"https://autoparts2020.com","Auto Value Big Rapids","613 N State St","Big Rapids","MI","49307","US","<MISSING>","2317962634","auto valueParts Store","43.70521927","-85.48423022","Mon-Fri: 8:00am-6:00pm, Sat: 8:00am-4:00pm, Sun: closed"
"https://autoparts2020.com","Auto Value Battle Creek","220 S Washington","Battle Creek","MI","49037","US","<MISSING>","2699652266","auto valueParts Store","42.318056","-85.19455","Mon-Fri: 7:30am-6:00pm, Sat: 8:00am-4:00pm, Sun: closed"
"https://autoparts2020.com","Auto Value Greenville","11159 W Carson City Rd Ste A","Greenville","MI","48838","US","<MISSING>","6167543661","auto valueParts Store","43.176404","-85.295666","Mon-Fri: 7:30am-6:00pm, Sat: 8:00am-5:00pm, Sun: closed"
"https://autoparts2020.com","Auto Value Lakeview","1227 S. Lincoln Avenue","Lakeview","MI","48850","US","<MISSING>","9893526101","auto valueParts Store","43.436704","-85.267778","Mon-Fri: 8:00am-5:30pm, Sat: 8:00am-3:00pm, Sun: closed"
"https://autoparts2020.com","Auto Value Coldwater","97 S. Michigan","Coldwater","MI","49036","US","<MISSING>","5172783921","auto valueParts Store","41.934222","-84.980912","Mon-Fri: 7:30am-7:00pm, Sat: 8:00am-5:00pm, Sun: 10:00am-3:00pm"
"https://autoparts2020.com","Courtesy Car & Truck","15400 M-60","Tekonsha","MI","49092","US","<MISSING>","5177675553","auto valueParts Store","42.10541841","-84.99005466","Mon-Fri: 7:00am-6:00pm, Sat: 8:00am-Noon, Sun: closed"
"https://autoparts2020.com","Auto Value Cadillac","843 Mitchell St.","Cadillac","MI","49601","US","<MISSING>","2317759795","auto valueParts Store","44.25882612","-85.40529013","Mon-Fri: 7:30am-7:00pm, Sat: 8:00am-5:00pm, Sun: 10:00am-3:00pm"
"https://autoparts2020.com","Auto Value Marshall","849 W. Michigan Ave.","Marshall","MI","49068","US","<MISSING>","2697812400","auto valueParts Store","42.27185053","-84.97417461","Mon-Fri: 7:30am-6:00pm, Sat: 8:00am-4:00pm, Sun: closed"
"https://autoparts2020.com","Class A Auto Parts","1180 South State St.","Ionia","MI","48846","US","<MISSING>","6165273190","auto valueParts Store","42.97055272","-85.06905814","Mon-Fri: 7:30am-7:00pm, Sat: 8:00am-5:30pm, Sun: closed"
"https://autoparts2020.com","Auto Value Quincy","123 W. Chicago","Quincy","MI","49082","US","<MISSING>","5176397133","auto valueParts Store","41.94116963","-84.89629269","Mon-Fri: 7:30am-5:30pm, Sat: 8:00am-4:00pm, Sun: closed"
"https://autoparts2020.com","Fox River Automotive","10876n County Rd 450","Seney","MI","49883","US","<MISSING>","9064993396","auto valueParts Store","46.40793","-86.05007","Mon-Fri: 7:30am-5:00pm, Sat: 9:00am-Noon, Sun: closed"
"https://autoparts2020.com","Auto Value Stanton","811 N. State St","Stanton","MI","48888","US","<MISSING>","9898314993","auto valueParts Store","43.299974","-85.08456125","Mon-Fri: 8:00am-5:30pm, Sat: 8:00am-3:00pm, Sun: closed"
"https://autoparts2020.com","Auto Value Remus","101 E. Wheatland","Remus","MI","49340","US","<MISSING>","9899673377","auto valueParts Store","43.59667887","-85.14515877","Mon-Fri: 8:00am-6:00pm, Sat: 8:00am-4:00pm, Sun: closed"
"https://autoparts2020.com","Irvin's Hardware & Auto","114 E. Main","Homer","MI","49245","US","<MISSING>","5175684441","auto valueParts Store","42.14580313","-84.80650149","Mon-Fri: 8:00am-6:00pm, Sat: 8:00am-3:00pm, Sun: closed"
"https://autoparts2020.com","Mcbain Auto Service","9438 S. Morey Rd.","Mcbain","MI","49657","US","<MISSING>","2318252729","auto valueParts Store","44.20176729","-85.21387722","Mon-Fri: 8:00am-5:30pm, Sat-Sun: closed"
"https://autoparts2020.com","Auto Value Lake City","133 South Main","Lake City","MI","49651","US","<MISSING>","2318397278","auto valueParts Store","44.33314996","-85.21429539","Mon-Fri: 8:00am-6:00pm, Sat: 8:00am-5:00pm, Sun: 10:00am-3:00pm"
"https://autoparts2020.com","Auto Value Albion","309 S Superior St","Albion","MI","49224","US","<MISSING>","5176299146","auto valueParts Store","42.2433878","-84.7528859","Mon-Fri: 7:30am-6:00pm, Sat: 8:00am-3:00pm, Sun: closed"
"https://autoparts2020.com","Performance Automotive","490 Olds St","Jonesville","MI","49250","US","<MISSING>","5178497500","auto valueParts Store","41.97793966","-84.66579552","Mon-Fri: 7:00am-7:00pm, Sat: 8:00am-5:00pm, Sun: 9:00am-5:00pm"
"https://autoparts2020.com","Montpelier Auto Center","326 W. Main","Montpelier","OH","43543","US","<MISSING>","4194854659","auto valueParts Store","41.58631862","-84.61100269","Mon-Fri: 9:00am-6:00pm, Sat: 10:00am-3:00pm, Sun: closed"
"https://autoparts2020.com","Auto Value Hillsdale","90 W. Carleton St.","Hillsdale","MI","49242","US","<MISSING>","5174374441","auto valueParts Store","41.92677128","-84.6406889","Mon-Fri: 7:30am-6:00pm, Sat: 8:00am-4:00pm, Sun: 10:00am-2:00pm"
"https://autoparts2020.com","Performance Automotive","30 Union St","Hillsdale","MI","49242","US","<MISSING>","5174374465","auto valueParts Store","41.9235783","-84.63103294","Mon-Fri: 7:00am-7:00pm, Sat: 8:00am-4:00pm, Sun: closed"
"https://autoparts2020.com","Auto Value Bryan","213 S Walnut","Bryan","OH","43506","US","<MISSING>","4196363108","auto valueParts Store","41.47270199","-84.54940796","Mon-Fri: 7:30am-5:30pm, Sat: 8:00am-2:00pm, Sun: closed"
"https://autoparts2020.com","Auto Value Kalkaska","501 W. Mile Rd.","Kalkaska","MI","49646","US","<MISSING>","2312589104","auto valueParts Store","44.74269","-85.18164","Mon-Fri: 7:30am-7:00pm, Sat: 8:00am-5:00pm, Sun: 9:00am-3:00pm"
"https://autoparts2020.com","Auto Value Grand Ledge","6298 East Saginaw Street","Grand Ledge","MI","48837","US","<MISSING>","5176279026","auto valueParts Store","42.74050394","-84.71673489","Mon-Fri: 8:00am-7:00pm, Sat: 8:00am-4:00pm, Sun: 11:00am-3:00pm"
"https://autoparts2020.com","Pioneer  Auto Center","905 S. State St.","Pioneer","OH","43554","US","<MISSING>","4197372395","auto valueParts Store","41.66787486","-84.55301821","Mon-Fri: 8:00am-8:00pm, Sat: 8:00am-5:00pm, Sun: 10:00am-4:00pm"
"https://autoparts2020.com","Auto Value Bellaire","207 N. Bridge","Bellaire","MI","49615","US","<MISSING>","2315336117","auto valueParts Store","44.97705458","-85.21013081","Mon-Fri: 7:30am-6:00pm, Sat: 8:00am-5:00pm, Sun: 10:00am-3:00pm"
"https://autoparts2020.com","Danny's Auto Value","N 6817 M 117","Engadine","MI","49827","US","<MISSING>","9064776232","auto valueParts Store","46.1195203","-85.5713247","Mon-Fri: 8:00am-5:30pm, Sat: 8:00am-3:00pm, Sun: closed"
"https://autoparts2020.com","Palmer Auto Parts","104 Main St","Farwell","MI","48622","US","<MISSING>","9895889007","auto valueParts Store","43.83542668","-84.86984059","Mon-Sat: 7:30am-6:00pm, Sun: 8:30am-1:00pm"
"https://autoparts2020.com","Auto Value Charlevoix","108 W. Carpenter","Charlevoix","MI","49720","US","<MISSING>","2315476529","auto valueParts Store","45.30801205","-85.25892914","Mon-Fri: 7:30am-6:00pm, Sat: 8:00am-5:00pm, Sun: 10:00am-3:00pm"
"https://autoparts2020.com","Mount Pleasant Automotive","703 N. Mission St.","Mount Pleasant","MI","48858","US","<MISSING>","9897724747","auto valueParts Store","43.610079","-84.767887","Mon-Fri: 7:30am-6:00pm, Sat: 8:00am-2:00pm, Sun: 10:00am-2:00pm"
"https://autoparts2020.com","Auto Value Mt. Pleasant","4595 E. Pickard St.","Mount Pleasant","MI","48858","US","<MISSING>","9897735938","auto valueParts Store","43.61206141","-84.75643158","Mon-Fri: 7:30am-7:00pm, Sat: 8:00am-3:00pm, Sun: 10:00am-3:00pm"
"https://autoparts2020.com","Clare Automotive","214 W. 4th Street","Clare","MI","48617","US","<MISSING>","9893867200","auto valueParts Store","43.81901547","-84.77205276","Mon-Fri: 8:00am-7:00pm, Sat: 8:00am-4:00pm, Sun: 10:00am-2:00pm"
"https://autoparts2020.com","Auto Value Lansing","431 N. Larch Street","Lansing","MI","48912","US","<MISSING>","5173467759","auto valueParts Store","42.73767867","-84.54467577","Mon-Fri: 8:00am-6:00pm, Sat: 8:00am-3:00pm, Sun: closed"
"https://autoparts2020.com","Auto Value Harrison","599 N. First St.","Harrison","MI","48625","US","<MISSING>","9895397191","auto valueParts Store","44.02474939","-84.80293572","Mon-Fri: 7:30am-7:00pm, Sat: 8:00am-5:00pm, Sun: 10:00am-3:00pm"
"https://autoparts2020.com","Pine River Automotive","720 Michigan Ave.","Alma","MI","48801","US","<MISSING>","9894665161","auto valueParts Store","43.37925729","-84.65073109","Mon-Fri: 8:00am-7:00pm, Sat: 8:00am-4:00pm, Sun: 10:00am-3:00pm"
"https://autoparts2020.com","Danny's Auto Value","7595 M123","Newberry","MI","49868","US","<MISSING>","9062939000","auto valueParts Store","46.340587","-85.509777","Mon-Fri: 8:00am-5:30pm, Sat: 8:00am-3:00pm, Sun: closed"
"https://autoparts2020.com","Performance Automotive Northwest","2710 Airport Rd","Jackson","MI","49202","US","<MISSING>","5177897151","auto valueParts Store","42.27503228","-84.45344804","Mon-Fri: 7:00am-8:00pm, Sat: 8:00am-5:00pm, Sun: 10:00am-4:00pm"
"https://autoparts2020.com","Auto Value Jackson #2","2203 Wildwood Ave","Jackson","MI","49202","US","<MISSING>","5177872234","auto valueParts Store","42.25441073","-84.44014549","Mon-Fri: 7:30am-6:00pm, Sat: 8:00am-3:00pm, Sun: closed"
"https://autoparts2020.com","Auto Value Jackson #4","317 W Prospect","Jackson","MI","49203","US","<MISSING>","5177872886","auto valueParts Store","42.2273896","-84.4145862","Mon-Fri: 8:00am-8:00pm, Sat: 8:00am-6:00pm, Sun: 9:00am-5:00pm"
"https://autoparts2020.com","A-1 Truck Parts - Alma","5900 State Rd","Alma","MI","48801","US","<MISSING>","9894634456","auto valueParts Store","43.3773322","-84.6071114","Mon-Fri: 7:00am-5:30pm, Sat: 8:00am-Noon, Sun: closed"
"https://autoparts2020.com","Auto Value Mason","804 North Cedar St.","Mason","MI","48854","US","<MISSING>","5176769300","auto valueParts Store","42.59127612","-84.4601028","Mon-Fri: 8:00am-6:00pm, Sat: 8:00am-4:00pm, Sun: closed"
"https://autoparts2020.com","Hudson Auto Center","123 W. Main (M34)","Hudson","MI","49247","US","<MISSING>","5174488986","auto valueParts Store","41.8547947","-84.35313329","Mon-Fri: 7:30am-5:30pm, Sat: 8:00am-1:00pm, Sun: closed"
"https://autoparts2020.com","Auto Value Ithaca","1414 E. Center St.","Ithaca","MI","48847","US","<MISSING>","9898754137","auto valueParts Store","43.29157601","-84.5847702","Mon-Fri: 7:30am-6:00pm, Sat: 8:00am-4:00pm, Sun: 10:00am-3:00pm"
"https://autoparts2020.com","Auto Value Jackson #1","546 N Mechanic St","Jackson","MI","49201","US","<MISSING>","5177820411","auto valueParts Store","42.25410992","-84.40635943","Mon-Fri: 7:30am-6:00pm, Sat: 8:00am-4:00pm, Sun: closed"
"https://autoparts2020.com","Auto Value East Lansing","4980 Park Lake Rd.","East Lansing","MI","48823","US","<MISSING>","5173377990","auto valueParts Store","42.72568559","-84.44690466","Mon-Fri: 8:00am-6:00pm, Sat: 8:00am-4:00pm, Sun: 11:00am-3:00pm"
"https://autoparts2020.com","Auto Value Jackson #3","3300 East Michigan Ave.","Jackson","MI","49202","US","<MISSING>","5177832627","auto valueParts Store","42.25675251","-84.36145753","Mon-Fri: 7:30am-8:00pm, Sat: 8:00am-7:00pm, Sun: 9:00am-5:00pm"
"https://autoparts2020.com","Auto Value Boyne City","9 East Street","Boyne City","MI","49712","US","<MISSING>","2315826272","auto valueParts Store","45.21391053","-85.01139164","Mon-Fri: 8:00am-6:00pm, Sat: 8:00am-4:00pm, Sun: 10:00am-2:00pm"
"https://autoparts2020.com","Coleman Auto & Bike","113 Railway Street","Coleman","MI","48618","US","<MISSING>","9894651131","auto valueParts Store","43.75773582","-84.59047794","Mon-Fri: 8:00am-6:00pm, Sat: 9:00am-4:00pm, Sun: closed"
"https://autoparts2020.com","Auto Value Houghton Lake","2997 W. Houghton Lake Dr.","Houghton Lake","MI","48629","US","<MISSING>","9893665411","auto valueParts Store","44.29831332","-84.69796206","Mon-Fri: 7:30am-7:00pm, Sat: 8:00am-5:00pm, Sun: 10:00am-3:00pm"
"https://autoparts2020.com","Speedway Auto Parts","11563 Brooklyn Road","Brooklyn","MI","49230","US","<MISSING>","5175923244","auto valueParts Store","42.0904585","-84.24697509","Mon-Fri: 8:00am-5:30pm, Sat: 8:30am-4:00pm, Sun: 10:00am-2:00pm"
"https://autoparts2020.com","Hubbard Auto Center","275 S. Main St.","Onsted","MI","49265","US","<MISSING>","5174672161","auto valueParts Store","42.00166861","-84.18904177","Mon-Fri: 7:30am-5:30pm, Sat: 8:30am-4:00pm, Sun: 10:00am-2:00pm"
"https://autoparts2020.com","Auto Value Grayling","311 James Street","Grayling","MI","49738","US","<MISSING>","9893486421","auto valueParts Store","44.6574159","-84.7093574","Mon-Fri: 8:00am-6:00pm, Sat: 8:00am-5:00pm, Sun: 10:00am-3:00pm"
"https://autoparts2020.com","Emmet Automtive Supplies","1829 US 31 North","Petoskey","MI","49770","US","<MISSING>","2313475980","auto valueParts Store","45.3895406","-84.91748116","Mon-Fri: 7:00am-6:00pm, Sat: 8:00am-2:00pm, Sun: closed"
"https://autoparts2020.com","Apc Beaverton","3329 S M-18","Beaverton","MI","48612","US","<MISSING>","9894357723","auto valueParts Store","43.895958","-84.503863","Mon-Fri: 7:30am-6:00pm, Sat: 8:00am-5:00pm, Sun: 10:00am-3:00pm"
"https://autoparts2020.com","Huggin's Auto Parts","402 W. Main St.","Ottawa","OH","45875","US","<MISSING>","4195235188","auto valueParts Store","41.01906989","-84.05150196","Mon-Fri: 8:00am-8:00pm, Sat: 8:00am-5:00pm, Sun: 11:00am-2:00pm"
"https://autoparts2020.com","Myers For Tires","801 E. Cedar","Gladwin","MI","48624","US","<MISSING>","9894264261","auto valueParts Store","43.980848","-84.477741","Mon-Fri: 8:00am-6:30pm, Sat: 8:00am-4:30pm, Sun: 10:00am-2:30pm"
"https://autoparts2020.com","Ray's Parts Center","530 North 5th St","Roscommon","MI","48653","US","<MISSING>","9892755336","auto valueParts Store","44.50130182","-84.59757559","Mon-Fri: 8:00am-5:00pm, Sat: 9:00am-2:00pm, Sun: closed"
"https://autoparts2020.com","Auto Value Sanford","281 W. Saginaw Rd","Sanford","MI","48657","US","<MISSING>","9896877311","auto valueParts Store","43.6716484","-84.3800106","Mon-Fri: 8:00am-6:00pm, Sat: 8:00am-3:00pm, Sun: closed"
"https://autoparts2020.com","Jim's Alpine Automotive Supply","520 S OTSEGO ","Gaylord","MI","49735","US","<MISSING>","9897326431","auto valueParts Store","45.01466225","-84.68232458","Mon-Fri: 7:00am-5:30pm, Sat: 8:00am-3:00pm, Sun: 10:00am-3:00pm"
"https://autoparts2020.com","Auto Value Gaylord","1789 S Otsego Ave","Gaylord","MI","49735","US","<MISSING>","9897322365","auto valueParts Store","45.005338","-84.677543","Mon-Fri: 7:30am-7:00pm, Sat: 8:00am-5:00pm, Sun: 10:00am-3:00pm"
"https://autoparts2020.com","Auto Value Adrian","2400 East US 223","Adrian","MI","49221","US","<MISSING>","5172634636","auto valueParts Store","41.87549114","-84.01499405","Mon-Fri: 8:00am-6:00pm, Sat: 8:00am-4:00pm, Sun: closed"
"https://autoparts2020.com","Sheffield Automotive","2048 N. St. Helen Rd.","St. Helen","MI","48656","US","<MISSING>","9893892200","auto valueParts Store","44.364253","-84.410217","Mon-Fri: 8:00am-5:30pm, Sat: 9:00am-4:00pm, Sun: 10:00am-2:00pm"
"https://autoparts2020.com","Corunna Auto Value","415 East McNeil St","Corunna","MI","48817","US","<MISSING>","9894723870","auto valueParts Store","42.97720232","-84.11328482","Mon-Fri: 7:30am-8:00pm, Sat: 7:30am-6:00pm, Sun: 9:00am-3:00pm"
"https://autoparts2020.com","Draves Auto Center","2626 N. Eastman Rd","Midland","MI","48642","US","<MISSING>","9898351000","auto valueParts Store","43.68469456","-84.2468977","Mon-Fri: 7:00am-7:00pm, Sat: 8:00am-4:00pm, Sun: 10:00am-2:00pm"
"https://autoparts2020.com","Auto Value Midland #1","1116 Jefferson","Midland","MI","48640","US","<MISSING>","9896310440","auto valueParts Store","43.61041458","-84.22681332","Mon-Fri: 7:30am-7:00pm, Sat: 8:00am-3:00pm, Sun: closed"
"https://autoparts2020.com","Auto Value Tecumseh","1111 W Chicago","Tecumseh","MI","49286","US","<MISSING>","5174241776","auto valueParts Store","42.0062964","-83.9620395","Mon-Fri: 8:00am-7:00pm, Sat: 8:00am-4:00pm, Sun: 10:00am-2:00pm"
"https://autoparts2020.com","Circle Auto Midland","1320 Washington","Midland","MI","48641","US","<MISSING>","9896310530","auto valueParts Store","43.6124086","-84.2173192","Mon-Fri: 7:30am-6:00pm, Sat: 7:30am-3:00pm, Sun: 10:00am-3:00pm"
"https://autoparts2020.com","Chesaning Oil & Gas","105 N Fourth","Chesaning","MI","48616","US","<MISSING>","9898453840","auto valueParts Store","43.18673629","-84.12902461","Mon-Fri: 8:00am-6:00pm, Sat: 8:00am-3:00pm, Sun: closed"
"https://autoparts2020.com","Union 76 Auto Parts","120 N Saginaw","St Charles","MI","48655","US","<MISSING>","9898659212","auto valueParts Store","43.2969209","-84.14074522","Mon-Fri: 8:00am-6:00pm, Sat: 9:00am-3:00pm, Sun: 10:00am-2:00pm"
"https://autoparts2020.com","Freeland Auto Parts","1060 E. Washington","Freeland","MI","48623","US","<MISSING>","9896955467","auto valueParts Store","43.524461","-84.110974","Mon-Fri: 8:00am-6:00pm, Sat: 9:00am-3:00pm, Sun: closed"
"https://autoparts2020.com","St. Ignace Auto","460 N. State","St. Ignace","MI","49781","US","<MISSING>","9066438038","auto valueParts Store","45.86903354","-84.72902941","Mon-Fri: 8:00am-5:30pm, Sat: 8:00am-1:00pm, Sun: closed"
"https://autoparts2020.com","Parts Peddler","2902 Baker Rd.","Dexter","MI","48130","US","<MISSING>","7344264688","auto valueParts Store","42.33237608","-83.88675213","Mon-Fri: 8:00am-6:00pm, Sat: 8:00am-4:00pm, Sun: closed"
"https://autoparts2020.com","West Branch Automotive Inc.","623 W. Houghton","West Branch","MI","48661","US","<MISSING>","9893450996","auto valueParts Store","44.27610365","-84.2428702","Mon-Fri: 7:30am-6:00pm, Sat: 7:30am-5:30pm, Sun: closed"
"https://autoparts2020.com","Auto Wares O.E.","6638 Weiss St","Saginaw","MI","48603","US","<MISSING>","9897936241","auto valueParts Store","43.44340233","-84.04739664","Mon-Fri: 7:30am-5:00pm, Sat-Sun: closed"
"https://autoparts2020.com","Bauman Bros Auto","4131 Peet Rd","Chesaning","MI","48616","US","<MISSING>","9898452060","auto valueParts Store","43.175275","-83.990784","Mon-Fri: 8:00am-8:00pm, Sat: 8:00am-6:00pm, Sun: 10:00am-4:00pm"
"https://autoparts2020.com","S-G Import Ann Arbor","3350 W. Liberty","Ann Arbor","MI","48103","US","<MISSING>","7347694900","auto valueParts Store","42.27554928","-83.79583058","Mon-Fri: 8:00am-5:30pm, Sat: 8:00am-3:00pm, Sun: closed"
"https://autoparts2020.com","Auto Value Bowling Green","525 Pearl St.","Bowling Green","OH","43402","US","<MISSING>","4193535841","auto valueParts Store","41.37120504","-83.65719795","Mon-Fri: 7:30am-6:00pm, Sat: 8:00am-3:00pm, Sun: closed"
"https://autoparts2020.com","Maxi Automotive Toledo","3404 N. Holland Sylvania Road","Toledo","OH","43615","US","<MISSING>","4198671927","auto valueParts Store","41.681564","-83.68271","Mon-Fri: 8:00am-5:30pm, Sat: 8:00am-3:00pm, Sun: closed"
"https://autoparts2020.com","Suburban Auto Supply","5083 S. Morrish Rd.","Swartz Creek","MI","48473","US","<MISSING>","8106354428","auto valueParts Store","42.95499139","-83.83181576","Mon-Fri: 8:00am-6:00pm, Sat: 8:00am-5:00pm, Sun: closed"
"https://autoparts2020.com","Maxi Automotive-Bay City","5916 S TWO MILE RD ","Bay City","MI","48706","US","<MISSING>","9896869606","auto valueParts Store","43.5708983","-83.9335621","Mon-Fri: 7:45am-5:00pm, Sat: 8:00am-1:00pm, Sun: closed"
"https://autoparts2020.com","Quality Auto Value Bridgeport","3516 Elmport St","Bridgeport","MI","48722","US","<MISSING>","9897774010","auto valueParts Store","43.363496","-83.88478509","Mon-Fri: 7:30am-6:00pm, Sat: 8:00am-3:00pm, Sun: closed"
"https://autoparts2020.com","Rose City Automotive","121 E Main St","Rose City","MI","48654","US","<MISSING>","9896852417","auto valueParts Store","44.42145349","-84.11125929","Mon-Fri: 7:30am-5:30pm, Sat: 7:30am-3:00pm, Sun: closed"
"https://autoparts2020.com","Auto Value Flushing","1420 Flushing Rd","Flushing","MI","48433","US","<MISSING>","8106593125","auto valueParts Store","43.05941902","-83.82179976","Mon-Fri: 7:00am-6:00pm, Sat: 8:00am-4:00pm, Sun: closed"
"https://autoparts2020.com","Dundee Auto Parts","180 Main St.","Dundee","MI","48131","US","<MISSING>","7345292600","auto valueParts Store","41.957546","-83.658175","Mon-Fri: 8:00am-6:00pm, Sat: 8:00am-5:00pm, Sun: 10:00am-3:00pm"
"https://autoparts2020.com","North Star Automotive","105 M-13","Pinconning","MI","48650","US","<MISSING>","9898794031","auto valueParts Store","43.84836647","-83.96647294","Mon-Fri: 8:00am-5:00pm, Sat: 8:00am-1:00pm, Sun: closed"
"https://autoparts2020.com","Auto Value Bay City","823 N Euclid","Bay City","MI","48706","US","<MISSING>","9896845400","auto valueParts Store","43.611637","-83.915351","Mon-Fri: 8:00am-5:30pm, Sat: 8:00am-2:00pm, Sun: closed"
"https://autoparts2020.com","A-1 Truck Parts - Bay City","3868 North Euclid","Bay City","MI","48706","US","<MISSING>","9896673627","auto valueParts Store","43.627804","-83.914639","Mon-Fri: 7:00am-5:30pm, Sat: 8:00am-Noon, Sun: closed"
"https://autoparts2020.com","Mio Auto Value","508 S Morenci","Mio","MI","48647","US","<MISSING>","9898263237","auto valueParts Store","44.6461551","-84.1302756","Mon-Fri: 8:00am-6:00pm, Sat: 8:00am-4:00pm, Sun: 9:00am-2:00pm"
"https://autoparts2020.com","Rudyard Auto Sales","11341 W. Main","Rudyard","MI","49780","US","<MISSING>","9064784321","auto valueParts Store","46.232367","-84.597772","Mon-Fri: 8:00am-6:00pm, Sat: 9:00am-1:00pm, Sun: closed"
"https://autoparts2020.com","Auto Value Standish","102 S MAIN ST","Standish","MI","48658","US","<MISSING>","9898469525","auto valueParts Store","43.98753473","-83.95932198","Mon-Fri: 8:00am-7:00pm, Sat: 8:00am-5:00pm, Sun: 10:00am-3:00pm"
"https://autoparts2020.com","Maxi Automotive-Brighton","7819 KENSINGTON CT","Brighton","MI","48116","US","<MISSING>","2485870020","auto valueParts Store","42.4916995","-83.6847017","Mon-Fri: 8:00am-6:00pm, Sat: 8:00am-3:00pm, Sun: closed"
"https://autoparts2020.com","Auto Value Fenton","1367 N. Leroy","Fenton","MI","48430","US","<MISSING>","8106294422","auto valueParts Store","42.81423826","-83.70752681","Mon-Fri: 8:00am-7:00pm, Sat: 8:00am-6:00pm, Sun: 10:00am-4:00pm"
"https://autoparts2020.com","Auto Value Milford","3501 W. Highland Road","Milford","MI","48380","US","<MISSING>","2488873771","auto valueParts Store","42.63549358","-83.66546564","Mon-Fri: 8:00am-7:00pm, Sat: 8:30am-6:00pm, Sun: 10:00am-4:00pm"
"https://autoparts2020.com","Northwest Automotive","G4255 Clio Rd","Flint","MI","48504","US","<MISSING>","8107876596","auto valueParts Store","43.067761","-83.733899","Mon-Fri: 8:00am-5:30pm, Sat: 9:00am-3:00pm, Sun: closed"
"https://autoparts2020.com","Auto Value Ypsilanti","10 N. Park St.","Ypsilanti","MI","48198","US","<MISSING>","7344824266","auto valueParts Store","42.24075052","-83.6062789","Mon-Fri: 8:00am-5:30pm, Sat: 8:00am-2:00pm, Sun: closed"
"https://autoparts2020.com","Auto Value Atlanta","12021 M-32 West","Atlanta","MI","49709","US","<MISSING>","9897854064","auto valueParts Store","45.006854","-84.15259035","Mon-Fri: 8:00am-6:00pm, Sat: 8:00am-5:00pm, Sun: 10:00am-3:00pm"
"https://autoparts2020.com","Willy D's Auto Parts","20468 State St","Onaway","MI","49765","US","<MISSING>","9897338031","auto valueParts Store","45.35772243","-84.2231132","Mon-Fri: 7:00am-6:00pm, Sat: 7:00am-4:00pm, Sun: 10:00am-1:00pm"
"https://autoparts2020.com","North Flint Automotive","6204 N. Saginaw Rd.","Flint","MI","48505","US","<MISSING>","8107898529","auto valueParts Store","43.06894968","-83.69394839","Mon-Fri: 8:00am-5:00pm, Sat: 8:00am-3:00pm, Sun: closed"
"https://autoparts2020.com","Quality Auto Value Frankenmuth","337 N Main St","Frankenmuth","MI","48734","US","<MISSING>","9896522601","auto valueParts Store","43.33817525","-83.73822851","Mon-Fri: 7:00am-6:00pm, Sat: 8:00am-3:00pm, Sun: 10:00am-3:00pm"
"https://autoparts2020.com","Auto Value Mt Morris","11625 N Saginaw","Mt Morris","MI","48458","US","<MISSING>","8106870900","auto valueParts Store","43.117527","-83.6947859","Mon-Fri: 7:30am-6:00pm, Sat: 8:00am-5:00pm, Sun: 10:00am-2:00pm"
"https://autoparts2020.com","Mid-Michigan Auto Parts","2153 Richfield Rd.","Flint","MI","48506","US","<MISSING>","8107360301","auto valueParts Store","43.050973","-83.661294","Mon-Fri: 8:00am-5:30pm, Sat: 8:00am-3:00pm, Sun: closed"
"https://autoparts2020.com","Reese Auto Supply","1994 S. Reese Rd.","Reese","MI","48757","US","<MISSING>","9898684695","auto valueParts Store","43.451506","-83.698683","Mon-Fri: 8:00am-6:00pm, Sat: 8:00am-1:00pm, Sun: closed"
"https://autoparts2020.com","Apc Monroe","1130 W. Seventh Street","Monroe","MI","48161","US","<MISSING>","7342418989","auto valueParts Store","41.91583275","-83.41546109","Mon-Fri: 8:00am-6:00pm, Sat: 8:00am-4:00pm, Sun: closed"
"https://autoparts2020.com","Glendale-Walled Lake","500 PONTIAC TRAIL","Walled Lake","MI","48390","US","<MISSING>","2486246000","auto valueParts Store","42.534821","-83.48264","Mon-Fri: 8:00am-6:00pm, Sat: 8:00am-3:00pm, Sun: closed"
"https://autoparts2020.com","Vassar Automotive","1194 Saginaw Road","Vassar","MI","48768","US","<MISSING>","9898238587","auto valueParts Store","43.37657798","-83.60117393","Mon-Fri: 7:00am-5:30pm, Sat: 8:00am-1:00pm, Sun: closed"
"https://autoparts2020.com","Shorts Autos, LLC","3560 N. M-65","Hale ","MI","48739","US","<MISSING>","9897283421","auto valueParts Store","44.38276","-83.804151","Mon-Fri: 8:00am-5:00pm, Sat: 8:00am-4:00pm, Sun: closed"
"https://autoparts2020.com","Ross Automotive Supply","1126 S STATE ST","Davison","MI","48423","US","<MISSING>","8106532183","auto valueParts Store","43.0162512","-83.5180299","Mon-Fri: 8:00am-6:00pm, Sat: 8:00am-4:00pm, Sun: closed"
"https://autoparts2020.com","Auto Value Romulus","36640 Goddard Rd.","Romulus","MI","48174","US","<MISSING>","7349411727","auto valueParts Store","42.222241","-83.398375","Mon-Fri: 8:30am-6:00pm, Sat: 8:30am-3:00pm, Sun: closed"
"https://autoparts2020.com","Church & Sons Auto Parts","9531 N. State Rd.","Otisville","MI","48463","US","<MISSING>","8106314544","auto valueParts Store","43.12547974","-83.51910921","Mon-Fri: 8:00am-5:00pm, Sat-Sun: closed"
"https://autoparts2020.com","Glendale-Livonia","33911 Plymouth Road","Livonia","MI","48150","US","<MISSING>","7344228412","auto valueParts Store","42.367311","-83.377244","Mon-Fri: 8:00am-6:00pm, Sat: 8:00am-5:00pm, Sun: closed"
"https://autoparts2020.com","Mazza Auto Parts #1","6357 Highland Rd","Waterford","MI","48327","US","<MISSING>","2486662612","auto valueParts Store","42.6591192","-83.4124468","Mon-Fri: 8:00am-6:00pm, Sat: 8:00am-5:00pm, Sun: 10:00am-2:00pm"
"https://autoparts2020.com","Larry's Auto Parts","30604 Ford Rd","Garden City","MI","48135","US","<MISSING>","7342612310","auto valueParts Store","42.32543578","-83.34250101","Mon-Fri: 8:00am-6:00pm, Sat: 8:00am-5:00pm, Sun: closed"
"https://autoparts2020.com","Glendale-Farmington","23281 Orchard Lake Rd","Farmington","MI","48336","US","<MISSING>","2484768400","auto valueParts Store","42.4627399","-83.357409","Mon-Fri: 8:00am-7:00pm, Sat: 8:00am-5:00pm, Sun: 10:00am-3:00pm"
"https://autoparts2020.com","Auto Value Middle Belt","6800 Middlebelt Rd.","Romulus","MI","48174","US","<MISSING>","7347223980","auto valueParts Store","42.257938","-83.329003","Mon-Fri: 7:00am-6:00pm, Sat: 8:00am-3:00pm, Sun: closed"
"https://autoparts2020.com","Mid 5 Auto Value","15600 Middlebelt ","Livonia","MI","48154","US","<MISSING>","7344271470","auto valueParts Store","42.4014503","-83.3343528","Mon-Fri: 8:00am-7:00pm, Sat: 8:00am-5:00pm, Sun: 10:00am-4:00pm"
"https://autoparts2020.com","Mazza Auto Parts #2","5720 Maybee Rd","Clarkston","MI","48346","US","<MISSING>","2486256650","auto valueParts Store","42.7195333","-83.3778465","Mon-Fri: 8:00am-6:00pm, Sat: 8:00am-5:00pm, Sun: closed"
"https://autoparts2020.com","Auto Value Farmington Hills","28210 W. 8 Mile Rd Ste B","Farmington Hills","MI","48336","US","<MISSING>","2484765210","auto valueParts Store","42.442318","-83.324465","Mon-Sat: 7:30am-8:00pm, Sun: 9:00am-6:00pm"
"https://autoparts2020.com","Auto Value Keego Harbor","2695 Orchard Lake","Keego Harbor","MI","48320","US","<MISSING>","2486824168","auto valueParts Store","42.6074592","-83.3395455","Mon-Fri: 8:00am-6:00pm, Sat: 8:00am-3:00pm, Sun: closed"
"https://autoparts2020.com","S-G Import Waterford","2580 Dixie Hwy","Waterford","MI","48328","US","<MISSING>","2486732550","auto valueParts Store","42.673051","-83.339108","Mon-Fri: 8:00am-5:30pm, Sat: 8:00am-3:00pm, Sun: closed"
"https://autoparts2020.com","Glendale-Southfield","24061 WEST 10 MILE RD","Southfield","MI","48033","US","<MISSING>","2483725000","auto valueParts Store","42.4717263","-83.280184","Mon-Fri: 8:00am-6:00pm, Sat: 8:00am-3:00pm, Sun: closed"
"https://autoparts2020.com","Auto Value Pontiac","23 E Walton Blvd","Pontiac","MI","48340","US","<MISSING>","2483337893","auto valueParts Store","42.67691425","-83.29997063","Mon-Fri: 8:00am-6:00pm, Sat: 8:00am-4:00pm, Sun: 10:00am-3:00pm"
"https://autoparts2020.com","Glendale-Dearborn Heights","21020  Van Born Rd","Dearborn Hgts","MI","48125","US","<MISSING>","3135658288","auto valueParts Store","42.2698119","-83.2430525","Mon-Fri: 8:00am-6:00pm, Sat: 8:00am-3:00pm, Sun: closed"
"https://autoparts2020.com","Wilhelm Auto Parts","720 White Rd.","Fremont","OH","43420","US","<MISSING>","4193322866","auto valueParts Store","41.35258461","-83.1414339","Mon-Fri: 7:30am-5:30pm, Sat: 7:30am-3:00pm, Sun: closed"
"https://autoparts2020.com","Auto Value Allen Park","19029 Ecorse Rd.","Allen Park","MI","48101","US","<MISSING>","3133860511","auto valueParts Store","42.2564729","-83.227242","Mon-Fri: 8:00am-6:00pm, Sat: 8:00am-3:00pm, Sun: closed"
"https://autoparts2020.com","Sebewaing Auto Value","8801 S. Unionville Rd.","Sebewaing","MI","48759","US","<MISSING>","9898839330","auto valueParts Store","43.7201873","-83.44802856","Mon-Fri: 7:30am-5:30pm, Sat: 8:00am-4:00pm, Sun: closed"
"https://autoparts2020.com","Quality Auto Value Caro","301 S State St","Caro","MI","48723","US","<MISSING>","9896733101","auto valueParts Store","43.4873669","-83.3980304","Mon-Fri: 7:00am-5:30pm, Sat: 8:00am-3:00pm, Sun: closed"
"https://autoparts2020.com","Auto Value Trenton","2431 Fort St","Trenton","MI","48183","US","<MISSING>","7346766060","auto valueParts Store","42.14542212","-83.18727316","Mon-Fri: 8:00am-6:00pm, Sat: 8:00am-3:00pm, Sun: closed"
"https://autoparts2020.com","Ross Automotive Supply","433 N Saginaw","Lapeer","MI","48446","US","<MISSING>","8106642929","auto valueParts Store","43.0559","-83.309345","Mon-Fri: 7:30am-6:00pm, Sat: 8:00am-5:00pm, Sun: closed"
"https://autoparts2020.com","Mayville Automotive","5981 Fulton","Mayville","MI","48744","US","<MISSING>","9898436601","auto valueParts Store","43.33721219","-83.35254139","Mon-Fri: 8:00am-6:00pm, Sat: 9:00am-4:00pm, Sun: closed"
"https://autoparts2020.com","Apc East Tawas","1070 West Lake","Tawas City","MI","48764","US","<MISSING>","9893623406","auto valueParts Store","44.255375","-83.533027","Mon-Fri: 7:30am-7:00pm, Sat: 8:00am-5:00pm, Sun: 10:00am-3:00pm"
"https://autoparts2020.com","Steve's Oxford Automotive","48 N. Washington St. ","Oxford","MI","48371","US","<MISSING>","2486282501","auto valueParts Store","42.82620359","-83.2659468","Mon-Fri: 8:00am-6:00pm, Sat: 8:00am-4:00pm, Sun: 10:00am-2:00pm"
"https://autoparts2020.com","Auto Value Southgate","15320 Fort St.","Southgate","MI","48195","US","<MISSING>","7342831100","auto valueParts Store","42.1964149","-83.1804289","Mon-Fri: 8:00am-6:00pm, Sat: 8:00am-3:00pm, Sun: closed"
"https://autoparts2020.com","Mazza Auto Parts Oxford","653 South Lapeer Rd","Oxford","MI","48371","US","<MISSING>","2489696666","auto valueParts Store","42.8166622","-83.258245","Mon-Fri: 8:00am-6:00pm, Sat-Sun: closed"
"https://autoparts2020.com","Auto Value Rogers City","489 N. 3rd Street","Rogers City","MI","49779","US","<MISSING>","9897342321","auto valueParts Store","45.42431","-83.821509","Mon-Fri: 7:30am-5:30pm, Sat: 8:00am-1:00pm, Sun: closed"
"https://autoparts2020.com","Deerfield Automotive","5728 N. Lapeer Rd.","North Branch","MI","48461","US","<MISSING>","8107934261","auto valueParts Store","43.20570373","-83.31309021","Mon-Fri: 8:30am-6:00pm, Sat: 8:30am-4:00pm, Sun: closed"
"https://autoparts2020.com","Glendale-Lake Orion","1140 SOUTH LAPEER ","Lake Orion","MI","48360","US","<MISSING>","2486936211","auto valueParts Store","42.7657785","-83.2411924","Mon-Fri: 8:00am-6:00pm, Sat: 8:00am-5:00pm, Sun: closed"
"https://autoparts2020.com","Auto Value Rochester Hills","3760 W Auburn","Rochester Hills","MI","48309","US","<MISSING>","2488521400","auto valueParts Store","42.63433759","-83.20521355","Mon-Fri: 8:00am-7:00pm, Sat: 8:00am-4:00pm, Sun: closed"
"https://autoparts2020.com","Joe's Auto Parts","1118 11 Mile","Royal Oak","MI","48067","US","<MISSING>","2485431006","auto valueParts Store","42.48965402","-83.15643299","Mon-Fri: 8:00am-6:00pm, Sat: 8:00am-3:00pm, Sun: closed"
"https://autoparts2020.com","Posen Auto Parts","10941 Michigan Ave","Posen","MI","49776","US","<MISSING>","9897662495","auto valueParts Store","45.24797204","-83.69895458","Mon-Fri: 8:00am-6:00pm, Sat: 8:00am-Noon, Sun: closed"
"https://autoparts2020.com","Maxi Automotive-Troy","938 RANKIN","Troy","MI","48083","US","<MISSING>","2486582000","auto valueParts Store","42.542536","-83.13234","Mon-Fri: 8:00am-6:00pm, Sat: 8:00am-3:00pm, Sun: closed"
"https://autoparts2020.com","Auto Value Sterling Heights","39755 Van Dyke Ave, Ste A","Sterling Heights","MI","48313","US","<MISSING>","5867958700","auto valueParts Store","42.586092","-83.031242","Mon-Sat: 7:30am-8:00pm, Sun: 9:00am-6:00pm"
"https://autoparts2020.com","Quality Auto Value Cass City","6497 Main St","Cass City ","MI","48726","US","<MISSING>","9898723210","auto valueParts Store","43.6009736","-83.17441005","Mon-Fri: 7:30am-5:30pm, Sat: 8:00am-3:00pm, Sun: closed"
"https://autoparts2020.com","Auto Value Oscoda","5031 N.  US 23","Oscoda","MI","48750","US","<MISSING>","9897393336","auto valueParts Store","44.426287","-83.330585","Mon-Fri: 8:00am-6:00pm, Sat: 8:00am-5:00pm, Sun: 10:00am-3:00pm"
"https://autoparts2020.com","Auto Value Ossineke","11935 US 23 South","Ossineke","MI","49766","US","<MISSING>","9894712911","auto valueParts Store","44.90255","-83.44237","Mon-Fri: 8:00am-6:00pm, Sat: 8:00am-3:00pm, Sun: closed"
"https://autoparts2020.com","Maxi Automotive-Shelby Twp","50679 Design Lane","Shelby Twp","MI","48315","US","<MISSING>","5866851600","auto valueParts Store","42.665944","-83.008662","Mon-Fri: 8:00am-6:00pm, Sat: 8:00am-3:00pm, Sun: closed"
"https://autoparts2020.com","Auto Value Romeo","67520 Van Dyke ","Washington","MI","48095","US","<MISSING>","5867529632","auto valueParts Store","42.790135","-83.012699","Mon-Fri: 7:00am-6:00pm, Sat: 8:00am-5:00pm, Sun: 10:00am-3:00pm"
"https://autoparts2020.com","Auto Value Marlette","3270 Main St.","Marlette","MI","48453","US","<MISSING>","9896357576","auto valueParts Store","43.320057","-83.07981","Mon-Fri: 6:00am-5:30pm, Sat: 6:00am-3:00pm, Sun: closed"
"https://autoparts2020.com","Auto Value Eastpointe","24600 Gratiot Ave  Ste A","Eastpointe","MI","48021","US","<MISSING>","5867740200","auto valueParts Store","42.476184","-82.949562",""
"https://autoparts2020.com","S-G Import Roseville","30520 Groesbeck Hwy","Roseville","MI","48066","US","<MISSING>","5867777777","auto valueParts Store","42.519057","-82.950013","Mon-Fri: 8:00am-5:30pm, Sat: 8:00am-3:00pm, Sun: closed"
"https://autoparts2020.com","George's Auto Parts","22420 Harper","St. Clair Shores","MI","48080","US","<MISSING>","5867745730","auto valueParts Store","42.461544","-82.90946","Mon-Fri: 8:00am-7:00pm, Sat: 8:00am-5:00pm, Sun: 10:00am-2:00pm"
"https://autoparts2020.com","Brown City Auto Parts","4140 Main St","Brown City","MI","48416","US","<MISSING>","8103462735","auto valueParts Store","43.2122315","-82.9851752","Mon-Fri: 7:30am-5:30pm, Sat: 8:00am-3:00pm, Sun: closed"
"https://autoparts2020.com","Cass Auto Parts","293 Cass Ave.","Mt. Clemens","MI","48043","US","<MISSING>","5864630581","auto valueParts Store","42.5978688","-82.89199239","Mon-Fri: 8:00am-5:30pm, Sat: 8:00am-1:00pm, Sun: closed"
"https://autoparts2020.com","Armada Auto Parts","23038 E Main St","Armada","MI","48005","US","<MISSING>","5867849161","auto valueParts Store","42.843947","-82.884117","Mon-Fri: 8:00am-6:00pm, Sat: 8:00am-5:00pm, Sun: 10:00am-3:00pm"
"https://autoparts2020.com","Huron Auto Parts","203 S. Port Cresent St","Bad Axe","MI","48413","US","<MISSING>","9892699755","auto valueParts Store","43.8008766","-83.0005042","Mon-Fri: 7:00am-6:00pm, Sat: 8:00am-3:00pm, Sun: closed"
"https://autoparts2020.com","A-1 Truck Parts - Bad Axe","920 N  Vandyke","Bad Axe","MI","48413","US","<MISSING>","9892696510","auto valueParts Store","43.81980816","-83.00062805","Mon-Fri: 7:00am-5:30pm, Sat: 8:00am-Noon, Sun: closed"
"https://autoparts2020.com","Ubly Auto Supply","2002 Main Street","Ubly","MI","48475","US","<MISSING>","9896582222","auto valueParts Store","43.710029","-82.938701","Mon-Fri: 8:00am-5:00pm, Sat: 8:00am-2:00pm, Sun: closed"
"https://autoparts2020.com","Auto Value Port Huron","2035   16th St","Port Huron","MI","48060","US","<MISSING>","8109908672","auto valueParts Store","42.962871","-82.4422908","Mon-Fri: 7:00am-6:00pm, Sat: 8:00am-3:00pm, Sun: closed"
