"locator_domain","location_name","street_address","city","state","zip","country_code","store_number","phone","location_type","latitude","longitude","hours_of_operation","page_url"
"https://www.tranesupply.com","Trane Supply - San Antonio East","4940 Eisenhauer Rd","San Antonio","TX","78218","US","<MISSING>","(210) 399-4176","<MISSING>","29.4959377","-98.394524","M-F, 7:30am - 5pm, Saturday, Closed, Sunday, Closed","https://www.tranesupply.com/store-locator?q=78154"
"https://www.tranesupply.com","Trane Supply - San Antonio","2469 Freedom Dr","San Antonio","TX","78217","US","<MISSING>","(210) 804-2223","<MISSING>","29.5318432","-98.4509538","M-F, 7:30am - 5pm, Saturday, Closed, Sunday, Closed","https://www.tranesupply.com/store-locator?q=78154"
"https://www.tranesupply.com","Bullock Trane Service Agency, Inc","715 N Hogan Street","Spokane","WA","99202","US","<MISSING>","(509) 535-9057","<MISSING>","47.6636199","-117.3889413","<MISSING>","https://www.tranesupply.com/store-locator?q=99031"
"https://www.tranesupply.com","Gensco, Inc. - Spokane","5808 East Sharp","Spokane","WA","99212","US","<MISSING>","<MISSING>","<MISSING>","47.6680514","-117.3269617","<MISSING>","https://www.tranesupply.com/store-locator?q=99031"
"https://www.tranesupply.com","Trane Supply - Albuquerque","5501 San Diego Ave NE","Albuquerque","NM","87113","US","<MISSING>","(505) 883-0630","<MISSING>","35.1936299","-106.5835443","M-F, 7am - 5pm, Saturday, Closed, Sunday, Closed","https://www.tranesupply.com/store-locator?q=87016"
"https://www.tranesupply.com","Gustave A. Larson Company - Rockford","3016 Eastrock Dr","Rockford","IL","61109","US","<MISSING>","<MISSING>","<MISSING>","42.2322551","-89.0116846","<MISSING>","https://www.tranesupply.com/store-locator?q=61027"
"https://www.tranesupply.com","Ferguson - Ohio HVAC - Cleveland","4620 Hinckley Industrial Pkwy","Cleveland","OH","44109","US","<MISSING>","<MISSING>","<MISSING>","41.4274961","-81.6809754","<MISSING>","https://www.tranesupply.com/store-locator?q=44140"
"https://www.tranesupply.com","Trane Supply - Valley View","6050 Towpath Dr","Valley View","OH","44125","US","<MISSING>","(216) 539-1551","<MISSING>","41.398267","-81.6200114","M-F, 7am - 5pm, Saturday, Closed, Sunday, Closed","https://www.tranesupply.com/store-locator?q=44140"
"https://www.tranesupply.com","Trane Supply - Cleveland","6050 TowPath Drive","Valley View","OH","44125","US","<MISSING>","(216) 539-1551","<MISSING>","41.398267","-81.6200114","<MISSING>","https://www.tranesupply.com/store-locator?q=44140"
"https://www.tranesupply.com","Ferguson - Ohio HVAC","10040 Aurora Hudson Rd","Streetsboro","OH","44241","US","<MISSING>","<MISSING>","<MISSING>","41.2637914","-81.376243","<MISSING>","https://www.tranesupply.com/store-locator?q=44140"
"https://www.tranesupply.com","Ferguson - Ohio HVAC - Akron","1450 Firestone Pwky","Akron","OH","44301","US","<MISSING>","<MISSING>","<MISSING>","41.0469264","-81.5297386","<MISSING>","https://www.tranesupply.com/store-locator?q=44140"
"https://www.tranesupply.com","Trane Supply - Baton Rouge","6316 Fieldstone Drive Address","Baton Rouge","LA","70809","US","<MISSING>","(225) 298-4280","<MISSING>","30.3907698","-91.0559234","M-F, 7:30am - 5pm, Saturday, Closed, Sunday, Closed","https://www.tranesupply.com/store-locator?q=70346"
"https://www.tranesupply.com","The Star Supply Co","118 Gando Dr","New Haven","CT","6513","US","<MISSING>","<MISSING>","<MISSING>","41.3328134","-72.8747454","<MISSING>","https://www.tranesupply.com/store-locator?q=11932"
"https://www.tranesupply.com","Trane Supply - New Haven","178 Wallace St","New Haven","CT","6511","US","<MISSING>","(860) 437-6208","<MISSING>","41.3089206","-72.9116354","M-F, 7am - 5pm, Saturday, Closed, Sunday, Closed","https://www.tranesupply.com/store-locator?q=11932"
"https://www.tranesupply.com","Trane Supply - Ronkonkoma","87 Raynor Ave","Ronkonkoma","NY","11779","US","<MISSING>","(516) 874-7357","<MISSING>","40.8022743","-73.1132924","M-F, 7:30am - 5pm, Saturday, Closed, Sunday, Closed","https://www.tranesupply.com/store-locator?q=11932"
"https://www.tranesupply.com","Wallwork Group - Ronkonkoma","80 13th Ave, Suite 6","Ronkonkoma","NY","11779","US","<MISSING>","<MISSING>","<MISSING>","40.795508","-73.147062","<MISSING>","https://www.tranesupply.com/store-locator?q=11932"
"https://www.tranesupply.com","Trane Supply - West Columbia","121 Midlands Court","West Columbia","SC","29169","US","<MISSING>","(803) 256-0727","<MISSING>","34.0089679","-81.1308967","M-F, 7:30am - 5pm, Saturday, Closed, Sunday, Closed","https://www.tranesupply.com/store-locator?q=29113"
"https://www.tranesupply.com","Trane Supply - Bloomington, IN","1458 S. Liberty Dr.,Bloomington"," IN","IN","47404","US","<MISSING>","(812) 334-7741","<MISSING>","39.1495635","-86.578046","M-F, 7:30am - 5pm, Saturday, Closed, Sunday, Closed","https://www.tranesupply.com/store-locator?q=47850"
"https://www.tranesupply.com","Lyon Conklin & Co - New Castle","200 Anchor Mill Rd","New Castle","DE","19720","US","<MISSING>","<MISSING>","<MISSING>","39.67277","-75.559137","<MISSING>","https://www.tranesupply.com/store-locator?q=08311"
"https://www.tranesupply.com","Seiberlich Trane HVAC Parts & Supplies","66 Southgate Blvd","New Castle","DE","19720","US","<MISSING>","(302) 356-2400","<MISSING>","39.6929083","-75.5719728","<MISSING>","https://www.tranesupply.com/store-locator?q=08311"
"https://www.tranesupply.com","Tozour Trane Parts Center - Pleasantville","900 W. Adams Avenue","Pleasantville","NJ","8232","US","<MISSING>","(609) 568-2999","<MISSING>","39.4008611","-74.533599","<MISSING>","https://www.tranesupply.com/store-locator?q=08311"
"https://www.tranesupply.com","Tozour Trane Parts Center - Moorestown","2 Executive Drive","Moorestown","NJ","8057","US","<MISSING>","(856) 380-6102","<MISSING>","39.9692","-74.9889","<MISSING>","https://www.tranesupply.com/store-locator?q=08311"
"https://www.tranesupply.com","Trane Supply - Broken Arrow","2205 N Willow Ave","Broken Arrow","OK","74012","US","<MISSING>","(855) 200-0072","<MISSING>","36.0743008","-95.8380893","M-F, 7am - 4:30pm, Saturday, Closed, Sunday, Closed","https://www.tranesupply.com/store-locator?q=74447"
"https://www.tranesupply.com","Trane Supply - Tulsa","2205-A N Willow Ave","Broken Arrow","OK","74012","US","<MISSING>","(918) 317-3158","<MISSING>","36.0743008","-95.8380893","<MISSING>","https://www.tranesupply.com/store-locator?q=74447"
"https://www.tranesupply.com","O Connor Co - Broken Arrow","1850 North Indianwood Ave","Broken Arrow","OK","74012","US","<MISSING>","<MISSING>","<MISSING>","36.0720248","-95.8273074","<MISSING>","https://www.tranesupply.com/store-locator?q=74447"
"https://www.tranesupply.com","Trane Supply - Tolleson","10115 W Van Buren","Tolleson","AZ","85353","US","<MISSING>","(623) 478-0073","<MISSING>","33.4491427","-112.2773348","M-F, 7am - 5pm, Saturday, Closed, Sunday, Closed","https://www.tranesupply.com/store-locator?q=85019"
"https://www.tranesupply.com","Trane Supply - Phoenix","21415 N 15th Lane","Phoenix","AZ","85027","US","<MISSING>","(623) 687-2256","<MISSING>","33.6810106","-112.0922558","M-F, 7am - 5pm, Saturday, Closed, Sunday, Closed","https://www.tranesupply.com/store-locator?q=85019"
"https://www.tranesupply.com","Trane Supply - Tempe","437 W Fairmont Dr","Tempe","AZ","85282","US","<MISSING>","(602) 252-9100","<MISSING>","33.3960168","-111.9469394","M-F, 7am - 5pm, Saturday, Closed, Sunday, Closed","https://www.tranesupply.com/store-locator?q=85019"
"https://www.tranesupply.com","Trane Supply - Mesa","720 East Auto Center Dr","Mesa","AZ","85204","US","<MISSING>","(602) 903-1446","<MISSING>","33.3851304","-111.8156835","M-F, 7am - 5pm, Saturday, Closed, Sunday, Closed","https://www.tranesupply.com/store-locator?q=85019"
"https://www.tranesupply.com","Trane Supply - Gilbert","220 E Germann Rd","Gilbert","AZ","85297","US","<MISSING>","(602) 903-1103","<MISSING>","33.2787886","-111.7842896","M-F, 7am - 5pm, Saturday, Closed, Sunday, Closed","https://www.tranesupply.com/store-locator?q=85019"
"https://www.tranesupply.com","Trane Supply - Augusta","804 Trane Rd.","Augusta","GA","30909","US","<MISSING>","(706) 481-9600","<MISSING>","33.4596195","-82.0869188","M-F, 7:30am - 5pm, Saturday, Closed, Sunday, Closed","https://www.tranesupply.com/store-locator?q=29831"
"https://www.tranesupply.com","Trane Supply - Tallahassee","109 Hamilton Park Dr","Tallahassee","FL","32304","US","<MISSING>","(850) 574-6044","<MISSING>","30.4377019","-84.3434456","M-F, 7:30am - 5pm, Saturday, Closed, Sunday, Closed","https://www.tranesupply.com/store-locator?q=32346"
"https://www.tranesupply.com","Trane Supply - Midlothian","14000 Justice Rd.","Midlothian","VA","23113","US","<MISSING>","(804) 744-1566","<MISSING>","37.4577279","-77.6306473","M-F, 7:30am - 4:30pm, Saturday, Closed, Sunday, Closed","https://www.tranesupply.com/store-locator?q=23040"
"https://www.tranesupply.com","Trane Supply - Charlottesville","1215 E Market St","Charlottesville","VA","22902","US","<MISSING>","(434) 327-1601","<MISSING>","38.0272025","-78.4683566","M-F, 7:30am - 4:30pm, Saturday, Closed, Sunday, Closed","https://www.tranesupply.com/store-locator?q=23040"
"https://www.tranesupply.com","Trane Supply - Ashland","10404 Lakeridge Pkwy","Ashland","VA","23005","US","<MISSING>","(804) 747-4774","<MISSING>","37.6938437","-77.4516571","M-F, 7am - 4:30pm, Saturday, Closed, Sunday, Closed","https://www.tranesupply.com/store-locator?q=23040"
"https://www.tranesupply.com","Trane Supply - Lynchburg","115 Bradley Dr","Lynchburg","VA","24501","US","<MISSING>","(434) 528-6364","<MISSING>","37.3756921","-79.1609822","M-F, 7:30am - 5pm, Saturday, Closed, Sunday, Closed","https://www.tranesupply.com/store-locator?q=23040"
"https://www.tranesupply.com","Trane Supply - Oklahoma City","3450 S MacArthur Blvd","Oklahoma City","OK","73179","US","<MISSING>","(405) 787-2354","<MISSING>","35.4301769","-97.6176062","M-F, 7am - 4:30pm, Saturday, Closed, Sunday, Closed","https://www.tranesupply.com/store-locator?q=73059"
"https://www.tranesupply.com","Hunton Distribution - Oklahoma City","357 North Harvard Ave","Oklahoma City","OK","73127","US","<MISSING>","<MISSING>","<MISSING>","35.4695253","-97.6040516","<MISSING>","https://www.tranesupply.com/store-locator?q=73059"
"https://www.tranesupply.com","Trane Supply - Wilkes Barre","1185 North Washington St","Wilkes Barre","PA","18705","US","<MISSING>","(570) 819-0337","<MISSING>","41.2637794","-75.8467813","M-F, 7am - 4:30pm, Saturday, Closed, Sunday, Closed","https://www.tranesupply.com/store-locator?q=17814"
"https://www.tranesupply.com","Lyon Conklin & Co - Pittson","140-144 Center Point Blvd","Pittson","PA","18640","US","<MISSING>","<MISSING>","<MISSING>","41.3029323","-75.7609509","<MISSING>","https://www.tranesupply.com/store-locator?q=17814"
"https://www.tranesupply.com","Trane Supply - Kennesaw","3850 Kennesaw 75 Pkwy","Kennesaw","GA","30144","US","<MISSING>","(770) 250-2020","<MISSING>","34.0465469","-84.6084989","M-F, 7:30am - 5pm, Saturday, Closed, Sunday, Closed","https://www.tranesupply.com/store-locator?q=30701"
"https://www.tranesupply.com","Trane Supply - Chattanooga","4157 South Creek Rd","Chattanooga","TN","37406","US","<MISSING>","(423) 296-9993","<MISSING>","35.0930332","-85.2432179","M-F, 7:30am - 5pm, Saturday, Closed, Sunday, Closed","https://www.tranesupply.com/store-locator?q=30701"
"https://www.tranesupply.com","Trane Supply - Roswell","1175 Northmeadow Parkway","Roswell","GA","30076","US","<MISSING>","(678) 392-2025","<MISSING>","34.0635119","-84.3127019","M-F, 7:30am - 5pm, Saturday, Closed, Sunday, Closed","https://www.tranesupply.com/store-locator?q=30701"
"https://www.tranesupply.com","Trane Supply - Marietta","3061 Kingston Ct SE","Marietta","GA","30067","US","<MISSING>","(770) 859-0707","<MISSING>","33.9260492","-84.4899054","M-F, 7am - 5pm, Saturday, Closed, Sunday, Closed","https://www.tranesupply.com/store-locator?q=30701"
"https://www.tranesupply.com","S. G. Torrice Company - Laconia","144 Lexington Dr.","Laconia","NH","3247","US","<MISSING>","<MISSING>","<MISSING>","43.5437498","-71.4914395","<MISSING>","https://www.tranesupply.com/store-locator?q=03227"
"https://www.tranesupply.com","S. G. Torrice Company - Tilton","61 Business Park Dr.","Tilton","NH","3276","US","<MISSING>","<MISSING>","<MISSING>","43.463784","-71.562231","<MISSING>","https://www.tranesupply.com/store-locator?q=03227"
"https://www.tranesupply.com","Ferguson Heating & Cooling - Indio","81925 Industrial Place","Indio","CA","92201","US","<MISSING>","<MISSING>","<MISSING>","33.7323734","-116.2342453","<MISSING>","https://www.tranesupply.com/store-locator?q=92239"
"https://www.tranesupply.com","Trane Supply - Florence","1541 N Schlitz Dr","Florence","SC","29501","US","<MISSING>","(843) 773-3352","<MISSING>","34.22353","-79.7933375","M-F, 7:30am - 5pm, Saturday, Closed, Sunday, Closed","https://www.tranesupply.com/store-locator?q=29525"
"https://www.tranesupply.com","Brady Parts Center - Fayetteville","626 Winslow Street","Fayetteville","NC","28306","US","<MISSING>","(910) 323-5131","<MISSING>","35.0437409","-78.8905853","<MISSING>","https://www.tranesupply.com/store-locator?q=29525"
"https://www.tranesupply.com","Gustave A. Larson Company - Bismarck","801 East Front Ave.","Bismarck","ND","58504","US","<MISSING>","<MISSING>","<MISSING>","46.8037472","-100.7797862","<MISSING>","https://www.tranesupply.com/store-locator?q=58529"
"https://www.tranesupply.com","Trane Supply - Flint","2410 Austins Parkway","Flint","MI","48507","US","<MISSING>","(810) 767-7800","<MISSING>","42.9911756","-83.7397964","M-F, 7am - 5pm, Saturday, Closed, Sunday, Closed","https://www.tranesupply.com/store-locator?q=48442"
"https://www.tranesupply.com","Munch's Supply Co., Inc. - Brighton","7867 Lochlin Dr","Brighton","MI","48116","US","<MISSING>","<MISSING>","<MISSING>","42.4927396","-83.6807167","<MISSING>","https://www.tranesupply.com/store-locator?q=48442"
"https://www.tranesupply.com","Munch's Supply Co., Inc. - Livonia","32713 Schoolcraft Rd","Livonia","MI","48150","US","<MISSING>","(734) 742-5350","<MISSING>","42.3815377","-83.3769811","<MISSING>","https://www.tranesupply.com/store-locator?q=48442"
"https://www.tranesupply.com","Trane Supply - Livonia","33725 Schoolcraft Rd","Livonia","MI","48150","US","<MISSING>","(734) 367-0700","<MISSING>","42.3815377","-83.3769811","M-F, 7am - 5pm, Saturday, Closed, Sunday, Closed","https://www.tranesupply.com/store-locator?q=48442"
"https://www.tranesupply.com","Trane Supply - Troy","251 Executive Dr","Troy","MI","48083","US","<MISSING>","(248) 577-0277","<MISSING>","42.5359067","-83.0999537","M-F, 7am - 5pm, Saturday, Closed, Sunday, Closed","https://www.tranesupply.com/store-locator?q=48442"
"https://www.tranesupply.com","Munch's Supply Co., Inc. - Madison Heights","30000 Stephenson Hwy","Madison Heights","MI","48071","US","<MISSING>","<MISSING>","<MISSING>","42.5128013","-83.1170629","<MISSING>","https://www.tranesupply.com/store-locator?q=48442"
"https://www.tranesupply.com","Trane Supply - Ann Arbor","1947 S Industrial Highway","Ann Arbor","MI","48104","US","<MISSING>","(734) 222-3600","<MISSING>","42.2583927","-83.7366625","M-F, 7am - 5pm, Saturday, Closed, Sunday, Closed","https://www.tranesupply.com/store-locator?q=48442"
"https://www.tranesupply.com","Trane Supply - Lansing","3350 Pinetree Road","Lansing","MI","48911","US","<MISSING>","(517) 913-3100","<MISSING>","42.6771741","-84.5028415","M-F, 7am - 5pm, Saturday, Closed, Sunday, Closed","https://www.tranesupply.com/store-locator?q=48442"
"https://www.tranesupply.com","Trane Supply - Fresno","3026 N Business Park Ave","Fresno","CA","93727","US","<MISSING>","(559) 650-1251","<MISSING>","36.7778783","-119.6849528","M-F, 7am - 5pm, Saturday, Closed, Sunday, Closed","https://www.tranesupply.com/store-locator?q=93619"
"https://www.tranesupply.com","Ferguson Heating & Cooling - Fresno","704 N. Laverne Ave","Fresno","CA","93727","US","<MISSING>","<MISSING>","<MISSING>","36.7480339","-119.675308","<MISSING>","https://www.tranesupply.com/store-locator?q=93619"
"https://www.tranesupply.com","Brady Parts Center - Greensboro, Triad Drive","8408 Triad Drive","Greensboro","NC","27409","US","<MISSING>","(336) 387-1735","<MISSING>","36.0948339","-79.9850963","<MISSING>","https://www.tranesupply.com/store-locator?q=27018"
"https://www.tranesupply.com","Brady Parts Center - Greensboro","3101 S. Elm-Eugene Street","Greensboro","NC","27406","US","<MISSING>","(336) 379-0267","<MISSING>","36.0272072","-79.7911919","<MISSING>","https://www.tranesupply.com/store-locator?q=27018"
"https://www.tranesupply.com","Woodson & Bozeman Inc - Memphis","1825 Thomas Rd","Memphis","TN","38134","US","<MISSING>","<MISSING>","<MISSING>","35.1753329","-89.8883323","<MISSING>","https://www.tranesupply.com/store-locator?q=38018"
"https://www.tranesupply.com","Trane Supply - Memphis","5222 Pleasant View Rd","Memphis","TN","38134","US","<MISSING>","(901) 345-6091","<MISSING>","35.1747324","-89.8892091","M-F, 7am - 5pm, Saturday, Closed, Sunday, Closed","https://www.tranesupply.com/store-locator?q=38018"
"https://www.tranesupply.com","Woodson & Bozeman Inc","3870 New Getwell Road","Memphis","TN","38118","US","<MISSING>","<MISSING>","<MISSING>","35.0427234","-89.9338999","<MISSING>","https://www.tranesupply.com/store-locator?q=38018"
"https://www.tranesupply.com","Trane Supply - Memphis South","4140 Getwell Rd","Memphis","TN","38118","US","<MISSING>","(901) 254-7348","<MISSING>","35.0349109","-89.9361877","M-F, 7:30am - 5pm, Saturday, Closed, Sunday, Closed","https://www.tranesupply.com/store-locator?q=38018"
"https://www.tranesupply.com","Trane Supply - Grand Rapids","1200 Monroe Ave NW","Grand Rapids","MI","49505","US","<MISSING>","(616) 234-5641","<MISSING>","42.985083","-85.6703763","M-F, 7am - 4:30pm, Saturday, Closed, Sunday, Closed","https://www.tranesupply.com/store-locator?q=49337"
"https://www.tranesupply.com","Munch's Supply Co., Inc. - Grand Rapids","5805 Weller Ct","Grand Rapids","MI","49509","US","<MISSING>","<MISSING>","<MISSING>","42.8589819","-85.7027057","<MISSING>","https://www.tranesupply.com/store-locator?q=49337"
"https://www.tranesupply.com","Munch's Supply Co., Inc. - Grand Rapids Michigan","5805 Weller Ct. Ste C","Wyoming","MI","49509","US","<MISSING>","(616) 559-0076","<MISSING>","42.8589819","-85.7027057","<MISSING>","https://www.tranesupply.com/store-locator?q=49337"
"https://www.tranesupply.com","A/C Systems Supply - Las Vegas","3036 S. Valley View Boulevard","Las Vegas","NV","89102","US","<MISSING>","(702) 257-2787","<MISSING>","36.1350589","-115.1898886","<MISSING>","https://www.tranesupply.com/store-locator?q=89025"
"https://www.tranesupply.com","Trane Supply - Naples","544 Commercial Boulevard","Naples","FL","34104","US","<MISSING>","(239) 384-5400","<MISSING>","26.1583103","-81.7531928","<MISSING>","https://www.tranesupply.com/store-locator?q=34113"
"https://www.tranesupply.com","Trane Supply - Fort Myers","6461 Topaz Court","Fort Myers","FL","33966","US","<MISSING>","(239) 275-9577","<MISSING>","26.5698516","-81.8476654","<MISSING>","https://www.tranesupply.com/store-locator?q=34113"
"https://www.tranesupply.com","Lyon Conklin & Co - Fairmont","126 Van Kirk Dr","Fairmont","WV","26554","US","<MISSING>","<MISSING>","<MISSING>","39.4335958","-80.2053767","<MISSING>","https://www.tranesupply.com/store-locator?q=43931"
"https://www.tranesupply.com","Trane Supply - Hartford","485 Ledyard St","Hartford","CT","6114","US","<MISSING>","(860) 541-1721","<MISSING>","41.7326325","-72.6688237","M-F, 7am - 5pm, Saturday, Closed, Sunday, Closed","https://www.tranesupply.com/store-locator?q=06073"
"https://www.tranesupply.com","Trane Supply - Springfield MA","90 Carando Dr","Springfield","MA","1104","US","<MISSING>","(413) 271-3001","<MISSING>","42.1456812","-72.534825","M-F, 7am - 4:30pm, Saturday, Closed, Sunday, Closed","https://www.tranesupply.com/store-locator?q=06073"
"https://www.tranesupply.com","Trane Supply - Jonesboro","2905 Caprice Pkwy","Jonesboro","AR","72404","US","<MISSING>","(870) 268-0281","<MISSING>","35.8011549","-90.6718938","M-F, 7am - 5pm, Saturday, Closed, Sunday, Closed","https://www.tranesupply.com/store-locator?q=72396"
"https://www.tranesupply.com","Munch's Supply Co., Inc. - Hobart","1951 NorthWind Parkway","Hobart","IN","46342","US","<MISSING>","(219) 400-0400","<MISSING>","41.51934","-87.24996","<MISSING>","https://www.tranesupply.com/store-locator?q=46390"
"https://www.tranesupply.com","Trane Supply - South Bend","3725 Cleveland Rd","South Bend","IN","46628","US","<MISSING>","(574) 282-4880","<MISSING>","41.7292213","-86.3019358","M-F, 7:30am - 5pm, Saturday, Closed, Sunday, Closed","https://www.tranesupply.com/store-locator?q=46390"
"https://www.tranesupply.com","Munch's Supply Co., Inc. - Alsip","5621 W. 115th St.","Alsip","IL","60803","US","<MISSING>","<MISSING>","<MISSING>","41.6614426","-87.7108527","<MISSING>","https://www.tranesupply.com/store-locator?q=46390"
"https://www.tranesupply.com","Trane Supply - Downtown Chicago","920 W Pershing Rd","Chicago","IL","60609","US","<MISSING>","(773) 886-1855","<MISSING>","41.823975","-87.648769","M-F, 6:30am - 4:30pm, Saturday, Closed, Sunday, Closed","https://www.tranesupply.com/store-locator?q=46390"
"https://www.tranesupply.com","Trane Supply - Tinley Park","7950 West 185th St","Tinley Park","IL","60477","US","<MISSING>","(708) 532-8004","<MISSING>","41.5556201","-87.811217","M-F, 6:30am - 4:30pm, Saturday, Closed, Sunday, Closed","https://www.tranesupply.com/store-locator?q=46390"
"https://www.tranesupply.com","Gensco, Inc. - Billings","465 South 18th St. West","Billings","MT","59102","US","<MISSING>","<MISSING>","<MISSING>","45.760339","-108.560744","<MISSING>","https://www.tranesupply.com/store-locator?q=59026"
"https://www.tranesupply.com","Armacost Trane - Billings","3311 4th Avenue North","Billings","MT","59101","US","<MISSING>","(406) 248-4802","<MISSING>","45.7816597","-108.5149938","<MISSING>","https://www.tranesupply.com/store-locator?q=59026"
"https://www.tranesupply.com","Trane Supply - Birmingham","1030 London Dr","Birmingham","AL","35211","US","<MISSING>","(205) 747-4100","<MISSING>","33.4411989","-86.8641231","M-F, 7am - 5pm, Saturday, Closed, Sunday, Closed","https://www.tranesupply.com/store-locator?q=35207"
"https://www.tranesupply.com","Air Engineers LLC - Corporate Office","7279 Cahaba Valley Road","Birmingham","AL","35242","US","<MISSING>","<MISSING>","<MISSING>","33.4321859","-86.6628069","<MISSING>","https://www.tranesupply.com/store-locator?q=35207"
"https://www.tranesupply.com","Gensco, Inc. - Yakima","2501 River Rd.","Yakima","WA","98902","US","<MISSING>","<MISSING>","<MISSING>","46.6183277","-120.5423324","<MISSING>","https://www.tranesupply.com/store-locator?q=98901"
"https://www.tranesupply.com","Ferguson Heating & Cooling - Cathedral City","36283 Plaza Drive","Cathedral City","CA","92234","US","<MISSING>","<MISSING>","<MISSING>","33.7850061","-116.4641082","<MISSING>","https://www.tranesupply.com/store-locator?q=92210"
"https://www.tranesupply.com","Munch's Supply Co., Inc. - Morris","2403 Sycamore Dr.","Morris","IL","60450","US","<MISSING>","<MISSING>","<MISSING>","41.3824089","-88.4242492","<MISSING>","https://www.tranesupply.com/store-locator?q=60927"
"https://www.tranesupply.com","Munch's Supply Co., Inc. - New Lenox","1901 Ferro Dr.","New Lenox","IL","60451","US","<MISSING>","<MISSING>","<MISSING>","41.518168","-88.0006823","<MISSING>","https://www.tranesupply.com/store-locator?q=60927"
"https://www.tranesupply.com","Butcher Distributors Inc - Jackson","931 Highway 80 West","Jackson","MS","39204","US","<MISSING>","<MISSING>","<MISSING>","32.2840574","-90.1986631","<MISSING>","https://www.tranesupply.com/store-locator?q=39183"
"https://www.tranesupply.com","Trane Supply - Ridgeland","851 Wilson Dr","Ridgeland","MS","39157","US","<MISSING>","(601) 718-5741","<MISSING>","32.405503","-90.1386026","M-F, 7:30am - 5pm, Saturday, Closed, Sunday, Closed","https://www.tranesupply.com/store-locator?q=39183"
"https://www.tranesupply.com","Trane Supply - Jackson, MS","851 Wilson Drive","Ridgeland ","MS","39157","US","<MISSING>","(601) 718-5741","<MISSING>","32.405503","-90.1386026","<MISSING>","https://www.tranesupply.com/store-locator?q=39183"
"https://www.tranesupply.com","Trane Supply - Roanoke","2301 Trane Dr","Roanoke","VA","24017","US","<MISSING>","(540) 342-3027","<MISSING>","37.3152677","-79.9835735","M-F, 7am - 5pm, Saturday, Closed, Sunday, Closed","https://www.tranesupply.com/store-locator?q=24945"
"https://www.tranesupply.com","Trane Supply - Sioux Falls","609 North Kiwanis Ave","Sioux Falls","SD","57104","US","<MISSING>","(605) 373-8167","<MISSING>","43.5554324","-96.7618623","M-F, 7:30am - 5pm, Saturday, Closed, Sunday, Closed","https://www.tranesupply.com/store-locator?q=57332"
"https://www.tranesupply.com","Gustave A. Larson Company - Sioux Falls","2500 West 5th St","Sioux Falls","SD","57104","US","<MISSING>","<MISSING>","<MISSING>","43.5526188","-96.7596568","<MISSING>","https://www.tranesupply.com/store-locator?q=57332"
"https://www.tranesupply.com","Lyon Conklin & Co - Hagerstown","955 B Sweeney Dr","Hagerstown","MD","21740","US","<MISSING>","<MISSING>","<MISSING>","39.6322062","-77.7440457","<MISSING>","https://www.tranesupply.com/store-locator?q=17257"
"https://www.tranesupply.com","Lyon Conklin & Co - Westminster","698 Corporate Center Dr","Westminster","MD","21157","US","<MISSING>","<MISSING>","<MISSING>","39.5935875","-76.9962818","<MISSING>","https://www.tranesupply.com/store-locator?q=17257"
"https://www.tranesupply.com","Trane Supply - Harrisburg","491 Blue Eagle Ave","Harrisburg","PA","17112","US","<MISSING>","(717) 541-1570","<MISSING>","40.3280549","-76.7875931","M-F, 7am - 4:30pm, Saturday, Closed, Sunday, Closed","https://www.tranesupply.com/store-locator?q=17257"
"https://www.tranesupply.com","Trane Supply - Montgomery","915 Lagoon Business Loop","Montgomery","AL","36117","US","<MISSING>","(334) 215-2950","<MISSING>","32.4044696","-86.2175846","M-F, 7am - 5pm, Saturday, Closed, Sunday, Closed","https://www.tranesupply.com/store-locator?q=36701"
"https://www.tranesupply.com","Air Engineers LLC - Montgomery","853 Lagoon Commercial Blvd","Montgomery","AL","36117","US","<MISSING>","<MISSING>","<MISSING>","32.4036268","-86.2090994","<MISSING>","https://www.tranesupply.com/store-locator?q=36701"
"https://www.tranesupply.com","Hunton Distribution - Westpark","10555 Westpark Drive","Houston","TX","77042","US","<MISSING>","(713) 266-3551","<MISSING>","29.7216177","-95.5542629","<MISSING>","https://www.tranesupply.com/store-locator?q=77484"
"https://www.tranesupply.com","Hunton Distribution - Houston","10555 Westpark Dr.","Houston","TX","77042","US","<MISSING>","<MISSING>","<MISSING>","29.7216177","-95.5542629","<MISSING>","https://www.tranesupply.com/store-locator?q=77484"
"https://www.tranesupply.com","Hunton Distribution - Central Greens","16335 Central Green Boulevard","Houston","TX","77032","US","<MISSING>","(281) 443-4502","<MISSING>","29.9564873","-95.3784148","<MISSING>","https://www.tranesupply.com/store-locator?q=77484"
"https://www.tranesupply.com","Hunton Distribution","16335 Central Greens Blvd.","Houston","TX","77032","US","<MISSING>","<MISSING>","<MISSING>","29.9564873","-95.3784148","<MISSING>","https://www.tranesupply.com/store-locator?q=77484"
"https://www.tranesupply.com","Gustave A. Larson Company - Madison","4537 Pflaum Rd.","Madison","WI","53718","US","<MISSING>","<MISSING>","<MISSING>","43.061681","-89.305145","<MISSING>","https://www.tranesupply.com/store-locator?q=53726"
"https://www.tranesupply.com","Trane Supply - Madison","4801 Voges Rd","Madison","WI","53718","US","<MISSING>","(608) 838-4499","<MISSING>","43.0402379","-89.2993827","M-F, 7am - 4:30pm, Saturday, Closed, Sunday, Closed","https://www.tranesupply.com/store-locator?q=53726"
"https://www.tranesupply.com","Gustave A. Larson Company - St. George","628 North 1300 E.","St. George","UT","84770","US","<MISSING>","<MISSING>","<MISSING>","37.1184963","-113.5560632","<MISSING>","https://www.tranesupply.com/store-locator?q=86022"
"https://www.tranesupply.com","Ferguson Heating & Cooling - San Luis Obispo","149 Granada Drive","San Luis Obispo","CA","93401","US","<MISSING>","<MISSING>","<MISSING>","35.2505495","-120.6696634","<MISSING>","https://www.tranesupply.com/store-locator?q=93402"
"https://www.tranesupply.com","Ferguson Heating & Cooling - Paso Robles","3550 LaCruz Way","Paso Robles","CA","93446","US","<MISSING>","<MISSING>","<MISSING>","35.5730921","-120.6932279","<MISSING>","https://www.tranesupply.com/store-locator?q=93402"
"https://www.tranesupply.com","Gustave A. Larson Company - Rochester","2530 Schuster Lane NW","Rochester","MN","55901","US","<MISSING>","<MISSING>","<MISSING>","44.0382817","-92.4995431","<MISSING>","https://www.tranesupply.com/store-locator?q=52155"
"https://www.tranesupply.com","Trane Supply - Springdale","616 Madison St.","Springdale","AR","72762","US","<MISSING>","(479) 717-7170","<MISSING>","36.1805866","-94.1898589","M-F, 7am - 5pm, Saturday, Closed, Sunday, Closed","https://www.tranesupply.com/store-locator?q=72740"
"https://www.tranesupply.com","Trane Supply - Tucson","2165 N Forbes Blvd, Suite 107","Tucson","AZ","85745","US","<MISSING>","(520) 748-9594","<MISSING>","32.2475452","-110.9950915","M-F, 7am - 5pm, Saturday, Closed, Sunday, Closed","https://www.tranesupply.com/store-locator?q=85736"
"https://www.tranesupply.com","Trane Supply - Gainesville","5431 SW 35th Dr","Gainesville","FL","32608","US","<MISSING>","(352) 225-5100","<MISSING>","29.5997432","-82.373751","M-F, 7:30am - 5pm, Saturday, Closed, Sunday, Closed","https://www.tranesupply.com/store-locator?q=32008"
"https://www.tranesupply.com","Butcher Distributors Inc - Corporate Office","101 Boyce Road","Broussard","LA","70518","US","<MISSING>","<MISSING>","<MISSING>","30.1658445","-91.977067","<MISSING>","https://www.tranesupply.com/store-locator?q=70518"
"https://www.tranesupply.com","Trane Supply - North Jacksonville","10592 Balmoral Circle E","Jacksonville","FL","32218","US","<MISSING>","(904) 646-6040","<MISSING>","30.4280146","-81.6520312","M-F, 7am - 5pm, Saturday, Closed, Sunday, Closed","https://www.tranesupply.com/store-locator?q=32204"
"https://www.tranesupply.com","Trane Supply - Jacksonville","8929 Western Way","Jacksonville","FL","32256","US","<MISSING>","(904) 596-0707","<MISSING>","30.2050292","-81.5596639","M-F, 7:30am - 5pm, Saturday, Closed, Sunday, Closed","https://www.tranesupply.com/store-locator?q=32204"
"https://www.tranesupply.com","Trane Supply - Albany","51 Railroad Ave","Albany","NY","12205","US","<MISSING>","(518) 453-6005","<MISSING>","42.6955423","-73.8203168","M-F, 7am - 5pm, Saturday, Closed, Sunday, Closed","https://www.tranesupply.com/store-locator?q=13788"
"https://www.tranesupply.com","Wallwork Group - Albany","10 Interstate Ave","Albany","NY","12205","US","<MISSING>","<MISSING>","<MISSING>","42.6942192","-73.8131418","<MISSING>","https://www.tranesupply.com/store-locator?q=13788"
"https://www.tranesupply.com","Trane Supply - La Vergne","355 Mason Road","La Vergne","TN","37086","US","<MISSING>","(615) 678-0656","<MISSING>","35.9955186","-86.5826894","M-F, 7:30am - 5pm, Saturday, Closed, Sunday, Closed","https://www.tranesupply.com/store-locator?q=37149"
"https://www.tranesupply.com","Trane Supply - Nashville","601 Grassmere Park","Nashville","TN","37211","US","<MISSING>","(615) 242-2300","<MISSING>","36.0871602","-86.7514337","M-F, 7am - 5pm, Saturday, Closed, Sunday, Closed","https://www.tranesupply.com/store-locator?q=37149"
"https://www.tranesupply.com","Trane Supply - Nashville DSO","1654 Elm Hill Pike","Nashville","TN","37210","US","<MISSING>","(615) 932-6363","<MISSING>","36.1455772","-86.7094375","M-F, 7am - 5pm, Saturday, Closed, Sunday, Closed","https://www.tranesupply.com/store-locator?q=37149"
"https://www.tranesupply.com","Trane Supply - Columbus OH","2300 City Gate Dr","Columbus","OH","43219","US","<MISSING>","(614) 473-3131","<MISSING>","40.0166319","-82.9204056","M-F, 7am - 4:30pm, Saturday, Closed, Sunday, Closed","https://www.tranesupply.com/store-locator?q=43201"
"https://www.tranesupply.com","Trane Supply - Columbus OH West","2188 North Wilson Rd","Columbus","OH","43228","US","<MISSING>","(614) 641-4642","<MISSING>","39.9982579","-83.1163023","M-F, 7am - 4:30pm, Saturday, Closed, Sunday, Closed","https://www.tranesupply.com/store-locator?q=43201"
"https://www.tranesupply.com","Trane Supply - Grand Junction","2387 River Rd","Grand Junction","CO","81505","US","<MISSING>","(970) 242-4438","<MISSING>","39.0921177","-108.6122878","M-F, 7am - 4pm, Saturday, Closed, Sunday, Closed","https://www.tranesupply.com/store-locator?q=81522"
"https://www.tranesupply.com","Trane Supply - East Syracuse","6211 E Molloy Rd","East Syracuse","NY","13057","US","<MISSING>","(315) 432-9119","<MISSING>","43.1003466","-76.0893167","M-F, 7:30am - 5pm, Saturday, Closed, Sunday, Closed","https://www.tranesupply.com/store-locator?q=13815"
"https://www.tranesupply.com","Gerster Equipment Co - Syracuse","101 Oliva Dr.","Syracuse","NY","13211","US","<MISSING>","<MISSING>","<MISSING>","43.098222","-76.1163169","<MISSING>","https://www.tranesupply.com/store-locator?q=13815"
"https://www.tranesupply.com","Trane Supply - Knoxville","1609 Amherst Rd","Knoxville","TN","37909","US","<MISSING>","(865) 584-6412","<MISSING>","35.9587288","-84.0204601","M-F, 7am - 5pm, Saturday, Closed, Sunday, Closed","https://www.tranesupply.com/store-locator?q=37922"
"https://www.tranesupply.com","Specialty A/C Products Inc - Santa Rosa","Post Office Box 6025","Santa Rosa","CA","95406","US","<MISSING>","<MISSING>","<MISSING>","38.44","-122.71","<MISSING>","https://www.tranesupply.com/store-locator?q=95472"
"https://www.tranesupply.com","Specialty A/C Products Inc - Benicia","5250 East 2nd Street","Benicia","CA","94510","US","<MISSING>","<MISSING>","<MISSING>","38.0809568","-122.1196006","<MISSING>","https://www.tranesupply.com/store-locator?q=95472"
"https://www.tranesupply.com","Ferguson - Ohio HVAC - Toledo","399 Phillips Ave","Toledo","OH","43612","US","<MISSING>","<MISSING>","<MISSING>","41.6893748","-83.5563992","<MISSING>","https://www.tranesupply.com/store-locator?q=49286"
"https://www.tranesupply.com","Trane Supply - Holland","1001 Hamilton Dr","Holland","OH","43528","US","<MISSING>","(419) 491-2278","<MISSING>","41.6218575","-83.6960822","M-F, 7am - 4:30pm, Saturday, Closed, Sunday, Closed","https://www.tranesupply.com/store-locator?q=49286"
"https://www.tranesupply.com","Trane Supply - Toledo","1001 Hamilton Drive","Holland","OH","43528","US","<MISSING>","(419) 491-2278","<MISSING>","41.6218575","-83.6960822","<MISSING>","https://www.tranesupply.com/store-locator?q=49286"
"https://www.tranesupply.com","Ferguson - Ohio HVAC - Maumee","1435 Holland Rd","Maumee","OH","43532","US","<MISSING>","<MISSING>","<MISSING>","41.5784706","-83.6698151","<MISSING>","https://www.tranesupply.com/store-locator?q=49286"
"https://www.tranesupply.com","Trane Supply - Savannah","3609 Ogeechee Rd","Savannah","GA","31405","US","<MISSING>","(912) 965-0309","<MISSING>","32.0506605","-81.1442541","M-F, 7:30am - 5pm, Saturday, Closed, Sunday, Closed","https://www.tranesupply.com/store-locator?q=29918"
"https://www.tranesupply.com","Gensco, Inc. - Eugene","1010 Tyinn St.","Eugene","OR","97402","US","<MISSING>","<MISSING>","<MISSING>","44.0493959","-123.1377051","<MISSING>","https://www.tranesupply.com/store-locator?q=97327"
"https://www.tranesupply.com","Trane Supply - Harahan","530 Elmwood Park Blvd","Harahan","LA","70123","US","<MISSING>","(504) 731-0837","<MISSING>","29.9499425","-90.1851957","<MISSING>","https://www.tranesupply.com/store-locator?q=70068"
"https://www.tranesupply.com","Trane Supply - New Orleans","5400 Pepsi St Suite H","Harahan","LA","70123","US","<MISSING>","(504) 731-0837","<MISSING>","29.9499425","-90.1851957","<MISSING>","https://www.tranesupply.com/store-locator?q=70068"
"https://www.tranesupply.com","Butcher Distributors Inc - New Orleans","141 Evans Rd","New Orleans","LA","70123","US","<MISSING>","<MISSING>","<MISSING>","29.943755","-90.1809616","<MISSING>","https://www.tranesupply.com/store-locator?q=70068"
"https://www.tranesupply.com","Trane Supply - Plainfield","2363 Perry Rd","Plainfield","IN","46168","US","<MISSING>","(317) 707-3500","<MISSING>","39.6765111","-86.3601692","M-F, 7:30am - 5pm, Saturday, Closed, Sunday, Closed","https://www.tranesupply.com/store-locator?q=47448"
"https://www.tranesupply.com","Trane Supply - Indianapolis","5355 N Post Rd","Indianapolis","IN","46216","US","<MISSING>","(317) 715-4999","<MISSING>","39.8510781","-86.0091971","M-F, 7:30am - 5pm, Saturday, Closed, Sunday, Closed","https://www.tranesupply.com/store-locator?q=47448"
"https://www.tranesupply.com","Newport News Parts","507 Muller Lane","Newport News","VA","23606","US","<MISSING>","(757) 369-9400","<MISSING>","37.0935612","-76.4898003","<MISSING>","https://www.tranesupply.com/store-locator?q=23061"
"https://www.tranesupply.com","Virginia Beach Parts","230 Clearfield Ave.","Virginia Beach","VA","23462","US","<MISSING>","(757) 490-2390","<MISSING>","36.8450515","-76.1641827","<MISSING>","https://www.tranesupply.com/store-locator?q=23061"
"https://www.tranesupply.com","Chesapeake Parts","1104 Cavalier Blvd.","Chesapeake","VA","23323","US","<MISSING>","(757) 558-8585","<MISSING>","36.7787156","-76.3656586","<MISSING>","https://www.tranesupply.com/store-locator?q=23061"
"https://www.tranesupply.com","Gustave A. Larson Company - Midvale","7023 S. 700 W","Midvale","UT","84047","US","<MISSING>","<MISSING>","<MISSING>","40.6237317","-111.9094913","<MISSING>","https://www.tranesupply.com/store-locator?q=84060"
"https://www.tranesupply.com","Trane Supply - Salt Lake City","2817 S 1030 West","Salt Lake City","UT","84119","US","<MISSING>","(801) 486-8808","<MISSING>","40.7112886","-111.9211357","M-F, 7am - 5pm, Saturday, Closed, Sunday, Closed","https://www.tranesupply.com/store-locator?q=84060"
"https://www.tranesupply.com","Gustave A. Larson Company - Orem","1153N 1430W","Orem","MN","84057","US","<MISSING>","<MISSING>","<MISSING>","40.3178273","-111.7306309","<MISSING>","https://www.tranesupply.com/store-locator?q=84060"
"https://www.tranesupply.com","Trane Supply - El Paso","26 Walter Jones Blvd, Suite E","El Paso","TX","79906","US","<MISSING>","(915) 593-3484","<MISSING>","31.8182542","-106.3926468","M-F, 7am - 5pm, Saturday, Closed, Sunday, Closed","https://www.tranesupply.com/store-locator?q=88047"
"https://www.tranesupply.com","Trane Supply - Daytona Beach","970 N Clyde Morris Blvd","Daytona Beach","FL","32117","US","<MISSING>","(386) 274-0270","<MISSING>","29.2142789","-81.0731372","M-F, 7:30am - 5pm, Saturday, Closed, Sunday, Closed","https://www.tranesupply.com/store-locator?q=32174"
"https://www.tranesupply.com","Trane Supply - North Orlando","1151 N Keller Rd","Orlando","FL","32810","US","<MISSING>","(407) 660-1212","<MISSING>","28.6396055","-81.3992204","M-F, 7:30am - 5pm, Saturday, Closed, Sunday, Closed","https://www.tranesupply.com/store-locator?q=32174"
"https://www.tranesupply.com","Trane Supply - Port St. Lucie","400 NW Enterprise Dr","Port St. Lucie","FL","34986","US","<MISSING>","(772) 621-3200","<MISSING>","27.3241841","-80.4109009","M-F, 7:30am - 5pm, Saturday, Closed, Sunday, Closed","https://www.tranesupply.com/store-locator?q=34974"
"https://www.tranesupply.com","Trane Supply - Collinsville","1605 Eastport Plaza Dr","Collinsville","IL","62234","US","<MISSING>","(618) 606-9009","<MISSING>","38.6842686","-90.0234666","M-F, 7am - 4:30pm, Saturday, Closed, Sunday, Closed","https://www.tranesupply.com/store-locator?q=62088"
"https://www.tranesupply.com","Trane Supply - Earth City","3663 Corporate Trail Dr","Earth City","MO","63045","US","<MISSING>","(314) 513-9322","<MISSING>","38.7594411","-90.4632987","M-F, 7am - 4:30pm, Saturday, Closed, Sunday, Closed","https://www.tranesupply.com/store-locator?q=62088"
"https://www.tranesupply.com","Trane Supply - Fenton","125 Matrix Commons Dr","Fenton","MO","63026","US","<MISSING>","(636) 343-5577","<MISSING>","38.5386116","-90.4521271","M-F, 7am - 4:30pm, Saturday, Closed, Sunday, Closed","https://www.tranesupply.com/store-locator?q=62088"
"https://www.tranesupply.com","Gensco, Inc. - Boise","11771 President Dr.","Boise","ID","83713","US","<MISSING>","<MISSING>","<MISSING>","43.6106017","-116.3290178","<MISSING>","https://www.tranesupply.com/store-locator?q=83650"
"https://www.tranesupply.com","Trane Supply - Boise","351 N Mitchell St","Boise","ID","83704","US","<MISSING>","(208) 373-2100","<MISSING>","43.6079108","-116.305019","M-F, 7am - 5pm, Saturday, Closed, Sunday, Closed","https://www.tranesupply.com/store-locator?q=83650"
"https://www.tranesupply.com","Trane Supply - Bowling Green","141 Center Street","Bowling Green","KY","42101","US","<MISSING>","(270) 846-7611","<MISSING>","37.0019647","-86.4330442","<MISSING>","https://www.tranesupply.com/store-locator?q=42354"
"https://www.tranesupply.com","Trane Supply - Evansville","1024 East Sycamore Street","Evansville","IN","47714","US","<MISSING>","(812) 421-8700","<MISSING>","37.9758132","-87.5463232","<MISSING>","https://www.tranesupply.com/store-locator?q=47542"
"https://www.tranesupply.com","Trane Supply - Dallas","1617 Hutton Drive","Dallas","TX","75006","US","<MISSING>","(972) 620-1161","<MISSING>","32.7874564","-96.7490574","M-F, 7:30am - 5pm, Saturday, Closed, Sunday, Closed","https://www.tranesupply.com/store-locator?q=75142"
"https://www.tranesupply.com","Trane Supply - Garland","10665 Sanden Dr. Suite 180","Garland","TX","75238","US","<MISSING>","(972) 892-3900","<MISSING>","32.889759","-96.691048","<MISSING>","https://www.tranesupply.com/store-locator?q=75142"
"https://www.tranesupply.com","Trane Supply - Downtown Dallas","5200 E. Grand Avenue Suite 520","Dallas","TX","75223","US","<MISSING>","(214) 932-1221","<MISSING>","32.8940279","-96.6939914","M-F, 7:30am - 5pm, Saturday, Closed, Sunday, Closed","https://www.tranesupply.com/store-locator?q=75142"
"https://www.tranesupply.com","Trane Supply - McKinney","115 Industrial Blvd","McKinney","TX","75069","US","<MISSING>","(469) 795-0075","<MISSING>","33.179617","-96.616921","M-F, 7:30am - 5pm, Saturday, Closed, Sunday, Closed","https://www.tranesupply.com/store-locator?q=75142"
"https://www.tranesupply.com","Trane Supply - Arlington","4905 New York Ave","Arlington","TX","76018","US","<MISSING>","(817) 524-4521","<MISSING>","32.6686716","-97.078922","M-F, 7:30am - 5pm, Saturday, Closed, Sunday, Closed","https://www.tranesupply.com/store-locator?q=75142"
"https://www.tranesupply.com","Trane Supply - Downtown Louisville","1000 E. Market Street","Louisville","KY","40206","US","<MISSING>","(502) 410-7998","<MISSING>","38.2523311","-85.7334124","<MISSING>","https://www.tranesupply.com/store-locator?q=47102"
"https://www.tranesupply.com","Trane Supply - Louisville","12850 Plantside Drive","Louisville","KY","40299","US","<MISSING>","(502) 499-7011","<MISSING>","38.2098256","-85.5213231","<MISSING>","https://www.tranesupply.com/store-locator?q=47102"
"https://www.tranesupply.com","S. G. Torrice Company - Peabody","1 Centennial Dr.","Peabody","MA","1960","US","<MISSING>","<MISSING>","<MISSING>","42.519859","-70.972524","<MISSING>","https://www.tranesupply.com/store-locator?q=01949"
"https://www.tranesupply.com","S. G. Torrice Company - Wilmington","80 Industrial Way","Wilmington","MA","1887","US","<MISSING>","<MISSING>","<MISSING>","42.5323636","-71.1394671","<MISSING>","https://www.tranesupply.com/store-locator?q=01949"
"https://www.tranesupply.com","Trane Supply - Woburn","96 Commerce Way","Woburn","MA","1801","US","<MISSING>","(781) 932-0423","<MISSING>","42.5138161","-71.1383531","M-F, 7am - 4:30pm, Saturday, Closed, Sunday, Closed","https://www.tranesupply.com/store-locator?q=01949"
"https://www.tranesupply.com","S. G. Torrice Company - Hudson","24 Flagstone Dr.","Hudson","NH","3051","US","<MISSING>","<MISSING>","<MISSING>","42.7285739","-71.4300291","<MISSING>","https://www.tranesupply.com/store-locator?q=01949"
"https://www.tranesupply.com","Trane Supply - Braintree","100 Messina Dr","Braintree","MA","2184","US","<MISSING>","(781) 794-9922","<MISSING>","42.1927889","-71.0339907","M-F, 7am - 4:30pm, Saturday, Closed, Sunday, Closed","https://www.tranesupply.com/store-locator?q=01949"
"https://www.tranesupply.com","S. G. Torrice Company - Randolph","81 York Ave.","Randolph","MA","2368","US","<MISSING>","<MISSING>","<MISSING>","42.1819034","-71.0739081","<MISSING>","https://www.tranesupply.com/store-locator?q=01949"
"https://www.tranesupply.com","S. G. Torrice Company - Portsmouth","235 Heritage Ave.","Portsmouth","NH","3801","US","<MISSING>","<MISSING>","<MISSING>","43.0329403","-70.796943","<MISSING>","https://www.tranesupply.com/store-locator?q=01949"
"https://www.tranesupply.com","Trane Supply - Manchester","1050 Holt Ave","Manchester","NH","3109","US","<MISSING>","(603) 421-2780","<MISSING>","42.9777688","-71.4015305","M-F, 7am - 4:30pm, Saturday, Closed, Sunday, Closed","https://www.tranesupply.com/store-locator?q=01949"
"https://www.tranesupply.com","S. G. Torrice Company - Franklin","40 Kenwood Circle","Franklin","MA","2038","US","<MISSING>","<MISSING>","<MISSING>","42.0732434","-71.4156502","<MISSING>","https://www.tranesupply.com/store-locator?q=01949"
"https://www.tranesupply.com","Trane Supply - Shrewsbury","5A Polito Dr","Shrewsbury","MA","1545","US","<MISSING>","(508) 471-3349","<MISSING>","42.2516112","-71.7180076","M-F, 7:30am - 4:30pm, Saturday, Closed, Sunday, Closed","https://www.tranesupply.com/store-locator?q=01949"
"https://www.tranesupply.com","Munch's Supply Co., Inc. - Aurora","1631 Landmark Rd.","Aurora","IL","60506","US","<MISSING>","<MISSING>","<MISSING>","41.7898217","-88.3407062","<MISSING>","https://www.tranesupply.com/store-locator?q=61372"
"https://www.tranesupply.com","Trane Supply - Aurora","2601 Beverly Dr.","Aurora","IL","60502","US","<MISSING>","(630) 499-9650","<MISSING>","41.8079345","-88.2729581","M-F, 6:30am - 4:30pm, Saturday, Closed, Sunday, Closed","https://www.tranesupply.com/store-locator?q=61372"
"https://www.tranesupply.com","Gustave A. Larson Company - Appleton","680 Hickory Farm Lane","Appleton","WI","54914","US","<MISSING>","<MISSING>","<MISSING>","44.2688821","-88.4476943","<MISSING>","https://www.tranesupply.com/store-locator?q=54169"
"https://www.tranesupply.com","Trane Supply - Appleton","2500 N Lynndale Dr","Appleton","WI","54914","US","<MISSING>","(920) 734-6054","<MISSING>","44.2847936","-88.445461","M-F, 7am - 4:30pm, Saturday, Closed, Sunday, Closed","https://www.tranesupply.com/store-locator?q=54169"
"https://www.tranesupply.com","Gustave A. Larson Company - Green Bay","2669 Industry Court","Green Bay","WI","54304","US","<MISSING>","<MISSING>","<MISSING>","44.475219","-88.066348","<MISSING>","https://www.tranesupply.com/store-locator?q=54169"
"https://www.tranesupply.com","Gensco, Inc. - Medford","659 Brian Way","Medford","OR","97501","US","<MISSING>","<MISSING>","<MISSING>","42.341788","-122.8971311","<MISSING>","https://www.tranesupply.com/store-locator?q=97520"
"https://www.tranesupply.com","Trane Supply - Saint Paul","720 Vandalia St","Saint Paul","MN","55114","US","<MISSING>","(651) 468-2200","<MISSING>","44.9631146","-93.1887633","M-F, 7am - 5pm, Saturday, Closed, Sunday, Closed","https://www.tranesupply.com/store-locator?q=55084"
"https://www.tranesupply.com","Gustave A. Larson Company - St. Paul","2575 University Ave.","St. Paul","MN","55114","US","<MISSING>","<MISSING>","<MISSING>","44.9672989","-93.2033262","<MISSING>","https://www.tranesupply.com/store-locator?q=55084"
"https://www.tranesupply.com","Trane Supply - Bloomington, MN","7860 12th Ave South,Bloomington"," MN","MN","55425","US","<MISSING>","(952) 693-2150","<MISSING>","44.8602873","-93.2601248","M-F, 7am - 5pm, Saturday, Closed, Sunday, Closed","https://www.tranesupply.com/store-locator?q=55084"
"https://www.tranesupply.com","Gustave A. Larson Company - Plymouth","13200 10th Ave. North","Plymouth","MN","55441","US","<MISSING>","<MISSING>","<MISSING>","44.9887484","-93.4482742","<MISSING>","https://www.tranesupply.com/store-locator?q=55084"
"https://www.tranesupply.com","Trane Supply - Plymouth","800 Berkshire Lane","Plymouth","MN","55441","US","<MISSING>","(763) 923-2100","<MISSING>","44.9888656","-93.4545991","M-F, 7am - 4:30pm, Saturday, Closed, Sunday, Closed","https://www.tranesupply.com/store-locator?q=55084"
"https://www.tranesupply.com","Trane Supply - Des Moines","2165 NW 108th Street","Clive","IA","50325","US","<MISSING>","(515) 270-0004","<MISSING>","41.6132035","-93.7646988","<MISSING>","https://www.tranesupply.com/store-locator?q=50265"
"https://www.tranesupply.com","O Connor Co - Urbandale","4455 121st Street","Urbandale","IA","50322","US","<MISSING>","<MISSING>","<MISSING>","41.6416601","-93.7801208","<MISSING>","https://www.tranesupply.com/store-locator?q=50265"
"https://www.tranesupply.com","Lyon Conklin & Co - Baltimore","9611 Pulaski Park Dr","Baltimore","MD","21220","US","<MISSING>","<MISSING>","<MISSING>","39.354895","-76.4488202","<MISSING>","https://www.tranesupply.com/store-locator?q=21645"
"https://www.tranesupply.com","Trane Supply - Timonium","2208 Greenspring Dr","Timonium","MD","21093","US","<MISSING>","(410) 252-9550","<MISSING>","39.4437489","-76.6342738","M-F, 6:30am - 4:30pm, Saturday, Closed, Sunday, Closed","https://www.tranesupply.com/store-locator?q=21645"
"https://www.tranesupply.com","Trane Supply - Glen Burnie","899 Airport Park Rd","Glen Burnie","MD","21061","US","<MISSING>","(410) 729-4230","<MISSING>","39.1716298","-76.6447006","M-F, 7am - 4:30pm, Saturday, Closed, Sunday, Closed","https://www.tranesupply.com/store-locator?q=21645"
"https://www.tranesupply.com","Lyon Conklin & Co - Corporate Office","4501 Hollins Ferry Road","Halethorpe","MD","21227","US","<MISSING>","<MISSING>","<MISSING>","39.2338808","-76.6710648","<MISSING>","https://www.tranesupply.com/store-locator?q=21645"
"https://www.tranesupply.com","Trane Supply - Westbrook","860 Spring St","Westbrook","ME","4092","US","<MISSING>","(207) 828-1555","<MISSING>","43.6503868","-70.3567664","M-F, 7am - 5pm, Saturday, Closed, Sunday, Closed","https://www.tranesupply.com/store-locator?q=04564"
"https://www.tranesupply.com","Trane Supply - Portland, ME","860 Spring Street","Westbrook","ME","4092","US","<MISSING>","(207) 828-1555","<MISSING>","43.6503868","-70.3567664","<MISSING>","https://www.tranesupply.com/store-locator?q=04564"
"https://www.tranesupply.com","Trane Supply - Fort Worth","4200 N Sylvania","Fort Worth","TX","76137","US","<MISSING>","(817) 831-4291","<MISSING>","32.8168502","-97.3072545","M-F, 7:30am - 5pm, Saturday, Closed, Sunday, Closed","https://www.tranesupply.com/store-locator?q=76426"
"https://www.tranesupply.com","Ferguson Heating & Cooling - El Cajon","1224 N Marshall","El Cajon","CA","92020","US","<MISSING>","<MISSING>","<MISSING>","32.8126301","-116.9765039","<MISSING>","https://www.tranesupply.com/store-locator?q=91931"
"https://www.tranesupply.com","Trane Supply - San Diego","3565 Corporate Ct","San Diego","CA","92123","US","<MISSING>","(858) 292-0833","<MISSING>","32.8076985","-117.1307521","M-F, 7am - 5pm, Saturday, Closed, Sunday, Closed","https://www.tranesupply.com/store-locator?q=91931"
"https://www.tranesupply.com","Trane Supply - Riverside","2222 Kansas Ave","Riverside","CA","92507","US","<MISSING>","(951) 801-6020","<MISSING>","33.9907387","-117.3567816","M-F, 7am - 5pm, Saturday, Closed, Sunday, Closed","https://www.tranesupply.com/store-locator?q=92374"
"https://www.tranesupply.com","Ferguson Heating & Cooling - Corporate Office","2750 S. Towne Ave","Pomona","CA","91766","US","<MISSING>","<MISSING>","<MISSING>","34.0233227","-117.7391699","<MISSING>","https://www.tranesupply.com/store-locator?q=92374"
"https://www.tranesupply.com","Trane Supply - Diamond Bar","20450 East Walnut Dr North","Diamond Bar","CA","91789","US","<MISSING>","(626) 913-7913","<MISSING>","34.0002392","-117.8577459","M-F, 7am - 5pm, Saturday, Closed, Sunday, Closed","https://www.tranesupply.com/store-locator?q=92374"
"https://www.tranesupply.com","Ferguson Heating & Cooling - Azusa","640 S. Ayon Ave","Azusa","CA","91702","US","<MISSING>","<MISSING>","<MISSING>","34.111757","-117.9282627","<MISSING>","https://www.tranesupply.com/store-locator?q=92374"
"https://www.tranesupply.com","Trane Supply - Tustin","15551 Redhill Ave","Tustin","CA","92780","US","<MISSING>","(714) 258-7403","<MISSING>","33.7159957","-117.8338903","M-F, 7am - 5pm, Saturday, Closed, Sunday, Closed","https://www.tranesupply.com/store-locator?q=92374"
"https://www.tranesupply.com","Ferguson Heating & Cooling - Anaheim","608 E Cerritos Ave","Anaheim","CA","92805","US","<MISSING>","<MISSING>","<MISSING>","33.81005","-117.9002207","<MISSING>","https://www.tranesupply.com/store-locator?q=92374"
"https://www.tranesupply.com","Trane Supply - Macon","125 Macon W Dr","Macon","GA","31210","US","<MISSING>","(478) 742-5646","<MISSING>","32.8325963","-83.7254757","M-F, 7:30am - 5pm, Saturday, Closed, Sunday, Closed","https://www.tranesupply.com/store-locator?q=31093"
"https://www.tranesupply.com","Trane Supply - Gulfport","14050 White Rd","Gulfport","MS","39503","US","<MISSING>","(228) 863-4445","<MISSING>","30.435923","-89.1070019","M-F, 7:30am - 5pm, Saturday, Closed, Sunday, Closed","https://www.tranesupply.com/store-locator?q=70458"
"https://www.tranesupply.com","Trane Supply - Hickory","1265 19th St LN NW","Hickory","NC","28601","US","<MISSING>","(828) 267-5697","<MISSING>","35.7496423","-81.3722143","M-F, 7am - 5pm, Saturday, Closed, Sunday, Closed","https://www.tranesupply.com/store-locator?q=28697"
"https://www.tranesupply.com","Trane Supply - Greenville","412 Fairforest Way","Greenville","SC","29607","US","<MISSING>","(864) 672-6005","<MISSING>","34.7935801","-82.3474718","M-F, 7:30am - 5pm, Saturday, Closed, Sunday, Closed","https://www.tranesupply.com/store-locator?q=29669"
"https://www.tranesupply.com","Trane Supply - Spartanburg","2180 Chesnee Highway","Spartanburg","SC","29303","US","<MISSING>","(864) 345-6667","<MISSING>","35.0117862","-81.9028745","M-F, 7:30am - 5pm, Saturday, Closed, Sunday, Closed","https://www.tranesupply.com/store-locator?q=29669"
"https://www.tranesupply.com","Trane Supply - Willowbrook","7100 S Madison St","Willowbrook","IL","60527","US","<MISSING>","(630) 455-9900","<MISSING>","41.7592062","-87.9364675","M-F, 6:30am - 4:30pm, Saturday, Closed, Sunday, Closed","https://www.tranesupply.com/store-locator?q=60462"
"https://www.tranesupply.com","Munch's Supply Co., Inc. - Hillside","300 North Mannhein Rd.","Hillside","IL","60162","US","<MISSING>","<MISSING>","<MISSING>","41.8769618","-87.8841242","<MISSING>","https://www.tranesupply.com/store-locator?q=60462"
"https://www.tranesupply.com","Munch's Supply Co., Inc. - Chicago","2650 W Addison St.","Chicago","IL","60618","US","<MISSING>","(773) 360-5959","<MISSING>","41.954054","-87.719271","<MISSING>","https://www.tranesupply.com/store-locator?q=60462"
"https://www.tranesupply.com","Munch's Supply Co., Inc. - Wheeling","301 Alice St.","Wheeling","IL","60090","US","<MISSING>","<MISSING>","<MISSING>","42.1198827","-87.9244408","<MISSING>","https://www.tranesupply.com/store-locator?q=60462"
"https://www.tranesupply.com","Munch's Supply Co., Inc. - Elgin","1111 Davis Road","Elgin","IL","60123","US","<MISSING>","<MISSING>","<MISSING>","42.0677384","-88.3064656","<MISSING>","https://www.tranesupply.com/store-locator?q=60462"
"https://www.tranesupply.com","Trane Supply - Buffalo Grove","1322 Barclay Blvd","Buffalo Grove","IL","60089","US","<MISSING>","(847) 229-1671","<MISSING>","42.1755473","-87.9334616","M-F, 6:30am - 4:30pm, Saturday, Closed, Sunday, Closed","https://www.tranesupply.com/store-locator?q=60462"
"https://www.tranesupply.com","Trane Supply - Elgin","2410 Vantage Dr","Elgin","IL","60124","US","<MISSING>","(847) 783-7810","<MISSING>","42.0922461","-88.3391883","M-F, 6:30am - 4:30pm, Saturday, Closed, Sunday, Closed","https://www.tranesupply.com/store-locator?q=60462"
"https://www.tranesupply.com","Trane Supply - Topeka","3820 NW 14th St","Topeka","KS","66618","US","<MISSING>","(785) 234-1333","<MISSING>","39.0773398","-95.7193699","M-F, 7am - 4:30pm, Saturday, Closed, Sunday, Closed","https://www.tranesupply.com/store-locator?q=66417"
"https://www.tranesupply.com","Ferguson Heating & Cooling - Chatsworth","9349 Oso Ave","Chatsworth","CA","91311","US","<MISSING>","<MISSING>","<MISSING>","34.2407203","-118.576105","<MISSING>","https://www.tranesupply.com/store-locator?q=93536"
"https://www.tranesupply.com","Trane Supply - Glendale","3631 San Fernando Rd","Glendale","CA","91204","US","<MISSING>","(818) 662-5096","<MISSING>","34.1212678","-118.252708","M-F, 7am - 5pm, Saturday, Closed, Sunday, Closed","https://www.tranesupply.com/store-locator?q=93536"
"https://www.tranesupply.com","Trane Supply - Shreveport","9225 Premier Court","Shreveport","LA","71106","US","<MISSING>","(318) 683-4100","<MISSING>","32.3975938","-93.7397402","M-F, 7:30am - 5pm, Saturday, Closed, Sunday, Closed","https://www.tranesupply.com/store-locator?q=71052"
"https://www.tranesupply.com","Trane Supply - Ocala","4500 SW 40 Ave","Ocala","FL","34474","US","<MISSING>","(352) 237-0136","<MISSING>","29.1426804","-82.1882298","M-F, 7:30am - 5pm, Saturday, Closed, Sunday, Closed","https://www.tranesupply.com/store-locator?q=34453"
"https://www.tranesupply.com","Trane Supply - Hudson","16520 Scheer Blvd","Hudson","FL","34667","US","<MISSING>","(727) 245-1320","<MISSING>","28.3982059","-82.6630342","<MISSING>","https://www.tranesupply.com/store-locator?q=34453"
"https://www.tranesupply.com","Specialty A/C Products Inc - Sunnyvale","310 Soquel Way","Sunnyvale","CA","94085","US","<MISSING>","<MISSING>","<MISSING>","37.3855014","-122.0333568","<MISSING>","https://www.tranesupply.com/store-locator?q=94074"
"https://www.tranesupply.com","Fix Air","890 Service Street","San Jose","CA","95112","US","<MISSING>","(408) 437-0390","<MISSING>","37.3692824","-121.8895243","<MISSING>","https://www.tranesupply.com/store-locator?q=94074"
"https://www.tranesupply.com","Lyon Conklin & Co - Philadelphia","550 South Henderson Road","King of Prussia","PA","19406","US","<MISSING>","<MISSING>","<MISSING>","40.0798527","-75.3545175","<MISSING>","https://www.tranesupply.com/store-locator?q=19372"
"https://www.tranesupply.com","Tozour-Trane HVAC Parts and Supplies","480 Drew Court","King of Prussia","PA","19406","US","<MISSING>","(610) 962-1601","<MISSING>","40.0862429","-75.3515657","<MISSING>","https://www.tranesupply.com/store-locator?q=19372"
"https://www.tranesupply.com","Lyon Conklin & Co - Lancaster","499 Running Pump Rd","Lancaster","PA","17601","US","<MISSING>","<MISSING>","<MISSING>","40.052238","-76.3744907","<MISSING>","https://www.tranesupply.com/store-locator?q=19372"
"https://www.tranesupply.com","Trane Supply - Allentown","5925 Tilghman St","Allentown","PA","18104","US","<MISSING>","(610) 391-3040","<MISSING>","40.5924023","-75.5932386","M-F, 7am - 4:30pm, Saturday, Closed, Sunday, Closed","https://www.tranesupply.com/store-locator?q=19372"
"https://www.tranesupply.com","Lyon Conklin & Co - Westampton","10 East Park Dr","Westampton","NJ","08060","US","<MISSING>","<MISSING>","<MISSING>","40.0064257","-74.8507117","<MISSING>","https://www.tranesupply.com/store-locator?q=19372"
"https://www.tranesupply.com","Ferguson Heating & Cooling - Las Vegas","5480 Procyon Street","Las Vegas","NV","89118","US","<MISSING>","<MISSING>","<MISSING>","36.0906436","-115.1871263","<MISSING>","https://www.tranesupply.com/store-locator?q=89046"
"https://www.tranesupply.com","Trane Supply - Champaign","301 E Mercury","Champaign","IL","61822","US","<MISSING>","(217) 373-1610","<MISSING>","40.1481855","-88.2348604","M-F, 7am - 4:30pm, Saturday, Closed, Sunday, Closed","https://www.tranesupply.com/store-locator?q=61737"
"https://www.tranesupply.com","Trane Supply - Forest Park","5021 Old Dixie Hwy","Forest Park","GA","30297","US","<MISSING>","(404) 366-6560","<MISSING>","33.6174072","-84.3842662","M-F, 7:30am - 5pm, Saturday, Closed, Sunday, Closed","https://www.tranesupply.com/store-locator?q=30310"
"https://www.tranesupply.com","Trane Supply - Atlanta","5980 Peachtree Rd","Atlanta","GA","30341","US","<MISSING>","(404) 728-4310","<MISSING>","33.8335181","-84.3302929","M-F, 7am - 5pm, Saturday, Closed, Sunday, Closed","https://www.tranesupply.com/store-locator?q=30310"
"https://www.tranesupply.com","Trane Supply - Duluth","2625 Pinemeadow Court","Duluth","GA","30096","US","<MISSING>","(678) 713-3080","<MISSING>","33.9723855","-84.1037116","M-F, 7am - 5pm, Saturday, Closed, Sunday, Closed","https://www.tranesupply.com/store-locator?q=30310"
"https://www.tranesupply.com","Gensco, Inc. - Anchorage","501 E. 100th Ave.","Anchorage","AK","99515","US","<MISSING>","<MISSING>","<MISSING>","61.1307334","-149.8724236","<MISSING>","https://www.tranesupply.com/store-locator?q=99501"
"https://www.tranesupply.com","Trane Supply - Anchorage","12101 Industry Way","Anchorage","AK","99515","US","<MISSING>","(800) 828-9665","<MISSING>","61.1112683","-149.8603764","M-F, 7am - 5pm, Saturday, Closed, Sunday, Closed","https://www.tranesupply.com/store-locator?q=99501"
"https://www.tranesupply.com","Trane Supply - Fredericksburg","11205 New Albany Dr","Fredericksburg","VA","22408","US","<MISSING>","(540) 376-3064","<MISSING>","38.2666058","-77.4598892","M-F, 7:30am - 4:30pm, Saturday, Closed, Sunday, Closed","https://www.tranesupply.com/store-locator?q=22172"
"https://www.tranesupply.com","Lyon Conklin & Co - Chantilly","14552 Lee Rd","Chantilly","VA","20151","US","<MISSING>","<MISSING>","<MISSING>","38.891452","-77.4533639","<MISSING>","https://www.tranesupply.com/store-locator?q=22172"
"https://www.tranesupply.com","Boland HVAC Parts & Supplies - Chantilly","14920 Bogle Drive","Chantilly","VA","20151","US","<MISSING>","(240) 306-3100","<MISSING>","38.8952181","-77.4630911","<MISSING>","https://www.tranesupply.com/store-locator?q=22172"
"https://www.tranesupply.com","Lyon Conklin & Co - White Plains","10720B Demarr Rd","White Plains","MD","20695","US","<MISSING>","<MISSING>","<MISSING>","38.5904555","-76.9389192","<MISSING>","https://www.tranesupply.com/store-locator?q=22172"
"https://www.tranesupply.com","Lyon Conklin & Co - Capital Heights","8800 Walker Mill Rd","Capital Heights","MD","20743","US","<MISSING>","<MISSING>","<MISSING>","38.8715527","-76.8528169","<MISSING>","https://www.tranesupply.com/store-locator?q=22172"
"https://www.tranesupply.com","Largo MD Trane Parts","9475 Lottsford Rd","Largo","MD","20774","US","<MISSING>","(240) 306-3101","<MISSING>","38.9057107","-76.8414178","<MISSING>","https://www.tranesupply.com/store-locator?q=22172"
"https://www.tranesupply.com","Lyon Conklin & Co - Rockville","800 B East Gude Drive","Rockville","MD","20850","US","<MISSING>","<MISSING>","<MISSING>","39.1016065","-77.140517","<MISSING>","https://www.tranesupply.com/store-locator?q=22172"
"https://www.tranesupply.com","Boland HVAC Parts & Supplies","30 W. Watkins Mill Road","Gaithersburg","MD","20878","US","<MISSING>","(240) 306-3100","<MISSING>","39.1501773","-77.2303666","<MISSING>","https://www.tranesupply.com/store-locator?q=22172"
"https://www.tranesupply.com","Gustave A. Larson Company - Fargo","3700 7th Ave. NW","Fargo","ND","58102","US","<MISSING>","<MISSING>","<MISSING>","46.8833377","-96.8391698","<MISSING>","https://www.tranesupply.com/store-locator?q=58031"
"https://www.tranesupply.com","Trane Supply - Fargo","3417 7th Ave N","Fargo","ND","58102","US","<MISSING>","(701) 356-7278","<MISSING>","46.8836751","-96.8329694","M-F, 7am - 4:30pm, Saturday, Closed, Sunday, Closed","https://www.tranesupply.com/store-locator?q=58031"
"https://www.tranesupply.com","Trane Supply - Honolulu","2969 Mapunapuna Place","Honolulu","HI","96819","US","<MISSING>","(808) 845-6061","<MISSING>","21.3391061","-157.9006649","M-F, 7am - 4pm, Saturday, Closed, Sunday, Closed","https://www.tranesupply.com/store-locator?q=96744"
"https://www.tranesupply.com","Gensco, Inc. - Bend","110 SE 9th St.","Bend","OR","97702","US","<MISSING>","<MISSING>","<MISSING>","44.048887","-121.292127","<MISSING>","https://www.tranesupply.com/store-locator?q=97737"
"https://www.tranesupply.com","Trane Supply - Matthews","12857 Independence Blvd","Matthews","NC","28105","US","<MISSING>","(704) 893-2090","<MISSING>","35.1011645","-80.6786763","M-F, 7am - 5pm, Saturday, Closed, Sunday, Closed","https://www.tranesupply.com/store-locator?q=27239"
"https://www.tranesupply.com","Trane Supply - Williamsville","45 Earhart Dr.","Williamsville","NY","14221","US","<MISSING>","(716) 626-1260","<MISSING>","42.9547809","-78.7152758","M-F, 7:30am - 5pm, Saturday, Closed, Sunday, Closed","https://www.tranesupply.com/store-locator?q=14034"
"https://www.tranesupply.com","Gerster Equipment Co","45 Earhart Drive","Buffalo","NY","14221","US","<MISSING>","<MISSING>","<MISSING>","42.9547809","-78.7152758","<MISSING>","https://www.tranesupply.com/store-locator?q=14034"
"https://www.tranesupply.com","Trane Supply - Myrtle Beach","712 Seaboard St","Myrtle Beach","SC","29577","US","<MISSING>","(843) 213-3407","<MISSING>","33.7077819","-78.9054406","M-F, 7:30am - 5pm, Saturday, Closed, Sunday, Closed","https://www.tranesupply.com/store-locator?q=29544"
"https://www.tranesupply.com","Trane Supply - Lexington","2350 Fortune Drive","Lexington","KY","40509","US","<MISSING>","(859) 514-7011","<MISSING>","38.0380691","-84.4470495","<MISSING>","https://www.tranesupply.com/store-locator?q=41003"
"https://www.tranesupply.com","Trane Supply - Erlanger","1360 Donaldson Hwy","Erlanger","KY","41018","US","<MISSING>","(859) 692-2522","<MISSING>","39.038807","-84.6334234","M-F, 7am - 4:30pm, Saturday, Closed, Sunday, Closed","https://www.tranesupply.com/store-locator?q=41003"
"https://www.tranesupply.com","Trane Supply - Cincinnati","10300 Springfield Pike","Cincinnati","OH","45215","US","<MISSING>","(513) 771-8997","<MISSING>","39.256456","-84.468684","M-F, 7am - 4:30pm, Saturday, Closed, Sunday, Closed","https://www.tranesupply.com/store-locator?q=41003"
"https://www.tranesupply.com","Trane Supply - Kingsport","10390 Wallace Alley St","Kingsport","TN","37663","US","<MISSING>","(423) 279-1160","<MISSING>","36.485915","-82.420693","M-F, 7am - 5pm, Saturday, Closed, Sunday, Closed","https://www.tranesupply.com/store-locator?q=28604"
"https://www.tranesupply.com","Ferguson Heating & Cooling - Newbury Park","887 Lawrence Drive","Newbury Park","CA","91320","US","<MISSING>","<MISSING>","<MISSING>","34.1913387","-118.9304545","<MISSING>","https://www.tranesupply.com/store-locator?q=93001"
"https://www.tranesupply.com","Trane Supply - Wichita","120 Ida Street","Wichita","KS","67211","US","<MISSING>","(316) 265-9655","<MISSING>","37.6853422","-97.3246998","<MISSING>","https://www.tranesupply.com/store-locator?q=67019"
"https://www.tranesupply.com","O Connor Co - Wichita","5200 35th North","Wichita","KS","67220","US","<MISSING>","<MISSING>","<MISSING>","37.7477636","-97.2758069","<MISSING>","https://www.tranesupply.com/store-locator?q=67019"
"https://www.tranesupply.com","Gustave A. Larson Company - Duluth","4001 West Superior St.","Duluth","MN","55807","US","<MISSING>","<MISSING>","<MISSING>","46.7495387","-92.148857","<MISSING>","https://www.tranesupply.com/store-locator?q=54827"
"https://www.tranesupply.com","Trane Supply - Lubbock","8308 Upland Ave.","Lubbock","TX","79424","US","<MISSING>","(806) 743-6555","<MISSING>","33.516773","-101.975323","M-F, 7:30am - 5pm, Saturday, Closed, Sunday, Closed","https://www.tranesupply.com/store-locator?q=79423"
"https://www.tranesupply.com","Armacost Trane - Great Falls","422 9th Street South","Great Falls","MT","59405","US","<MISSING>","(406) 727-5111","<MISSING>","47.4999947","-111.2924488","<MISSING>","https://www.tranesupply.com/store-locator?q=59401"
"https://www.tranesupply.com","Trane Supply - Pensacola","580 E Burgess Rd","Pensacola","FL","32504","US","<MISSING>","(850) 473-3850","<MISSING>","30.4951293","-87.2292265","M-F, 7:30am - 5pm, Saturday, Closed, Sunday, Closed","https://www.tranesupply.com/store-locator?q=36542"
"https://www.tranesupply.com","Air Engineers LLC - Mobile","1022 Farnell Ln","Mobile","AL","36606","US","<MISSING>","<MISSING>","<MISSING>","30.6575233","-88.1151809","<MISSING>","https://www.tranesupply.com/store-locator?q=36542"
"https://www.tranesupply.com","Trane Supply - Mobile","124 E I-65 Service Rd N","Mobile","AL","36607","US","<MISSING>","(251) 665-2999","<MISSING>","30.6935588","-88.1243222","M-F, 7:30am - 5pm, Saturday, Closed, Sunday, Closed","https://www.tranesupply.com/store-locator?q=36542"
"https://www.tranesupply.com","Waibel Trane Parts Center","811 Falls Creek Drive","Vandalia","OH","45377","US","<MISSING>","(937) 264-4333","<MISSING>","39.9022608","-84.1845992","<MISSING>","https://www.tranesupply.com/store-locator?q=45039"
"https://www.tranesupply.com","Trane Supply - Springfield MO","2101 West Sunset St.","Springfield","MO","65807","US","<MISSING>","(417) 863-8888","<MISSING>","37.1669778","-93.3219122","M-F, 7am - 4:30pm, Saturday, Closed, Sunday, Closed","https://www.tranesupply.com/store-locator?q=65605"
"https://www.tranesupply.com","Gensco, Inc. - Missoula","150 South Catlin St.","Missoula","MT","59801","US","<MISSING>","<MISSING>","<MISSING>","46.8705206","-114.0215561","<MISSING>","https://www.tranesupply.com/store-locator?q=59808"
"https://www.tranesupply.com","Trane Supply - Asheville","168 Sweeten Creek Rd","Asheville","NC","28803","US","<MISSING>","(828) 210-2632","<MISSING>","35.5492402","-82.5200755","M-F, 7:30am - 5pm, Saturday, Closed, Sunday, Closed","https://www.tranesupply.com/store-locator?q=28709"
"https://www.tranesupply.com","Trane Supply - Fort Wayne","6602 Innovation Blvd","Fort Wayne","IN","46818","US","<MISSING>","(260) 489-0984","<MISSING>","41.138706","-85.177841","M-F, 7:30am - 5pm, Saturday, Closed, Sunday, Closed","https://www.tranesupply.com/store-locator?q=46772"
"https://www.tranesupply.com","Gustave A. Larson Company - Wausau","1301 Starling Lane","Wausau","WI","54401","US","<MISSING>","<MISSING>","<MISSING>","44.9223979","-89.6517121","<MISSING>","https://www.tranesupply.com/store-locator?q=54467"
"https://www.tranesupply.com","Trane Supply - Rochester","1046 University Ave.","Rochester","NY","14607","US","<MISSING>","(585) 256-1028","<MISSING>","43.1545163","-77.5726524","M-F, 7:30am - 5pm, Saturday, Closed, Sunday, Closed","https://www.tranesupply.com/store-locator?q=14588"
"https://www.tranesupply.com","Brady Parts Center - Wilmington","6736-A Netherlands Drive","Wilmington","NC","28405","US","<MISSING>","(910) 792-1498","<MISSING>","34.2619065","-77.8359241","<MISSING>","https://www.tranesupply.com/store-locator?q=28543"
"https://www.tranesupply.com","Brady Parts Center - Durham","4306 Bennett Memorial Rd","Durham","NC","27705","US","<MISSING>","(919) 226-1450","<MISSING>","36.0304792","-78.9703776","<MISSING>","https://www.tranesupply.com/store-locator?q=27574"
"https://www.tranesupply.com","Brady Parts Center - Raleigh","4437 Beryl Road","Raleigh","NC","27606","US","<MISSING>","(919) 828-9040","<MISSING>","35.7945325","-78.7009468","<MISSING>","https://www.tranesupply.com/store-locator?q=27574"
"https://www.tranesupply.com","Trane Supply - Charleston","2570 A Pennsylvania Ave","Charleston","WV","25302","US","<MISSING>","(681) 245-6390","<MISSING>","38.3830247","-81.5951981","M-F, 7:30am - 4:30pm, Saturday, Closed, Sunday, Closed","https://www.tranesupply.com/store-locator?q=26679"
"https://www.tranesupply.com","Trane Supply - Greensburg","122 Equity Dr.","Greensburg","PA","15601","US","<MISSING>","(412) 816-1701","<MISSING>","40.3119889","-79.500325","M-F, 7am - 4:30pm, Saturday, Closed, Sunday, Closed","https://www.tranesupply.com/store-locator?q=16249"
"https://www.tranesupply.com","Trane Supply - Pittsburgh","3042 New Beaver Ave","Pittsburgh","PA","15233","US","<MISSING>","(412) 394-9030","<MISSING>","40.4719351","-80.039445","M-F, 7am - 4:30pm, Saturday, Closed, Sunday, Closed","https://www.tranesupply.com/store-locator?q=16249"
"https://www.tranesupply.com","Gustave A. Larson Company - Saint Cloud","525 Apollo Ave.","Saint Cloud","MN","56304","US","<MISSING>","<MISSING>","<MISSING>","45.5723224","-94.1481254","<MISSING>","https://www.tranesupply.com/store-locator?q=56359"
"https://www.tranesupply.com","Trane Supply - Davenport","4801 Grand Ave","Davenport","IA","52807","US","<MISSING>","(563) 468-4930","<MISSING>","41.5702759","-90.5643075","M-F, 7am - 4:30pm, Saturday, Closed, Sunday, Closed","https://www.tranesupply.com/store-locator?q=61276"
"https://www.tranesupply.com","Trane Supply - Huntsville","301 James Record Rd","Huntsville","AL","35824","US","<MISSING>","(256) 837-1790","<MISSING>","34.661929","-86.7717626","M-F, 7am - 5pm, Saturday, Closed, Sunday, Closed","https://www.tranesupply.com/store-locator?q=35980"
"https://www.tranesupply.com","Air Engineers LLC - Tanner","25114 Will McComb Drive","Tanner","AL","35671","US","<MISSING>","<MISSING>","<MISSING>","34.6366301","-86.8779348","<MISSING>","https://www.tranesupply.com/store-locator?q=35980"
"https://www.tranesupply.com","Gensco, Inc. - Vancouver","11304 NE 66th St.","Vancouver","WA","98662","US","<MISSING>","<MISSING>","<MISSING>","45.6715041","-122.5559209","<MISSING>","https://www.tranesupply.com/store-locator?q=98626"
"https://www.tranesupply.com","Gensco, Inc. - Portland","2270 NE Argyle","Portland","OR","97212","US","<MISSING>","<MISSING>","<MISSING>","45.5786044","-122.642344","<MISSING>","https://www.tranesupply.com/store-locator?q=98626"
"https://www.tranesupply.com","Trane Supply - Colorado Springs","4840 List Dr","Colorado Springs","CO","80919","US","<MISSING>","(719) 266-8800","<MISSING>","38.9024318","-104.8534956","M-F, 7am - 5pm, Saturday, Closed, Sunday, Closed","https://www.tranesupply.com/store-locator?q=81240"
"https://www.tranesupply.com","Trane Supply - Miami","2660 NW 89 Court","Doral","FL","33172","US","<MISSING>","(305) 470-2300","<MISSING>","25.7991179","-80.3423725","M-F, 7:30am - 5pm, Saturday, Closed, Sunday, Closed","https://www.tranesupply.com/store-locator?q=33129"
"https://www.tranesupply.com","Trane Supply - South Dade","12750  SW 125th Ave.","Miami","FL","33186","US","<MISSING>","(786) 713-3065","<MISSING>","25.6498836","-80.3971306","M-F, 7:30am - 5pm, Saturday, Closed, Sunday, Closed","https://www.tranesupply.com/store-locator?q=33129"
"https://www.tranesupply.com","Trane Supply - Miramar","11600 Miramar Parkway","Miramar","FL","33025","US","<MISSING>","(954) 447-6540","<MISSING>","25.9764286","-80.3016366","M-F, 7:30am - 5pm, Saturday, Closed, Sunday, Closed","https://www.tranesupply.com/store-locator?q=33129"
"https://www.tranesupply.com","Trane Supply - Pompano Beach","2103 SW 3 St","Pompano Beach","FL","33069","US","<MISSING>","(954) 360-7707","<MISSING>","26.2271206","-80.1500106","M-F, 7:30am - 5pm, Saturday, Closed, Sunday, Closed","https://www.tranesupply.com/store-locator?q=33129"
"https://www.tranesupply.com","Gustave A. Larson Company - Bloomington","9208 James Ave. South","Bloomington","MN","55431","US","<MISSING>","<MISSING>","<MISSING>","44.83677","-93.3023069","<MISSING>","https://www.tranesupply.com/store-locator?q=55301"
"https://www.tranesupply.com","Trane Supply - Columbus GA","3547 Gentian Blvd","Columbus","GA","31907","US","<MISSING>","(706) 225-5206","<MISSING>","32.5071117","-84.9358208","M-F, 7am - 5pm, Saturday, Closed, Sunday, Closed","https://www.tranesupply.com/store-locator?q=36852"
"https://www.tranesupply.com","Trane Supply - Canonsburg","102 Four Coins Dr Ext","Canonsburg","PA","15317","US","<MISSING>","(724) 824-1980","<MISSING>","40.2578235","-80.182014","M-F, 7:30am - 4:30pm, Saturday, Closed, Sunday, Closed","https://www.tranesupply.com/store-locator?q=15321"
"https://www.tranesupply.com","Trane Supply - Tacoma/Fife","7302 26th St E","Fife","WA","98424","US","<MISSING>","(253) 896-0550","<MISSING>","47.2331979","-122.3322591","M-F, 7:30am - 5pm, Saturday, Closed, Sunday, Closed","https://www.tranesupply.com/store-locator?q=98355"
"https://www.tranesupply.com","Gensco, Inc.","4402 20th St. East","Tacoma","WA","98424","US","<MISSING>","<MISSING>","<MISSING>","47.2378658","-122.3704831","<MISSING>","https://www.tranesupply.com/store-locator?q=98355"
"https://www.tranesupply.com","Trane Supply - Charlotte Airpark","8810-B Airpark West Dr","Charlotte","NC","28214","US","<MISSING>","(704) 697-9006","<MISSING>","35.246848","-80.980688","M-F, 7:30am - 5pm, Saturday, Closed, Sunday, Closed","https://www.tranesupply.com/store-locator?q=28078"
"https://www.tranesupply.com","Trane Supply - Charlotte","4501 S. Tryon Street","Charlotte","NC","28217","US","<MISSING>","(704) 523-4730","<MISSING>","35.1834289","-80.8850752","M-F, 7am - 5pm, Saturday, Closed, Sunday, Closed","https://www.tranesupply.com/store-locator?q=28078"
"https://www.tranesupply.com","S. G. Torrice Company - Hyannis","71 Bodick Rd.","Hyannis","MA","2601","US","<MISSING>","<MISSING>","<MISSING>","41.6627949","-70.2708746","<MISSING>","https://www.tranesupply.com/store-locator?q=02537"
"https://www.tranesupply.com","Gensco, Inc. - Bellingham","1630 Division St.","Bellingham","WA","98226","US","<MISSING>","<MISSING>","<MISSING>","48.7816086","-122.4515941","<MISSING>","https://www.tranesupply.com/store-locator?q=98226"
"https://www.tranesupply.com","Trane Supply - Burnaby","3264 Beta Ave","Burnaby","BC","V5G","US","<MISSING>","(604) 473-5650","<MISSING>","49.2567625","-122.9973301","M-F, 7am - 4:30pm, Saturday, Closed, Sunday, Closed","https://www.tranesupply.com/store-locator?q=98226"
"https://www.tranesupply.com","Lyon Conklin & Co - West Virginia","118 Harris Drive","Poca","WV","25159","US","<MISSING>","<MISSING>","<MISSING>","38.4164121","-81.829498","<MISSING>","https://www.tranesupply.com/store-locator?q=25526"
"https://www.tranesupply.com","Gustave A. Larson Company - Idaho Falls","1395 Northgate Mile","Idaho Falls","ID","83401","US","<MISSING>","<MISSING>","<MISSING>","43.5084644","-112.0221488","<MISSING>","https://www.tranesupply.com/store-locator?q=83406"
"https://www.tranesupply.com","Lyon Conklin & Co - Dagsboro","3098 Country Gardens Rd","Dagsboro","DE","19939","US","<MISSING>","<MISSING>","<MISSING>","38.5623232","-75.2730372","<MISSING>","https://www.tranesupply.com/store-locator?q=19958"
"https://www.tranesupply.com","Trane Supply - Fort Collins","2416 Donella Court","Fort Collins","CO","80524","US","<MISSING>","(970) 484-4139","<MISSING>","40.5865346","-105.031719","M-F, 7am - 5pm, Saturday, Closed, Sunday, Closed","https://www.tranesupply.com/store-locator?q=80729"
"https://www.tranesupply.com","Wallwork Group - Lakewood","1970 Rutgers University Blvd","Lakewood","NJ","8701","US","<MISSING>","<MISSING>","<MISSING>","40.0726561","-74.161861","<MISSING>","https://www.tranesupply.com/store-locator?q=08205"
"https://www.tranesupply.com","Trane Supply - Daleville","14289 Commerce Rd","Daleville","IN","47334","US","<MISSING>","(765) 283-0041","<MISSING>","40.1134677","-85.5543955","M-F, 7:30am - 5pm, Saturday, Closed, Sunday, Closed","https://www.tranesupply.com/store-locator?q=46928"
"https://www.tranesupply.com","Trane Supply - La Crosse","2525 Larson St","La Crosse","WI","54603","US","<MISSING>","(608) 781-2349","<MISSING>","43.858758","-91.225577","M-F, 7am - 4:30pm, Saturday, Closed, Sunday, Closed","https://www.tranesupply.com/store-locator?q=55987"
"https://www.tranesupply.com","Gustave A. Larson Company","7 Copeland Ave","LaCrosse","WI","54603","US","<MISSING>","<MISSING>","<MISSING>","43.821048","-91.249262","<MISSING>","https://www.tranesupply.com/store-locator?q=55987"
"https://www.tranesupply.com","Gustave A. Larson Company - LaCrosse","7 Copeland Ave.","LaCrosse","WI","54603","US","<MISSING>","<MISSING>","<MISSING>","43.821048","-91.249262","<MISSING>","https://www.tranesupply.com/store-locator?q=55987"
"https://www.tranesupply.com","Trane Supply - Charleston DSO","4115 Dorchester Road Bldg. 300","Charleston","SC","29405","US","<MISSING>","<MISSING>","<MISSING>","32.85943","-79.988157","<MISSING>","https://www.tranesupply.com/store-locator?q=29487"
"https://www.tranesupply.com","Trane Supply - North Charleston","4951 Rivers Ave","North Charleston","SC","29406","US","<MISSING>","(843) 740-7011","<MISSING>","32.8828143","-80.0088739","M-F, 7:30am - 5pm, Saturday, Closed, Sunday, Closed","https://www.tranesupply.com/store-locator?q=29487"
"https://www.tranesupply.com","Trane Supply - South Orlando","9424 Southridge Park Court","Orlando","FL","32819","US","<MISSING>","(407) 351-8060","<MISSING>","28.4290741","-81.4175105","M-F, 7:30am - 5pm, Saturday, Closed, Sunday, Closed","https://www.tranesupply.com/store-locator?q=32750"
"https://www.tranesupply.com","Trane Supply - Austin","9801 Metric Blvd","Austin","TX","78758","US","<MISSING>","(512) 416-8822","<MISSING>","30.3779439","-97.715703","<MISSING>","https://www.tranesupply.com/store-locator?q=78947"
"https://www.tranesupply.com","Trane Supply - Austin North","2209A Rutland Dr","Austin","TX","78758","US","<MISSING>","(512) 524-3190","<MISSING>","30.3805804","-97.7172176","M-F, 7:30am - 5pm, Saturday, Closed, Sunday, Closed","https://www.tranesupply.com/store-locator?q=78947"
"https://www.tranesupply.com","Trane Supply - Austin South","4401 Freidrich Lane","Austin","TX","78744","US","<MISSING>","(512) 879-6796","<MISSING>","30.2088389","-97.7496188","M-F, 7:30am - 5pm, Saturday, Closed, Sunday, Closed","https://www.tranesupply.com/store-locator?q=78947"
"https://www.tranesupply.com","Trane Supply - Laredo","5711 McPhearson Rd","Laredo","TX","78041","US","<MISSING>","(956) 790-0960","<MISSING>","27.5524321","-99.4801395","M-F, 7:30am - 5pm, Saturday, Closed, Sunday, Closed","https://www.tranesupply.com/store-locator?q=78076"
"https://www.tranesupply.com","Trane Supply - Sarasota","2224 72nd Terrace East","Sarasota","FL","34243","US","<MISSING>","(941) 360-0010","<MISSING>","27.410036","-82.5381189","<MISSING>","https://www.tranesupply.com/store-locator?q=34219"
"https://www.tranesupply.com","Trane Supply - Tampa","4720 East Adamo Drive","Tampa","FL","33605","US","<MISSING>","(813) 877-8253","<MISSING>","27.9530106","-82.4053505","<MISSING>","https://www.tranesupply.com/store-locator?q=34219"
"https://www.tranesupply.com","Trane Supply - Clearwater","12385 Automobile Blvd.","Clearwater","FL","33762","US","<MISSING>","(727) 572-8255","<MISSING>","27.877138","-82.709868","<MISSING>","https://www.tranesupply.com/store-locator?q=34219"
"https://www.tranesupply.com","Trane Supply - Carson","21720 Wilmington Ave","Carson","CA","90810","US","<MISSING>","(310) 971-4555","<MISSING>","33.8304777","-118.2392311","M-F, 7am - 5pm, Saturday, Closed, Sunday, Closed","https://www.tranesupply.com/store-locator?q=90704"
"https://www.tranesupply.com","Trane Supply - Long Beach","21720 Wilmington Avenue","Carson","CA","90810","US","<MISSING>","(310) 971-4555","<MISSING>","33.8304777","-118.2392311","<MISSING>","https://www.tranesupply.com/store-locator?q=90704"
"https://www.tranesupply.com","Ferguson Heating & Cooling - Culver City","11244 Playa Court","Culver City","CA","90230","US","<MISSING>","<MISSING>","<MISSING>","33.9917831","-118.3912072","<MISSING>","https://www.tranesupply.com/store-locator?q=90704"
"https://www.tranesupply.com","Trane Supply - Omaha","4408 S 108th St","Omaha","NE","68137","US","<MISSING>","(402) 935-3000","<MISSING>","41.2157488","-96.0822467","M-F, 7am - 4:30pm, Saturday, Closed, Sunday, Closed","https://www.tranesupply.com/store-locator?q=51532"
"https://www.tranesupply.com","Wallwork Group - Piscataway","121 Ethel Road West","Piscataway","NJ","8854","US","<MISSING>","<MISSING>","<MISSING>","40.5295844","-74.4286555","<MISSING>","https://www.tranesupply.com/store-locator?q=08742"
"https://www.tranesupply.com","Trane Supply - South Plainfield","3005 Hadley Rd","South Plainfield","NJ","7080","US","<MISSING>","(908) 412-1001","<MISSING>","40.5525124","-74.423892","M-F, 7am - 5pm, Saturday, Closed, Sunday, Closed","https://www.tranesupply.com/store-locator?q=08742"
"https://www.tranesupply.com","Trane Supply - Brooklyn","115 49th St","Brooklyn","NY","11232","US","<MISSING>","(347) 404-5814","<MISSING>","40.6504438","-74.0171341","M-F, 7:30am - 5pm, Saturday, Closed, Sunday, Closed","https://www.tranesupply.com/store-locator?q=08742"
"https://www.tranesupply.com","Wallwork Group - Brooklyn","36 20th Street, Bldg 6","Brooklyn","NY","11232","US","<MISSING>","<MISSING>","<MISSING>","40.6653354","-73.9988838","<MISSING>","https://www.tranesupply.com/store-locator?q=08742"
"https://www.tranesupply.com","Wallwork Group - Long Island City","5-15 54th Ave","Long Island City","NY","11101","US","<MISSING>","<MISSING>","<MISSING>","40.740523","-73.956056","<MISSING>","https://www.tranesupply.com/store-locator?q=08742"
"https://www.tranesupply.com","Trane Supply - Long Island City","45-18 Court Square","Long Island City","NY","11101","US","<MISSING>","(718) 269-3632","<MISSING>","40.745339","-73.945029","M-F, 7am - 5pm, Saturday, Closed, Sunday, Closed","https://www.tranesupply.com/store-locator?q=08742"
"https://www.tranesupply.com","Trane Supply - Englewood","67 Inverness Dr East","Englewood","CO","80112","US","<MISSING>","(720) 709-3190","<MISSING>","39.5811263","-104.8559511","M-F, 7am - 5pm, Saturday, Closed, Sunday, Closed","https://www.tranesupply.com/store-locator?q=80832"
"https://www.tranesupply.com","O Connor Co - Corporate Office","16910 W 116th St.","Lenexa","KS","66219","US","<MISSING>","<MISSING>","<MISSING>","38.91906","-94.784039","<MISSING>","https://www.tranesupply.com/store-locator?q=66078"
"https://www.tranesupply.com","Trane Supply - Lenexa","9972 Lakeview Ave.","Lenexa","KS","66219","US","<MISSING>","(855) 256-6015","<MISSING>","38.9468404","-94.7697414","M-F, 7am - 4:30pm, Saturday, Closed, Sunday, Closed","https://www.tranesupply.com/store-locator?q=66078"
"https://www.tranesupply.com","Trane Supply - Seattle","601 S Alaska St","Seattle","WA","98108","US","<MISSING>","(206) 748-0500","<MISSING>","47.5606434","-122.3261242","M-F, 7:30am - 5pm, Saturday, Closed, Sunday, Closed","https://www.tranesupply.com/store-locator?q=98430"
"https://www.tranesupply.com","Gensco, Inc. - Seattle","1703 6th Ave. S.","Seattle","WA","98134","US","<MISSING>","<MISSING>","<MISSING>","47.587849","-122.3266082","<MISSING>","https://www.tranesupply.com/store-locator?q=98430"
"https://www.tranesupply.com","Gensco, Inc. - Kirkland","11403 120th Ave. NE","Kirkland","WA","98033","US","<MISSING>","<MISSING>","<MISSING>","47.7022343","-122.1817325","<MISSING>","https://www.tranesupply.com/store-locator?q=98430"
"https://www.tranesupply.com","Trane Supply - Bothell","19201 120th Ave NE","Bothell","WA","98011","US","<MISSING>","(425) 492-2155","<MISSING>","47.7670442","-122.1812081","M-F, 7:30am - 5pm, Saturday, Closed, Sunday, Closed","https://www.tranesupply.com/store-locator?q=98430"
"https://www.tranesupply.com","Wallwork Group - West Caldwell","9 Patton Drive","West Caldwell","NJ","7006","US","<MISSING>","<MISSING>","<MISSING>","40.8624392","-74.2805609","<MISSING>","https://www.tranesupply.com/store-locator?q=07444"
"https://www.tranesupply.com","Trane Supply - Pine Brook","26 Chapin Rd","Pine Brook","NJ","7058","US","<MISSING>","(973) 882-3220","<MISSING>","40.8567406","-74.3361107","M-F, 7am - 5pm, Saturday, Closed, Sunday, Closed","https://www.tranesupply.com/store-locator?q=07444"
"https://www.tranesupply.com","Wallwork Group - Mahwah","300 D Route 17 South","Mahwah","NJ","7430","US","<MISSING>","<MISSING>","<MISSING>","41.0882529","-74.154781","<MISSING>","https://www.tranesupply.com/store-locator?q=07444"
"https://www.tranesupply.com","Trane Supply - Teterboro","800 Huyler St","Teterboro","NJ","7608","US","<MISSING>","(201) 489-9001","<MISSING>","40.8604226","-74.0508506","M-F, 7:30am - 5pm, Saturday, Closed, Sunday, Closed","https://www.tranesupply.com/store-locator?q=07444"
"https://www.tranesupply.com","Wallwork Group - Elmsford","175 Clearbook Road","Elmsford","NY","10523","US","<MISSING>","<MISSING>","<MISSING>","41.0729732","-73.8147961","<MISSING>","https://www.tranesupply.com/store-locator?q=07444"
"https://www.tranesupply.com","Trane Supply - Hawthorne","12 Skyline Dr","Hawthorne","NY","10532","US","<MISSING>","(914) 593-0303","<MISSING>","41.0888598","-73.8164504","M-F, 7:30am - 5pm, Saturday, Closed, Sunday, Closed","https://www.tranesupply.com/store-locator?q=07444"
"https://www.tranesupply.com","Trane Supply - Stamford","47 Harbor View Ave","Stamford","CT","6902","US","<MISSING>","(203) 295-2170","<MISSING>","41.0480406","-73.5307382","M-F, 7am - 5pm, Saturday, Closed, Sunday, Closed","https://www.tranesupply.com/store-locator?q=07444"
"https://www.tranesupply.com","Wallwork Group - Hicksville","102 Lauman Lane","Hicksville","NY","11801","US","<MISSING>","<MISSING>","<MISSING>","40.7440211","-73.5007386","<MISSING>","https://www.tranesupply.com/store-locator?q=07444"
"https://www.tranesupply.com","Trane Supply - Plainview","245 Newtown Rd","Plainview","NY","11803","US","<MISSING>","(631) 952-9477","<MISSING>","40.7856106","-73.4502475","M-F, 7:30am - 5pm, Saturday, Closed, Sunday, Closed","https://www.tranesupply.com/store-locator?q=07444"
"https://www.tranesupply.com","Ferguson Heating & Cooling - Sacramento","903 N. Market Blvd","Sacramento","CA","95834","US","<MISSING>","<MISSING>","<MISSING>","38.6484025","-121.4822153","<MISSING>","https://www.tranesupply.com/store-locator?q=94558"
"https://www.tranesupply.com","Trane Supply - Little Rock","19 Colonel Glenn Plaza Dr.","Little Rock","AR","72210","US","<MISSING>","(501) 859-0689","<MISSING>","34.707839","-92.403808","M-F, 7am - 5pm, Saturday, Closed, Sunday, Closed","https://www.tranesupply.com/store-locator?q=71909"
"https://www.tranesupply.com","Gustave A. Larson Company - Eau Claire","2456 Morningside Dr.","Eau Claire","WI","54703","US","<MISSING>","<MISSING>","<MISSING>","44.8198543","-91.4721351","<MISSING>","https://www.tranesupply.com/store-locator?q=54659"
"https://www.tranesupply.com","Trane Supply - Denver","445 Bryant St","Denver","CO","80204","US","<MISSING>","(303) 228-3310","<MISSING>","39.722759","-105.0197759","M-F, 7am - 5pm, Saturday, Closed, Sunday, Closed","https://www.tranesupply.com/store-locator?q=80003"
"https://www.tranesupply.com","Trane Supply - Kansas City","2700 BiState Dr","Kansas City","MO","64108","US","<MISSING>","(913) 281-4222","<MISSING>","39.0773319","-94.6061507","M-F, 7am - 4:30pm, Saturday, Closed, Sunday, Closed","https://www.tranesupply.com/store-locator?q=64155"
"https://www.tranesupply.com","Trane Supply - Lees Summit","2724 NE Independence Ave","Lees Summit","MO","64064","US","<MISSING>","(816) 875-3048","<MISSING>","38.9599594","-94.3628919","M-F, 7am - 4:30pm, Saturday, Closed, Sunday, Closed","https://www.tranesupply.com/store-locator?q=64155"
"https://www.tranesupply.com","O Connor Co - Lee's Summit","2600-B NE Independence Ave","Lee's Summit","MO","64064","US","<MISSING>","<MISSING>","<MISSING>","38.958343","-94.3624376","<MISSING>","https://www.tranesupply.com/store-locator?q=64155"
"https://www.tranesupply.com","Air Engineers LLC - Fort Walton Beach","161 Hill Ave NW","Fort Walton Beach","FL","32548","US","<MISSING>","<MISSING>","<MISSING>","30.424035","-86.6668929","<MISSING>","https://www.tranesupply.com/store-locator?q=32571"
"https://www.tranesupply.com","Trane Supply - Milwaukee","4512 W Burnham","Milwaukee","WI","53215","US","<MISSING>","(414) 266-5201","<MISSING>","43.0104872","-87.9701574","M-F, 7am - 4:30pm, Saturday, Closed, Sunday, Closed","https://www.tranesupply.com/store-locator?q=60088"
"https://www.tranesupply.com","Gustave A. Larson Company - West Allis","6736 W. Washington St.","West Allis","WI","53214","US","<MISSING>","<MISSING>","<MISSING>","43.022185","-87.996454","<MISSING>","https://www.tranesupply.com/store-locator?q=60088"
"https://www.tranesupply.com","Trane Supply - Providence","333 Niantic Ave","Providence","RI","2907","US","<MISSING>","(401) 854-2540","<MISSING>","41.7937506","-71.4393497","M-F, 7am - 4:30pm, Saturday, Closed, Sunday, Closed","https://www.tranesupply.com/store-locator?q=02915"
"https://www.tranesupply.com","S. G. Torrice Company - Providence","55 Dupont Dr.","Providence","RI","2907","US","<MISSING>","<MISSING>","<MISSING>","41.801077","-71.4367733","<MISSING>","https://www.tranesupply.com/store-locator?q=02915"
"https://www.tranesupply.com","Trane Supply - Portland OR","7244 SW DURHAM ROAD, STE 100","Portland","OR","97224","US","<MISSING>","(503) 431-2500","<MISSING>","45.4091424","-122.7500059","M-F, 7am - 5pm, Saturday, Closed, Sunday, Closed","https://www.tranesupply.com/store-locator?q=97378"
"https://www.tranesupply.com","Gensco, Inc. - Tigard","7550 SW Tech Ctr Dr.","Tigard","OR","97223","US","<MISSING>","<MISSING>","<MISSING>","45.4193508","-122.7550251","<MISSING>","https://www.tranesupply.com/store-locator?q=97378"
"https://www.tranesupply.com","Gustave A. Larson Company - Pewaukee","W233 N2869 Roundy Circle W","Pewaukee","WI","53072","US","<MISSING>","<MISSING>","<MISSING>","43.0730251","-88.2136944","<MISSING>","https://www.tranesupply.com/store-locator?q=53090"
"https://www.tranesupply.com","Gustave A. Larson Company - Milwaukee","1215 West St. Paul Ave.","Milwaukee","WI","53233","US","<MISSING>","<MISSING>","<MISSING>","43.0346792","-87.9275395","<MISSING>","https://www.tranesupply.com/store-locator?q=53090"
"https://www.tranesupply.com","Trane Supply - Lake Charles","1145 E McNeese St","Lake Charles","LA","70607","US","<MISSING>","(337) 475-6255","<MISSING>","30.1767547","-93.2040425","M-F, 7:30am - 5pm, Saturday, Closed, Sunday, Closed","https://www.tranesupply.com/store-locator?q=70665"
"https://www.tranesupply.com","Trane Supply - McAllen","503 W Owassa Road","Edinburg","TX","78539","US","<MISSING>","(956) 973-0213","<MISSING>","26.2506947","-98.1791436","<MISSING>","https://www.tranesupply.com/store-locator?q=78588"
"https://www.tranesupply.com","Trane Supply - Edinburg","503 W Owassa Rd","Edinburg","TX","78539","US","<MISSING>","(956) 973-0213","<MISSING>","26.2506611","-98.1791153","M-F, 7:30am - 5pm, Saturday, Closed, Sunday, Closed","https://www.tranesupply.com/store-locator?q=78588"
"https://www.tranesupply.com","Trane Supply - Melbourne","5150 Industry Dr","Melbourne","FL","32940","US","<MISSING>","(321) 473-1212","<MISSING>","28.1954624","-80.6641639","M-F, 7:30am - 5pm, Saturday, Closed, Sunday, Closed","https://www.tranesupply.com/store-locator?q=34972"
"https://www.tranesupply.com","O Connor Co - Omaha","13900 Chalco Valley Parkway","Omaha","NE","68138","US","<MISSING>","<MISSING>","<MISSING>","41.182729","-96.132467","<MISSING>","https://www.tranesupply.com/store-locator?q=68114"
"https://www.tranesupply.com","Trane Supply - Jackson","138 Commerce Center Circle","Jackson","TN","38301","US","<MISSING>","(731) 424-0200","<MISSING>","35.6369452","-88.8516153","M-F, 7am - 5pm, Saturday, Closed, Sunday, Closed","https://www.tranesupply.com/store-locator?q=38340"
"https://www.tranesupply.com","Trane Supply - Sacramento/Rocklin","4145 Delmar Avenue","Rocklin","CA","95677","US","<MISSING>","(916) 577-1182","<MISSING>","38.8058336","-121.2187251","<MISSING>","https://www.tranesupply.com/store-locator?q=95709"
"https://www.tranesupply.com","Trane Supply - North Highlands","4380 Warehouse Court","North Highlands","CA","95660","US","<MISSING>","(916) 577-1100","<MISSING>","38.6475285","-121.3890325","M-F, 7am - 5pm, Saturday, Closed, Sunday, Closed","https://www.tranesupply.com/store-locator?q=95709"
"https://www.tranesupply.com","Trane Supply - West Palm Beach","6965 Vista Parkway North","West Palm Beach","FL","33411","US","<MISSING>","(561) 683-3306","<MISSING>","26.721394","-80.15043","M-F, 7:30am - 5pm, Saturday, Closed, Sunday, Closed","https://www.tranesupply.com/store-locator?q=33410"
