"locator_domain","location_name","street_address","city","state","zip","country_code","store_number","phone","location_type","latitude","longitude","hours_of_operation","page_url"
"https://www.la-z-boy.com","Hineline Home Furniture: A La-Z-Boy Comfort Studio","1411 S Main St","Maryville","MO","64468","US","39655539","(660) 562-0003","<MISSING>","40.332","-94.874","<MISSING>","<MISSING>"
"https://www.la-z-boy.com","O'Neil's Home Furnishings: A La-Z-Boy Comfort Studio","702 N 41St St","Bethany","MO","64424","US","65154428","(660) 425-7200","<MISSING>","40.268","-94.028","<MISSING>","<MISSING>"
"https://www.la-z-boy.com","La-Z-Boy Furniture Galleries","1737 E Independence St","Springfield","MO","65804","US","50854836","(417) 883-3820","<MISSING>","37.142","-93.263","Monday 10am - 7pm Tuesday 10am - 7pm Wednesday 10am - 7pm Thursday 10am - 7pm Friday 10am - 7pm Saturday 10am - 7pm Sunday 12pm - 6pm","https://www.la-z-boy.com/Springfield/Springfield/"
"https://www.la-z-boy.com","Hertzberg Furniture Company: A La-Z-Boy Comfort Studio","116 E Cherry Ste 118","Nevada","MO","64772","US","39054004","(417) 667-5574","<MISSING>","37.838","-94.356","<MISSING>","<MISSING>"
"https://www.la-z-boy.com","La-Z-Boy Home Furnishings & Decor - Reopens 1/15/20","332 Route 4 East","Paramus","NJ","07652","US","50856308","(201) 678-1002","<MISSING>","40.914","-74.046","Monday 10am - 8pm Tuesday 10am - 8pm Wednesday 10am - 8pm Thursday 10am - 8pm Friday 10am - 8pm Saturday 10am - 8pm Sunday Closed","https://www.la-z-boy.com/NYC-Metro/Route-4-E/"
"https://www.la-z-boy.com","La-Z-Boy Home Furnishings & Decor","130 S Central Ave","Hartsdale","NY","10530","US","50860623","(914) 448-4890","<MISSING>","41.016","-73.802","Monday 10am - 8pm Tuesday 10am - 8pm Wednesday 10am - 8pm Thursday 10am - 8pm Friday 10am - 8pm Saturday 10am - 8pm Sunday 11am - 6pm","https://www.la-z-boy.com/NYC-Metro/Hartsdale/"
"https://www.la-z-boy.com","La-Z-Boy Home Furnishings & Decor","89 Nj-23","Wayne","NJ","07470","US","50860909","(973) 890-2367","<MISSING>","40.89","-74.248","Monday 10am - 8pm Tuesday 10am - 8pm Wednesday 10am - 8pm Thursday 10am - 8pm Friday 10am - 8pm Saturday 10am - 8pm Sunday 11am - 6pm","https://www.la-z-boy.com/NYC-Metro/Wayne/"
"https://www.la-z-boy.com","La-Z-Boy Home Furnishings & Decor","265 Glen Cove Rd","Carle Place","NY","11514","US","50824139","(516) 248-2323","<MISSING>","40.751","-73.618","Monday 10am - 9pm Tuesday 10am - 9pm Wednesday 10am - 9pm Thursday 10am - 9pm Friday 10am - 9pm Saturday 10am - 9pm Sunday 11am - 6pm","https://www.la-z-boy.com/Long-Island-NYC/Glen-Cove-Road/"
"https://www.la-z-boy.com","La-Z-Boy Furniture Galleries","150 Sunrise Hwy","Rockville Centre","NY","11570","US","50824155","(516) 766-0910","<MISSING>","40.657","-73.649","Monday 10am - 9pm Tuesday 10am - 9pm Wednesday 10am - 9pm Thursday 10am - 9pm Friday 10am - 9pm Saturday 10am - 6pm Sunday 11am - 6pm","https://www.la-z-boy.com/Long-Island-NYC/Sunrise-Highway/"
"https://www.la-z-boy.com","La-Z-Boy Home Furnishings & Decor","500 Mount Pleasant Ave","Dover","NJ","07801","US","50861484","(973) 891-1857","<MISSING>","40.904","-74.567","Monday 10am - 8pm Tuesday 10am - 8pm Wednesday 10am - 8pm Thursday 10am - 8pm Friday 10am - 8pm Saturday 10am - 8pm Sunday 11am - 6pm","https://www.la-z-boy.com/Northeast-Pennsylvania/Dover/"
"https://www.la-z-boy.com","La-Z-Boy Home Furnishings & Decor","1240 Route 22 E","N Plainfield","NJ","07060","US","50860925","(908) 769-4783","<MISSING>","40.616","-74.451","Monday 10am - 8pm Tuesday 10am - 8pm Wednesday 10am - 8pm Thursday 10am - 8pm Friday 10am - 8pm Saturday 10am - 8pm Sunday 11am - 6pm","https://www.la-z-boy.com/NYC-Metro/Plainfield/"
"https://www.la-z-boy.com","La-Z-Boy Furniture Galleries","1644 Rt 110","Farmingdale","NY","11735","US","50824228","(631) 845-4790","<MISSING>","40.743","-73.423","Monday 10am - 9pm Tuesday 10am - 9pm Wednesday 10am - 9pm Thursday 10am - 9pm Friday 10am - 9pm Saturday 10am - 9pm Sunday 11am - 6pm","https://www.la-z-boy.com/Long-Island-NYC/Route-110/"
"https://www.la-z-boy.com","La-Z-Boy Furniture Galleries","505 Schutt Rd, Ste 2","Middletown","NY","10940","US","50861492","(845) 346-4636","<MISSING>","41.45","-74.384","Monday 10am - 8pm Tuesday 10am - 8pm Wednesday 10am - 8pm Thursday 10am - 8pm Friday 10am - 8pm Saturday 10am - 8pm Sunday 11am - 6pm","https://www.la-z-boy.com/Northeast-Pennsylvania/Schutt-Road/"
"https://www.la-z-boy.com","La-Z-Boy Home Furnishings & Decor","4030 Us 1","Monmouth Jct","NJ","08852","US","85166023","(732) 951-9000","<MISSING>","40.399","-74.556","Monday 10am - 8pm Tuesday 10am - 8pm Wednesday 10am - 8pm Thursday 10am - 8pm Friday 10am - 8pm Saturday 10am - 8pm Sunday 11am - 5pm","https://www.la-z-boy.com/Central-New-Jersey/Route-1/"
"https://www.la-z-boy.com","La-Z-Boy Home Furnishings & Decor","227 Federal Rd Unit 7","Brookfield","CT","06804","US","50860216","(203) 740-1664","<MISSING>","41.444","-73.404","Monday 10am - 8pm Tuesday 10am - 8pm Wednesday 10am - 8pm Thursday 10am - 8pm Friday 10am - 8pm Saturday 10am - 8pm Sunday 11am - 6pm","https://www.la-z-boy.com/NYC-Metro/Brookfield/"
"https://www.la-z-boy.com","La-Z-Boy Furniture Galleries","4016 Nesconset Hwy","Setauket","NY","11733","US","50857088","(631) 642-3240","<MISSING>","40.904","-73.075","Monday 10am - 9pm Tuesday 10am - 9pm Wednesday 10am - 9pm Thursday 10am - 9pm Friday 10am - 9pm Saturday 10am - 6pm Sunday 11am - 6pm","https://www.la-z-boy.com/Long-Island-NYC/Nesconset-Highway/"
"https://www.la-z-boy.com","Frizzell Enterprises, Inc.: A La-Z-Boy Comfort Studio","6463 State 371 N W","Walker","MN","56484","US","29222028","(218) 547-1076","<MISSING>","47.04","-94.54","<MISSING>","<MISSING>"
"https://www.la-z-boy.com","La-Z-Boy Home Furnishings & Decor","6390 Carlisle Pike","Mechanicsburg","PA","17050","US","50861662","(717) 601-5483","<MISSING>","40.247","-77.006","Monday 10am - 8pm Tuesday 10am - 8pm Wednesday 10am - 8pm Thursday 10am - 8pm Friday 10am - 8pm Saturday 10am - 8pm Sunday 11am - 6pm","https://www.la-z-boy.com/Northeast-Pennsylvania/Carlisle-Pike"
"https://www.la-z-boy.com","La-Z-Boy Home Furnishings & Decor","728 Loucks Rd","York","PA","17404","US","50861565","(717) 430-6396","<MISSING>","39.981","-76.747","Monday 10am - 8pm Tuesday 10am - 8pm Wednesday 10am - 8pm Thursday 10am - 8pm Friday 10am - 8pm Saturday 10am - 8pm Sunday 11-am - 6pm","https://www.la-z-boy.com/Northeast-Pennsylvania/York/"
"https://www.la-z-boy.com","La-Z-Boy Furniture Galleries","5125 Jonestown Rd","Harrisburg","PA","17112","US","50861506","(717) 412-3620","<MISSING>","40.308","-76.796","Monday 10am - 8pm Tuesday 10am - 8pm Wednesday 10am - 8pm Thursday 10am - 8pm Friday 10am - 8pm Saturday 10am - 8pm Sunday 11am - 6pm","https://www.la-z-boy.com/Northeast-Pennsylvania/jonestown-rd/"
"https://www.la-z-boy.com","La-Z-Boy Home Furnishings & Decor","10070 Reisterstown Rd","Owings Mills","MD","21117","US","50861247","(410) 356-4982","<MISSING>","39.424","-76.785","Monday 10am - 8pm Tuesday 10am - 8pm Wednesday 10am - 8pm Thursday 10am - 8pm Friday 10am - 8pm Saturday 10am - 8pm Sunday 11am - 6pm","https://www.la-z-boy.com/Baltimore/Owings-Mills/"
"https://www.la-z-boy.com","La-Z-Boy Home Furnishings & Decor","2301 York Rd","Timonium","MD","21093","US","50860518","(410) 252-8960","<MISSING>","39.449","-76.629","Monday 10am - 8pm Tuesday 10am - 8pm Wednesday 10am - 8pm Thursday 10am - 8pm Friday 10am - 8pm Saturday 10am - 8pm Sunday 11am - 6pm","https://www.la-z-boy.com/Baltimore/Timonium/"
"https://www.la-z-boy.com","Wolf Furniture: A La-Z-Boy Comfort Studio","480 Gateway Ave","Chambersburg","PA","17201","US","97274518","(717) 264-9116","<MISSING>","39.938","-77.63","<MISSING>","<MISSING>"
"https://www.la-z-boy.com","Wolf Furniture: A La-Z-Boy Comfort Studio","371 Eisenhower Drive","Hanover","PA","17331","US","97274488","(717) 637-5400","<MISSING>","39.825","-76.985","<MISSING>","<MISSING>"
"https://www.la-z-boy.com","Wolf Furniture: A La-Z-Boy Comfort Studio","900 Prime Outlets Blvd","Hagerstown","MD","21740","US","97274275","(301) 790-7933","<MISSING>","39.608","-77.732","<MISSING>","<MISSING>"
"https://www.la-z-boy.com","Gardiner Wolf: A La-Z-Boy Comfort Studio","1030 Baltimore Blvd","Westminster","MD","21157","US","97274585","(410) 876-2228","<MISSING>","39.556","-76.959","<MISSING>","<MISSING>"
"https://www.la-z-boy.com","Wolf Furniture: A La-Z-Boy Comfort Studio","75 Gateway Dr (D101)","Mechanicsburg","PA","17055","US","97274496","(814) 742-4380","<MISSING>","40.238","-76.981","<MISSING>","<MISSING>"
"https://www.la-z-boy.com","Wolf Furniture: A La-Z-Boy Comfort Studio","1215 W Patrick St","Frederick","MD","21702","US","97274097","(301) 846-0800","<MISSING>","39.419","-77.454","<MISSING>","<MISSING>"
"https://www.la-z-boy.com","Wolf Furniture: A La-Z-Boy Comfort Studio","380 N Northern Way","York","PA","17402","US","97274437","(717) 751-6991","<MISSING>","39.981","-76.675","<MISSING>","<MISSING>"
"https://www.la-z-boy.com","Wolf Furniture: A La-Z-Boy Comfort Studio","4661 Lindle Road","Harrisburg","PA","17111","US","97274402","(717) 939-7851","<MISSING>","40.241","-76.802","<MISSING>","<MISSING>"
"https://www.la-z-boy.com","La-Z-Boy Furniture Galleries","2875 Santa Rosa Ave Ste A","Santa Rosa","CA","95407","US","50869019","(707) 525-0569","<MISSING>","38.407","-122.715","Monday 10am - 7pm Tuesday 10am - 7pm Wednesday 10am - 7pm Thursday 10am - 7pm Friday 10am - 7pm Saturday 10am - 6pm Sunday 11am - 6pm","https://www.la-z-boy.com/Santa-Rosa/Santa-Rosa/"
"https://www.la-z-boy.com","La-Z-Boy Home Furnishings & Decor","5111 Business Center Dr","Fairfield","CA","94534","US","50870726","(707) 759-6675","<MISSING>","38.215","-122.142","Monday 10am - 8pm Tuesday 10am - 8pm Wednesday 10am - 8pm Thursday 10am - 8pm Friday 10am - 8pm Saturday 10am - 6pm Sunday 11am - 6pm","https://www.la-z-boy.com/Bay-Area/Fairfield/"
"https://www.la-z-boy.com","La-Z-Boy Furniture Galleries","5800 Christie Ave","Emeryville","CA","94608","US","50870505","(510) 654-4500","<MISSING>","37.839","-122.294","Monday 10am - 8pm Tuesday 10am - 8pm Wednesday 10am - 8pm Thursday 10am - 8pm Friday 10am - 8pm Saturday 10am - 6pm Sunday 11am -6pm","https://www.la-z-boy.com/Bay-Area/Christie-Ave/"
"https://www.la-z-boy.com","La-Z-Boy Furniture Galleries","626 Contra Costa Blvd","Pleasant Hill","CA","94523","US","50869876","(925) 685-4555","<MISSING>","37.974","-122.065","Monday 10am - 8pm Tuesday 10am - 8pm Wednesday 10am - 8pm Thursday 10am - 8pm Friday 10am - 8pm Saturday 10am - 6pm Sunday 11am - 6pm","https://www.la-z-boy.com/Bay-Area/Contra-Costa-Boulevard/"
"https://www.la-z-boy.com","La-Z-Boy Furniture Galleries","415 El Camino Real","S San Francisco","CA","94080","US","50870157","(650) 875-7505","<MISSING>","37.646","-122.428","Monday 10am - 8pm Tuesday 10am - 8pm Wednesday 10am - 8pm Thursday 10am - 8pm Friday 10am - 8pm Saturday 10am - 6pm Sunday 11am - 6pm","https://www.la-z-boy.com/Bay-Area/El-Camino-Real-San-Francisco/"
"https://www.la-z-boy.com","La-Z-Boy Furniture Galleries","1000 S Shackleford","Little Rock","AR","72211","US","50859307","(501) 224-4624","<MISSING>","34.744","-92.394","Monday 10am - 7pm Tuesday 10am - 7pm Wednesday 10am - 7pm Thursday 10am - 7pm Friday 10am - 7pm Saturday 10am - 7pm Sunday 11:30am - 6pm","https://www.la-z-boy.com/Little-Rock/Little-Rock/"
"https://www.la-z-boy.com","Appliance Home Mart, Inc.: A La-Z-Boy Comfort Studio","201 S Main","Stuttgart","AR","72160","US","02029537","(870) 673-6426","<MISSING>","34.501","-91.553","<MISSING>","<MISSING>"
"https://www.la-z-boy.com","H3 + Decor: A La-Z-Boy Comfort Studio","806 2Nd St","Conway","AR","72032","US","36053015","(501) 327-6523","<MISSING>","35.088","-92.436","<MISSING>","<MISSING>"
"https://www.la-z-boy.com","Browns Furniture & Appliance: A La-Z-Boy Comfort Studio","502 S Main","Malvern","AR","72104","US","10772138","(501) 332-2691","<MISSING>","34.362","-92.813","<MISSING>","<MISSING>"
"https://www.la-z-boy.com","La-Z-Boy Home Furnishings & Decor","485 Payne Rd","Scarborough","ME","04074","US","50869160","(207) 885-0141","<MISSING>","43.627","-70.345","Monday 10am - 6pm Tuesday 10am - 6pm Wednesday 10am - 6pm Thursday 10am - 6pm Friday 10am - 6pm Saturday 10am - 5pm Sunday Closed","https://www.la-z-boy.com/Maine/Maine/"
"https://www.la-z-boy.com","Top Furniture, Inc.: A La-Z-Boy Comfort Studio","570 Main St","Gorham","NH","03581","US","89008006","(603) 752-5212","<MISSING>","44.424","-71.194","<MISSING>","<MISSING>"
"https://www.la-z-boy.com","Harris Family Furniture: A La-Z-Boy Comfort Studio","485 Tenney Mountain Hwy","Plymouth","NH","03264","US","36954004","(603) 536-1422","<MISSING>","43.77","-71.714","<MISSING>","<MISSING>"
"https://www.la-z-boy.com","F. X. Marcotte Bro. & Co.: A La-Z-Boy Comfort Studio","132 Lincoln St","Lewiston","ME","04240","US","55406009","(207) 783-8593","<MISSING>","44.092","-70.218","<MISSING>","<MISSING>"
"https://www.la-z-boy.com","La-Z-Boy Furniture Galleries","6751 North Point Pkwy","Alpharetta","GA","30022","US","50856766","(770) 831-5586","<MISSING>","34.045","-84.297","Monday 10am - 8pm Tuesday 10am - 8pm Wednesday 10am - 8pm Thursday 10am - 8pm Friday 10am - 8pm Saturday 10am - 8pm Sunday 12pm - 6pm","https://www.la-z-boy.com/Atlanta/Alpharetta/"
"https://www.la-z-boy.com","La-Z-Boy Home Furnishings & Decor","995 Ernest Barrett Pkwy","Kennesaw","GA","30144","US","50859943","(770) 831-5586","<MISSING>","34.002","-84.581","Monday 10am - 8pm Tuesday 10am - 8pm Wednesday 10am - 8pm Thursday 10am - 8pm Friday 10am - 8pm Saturday 10am - 8pm Sunday 12pm - 6pm","https://www.la-z-boy.com/Atlanta/Kennesaw/"
"https://www.la-z-boy.com","La-Z-Boy Furniture Galleries","1855 Mall Of Georgia Blvd","Buford","GA","30519","US","50857649","(770) 831-5586","<MISSING>","34.061","-83.989","Monday 10a.m.-8p.m. Tuesday 10a.m.-8p.m. Wednesday 10a.m.-8p.m. Thursday 10a.m.-8p.m. Friday 10a.m.-8p.m. Saturday 10a.m.-8p.m. Sunday Noon-6p.m.","https://www.la-z-boy.com/Atlanta/Buford/"
"https://www.la-z-boy.com","La-Z-Boy Furniture Galleries","4551 Olde Perimeter Way","Atlanta","GA","30346","US","50858289","(770) 831-5586","<MISSING>","33.93","-84.343","Monday 10am - 8pm Tuesday 10am - 8pm Wednesday 10am - 8pm Thursday 10am - 8pm Friday 10am - 8pm Saturday 10am - 8pm Sunday 12pm - 6pm","https://www.la-z-boy.com/Atlanta/Olde-Perimeter-Way/"
"https://www.la-z-boy.com","La-Z-Boy Home Furnishings & Decor","1150 Scenic Hwy","Lawrenceville","GA","30045","US","50860879","(770) 831-5586","<MISSING>","33.906","-84.004","Monday 10am - 8pm Tuesday 10am - 8pm Wednesday 10am - 8pm Thursday 10am - 8pm Friday 10am - 8pm Saturday 10am - 8pm Sunday 12pm - 6pm","https://www.la-z-boy.com/Atlanta/Snellville/"
"https://www.la-z-boy.com","West Harvard Furniture, Inc.: A La-Z-Boy Comfort Studio","2558 W Harvard Ave","Roseburg","OR","97470","US","95154078","(541) 673-4221","<MISSING>","43.214","-123.382","<MISSING>","<MISSING>"
"https://www.la-z-boy.com","La-Z-Boy Furniture Galleries","1750 Boston Post Rd","Milford","CT","06460","US","50852760","(203) 301-0312","<MISSING>","41.25","-73.022","Monday 10am - 8pm Tuesday 10am - 8pm Wednesday 10am - 8pm Thursday 10am - 8pm Friday 10am - 8pm Saturday 10am -8pm Sunday 11am - 6pm","https://www.la-z-boy.com/Nyc-Metro/Boston-Post-Road/"
"https://www.la-z-boy.com","La-Z-Boy Furniture Galleries","1544 East 70th St","Shreveport","LA","71105","US","50857509","(318) 798-1980","<MISSING>","32.443","-93.722","Monday 10am - 7pm Tuesday 10am - 7pm Wednesday 10am - 7pm Thursday 10am - 7pm Friday 10am - 7pm Saturday 10am - 7pm Sunday 1pm - 5pm","https://www.la-z-boy.com/Shreveport/Shreveport/"
"https://www.la-z-boy.com","La-Z-Boy Furniture Galleries","1219 W Loop 281","Longview","TX","75604","US","50857207","(903) 759-6116","<MISSING>","32.532","-94.772","Monday 10am - 7pm Tuesday 10am - 7pm Wednesday 10am - 7pm Thursday 10am - 7pm Friday 10am - 7pm Saturday 10am - 7pm Sunday 1pm - 5pm","https://www.la-z-boy.com/Tyler/Longview/"
"https://www.la-z-boy.com","Country Sales: A La-Z-Boy Comfort Studio","12333 85th Ave","Milaca","MN","56353","US","17915058","(320) 983-6187","<MISSING>","45.764","-93.633","<MISSING>","<MISSING>"
"https://www.la-z-boy.com","Callan's, Inc.: A La-Z-Boy Comfort Studio","2316 Division St","Waite Park","MN","56387","US","12335800","(320) 253-1050","<MISSING>","45.554","-94.243","<MISSING>","<MISSING>"
"https://www.la-z-boy.com","La-Z-Boy Furniture Galleries","1238 Central Pk Dr","O'Fallon","IL","62269","US","50857894","(618) 628-6399","<MISSING>","38.578","-89.936","Monday 10am - 8pm Tuesday 10am - 8pm Wednesday 10am - 8pm Thursday 10am - 8pm Friday 10am - 8pm Saturday 10am - 8pm Sunday 11am - 6pm","https://www.la-z-boy.com/Saint-Louis/Central-Park-Drive/"
"https://www.la-z-boy.com","La-Z-Boy Home Furnishings & Decor","8324 Eager Road","Brentwood","MO","63144","US","50859684","(314) 647-2121","<MISSING>","38.629","-90.338","Monday 10am - 8pm Tuesday 10am - 8pm Wednesday 10am - 8pm Thursday 10am - 8pm Friday 10am - 8pm Saturday 10am - 8pm Sunday 11am - 6pm","https://www.la-z-boy.com/Saint-Louis/Brentwood/"
"https://www.la-z-boy.com","La-Z-Boy Home Furnishings & Decor","4110 Von Talge Rd","Saint Louis","MO","63128","US","50876325","(314) 416-4661","<MISSING>","38.514","-90.342","Monday 10am - 8pm Tuesday 10am - 8pm Wednesday 10am - 8pm Thursday 10am - 8pm Friday 10am - 8pm Saturday 10am - 8pm Sunday 11am - 6pm","https://www.la-z-boy.com/Saint-Louis/Von-Talge-Road/"
"https://www.la-z-boy.com","La-Z-Boy Furniture Galleries - Reopens 1/15/20","14177 Manchester Road","Manchester","MO","63011","US","50876074","(636) 394-7447","<MISSING>","38.594","-90.499","Monday 10am - 8pm Tuesday 10am - 8pm Wednesday 10am - 8pm Thursday 10am - 8pm Friday 10am - 8pm Saturday 10am - 8pm Sunday 11am - 6pm","https://www.la-z-boy.com/Saint-Louis/Manchester-Road/"
"https://www.la-z-boy.com","La-Z-Boy Furniture Galleries - Reopens 1/15/20","1690 Highway K","O'Fallon","MO","63366","US","50857762","(636) 379-3945","<MISSING>","38.787","-90.7","Monday 10am - 8pm Tuesday 10am - 8pm Wednesday 10am - 8pm Thursday 10am - 8pm Friday 10am - 8pm Saturday 10am - 8pm Sunday 11am - 6pm","https://www.la-z-boy.com/Saint-Louis/Meagan-Avenue/"
"https://www.la-z-boy.com","Kettle River Furniture: A La-Z-Boy Comfort Studio","1091 S State Route 157","Edwardsville","IL","62025","US","47277009","(618) 656-5111","<MISSING>","38.791","-89.979","<MISSING>","<MISSING>"
"https://www.la-z-boy.com","Jerseyville Carpet & Furniture: A La-Z-Boy Comfort Studio","1672 South State Street","Jerseyville","IL","62052","US","44275013","(618) 639-9858","<MISSING>","39.102","-90.313","<MISSING>","<MISSING>"
"https://www.la-z-boy.com","Short Furniture Company: A La-Z-Boy Comfort Studio","319 N State","Litchfield","IL","62056","US","81206011","(217) 324-2117","<MISSING>","39.176","-89.655","<MISSING>","<MISSING>"
"https://www.la-z-boy.com","La-Z-Boy Home Furnishings & Decor","919 Viewmont Dr","Scranton","PA","18519","US","50861522","(570) 207-4500","<MISSING>","41.454","-75.645","Monday 10am - 8pm Tuesday 10am - 8pm Wednesday 10am - 8pm Thursday 10am - 8pm Friday 10am - 8pm Saturday 10am - 8pm Sunday 11am - 6pm","https://www.la-z-boy.com/Northeast-Pennsylvania/Viewpoint-Drive/"
"https://www.la-z-boy.com","La-Z-Boy Furniture Galleries","385 Wyoming Valley Mall","Wilkes Barre","PA","18702","US","50861476","(570) 208-4040","<MISSING>","41.244","-75.848","Monday 10am - 8pm Tuesday 10am - 8pm Wednesday 10am - 8pm Thursday 10am - 8pm Friday 10am - 8pm Saturday 10am - 8pm Sunday 11am - 6pm","https://www.la-z-boy.com/Northeast-Pennsylvania/Wyoming-Valley-Mall/"
"https://www.la-z-boy.com","Van Gorders' Furniture: A La-Z-Boy Comfort Studio","110 6th St","Honesdale","PA","18431","US","91565006","(570) 253-1860","<MISSING>","41.571","-75.253","<MISSING>","<MISSING>"
"https://www.la-z-boy.com","Olum's Furniture: A La-Z-Boy Comfort Studio","3701 Vestal Parkway E","Vestal","NY","13850","US","65049004","(607) 729-5775","<MISSING>","42.079","-76.019","<MISSING>","<MISSING>"
"https://www.la-z-boy.com","La-Z-Boy Furniture Galleries","1901 N Green River Rd","Evansville","IN","47715","US","50861034","(812) 479-3155","<MISSING>","37.994","-87.493","Monday 10am - 7pm Tuesday 10am - 7pm Wednesday 10am - 7pm Thursday 10am - 7pm Friday 10am - 7pm Saturday 10am - 7pm Sunday 12pm - 5pm","https://www.la-z-boy.com/Evansville/Evansville/"
"https://www.la-z-boy.com","Todd's Furniture, Inc.: A La-Z-Boy Comfort Studio","126 W Center St","Madisonville","KY","42431","US","88668029","(270) 825-2785","<MISSING>","37.328","-87.501","<MISSING>","<MISSING>"
"https://www.la-z-boy.com","Furniture Design Center: A La-Z-Boy Comfort Studio","1205 Airport Blvd","Ukiah","CA","95482","US","29625246","(707) 463-3500","<MISSING>","39.132","-123.198","<MISSING>","<MISSING>"
"https://www.la-z-boy.com","Flooring American & Furniture: A La-Z-Boy Comfort Studio","15 East Parkway","Liberal","KS","67901","US","28043812","(620) 626-5959","<MISSING>","37.067","-100.922","<MISSING>","<MISSING>"
"https://www.la-z-boy.com","Reid's Furniture: A La-Z-Boy Comfort Studio","1930 Hwy 64 North","Guymon","OK","73942","US","72912545","(580) 338-8898","<MISSING>","36.698","-101.483","<MISSING>","<MISSING>"
"https://www.la-z-boy.com","La-Z-Boy Furniture Galleries","16814 I-45 South","The Woodlands","TX","77384","US","50856405","(936) 273-2422","<MISSING>","30.211","-95.457","Monday 10am - 9pm Tuesday 10am - 9pm Wednesday 10am - 9pm Thursday 10am - 9pm Friday 10am - 9pm Saturday 10am - 8pm Sunday 12pm - 6pm","https://www.la-z-boy.com/DFW/I-45-S/"
"https://www.la-z-boy.com","La-Z-Boy Home Furnishings & Decor","6329 Fm 1960 West","Houston","TX","77069","US","50854763","(281) 587-1800","<MISSING>","29.973","-95.524","Monday 10am - 8pm Tuesday 10am - 8pm Wednesday 10am - 8pm Thursday 10am - 8pm Friday 10am - 8pm Saturday 10am - 8pm Sunday 12pm - 6pm","https://www.la-z-boy.com/DFW/FM-1960-W/"
"https://www.la-z-boy.com","La-Z-Boy Home Furnishings & Decor","20155 Hwy 59 N","Humble","TX","77338","US","50861255","(832) 995-2161","<MISSING>","30.008","-95.267","Monday 10am - 8pm Tuesday 10am - 8pm Wednesday 10am - 8pm Thursday 10am - 8pm Friday 10am - 8pm Saturday 10am - 8pm Sunday 12pm - 6pm","https://www.la-z-boy.com/DFW/Humble/"
"https://www.la-z-boy.com","La-Z-Boy Furniture Galleries","15905 Katy Freeway","Houston","TX","77094","US","50862952","(281) 579-1843","<MISSING>","29.784","-95.661","Monday 10am - 8pm Tuesday 10am - 8pm Wednesday 10am - 8pm Thursday 10am - 8pm Friday 10am - 8pm Saturday 10am - 8pm Sunday 12pm - 6pm","https://www.la-z-boy.com/DFW/Katy-Freeway/"
"https://www.la-z-boy.com","Adams Furniture: A La-Z-Boy Comfort Studio","30 State Highway 75 N","Huntsville","TX","77320","US","00281069","(936) 295-1028","<MISSING>","30.724","-95.56","<MISSING>","<MISSING>"
"https://www.la-z-boy.com","Pedigo Furniture, Inc.: A La-Z-Boy Comfort Studio","3785 Hwy 190 W","Livingston","TX","77351","US","66999006","(936) 967-2600","<MISSING>","30.735","-94.99","<MISSING>","<MISSING>"
"https://www.la-z-boy.com","Star Furniture - Bryan: A La-Z-Boy Comfort Studio","3400 E 29th St","Bryan","TX","77802","US","84498064","(979) 776-4422","<MISSING>","30.653","-96.336","<MISSING>","<MISSING>"
"https://www.la-z-boy.com","La-Z-Boy Home Furnishings & Decor","7300 11th St SE","Calgary","AB","T2H 2S9","CA","20186037","(403) 259-1000","<MISSING>","50.99","-114.04","Monday 10am - 8pm Tuesday 10am - 8pm Wednesday 10am - 8pm Thursday 10am - 8pm Friday 10am - 8pm Saturday 10am - 6pm Sunday 11am - 5pm","https://www.la-z-boy.com/Calgary/11th-Street-SE/"
"https://www.la-z-boy.com","La-Z-Boy Furniture Galleries","5111 Northland Dr Nw","Calgary","AB","T2L 2J8","CA","50856693","(403) 240-1000","<MISSING>","51.1","-114.141","Monday 10am - 7p Tuesday 10am - 7pm Wednesday 10am - 7pm Thursday 10am - 8pm Friday 10am - 8pm Saturday 10am - 6pm Sunday 11am - 5pm","https://www.la-z-boy.com/Calgary/Northland-Drive-NW/"
"https://www.la-z-boy.com","La-Z-Boy Home Furnishings & Decor","293100 Cross Iron Ln","Rocky View","AB","T4A 0T9","CA","20186053","(403) 226-1000","<MISSING>","51.201","-113.99","Monday 10am - 8pm Tuesday 10am - 8pm Wednesday 10am - 8pm Thursday 10am - 8pm Friday 10am - 8pm Saturday 10am - 6pm Sunday 11am - 5pm","https://www.la-z-boy.com/Calgary/Crossiron/"
"https://www.la-z-boy.com","Paul's Furniture: A La-Z-Boy Comfort Studio","1355 South Bishop","Rolla","MO","65401","US","66794056","(573) 364-7285","<MISSING>","37.924","-91.78","<MISSING>","<MISSING>"
"https://www.la-z-boy.com","Paul's Furniture: A La-Z-Boy Comfort Studio","400 Marshall Dr","St Robert","MO","65584","US","66794048","(573) 336-7255","<MISSING>","37.808","-92.142","<MISSING>","<MISSING>"
"https://www.la-z-boy.com","Union Furniture Co.: A La-Z-Boy Comfort Studio","21 S Washington Ave","Union","MO","63084","US","90600045","(636) 583-3133","<MISSING>","38.445","-91.009","<MISSING>","<MISSING>"
"https://www.la-z-boy.com","La-Z-Boy Home Furnishings & Decor","5828 Dressler Rd NW","Canton","OH","44720","US","50861204","(330) 494-8085","<MISSING>","40.865","-81.43","Monday 10am - 8pm Tuesday 10am - 8pm Wednesday 10am - 8pm Thursday 10am - 8pm Friday 10am - 8pm Saturday 10am - 8pm Sunday 11am - 6pm","https://www.la-z-boy.com/Northeast-Ohio/Dressler-Road-NW/"
"https://www.la-z-boy.com","La-Z-Boy Furniture Galleries","172 Howe Ave","Cuyahoga Falls","OH","44221","US","50861107","(330) 929-7632","<MISSING>","41.119","-81.486","Monday 10am - 8pm Tuesday 10am - 8pm Wednesday 10am - 8pm Thursday 10am - 8pm Friday 10am - 8pm Saturday 10am - 8pm Sunday 11am - 6pm","https://www.la-z-boy.com/Northeast-Ohio/Howe-Ave/"
"https://www.la-z-boy.com","Homestead Furniture, LTD.: A La-Z-Boy Comfort Studio","8233 State Route 241","Mount Hope","OH","44660","US","41043022","(866) 674-4902","<MISSING>","40.625","-81.784","<MISSING>","<MISSING>"
"https://www.la-z-boy.com","Wilson Carpet & Furniture: A La-Z-Boy Comfort Studio","230 Main","Coshocton","OH","43812","US","96818948","(740) 622-6237","<MISSING>","40.274","-81.868","<MISSING>","<MISSING>"
"https://www.la-z-boy.com","Williams Furniture, Inc.: A La-Z-Boy Comfort Studio","122 S Wooster Ave","Dover","OH","44622","US","96571012","(330) 343-5742","<MISSING>","40.519","-81.472","<MISSING>","<MISSING>"
"https://www.la-z-boy.com","Furniture Annex: A La-Z-Boy Comfort Studio","220 W Market","Orrville","OH","44667","US","29463009","(330) 682-4926","<MISSING>","40.846","-81.757","<MISSING>","<MISSING>"
"https://www.la-z-boy.com","Farm & Home Hardware: A La-Z-Boy Comfort Studio","7 W Main St","Ashland","OH","44805","US","73099724","(419) 281-4663","<MISSING>","40.869","-82.317","<MISSING>","<MISSING>"
"https://www.la-z-boy.com","Randolph Home Furnishings: A La-Z-Boy Comfort Studio","3991 Waterloo Rd","Randolph","OH","44265","US","71659013","(330) 325-1711","<MISSING>","41.033","-81.248","<MISSING>","<MISSING>"
"https://www.la-z-boy.com","Nicholls Furniture Express: A La-Z-Boy Comfort Studio","1581 W 4th St","Mansfield","OH","44906","US","50851624","(419) 529-6070","<MISSING>","40.769","-82.569","<MISSING>","<MISSING>"
"https://www.la-z-boy.com","Byesville Furniture: A La-Z-Boy Comfort Studio","161 S 2Nd St","Byesville","OH","43723","US","11885017","(740) 685-2147","<MISSING>","39.969","-81.537","<MISSING>","<MISSING>"
"https://www.la-z-boy.com","La-Z-Boy Furniture Galleries","5151 S Sherwood Forest Bl","Baton Rouge","LA","70816","US","50854925","(225) 295-1333","<MISSING>","30.408","-91.051","Monday 10am - 7pm Tuesday 10am - 7pm Wednesday 10am - 7pm Thursday 10am - 7pm Friday 10am - 7pm Saturday 10am - 6pm Sunday 12pm - 5pm","https://www.la-z-boy.com/Baton-Rouge/Baton-Rouge/"
"https://www.la-z-boy.com","Acadian Home Furnishings: A La-Z-Boy Comfort Studio","609 St Mary St","Thibodaux","LA","70301","US","24725056","(985) 447-5966","<MISSING>","29.796","-90.831","<MISSING>","<MISSING>"
"https://www.la-z-boy.com","Johnny Janosik, Inc.: A La-Z-Boy Comfort Studio","11151 Trussum Pond Rd","Laurel","DE","19956","US","44014104","(302) 875-5955","<MISSING>","38.55","-75.555","<MISSING>","<MISSING>"
"https://www.la-z-boy.com","La-Z-Boy Home Furnishings & Decor","2530 Walnut St","Cary","NC","27518","US","50860674","(919) 859-3707","<MISSING>","35.752","-78.741","Monday 10am - 8pm Tuesday 10am - 8pm Wednesday 10am - 8pm Thursday 10am - 8pm Friday 10am - 8pm Saturday 10am - 8pm Sunday 12pm - 5pm","https://www.la-z-boy.com/Raleigh/Cary-Walnut-Street/"
"https://www.la-z-boy.com","La-Z-Boy Furniture Galleries","7900 Falls Of The Neuse","Raleigh","NC","27615","US","50852354","(919) 846-6529","<MISSING>","35.892","-78.626","Monday 10am - 6pm Tuesday 10am - 6pm Wednesday 10am -6pm Thursday 10am - 6pm Friday 10am - 6pm Saturday 10am - 6pm Sunday 1pm - 5pm","https://www.la-z-boy.com/Raleigh/Falls-Of-The-Neuse/"
"https://www.la-z-boy.com","La-Z-Boy Furniture Galleries","6008 Glen Wood Ave","Raleigh","NC","27612","US","50857615","(919) 783-6011","<MISSING>","35.855","-78.7","Monday 10am - 9pm Tuesday 10am - 9pm Wednesday 10am - 9pm Thursday 10am - 9pm Friday 10am - 9pm Saturday 10am - 9pm Sunday 1pm - 5pm","https://www.la-z-boy.com/Raleigh/Glenwood-Avenue/"
"https://www.la-z-boy.com","Jernigan Furniture, Inc.: A La-Z-Boy Comfort Studio","2101 E Ash St","Goldsboro","NC","27530","US","44263007","(919) 735-2543","<MISSING>","35.377","-77.964","<MISSING>","<MISSING>"
"https://www.la-z-boy.com","Hardee's Furniture Warehouse: A La-Z-Boy Comfort Studio","4603 S Us 301","Rocky Mount","NC","27803","US","36659916","(252) 977-2325","<MISSING>","35.888","-77.821","<MISSING>","<MISSING>"
"https://www.la-z-boy.com","Engles Furniture, Inc.: A La-Z-Boy Comfort Studio","2079 Sherman Ave # 101","North Bend","OR","97459","US","24902004","(541) 756-1123","<MISSING>","43.406","-124.224","<MISSING>","<MISSING>"
"https://www.la-z-boy.com","La-Z-Boy Home Furnishings & Decor","3017 Medical Center Pkwy","Murfreesboro","TN","37129","US","50861182","(615) 546-4788","<MISSING>","35.863","-86.432","Monday 10am - 7pm Tuesday 10am - 7pm Wednesday 10am - 7pm Thursday 10am - 7pm Friday 10am - 7pm Saturday 10am - 7pm Sunday 12pm - 6pm","https://www.la-z-boy.com/Nashville/Murfreesboro/"
"https://www.la-z-boy.com","La-Z-Boy Furniture Galleries","3010B Mallory Lane","Franklin","TN","37067","US","50856502","(615) 778-0190","<MISSING>","35.947","-86.82","Monday 10am - 7pm Tuesday 10am - 7pm Wednesday 10am - 7pm Thursday 10am - 7pm Friday 10am - 7pm Saturday 10am - 7pm Sunday 12pm - 6pm","https://www.la-z-boy.com/Nashville/Mallory-Lane/"
"https://www.la-z-boy.com","La-Z-Boy Furniture Galleries","1041 Glenbrook Way","Hendersonville","TN","37075","US","50857886","(615) 824-0923","<MISSING>","36.332","-86.622","Monday 10am - 7pm Tuesday 10am - 7pm Wednesday 10am - 7pm Thursday 10am - 7pm Friday 10am - 7pm Saturday 10am - 7pm Sunday 12pm - 6pm","https://www.la-z-boy.com/Nashville/New-Shackle-Island/"
"https://www.la-z-boy.com","Caldwell Furniture Inc: A La-Z-Boy Comfort Studio","1608 Madison St","Shelbyville","TN","37160","US","25648578","(931) 685-4740","<MISSING>","35.483","-86.419","<MISSING>","<MISSING>"
"https://www.la-z-boy.com","Barr's, Inc.: A La-Z-Boy Comfort Studio","643 Beersheba St","Mcminnville","TN","37110","US","04704037","(931) 473-3536","<MISSING>","35.666","-85.756","<MISSING>","<MISSING>"
"https://www.la-z-boy.com","Coble Furniture, Inc.: A La-Z-Boy Comfort Studio","1028 Nashville Hwy","Lewisburg","TN","37091","US","15769003","(819) 357-2028","<MISSING>","35.462","-86.782","<MISSING>","<MISSING>"
"https://www.la-z-boy.com","Factory Furniture: A La-Z-Boy Comfort Studio","804 S Main St","Estill Springs","TN","37330","US","25648500","(931) 649-5461","<MISSING>","35.255","-86.121","<MISSING>","<MISSING>"
"https://www.la-z-boy.com","Norman Furniture: A La-Z-Boy Comfort Studio","203 Main Ave S","Fayetteville","TN","37334","US","64078035","(931) 433-2582","<MISSING>","35.151","-86.571","<MISSING>","<MISSING>"
"https://www.la-z-boy.com","La-Z-Boy Home Furnishings & Decor","1398 Worcester Rd","Natick","MA","01760","US","50870459","(508) 647-0330","<MISSING>","42.297","-71.393","Monday 10am - 8pm Tuesday 10am - 8pm Wednesday 10am - 8pm Thursday 10am - 8pm Friday 10am - 8pm Saturday 10am - 8pm Sunday 11am - 6pm","https://www.la-z-boy.com/Boston/Worcester-Street/"
"https://www.la-z-boy.com","La-Z-Boy Furniture Galleries","225 Daniel Webster Hwy","Nashua","NH","03060","US","50858173","(603) 891-2003","<MISSING>","42.758","-71.464","Monday 10am - 8pm Tuesday 10am - 8pm Wednesday 10am - 8pm Thursday 10am - 8pm Friday 10am - 8pm Saturday 10am - 8pm Sunday 11am - 6pm","https://www.la-z-boy.com/Boston/Daniel-Webster-Hwy/"
"https://www.la-z-boy.com","La-Z-Boy Home Furnishings & Decor","241 Washington Street","Attleboro","MA","02703","US","50859625","(508) 399-8223","<MISSING>","41.924","-71.357","Monday 10am - 8pm Tuesday 10am - 8pm Wednesday 10am - 8pm Thursday 10am - 8pm Friday 10am - 8pm Saturday 10am - 8pm Sunday 11am - 6pm","https://www.la-z-boy.com/Boston/Attleboro/"
"https://www.la-z-boy.com","La-Z-Boy Furniture Galleries","358A Broadway","Saugus","MA","01906","US","50855484","(781) 233-6599","<MISSING>","42.483","-71.02","Monday 10am - 8pm Tuesday 10am - 8pm Wednesday 10am - 8pm Thursday 10am - 8pm Friday 10am - 8pm Saturday 10am - 8pm Sunday 11am - 6pm","https://www.la-z-boy.com/Boston/Broadway/"
"https://www.la-z-boy.com","La-Z-Boy Furniture Galleries","701 Technology Center Dr","Stoughton","MA","02072","US","50857622","(781) 341-2212","<MISSING>","42.153","-71.066","Monday 10am - 8pm Tuesday 10am - 8pm Wednesday 10am - 8pm Thursday 10am - 8pm Friday 10am - 8pm Saturday 10am - 8pm Sunday 11am - 6pm","https://www.la-z-boy.com/Boston/Technology-Center-Drive/"
"https://www.la-z-boy.com","La-Z-Boy Furniture Galleries","1949 S Willow St","Manchester","NH","03103","US","50876392","(603) 624-7600","<MISSING>","42.955","-71.436","Monday 10am - 6pm Tuesday 10am - 6pm Wednesday 10am - 6pm Thursday 10am - 8pm Friday 10am - 8pm Saturday 10am -8pm Sunday 11am - 5pm","https://www.la-z-boy.com/Manchester/Manchester/"
"https://www.la-z-boy.com","La-Z-Boy Home Furnishings & Decor","1755 Baldhill Rd","Warwick","RI","02886","US","50858467","(401) 823-0390","<MISSING>","41.69","-71.5","Monday 10am - 8pm Tuesday 10am - 8pm Wednesday 10am - 8pm Thursday 10am - 8pm Friday 10am - 8pm Saturday 10am - 8pm Sunday 11am - 6pm","https://www.la-z-boy.com/Boston/Baldhill-Road/"
"https://www.la-z-boy.com","Gariepy Furniture Co, Inc.: A La-Z-Boy Comfort Studio","91 Central St","Leominster","MA","01453","US","30746000","(978) 537-4383","<MISSING>","42.523","-71.759","<MISSING>","<MISSING>"
"https://www.la-z-boy.com","Sundeen Furniture, Inc.: A La-Z-Boy Comfort Studio","241 Providence Rd","Whitinsville","MA","01588","US","86556002","(508) 234-8777","<MISSING>","42.103","-71.641","<MISSING>","<MISSING>"
"https://www.la-z-boy.com","Frazier & Son: A La-Z-Boy Comfort Studio","233 Old Homestead Hwy","Swanzey","NH","03446","US","28925548","(603) 352-0337","<MISSING>","42.816","-72.269","<MISSING>","<MISSING>"
"https://www.la-z-boy.com","Bill's Bedding & Furniture: A La-Z-Boy Comfort Studio","640 N Main St","Danielson","CT","06239","US","07183003","(860) 774-2245","<MISSING>","41.817","-71.877","<MISSING>","<MISSING>"
"https://www.la-z-boy.com","Slumber Shop: A La-Z-Boy Comfort Studio","1299 Riverdale St","W Springfield","MA","01089","US","82103038","(413) 732-7317","<MISSING>","42.139","-72.626","<MISSING>","<MISSING>"
"https://www.la-z-boy.com","La-Z-Boy Home Furnishings & Decor","4054 William Penn Hwy","Monroeville","PA","15146","US","50859927","(412) 373-3834","<MISSING>","40.439","-79.764","Monday 10am - 8pm Tuesday 10am - 8pm Wednesday 10am - 8pm Thursday 10am - 8pm Friday 10am - 8pm Saturday 10am - 8pm Sunday 11am - 6pm","https://www.la-z-boy.com/Pittsburgh/Monroeville/"
"https://www.la-z-boy.com","La-Z-Boy Home Furnishings & Decor","2035 Mackenzie Way","Cranberry Twp","PA","16066","US","50859919","(724) 779-1400","<MISSING>","40.687","-80.089","Monday 10am - 8pm Tuesday 10am - 8pm Wednesday 10am - 8pm Thursday 10am - 8pm Friday 10am - 8pm Saturday 10am - 8pm Sunday 11am - 6pm","https://www.la-z-boy.com/Pittsburgh/Cranberry/"
"https://www.la-z-boy.com","La-Z-Boy Home Furnishings & Decor","100 Quinn Drive","Pittsburgh","PA","15275","US","50859935","(412) 788-5302","<MISSING>","40.453","-80.188","Monday 10am - 8pm Tuesday 10am - 8pm Wednesday 10am - 8pm Thursday 10am - 8pm Friday 10am - 8pm Saturday 10am - 8pm Sunday 11am - 6pm","https://www.la-z-boy.com/Pittsburgh/Pittsburgh/"
"https://www.la-z-boy.com","Fisher Furniture, Inc.: A La-Z-Boy Comfort Studio","17690 Rt 403 No","Dixonville","PA","15734","US","27438007","(724) 254-2305","<MISSING>","40.714","-79.007","<MISSING>","<MISSING>"
"https://www.la-z-boy.com","Saxony House Furniture: A La-Z-Boy Comfort Studio","Rd 7 Box 7","Worthington","PA","16262","US","78309034","(724) 297-5864","<MISSING>","40.838","-79.64","<MISSING>","<MISSING>"
"https://www.la-z-boy.com","Saxony House Furniture: A La-Z-Boy Comfort Studio","305 Sarver Rd","Sarver","PA","16055","US","78309018","(724) 353-2570","<MISSING>","40.712","-79.775","<MISSING>","<MISSING>"
"https://www.la-z-boy.com","Wolf Furniture: A La-Z-Boy Comfort Studio","1130 Scalp Ave","Johnstown","PA","15904","US","97274291","(814) 266-8987","<MISSING>","40.281","-78.863","<MISSING>","<MISSING>"
"https://www.la-z-boy.com","Steeple Furniture, Inc.: A La-Z-Boy Comfort Studio","101 North Street","Rockton","PA","15856","US","84689129","(814) 583-7632","<MISSING>","41.076","-78.653","<MISSING>","<MISSING>"
"https://www.la-z-boy.com","Wolf Furniture: A La-Z-Boy Comfort Studio","Rt 220 N Fairway Hills","Altoona","PA","16601","US","97274356","(814) 944-9311","<MISSING>","40.461","-78.408","<MISSING>","<MISSING>"
"https://www.la-z-boy.com","La-Z-Boy Home Furnishings & Decor","4445 28th St SE","Grand Rapids","MI","49512","US","50841114","(616) 957-3040","<MISSING>","42.913","-85.558","<MISSING>","https://www.la-z-boy.com/Grand-Rapids/"
"https://www.la-z-boy.com","Langlois Stores, Inc.: A La-Z-Boy Comfort Studio","3000 Henry St","Muskegon","MI","49441","US","50233416","(231) 733-2528","<MISSING>","43.198","-86.263","<MISSING>","<MISSING>"
"https://www.la-z-boy.com","Country House Furniture, Inc.: A La-Z-Boy Comfort Studio","08337 M-140 Hwy","South Haven","MI","49090","US","17906075","(269) 637-6135","<MISSING>","42.429","-86.196","<MISSING>","<MISSING>"
"https://www.la-z-boy.com","Kemper Television, Appliances: A La-Z-Boy Comfort Studio","165 Kemper Dr","Hazard","KY","41701","US","46955054","(606) 439-2400","<MISSING>","37.292","-83.221","<MISSING>","<MISSING>"
"https://www.la-z-boy.com","Grand Home Furnishings: A La-Z-Boy Comfort Studio","157 Ridgeview Rd SW","Wise","VA","24293","US","33892369","(276) 679-7750","<MISSING>","36.971","-82.567","<MISSING>","<MISSING>"
"https://www.la-z-boy.com","La-Z-Boy Furniture Galleries","3521 Sheridan Dr","Amherst","NY","14226","US","50860402","(716) 862-8235","<MISSING>","42.98","-78.803","Monday 10am - 8pm Tuesday 10am - 8pm Wednesday 10am - 8pm Thursday 10am - 8pm Friday 10am - 8pm Saturday 10am - 8pm Sunday 11am - 6pm","https://www.la-z-boy.com/Buffalo/Sheridan-Drive/"
"https://www.la-z-boy.com","La-Z-Boy Gallery: A La-Z-Boy Comfort Studio","543 Blair Park Rd","Williston","VT","05495","US","50854178","(802) 878-0818","<MISSING>","44.453","-73.114","<MISSING>","<MISSING>"
"https://www.la-z-boy.com","Novello Furniture: A La-Z-Boy Comfort Studio","1021 Us Route 302","Barre","VT","05641","US","64388018","(802) 476-7900","<MISSING>","44.223","-72.55","<MISSING>","<MISSING>"
"https://www.la-z-boy.com","Mattress & Sofa Warehouse: A La-Z-Boy Comfort Studio","133 Gallery Lane","Morrisville","VT","05661","US","56640315","(802) 888-3979","<MISSING>","44.572","-72.602","<MISSING>","<MISSING>"
"https://www.la-z-boy.com","Brown Furniture, Inc.: A La-Z-Boy Comfort Studio","14 Interchange Dr","West Lebanon","NH","03784","US","10805044","(603) 298-5755","<MISSING>","43.628","-72.321","<MISSING>","<MISSING>"
"https://www.la-z-boy.com","La-Z-Boy Furniture Galleries","4775 Elmore Ave","Davenport","IA","52807","US","50860283","(563) 355-7801","<MISSING>","41.572","-90.537","Monday 10am - 9pm Tuesday 10am - 9pm Wednesday 10am - 9pm Thursday 10am - 9pm Friday 10am - 9pm Saturday 10am - 9pm Sunday 11am - 6pm","https://www.la-z-boy.com/Davenport/Davenport/"
"https://www.la-z-boy.com","La-Z-Boy Mattress Galleries","4775 Elmore Ave Suite 1","Davenport","IA","52807","US","50860283b","(563) 355-7801","<MISSING>","41.572","-90.537","Monday 10am - 9pm Tuesday 10am - 9pm Wednesday 10am - 9pm Thursday 10am - 9pm Friday 10am - 9pm Saturday 10am - 9pm Sunday 11am - 6pm","https://www.la-z-boy.com/Davenport/Davenport-Mattress-Gallery/"
"https://www.la-z-boy.com","C. P. Pierce & Son, Inc.: A La-Z-Boy Comfort Studio","141 Colorado St","Muscatine","IA","52761","US","68472056","(563) 263-8873","<MISSING>","41.443","-91.029","<MISSING>","<MISSING>"
"https://www.la-z-boy.com","D & E Furniture: A La-Z-Boy Comfort Studio","320 Locust St","Sterling","IL","61081","US","19360002","(815) 625-0487","<MISSING>","41.788","-89.696","<MISSING>","<MISSING>"
"https://www.la-z-boy.com","La-Z-Boy Home Furnishings & Decor","6710 Milwaukee Ave","Lubbock","TX","79416","US","50860798","(806) 793-7632","<MISSING>","33.583","-101.957","Monday 9am - 6pm Tuesday 9am - 6pm Wednesday 9am - 6pm Thursday 9am - 6pm Friday 9am - 6pm Saturday 9am - 6pm Sunday Closed","https://www.la-z-boy.com/West-Texas/lubbock/"
"https://www.la-z-boy.com","La-Z-Boy Furniture Galleries","5342 Sunset Blvd","Lexington","SC","29072","US","50851802","(803) 996-1284","<MISSING>","34.003","-81.209","Monday 10am - 8pm Tuesday 10am - 8pm Wednesday 10am - 8pm Thursday 10am - 8pm Friday 10am - 8pm Saturday 10am - 7pm Sunday 1pm - 6pm","https://www.la-z-boy.com/Southeast/Lexington/"
"https://www.la-z-boy.com","Furniture Showcase: A La-Z-Boy Comfort Studio","1170 Five Chop","Orangeburg","SC","29115","US","30095042","(803) 536-5900","<MISSING>","33.474","-80.851","<MISSING>","<MISSING>"
"https://www.la-z-boy.com","Hines Furniture Co., Inc.: A La-Z-Boy Comfort Studio","3602 Broad St","Sumter","SC","29154","US","39662012","(803) 494-2300","<MISSING>","33.963","-80.431","<MISSING>","<MISSING>"
"https://www.la-z-boy.com","La-Z-Boy Furniture Galleries","2944 Hwy 150","Birmingham","AL","35244","US","50868616","(205) 733-1937","<MISSING>","33.356","-86.807","Monday 10am - 8pm Tuesday 10am - 8pm Wednesday 10am - 8pm Thursday 10am - 8pm Friday 10am - 8pm Saturday 10am - 8pm Sunday 12pm - 6pm","https://www.la-z-boy.com/Alabama-Tennessee/Hwy-150/"
"https://www.la-z-boy.com","La-Z-Boy Furniture Galleries","5401 Hwy 280","Hoover","AL","35242","US","50857177","(205) 437-0280","<MISSING>","33.371","-86.665","Monday 10am - 8pm Tuesday 10am - 8pm Wednesday 10am - 8pm Thursday 10am - 8pm Friday 10am - 8pm Saturday 10am - 8pm Sunday 12pm - 6pm","https://www.la-z-boy.com/Alabama-Tennessee/Hwy-280/"
"https://www.la-z-boy.com","La-Z-Boy Furniture Galleries","1811 Crestwood Blvd","Irondale","AL","35210","US","50854674","(205) 956-1994","<MISSING>","33.532","-86.705","Monday 10am - 8pm; whse closed Tuesday 10am - 8pm;  whse 10-5 Wednesday 10am - 8pm;  whse 10-5 Thursday 10am - 8pm;  whse 10-5 Friday 10am - 8pm;  whse 10-5 Saturday 10am - 8pm;  whse 10-5 Sunday 12pm - 6pm;  whse closed","https://www.la-z-boy.com/Alabama-Tennessee/Crestwood-Boulevard/"
"https://www.la-z-boy.com","High Point Furniture: A La-Z-Boy Comfort Studio","2403 Hwy 78 E","Jasper","AL","35501","US","56963017","(205) 384-5990","<MISSING>","33.843","-87.246","<MISSING>","<MISSING>"
"https://www.la-z-boy.com","La-Z-Boy Furniture Galleries","270 West El Paso Ave","Fresno","CA","93711","US","50870629","(559) 276-2000","<MISSING>","36.846","-119.795","Monday 10am - 7pm Tuesday 10am - 7pm Wednesday 10am - 7pm Thursday 10am - 7pm Friday 10am - 7pm Saturday 10am - 6pm Sunday 11am - 6pm","https://www.la-z-boy.com/Bay-Area/W-Shaw-Ave/"
"https://www.la-z-boy.com","La-Z-Boy Home Furnishings & Decor","1605 W. Cameron Ave.","Visalia","CA","93277","US","02362537","(559) 276-2000","<MISSING>","36.295","-119.311","Monday 10am - 8pm Tuesday 10am - 8pm Wednesday 10am - 8pm Thursday 10am - 8pm Friday 10am - 8pm Saturday 10am - 6pm Sunday 11am - 6pm","https://www.la-z-boy.com/Bay-Area/Visalia/"
"https://www.la-z-boy.com","Rose Furniture & Floor Co.: A La-Z-Boy Comfort Studio","300 Robertson","Chowchilla","CA","93610","US","75803038","(559) 665-3786","<MISSING>","37.123","-120.26","<MISSING>","<MISSING>"
"https://www.la-z-boy.com","La-Z-Boy Home Furnishings & Decor","250 E 144th Ave","Thornton","CO","80023","US","50860844","(303) 452-1717","<MISSING>","39.957","-104.983","Monday 9:30am - 8pm Tuesday 9:30am - 8pm Wednesday 9:30am - 8pm Thursday 9:30am - 8pm Friday 9:30am - 8pm Saturday 9:30am - 6pm Sunday 11am - 5pm","https://www.la-z-boy.com/Denver/Thornton/"
"https://www.la-z-boy.com","La-Z-Boy Furniture Galleries","10038 Wadsworth Pkwy","Westminster","CO","80021","US","50856367","(303) 464-7002","<MISSING>","39.879","-105.096","Monday 9:30am - 8pm Tuesday 9:30am - 8pm Wednesday 9:30am - 8pm Thursday 9:30am - 8pm Friday 9:30am - 8pm Saturday 9:30am - 6pm Sunday 11am - 5pm","https://www.la-z-boy.com/Denver/Wadsworth-Parkway/"
"https://www.la-z-boy.com","La-Z-Boy Furniture Galleries","4621 S Timberline Rd","Ft Collins","CO","80528","US","28457536","(970) 226-3131","<MISSING>","40.523","-105.041","Monday 10am-7pm Tuesday 10am-7pm Wednesday 10am-7pm Thursday 10am-7pm Friday 10am-7pm Saturday 10am-7pm Sunday 11am - 6pm","https://www.la-z-boy.com/Fort-Collins/Fort-Collins/"
"https://www.la-z-boy.com","La-Z-Boy Furniture Galleries","2700 S Wadsworth Blvd","Denver","CO","80227","US","50876082","(303) 969-0415","<MISSING>","39.667","-105.081","Monday 9:30am - 8pm Tuesday 9:30am - 8pm Wednesday 9:30am - 8pm Thursday 9:30am - 8pm Friday 9:30am - 8pm Saturday 9:30am - 6pm Sunday 11am - 5pm","https://www.la-z-boy.com/Denver/Wadsworth-Boulevard/"
"https://www.la-z-boy.com","La-Z-Boy Furniture Galleries","8901 E County Line","Centennial","CO","80112","US","50854798","(303) 792-3990","<MISSING>","39.567","-104.885","Monday 9:30am - 8pm Tuesday 9:30am - 8pm Wednesday 9:30am - 8pm Thursday 9:30am - 8pm Friday 9:30am - 8pm Saturday 9:30am - 6pm Sunday 11am - 5pm","https://www.la-z-boy.com/Denver/E-County-Line/"
"https://www.la-z-boy.com","Jordan Furniture Co.: A La-Z-Boy Comfort Studio","2313 S Irby St","Florence","SC","29505","US","45443009","(843) 669-8513","<MISSING>","34.154","-79.769","<MISSING>","<MISSING>"
"https://www.la-z-boy.com","La-Z-Boy Furniture Galleries","1135 N Hayden Meadows Dr","Portland","OR","97217","US","50858114","(503) 283-9635","<MISSING>","45.594","-122.679","Monday 10am - 8pm Tuesday 10am - 6pm Wednesday 10am - 6pm Thursday 10am - 6pm Friday 10am - 8pm Saturday 10am - 6pm Sunday 11am - 6pm","https://www.la-z-boy.com/Portland/N-Hayden-Meadows-Drive/"
"https://www.la-z-boy.com","La-Z-Boy Home Furnishings & Decor","11462 SE 82nd Ave","Happy Valley","OR","97086","US","50858025","(503) 652-1229","<MISSING>","45.44","-122.578","Monday 10am - 8pm Tuesday 10am - 6pm Wednesday 10am - 6pm Thursday 10am - 6pm Friday 10am - 8pm Saturday 10am - 6pm Sunday 11am - 6pm","https://www.la-z-boy.com/Portland/SE-82nd-Avenue/"
"https://www.la-z-boy.com","La-Z-Boy Home Furnishings & Decor","17400 NW Corridor Ct","Beaverton","OR","97006","US","50858084","(503) 533-4627","<MISSING>","45.537","-122.856","Monday 10am - 8pm Tuesday 10am - 6pm Wednesday 10am - 6pm Thursday 10am - 6pm Friday 10am - 8pm Saturday 10am - 6pm Sunday 11am - 6pm","https://www.la-z-boy.com/Portland/NW-Corridor-Court/"
"https://www.la-z-boy.com","La-Z-Boy Home Furnishings & Decor","7070 S W Nyberg St","Tualatin","OR","97062","US","50858033","(503) 692-5635","<MISSING>","45.382","-122.749","Monday 10am - 8pm Tuesday 10am - 6pm Wednesday 10am - 6pm Thursday 10am - 6pm Friday 10am - 8pm Saturday 10am - 6pm Sunday 11am - 6pm","https://www.la-z-boy.com/Portland/W-Nyberg-Street/"
"https://www.la-z-boy.com","La-Z-Boy Furniture Galleries","3970 Rickey St SE","Salem","OR","97301","US","50858092","(503) 589-1623","<MISSING>","44.915","-122.981","Monday 10am - 6pm Tuesday 10am - 6pm Wednesday 10am - 6pm Thursday 10am - 6pm Friday 10am - 6pm Saturday 10am - 6pm Sunday 11am - 6pm","https://www.la-z-boy.com/Portland/Rickey-Street-SE/"
"https://www.la-z-boy.com","Elam Home Furnishings: A La-Z-Boy Comfort Studio","1413 Commerce Ave","Longview","WA","98632","US","24403938","(360) 575-9804","<MISSING>","46.139","-122.934","<MISSING>","<MISSING>"
"https://www.la-z-boy.com","La-Z-Boy Home Furnishings & Decor","770 Boardman Poland Rd","Boardman","OH","44512","US","50860585","(330) 758-7546","<MISSING>","41.025","-80.64","Monday 10am - 8pm Tuesday 10am - 8pm Wednesday 10am - 8pm Thursday 10am - 8pm Friday 10am - 8pm Saturday 10am - 8pm Sunday 11am - 6pm","https://www.la-z-boy.com/Boardman-Howland/Boardman-Poland-Road/"
"https://www.la-z-boy.com","Wilson Furniture: A La-Z-Boy Comfort Studio","227 N Lincoln Avenue","Bridgeport","OH","43912","US","96811544","(740) 635-0652","<MISSING>","40.074","-80.74","<MISSING>","<MISSING>"
"https://www.la-z-boy.com","Wayside Furniture, Inc.: A La-Z-Boy Comfort Studio","1000 3Rd St","New Martinsvill","WV","26155","US","94040001","(304) 455-2961","<MISSING>","39.654","-80.857","<MISSING>","<MISSING>"
"https://www.la-z-boy.com","Texas Furniture Co: A La-Z-Boy Comfort Studio","310 Bonham","Paris","TX","75460","US","87824035","(903) 784-6370","<MISSING>","33.661","-95.559","<MISSING>","<MISSING>"
"https://www.la-z-boy.com","La-Z-Boy Furniture Galleries","6610 Tacoma Mall Blvd","Tacoma","WA","98409","US","50859714","(253) 472-8488","<MISSING>","47.197","-122.463","Monday 10am - 7pm Tuesday 10am - 7pm Wednesday 10am - 7pm Thursday 10am - 7pm Friday 10am - 7pm Saturday 10am - 7pm Sunday 11am - 6pm","https://www.la-z-boy.com/Seattle/Tacoma/"
"https://www.la-z-boy.com","La-Z-Boy Home Furnishings & Decor","1220 Marvin Road NE","Lacey","WA","98516","US","02111415","(360) 528-2565","<MISSING>","47.058","-122.765","Monday 10am - 7pm Tuesday 10am - 7pm Wednesday 10am - 7pm Thursday 10am - 7pm Friday 10am - 7pm Saturday 10am - 7pm Sunday 11am - 6pm","https://www.la-z-boy.com/Seattle/Lacey/"
"https://www.la-z-boy.com","La-Z-Boy Furniture Galleries","17305 South Center Pkwy","Tukwila","WA","98188","US","50859722","(206) 575-1766","<MISSING>","47.448","-122.263","Monday 10am - 8pm Tuesday 10am - 8pm Wednesday 10am - 8pm Thursday 10am - 8pm Friday 10am - 8pm Saturday 10am - 7pm Sunday 11am - 6pm","https://www.la-z-boy.com/Seattle/Tukwila/"
"https://www.la-z-boy.com","La-Z-Boy Home Furnishings & Decor","628 FRONT ST N","Issaquah","WA","98027","US","50861778","(425) 295-6040","<MISSING>","47.536","-122.037","Monday 10am - 7pm Tuesday 10am - 7pm Wednesday 10am - 7pm Thursday 10am - 7pm Friday 10am - 7pm Saturday 10am - 7pm Sunday 11am - 6pm","https://www.la-z-boy.com/Seattle/front-street-north/"
"https://www.la-z-boy.com","La-Z-Boy Furniture Galleries","3108 NW Randall Way","Silverdale","WA","98383","US","50859749","(360) 308-0800","<MISSING>","47.662","-122.69","Monday 10am - 7pm Tuesday 10am - 7pm Wednesday 10am - 7pm Thursday 10am - 7pm Friday 10am - 7pm Saturday 10am - 7pm Sunday 11am - 6pm","https://www.la-z-boy.com/Seattle/Silverdale/"
"https://www.la-z-boy.com","Rose's Furniture, Inc.: A La-Z-Boy Comfort Studio","1530 S Gold Street","Centralia","WA","98531","US","75803062","(360) 807-1211","<MISSING>","46.699","-122.957","<MISSING>","<MISSING>"
"https://www.la-z-boy.com","La-Z-Boy Home Furnishings & Decor","2921 S Hurstbourne Pkwy","Louisville","KY","40220","US","50861174","(502) 671-0033","<MISSING>","38.2","-85.603","Monday 10am - 8pm Tuesday 10am - 8pm Wednesday 10am - 8pm Thursday 10am - 8pm Friday 10am - 8pm Saturday 10am - 6pm Sunday 1pm - 6pm","https://www.la-z-boy.com/Louisville/Louisville/"
"https://www.la-z-boy.com","B&E Furniture, LLC: A La-Z-Boy Comfort Studio","201 W Main St","Springfield","KY","40069","US","03271005","(859) 336-7293","<MISSING>","37.686","-85.223","<MISSING>","<MISSING>"
"https://www.la-z-boy.com","B&E TV & Furniture: A La-Z-Boy Comfort Studio","1204 Hustonville Rd","Danville","KY","40422","US","03272001","(859) 236-6904","<MISSING>","37.624","-84.775","<MISSING>","<MISSING>"
"https://www.la-z-boy.com","Harmon Furniture Company: A La-Z-Boy Comfort Studio","500 South Central Avenue","Campbellsville","KY","42718","US","36873012","(270) 465-5854","<MISSING>","37.337","-85.337","<MISSING>","<MISSING>"
"https://www.la-z-boy.com","La-Z-Boy Home Furnishings & Decor","402 West Town Center Blvd","Champaign","IL","61821","US","20880057","(217) 351-8052","<MISSING>","40.142","-88.252","Monday 10AM- 7PM Tuesday 10AM- 7PM Wednesday 10AM- 7PM Thursday 10AM- 7PM Friday 10AM- 7PM Saturday 10AM- 7PM Sunday 12PM- 5PM","https://www.la-z-boy.com/Central-Illinois/Champaign/"
"https://www.la-z-boy.com","La-Z-Boy Furniture Galleries","1519 N Veterans","Bloomington","IL","61704","US","20880049","(309) 662-4466","<MISSING>","40.503","-88.953","Monday 10AM- 7PM Tuesday 10AM- 7PM Wednesday 10AM- 7PM Thursday 10AM- 7PM Friday 10AM- 7PM Saturday 10AM- 7PM Sunday 12PM- 5PM","https://www.la-z-boy.com/Central-Illinois/Bloomington/"
"https://www.la-z-boy.com","La-Z-Boy Home Furnishings & Decor","10830 W Burleigh St","Wauwatosa","WI","53222","US","50860739","(414) 771-5334","<MISSING>","43.075","-88.049","Monday 10am - 8pm Tuesday 10am - 8pm Wednesday 10am - 8pm Thursday 10am - 8pm Friday 10am - 8pm Saturday 10am - 8pm Sunday 11am - 6pm","https://www.la-z-boy.com/milwaukee/Wauwatosa/"
"https://www.la-z-boy.com","La-Z-Boy Home Furnishings & Decor","2133 East Spring Dr","Madison","WI","53704","US","50855884","(608) 661-0202","<MISSING>","43.128","-89.293","Monday 10am - 8pm Tuesday 10am - 8pm Wednesday 10am - 8pm Thursday 10am - 8pm Friday 10am - 8pm Saturday 10am - 6pm Sunday 12pm - 5pm","https://www.la-z-boy.com/Madison/Madison/"
"https://www.la-z-boy.com","La-Z-Boy Furniture Galleries","7900 W Layton Ave","Greenfield","WI","53220","US","50859757","(414) 282-6124","<MISSING>","42.959","-88.012","Monday 10am - 8pm Tuesday 10am - 8pm Wednesday 10am - 8pm Thursday 10am - 8pm Friday 10am - 8pm Saturday 10am - 8pm Sunday 11am - 6pm","https://www.la-z-boy.com/milwaukee/7900WLaytonAve/"
"https://www.la-z-boy.com","McKinstry's Home Furnishings: A La-Z-Boy Comfort Studio","131 Front St","Beaver Dam","WI","53916","US","58362002","(920) 885-6422","<MISSING>","43.456","-88.838","<MISSING>","<MISSING>"
"https://www.la-z-boy.com","West Bend Family Furniture: A La-Z-Boy Comfort Studio","1411 W Washington St","West Bend","WI","53095","US","94780013","(262) 338-1666","<MISSING>","43.427","-88.196","<MISSING>","<MISSING>"
"https://www.la-z-boy.com","La-Z-Boy Furniture Galleries","6407 University Dr","Huntsville","AL","35806","US","50857576","(256) 837-9995","<MISSING>","34.746","-86.686","Monday 10am - 8pm; whse closed Tuesday 10am - 8pm;  whse 10-5 Wednesday 10am - 8pm;  whse 10-5 Thursday 10am - 8pm;  whse 10-5 Friday 10am - 8pm;  whse 10-5 Saturday 10am - 8pm;  whse 10-5 Sunday 12pm - 6pm;  whse closed","https://www.la-z-boy.com/Alabama-Tennessee/University-Drive/"
"https://www.la-z-boy.com","The Furniture Shoppe: A La-Z-Boy Comfort Studio","10276 Us Hwy 431","Albertville","AL","35950","US","30093074","(256) 660-5200","<MISSING>","34.293","-86.254","<MISSING>","<MISSING>"
"https://www.la-z-boy.com","Shumake Furniture Co.: A La-Z-Boy Comfort Studio","2119 Highway 31 S","Decatur","AL","35601","US","81258038","(256) 355-0632","<MISSING>","34.574","-87.01","<MISSING>","<MISSING>"
"https://www.la-z-boy.com","Long Furniture Co.: A La-Z-Boy Comfort Studio","623 W Grand Ave","Rainbow City","AL","35906","US","53337018","(256) 442-7165","<MISSING>","33.97","-86.051","<MISSING>","<MISSING>"
"https://www.la-z-boy.com","La-Z-Boy Furniture Galleries","10410 W Colonial Dr","Ocoee","FL","34761","US","50856723","(407) 210-3141","<MISSING>","28.552","-81.532","Monday 10am - 9pm Tuesday 10am - 9pm Wednesday 10am - 9pm Thursday 10am - 9pm Friday 10am - 9pm Saturday 10am - 9pm Sunday 11am - 6pm","https://www.la-z-boy.com/Orlando/W-Colonial-Drive/"
"https://www.la-z-boy.com","La-Z-Boy Home Furnishings & Decor","11625 S Orange Blossom Tr","Orlando","FL","32837","US","50856286","(407) 438-3333","<MISSING>","28.398","-81.404","Monday 10am - 9pm Tuesday 10am - 9pm Wednesday 10am - 9pm Thursday 10am - 9pm Friday 10am - 9pm Saturday 10am - 9pm Sunday 11am - 6pm","https://www.la-z-boy.com/Orlando/S-Orange-Blossom-Trail/"
"https://www.la-z-boy.com","La-Z-Boy Furniture Galleries","410 West State Road 436","Altamonte Sprgs","FL","32714","US","50856316","(407) 215-0081","<MISSING>","28.662","-81.397","Monday 10am - 9pm Tuesday 10am - 9pm Wednesday 10am - 9pm Thursday 10am - 9pm Friday 10am - 9pm Saturday 10am - 9pm Sunday 11am - 6pm","https://www.la-z-boy.com/Orlando/W-State-Road-436/"
"https://www.la-z-boy.com","La-Z-Boy Home Furnishings & Decor","11350 E Colonial Drive","Orlando","FL","32817","US","50861379","(407) 275-5554","<MISSING>","28.567","-81.216","Monday 10am - 9pm Tuesday 10am - 9pm Wednesday 10am - 9pm Thursday 10am - 9pm Friday 10am - 9pm Saturday 10am - 9pm Sunday 11am - 6pm","https://www.la-z-boy.com/Orlando/E-Colonial-Drive/"
"https://www.la-z-boy.com","La-Z-Boy Furniture Galleries","3710 N Us 1","Cocoa","FL","32926","US","50853953","(321) 639-3010","<MISSING>","28.416","-80.755","Monday 10am - 7pm Tuesday 10am - 7pm Wednesday 10am - 7pm Thursday 10am - 7pm Friday 10am - 7pm Saturday 10am - 7pm Sunday 12pm - 5pm","https://www.la-z-boy.com/Brevard/N-US-1/"
"https://www.la-z-boy.com","La-Z-Boy Furniture Galleries","5350 S Florida Ave","Lakeland","FL","33813","US","50857355","(863) 393-0008","<MISSING>","27.969","-81.964","Monday 9:30am - 7pm Tuesday 9:30am - 7pm Wednesday 9:30am - 7pm Thursday 9:30am - 7pm Friday 9:30am - 7pm Saturday 10am - 7pm Sunday 12pm - 6pm","https://www.la-z-boy.com/WestFlorida/S-Florida-Avenue/"
"https://www.la-z-boy.com","Babette's Furniture & Home: A La-Z-Boy Comfort Studio","8343 U S Hwy 441","Leesburg","FL","34748","US","03327604","(352) 728-5600","<MISSING>","28.828","-81.824","<MISSING>","<MISSING>"
"https://www.la-z-boy.com","Brooks Furniture: A La-Z-Boy Comfort Studio","2951 Havendale Blvd NW","Winter Haven","FL","33881","US","10251006","(863) 967-0237","<MISSING>","28.048","-81.764","<MISSING>","<MISSING>"
"https://www.la-z-boy.com","White Furniture Co.: A La-Z-Boy Comfort Studio","13970 S Hwy 441","Summerfield","FL","34491","US","95584005","(352) 245-2198","<MISSING>","29.017","-82.013","<MISSING>","<MISSING>"
"https://www.la-z-boy.com","Ernie's Store, Inc.: A La-Z-Boy Comfort Studio","318 D 2Nd St","Ceresco","NE","68017","US","25211005","(402) 665-3151","<MISSING>","41.057","-96.645","<MISSING>","<MISSING>"
"https://www.la-z-boy.com","Nebraska Furniture Mart: A La-Z-Boy Comfort Studio","700 S 72Nd St","Omaha","NE","68114","US","63255006","(402) 397-6100","<MISSING>","41.253","-96.025","<MISSING>","<MISSING>"
"https://www.la-z-boy.com","Harris Family Furniture: A La-Z-Boy Comfort Studio","74 Dover Rd","Chichester","NH","03258","US","36954012","(603) 798-5607","<MISSING>","43.245","-71.445","<MISSING>","<MISSING>"
"https://www.la-z-boy.com","La-Z-Boy Furniture Galleries","981 Route 73 South","Marlton","NJ","08053","US","50858009","(856) 817-1171","<MISSING>","39.857","-74.922","Monday 10am - 8pm Tuesday 10am - 8pm Wednesday 10am - 8pm Thursday 10am - 8pm Friday 10am - 8pm Saturday 10am - 8pm Sunday 11am - 6pm","https://www.la-z-boy.com/Delaware-Valley/Route-73-N/"
"https://www.la-z-boy.com","La-Z-Boy Furniture Galleries","340 Haddonfield Road","Cherry Hill","NJ","08002","US","50855662","(856) 910-1781","<MISSING>","39.941","-75.03","Monday 10am - 8pm Tuesday 10am - 8pm Wednesday 10am - 8pm Thursday 10am - 8pm Friday 10am - 8pm Saturday 10am - 8pm Sunday 11am - 6pm","https://www.la-z-boy.com/Delaware-Valley/Haddonfield-Road/"
"https://www.la-z-boy.com","La-Z-Boy Home Furnishings & Decor","121 Baltimore Pike","Springfield","PA","19064","US","50855948","(610) 544-9162","<MISSING>","39.923","-75.315","Monday 10am - 8pm Tuesday 10am - 8pm Wednesday 10am - 8pm Thursday 10am - 8pm Friday 10am - 8pm Saturday 10am - 8pm Sunday 11am - 6pm","https://www.la-z-boy.com/Delaware-Valley/Baltimore-Pike/"
"https://www.la-z-boy.com","La-Z-Boy Furniture Galleries","1752 Old York Rd","Abington","PA","19001","US","50858548","(215) 659-2501","<MISSING>","40.133","-75.116","Monday 10am - 8pm Tuesday 10am - 8pm Wednesday 10am - 8pm Thursday 10am - 8pm Friday 10am - 8pm Saturday 10am - 8pm Sunday 11am - 6pm","https://www.la-z-boy.com/Delaware-Valley/Old-York-Road/"
"https://www.la-z-boy.com","La-Z-Boy Furniture Galleries","1277 New Churchmans Rd","Newark","DE","19713","US","50855395","(302) 224-2144","<MISSING>","39.692","-75.666","Monday 10am - 8pm Tuesday 10am - 8pm Wednesday 10am - 8pm Thursday 10am - 8pm Friday 10am - 8pm Saturday 10am - 8pm Sunday 11am - 6pm","https://www.la-z-boy.com/Delaware-Valley/New-Churchmans-Road/"
"https://www.la-z-boy.com","La-Z-Boy Home Furnishings & Decor","101 Iron Lake Blvd","Exton","PA","19341","US","50860895","(610) 363-7473","<MISSING>","40.025","-75.62","Monday 10am - 8pm Tuesday 10am - 8pm Wednesday 10am - 8pm Thursday 10am - 8pm Friday 10am - 8pm Saturday 10am - 8pm Sunday 11am - 6pm","https://www.la-z-boy.com/Delaware-Valley/Exton/"
"https://www.la-z-boy.com","La-Z-Boy Furniture Galleries","2328 E Lincoln Hwy","Langhorne","PA","19047","US","50856987","(215) 741-1543","<MISSING>","40.18","-74.879","Monday 10am - 8pm Tuesday 10am - 8pm Wednesday 10am - 8pm Thursday 10am - 8pm Friday 10am - 8pm Saturday 10am - 8pm Sunday 11am - 6pm","https://www.la-z-boy.com/Delaware-Valley/E-Lincoln-Hwy/"
"https://www.la-z-boy.com","La-Z-Boy Furniture Galleries","6032 Black Horse Pike","Egg Harbor Twp","NJ","08234","US","50857606","(609) 641-5000","<MISSING>","39.437","-74.613","Monday 10am - 8pm Tuesday 10am - 8pm Wednesday 10am - 8pm Thursday 10am - 8pm Friday 10am - 8pm Saturday 10am - 8pm Sunday 11am - 6pm","https://www.la-z-boy.com/Delaware-Valley/Black-Horse-Pike/"
"https://www.la-z-boy.com","La-Z-Boy Furniture Galleries","976 Bethlehem Pike","Montgomeryville","PA","18936","US","50855387","(267) 413-0901","<MISSING>","40.227","-75.237","Monday 10am - 8pm Tuesday 10am - 8pm Wednesday 10am - 8pm Thursday 10am - 8pm Friday 10am - 8pm Saturday 10am - 8pm Sunday 11am - 6pm","https://www.la-z-boy.com/Delaware-Valley/Bethlehem-Pike/"
"https://www.la-z-boy.com","Nehlig's Furniture, Inc.: A La-Z-Boy Comfort Studio","204 N White Horse Pike","Stratford","NJ","08084","US","63307006","(856) 783-6800","<MISSING>","39.835","-75.008","<MISSING>","<MISSING>"
"https://www.la-z-boy.com","Johnny Janosik, Inc.: A La-Z-Boy Comfort Studio","3040 BRANDYWINE PKWY","Wilmington","DE","19803","US","44014163","(302) 697-7799","<MISSING>","39.832","-75.54","<MISSING>","<MISSING>"
"https://www.la-z-boy.com","Grand Home Furnishings: A La-Z-Boy Comfort Studio","201 Industrial Dr","Beckley","WV","25801","US","33892415","(304) 255-0508","<MISSING>","39.826","-75.548","<MISSING>","<MISSING>"
"https://www.la-z-boy.com","Moore's Furniture, Inc.: A La-Z-Boy Comfort Studio","Route 100 At Eagle","Uwchland","PA","19480","US","61897612","(610) 458-8001","<MISSING>","40.057","-75.657","<MISSING>","<MISSING>"
"https://www.la-z-boy.com","Moore's Fine Furniture: A La-Z-Boy Comfort Studio","3291 W Ridge Pike","Pottstown","PA","19464","US","61897639","(610) 495-5252","<MISSING>","40.243","-75.56","<MISSING>","<MISSING>"
"https://www.la-z-boy.com","Robinson's Furniture & Bedding: A La-Z-Boy Comfort Studio","406 South 3Rd St","Oxford","PA","19363","US","75218119","(610) 932-3600","<MISSING>","39.778","-75.982","<MISSING>","<MISSING>"
"https://www.la-z-boy.com","Johnny Janosik, Inc.: A La-Z-Boy Comfort Studio","4719 S Dupont Hwy","Dover","DE","19901","US","44014139","(302) 697-7799","<MISSING>","39.116","-75.535","<MISSING>","<MISSING>"
"https://www.la-z-boy.com","Osborne's Furniture: A La-Z-Boy Comfort Studio","522 Stone Harbor Blvd","Cape May Court","NJ","08210","US","65272315","(609) 465-7825","<MISSING>","39.085","-74.814","<MISSING>","<MISSING>"
"https://www.la-z-boy.com","Morrisons Furniture Store: A La-Z-Boy Comfort Studio","230 Factory St","Watertown","NY","13601","US","62220004","(315) 788-6600","<MISSING>","43.975","-75.905","<MISSING>","<MISSING>"
"https://www.la-z-boy.com","Grace Furniture Co., Inc.: A La-Z-Boy Comfort Studio","9785 River Rd","Marcy","NY","13403","US","33606005","(315) 735-0732","<MISSING>","43.128","-75.24","<MISSING>","<MISSING>"
"https://www.la-z-boy.com","Mazzullo & Sons Carpet: A La-Z-Boy Comfort Studio","104 Lenox Ave","Oneida","NY","13421","US","57146128","(315) 363-2390","<MISSING>","43.092","-75.643","<MISSING>","<MISSING>"
"https://www.la-z-boy.com","Furniture Weekend Plus: A La-Z-Boy Comfort Studio","100 Protection Ave","Herkimer","NY","13350","US","22921044","(518) 793-3367","<MISSING>","43.011","-75.006","<MISSING>","<MISSING>"
"https://www.la-z-boy.com","La-Z-Boy Home Furnishings & Decor","100 Bass Pro Dr","Round Rock","TX","78665","US","50860208","(512) 813-0648","<MISSING>","30.569","-97.692","Monday 10am - 9pm Tuesday 10am - 9pm Wednesday 10am - 9pm Thursday 10am - 9pm Friday 10am - 9pm Saturday 10am - 8pm Sunday 12pm - 6pm","https://www.la-z-boy.com/DFW/Round-Rock/"
"https://www.la-z-boy.com","La-Z-Boy Home Furnishings & Decor","4691 S Jack Kultgen Expy","Waco","TX","76706","US","50860976","(254) 870-9202","<MISSING>","31.497","-97.151","Monday 10am - 7pm Tuesday 10am - 7pm Wednesday 10am - 7pm Thursday 10am - 7pm Friday 10am - 7pm Saturday 10am - 7pm Sunday 12pm - 6pm","https://www.la-z-boy.com/DFW/Waco/"
"https://www.la-z-boy.com","Ledger Furniture: A La-Z-Boy Comfort Studio","104 E Ave D","Copperas Cove","TX","76522","US","51190517","(254) 547-1027","<MISSING>","31.124","-97.902","<MISSING>","<MISSING>"
"https://www.la-z-boy.com","Saundra's Furniture & Design: A La-Z-Boy Comfort Studio","279 S Main St","Colville","WA","99114","US","78253012","(509) 684-4491","<MISSING>","48.542","-117.906","<MISSING>","<MISSING>"
"https://www.la-z-boy.com","Sparks Home Furnishings: A La-Z-Boy Comfort Studio","2281 W Hwy 70","Thatcher","AZ","85552","US","91255066","(928) 428-1213","<MISSING>","32.849","-109.762","<MISSING>","<MISSING>"
"https://www.la-z-boy.com","Keystone Housing Co.: A La-Z-Boy Comfort Studio","962 Lycoming Mall Dr","Pennsdale","PA","17756","US","47300000","(570) 546-5958","<MISSING>","41.236","-76.819","<MISSING>","<MISSING>"
"https://www.la-z-boy.com","Plaza House Furniture: A La-Z-Boy Comfort Studio","3071 New Berwick Hwy","Bloomsburg","PA","17815","US","69039054","(570) 374-2865","<MISSING>","41.014","-76.403","<MISSING>","<MISSING>"
"https://www.la-z-boy.com","Plaza House Furniture: A La-Z-Boy Comfort Studio","1060 N Susquehanna Trail","Selinsgrove","PA","17870","US","69039003","(570) 374-2865","<MISSING>","40.839","-76.831","<MISSING>","<MISSING>"
"https://www.la-z-boy.com","Romberger Furniture, Inc.: A La-Z-Boy Comfort Studio","190 E Main","Valley View","PA","17983","US","75698005","(570) 682-3573","<MISSING>","40.649","-76.516","<MISSING>","<MISSING>"
"https://www.la-z-boy.com","Miller's Furniture of Mill Hall: A La-Z-Boy Comfort Studio","3064 Eagle Valley Rd","Mill Hall","PA","17751","US","60476001","(570) 726-3026","<MISSING>","41.112","-77.493","<MISSING>","<MISSING>"
"https://www.la-z-boy.com","La-Z-Boy Furniture Galleries","1433 W Bay Area Blvd","Webster","TX","77598","US","50862898","(281) 554-2919","<MISSING>","29.539","-95.145","Monday 10am - 9pm Tuesday 10am - 9pm Wednesday 10am - 9pm Thursday 10am - 9pm Friday 10am - 9pm Saturday 10am - 8pm Sunday 12pm - 6pm","https://www.la-z-boy.com/DFW/W-Bay-Area-Boulevard/"
"https://www.la-z-boy.com","La-Z-Boy Furniture Galleries","16100 Southwest Fwy","Sugar Land","TX","77478","US","50856782","(281) 313-8600","<MISSING>","29.597","-95.624","Monday 10am - 8pm Tuesday 10am - 8pm Wednesday 10am - 8pm Thursday 10am - 8pm Friday 10am - 8pm Saturday 10am - 8pm Sunday 12pm - 6pm","https://www.la-z-boy.com/DFW/SW-Freeway/"
"https://www.la-z-boy.com","La-Z-Boy Home Furnishings & Decor","3748 E 82Nd St","Indianapolis","IN","46240","US","47102012","(317) 255-7322","<MISSING>","39.91","-86.102","Monday 10am - 8pm Tuesday 10am - 8pm Wednesday 10am - 8pm Thursday 10am - 8pm Friday 10am - 8pm Saturday 10am - 6pm Sunday 12am - 5pm","https://www.la-z-boy.com/Indianapolis/E-86th-Street/"
"https://www.la-z-boy.com","La-Z-Boy Furniture Galleries","5330 E Southport Rd","Indianapolis","IN","46237","US","50857037","(317) 898-2209","<MISSING>","39.666","-86.077","Monday 10am - 8pm Tuesday 10am - 8pm Wednesday 10am - 8pm Thursday 10am - 8pm Friday 10am - 8pm Saturday 10am - 6pm Sunday 12am - 5pm","https://www.la-z-boy.com/Indianapolis/E-Southport-Road/"
"https://www.la-z-boy.com","La-Z-Boy Home Furnishings & Decor","9110 Rockville Rd","Indianapolis","IN","46234","US","47102039","(317) 960-5555","<MISSING>","39.764","-86.322","Monday 10am - 8pm Tuesday 10am - 8pm Wednesday 10am - 8pm Thursday 10am - 8pm Friday 10am - 8pm Saturday 10am - 6pm Sunday 12am - 5pm","https://www.la-z-boy.com/Indianapolis/Rockville-Road/"
"https://www.la-z-boy.com","Gill Brothers, Inc.: A La-Z-Boy Comfort Studio","1406 East 53Rd St","Anderson","IN","46013","US","31785026","(765) 649-5300","<MISSING>","40.062","-85.662","<MISSING>","<MISSING>"
"https://www.la-z-boy.com","Gill Brothers Furniture: A La-Z-Boy Comfort Studio","8300 Vern Drive","Muncie","IN","47304","US","31785018","(765) 759-5300","<MISSING>","40.217","-85.479","<MISSING>","<MISSING>"
"https://www.la-z-boy.com","Comforts Of Home, Inc.: A La-Z-Boy Comfort Studio","5034 S Strawtown Pike","Marion","IN","46953","US","16901177","(765) 673-4663","<MISSING>","40.508","-85.675","<MISSING>","<MISSING>"
"https://www.la-z-boy.com","Robert L. Miller & Son Co.: A La-Z-Boy Comfort Studio","1540 E Boulevard","Kokomo","IN","46902","US","59940018","(765) 450-7254","<MISSING>","40.388","-86.126","<MISSING>","<MISSING>"
"https://www.la-z-boy.com","Fred Medler & Company: A La-Z-Boy Comfort Studio","524 N Meridian St","Portland","IN","47371","US","58783008","(260) 726-4570","<MISSING>","40.438","-84.978","<MISSING>","<MISSING>"
"https://www.la-z-boy.com","Bullerdick Furniture: A La-Z-Boy Comfort Studio","20 S 9th St","Richmond","IN","47374","US","11283009","(765) 966-1235","<MISSING>","39.829","-84.89","<MISSING>","<MISSING>"
"https://www.la-z-boy.com","Miller Home Furnishings: A La-Z-Boy Comfort Studio","1100 N Cass St","Wabash","IN","46992","US","60087064","(260) 563-1046","<MISSING>","40.811","-85.835","<MISSING>","<MISSING>"
"https://www.la-z-boy.com","Lehnen's Furniture: A La-Z-Boy Comfort Studio","10 N Main St","Frankfort","IN","46041","US","59486899","(765) 659-3792","<MISSING>","40.281","-86.512","<MISSING>","<MISSING>"
"https://www.la-z-boy.com","Habegger Furniture, Inc.: A La-Z-Boy Comfort Studio","366 Us 27 N","Berne","IN","46711","US","35516003","(260) 589-2314","<MISSING>","40.655","-84.956","<MISSING>","<MISSING>"
"https://www.la-z-boy.com","Pierce Furniture Gallery: A La-Z-Boy Comfort Studio","329 W Washington","San Angelo","TX","76903","US","68472129","(325) 658-6795","<MISSING>","31.485","-100.451","<MISSING>","<MISSING>"
"https://www.la-z-boy.com","La-Z-Boy Home Furnishings & Decor","2476 Commons Blvd","Beavercreek","OH","45431","US","50860046","(937) 431-9093","<MISSING>","39.761","-84.055","Monday 10am - 8pm Tuesday 10am - 8pm Wednesday 10am - 8pm Thursday 10am - 8pm Friday 10am - 8pm Saturday 10am - 8pm Sunday 11am - 6pm","https://www.la-z-boy.com/Fairfield/Commons-Boulevard/"
"https://www.la-z-boy.com","La-Z-Boy Furniture Galleries","118 Springboro Pike","West Carrollton","OH","45449","US","50860135","(937) 433-0570","<MISSING>","39.68","-84.221","Monday 10am - 8pm Tuesday 10am - 8pm Wednesday 10am - 8pm Thursday 10am - 8pm Friday 10am - 8pm Saturday 10am - 8pm Sunday 11am - 6pm","https://www.la-z-boy.com/Fairfield/N-Springboro-Pike/"
"https://www.la-z-boy.com","Francis Furniture of Troy: A La-Z-Boy Comfort Studio","2485 State Route 41 W","Troy","OH","45373","US","28783026","(937) 440-1234","<MISSING>","40.023","-84.174","<MISSING>","<MISSING>"
"https://www.la-z-boy.com","Francis Furniture, Inc.: A La-Z-Boy Comfort Studio","2230 West Michigan St","Sidney","OH","45365","US","28797000","(937) 498-4584","<MISSING>","40.288","-84.188","<MISSING>","<MISSING>"
"https://www.la-z-boy.com","Francis Furniture of Greenville: A La-Z-Boy Comfort Studio","1410 Wagner Ave","Greenville","OH","45331","US","28783018","(937) 547-0205","<MISSING>","40.125","-84.62","<MISSING>","<MISSING>"
"https://www.la-z-boy.com","Cedar Hill Furniture: A La-Z-Boy Comfort Studio","5506 Urbana Rd","Springfield","OH","45502","US","13851055","(937) 399-5452","<MISSING>","40.004","-83.797","<MISSING>","<MISSING>"
"https://www.la-z-boy.com","Francis Furniture of Bellefontaine: A La-Z-Boy Comfort Studio","2551 Us Route 68 South","Bellefontaine","OH","43311","US","28793056","(937) 404-9460","<MISSING>","40.325","-83.761","<MISSING>","<MISSING>"
"https://www.la-z-boy.com","Francis Furniture of Celina: A La-Z-Boy Comfort Studio","5495 State Rte 29 W","Celina","OH","45822","US","28793005","(419) 586-3511","<MISSING>","40.545","-84.595","<MISSING>","<MISSING>"
"https://www.la-z-boy.com","Lehmann's Store, Inc.: A La-Z-Boy Comfort Studio","130 N Main St # 136","Delphos","OH","45833","US","51269007","(419) 692-0861","<MISSING>","40.843","-84.34","<MISSING>","<MISSING>"
"https://www.la-z-boy.com","La-Z-Boy Home Furnishings & Decor","7595 France Ave S","Edina","MN","55435","US","50860755","(952) 835-1722","<MISSING>","44.866","-93.328","Monday 10am - 8pm Tuesday 10am - 8pm Wednesday 10am - 8pm Thursday 10am - 8pm Friday 10am - 8pm Saturday 10am - 8pm Sunday 11am - 6pm","https://www.la-z-boy.com/Minneapolis/Edina/"
"https://www.la-z-boy.com","La-Z-Boy Home Furnishings & Decor","11601 Fountains Way N","Maple Grove","MN","55369","US","50860712","(763) 315-4177","<MISSING>","45.093","-93.428","Monday 10am - 8pm Tuesday 10am - 8pm Wednesday 10am - 8pm Thursday 10am - 8pm Friday 10am - 8pm Saturday 10am - 8pm Sunday 11am - 6pm","https://www.la-z-boy.com/Minneapolis/Maple-Grove/"
"https://www.la-z-boy.com","La-Z-Boy Home Furnishings & Decor","325 Radio Dr","Woodbury","MN","55125","US","50860933","(651) 731-6485","<MISSING>","44.944","-92.934","Monday 10am - 8pm Tuesday 10am - 8pm Wednesday 10am - 8pm Thursday 10am - 8pm Friday 10am - 8pm Saturday 10am - 8pm Sunday 11am - 6pm","https://www.la-z-boy.com/Minneapolis/Woodbury/"
"https://www.la-z-boy.com","Wise Furniture: A La-Z-Boy Comfort Studio","106 Ferry St","Le Sueur","MN","56058","US","97099104","(507) 665-2238","<MISSING>","44.461","-93.917","<MISSING>","<MISSING>"
"https://www.la-z-boy.com","La-Z-Boy Furniture Galleries","20670 Langley Bypass","Langley","BC","V3A 5E8","CA","50858149","(604) 533-0060","<MISSING>","49.112","-122.646","Monday 10am - 6pm Tuesday 10am - 6pm Wednesday 10am - 6pm Thursday 10am - 9pm Friday 10am - 9pm Saturday 10am - 6pm Sunday 11am - 5pm","https://www.la-z-boy.com/Vancouver/Langley-Bypass/"
"https://www.la-z-boy.com","La-Z-Boy Home Furnishings & Decor","1338 United Blvd","Coquitlam","BC","V3K 6Y2","CA","50856537","(604) 521-0100","<MISSING>","49.229","-122.855","Monday 10am - 6pm Tuesday 10am - 6pm Wednesday 10am - 6pm Thursday 10am - 9pm Friday 10am - 9pm Saturday 10am - 6pm Sunday 11am - 5pm","https://www.la-z-boy.com/Vancouver/United-Boulevard/"
"https://www.la-z-boy.com","La-Z-Boy Furniture Galleries","#110, 3100 St Edwards Dr","Richmond","BC","V6X 4C4","CA","50856227","(604) 248-0330","<MISSING>","49.192","-123.112","Monday 10am - 6pm Tuesday 10am - 6pm Wednesday 10am - 6pm Thursday 10am - 9pm Friday 10am - 9pm Saturday 10am - 6pm Sunday 11am - 5pm","https://www.la-z-boy.com/Vancouver/Edwards-Drive/"
"https://www.la-z-boy.com","La-Z-Boy Furniture Galleries","734 W 14th St","North Vancouver","BC","V7M 1R4","CA","50859773","(604) 985-9351","<MISSING>","49.321","-123.093","Monday 10am - 6pm Tuesday 10am - 6pm Wednesday 10am - 6pm Thursday 10am - 6pm Friday 10am - 6pm Saturday 10am - 6pm Sunday 11am - 5pm","https://www.la-z-boy.com/Vancouver/Warehouse/"
"https://www.la-z-boy.com","Samuel's Furniture, Inc.: A La-Z-Boy Comfort Studio","1904 Main St","Ferndale","WA","98248","US","77853032","(360) 384-3388","<MISSING>","48.845","-122.585","<MISSING>","<MISSING>"
"https://www.la-z-boy.com","J. Ballam Furniture LTD.: A La-Z-Boy Comfort Studio","Unit 7","Chilliwack","BC","V2P 4P3","CA","03953912","(604) 793-7966","<MISSING>","49.171","-121.954","<MISSING>","<MISSING>"
"https://www.la-z-boy.com","La-Z-Boy Furniture Galleries","1602 Landmark Cntr Dr","Greensboro","NC","27407","US","50861387","(336) 855-3393","<MISSING>","36.054","-79.899","Monday 10am - 8pm Tuesday 10am - 8pm Wednesday 10am - 8pm Thursday 10am - 8pm Friday 10am - 8pm Saturday 10am - 6pm Sunday 12pm - 5pm","https://www.la-z-boy.com/Greensboro/Greensboro/"
"https://www.la-z-boy.com","Graham Furniture Mart, Inc.: A La-Z-Boy Comfort Studio","22 S W Court Sq","Graham","NC","27253","US","33743002","(336) 226-6675","<MISSING>","36.069","-79.401","<MISSING>","<MISSING>"
"https://www.la-z-boy.com","Shumaker's, Inc.: A La-Z-Boy Comfort Studio","315 Cotton Grove Rd","Lexington","NC","27292","US","81258054","(336) 248-2663","<MISSING>","35.809","-80.262","<MISSING>","<MISSING>"
"https://www.la-z-boy.com","La-Z-Boy Home Furnishings & Decor","3767 Airport Blvd","Mobile","AL","36608","US","50860836","(251) 341-1036","<MISSING>","30.675","-88.139","Monday 10am - 6pm Tuesday 10am - 6pm Wednesday 10am - 6pm Thursday 10am - 6pm Friday 10am - 6pm Saturday 10am - 6pm Sunday 1pm - 5pm","https://www.la-z-boy.com/Gulfcoast/Airport-Boulevard/"
"https://www.la-z-boy.com","La-Z-Boy Furniture Galleries","34000 Bass Pro Drive","Spanish Fort","AL","36527","US","50858939","(251) 300-2020","<MISSING>","30.66","-87.872","Monday 10am - 6pm Tuesday 10am - 6pm Wednesday 10am - 6pm Thursday 10am - 6pm Friday 10am - 6pm Saturday 10am - 6pm Sunday 1pm - 5pm","https://www.la-z-boy.com/Gulfcoast/34000BassProDr/"
"https://www.la-z-boy.com","Plourde Furniture Company: A La-Z-Boy Comfort Studio","150 Bennett Dr","Caribou","ME","04736","US","69167001","(207) 496-3521","<MISSING>","46.87","-68.002","<MISSING>","<MISSING>"
"https://www.la-z-boy.com","La-Z-Boy Home Furnishings & Decor","4960 Centre Pointe Dr","N Charleston","SC","29418","US","50861395","(843) 553-8070","<MISSING>","32.873","-80.021","Monday 10am - 8pm Tuesday 10am - 8pm Wednesday 10am - 8pm Thursday 10am - 8pm Friday 10am - 8pm Saturday 10am - 7pm Sunday 1pm - 6pm","https://www.la-z-boy.com/Southeast/Charleston/"
"https://www.la-z-boy.com","La-Z-Boy Home Furnishings & Decor","4182 State Route 31","Clay","NY","13041","US","50859293","(315) 652-4202","<MISSING>","43.186","-76.243","Monday 10am - 9pm Tuesday 10am - 9pm Wednesday 10am - 9pm Thursday 10am - 9pm Friday 10am - 9pm Saturday 10am - 9pm Sunday 11am - 5pm","https://www.la-z-boy.com/Upstate-NY/Clay/"
"https://www.la-z-boy.com","La-Z-Boy Home Furnishings & Decor","40 Eastview Park Mall, Suite B","Victor","NY","14564","US","50859315","(585) 371-5862","<MISSING>","43.027","-77.443","Monday 10am - 9pm Tuesday 10am - 9pm Wednesday 10am - 9pm Thursday 10am - 9pm Friday 10am - 9pm Saturday 10am - 9pm Sunday 11am - 5pm","https://www.la-z-boy.com/Upstate-NY/Victor/"
"https://www.la-z-boy.com","La-Z-Boy Home Furnishings & Decor","1000 Hylan Dr","Rochester","NY","14623","US","50860372","(585) 319-4263","<MISSING>","43.081","-77.628","Monday 10am - 9pm Tuesday 10am - 9pm Wednesday 10am - 9pm Thursday 10am - 9pm Friday 10am - 9pm Saturday 10am - 9pm Sunday 11am - 5pm","https://www.la-z-boy.com/Upstate-NY/Rochester/"
"https://www.la-z-boy.com","La-Z-Boy Furniture Galleries","2315 Esplanade","Chico","CA","95926","US","50870603","(530) 895-5500","<MISSING>","39.753","-121.858","Monday 10am - 6pm Tuesday 10am - 6pm Wednesday 10am - 6pm Thursday 10am - 6pm Friday 10am - 6pm Saturday 10am - 6pm Sunday 11am - 6pm","https://www.la-z-boy.com/Sacramento/Esplanade/"
"https://www.la-z-boy.com","La-Z-Boy Furniture Galleries","2363 Athens Ave","Redding","CA","96001","US","50870600","(530) 225-8750","<MISSING>","40.577","-122.376","Monday 10am - 6pm Tuesday 10am - 6pm Wednesday 10am - 6pm Thursday 10am - 6pm Friday 10am - 6pm Saturday 10am - 6pm Sunday 11am - 6pm","https://www.la-z-boy.com/Sacramento/Athens-Avenue/"
"https://www.la-z-boy.com","Furniture Connection: A La-Z-Boy Comfort Studio","1891 Fort Campbell Blvd","Clarksville","TN","37042","US","29525039","(931) 645-1340","<MISSING>","36.589","-87.414","<MISSING>","<MISSING>"
"https://www.la-z-boy.com","Furniture Mart USA, Inc.: A La-Z-Boy Comfort Studio","2502 17th St","Spirit Lake","IA","51360","US","29965055","(712) 336-9004","<MISSING>","43.423","-95.126","<MISSING>","<MISSING>"
"https://www.la-z-boy.com","Steffen Furniture Co.: A La-Z-Boy Comfort Studio","420 N Grand Ave","Spencer","IA","51301","US","84691514","(712) 262-5420","<MISSING>","43.142","-95.144","<MISSING>","<MISSING>"
"https://www.la-z-boy.com","Jensen Stores, Inc.: A La-Z-Boy Comfort Studio","1331 Central","Estherville","IA","51334","US","44131003","(712) 362-2697","<MISSING>","43.4","-94.748","<MISSING>","<MISSING>"
"https://www.la-z-boy.com","Furniture Mart LTD: A La-Z-Boy Comfort Studio","216 N Main","Sioux Center","IA","51250","US","29937000","(712) 722-3861","<MISSING>","43.079","-96.175","<MISSING>","<MISSING>"
"https://www.la-z-boy.com","La-Z-Boy Home Furnishings & Decor","1484 Harrisburg Pike","Lancaster","PA","17601","US","50861514","(717) 396-9535","<MISSING>","40.064","-76.342","Monday 10am - 8pm Tuesday 10am - 8pm Wednesday 10am - 8pm Thursday 10am - 8pm Friday 10am - 8pm Saturday 10am - 8pm Sunday 11am - 6pm","https://www.la-z-boy.com/Northeast-Pennsylvania/Harrisburg-Pike/"
"https://www.la-z-boy.com","La-Z-Boy Home Furnishings & Decor","2500 Paper Mill Rd","Wyomissing","PA","19610","US","50861557","(610) 775-3330","<MISSING>","40.351","-75.977","Monday 10am - 8pm Tuesday 10am - 8pm Wednesday 10am - 8pm Thursday 10am - 8pm Friday 10am - 8pm Saturday 10am - 8pm Sunday 11am - 6pm","https://www.la-z-boy.com/Northeast-Pennsylvania/Wyomissing/"
"https://www.la-z-boy.com","La-Z-Boy Furniture Galleries","541 Market Place Dr","Bel Air","MD","21014","US","50870378","(410) 638-0035","<MISSING>","39.525","-76.349","Monday 10am - 8pm Tuesday 10am - 8pm Wednesday 10am - 8pm Thursday 10am - 8pm Friday 10am - 8pm Saturday 10am - 8pm Sunday 11am - 6pm","https://www.la-z-boy.com/Baltimore/Market-Place-Drive/"
"https://www.la-z-boy.com","La-Z-Boy Furniture Galleries","8647 Pulaski Hwy","Rosedale","MD","21237","US","50857843","(410) 918-0480","<MISSING>","39.335","-76.485","Monday 10am - 8pm Tuesday 10am - 8pm Wednesday 10am - 8pm Thursday 10am - 8pm Friday 10am - 8pm Saturday 10am - 8pm Sunday 11am - 6pm","https://www.la-z-boy.com/Baltimore/Pulaski-Highway/"
"https://www.la-z-boy.com","Wolf Furniture: A La-Z-Boy Comfort Studio","2040 Bennett Ave","Lancaster","PA","17601","US","97274445","(717) 209-6940","<MISSING>","40.06","-76.355","<MISSING>","<MISSING>"
"https://www.la-z-boy.com","Stone Barn Furniture, Inc: A La-Z-Boy Comfort Studio","606 E Evergreen Rd","Lebanon","PA","17042","US","85586005","(717) 272-0441","<MISSING>","40.314","-76.376","<MISSING>","<MISSING>"
"https://www.la-z-boy.com","Gardiner Wolf: A La-Z-Boy Comfort Studio","2400 E Churchville Rd","Bel Air","MD","21015","US","97274534","(410) 876-2228","<MISSING>","39.557","-76.274","<MISSING>","<MISSING>"
"https://www.la-z-boy.com","Helton's Home Furnishings: A La-Z-Boy Comfort Studio","455 N Jefferson Ave","Lebanon","MO","65536","US","38356007","(417) 532-7888","<MISSING>","37.684","-92.668","<MISSING>","<MISSING>"
"https://www.la-z-boy.com","Burkey's Furniture & Carpeting: A La-Z-Boy Comfort Studio","900 National Hwy","Lavale","MD","21502","US","11560754","(301) 729-3636","<MISSING>","39.653","-78.815","<MISSING>","<MISSING>"
"https://www.la-z-boy.com","La-Z-Boy Furniture Galleries","2001 East West Parkway","Fleming Island","FL","32003","US","50859854","(904) 425-7010","<MISSING>","30.1","-81.718","Monday 10am - 8pm Tuesday 10am - 8pm Wednesday 10am - 8pm Thursday 10am - 8pm Friday 10am - 8pm Saturday 10am - 8pm Sunday 12pm - 6pm","https://www.la-z-boy.com/Jacksonville/Fleming-Island/"
"https://www.la-z-boy.com","La-Z-Boy Furniture Galleries","10452 Philips Highway","Jacksonville","FL","32256","US","50859358","(904) 425-7010","<MISSING>","30.179","-81.552","Monday 10am - 8pm Tuesday 10am - 8pm Wednesday 10am - 8pm Thursday 10am - 8pm Friday 10am - 8pm Saturday 10am - 8pm Sunday 12pm - 6pm","https://www.la-z-boy.com/Jacksonville/Jacksonville/"
"https://www.la-z-boy.com","La-Z-Boy Home Furnishings & Decor","10207 Buckhead Branch Dr","Jacksonville","FL","32246","US","50861344","(904) 425-7010","<MISSING>","30.255","-81.529","Monday 10am - 8pm Tuesday 10am - 8pm Wednesday 10am - 8pm Thursday 10am - 8pm Friday 10am - 8pm Saturday 10am - 8pm Sunday 12pm - 6pm","https://www.la-z-boy.com/Jacksonville/Buckhead-Branch-Dr/"
"https://www.la-z-boy.com","La-Z-Boy Furniture Galleries","2530 S W 19th Ave Rd","Ocala","FL","34471","US","50856464","(352) 861-3009","<MISSING>","29.16","-82.166","Monday 9am - 6pm Tuesday 9am - 6pm Wednesday 9am - 6pm Thursday 9am - 6pm Friday 9am - 6pm Saturday 9am - 6pm Sunday 12pm - 5pm","https://www.la-z-boy.com/Ocala/Ocala/"
"https://www.la-z-boy.com","Walker Furniture, Inc.: A La-Z-Boy Comfort Studio","113 NW 8th Ave","Gainsville","FL","32601","US","92961053","(352) 372-4420","<MISSING>","29.659","-82.326","<MISSING>","<MISSING>"
"https://www.la-z-boy.com","La-Z-Boy Furniture Galleries","19478 Nordhoff St","Northridge","CA","91324","US","50859447","(818) 773-0744","<MISSING>","34.235","-118.558","Monday 10am - 8pm Tuesday 10am - 8pm Wednesday 10am - 8pm Thursday 10am - 8pm Friday 10am - 8pm Saturday 10am - 8pm Sunday 11am - 6pm","https://www.la-z-boy.com/Southern-California/Nordhoff/"
"https://www.la-z-boy.com","La-Z-Boy Furniture Galleries","968 Hamilton Road","Duarte","CA","91010","US","50859544","(626) 471-9999","<MISSING>","34.133","-117.985","Monday 10am - 8pm Tuesday 10am - 8pm Wednesday 10am - 8pm Thursday 10am - 8pm Friday 10am - 8pm Saturday 10am - 8pm Sunday 11am - 6pm","https://www.la-z-boy.com/Southern-California/Hamilton-Road/"
"https://www.la-z-boy.com","Koerner, Inc.: A La-Z-Boy Comfort Studio","5505 Pioneer Way","Coeur D Alene","ID","83814","US","48610046","(208) 666-1525","<MISSING>","47.722","-116.793","<MISSING>","<MISSING>"
"https://www.la-z-boy.com","La-Z-Boy Furniture Galleries","1800 Alysheba Way","Lexington","KY","40509","US","50870263","(859) 543-8222","<MISSING>","38.017","-84.421","Monday 10am - 8pm Tuesday 10am - 8pm Wednesday 10am - 8pm Thursday 10am - 8pm Friday 10am - 8pm Saturday 10am - 7pm Sunday 12pm - 6pm","https://www.la-z-boy.com/Lexington/Lexington/"
"https://www.la-z-boy.com","Garrett Furniture, Inc.: A La-Z-Boy Comfort Studio","224 W Main St","Carlisle","KY","40311","US","30897009","(859) 289-2308","<MISSING>","38.313","-84.03","<MISSING>","<MISSING>"
"https://www.la-z-boy.com","McMaster's Home Furnishings: A La-Z-Boy Comfort Studio","311 North Military St","Loretto","TN","38469","US","58431012","(931) 853-6140","<MISSING>","35.084","-87.434","<MISSING>","<MISSING>"
"https://www.la-z-boy.com","Lackey Furniture: A La-Z-Boy Comfort Studio","3211 Florence Blvd","Florence","AL","35634","US","49610597","(256) 764-7815","<MISSING>","34.835","-87.611","<MISSING>","<MISSING>"
"https://www.la-z-boy.com","Jones Home Furnishings: A La-Z-Boy Comfort Studio","302 Weakley Creek Rd","Lawrenceburg","TN","38464","US","45288038","(931) 762-2324","<MISSING>","35.257","-87.326","<MISSING>","<MISSING>"
"https://www.la-z-boy.com","La-Z-Boy Furniture Galleries","3050 Berlin Tpke","Newington","CT","06111","US","50857983","(860) 665-0249","<MISSING>","41.666","-72.718","Monday 10am - 8pm Tuesday 10am - 8pm Wednesday 10am - 8pm Thursday 10am - 8pm Friday 10am - 8pm Saturday 10am - 8pm Sunday 11am - 6pm","https://www.la-z-boy.com/Nyc-Metro/Berlin-Turnpike/"
"https://www.la-z-boy.com","La-Z-Boy Furniture Galleries","233 Buckland Hills Dr","Manchester","CT","06040","US","50857916","(860) 648-8935","<MISSING>","41.808","-72.545","Monday 10am - 8pm Tuesday 10am - 8pm Wednesday 10am - 8pm Thursday 10am - 8pm Friday 10am - 8pm Saturday 10am - 8pm Sunday 11am - 6pm","https://www.la-z-boy.com/Nyc-Metro/Buckland-Hills-Drive/"
"https://www.la-z-boy.com","Wiedy Furniture Center, Inc.: A La-Z-Boy Comfort Studio","504 Route 28","Kingston","NY","12401","US","96148713","(845) 339-3400","<MISSING>","41.889","-74.048","<MISSING>","<MISSING>"
"https://www.la-z-boy.com","Hardwick Furniture Company: A La-Z-Boy Comfort Studio","422 Jefferson St SW","Camden","AR","71701","US","36669008","(870) 836-4141","<MISSING>","33.584","-92.835","<MISSING>","<MISSING>"
"https://www.la-z-boy.com","Blackmon's Furniture & Appliance: A La-Z-Boy Comfort Studio","1332 W Hillsboro","El Dorado","AR","71730","US","67891047","(870) 862-9777","<MISSING>","33.208","-92.682","<MISSING>","<MISSING>"
"https://www.la-z-boy.com","Lafferty's TV & Appliance: A La-Z-Boy Comfort Studio","5025 W Park Blvd","Texarkana","TX","75503","US","49706616","(903) 794-2581","<MISSING>","33.444","-94.064","<MISSING>","<MISSING>"
"https://www.la-z-boy.com","La-Z-Boy Home Furnishings & Decor","8439 W SAGINAW HWY","Lansing","MI","48917","US","50861735","(517) 321-5176","<MISSING>","42.74","-84.636","Monday 10am - 9pm Tuesday 10am - 9pm Wednesday 10am - 9pm Thursday 10am - 9pm Friday 10am - 9pm Saturday 10am - 8pm Sunday 12pm - 5pm","https://www.la-z-boy.com/Michigan/Lansing/"
"https://www.la-z-boy.com","La-Z-Boy Home Furnishings & Decor","27754 Novi Rd","Novi","MI","48377","US","50860259","(248) 449-1490","<MISSING>","42.49","-83.474","Monday 10am - 8pm Tuesday 10am - 8pm Wednesday 10am - 8pm Thursday 10am - 8pm Friday 10am - 8pm Saturday 10am - 8pm Sunday 11am - 6pm","https://www.la-z-boy.com/Detroit/Novi/"
"https://www.la-z-boy.com","La-Z-Boy Home Furnishings & Decor","42728 Ford Rd","Canton","MI","48187","US","50860399","(734) 844-1565","<MISSING>","42.323","-83.462","Monday 10am - 8pm Tuesday 10am - 8pm Wednesday 10am - 8pm Thursday 10am - 8pm Friday 10am - 8pm Saturday 10am - 8pm Sunday 11am - 6pm","https://www.la-z-boy.com/Detroit/Canton/"
"https://www.la-z-boy.com","Godwin's Furniture: A La-Z-Boy Comfort Studio","2085 E Main St (M-21)","Owosso","MI","48867","US","32581084","(989) 729-0044","<MISSING>","42.998","-84.126","<MISSING>","<MISSING>"
"https://www.la-z-boy.com","Vermeulen Furniture, Inc.: A La-Z-Boy Comfort Studio","2105 W Michigan Ave","Jackson","MI","49202","US","92031005","(517) 782-8208","<MISSING>","42.247","-84.407","<MISSING>","<MISSING>"
"https://www.la-z-boy.com","Godwin's, Inc: A La-Z-Boy Comfort Studio","2199 S Linden Rd","Flint","MI","48532","US","32581165","(810) 733-7331","<MISSING>","42.996","-83.771","<MISSING>","<MISSING>"
"https://www.la-z-boy.com","Martin's Home Center: A La-Z-Boy Comfort Studio","145 W Chicago Blvd","Tecumseh","MI","49286","US","55981003","(517) 423-2065","<MISSING>","42.004","-83.946","<MISSING>","<MISSING>"
"https://www.la-z-boy.com","La-Z-Boy Home Furnishings & Decor","4364 E Mills Cir","Ontario","CA","91764","US","50856066","(909) 581-1944","<MISSING>","34.071","-117.557","Monday 10am - 8pm Tuesday 10am - 8pm Wednesday 10am - 8pm Thursday 10am - 8pm Friday 10am - 8pm Saturday 10am - 8pm Sunday 11am - 6pm","https://www.la-z-boy.com/Southern-California/E-Mills-Circle/"
"https://www.la-z-boy.com","La-Z-Boy Furniture Galleries","23029 Eastpark Dr","Yorba Linda","CA","92886","US","50859463","(714) 921-5144","<MISSING>","33.873","-117.738","Monday 10am - 8pm Tuesday 10am - 8pm Wednesday 10am - 8pm Thursday 10am - 8pm Friday 10am - 8pm Saturday 10am - 8pm Sunday 11am - 6pm","https://www.la-z-boy.com/Southern-California/Eastpark-Drive/"
"https://www.la-z-boy.com","La-Z-Boy Furniture Galleries","11175 183Rd St","Cerritos","CA","90703","US","50859412","(562) 860-7744","<MISSING>","33.866","-118.095","Monday 10am - 8pm Tuesday 10am - 8pm Wednesday 10am - 8pm Thursday 10am - 8pm Friday 10am - 8pm Saturday 10am - 8pm Sunday 11am - 6pm","https://www.la-z-boy.com/Southern-California/183rd-Street/"
"https://www.la-z-boy.com","La-Z-Boy Furniture Galleries","3303 Hyland Ave - Bldg E","Costa Mesa","CA","92626","US","50859404","(714) 434-0744","<MISSING>","33.694","-117.926","Monday 10am - 8pm Tuesday 10am - 8pm Wednesday 10am - 8pm Thursday 10am - 8pm Friday 10am - 8pm Saturday 10am - 8pm Sunday 11-am - 6pm","https://www.la-z-boy.com/Southern-California/Hyland-Avenue/"
"https://www.la-z-boy.com","La-Z-Boy Home Furnishings & Decor","495 E Hospitality Ln","San Bernardino","CA","92401","US","50854535","(909) 825-5322","<MISSING>","34.065","-117.275","Monday 10am - 8pm Tuesday 10am - 8pm Wednesday 10am - 8pm Thursday 10am - 8pm Friday 10am - 8pm Saturday 10am - 8pm Sunday 11am - 6pm","https://www.la-z-boy.com/Southern-California/E-Hospitality-Lane/"
"https://www.la-z-boy.com","La-Z-Boy Furniture Galleries","22740 Hawthorne Blvd","Torrance","CA","90505","US","50859439","(310) 375-8121","<MISSING>","33.821","-118.35","Monday 10am - 8pm Tuesday 10am - 8pm Wednesday 10am - 8pm Thursday 10am - 8pm Friday 10am - 8pm Saturday 10am - 8pm Sunday 11am - 6pm","https://www.la-z-boy.com/Southern-California/Hawthorne-Boulevard/"
"https://www.la-z-boy.com","La-Z-Boy Furniture Galleries","28565 Marguerite Pkwy","Mission Viejo","CA","92691","US","50859536","(949) 365-0744","<MISSING>","33.549","-117.671","Monday 10am - 8pm Tuesday 10am - 8pm Wednesday 10am - 8pm Thursday 10am - 8pm Friday 10am - 8pm Saturday 10am - 8pm Sunday 11am - 6pm","https://www.la-z-boy.com/Southern-California/Marguerite-Parkway/"
"https://www.la-z-boy.com","Midway Home Solutions: A La-Z-Boy Comfort Studio","14444 Alstar Drive","Victorville","CA","92395","US","59645938","(760) 245-3731","<MISSING>","34.493","-117.303","<MISSING>","<MISSING>"
"https://www.la-z-boy.com","La-Z-Boy Home Furnishings & Decor","3104 Plank Rd","Fredericksburg","VA","22407","US","50860658","(540) 785-0747","<MISSING>","38.294","-77.516","Monday 10am - 8pm Tuesday 10am - 8pm Wednesday 10am - 8pm Thursday 10am - 8pm Friday 10am - 8pm Saturday 10am - 8pm Sunday 11am - 6pm","https://www.la-z-boy.com/Washington-DC/Plank-Road/"
"https://www.la-z-boy.com","La-Z-Boy Furniture Galleries","7311 Atlas Walk Way","Gainesville","VA","20155","US","50857398","(571) 261-5680","<MISSING>","38.795","-77.609","Monday 10am - 8pm Tuesday 10am - 8pm Wednesday 10am - 8pm Thursday 10am - 8pm Friday 10am - 8pm Saturday 10am - 8pm Sunday 11am - 6pm","https://www.la-z-boy.com/Washington-DC/Atlas-Walk-Way/"
"https://www.la-z-boy.com","Grand Home Furnishings: A La-Z-Boy Comfort Studio","1801 Seminole Trail","Charlottesville","VA","22906","US","33892202","(434) 974-6480","<MISSING>","38.086","-78.471","<MISSING>","<MISSING>"
"https://www.la-z-boy.com","Grand Home Furnishings: A La-Z-Boy Comfort Studio","2080 Evelyn Byrd Ave","Harrisonburg","VA","22801","US","33892245","(540) 434-7619","<MISSING>","38.425","-78.846","<MISSING>","<MISSING>"
"https://www.la-z-boy.com","Grand Home Furnishings: A La-Z-Boy Comfort Studio","436 Tiffany Dr","Waynesboro","VA","22980","US","33892083","(540) 942-4119","<MISSING>","38.106","-78.906","<MISSING>","<MISSING>"
"https://www.la-z-boy.com","La-Z-Boy Furniture Galleries","3451 W New Haven Ave","Melbourne","FL","32904","US","50853724","(321) 725-5461","<MISSING>","28.078","-80.68","Monday 9am - 7pm Tuesday 9am - 7pm Wednesday 9am - 7pm Thursday 9am - 7pm Friday 9am - 8pm Saturday 9am - 8pm Sunday 11:30pm - 5pm","https://www.la-z-boy.com/Brevard/W-New-Haven-Avenue/"
"https://www.la-z-boy.com","La-Z-Boy Furniture Galleries","4360 N Federal Hwy","Jensen Beach","FL","34957","US","50858238","(772) 692-9988","<MISSING>","27.255","-80.279","Monday 10am - 8pm Tuesday 10am - 8pm Wednesday 10am - 8pm Thursday 10am - 8pm Friday 10am - 8pm Saturday 10am - 8pm Sunday 11am - 6pm","https://www.la-z-boy.com/South-Florida/N-Federal-Highway-Jensen-Beach/"
"https://www.la-z-boy.com","Turner Furniture Co.: A La-Z-Boy Comfort Studio","2900 Us 27 S","Avon Park","FL","33825","US","90220064","(863) 402-1688","<MISSING>","27.555","-81.51","<MISSING>","<MISSING>"
"https://www.la-z-boy.com","Village Furniture Galleries: A La-Z-Boy Comfort Studio","3634 Montgomery Hwy","Dothan","AL","36303","US","92224008","(334) 794-6505","<MISSING>","31.256","-85.432","<MISSING>","<MISSING>"
"https://www.la-z-boy.com","Mitchell Furniture, Inc.: A La-Z-Boy Comfort Studio","710 Boll Weevil Circle","Enterprise","AL","36330","US","61158054","(334) 347-3441","<MISSING>","31.326","-85.832","<MISSING>","<MISSING>"
"https://www.la-z-boy.com","Perry's Furniture: A La-Z-Boy Comfort Studio","206 Nokomis St N","Alexandria","MN","56308","US","67751008","(320) 762-1541","<MISSING>","45.911","-95.369","<MISSING>","<MISSING>"
"https://www.la-z-boy.com","Dirks Furniture: A La-Z-Boy Comfort Studio","821 E Lincoln Ave","Olivia","MN","56277","US","22008004","(320) 523-2301","<MISSING>","44.777","-94.988","<MISSING>","<MISSING>"
"https://www.la-z-boy.com","Unger Furniture: A La-Z-Boy Comfort Studio","619 Atlantic Ave","Morris","MN","56267","US","90574028","(320) 589-3911","<MISSING>","45.587","-95.915","<MISSING>","<MISSING>"
"https://www.la-z-boy.com","Factory Direct Furniture: A La-Z-Boy Comfort Studio","16919 Hwy 7 E","Hutchinson","MN","55350","US","25688018","(320) 587-7283","<MISSING>","44.893","-94.317","<MISSING>","<MISSING>"
"https://www.la-z-boy.com","Arwood's Furniture & Mattress: A La-Z-Boy Comfort Studio","801 Pride Ave","Warrensburg","MO","64093","US","02633019","(660) 429-2264","<MISSING>","38.775","-93.711","<MISSING>","<MISSING>"
"https://www.la-z-boy.com","Eichler Home Improvement: A La-Z-Boy Comfort Studio","30876 W Dam Access Rd","Warsaw","MO","65355","US","24388866","(660) 438-1022","<MISSING>","38.265","-93.383","<MISSING>","<MISSING>"
"https://www.la-z-boy.com","La-Z-Boy Furniture Galleries","3450 Grapevine Mills Pkwy","Grapevine","TX","76051","US","50855549","(972) 539-8072","<MISSING>","32.972","-97.037","Monday 10am - 9pm Tuesday 10am - 9pm Wednesday 10am - 9pm Thursday 10am - 9pm Friday 10am - 9pm Saturday 10am - 8pm Sunday 12pm - 6pm","https://www.la-z-boy.com/DFW/Grapevine-Mills-Parkway/"
"https://www.la-z-boy.com","La-Z-Boy Home Furnishings & Decor","8294 Tx-121","Frisco","TX","75034","US","50856138","(972) 668-7277","<MISSING>","33.092","-96.821","Monday 10am - 9pm Tuesday 10am - 9pm Wednesday 10am - 9pm Thursday 10am - 9pm Friday 10am - 9pm Saturday 10am - 8pm Sunday 12pm - 6pm","https://www.la-z-boy.com/DFW/TX-121/"
"https://www.la-z-boy.com","La-Z-Boy Furniture Galleries","13327 Midway Road","Farmers Branch","TX","75244","US","50862987","(972) 980-0686","<MISSING>","32.927","-96.839","Monday 10am - 7pm Tuesday 10am - 7pm Wednesday 10am - 7pm Thursday 10am - 7pm Friday 10am - 7pm Saturday 10am - 8pm Sunday 12pm - 6pm","https://www.la-z-boy.com/DFW/Midway-Road/"
"https://www.la-z-boy.com","La-Z-Boy Home Furnishings & Decor","2255 North Central Expressway","Allen","TX","75013","US","50861786","(972) 678-0236","<MISSING>","33.134","-96.66","Monday 10am - 9pm Tuesday 10am - 9pm Wednesday 10am - 9pm Thursday 10am - 9pm Friday 10am - 9pm Saturday 10am - 8pm Sunday 12pm - 6pm","https://www.la-z-boy.com/DFW/n-central-expressway"
"https://www.la-z-boy.com","La-Z-Boy Furniture Galleries","8633 Airport Frwy","N Richland Hill","TX","76180","US","50853317","(817) 577-8566","<MISSING>","32.835","-97.199","Monday 10am - 8pm Tuesday 10am - 8pm Wednesday 10am - 8pm Thursday 10am - 8pm Friday 10am - 8pm Saturday 10am - 8pm Sunday 12pm - 6pm","https://www.la-z-boy.com/DFW/Airport-Freeway/"
"https://www.la-z-boy.com","La-Z-Boy Furniture Galleries","4515 S Cooper St","Arlington","TX","76017","US","50854496","(817) 467-4411","<MISSING>","32.673","-97.134","Monday 10am - 9pm Tuesday 10am - 9pm Wednesday 10am - 9pm Thursday 10am - 9pm Friday 10am - 9pm Saturday 10am - 8pm Sunday 12pm - 6pm","https://www.la-z-boy.com/DFW/S-Cooper-Street/"
"https://www.la-z-boy.com","La-Z-Boy Home Furnishings & Decor","1154 E Ih-30","Rockwall","TX","75087","US","50860666","(469) 434-3015","<MISSING>","32.9","-96.464","Monday 10am - 9pm Tuesday 10am - 9pm Wednesday 10am - 9pm Thursday 10am - 9pm Friday 10am - 9pm Saturday 10am - 8pm Sunday 12pm - 6pm","https://www.la-z-boy.com/DFW/Rockwall/"
"https://www.la-z-boy.com","Knight Furniture: A La-Z-Boy Comfort Studio","108 W Lamar St","Sherman","TX","75090","US","48350001","(903) 893-9484","<MISSING>","33.636","-96.609","<MISSING>","<MISSING>"
"https://www.la-z-boy.com","La-Z-Boy Furniture Galleries","2816 Macarthur Rd","Whitehall","PA","18052","US","50861549","(610) 437-4104","<MISSING>","40.647","-75.496","Monday 10am - 8pm Tuesday 10am - 8pm Wednesday 10am - 8pm Thursday 10am - 8pm Friday 10am - 8pm Saturday 10am - 8pm Sunday 11am - 6pm","https://www.la-z-boy.com/Northeast-Pennsylvania/Macarthur-Road/"
"https://www.la-z-boy.com","La-Z-Boy Home Furnishings & Decor","5211 W Loop 250 N","Midland","TX","79707","US","50861263","(432) 897-1752","<MISSING>","32.022","-102.152","Monday 10am - 9pm Tuesday 10am - 9pm Wednesday 10am - 9pm Thursday 10am - 9pm Friday 10am - 9pm Saturday 10am - 8pm Sunday 12pm - 6pm","https://www.la-z-boy.com/DFW/midland/"
"https://www.la-z-boy.com","La-Z-Boy Furniture Galleries","11967 Jefferson Ave","Newport News","VA","23606","US","50853767","(757) 249-2500","<MISSING>","37.095","-76.488","Monday 10am - 8pm Tuesday 10am - 8pm Wednesday 10am - 8pm Thursday 10am - 8pm Friday 10am - 8pm Saturday 10am - 8pm Sunday 11am - 6pm","https://www.la-z-boy.com/Washington-DC/Jefferson-Avenue/"
"https://www.la-z-boy.com","La-Z-Boy Furniture Galleries","5300 Virginia Beach Blvd","Virginia Beach","VA","23462","US","50853384","(757) 490-6057","<MISSING>","36.848","-76.163","Monday 10am - 8pm Tuesday 10am - 8pm Wednesday 10am - 8pm Thursday 10am - 8pm Friday 10am - 8pm Saturday 10am - 8pm Sunday 11am - 6pm","https://www.la-z-boy.com/Washington-DC/Virginia-Beach-Boulevard/"
"https://www.la-z-boy.com","La-Z-Boy Furniture Galleries","1436 Greenbrier Parkway","Chesapeake","VA","23320","US","50855506","(757) 420-2252","<MISSING>","36.778","-76.232","Monday 10am - 8pm Tuesday 10am - 8pm Wednesday 10am - 8pm Thursday 10am - 8pm Friday 10am - 8pm Saturday 10am - 8pm Sunday 11am - 6pm","https://www.la-z-boy.com/Washington-DC/Greenbrier-Parkway/"
"https://www.la-z-boy.com","Ivor Furniture Company, Inc.: A La-Z-Boy Comfort Studio","35569 General Mahone Blvd","Ivor","VA","23866","US","43798004","(757) 859-6231","<MISSING>","36.908","-76.895","<MISSING>","<MISSING>"
"https://www.la-z-boy.com","La-Z-Boy Furniture Galleries","6609 Grand Ave","Gurnee","IL","60031","US","50856812","(847) 856-8577","<MISSING>","42.385","-87.966","Monday 10am - 8pm Tuesday 10am - 8pm Wednesday 10am - 8pm Thursday 10am - 8pm Friday 10am - 8pm Saturday 10am - 8pm Sunday 11am - 6pm","https://www.la-z-boy.com/Chicago/Grand-Avenue/"
"https://www.la-z-boy.com","La-Z-Boy Furniture Galleries","935 S Rand Road","Lake Zurich","IL","60047","US","50857967","(847) 540-0202","<MISSING>","42.184","-88.088","Monday 10am - 8pm Tuesday 10am - 8pm Wednesday 10am - 8pm Thursday 10am - 8pm Friday 10am - 8pm Saturday 10am - 8pm Sunday 11am - 6pm","https://www.la-z-boy.com/Chicago/S-Rand-Road/"
"https://www.la-z-boy.com","La-Z-Boy Home Furnishings & Decor","1565 S Randall Rd","Algonquin","IL","60102","US","50858777","(847) 458-0036","<MISSING>","42.155","-88.336","Monday 10am - 8pm Tuesday 10am - 8pm Wednesday 10am - 8pm Thursday 10am - 8pm Friday 10am - 8pm Saturday 10am - 8pm Sunday 11am - 6pm","https://www.la-z-boy.com/Chicago/S-Randall-Road/"
"https://www.la-z-boy.com","La-Z-Boy Furniture Galleries","2830 Patriot Blvd","Glenview","IL","60026","US","50857363","(847) 504-0134","<MISSING>","42.107","-87.823","Monday 10am - 8pm Tuesday 10am - 8pm Wednesday 10am - 8pm Thursday 10am - 8pm Friday 10am - 8pm Saturday 10am - 8pm Sunday 11am - 6pm","https://www.la-z-boy.com/Chicago/Patriot-Boulevard/"
"https://www.la-z-boy.com","La-Z-Boy Home Furnishings & Decor","905 E Golf Road","Schaumburg","IL","60173","US","50841092","(847) 306-7062","<MISSING>","42.049","-88.06","Monday 10am - 8pm Tuesday 10am - 8pm Wednesday 10am - 8pm Thursday 10am - 8pm Friday 10am - 8pm Saturday 10am - 8pm Sunday 11am - 6pm","https://www.la-z-boy.com/Chicago/E-Golf-Road/"
"https://www.la-z-boy.com","La-Z-Boy Furniture Galleries","422 Randall Way","South Elgin","IL","60177","US","50858297","(847) 841-6632","<MISSING>","41.983","-88.341","Monday 10am - 8pm Tuesday 10am - 8pm Wednesday 10am - 8pm Thursday 10am - 8pm Friday 10am - 8pm Saturday 10am - 8pm Sunday 11am - 6pm","https://www.la-z-boy.com/Chicago/Randall-Way/"
"https://www.la-z-boy.com","La-Z-Boy Home Furnishings & Decor","2647 North Elston Ave","Chicago","IL","60647","US","50859765","(773) 384-4440","<MISSING>","41.93","-87.684","Monday 10am - 8pm Tuesday 10am - 8pm Wednesday 10am - 8pm Thursday 10am - 8pm Friday 10am - 8pm Saturday 10am - 8pm Sunday 11am - 6pm","https://www.la-z-boy.com/Chicago/Elston/"
"https://www.la-z-boy.com","La-Z-Boy Furniture Galleries","2155 West 22Nd St","Oak Brook","IL","60523","US","50858246","(630) 706-3611","<MISSING>","41.846","-87.971","Monday 10am - 8pm Tuesday 10am - 8pm Wednesday 10am - 8pm Thursday 10am - 8pm Friday 10am - 8pm Saturday 10am - 8pm Sunday 11am - 6pm","https://www.la-z-boy.com/Chicago/West-22nd-Street/"
"https://www.la-z-boy.com","Blvd Home Furniture Center: A La-Z-Boy Comfort Studio","390 North Mall Dr","Saint George","UT","84790","US","08533504","(435) 986-3100","<MISSING>","37.115","-113.543","<MISSING>","<MISSING>"
"https://www.la-z-boy.com","Boulevard Home Furnishings: A La-Z-Boy Comfort Studio","990 S Main","Cedar City","UT","84720","US","08533539","(435) 586-1500","<MISSING>","37.659","-113.073","<MISSING>","<MISSING>"
"https://www.la-z-boy.com","D T McCall & Sons: A La-Z-Boy Comfort Studio","1300 So Jefferson Ave","Cookeville","TN","38506","US","57215022","(931) 526-1103","<MISSING>","36.128","-85.505","<MISSING>","<MISSING>"
"https://www.la-z-boy.com","La-Z-Boy Furniture Galleries","6828 Pear Tree Lane","Peoria","IL","61615","US","50856758","(309) 692-3004","<MISSING>","40.69","-89.662","Monday 10AM- 7PM Tuesday 10AM- 7PM Wednesday 10AM- 7PM Thursday 10AM- 7PM Friday 10AM- 7PM Saturday 10AM- 7PM Sunday 12PM- 5PM","https://www.la-z-boy.com/Central-Illinois/Peoria/"
"https://www.la-z-boy.com","Steinberg's Furniture, Inc.: A La-Z-Boy Comfort Studio","3025 West 5th St","Peru","IL","61354","US","84761008","(815) 223-6598","<MISSING>","41.328","-89.146","<MISSING>","<MISSING>"
"https://www.la-z-boy.com","Cooper Home Furnishings: A La-Z-Boy Comfort Studio","112 W Main St","Plano","IL","60545","US","17407001","(630) 552-8288","<MISSING>","41.662","-88.538","<MISSING>","<MISSING>"
"https://www.la-z-boy.com","La-Z-Boy Furniture Galleries","7991 Mall Rd","Florence","KY","41042","US","50860127","(859) 371-3800","<MISSING>","38.988","-84.652","Monday 10am - 8pm Tuesday 10am - 8pm Wednesday 10am - 8pm Thursday 10am - 8pm Friday 10am - 8pm Saturday 10am - 8pm Sunday 11am - 6pm","https://www.la-z-boy.com/Fairfield/Mall-Road/"
"https://www.la-z-boy.com","Bears Furniture: A La-Z-Boy Comfort Studio","1332 Clifty Dr","Madison","IN","47250","US","05327059","(812) 273-1025","<MISSING>","38.772","-85.416","<MISSING>","<MISSING>"
"https://www.la-z-boy.com","Greemann's Furniture & Design: A La-Z-Boy Comfort Studio","205 S Chestnut St","Seymour","IN","47274","US","34231005","(812) 522-2397","<MISSING>","38.957","-85.89","<MISSING>","<MISSING>"
"https://www.la-z-boy.com","Home Furniture Co., Inc.: A La-Z-Boy Comfort Studio","557 W Eads Pky","Lawrenceburg","IN","47025","US","40568008","(812) 537-0610","<MISSING>","39.094","-84.866","<MISSING>","<MISSING>"
"https://www.la-z-boy.com","Roten Furniture & Carpet: A La-Z-Boy Comfort Studio","109 E Main St","Marshall","AR","72650","US","76141004","(870) 448-2452","<MISSING>","35.909","-92.63","<MISSING>","<MISSING>"
"https://www.la-z-boy.com","Stroud's Home Furnishings: A La-Z-Boy Comfort Studio","403 N Arkansas Ave","Russellville","AR","72801","US","85957127","(501) 354-3672","<MISSING>","35.281","-93.134","<MISSING>","<MISSING>"
"https://www.la-z-boy.com","Stroud Home Furnishings: A La-Z-Boy Comfort Studio","1610 East Harding St","Morrilton","AR","72110","US","85957003","(501) 354-3672","<MISSING>","35.155","-92.743","<MISSING>","<MISSING>"
"https://www.la-z-boy.com","La-Z-Boy Furniture Galleries","15320 W Mcdowell Road","Goodyear","AZ","85395","US","50870548","(602) 426-5292","<MISSING>","33.465","-112.388","Monday 9am - 8pm Tuesday 9am - 8pm Wednesday 9am - 8pm Thursday 9am - 8pm Friday 9am - 8pm Saturday 10am - 7pm Sunday 10am - 6pm","https://www.la-z-boy.com/Arizona/W-McDowell-Road/"
"https://www.la-z-boy.com","La-Z-Boy Home Furnishings & Decor","6976 W Bell Road","Glendale","AZ","85308","US","50870114","(602) 426-5292","<MISSING>","33.639","-112.21","Monday 9am - 8pm Tuesday 9am - 8pm Wednesday 9am - 8pm Thursday 9am - 8pm Friday 9am - 8pm Saturday 10am - 7pm Sunday 10am - 6pm","https://www.la-z-boy.com/Arizona/W-Bell-Road/"
"https://www.la-z-boy.com","La-Z-Boy Home Furnishings & Decor","6828 E Camelback Rd","Scottsdale","AZ","85251","US","50870688","(602) 426-5292","<MISSING>","33.503","-111.933","Monday 10am- 7pm Tuesday 10am - 7pm Wednesday 10am - 7pm Thursday 10am - 7pm Friday 10am -7pm Saturday 10am - 7pm Sunday 10am - 6pm","https://www.la-z-boy.com/Arizona/Scottsdale/"
"https://www.la-z-boy.com","La-Z-Boy Home Furnishings & Decor","15836 N Scottsdale Rd","Scottsdale","AZ","85254","US","50855727","(602) 426-5292","<MISSING>","33.631","-111.926","Monday 9am - 8pm Tuesday 9am - 8pm Wednesday 9am - 8pm Thursday 9am - 8pm Friday 9am - 8pm Saturday 10am - 7pm Sunday 10am - 6pm","https://www.la-z-boy.com/Arizona/N-Scottsdale-Road/"
"https://www.la-z-boy.com","La-Z-Boy Home Furnishings & Decor","3055 W Chandler Blvd","Chandler","AZ","85226","US","50870467","(602) 426-5292","<MISSING>","33.306","-111.896","Monday 9am - 8pm Tuesday 9am - 8pm Wednesday 9am - 8pm Thursday 9am - 8pm Friday 9am - 8pm Saturday 10am - 7pm Sunday 10am - 6pm","https://www.la-z-boy.com/Arizona/W-Chandler-Boulevard/"
"https://www.la-z-boy.com","La-Z-Boy Home Furnishings & Decor","1430 S Power Rd","Mesa","AZ","85206","US","50858076","(602) 426-5292","<MISSING>","33.39","-111.686","Monday 9am - 8pm Tuesday 9am - 8pm Wednesday 9am - 8pm Thursday 9am - 8pm Friday 9am - 8pm Saturday 10am - 7pm Sunday 10am - 6pm","https://www.la-z-boy.com/Arizona/S-Power-Road/"
"https://www.la-z-boy.com","La-Z-Boy Furniture Galleries","12190 Tributary Lane","Rancho Cordova","CA","95670","US","50870255","(916) 985-2850","<MISSING>","38.63","-121.22","Monday 10am - 8pm Tuesday 10am - 6pm Wednesday 10am - 6pm Thursday 10am - 6pm Friday 10am - 8pm Saturday 10am - 8pm Sunday 11am - 6pm","https://www.la-z-boy.com/Sacramento/Tributary-Lane/"
"https://www.la-z-boy.com","La-Z-Boy Furniture Galleries","8265 Laguna Blvd","Elk Grove","CA","95758","US","50876296","(916) 691-1250","<MISSING>","38.423","-121.404","Monday 10am - 8pm Tuesday 10am - 8pm Wednesday 10am - 8pm Thursday 10am - 8pm Friday 10am - 8pm Saturday 10am - 8pm Sunday 11am - 6pm","https://www.la-z-boy.com/Sacramento/Laguna-Boulevard/"
"https://www.la-z-boy.com","La-Z-Boy Home Furnishings & Decor","396 N Sunrise Ave","Roseville","CA","95661","US","50870298","(916) 773-8125","<MISSING>","38.756","-121.256","Monday 10am - 8pm Tuesday 10am - 8pm Wednesday 10am - 8pm Thursday 10am - 8pm Friday 10am - 8pm Saturday 10am - 8pm Sunday 11am - 6pm","https://www.la-z-boy.com/Sacramento/N-Sunrise-Avenue/"
"https://www.la-z-boy.com","Middleton's: A La-Z-Boy Comfort Studio","374 N Main","Angels Camp","CA","95221","US","59566000","(209) 736-4617","<MISSING>","38.086","-120.566","<MISSING>","<MISSING>"
"https://www.la-z-boy.com","La-Z-Boy Home Furnishings & Decor","5060 Nicholson Lane","Rockville","MD","20852","US","50854402","(301) 770-1658","<MISSING>","39.045","-77.105","Monday 10am - 8pm Tuesday 10am - 8pm Wednesday 10am - 8pm Thursday 10am - 8pm Friday 10am - 8pm Saturday 10am - 8pm Sunday 11am - 6pm","https://www.la-z-boy.com/Washington-DC/Nicholson-Lane/"
"https://www.la-z-boy.com","La-Z-Boy Furniture Galleries","21320 Signal Hill Plaza","Sterling","VA","20164","US","50856278","(571) 434-7687","<MISSING>","39.026","-77.389","Monday 10am - 8pm Tuesday 10am - 8pm Wednesday 10am - 8pm Thursday 10am - 8pm Friday 10am - 8pm Saturday 10am - 8pm Sunday 11am - 6pm","https://www.la-z-boy.com/Washington-DC/Signal-Hill-Plaza/"
"https://www.la-z-boy.com","La-Z-Boy Home Furnishings & Decor","10900 Fairfax Blvd","Fairfax","VA","22030","US","50862855","(703) 273-6133","<MISSING>","38.854","-77.32","Monday 10am - 8pm Tuesday 10am - 8pm Wednesday 10am - 8pm Thursday 10am - 8pm Friday 10am - 8pm Saturday 10am - 8pm Sunday 11am - 6pm","https://www.la-z-boy.com/Washington-DC/Fairfax-Boulevard/"
"https://www.la-z-boy.com","La-Z-Boy Furniture Galleries","6003 Kingstowne Village","Alexandria","VA","22315","US","50854666","(703) 971-5065","<MISSING>","38.772","-77.141","Monday 10am - 8pm Tuesday 10am - 8pm Wednesday 10am - 8pm Thursday 10am - 8pm Friday 10am - 8pm Saturday 10am - 8pm Sunday 11am - 8pm","https://www.la-z-boy.com/Washington-DC/Kingstowne-Village/"
"https://www.la-z-boy.com","La-Z-Boy Furniture Galleries","6181 Old Dobbin Lane","Columbia","MD","21045","US","50870424","(443) 285-0200","<MISSING>","39.202","-76.813","Monday 10am - 8pm Tuesday 10am - 8pm Wednesday 10am - 8pm Thursday 10am - 8pm Friday 10am - 8pm Saturday 10am - 8pm Sunday 11am - 6pm","https://www.la-z-boy.com/Baltimore/Old-Dobbin-Lane/"
"https://www.la-z-boy.com","La-Z-Boy Furniture Galleries","408 George Clauss Blvd","Severn","MD","21144","US","50869116","(410) 863-7383","<MISSING>","39.144","-76.648","Monday 10am - 8pm Tuesday 10am - 8pm Wednesday 10am - 8pm Thursday 10am - 8pm Friday 10am - 8pm Saturday 10am - 8pm Sunday 11am - 6pm","https://www.la-z-boy.com/Baltimore/George-Clauss-Boulevard/"
"https://www.la-z-boy.com","La-Z-Boy Furniture Galleries","12100 Jefferson Farm Pl","Waldorf","MD","20601","US","50856375","(301) 638-4417","<MISSING>","38.646","-76.892","Monday 10am - 8pm Tuesday 10am - 8pm Wednesday 10am - 8pm Thursday 10am - 8pm Friday 10am - 8pm Saturday 10am - 8pm Sunday 11am - 6pm","https://www.la-z-boy.com/Washington-DC/Jefferson-Farm-Place/"
"https://www.la-z-boy.com","La-Z-Boy Furniture Galleries","163 Jennifer Rd","Annapolis","MD","21401","US","50854658","(410) 573-1307","<MISSING>","38.989","-76.534","Monday 10am - 8pm Tuesday 10am - 8pm Wednesday 10am - 8pm Thursday 10am - 8pm Friday 10am - 8pm Saturday 10am - 8pm Sunday 11am - 6pm","https://www.la-z-boy.com/Baltimore/Jennifer-Road/"
"https://www.la-z-boy.com","Wolf Furniture: A La-Z-Boy Comfort Studio","131 Fort Evans Rd NE","Leesburg","VA","20176","US","97274526","(814) 742-4380","<MISSING>","39.108","-77.542","<MISSING>","<MISSING>"
"https://www.la-z-boy.com","Gardiner Wolf: A La-Z-Boy Comfort Studio","6415 Baltimore Nat'L Pike","Catonsville","MD","21228","US","97274542","(410) 719-6900","<MISSING>","39.284","-76.759","<MISSING>","<MISSING>"
"https://www.la-z-boy.com","Gardiner Wolf: A La-Z-Boy Comfort Studio","8038 Ritchie Hwy","Pasadena","MD","21122","US","97274569","(410) 760-1122","<MISSING>","39.128","-76.591","<MISSING>","<MISSING>"
"https://www.la-z-boy.com","Gardiner Wolf: A La-Z-Boy Comfort Studio","1530 E Joppa Rd","Towson","MD","21286","US","97274577","(410) 828-8200","<MISSING>","39.397","-76.568","<MISSING>","<MISSING>"
"https://www.la-z-boy.com","Boeckman's Furniture, Inc.: A La-Z-Boy Comfort Studio","512 Main St","Jasper","IN","47546","US","08108412","(812) 482-6477","<MISSING>","38.391","-86.931","<MISSING>","<MISSING>"
"https://www.la-z-boy.com","Best Buy Home Furnishings: A La-Z-Boy Comfort Studio","2007 Willow Street","Vincennes","IN","47591","US","06737919","(812) 886-6995","<MISSING>","38.656","-87.53","<MISSING>","<MISSING>"
"https://www.la-z-boy.com","La-Z-Boy Home Furnishings & Decor","14405 Lakeside Cir","Sterling Hts","MI","48313","US","50860232","(586) 566-1343","<MISSING>","42.626","-82.985","Monday 10am - 8pm Tuesday 10am - 8pm Wednesday 10am - 8pm Thursday 10am - 8pm Friday 10am - 8pm Saturday 10am - 8pm Sunday 11am - 6pm","https://www.la-z-boy.com/Detroit/Sterling-Heights/"
"https://www.la-z-boy.com","La-Z-Boy Home Furnishings & Decor","1475 W Big Beaver Rd","Troy","MI","48084","US","50860364","(248) 649-6787","<MISSING>","42.561","-83.169","Monday 10am - 8pm Tuesday 10am - 8pm Wednesday 10am - 8pm Thursday 10am - 8pm Friday 10am - 8pm Saturday 10am - 8pm Sunday 11am - 6pm","https://www.la-z-boy.com/Detroit/Troy/"
"https://www.la-z-boy.com","La-Z-Boy Home Furnishings & Decor","21300 Eureka Rd","Taylor","MI","48180","US","50861409","(734) 287-0705","<MISSING>","42.199","-83.244","Monday 10am - 8pm Tuesday 10am - 8pm Wednesday 10am - 8pm Thursday 10am - 8pm Friday 10am - 8pm Saturday 10am - 8pm Sunday 11am - 6pm","https://www.la-z-boy.com/Detroit/Taylor/"
"https://www.la-z-boy.com","Godwin's: A La-Z-Boy Comfort Studio","2040 N. Lapeer Rd","Lapeer","MI","48446","US","32581106","(810) 660-8507","<MISSING>","43.053","-83.328","<MISSING>","<MISSING>"
"https://www.la-z-boy.com","Furniture One LTD: A La-Z-Boy Comfort Studio","Rr #1","Essex","ON","N8M 2X5","CA","45261016","(519) 776-6799","<MISSING>","42.121","-82.832","<MISSING>","<MISSING>"
"https://www.la-z-boy.com","Forever Furniture: A La-Z-Boy Comfort Studio","1845 London Line","Sarnia","ON","N7T 7H2","CA","01988034","(519) 541-1342","<MISSING>","42.984","-82.317","<MISSING>","<MISSING>"
"https://www.la-z-boy.com","La-Z-Boy Home Furnishings & Decor","2248 Watt Ave","Sacramento","CA","95825","US","50869648","(916) 481-5883","<MISSING>","38.606","-121.382","Monday 10am - 8pm Tuesday 10am - 6pm Wednesday 10am - 6pm Thursday 10am - 6pm Friday 10am - 8pm Saturday 10am - 8pm Sunday 11am - 6pm","https://www.la-z-boy.com/Sacramento/Watt-Avenue/"
"https://www.la-z-boy.com","La-Z-Boy Furniture Galleries","756 Ikea Ct","West Sacramento","CA","95605","US","50870645","(916) 287-4100","<MISSING>","38.59","-121.551","Monday 10am - 6pm Tuesday 10am - 6pm Wednesday 10am - 6pm Thursday 10am - 6pm Friday 10am - 6pm Saturday 10am - 6pm Sunday 11am - 6pm","https://www.la-z-boy.com/Sacramento/West-Sacramento/"
"https://www.la-z-boy.com","Evans Furniture: A La-Z-Boy Comfort Studio","734 W Onstott Rd","Yuba City","CA","95993","US","25482009","(530) 673-2745","<MISSING>","39.133","-121.635","<MISSING>","<MISSING>"
"https://www.la-z-boy.com","La-Z-Boy Furniture Galleries","6000 S Broadway St","Tyler","TX","75711","US","50852678","(903) 561-9898","<MISSING>","32.332","-95.301","Monday 10am - 7pm Tuesday 10am - 7pm Wednesday 10am - 7pm Thursday 10am - 7pm Friday 10am - 7pm Saturday 10am - 7pm Sunday 1pm - 5pm","https://www.la-z-boy.com/Tyler/Tyler/"
"https://www.la-z-boy.com","Hilliard's Furniture: A La-Z-Boy Comfort Studio","209 S Buffalo St","Canton","TX","75103","US","39545008","(903) 567-4123","<MISSING>","32.556","-95.864","<MISSING>","<MISSING>"
"https://www.la-z-boy.com","La-Z-Boy Home Furnishings & Decor","107-B River Hills Rd","Asheville","NC","28805","US","50861646","(828) 575-1350","<MISSING>","35.575","-82.524","Monday 10am - 8pm Tuesday 10am - 8pm Wednesday 10am - 8pm Thursday 10am - 8pm Friday 10am - 8pm Saturday 10am - 7pm Sunday 1pm - 6pm","https://www.la-z-boy.com/Southeast/River-Hills-Road/"
"https://www.la-z-boy.com","Holland Furniture Company: A La-Z-Boy Comfort Studio","177 N Main St","Henrietta","NC","28076","US","40172015","(828) 657-6328","<MISSING>","35.258","-81.782","<MISSING>","<MISSING>"
"https://www.la-z-boy.com","Lindy's Furniture Co: A La-Z-Boy Comfort Studio","6527 Main Circle","Connelly Sprgs","NC","28612","US","52677028","(828) 879-9732","<MISSING>","35.741","-81.504","<MISSING>","<MISSING>"
"https://www.la-z-boy.com","Watson Furniture: A La-Z-Boy Comfort Studio","107 S Alabama Ave","Chesnee","SC","29323","US","93800029","(864) 461-7317","<MISSING>","35.148","-81.86","<MISSING>","<MISSING>"
"https://www.la-z-boy.com","Hickory Park Furniture: A La-Z-Boy Comfort Studio","2220 Hwy 70 SE","Hickory","NC","28602","US","39319938","(828) 322-4440","<MISSING>","35.703","-81.298","<MISSING>","<MISSING>"
"https://www.la-z-boy.com","Clippard Carpet & Floor: A La-Z-Boy Comfort Studio","914 N Main St","Stanley","NC","28164","US","15660001","(770) 212-9294","<MISSING>","35.369","-81.1","<MISSING>","<MISSING>"
"https://www.la-z-boy.com","Missouri Furniture, Inc.: A La-Z-Boy Comfort Studio","3001 A N Baltimore","Kirksville","MO","63501","US","46894098","(660) 665-4655","<MISSING>","40.224","-92.586","<MISSING>","<MISSING>"
"https://www.la-z-boy.com","Brown's Furniture Inc.: A La-Z-Boy Comfort Studio","410 E Lafayette St","Palmyra","MO","63461","US","10595007","(573) 769-2252","<MISSING>","39.799","-91.519","<MISSING>","<MISSING>"
"https://www.la-z-boy.com","Thornton Furniture, Inc.: A La-Z-Boy Comfort Studio","1895 Cave Mill Road","Bowling Green","KY","42104","US","88471055","(270) 842-0379","<MISSING>","36.944","-86.43","<MISSING>","<MISSING>"
"https://www.la-z-boy.com","Charlotte's Furniture & Fashion: A La-Z-Boy Comfort Studio","747 N Main Street","Beaver Dam","KY","42320","US","17111099","(270) 274-0003","<MISSING>","37.409","-86.878","<MISSING>","<MISSING>"
"https://www.la-z-boy.com","La-Z-Boy Home Furnishings & Decor","81 Ikea Way","Draper","UT","84020","US","02206108","(801) 515-7682","<MISSING>","40.511","-111.896","Monday 10am - 8pm Tuesday 10am - 8pm Wednesday 10am - 8pm Thursday 10am - 8pm Friday 10am - 8pm Saturday 10am - 8pm Sunday CLOSED","https://www.la-z-boy.com/Salt-Lake-City/Draper"
"https://www.la-z-boy.com","La-Z-Boy Furniture Galleries","2049 F X Sabourin","Saint Hubert","QC","J3Z 0B3","CA","01533088","(450) 462-8211","<MISSING>","45.485","-73.384","Monday 9 h 30 a 18 h Tuesday 9 h 30 a 18 h Wednesday 9 h 30 a 18 h Thursday 9 h 30 a 21 h Friday 9 h 30 a 21 h Saturday 9 h 30 a 17 h Sunday 10 h 00 a 16 h 30","https://www.la-z-boy.com/Montreal/Saint-Hubert/"
"https://www.la-z-boy.com","Total Home Center: A La-Z-Boy Comfort Studio","Rt 207 - Highgate Road","St Albans","VT","05478","US","89111125","(802) 524-2159","<MISSING>","44.928","-73.05","<MISSING>","<MISSING>"
"https://www.la-z-boy.com","Setlakwe: A La-Z-Boy Comfort Studio","1154 Rue Principal","Granby","QC","J2J 0M2","CA","80380069","(819) 395-5464","<MISSING>","45.417","-72.762","<MISSING>","<MISSING>"
"https://www.la-z-boy.com","Pratt Furniture, Inc.: A La-Z-Boy Comfort Studio","172 W Washington Ave","Lewistown","IL","61542","US","69959005","(309) 547-3663","<MISSING>","40.397","-90.156","<MISSING>","<MISSING>"
"https://www.la-z-boy.com","Furniture Mart USA, Inc.: A La-Z-Boy Comfort Studio","3175 Agency Street","Burlington","IA","52601","US","29965179","(319) 208-9951","<MISSING>","40.816","-91.14","<MISSING>","<MISSING>"
"https://www.la-z-boy.com","La-Z-Boy Furniture Galleries","540 Route 70","Brick","NJ","08723","US","85166058","(732) 920-2024","<MISSING>","40.058","-74.153","Monday 10am - 8pm Tuesday 10am - 8pm Wednesday 10am - 8pm Thursday 10am - 8pm Friday 10am - 8pm Saturday 10am - 8pm Sunday 11am - 5pm","https://www.la-z-boy.com/Central-New-Jersey/Route-70/"
"https://www.la-z-boy.com","La-Z-Boy Furniture Galleries","3859 South St","Lafayette","IN","47905","US","50857142","(765) 446-1199","<MISSING>","40.418","-86.836","Monday 10am-8pm Tuesday 10am-8pm Wednesday 10am-8pm Thursday 10am-8pm Friday 10am - 8pm Saturday 10am - 7pm Sunday 12pm - 5pm","https://www.la-z-boy.com/Lafayette/Lafayette/"
"https://www.la-z-boy.com","The Gallery Home Furnishings: A La-Z-Boy Comfort Studio","421 E Market St","Logansport","IN","46947","US","30394309","(574) 753-6397","<MISSING>","40.753","-86.365","<MISSING>","<MISSING>"
"https://www.la-z-boy.com","Dow Furniture: A La-Z-Boy Comfort Studio","280 Atlantic Hwy","Waldoboro","ME","04572","US","22721029","(207) 832-6363","<MISSING>","44.103","-69.427","<MISSING>","<MISSING>"
