"locator_domain","location_name","street_address","city","state","zip","country_code","store_number","phone","location_type","latitude","longitude","hours_of_operation","page_url"
"https://www.circlek.com","GREAT NECK","595 NORTHERN BLVD","GREAT NECK","NY","11021","US","2656141","516) 482-1534","On the Run","40.781995","-73.717503","Thursday Open 24h Friday Open 24h Saturday Open 24h Sunday Open 24h Monday Open 24h Tuesday Open 24h Wednesday Open 24h","https://www.circlek.com/store-locator/US/great-neck/595-northern-blvd/2656141"
"https://www.circlek.com","HICKSVILLE","125 BLOOMINGDALE RD","HICKSVILLE","NY","11801","US","2655950","516)-342-6854","Circle K","40.743488","-73.505694","Thursday Open 24h Friday Open 24h Saturday Open 24h Sunday Open 24h Monday Open 24h Tuesday Open 24h Wednesday Open 24h","https://www.circlek.com/store-locator/US/hicksville/125-bloomingdale-rd/2655950"
"https://www.circlek.com","LONG BEACH","203 E PARK AVE","LONG BEACH","NY","11561","US","2656131","516) 889-9740","Circle K","40.588929","-73.657688","Thursday Open 24h Friday Open 24h Saturday Open 24h Sunday Open 24h Monday Open 24h Tuesday Open 24h Wednesday Open 24h","https://www.circlek.com/store-locator/US/long-beach/203-e-park-ave/2656131"
"https://www.circlek.com","NEW YORK","2165 AMSTERDAM AVE","NEW YORK","NY","10032","US","2656008","212) 568-5618","On the Run","40.838903","-73.937089","Thursday Open 24h Friday Open 24h Saturday Open 24h Sunday Open 24h Monday Open 24h Tuesday Open 24h Wednesday Open 24h","https://www.circlek.com/store-locator/US/new-york/2165-amsterdam-ave/2656008"
"https://www.circlek.com","STAMFORD","406 W MAIN ST","STAMFORD","<MISSING>","<MISSING>","US","2654231","<MISSING>","Circle K","41.047874","-73.554771","<MISSING>","https://www.circlek.com/store-locator/US/stamford/406-w-main-st/2654231"
"https://www.circlek.com","St-John's","108 GEORGE ST. WEST","St-John's","NL","A1C 1M7","CA","2533","709-722-4642","Circle K","40.697440","-73.979440","Thursday 1:00 AM to 1:00 AM Friday 1:00 AM to 1:00 AM Saturday 1:00 AM to 1:00 AM Sunday 1:00 AM to 1:00 AM Monday 1:00 AM to 1:00 AM Tuesday 1:00 AM to 1:00 AM Wednesday 1:00 AM to 1:00 AM","https://www.circlek.com/store-locator/Canada/st-john-s/108-george-st-west/2533"
"https://www.circlek.com","HASBROUCK HEIGHTS","133 STATE RTE 17 S","HASBROUCK HEIGHTS","NJ","07604","US","2655669","201-393-0583","Circle K","40.854509","-74.072213","Thursday Open 24h Friday Open 24h Saturday Open 24h Sunday Open 24h Monday Open 24h Tuesday Open 24h Wednesday Open 24h","https://www.circlek.com/store-locator/US/hasbrouck-heights/133-state-rte-17-s/2655669"
"https://www.circlek.com","ORADELL","444 KINDERKAMACK RD","ORADELL","NJ","07649","US","2655848","201-632-5158","Circle K","40.955514","-74.031147","Thursday Open 24h Friday Open 24h Saturday Open 24h Sunday Open 24h Monday Open 24h Tuesday Open 24h Wednesday Open 24h","https://www.circlek.com/store-locator/US/oradell/444-kinderkamack-rd/2655848"
"https://www.circlek.com","GARFIELD","99 RIVER DR","GARFIELD","NJ","07026","US","2654039","973-777-4097","Circle K","40.863708","-74.106471","Thursday 5:00 AM to 11:00 PM Friday 5:00 AM to 11:00 PM Saturday 5:00 AM to 11:00 PM Sunday 5:00 AM to 11:00 PM Monday 5:00 AM to 11:00 PM Tuesday 5:00 AM to 11:00 PM Wednesday 5:00 AM to 11:00 PM","https://www.circlek.com/store-locator/US/garfield/99-river-dr/2654039"
"https://www.circlek.com","BAYONNE","640-650 AVENUE E","BAYONNE","NJ","07002","US","2655849","551-265-7874","Circle K","40.675758","-74.104499","Thursday Open 24h Friday Open 24h Saturday Open 24h Sunday Open 24h Monday Open 24h Tuesday Open 24h Wednesday Open 24h","https://www.circlek.com/store-locator/US/bayonne/640-650-avenue-e/2655849"
"https://www.circlek.com","ELIZABETH","300-310 ELIZABETH AVE","ELIZABETH","<MISSING>","<MISSING>","US","2654219","<MISSING>","Circle K","40.650508","-74.195019","<MISSING>","https://www.circlek.com/store-locator/US/elizabeth/300-310-elizabeth-ave/2654219"
"https://www.circlek.com","ELIZABETH","508 BRUNSWICK AVE","ELIZABETH","NJ","07202","US","2655635","908) 352-5534","Circle K","40.64408","-74.21205","Thursday Open 24h Friday Open 24h Saturday Open 24h Sunday Open 24h Monday Open 24h Tuesday Open 24h Wednesday Open 24h","https://www.circlek.com/store-locator/US/elizabeth/508-brunswick-ave/2655635"
"https://www.circlek.com","LINDEN","801 EDGAR RD #889","LINDEN","<MISSING>","<MISSING>","US","2655638","<MISSING>","Circle K","40.648898","-74.223624","<MISSING>","https://www.circlek.com/store-locator/US/linden/801-edgar-rd-889/2655638"
"https://www.circlek.com","HIGHLANDS","102 BAY AVE","HIGHLANDS","NJ","07732","US","2655758","732) 708-9274","Circle K","40.400421","-73.984701","Thursday Open 24h Friday Open 24h Saturday Open 24h Sunday Open 24h Monday Open 24h Tuesday Open 24h Wednesday Open 24h","https://www.circlek.com/store-locator/US/highlands/102-bay-ave/2655758"
"https://www.circlek.com","WAYNE","1150 HAMBURG TPKE","WAYNE","NJ","07470","US","2655767","973) 686-1603","Circle K","40.960838","-74.241091","Thursday Open 24h Friday Open 24h Saturday Open 24h Sunday Open 24h Monday Open 24h Tuesday Open 24h Wednesday Open 24h","https://www.circlek.com/store-locator/US/wayne/1150-hamburg-tpke/2655767"
"https://www.circlek.com","FAIRFIELD","2120 BLACK ROCK TPKE","FAIRFIELD","CT","06825","US","2656057","203) 336-1266","On the Run","41.1818491","-73.2512245","Thursday Open 24h Friday Open 24h Saturday Open 24h Sunday Open 24h Monday Open 24h Tuesday Open 24h Wednesday Open 24h","https://www.circlek.com/store-locator/US/fairfield/2120-black-rock-tpke/2656057"
"https://www.circlek.com","WAYNE","1431 RTE 23 S","WAYNE","NJ","07470","US","2656046","973) 694-4869","Circle K","40.932777","-74.269798","Thursday Open 24h Friday Open 24h Saturday Open 24h Sunday Open 24h Monday Open 24h Tuesday Open 24h Wednesday Open 24h","https://www.circlek.com/store-locator/US/wayne/1431-rte-23-s/2656046"
"https://www.circlek.com","KEANSBURG","120 CARR AVE","KEANSBURG","NJ","07734","US","2655759","732) 495-1367","Circle K","40.450933","-74.134259","Thursday Open 24h Friday Open 24h Saturday Open 24h Sunday Open 24h Monday Open 24h Tuesday Open 24h Wednesday Open 24h","https://www.circlek.com/store-locator/US/keansburg/120-carr-ave/2655759"
"https://www.circlek.com","CLARK","226 WESTFIELD AVE","CLARK","NJ","07066","US","2655915","917-957-3768","Circle K","40.622312","-74.304854","Thursday Open 24h Friday Open 24h Saturday Open 24h Sunday Open 24h Monday Open 24h Tuesday Open 24h Wednesday Open 24h","https://www.circlek.com/store-locator/US/clark/226-westfield-ave/2655915"
"https://www.circlek.com","COLONIA","78 GARDEN STATE PKWY N","COLONIA","NJ","07067","US","2655634","732) 388-4199","Circle K","40.587990","-74.321960","Thursday Open 24h Friday Open 24h Saturday Open 24h Sunday Open 24h Monday Open 24h Tuesday Open 24h Wednesday Open 24h","https://www.circlek.com/store-locator/US/colonia/78-garden-state-pkwy-n/2655634"
"https://www.circlek.com","ISELIN","78 GARDEN STATE PARKWAY S","ISELIN","NJ","08830","US","2655637","732-494-3440","Circle K","40.583040","-74.333790","Thursday Open 24h Friday Open 24h Saturday Open 24h Sunday Open 24h Monday Open 24h Tuesday Open 24h Wednesday Open 24h","https://www.circlek.com/store-locator/US/iselin/78-garden-state-parkway-s/2655637"
"https://www.circlek.com","OCEANPORT","275 E MAIN ST","OCEANPORT","NJ","07757","US","2655770","732) 542-9599","Circle K","40.313405","-74.025084","Thursday Open 24h Friday Open 24h Saturday Open 24h Sunday Open 24h Monday Open 24h Tuesday Open 24h Wednesday Open 24h","https://www.circlek.com/store-locator/US/oceanport/275-e-main-st/2655770"
"https://www.circlek.com","NORTH MORGANVILLE","70 US ROUTE 9","NORTH MORGANVILLE","NJ","07751","US","2655636","732) 617-7308","Circle K","40.353607","-74.305826","Thursday Open 24h Friday Open 24h Saturday Open 24h Sunday Open 24h Monday Open 24h Tuesday Open 24h Wednesday Open 24h","https://www.circlek.com/store-locator/US/north-morganville/70-us-route-9/2655636"
"https://www.circlek.com","GREEN BROOK","258 US HWY 22 W","GREEN BROOK","NJ","08812","US","2656037","732) 752-1162","On the Run","40.595998","-74.491059","Thursday Open 24h Friday Open 24h Saturday Open 24h Sunday Open 24h Monday Open 24h Tuesday Open 24h Wednesday Open 24h","https://www.circlek.com/store-locator/US/green-brook/258-us-hwy-22-w/2656037"
"https://www.circlek.com","WHARTON","401 STATE ROUTE 15 N","WHARTON","NJ","07885","US","2655828","862-397-1698","Circle K","40.913688","-74.577184","Thursday Open 24h Friday Open 24h Saturday Open 24h Sunday Open 24h Monday Open 24h Tuesday Open 24h Wednesday Open 24h","https://www.circlek.com/store-locator/US/wharton/401-state-route-15-n/2655828"
"https://www.circlek.com","STOCKHOLM","2735 ROUTE 23","STOCKHOLM","<MISSING>","<MISSING>","US","2654232","<MISSING>","Circle K","41.087987","-74.518741","<MISSING>","https://www.circlek.com/store-locator/US/stockholm/2735-route-23/2654232"
"https://www.circlek.com","POINT PLEASANT","200 RIVER AVE","POINT PLEASANT","NJ","08742","US","2654055","732-206-6465","Circle K","40.098516","-74.049983","Thursday 5:00 AM to 11:00 PM Friday 5:00 AM to 11:00 PM Saturday 5:00 AM to 11:00 PM Sunday 5:00 AM to 11:00 PM Monday 5:00 AM to 11:00 PM Tuesday 5:00 AM to 11:00 PM Wednesday 5:00 AM to 11:00 PM","https://www.circlek.com/store-locator/US/point-pleasant/200-river-ave/2654055"
"https://www.circlek.com","MONMOUTH JUNCTION","4150 US HWY 1 N","MONMOUTH JUNCTION","NJ","08852","US","2655633","732) 329-9777","Circle K","40.386502","-74.570099","Thursday Open 24h Friday Open 24h Saturday Open 24h Sunday Open 24h Monday Open 24h Tuesday Open 24h Wednesday Open 24h","https://www.circlek.com/store-locator/US/monmouth-junction/4150-us-hwy-1-n/2655633"
"https://www.circlek.com","LAKEWOOD","1444 OCEAN AVE","LAKEWOOD","NJ","08701","US","2656038","732) 901-4330","On the Run","40.081238","-74.158149","Thursday Open 24h Friday Open 24h Saturday Open 24h Sunday Open 24h Monday Open 24h Tuesday Open 24h Wednesday Open 24h","https://www.circlek.com/store-locator/US/lakewood/1444-ocean-ave/2656038"
"https://www.circlek.com","NEWTON","239 NEWTON SPARTA RD","NEWTON","NJ","07860","US","2655771","973) 579-7367","Circle K","41.038189","-74.702005","Thursday 5:00 AM to 11:00 PM Friday 5:00 AM to 11:00 PM Saturday 5:00 AM to 11:00 PM Sunday 5:00 AM to 11:00 PM Monday 5:00 AM to 11:00 PM Tuesday 5:00 AM to 11:00 PM Wednesday 5:00 AM to 11:00 PM","https://www.circlek.com/store-locator/US/newton/239-newton-sparta-rd/2655771"
"https://www.circlek.com","POUGHKEEPSIE","298 TITUSVILLE RD","POUGHKEEPSIE","NY","12603","US","2656058","845) 486-4362","Circle K","41.658852","-73.848492","Thursday Open 24h Friday Open 24h Saturday Open 24h Sunday Open 24h Monday Open 24h Tuesday Open 24h Wednesday Open 24h","https://www.circlek.com/store-locator/US/poughkeepsie/298-titusville-rd/2656058"
"https://www.circlek.com","TOMS RIVER","2001 RIDGEWAY RD","TOMS RIVER","NJ","08757","US","2655766","732) 736-0539","Circle K","40.006858","-74.242163","Thursday Open 24h Friday Open 24h Saturday Open 24h Sunday Open 24h Monday Open 24h Tuesday Open 24h Wednesday Open 24h","https://www.circlek.com/store-locator/US/toms-river/2001-ridgeway-rd/2655766"
"https://www.circlek.com","BAYVILLE","220 OCEAN GATE DR","BAYVILLE","NJ","08721","US","2655752","732) 606-1405","Circle K","39.91661","-74.153974","Thursday Open 24h Friday Open 24h Saturday Open 24h Sunday Open 24h Monday Open 24h Tuesday Open 24h Wednesday Open 24h","https://www.circlek.com/store-locator/US/bayville/220-ocean-gate-dr/2655752"
"https://www.circlek.com","WASHINGTON CROSSING","1250-1 ROUTE 532","WASHINGTON CROSSING","PA","18977","US","2655858","215-493-7164","Circle K","40.292698","-74.872821","Thursday 5:00 AM to 11:00 PM Friday 5:00 AM to 11:00 PM Saturday 5:00 AM to 11:00 PM Sunday 5:00 AM to 11:00 PM Monday 5:00 AM to 11:00 PM Tuesday 5:00 AM to 11:00 PM Wednesday 5:00 AM to 11:00 PM","https://www.circlek.com/store-locator/US/washington-crossing/1250-1-route-532/2655858"
"https://www.circlek.com","MANAHAWKIN","1504 RTE 72 W","MANAHAWKIN","NJ","08050","US","2655761","609) 597-5675","Circle K","39.730822","-74.293888","Thursday Open 24h Friday Open 24h Saturday Open 24h Sunday Open 24h Monday Open 24h Tuesday Open 24h Wednesday Open 24h","https://www.circlek.com/store-locator/US/manahawkin/1504-rte-72-w/2655761"
"https://www.circlek.com","MOUNT LAUREL","799 MOORESTOWN-CENTERTON RD","MOUNT LAUREL","NJ","08054","US","2656925","540) 434-7344","On the Run","39.993332","-74.881831","Thursday Open 24h Friday Open 24h Saturday Open 24h Sunday Open 24h Monday Open 24h Tuesday Open 24h Wednesday Open 24h","https://www.circlek.com/store-locator/US/mount-laurel/799-moorestown-centerton-rd/2656925"
"https://www.circlek.com","WINDSOR","356 BLOOMFIELD AVE","WINDSOR","<MISSING>","<MISSING>","US","2654118","<MISSING>","Circle K","41.852661","-72.662145","<MISSING>","https://www.circlek.com/store-locator/US/windsor/356-bloomfield-ave/2654118"
"https://www.circlek.com","WINDSOR","680 POQUONOCK AVE","WINDSOR","CT","06095","US","2656054","860) 688-0588","Circle K","41.872465","-72.6599336","Thursday Open 24h Friday Open 24h Saturday Open 24h Sunday Open 24h Monday Open 24h Tuesday Open 24h Wednesday Open 24h","https://www.circlek.com/store-locator/US/windsor/680-poquonock-ave/2656054"
"https://www.circlek.com","LITTLE EGG HARBOR TWP","606 RTE 9 S","LITTLE EGG HARBOR TWP","NJ","08087","US","2655769","609) 294-3831","Circle K","39.601565","-74.359869","Thursday 5:00 AM to 11:00 PM Friday 5:00 AM to 11:00 PM Saturday 5:00 AM to 11:00 PM Sunday 5:00 AM to 11:00 PM Monday 5:00 AM to 11:00 PM Tuesday 5:00 AM to 11:00 PM Wednesday 5:00 AM to 11:00 PM","https://www.circlek.com/store-locator/US/little-egg-harbor-twp/606-rte-9-s/2655769"
"https://www.circlek.com","DRESHER","1713 N LIMEKILN PIKE","DRESHER","PA","19025","US","2655756","215) 540-4528","Circle K","40.141786","-75.167555","Thursday Open 24h Friday Open 24h Saturday Open 24h Sunday Open 24h Monday Open 24h Tuesday Open 24h Wednesday Open 24h","https://www.circlek.com/store-locator/US/dresher/1713-n-limekiln-pike/2655756"
"https://www.circlek.com","LITTLE EGG HARBOR TWP","918 RADIO RD","LITTLE EGG HARBOR TWP","NJ","08087","US","2655760","609) 294-3652","Circle K","39.568533","-74.370388","Thursday 5:00 AM to 11:00 PM Friday 5:00 AM to 11:00 PM Saturday 5:00 AM to 11:00 PM Sunday 5:00 AM to 11:00 PM Monday 5:00 AM to 11:00 PM Tuesday 5:00 AM to 11:00 PM Wednesday 5:00 AM to 11:00 PM","https://www.circlek.com/store-locator/US/little-egg-harbor-twp/918-radio-rd/2655760"
"https://www.circlek.com","TELFORD","401 N MAIN ST","TELFORD","PA","18969","US","2655765","215) 723-1774","Circle K","40.328457","-75.333475","Thursday Open 24h Friday Open 24h Saturday Open 24h Sunday Open 24h Monday Open 24h Tuesday Open 24h Wednesday Open 24h","https://www.circlek.com/store-locator/US/telford/401-n-main-st/2655765"
"https://www.circlek.com","GOULDSBORO","17 MAIN ST","GOULDSBORO","PA","18424","US","2656362","570) 465-4590","On the Run","41.232962","-75.496339","Thursday Open 24h Friday Open 24h Saturday Open 24h Sunday Open 24h Monday Open 24h Tuesday Open 24h Wednesday Open 24h","https://www.circlek.com/store-locator/US/gouldsboro/17-main-st/2656362"
"https://www.circlek.com","ENFIELD","<MISSING>","ENFIELD","<MISSING>","<MISSING>","US","31813","<MISSING>","Circle K","42.0027181","-72.5441445","<MISSING>","https://www.circlek.com/store-locator/IE/enfield//31813"
"https://www.circlek.com","ENFIELD","NORTH M4 WEST BOUND","ENFIELD","<MISSING>","<MISSING>","US","31807","<MISSING>","Circle K","42.0027181","-72.5441445","<MISSING>","https://www.circlek.com/store-locator/IE/enfield/north-m4-west-bound/31807"
"https://www.circlek.com","ENFIELD","<MISSING>","ENFIELD","<MISSING>","<MISSING>","US","31812","<MISSING>","Circle K","42.0027181","-72.5441445","<MISSING>","https://www.circlek.com/store-locator/IE/enfield//31812"
"https://www.circlek.com","WESTFIELD","1400 RUSSELL RD","WESTFIELD","MA","01085-2123","US","M7515","413) 568-1786","Circle K","42.149894","-72.814796","Thursday Open 24h Friday Open 24h Saturday Open 24h Sunday Open 24h Monday Open 24h Tuesday Open 24h Wednesday Open 24h","https://www.circlek.com/store-locator/US/westfield/1400-russell-rd/M7515"
"https://www.circlek.com","DEVON","201 W LANCASTER AVE","DEVON","PA","19333","US","2655755","484) 582-0452","Circle K","40.045997","-75.42401","Thursday Open 24h Friday Open 24h Saturday Open 24h Sunday Open 24h Monday Open 24h Tuesday Open 24h Wednesday Open 24h","https://www.circlek.com/store-locator/US/devon/201-w-lancaster-ave/2655755"
"https://www.circlek.com","SPRINGFIELD","1112 BAY ST","SPRINGFIELD","MA","01109","US","2655889","413-788-3960","Circle K","42.132613","-72.547816","Thursday 5:00 AM to 12:00 AM Friday 5:00 AM to 12:00 AM Saturday 5:00 AM to 12:00 AM Sunday 5:00 AM to 12:00 AM Monday 5:00 AM to 12:00 AM Tuesday 5:00 AM to 12:00 AM Wednesday 5:00 AM to 12:00 AM","https://www.circlek.com/store-locator/US/springfield/1112-bay-st/2655889"
"https://www.circlek.com","ATLANTIC CITY","9 N ARKANSAS AVE","ATLANTIC CITY","NJ","08401","US","2655751","609) 345-4759","Circle K","39.359172","-74.436826","Thursday Open 24h Friday Open 24h Saturday Open 24h Sunday Open 24h Monday Open 24h Tuesday Open 24h Wednesday Open 24h","https://www.circlek.com/store-locator/US/atlantic-city/9-n-arkansas-ave/2655751"
"https://www.circlek.com","HOLYOKE","625 HOMESTEAD AVE","HOLYOKE","<MISSING>","<MISSING>","US","2654133","<MISSING>","Circle K","42.186215","-72.651086","<MISSING>","https://www.circlek.com/store-locator/US/holyoke/625-homestead-ave/2654133"
"https://www.circlek.com","COLEBROOKDALE TWP","1255 MONTGOMERY AVE","COLEBROOKDALE TWP","PA","19512","US","2655763","610) 473-0901","Circle K","40.344384","-75.62713","Thursday Open 24h Friday Open 24h Saturday Open 24h Sunday Open 24h Monday Open 24h Tuesday Open 24h Wednesday Open 24h","https://www.circlek.com/store-locator/US/colebrookdale-twp/1255-montgomery-ave/2655763"
"https://www.circlek.com","BOYERTOWN","100 S READING AVE","BOYERTOWN","PA","19512","US","2655753","610) 473-9106","Circle K","40.331807","-75.639836","Thursday Open 24h Friday Open 24h Saturday Open 24h Sunday Open 24h Monday Open 24h Tuesday Open 24h Wednesday Open 24h","https://www.circlek.com/store-locator/US/boyertown/100-s-reading-ave/2655753"
"https://www.circlek.com","HOLYOKE","337 APPLETON ST","HOLYOKE","MA","01040","US","2655782","413) 322-8358","Circle K","42.20607","-72.6115693","Thursday Open 24h Friday Open 24h Saturday Open 24h Sunday Open 24h Monday Open 24h Tuesday Open 24h Wednesday Open 24h","https://www.circlek.com/store-locator/US/holyoke/337-appleton-st/2655782"
"https://www.circlek.com","EGG HARBOR TOWNSHIP","3001 OCEAN HEIGHTS AVE","EGG HARBOR TOWNSHIP","NJ","08234","US","2655757","609) 653-6783","Circle K","39.362414","-74.618474","Thursday Open 24h Friday Open 24h Saturday Open 24h Sunday Open 24h Monday Open 24h Tuesday Open 24h Wednesday Open 24h","https://www.circlek.com/store-locator/US/egg-harbor-township/3001-ocean-heights-ave/2655757"
"https://www.circlek.com","POTTSTOWN","312 MANATAWNY ST","POTTSTOWN","PA","19464","US","2655764","610) 323-2291","Circle K","40.25353","-75.654803","Thursday Open 24h Friday Open 24h Saturday Open 24h Sunday Open 24h Monday Open 24h Tuesday Open 24h Wednesday Open 24h","https://www.circlek.com/store-locator/US/pottstown/312-manatawny-st/2655764"
"https://www.circlek.com","CLAYMONT","698 NAAMANS RD","CLAYMONT","DE","19703","US","2655790","302-798-8800","Circle K","39.8164338","-75.458703","Thursday Open 24h Friday Open 24h Saturday Open 24h Sunday Open 24h Monday Open 24h Tuesday Open 24h Wednesday Open 24h","https://www.circlek.com/store-locator/US/claymont/698-naamans-rd/2655790"
"https://www.circlek.com","WILMINGTON","1801 CONCORD PIKE","WILMINGTON","DE","19803","US","2655768","302) 652-2034","Circle K","39.786042","-75.545357","Thursday Open 24h Friday Open 24h Saturday Open 24h Sunday Open 24h Monday Open 24h Tuesday Open 24h Wednesday Open 24h","https://www.circlek.com/store-locator/US/wilmington/1801-concord-pike/2655768"
"https://www.circlek.com","CARNEY'S POINT","321 SHELL RD","CARNEY'S POINT","NJ","08069","US","2655754","856) 299-7127","Circle K","39.707632","-75.469795","Thursday Open 24h Friday Open 24h Saturday Open 24h Sunday Open 24h Monday Open 24h Tuesday Open 24h Wednesday Open 24h","https://www.circlek.com/store-locator/US/carney-s-point/321-shell-rd/2655754"
"https://www.circlek.com","WHATELY","1 SUNDERLAND RD","WHATELY","MA","01093","US","M7508","413) 665-5183","Circle K","42.470055","-72.614652","Thursday 5:00 AM to 11:00 PM Friday 5:00 AM to 11:00 PM Saturday 5:00 AM to 11:00 PM Sunday 5:00 AM to 11:00 PM Monday 5:00 AM to 11:00 PM Tuesday 5:00 AM to 11:00 PM Wednesday 5:00 AM to 11:00 PM","https://www.circlek.com/store-locator/US/whately/1-sunderland-rd/M7508"
"https://www.circlek.com","S DEERFIELD","1 GREENFIELD RD","S DEERFIELD","MA","01373-9618","US","M7509","413) 665-2780","Circle K","42.471191","-72.615615","Thursday Open 24h Friday Open 24h Saturday Open 24h Sunday Open 24h Monday Open 24h Tuesday Open 24h Wednesday Open 24h","https://www.circlek.com/store-locator/US/s-deerfield/1-greenfield-rd/M7509"
"https://www.circlek.com","JOHNSTON","1889 PLAINFIELD PIKE","JOHNSTON","RI","02919","US","2655948","401) 228-8103","Circle K","41.789282","-71.510256","Thursday Open 24h Friday Open 24h Saturday Open 24h Sunday Open 24h Monday Open 24h Tuesday Open 24h Wednesday Open 24h","https://www.circlek.com/store-locator/US/johnston/1889-plainfield-pike/2655948"
"https://www.circlek.com","GREENFIELD","223 MOHAWK TR","GREENFIELD","MA","01301","US","M7510","413) 774-7112","Circle K","42.586212","-72.624565","Thursday Open 24h Friday Open 24h Saturday Open 24h Sunday Open 24h Monday Open 24h Tuesday Open 24h Wednesday Open 24h","https://www.circlek.com/store-locator/US/greenfield/223-mohawk-tr/M7510"
"https://www.circlek.com","CUMBERLAND","1754 MENDON RD","CUMBERLAND","RI","02864","US","2654066","401-305-5444","Circle K","41.943114","-71.435991","Thursday Open 24h Friday Open 24h Saturday Open 24h Sunday Open 24h Monday Open 24h Tuesday Open 24h Wednesday Open 24h","https://www.circlek.com/store-locator/US/cumberland/1754-mendon-rd/2654066"
"https://www.circlek.com","MILFORD","140 MEDWAY RD","MILFORD","MA","01757","US","2656116","508) 473-4981","Circle K","42.1483969","-71.4880696","Thursday Open 24h Friday Open 24h Saturday Open 24h Sunday Open 24h Monday Open 24h Tuesday Open 24h Wednesday Open 24h","https://www.circlek.com/store-locator/US/milford/140-medway-rd/2656116"
"https://www.circlek.com","ASSONET","68 S MAIN ST","ASSONET","MA","02702-1710","US","M7516","508) 644-3181","Circle K","41.786742","-71.076729","Thursday Open 24h Friday Open 24h Saturday Open 24h Sunday Open 24h Monday Open 24h Tuesday Open 24h Wednesday Open 24h","https://www.circlek.com/store-locator/US/assonet/68-s-main-st/M7516"
"https://www.circlek.com","BRATTLEBORO","564 CANAL ST","BRATTLEBORO","VT","05301-6625","US","M7409","802) 254-0374","Circle K","42.837396","-72.565684","Thursday Open 24h Friday Open 24h Saturday Open 24h Sunday Open 24h Monday Open 24h Tuesday Open 24h Wednesday Open 24h","https://www.circlek.com/store-locator/US/brattleboro/564-canal-st/M7409"
"https://www.circlek.com","FRAMINGHAM","1063 WORCESTER RD","FRAMINGHAM","MA","01701","US","2656119","508) 879-4763","Circle K","42.300028","-71.440736","Thursday Open 24h Friday Open 24h Saturday Open 24h Sunday Open 24h Monday Open 24h Tuesday Open 24h Wednesday Open 24h","https://www.circlek.com/store-locator/US/framingham/1063-worcester-rd/2656119"
"https://www.circlek.com","EAST FREETOWN","4 CHACE RD","EAST FREETOWN","MA","02717-1202","US","M7518","508) 763-4696","Circle K","41.770274","-70.957104","Thursday 5:00 AM to 11:00 PM Friday 5:00 AM to 11:00 PM Saturday 5:00 AM to 11:00 PM Sunday 5:00 AM to 11:00 PM Monday 5:00 AM to 11:00 PM Tuesday 5:00 AM to 11:00 PM Wednesday 5:00 AM to 11:00 PM","https://www.circlek.com/store-locator/US/east-freetown/4-chace-rd/M7518"
"https://www.circlek.com","DUMMERSTON","2557 W RIVER RD","DUMMERSTON","VT","05301","US","M7406","802) 254-2880","Circle K","42.928403","-72.611142","Thursday 6:00 AM to 10:00 PM Friday 6:00 AM to 11:00 PM Saturday 6:00 AM to 11:00 PM Sunday 6:00 AM to 10:00 PM Monday 6:00 AM to 10:00 PM Tuesday 6:00 AM to 10:00 PM Wednesday 6:00 AM to 10:00 PM","https://www.circlek.com/store-locator/US/dummerston/2557-w-river-rd/M7406"
"https://www.circlek.com","BRIDGEWATER","1385 PLEASANT ST","BRIDGEWATER","MA","02324-1028","US","M7517","508) 697-2160","Circle K","41.968601","-71.020761","Thursday 5:00 AM to 11:00 PM Friday 5:00 AM to 11:00 PM Saturday 5:00 AM to 11:00 PM Sunday 5:00 AM to 11:00 PM Monday 5:00 AM to 11:00 PM Tuesday 5:00 AM to 11:00 PM Wednesday 5:00 AM to 11:00 PM","https://www.circlek.com/store-locator/US/bridgewater/1385-pleasant-st/M7517"
"https://www.circlek.com","MIDDLEBOROUGH","47 HARDING ST","MIDDLEBOROUGH","MA","02346-1013","US","M7519","508) 947-1252","Circle K","41.902193","-70.97151","Thursday Open 24h Friday Open 24h Saturday Open 24h Sunday Open 24h Monday Open 24h Tuesday Open 24h Wednesday Open 24h","https://www.circlek.com/store-locator/US/middleborough/47-harding-st/M7519"
"https://www.circlek.com","NORWOOD","971 BOSTON PROVIDENCE HWY","NORWOOD","MA","02062","US","2654117","781) 769-8945","Circle K","42.179287","-71.190717","Thursday Open 24h Friday Open 24h Saturday Open 24h Sunday Open 24h Monday Open 24h Tuesday Open 24h Wednesday Open 24h","https://www.circlek.com/store-locator/US/norwood/971-boston-providence-hwy/2654117"
"https://www.circlek.com","JAFFREY","62 RIVER ST","JAFFREY","NH","03452","US","2656285","603) 532-6600","Circle K","42.812203","-72.027976","Thursday 5:00 AM to 10:00 PM Friday 5:00 AM to 10:00 PM Saturday 5:00 AM to 10:00 PM Sunday 5:00 AM to 10:00 PM Monday 5:00 AM to 10:00 PM Tuesday 5:00 AM to 10:00 PM Wednesday 5:00 AM to 10:00 PM","https://www.circlek.com/store-locator/US/jaffrey/62-river-st/2656285"
"https://www.circlek.com","KEENE","410 WEST ST","KEENE","NH","03431-2447","US","M7257","603) 355-0137","Circle K","42.93329","-72.293383","Thursday Open 24h Friday Open 24h Saturday Open 24h Sunday Open 24h Monday Open 24h Tuesday Open 24h Wednesday Open 24h","https://www.circlek.com/store-locator/US/keene/410-west-st/M7257"
"https://www.circlek.com","LITTLE FALLS","279 W MAIN ST","LITTLE FALLS","NY","13365","US","M7603","315) 823-1496","Circle K","43.038552","-74.866229","Thursday 5:00 AM to 12:00 AM Friday 5:00 AM to 12:00 AM Saturday 5:00 AM to 12:00 AM Sunday 5:00 AM to 12:00 AM Monday 5:00 AM to 12:00 AM Tuesday 5:00 AM to 12:00 AM Wednesday 5:00 AM to 12:00 AM","https://www.circlek.com/store-locator/US/little-falls/279-w-main-st/M7603"
"https://www.circlek.com","WATERTOWN","354 ARSENAL ST","WATERTOWN","MA","02472","US","2658065","617-744-5151","Kangaroo Express","42.363939","-71.166288","Thursday Open 24h Friday Open 24h Saturday Open 24h Sunday Open 24h Monday Open 24h Tuesday Open 24h Wednesday Open 24h","https://www.circlek.com/store-locator/US/watertown/354-arsenal-st/2658065"
"https://www.circlek.com","EAST WAREHAM","2900 CRANBERRY HWY","EAST WAREHAM","MA","02538","US","2655974","508-295-3236","Circle K","41.760162","-70.665733","Thursday 5:00 AM to 12:00 AM Friday 5:00 AM to 12:00 AM Saturday 5:00 AM to 12:00 AM Sunday 5:00 AM to 12:00 AM Monday 5:00 AM to 12:00 AM Tuesday 5:00 AM to 12:00 AM Wednesday 5:00 AM to 12:00 AM","https://www.circlek.com/store-locator/US/east-wareham/2900-cranberry-hwy/2655974"
"https://www.circlek.com","BRAINTREE","301 ELM ST","BRAINTREE","MA","02184","US","2656088","781) 843-0085","Circle K","42.224971","-70.995484","Thursday Open 24h Friday Open 24h Saturday Open 24h Sunday Open 24h Monday Open 24h Tuesday Open 24h Wednesday Open 24h","https://www.circlek.com/store-locator/US/braintree/301-elm-st/2656088"
"https://www.circlek.com","BURLINGTON","173 BEDFORD ST","BURLINGTON","MA","01803","US","2656113","781) 273-2525","Circle K","42.501475","-71.232996","Thursday Open 24h Friday Open 24h Saturday Open 24h Sunday Open 24h Monday Open 24h Tuesday Open 24h Wednesday Open 24h","https://www.circlek.com/store-locator/US/burlington/173-bedford-st/2656113"
"https://www.circlek.com","SANGERFIELD","1053 STATE ROUTE 12","SANGERFIELD","NY","13455","US","M7609","315) 841-8165","Circle K","42.914952","-75.379341","Thursday Open 24h Friday Open 24h Saturday Open 24h Sunday Open 24h Monday Open 24h Tuesday Open 24h Wednesday Open 24h","https://www.circlek.com/store-locator/US/sangerfield/1053-state-route-12/M7609"
"https://www.circlek.com","MEDFORD","1 MYSTIC AVE","MEDFORD","MA","02155","US","2656126","781) 395-1700","Circle K","42.4148373","-71.1104076","Thursday Open 24h Friday Open 24h Saturday Open 24h Sunday Open 24h Monday Open 24h Tuesday Open 24h Wednesday Open 24h","https://www.circlek.com/store-locator/US/medford/1-mystic-ave/2656126"
"https://www.circlek.com","BILLERICA","441 BOSTON RD","BILLERICA","MA","01821","US","2656084","978) 667-0531","Circle K","42.5551556","-71.2664164","Thursday 5:00 AM to 12:00 AM Friday 5:00 AM to 12:00 AM Saturday 5:00 AM to 12:00 AM Sunday 5:00 AM to 12:00 AM Monday 5:00 AM to 12:00 AM Tuesday 5:00 AM to 12:00 AM Wednesday 5:00 AM to 12:00 AM","https://www.circlek.com/store-locator/US/billerica/441-boston-rd/2656084"
"https://www.circlek.com","MILFORD","792 ELM ST","MILFORD","NH","03055-3105","US","M7236","603) 673-3102","Circle K","42.841843","-71.718129","Thursday Open 24h Friday Open 24h Saturday Open 24h Sunday Open 24h Monday Open 24h Tuesday Open 24h Wednesday Open 24h","https://www.circlek.com/store-locator/US/milford/792-elm-st/M7236"
"https://www.circlek.com","STONEHAM","2 SOUTH ST","STONEHAM","MA","02180","US","2656118","781) 438-4800","Circle K","42.466029","-71.100477","Thursday 6:00 AM to 12:00 AM Friday 6:00 AM to 12:00 AM Saturday 6:00 AM to 12:00 AM Sunday 6:00 AM to 12:00 AM Monday 6:00 AM to 12:00 AM Tuesday 6:00 AM to 12:00 AM Wednesday 6:00 AM to 12:00 AM","https://www.circlek.com/store-locator/US/stoneham/2-south-st/2656118"
"https://www.circlek.com","STONEHAM","96 MONTVALE AVE","STONEHAM","MA","02180","US","2656073","781) 438-2556","Circle K","42.479954","-71.112417","Thursday Open 24h Friday Open 24h Saturday Open 24h Sunday Open 24h Monday Open 24h Tuesday Open 24h Wednesday Open 24h","https://www.circlek.com/store-locator/US/stoneham/96-montvale-ave/2656073"
"https://www.circlek.com","MELROSE","386 MAIN ST","MELROSE","MA","02176","US","2655709","781-665-1470","Circle K","42.4529422","-71.06699037","Thursday 5:00 AM to 11:00 PM Friday 5:00 AM to 11:00 PM Saturday 5:00 AM to 11:00 PM Sunday 5:00 AM to 11:00 PM Monday 5:00 AM to 11:00 PM Tuesday 5:00 AM to 11:00 PM Wednesday 5:00 AM to 11:00 PM","https://www.circlek.com/store-locator/US/melrose/386-main-st/2655709"
"https://www.circlek.com","STONEHAM","250 MAIN ST","STONEHAM","MA","02180","US","2656128","781) 279-0977","Circle K","42.484607","-71.099874","Thursday 6:00 AM to 12:00 AM Friday 6:00 AM to 12:00 AM Saturday 6:00 AM to 12:00 AM Sunday 6:00 AM to 12:00 AM Monday 6:00 AM to 12:00 AM Tuesday 6:00 AM to 12:00 AM Wednesday 6:00 AM to 12:00 AM","https://www.circlek.com/store-locator/US/stoneham/250-main-st/2656128"
"https://www.circlek.com","TEWKSBURY","1785 ANDOVER ST","TEWKSBURY","MA","01876","US","2656117","978) 851-5155","Circle K","42.642289","-71.236133","Thursday Open 24h Friday Open 24h Saturday Open 24h Sunday Open 24h Monday Open 24h Tuesday Open 24h Wednesday Open 24h","https://www.circlek.com/store-locator/US/tewksbury/1785-andover-st/2656117"
"https://www.circlek.com","WAKEFIELD","448 SALEM ST","WAKEFIELD","MA","01880-1244","US","M7500","781) 246-2578","Circle K","42.512055","-71.0432","Thursday Open 24h Friday Open 24h Saturday Open 24h Sunday Open 24h Monday Open 24h Tuesday Open 24h Wednesday Open 24h","https://www.circlek.com/store-locator/US/wakefield/448-salem-st/M7500"
"https://www.circlek.com","WAKEFIELD","448 SALEM ST","WAKEFIELD","MA","01880-1244","US","M7504","781) 245-3612","Circle K","42.512055","-71.0432","Thursday 7:00 AM to 9:00 PM Friday 7:00 AM to 10:00 PM Saturday 8:00 AM to 10:00 PM Sunday 8:00 AM to 9:00 PM Monday 7:00 AM to 9:00 PM Tuesday 7:00 AM to 9:00 PM Wednesday 7:00 AM to 9:00 PM","https://www.circlek.com/store-locator/US/wakefield/448-salem-st/M7504"
"https://www.circlek.com","MERRIMACK","468 DANIEL WEBSTER  HWY","MERRIMACK","NH","03054","US","2656123","603-424-5227","Circle K","42.866403","-71.494089","Thursday Open 24h Friday Open 24h Saturday Open 24h Sunday Open 24h Monday Open 24h Tuesday Open 24h Wednesday Open 24h","https://www.circlek.com/store-locator/US/merrimack/468-daniel-webster-hwy/2656123"
"https://www.circlek.com","HUDSON","329 DERRY RD","HUDSON","NH","03051-3020","US","M7261","603) 595-5962","Circle K","42.819424","-71.413408","Thursday Open 24h Friday Open 24h Saturday Open 24h Sunday Open 24h Monday Open 24h Tuesday Open 24h Wednesday Open 24h","https://www.circlek.com/store-locator/US/hudson/329-derry-rd/M7261"
"https://www.circlek.com","SPRINGFIELD","14 MISSING LINK RD","SPRINGFIELD","VT","05156-9224","US","M7404","802) 885-2266","Circle K","43.264179","-72.437382","Thursday Open 24h Friday Open 24h Saturday Open 24h Sunday Open 24h Monday Open 24h Tuesday Open 24h Wednesday Open 24h","https://www.circlek.com/store-locator/US/springfield/14-missing-link-rd/M7404"
"https://www.circlek.com","SPRINGFIELD","14 MISSING LINK RD","SPRINGFIELD","VT","05156-9224","US","M7405","802) 885-5257","Circle K","43.264179","-72.437382","Thursday 7:00 AM to 9:00 PM Friday 7:00 AM to 9:00 PM Saturday 7:00 AM to 9:00 PM Sunday 7:00 AM to 9:00 PM Monday 7:00 AM to 9:00 PM Tuesday 7:00 AM to 9:00 PM Wednesday 7:00 AM to 9:00 PM","https://www.circlek.com/store-locator/US/springfield/14-missing-link-rd/M7405"
"https://www.circlek.com","SALEM","323 HIGHLAND AVE","SALEM","MA","01970-1738","US","M7502","978) 745-8689","Circle K","42.500087","-70.92678","Thursday 5:00 AM to 10:00 PM Friday 5:00 AM to 10:00 PM Saturday 6:00 AM to 10:00 PM Sunday 6:00 AM to 10:00 PM Monday 5:00 AM to 10:00 PM Tuesday 5:00 AM to 10:00 PM Wednesday 5:00 AM to 10:00 PM","https://www.circlek.com/store-locator/US/salem/323-highland-ave/M7502"
"https://www.circlek.com","METHUEN","181 PELHAM ST","METHUEN","MA","01844-1520","US","M7512","978) 688-0623","Circle K","42.729961","-71.210342","Thursday Open 24h Friday Open 24h Saturday Open 24h Sunday Open 24h Monday Open 24h Tuesday Open 24h Wednesday Open 24h","https://www.circlek.com/store-locator/US/methuen/181-pelham-st/M7512"
"https://www.circlek.com","METHUEN","181 PELHAM ST","METHUEN","MA","01844-1520","US","M7513","978) 688-0623","Circle K","42.729961","-71.210342","Thursday 6:00 AM to 11:00 PM Friday 6:00 AM to 11:00 PM Saturday 7:00 AM to 11:00 PM Sunday 8:00 AM to 10:00 PM Monday 6:00 AM to 11:00 PM Tuesday 6:00 AM to 11:00 PM Wednesday 6:00 AM to 11:00 PM","https://www.circlek.com/store-locator/US/methuen/181-pelham-st/M7513"
"https://www.circlek.com","HILLSBORO","295 W MAIN ST","HILLSBORO","NH","03244-5234","US","M7230","603) 464-4612","Circle K","43.111985","-71.918622","Thursday Open 24h Friday Open 24h Saturday Open 24h Sunday Open 24h Monday Open 24h Tuesday Open 24h Wednesday Open 24h","https://www.circlek.com/store-locator/US/hillsboro/295-w-main-st/M7230"
"https://www.circlek.com","POLAND","12200 STATE RTE 8","POLAND","NY","13431","US","2654014","315-826-7222","Circle K","43.230255","-75.081029","Thursday 6:00 AM to 10:00 PM Friday 6:00 AM to 10:00 PM Saturday 6:00 AM to 10:00 PM Sunday 6:00 AM to 10:00 PM Monday 6:00 AM to 10:00 PM Tuesday 6:00 AM to 10:00 PM Wednesday 6:00 AM to 10:00 PM","https://www.circlek.com/store-locator/US/poland/12200-state-rte-8/2654014"
"https://www.circlek.com","WESTMORELAND","7296 W MAIN ST","WESTMORELAND","NY","13490","US","M7601","315) 853-3431","Circle K","43.11552","-75.40415","Thursday Open 24h Friday Open 24h Saturday Open 24h Sunday Open 24h Monday Open 24h Tuesday Open 24h Wednesday Open 24h","https://www.circlek.com/store-locator/US/westmoreland/7296-w-main-st/M7601"
"https://www.circlek.com","VERNON","5254 W SENECA ST","VERNON","NY","13476","US","M7613","315) 829-2410","Circle K","43.07901","-75.53965","Thursday Open 24h Friday Open 24h Saturday Open 24h Sunday Open 24h Monday Open 24h Tuesday Open 24h Wednesday Open 24h","https://www.circlek.com/store-locator/US/vernon/5254-w-seneca-st/M7613"
"https://www.circlek.com","SALEM","238 NORTH BROADWAY","SALEM","NH","03079-2131","US","M7238","603) 898-0234","Circle K","42.79135","-71.235662","Thursday Open 24h Friday Open 24h Saturday Open 24h Sunday Open 24h Monday Open 24h Tuesday Open 24h Wednesday Open 24h","https://www.circlek.com/store-locator/US/salem/238-north-broadway/M7238"
"https://www.circlek.com","BEDFORD","4 TECHNOLOGY DR","BEDFORD","NH","03110-6908","US","M7259","603) 627-5991","Circle K","42.929061","-71.458646","Thursday 5:00 AM to 10:00 PM Friday 5:00 AM to 10:00 PM Saturday 5:00 AM to 10:00 PM Sunday 6:00 AM to 10:00 PM Monday 5:00 AM to 10:00 PM Tuesday 5:00 AM to 10:00 PM Wednesday 5:00 AM to 10:00 PM","https://www.circlek.com/store-locator/US/bedford/4-technology-dr/M7259"
"https://www.circlek.com","BEDFORD","8 WHITE AVE","BEDFORD","NH","03110-5853","US","M7263","603) 623-8250","Circle K","42.974847","-71.513835","Thursday 5:00 AM to 10:00 PM Friday 5:00 AM to 10:00 PM Saturday 5:00 AM to 10:00 PM Sunday 5:00 AM to 10:00 PM Monday 5:00 AM to 10:00 PM Tuesday 5:00 AM to 10:00 PM Wednesday 5:00 AM to 10:00 PM","https://www.circlek.com/store-locator/US/bedford/8-white-ave/M7263"
"https://www.circlek.com","MANCHESTER","1019 2ND ST","MANCHESTER","NH","03102","US","2656127","603) 644-3300","Circle K","42.96663","-71.481427","Thursday Open 24h Friday Open 24h Saturday Open 24h Sunday Open 24h Monday Open 24h Tuesday Open 24h Wednesday Open 24h","https://www.circlek.com/store-locator/US/manchester/1019-2nd-st/2656127"
"https://www.circlek.com","GOFFSTOWN","277 MAST RD","GOFFSTOWN","NH","03045-2417","US","M7233","603) 497-5860","Circle K","43.010596","-71.544396","Thursday 5:00 AM to 11:00 PM Friday 5:00 AM to 11:00 PM Saturday 5:00 AM to 11:00 PM Sunday 5:00 AM to 11:00 PM Monday 5:00 AM to 11:00 PM Tuesday 5:00 AM to 11:00 PM Wednesday 5:00 AM to 11:00 PM","https://www.circlek.com/store-locator/US/goffstown/277-mast-rd/M7233"
"https://www.circlek.com","BARNEVELD","8035 NYS RTE 12","BARNEVELD","NY","13304","US","2654015","315-896-2139","Circle K","43.251958","-75.185311","Thursday 4:30 AM to 11:00 PM Friday 4:30 AM to 11:00 PM Saturday 5:00 AM to 11:00 PM Sunday 5:00 AM to 11:00 PM Monday 4:30 AM to 11:00 PM Tuesday 4:30 AM to 11:00 PM Wednesday 4:30 AM to 11:00 PM","https://www.circlek.com/store-locator/US/barneveld/8035-nys-rte-12/2654015"
"https://www.circlek.com","HAVERHILL","32 KNIPE RD","HAVERHILL","MA","01835","US","M7503","978) 469-9750","Circle K","42.745789","-71.10957","Thursday Open 24h Friday Open 24h Saturday Open 24h Sunday Open 24h Monday Open 24h Tuesday Open 24h Wednesday Open 24h","https://www.circlek.com/store-locator/US/haverhill/32-knipe-rd/M7503"
"https://www.circlek.com","TULLY","5755 ROUTE 80","TULLY","NY","13159","US","M7612","315) 696-8238","Circle K","42.79954","-76.12136","Thursday Open 24h Friday Open 24h Saturday Open 24h Sunday Open 24h Monday Open 24h Tuesday Open 24h Wednesday Open 24h","https://www.circlek.com/store-locator/US/tully/5755-route-80/M7612"
"https://www.circlek.com","DERRY","55 BYPASS 28","DERRY","NH","03038-2980","US","M7234","603) 432-6664","Circle K","42.901802","-71.319248","Thursday Open 24h Friday Open 24h Saturday Open 24h Sunday Open 24h Monday Open 24h Tuesday Open 24h Wednesday Open 24h","https://www.circlek.com/store-locator/US/derry/55-bypass-28/M7234"
"https://www.circlek.com","BROOKLANDVILLE","2343 W JOPPA RD","BROOKLANDVILLE","MD","21022","US","2655624","410-296-1072","Circle K","39.419147","-76.669198","Thursday 5:00 AM to 11:00 PM Friday 5:00 AM to 11:00 PM Saturday 5:00 AM to 11:00 PM Sunday 5:00 AM to 11:00 PM Monday 5:00 AM to 11:00 PM Tuesday 5:00 AM to 11:00 PM Wednesday 5:00 AM to 11:00 PM","https://www.circlek.com/store-locator/US/brooklandville/2343-w-joppa-rd/2655624"
"https://www.circlek.com","ONEIDA","4835 STATE ROUTE 365","ONEIDA","NY","13421","US","M7617","315) 361-5690","Circle K","43.096036","-75.623199","Thursday Open 24h Friday Open 24h Saturday Open 24h Sunday Open 24h Monday Open 24h Tuesday Open 24h Wednesday Open 24h","https://www.circlek.com/store-locator/US/oneida/4835-state-route-365/M7617"
"https://www.circlek.com","BALTIMORE","4434 FALLS RD","BALTIMORE","MD","21211","US","2654053","410) 366-6828","Circle K","39.342912","-76.640577","Thursday Open 24h Friday Open 24h Saturday Open 24h Sunday Open 24h Monday Open 24h Tuesday Open 24h Wednesday Open 24h","https://www.circlek.com/store-locator/US/baltimore/4434-falls-rd/2654053"
"https://www.circlek.com","HAMPSTEAD","235 STAGE RD","HAMPSTEAD","NH","03841","US","M7266","978) 361-0830","Circle K","42.8602","-71.1738","Thursday 5:00 AM to 11:00 PM Friday 5:00 AM to 11:00 PM Saturday 5:00 AM to 11:00 PM Sunday 5:00 AM to 11:00 PM Monday 5:00 AM to 11:00 PM Tuesday 5:00 AM to 11:00 PM Wednesday 5:00 AM to 11:00 PM","https://www.circlek.com/store-locator/US/hampstead/235-stage-rd/M7266"
"https://www.circlek.com","HOOKSETT","28 WEST RIVER RD","HOOKSETT","NH","03106-2624","US","M7258","603) 665-9316","Circle K","43.040403","-71.469917","Thursday 5:00 AM to 12:00 AM Friday 5:00 AM to 12:00 AM Saturday 5:00 AM to 12:00 AM Sunday 5:00 AM to 12:00 AM Monday 5:00 AM to 12:00 AM Tuesday 5:00 AM to 12:00 AM Wednesday 5:00 AM to 12:00 AM","https://www.circlek.com/store-locator/US/hooksett/28-west-river-rd/M7258"
"https://www.circlek.com","HOOKSETT","6 BELL AVE","HOOKSETT","NH","03106-1036","US","M7262","603) 222-2276","Circle K","43.029062","-71.440579","Thursday Open 24h Friday Open 24h Saturday Open 24h Sunday Open 24h Monday Open 24h Tuesday Open 24h Wednesday Open 24h","https://www.circlek.com/store-locator/US/hooksett/6-bell-ave/M7262"
"https://www.circlek.com","HOOKSETT","86 W RIVER RD","HOOKSETT","NH","03106-2615","US","M7207","603) 627-3270","Circle K","43.047613","-71.461245","Thursday Open 24h Friday Open 24h Saturday Open 24h Sunday Open 24h Monday Open 24h Tuesday Open 24h Wednesday Open 24h","https://www.circlek.com/store-locator/US/hooksett/86-w-river-rd/M7207"
"https://www.circlek.com","MANLIUS","8220 CAZENOVIA RD","MANLIUS","NY","13104","US","M7616","315) 682-2633","Circle K","42.99177","-75.95811","Thursday Open 24h Friday Open 24h Saturday Open 24h Sunday Open 24h Monday Open 24h Tuesday Open 24h Wednesday Open 24h","https://www.circlek.com/store-locator/US/manlius/8220-cazenovia-rd/M7616"
"https://www.circlek.com","BALTIMORE","1800 RUSSELL ST","BALTIMORE","MD","21230","US","2656033","410) 685-5167","Circle K","39.272171","-76.630799","Thursday Open 24h Friday Open 24h Saturday Open 24h Sunday Open 24h Monday Open 24h Tuesday Open 24h Wednesday Open 24h","https://www.circlek.com/store-locator/US/baltimore/1800-russell-st/2656033"
"https://www.circlek.com","NEWPORT","27 S MAIN ST","NEWPORT","NH","03773-1534","US","M7204","603) 863-2757","Circle K","43.361587","-72.171167","Thursday Open 24h Friday Open 24h Saturday Open 24h Sunday Open 24h Monday Open 24h Tuesday Open 24h Wednesday Open 24h","https://www.circlek.com/store-locator/US/newport/27-s-main-st/M7204"
"https://www.circlek.com","HALETHORPE","3107 HAMMONDS FERRY RD","HALETHORPE","MD","21227","US","2655816","410-242-2600","Circle K","39.237259","-76.662421","Thursday Open 24h Friday Open 24h Saturday Open 24h Sunday Open 24h Monday Open 24h Tuesday Open 24h Wednesday Open 24h","https://www.circlek.com/store-locator/US/halethorpe/3107-hammonds-ferry-rd/2655816"
"https://www.circlek.com","ROME","8709 NYS ROUTE 26, TURIN RD","ROME","NY","13440","US","M7605","315) 337-2390","Circle K","43.283185","-75.471367","Thursday Open 24h Friday Open 24h Saturday Open 24h Sunday Open 24h Monday Open 24h Tuesday Open 24h Wednesday Open 24h","https://www.circlek.com/store-locator/US/rome/8709-nys-route-26-turin-rd/M7605"
"https://www.circlek.com","FAYETTEVILLE","535 E GENESEE ST","FAYETTEVILLE","NY","13066","US","M7630","315) 637-4773","Circle K","43.03087","-76.00095","Thursday Open 24h Friday Open 24h Saturday Open 24h Sunday Open 24h Monday Open 24h Tuesday Open 24h Wednesday Open 24h","https://www.circlek.com/store-locator/US/fayetteville/535-e-genesee-st/M7630"
"https://www.circlek.com","WARNER","5 NICHOLS MILL LN","WARNER","NH","03278","US","M7239","603) 456-3017","Circle K","43.288611","-71.831599","Thursday Open 24h Friday Open 24h Saturday Open 24h Sunday Open 24h Monday Open 24h Tuesday Open 24h Wednesday Open 24h","https://www.circlek.com/store-locator/US/warner/5-nichols-mill-ln/M7239"
"https://www.circlek.com","ALLENSTOWN","24 ALLENSTOWN RD","ALLENSTOWN","NH","03275-2201","US","M7260","603) 485-8060","Circle K","43.121398","-71.441793","Thursday Open 24h Friday Open 24h Saturday Open 24h Sunday Open 24h Monday Open 24h Tuesday Open 24h Wednesday Open 24h","https://www.circlek.com/store-locator/US/allenstown/24-allenstown-rd/M7260"
"https://www.circlek.com","BOW","500 ROUTE 3A","BOW","NH","03304-3100","US","M7214","603) 228-6175","Circle K","43.176045","-71.529706","Thursday Open 24h Friday Open 24h Saturday Open 24h Sunday Open 24h Monday Open 24h Tuesday Open 24h Wednesday Open 24h","https://www.circlek.com/store-locator/US/bow/500-route-3a/M7214"
"https://www.circlek.com","BOW","500 ROUTE 3A","BOW","NH","03304-3100","US","M7252","603) 228-1406","Circle K","43.176045","-71.529706","Thursday 5:00 AM to 11:00 PM Friday 5:00 AM to 11:00 PM Saturday 7:00 AM to 11:00 PM Sunday 7:00 AM to 11:00 PM Monday 5:00 AM to 11:00 PM Tuesday 5:00 AM to 11:00 PM Wednesday 5:00 AM to 11:00 PM","https://www.circlek.com/store-locator/US/bow/500-route-3a/M7252"
"https://www.circlek.com","SYLVAN BEACH","1510 MAIN ST","SYLVAN BEACH","NY","13157","US","M7621","315) 416-5642","Circle K","43.20366","-75.7275","Thursday Open 24h Friday Open 24h Saturday Open 24h Sunday Open 24h Monday Open 24h Tuesday Open 24h Wednesday Open 24h","https://www.circlek.com/store-locator/US/sylvan-beach/1510-main-st/M7621"
"https://www.circlek.com","CONCORD","190 PLEASANT ST","CONCORD","NH","03301-2946","US","M7201","603) 228-3388","Circle K","43.199161","-71.551734","Thursday 5:00 AM to 10:00 PM Friday 5:00 AM to 10:00 PM Saturday 6:00 AM to 10:00 PM Sunday 6:00 AM to 10:00 PM Monday 5:00 AM to 10:00 PM Tuesday 5:00 AM to 10:00 PM Wednesday 5:00 AM to 10:00 PM","https://www.circlek.com/store-locator/US/concord/190-pleasant-st/M7201"
"https://www.circlek.com","NEWBURYPORT","76 STOREY AVE","NEWBURYPORT","MA","01950","US","2656114","978) 465-9159","Circle K","42.819207","-70.911887","Thursday Open 24h Friday Open 24h Saturday Open 24h Sunday Open 24h Monday Open 24h Tuesday Open 24h Wednesday Open 24h","https://www.circlek.com/store-locator/US/newburyport/76-storey-ave/2656114"
"https://www.circlek.com","RUTLAND","86 WOODSTOCK AVE","RUTLAND","VT","05701-3534","US","M7403","802) 775-1459","Circle K","43.613404","-72.965067","Thursday 5:00 AM to 11:00 PM Friday 5:00 AM to 11:00 PM Saturday 5:00 AM to 11:00 PM Sunday 5:00 AM to 11:00 PM Monday 5:00 AM to 11:00 PM Tuesday 5:00 AM to 11:00 PM Wednesday 5:00 AM to 11:00 PM","https://www.circlek.com/store-locator/US/rutland/86-woodstock-ave/M7403"
"https://www.circlek.com","AMESBURY","24 ROCKY HILL RD","AMESBURY","MA","01913-4109","US","M7501","978) 388-7774","Circle K","42.846031","-70.915573","Thursday 5:00 AM to 10:00 PM Friday 5:00 AM to 10:00 PM Saturday 5:00 AM to 10:00 PM Sunday 6:00 AM to 9:00 PM Monday 5:00 AM to 10:00 PM Tuesday 5:00 AM to 10:00 PM Wednesday 5:00 AM to 10:00 PM","https://www.circlek.com/store-locator/US/amesbury/24-rocky-hill-rd/M7501"
"https://www.circlek.com","RAYMOND","51 STATE ROUTE 27","RAYMOND","NH","03077-1224","US","M7212","603) 895-6425","Circle K","43.04277","-71.174039","Thursday Open 24h Friday Open 24h Saturday Open 24h Sunday Open 24h Monday Open 24h Tuesday Open 24h Wednesday Open 24h","https://www.circlek.com/store-locator/US/raymond/51-state-route-27/M7212"
"https://www.circlek.com","CONCORD","114 FISHERVILLE RD","CONCORD","NH","03303-2071","US","M7202","603) 226-0260","Circle K","43.259712","-71.580429","Thursday Open 24h Friday Open 24h Saturday Open 24h Sunday Open 24h Monday Open 24h Tuesday Open 24h Wednesday Open 24h","https://www.circlek.com/store-locator/US/concord/114-fisherville-rd/M7202"
"https://www.circlek.com","CONCORD","231 LOUDEN RD","CONCORD","NH","03301-8028","US","M7215","603) 224-1904","Circle K","43.221938","-71.494636","Thursday 5:00 AM to 11:00 PM Friday 5:00 AM to 11:00 PM Saturday 5:00 AM to 11:00 PM Sunday 5:00 AM to 11:00 PM Monday 5:00 AM to 11:00 PM Tuesday 5:00 AM to 11:00 PM Wednesday 5:00 AM to 11:00 PM","https://www.circlek.com/store-locator/US/concord/231-louden-rd/M7215"
"https://www.circlek.com","CONCORD","231 LOUDEN RD","CONCORD","NH","03301-8028","US","M7253","603) 228-6828","Circle K","43.221938","-71.494636","Thursday 6:00 AM to 9:00 PM Friday 6:00 AM to 9:00 PM Saturday 8:00 AM to 9:00 PM Sunday 9:00 AM to 8:00 PM Monday 6:00 AM to 9:00 PM Tuesday 6:00 AM to 9:00 PM Wednesday 6:00 AM to 9:00 PM","https://www.circlek.com/store-locator/US/concord/231-louden-rd/M7253"
"https://www.circlek.com","ELLICOTT CITY","4398 MONTGOMERY RD","ELLICOTT CITY","MD","21043","US","2655837","443-325-5149","Circle K","39.252146","-76.816488","Thursday 5:00 AM to 11:00 PM Friday 5:00 AM to 11:00 PM Saturday 5:00 AM to 11:00 PM Sunday 5:00 AM to 11:00 PM Monday 5:00 AM to 11:00 PM Tuesday 5:00 AM to 11:00 PM Wednesday 5:00 AM to 11:00 PM","https://www.circlek.com/store-locator/US/ellicott-city/4398-montgomery-rd/2655837"
