"locator_domain","location_name","street_address","city","state","zip","country_code","store_number","phone","location_type","latitude","longitude","hours_of_operation","page_url"
"https://www.pizza73.com/Pizza73/","<MISSING>","6842 GAETZ AVE","RED DEER","ALBERTA","T4N4E3","CA","20","403-346-7373","<MISSING>","52.293","-113.814","MON , TUE , WED , THU 11:00 AM -12:05 AM SUN 11:00 AM -10:00 PM FRI , SAT 11:00 AM -01:00 AM ","https://www.pizza73.com/Pizza73/proxy.php?lng=-113.80430181056657&lat=52.28932057693429"
"https://www.pizza73.com/Pizza73/","<MISSING>","4912 43 ST","RED DEER","ALBERTA","T4N5K6","CA","21","403-346-7373","<MISSING>","52.262","-113.812","MON , TUE , WED , THU 11:00 AM -12:05 AM SUN 11:00 AM -10:00 PM FRI , SAT 11:00 AM -01:00 AM ","https://www.pizza73.com/Pizza73/proxy.php?lng=-113.80430181056657&lat=52.28932057693429"
"https://www.pizza73.com/Pizza73/","<MISSING>","4924 33 STREET","SYLVAN LAKE","ALBERTA","T0M1Z0","CA","86","403-346-7373","<MISSING>","52.319117","-114.074386","MON , TUE , WED , THU 11:00 AM -11:00 PM SUN 11:00 AM -10:00 PM FRI , SAT 11:00 AM -12:05 AM ","https://www.pizza73.com/Pizza73/proxy.php?lng=-113.80430181056657&lat=52.28932057693429"
"https://www.pizza73.com/Pizza73/","<MISSING>","510 CIRCLE DR E","SASKATOON","SASKATCHEWAN","S7K7C7","CA","77","306-652-7373","<MISSING>","52.158","-106.662","SUN , MON , TUE , WED , THU 11:00 AM -10:00 PM FRI , SAT 11:00 AM -12:05 AM ","https://www.pizza73.com/Pizza73/proxy.php?lng=-106.7179102506739&lat=52.15202074951877"
"https://www.pizza73.com/Pizza73/","<MISSING>","2311 8 ST E","SASKATOON","SASKATCHEWAN","S7H0V4","CA","41","306-652-7373","<MISSING>","52.115","-106.62","SUN , MON , TUE , WED , THU 11:00 AM -10:00 PM FRI , SAT 11:00 AM -12:05 AM ","https://www.pizza73.com/Pizza73/proxy.php?lng=-106.7179102506739&lat=52.15202074951877"
"https://www.pizza73.com/Pizza73/","<MISSING>","410 LUDLOW ST","SASKATOON","SASKATCHEWAN","S7S1M7","CA","43","306-652-7373","<MISSING>","52.148","-106.572","MON 11:00 AM -10:00 PM SUN , TUE , WED , THU 11:00 AM -12:05 AM FRI , SAT 11:00 AM -03:00 AM ","https://www.pizza73.com/Pizza73/proxy.php?lng=-106.7179102506739&lat=52.15202074951877"
"https://www.pizza73.com/Pizza73/","<MISSING>","5103 50 AVE","LEDUC","ALBERTA","T9E0B9","CA","60","780-473-7373","<MISSING>","53.265","-113.555","MON , TUE , WED , THU 11:00 AM -11:00 PM SUN 11:00 AM -10:00 PM FRI , SAT 11:00 AM -12:05 AM ","https://www.pizza73.com/Pizza73/proxy.php?lng=-113.39723504910974&lat=53.30868331484586"
"https://www.pizza73.com/Pizza73/","<MISSING>","1109 SUMMERSIDE DR SW","EDMONTON","ALBERTA","T6X0H5","CA","48","780-473-7373","<MISSING>","53.424","-113.463","MON , TUE , WED , THU 11:00 AM -12:05 AM SUN 11:00 AM -10:00 PM FRI , SAT 11:00 AM -01:00 AM ","https://www.pizza73.com/Pizza73/proxy.php?lng=-113.39723504910974&lat=53.30868331484586"
"https://www.pizza73.com/Pizza73/","<MISSING>","10855 23 AVE NW","EDMONTON","ALBERTA","T6J7B5","CA","1","780-473-7373","<MISSING>","53.453823","-113.50343","MON , TUE , WED , THU 11:00 AM -12:05 AM SUN 11:00 AM -10:00 PM FRI , SAT 11:00 AM -01:00 AM ","https://www.pizza73.com/Pizza73/proxy.php?lng=-113.39723504910974&lat=53.30868331484586"
"https://www.pizza73.com/Pizza73/","<MISSING>","16236 ELLERSLIE ROAD SW","EDMONTON","ALBERTA","T6W1A4","CA","84","780-473-7373","<MISSING>","53.424891","-113.596872","MON , TUE , WED , THU 11:00 AM -12:05 AM SUN 11:00 AM -10:00 PM FRI , SAT 11:00 AM -01:00 AM ","https://www.pizza73.com/Pizza73/proxy.php?lng=-113.39723504910974&lat=53.30868331484586"
"https://www.pizza73.com/Pizza73/","<MISSING>","3426 43 AVE NW","EDMONTON","ALBERTA","T6L5W9","CA","35","780-473-7373","<MISSING>","53.481105","-113.394749","MON , TUE , WED , THU 11:00 AM -12:05 AM SUN 11:00 AM -10:00 PM FRI , SAT 11:00 AM -01:00 AM ","https://www.pizza73.com/Pizza73/proxy.php?lng=-113.39723504910974&lat=53.30868331484586"
"https://www.pizza73.com/Pizza73/","<MISSING>","4355 50 ST NW","EDMONTON","ALBERTA","T6L7E8","CA","52","780-473-7373","<MISSING>","53.482","-113.416","MON , TUE , WED , THU 11:00 AM -12:05 AM SUN 11:00 AM -10:00 PM FRI , SAT 11:00 AM -01:00 AM ","https://www.pizza73.com/Pizza73/proxy.php?lng=-113.39723504910974&lat=53.30868331484586"
"https://www.pizza73.com/Pizza73/","<MISSING>","5433 GATEWAY BLVD NW","EDMONTON","ALBERTA","T6H2H3","CA","56","780-473-7373","<MISSING>","53.492","-113.493","MON , TUE , WED , THU 11:00 AM -12:05 AM SUN 11:00 AM -10:00 PM FRI , SAT 11:00 AM -01:00 AM ","https://www.pizza73.com/Pizza73/proxy.php?lng=-113.39723504910974&lat=53.30868331484586"
"https://www.pizza73.com/Pizza73/","<MISSING>","8106 82 AVE NW","EDMONTON","ALBERTA","T6C0Y4","CA","67","780-473-7373","<MISSING>","53.518","-113.452","MON , TUE , WED , THU 11:00 AM -12:05 AM SUN 11:00 AM -10:00 PM FRI , SAT 11:00 AM -01:00 AM ","https://www.pizza73.com/Pizza73/proxy.php?lng=-113.39723504910974&lat=53.30868331484586"
"https://www.pizza73.com/Pizza73/","<MISSING>","10349 78 AVE NW","EDMONTON","ALBERTA","T6E6T3","CA","5","780-473-7373","<MISSING>","53.514","-113.497","MON , TUE , WED , THU 11:00 AM -12:05 AM SUN 11:00 AM -10:00 PM FRI , SAT 11:00 AM -01:00 AM ","https://www.pizza73.com/Pizza73/proxy.php?lng=-113.39723504910974&lat=53.30868331484586"
"https://www.pizza73.com/Pizza73/","<MISSING>","664 WYE RD","SHERWOOD PARK","ALBERTA","T8A6G3","CA","50","780-473-7373","<MISSING>","53.512","-113.273","MON , TUE , WED 04:00 PM -12:05 AM SUN 11:00 AM -10:00 PM THU 11:00 AM -12:05 AM FRI , SAT 11:00 AM -01:00 AM ","https://www.pizza73.com/Pizza73/proxy.php?lng=-113.39723504910974&lat=53.30868331484586"
"https://www.pizza73.com/Pizza73/","<MISSING>","1080 STRATHCONA DR","SHERWOOD PARK","ALBERTA","T8A0Z7","CA","9","780-473-7373","<MISSING>","53.525","-113.322","MON , TUE , WED 04:00 PM -12:05 AM SUN 11:00 AM -10:00 PM THU 11:00 AM -12:05 AM FRI , SAT 11:00 AM -01:00 AM ","https://www.pizza73.com/Pizza73/proxy.php?lng=-113.39723504910974&lat=53.30868331484586"
"https://www.pizza73.com/Pizza73/","<MISSING>","200 Ranch Market","STRATHMORE","ALBERTA","T1P0A8","CA","94","780-473-7373","<MISSING>","51.0397358","-113.3843164","MON , TUE , WED , THU 11:00 AM -12:05 AM SUN 11:00 AM -10:00 PM FRI , SAT 11:00 AM -01:00 AM ","https://www.pizza73.com/Pizza73/proxy.php?lng=-113.34195723109748&lat=51.057215626090255"
"https://www.pizza73.com/Pizza73/","<MISSING>","MISSION HILL (392 ST. ALBERT TR)","ST ALBERT","ALBERTA","T8N5J9","CA","37","780-473-7373","<MISSING>","53.644","-113.626","MON , TUE , WED 04:00 PM -10:00 PM SUN 11:00 AM -10:00 PM THU 11:00 AM -12:05 AM FRI , SAT 11:00 AM -01:00 AM ","https://www.pizza73.com/Pizza73/proxy.php?lng=-113.78789456984009&lat=53.803271799555446"
"https://www.pizza73.com/Pizza73/","<MISSING>","3512 TUDOR GLEN MARKET","ST ALBERT","ALBERTA","T8N3V3","CA","7","780-473-7373","<MISSING>","53.617","-113.62","MON , TUE , WED 04:00 PM -10:00 PM SUN 11:00 AM -10:00 PM THU 11:00 AM -12:05 AM FRI , SAT 11:00 AM -01:00 AM ","https://www.pizza73.com/Pizza73/proxy.php?lng=-113.78789456984009&lat=53.803271799555446"
"https://www.pizza73.com/Pizza73/","<MISSING>","8888 COUNTRY HILLS BLVD NW","CALGARY","ALBERTA","T3G5T4","CA","74","403-273-7373","<MISSING>","51.15","-114.214","MON , TUE , WED , THU 11:00 AM -12:05 AM SUN 11:00 AM -10:00 PM FRI , SAT 11:00 AM -01:00 AM ","https://www.pizza73.com/Pizza73/proxy.php?lng=-114.53944140649875&lat=51.068110145651076"
"https://www.pizza73.com/Pizza73/","<MISSING>","250 CROWFOOT CR NW","CALGARY","ALBERTA","T3G3N5","CA","30","403-273-7373","<MISSING>","51.128","-114.199","MON , TUE , WED , THU 11:00 AM -12:05 AM SUN 11:00 AM -10:00 PM FRI , SAT 11:00 AM -01:00 AM ","https://www.pizza73.com/Pizza73/proxy.php?lng=-114.53944140649875&lat=51.068110145651076"
"https://www.pizza73.com/Pizza73/","<MISSING>","3300 2ND AVENUE WEST","PRINCE ALBERT","SASKATCHEWAN","S6V5E8","CA","83","306-764-7373","<MISSING>","53.1832069","-105.7594204","SUN , MON , TUE , WED , THU 11:00 AM -10:00 PM FRI , SAT 11:00 AM -12:05 AM ","https://www.pizza73.com/Pizza73/proxy.php?lng=-105.70293281886616&lat=53.188789839255875"
"https://www.pizza73.com/Pizza73/","<MISSING>","510 CIRCLE DR E","SASKATOON","SASKATCHEWAN","S7K7C7","CA","77","306-652-7373","<MISSING>","52.158","-106.662","SUN , MON , TUE , WED , THU 11:00 AM -10:00 PM FRI , SAT 11:00 AM -12:05 AM ","https://www.pizza73.com/Pizza73/proxy.php?lng=-106.87380057344042&lat=52.19880775545847"
"https://www.pizza73.com/Pizza73/","<MISSING>","2311 8 ST E","SASKATOON","SASKATCHEWAN","S7H0V4","CA","41","306-652-7373","<MISSING>","52.115","-106.62","SUN , MON , TUE , WED , THU 11:00 AM -10:00 PM FRI , SAT 11:00 AM -12:05 AM ","https://www.pizza73.com/Pizza73/proxy.php?lng=-106.87380057344042&lat=52.19880775545847"
"https://www.pizza73.com/Pizza73/","<MISSING>","410 LUDLOW ST","SASKATOON","SASKATCHEWAN","S7S1M7","CA","43","306-652-7373","<MISSING>","52.148","-106.572","MON 11:00 AM -10:00 PM SUN , TUE , WED , THU 11:00 AM -12:05 AM FRI , SAT 11:00 AM -03:00 AM ","https://www.pizza73.com/Pizza73/proxy.php?lng=-106.87380057344042&lat=52.19880775545847"
"https://www.pizza73.com/Pizza73/","<MISSING>","7407 44 ST","LLOYDMINSTER","ALBERTA","T9V2X1","CA","32","780-874-0073","<MISSING>","53.278","-110.052736","MON , TUE , WED , THU 11:00 AM -12:05 AM SUN 11:00 AM -10:00 PM FRI , SAT 11:00 AM -01:00 AM ","https://www.pizza73.com/Pizza73/proxy.php?lng=-110.16413440093797&lat=53.29299709726974"
"https://www.pizza73.com/Pizza73/","<MISSING>","770 CENTRAL ST E","PRINCE GEORGE","BRITISH COLUMBIA","V2M3B7","CA","27","250-614-2173","<MISSING>","53.918","-122.781","MON , TUE , WED , THU 11:00 AM -11:00 PM SUN 11:00 AM -09:00 PM FRI , SAT 11:00 AM -12:05 AM ","https://www.pizza73.com/Pizza73/proxy.php?lng=-122.74931854469945&lat=53.90039988992842"
"https://www.pizza73.com/Pizza73/","<MISSING>","6815 KATERI DRIVE","GRANDE PRAIRIE","ALBERTA","T8W0H1","CA","66","780-831-7373","<MISSING>","55.145","-118.802486","MON , TUE , WED , THU 11:00 AM -12:05 AM SUN 11:00 AM -10:00 PM FRI , SAT 11:00 AM -01:00 AM ","https://www.pizza73.com/Pizza73/proxy.php?lng=-118.76505387905698&lat=55.13035641236833"
"https://www.pizza73.com/Pizza73/","<MISSING>","10012 99 AVE","GRANDE PRAIRIE","ALBERTA","T8V0R9","CA","24","780-831-7373","<MISSING>","55.17","-118.797","MON , TUE , WED , THU 11:00 AM -12:05 AM SUN 11:00 AM -10:00 PM FRI , SAT 11:00 AM -01:00 AM ","https://www.pizza73.com/Pizza73/proxy.php?lng=-118.76505387905698&lat=55.13035641236833"
"https://www.pizza73.com/Pizza73/","<MISSING>","538 MAYOR MAGRATH DR S","LETHBRIDGE","ALBERTA","T1J3M2","CA","23","403-381-7373","<MISSING>","49.692","-112.809","MON , TUE , WED , THU 11:00 AM -12:05 AM SUN 11:00 AM -10:00 PM FRI , SAT 11:00 AM -01:00 AM ","https://www.pizza73.com/Pizza73/proxy.php?lng=-112.64739963232518&lat=49.653902247898856"
"https://www.pizza73.com/Pizza73/","<MISSING>","417 21A ST N","LETHBRIDGE","ALBERTA","T1H6L6","CA","68","403-381-7373","<MISSING>","49.705","-112.81","MON , TUE , WED , THU 11:00 AM -12:05 AM SUN 11:00 AM -10:00 PM FRI , SAT 11:00 AM -01:00 AM ","https://www.pizza73.com/Pizza73/proxy.php?lng=-112.64739963232518&lat=49.653902247898856"
"https://www.pizza73.com/Pizza73/","<MISSING>","1602 20TH STREET","DIDSBURY","ALBERTA","T0M0W0","CA","80","403-518-7373","<MISSING>","51.656884","-114.137623","SUN , MON , TUE , WED , THU , FRI , SAT 11:00 AM -08:00 PM ","https://www.pizza73.com/Pizza73/proxy.php?lng=-114.0819118030022&lat=51.76612064465342"
"https://www.pizza73.com/Pizza73/","<MISSING>","9317 96 ST","FORT ST JOHN","BRITISH COLUMBIA","V1J6V5","CA","75","250-785-7373","<MISSING>","56.240347","-120.840448","MON , TUE , WED , THU 11:00 AM -11:00 PM SUN 11:00 AM -09:00 PM FRI , SAT 11:00 AM -12:05 AM ","https://www.pizza73.com/Pizza73/proxy.php?lng=-120.72817050957889&lat=56.268710371855306"
"https://www.pizza73.com/Pizza73/","<MISSING>","34 SOUTHRIDGE DR","OKOTOKS","ALBERTA","T1S2G5","CA","71","403-938-7373","<MISSING>","50.716","-113.981","SUN , MON , TUE , WED , THU 11:00 AM -10:00 PM FRI , SAT 11:00 AM -11:00 PM ","https://www.pizza73.com/Pizza73/proxy.php?lng=-113.98831930421478&lat=50.58291854083561"
"https://www.pizza73.com/Pizza73/","<MISSING>","4211 4TH AVENUE","WHITEHORSE","YUKON","Y1A1K2","CA","85","867-456-7373","<MISSING>","60.726676","-135.063434","MON , TUE , WED , THU , FRI , SAT 11:00 AM -12:05 AM SUN 11:00 AM -10:00 PM ","https://www.pizza73.com/Pizza73/proxy.php?lng=-135.11567942288488&lat=60.63501046443869"
"https://www.pizza73.com/Pizza73/","<MISSING>","289  Powder Drive","FORT MCMURRAY","ALBERTA","T9K 0M5","CA","73","780-799-7373","<MISSING>","56.756768","-111.456932","MON , TUE , WED , THU 11:00 AM -12:05 AM SUN 11:00 AM -10:00 PM FRI , SAT 11:00 AM -01:00 AM ","https://www.pizza73.com/Pizza73/proxy.php?lng=-111.78532916132664&lat=56.82506823701852"
