"locator_domain","location_name","street_address","city","state","zip","country_code","store_number","phone","location_type","latitude","longitude","hours_of_operation"
"https://marmaladecafe.com/","Calabasas, CA","4783 Commons Way Suite E","Calabasas","CA","91302","US","<MISSING>","TEL : (818) 225-9092","<MISSING>","34.1532036","-118.6484331","Hours:
Mon-Thur : 7:30am – 9:00pm
Fri : 7:30am – 10:00pm
Sat : 8:00am – 10:00pm
Sun : 8:00am – 9:00pm"
"https://marmaladecafe.com/","El Segundo, CA","2014 East Park Place","El Segundo","CA","90245","US","<MISSING>","TEL : (310) 648-7200","<MISSING>","33.904034","-118.3937867","Hours:
Mon-Thurs : 7:30am – 9:00pm
Fri-Sat : 8:00am – 10:00pm
Sunday : 8:00am – 9:00pm"
"https://marmaladecafe.com/","Los Angeles, CA - Farmer's Market","6333 W. 3rd # E17","Los Angeles","Ca.","90036","US","<MISSING>","TEL : (323) 954 – 0088","<MISSING>","34.0722795","-118.3624638","Hours:
Sun-Thurs : 9:00am – 9:30pm
Fri-Sat : 9:00am – 10:30pm"
"https://marmaladecafe.com/","Malibu, CA","3894 Cross Creek Road","Malibu","CA","90265","US","<MISSING>","TEL : (310) 317-4242","<MISSING>","34.0352459","-118.6862629","Hours:
Sun-Thurs : 7:30am – 9:00pm
Fri-Sat : 7:30am – 10:00pm"
"https://marmaladecafe.com/","Sherman Oaks, CA","14910 Ventura Boulevard","Sherman Oaks","CA","91403","US","<MISSING>","TEL : (818) 905-8872","<MISSING>","34.1521099","-118.4600026","Hours:
Mon-Thurs : 7:30am – 9:00pm
Fri : 7:30am – 10:00pm
Sat : 8:00am – 10:00pm
Sun : 8:00am – 9:00pm"
"https://marmaladecafe.com/","Westlake Village, CA","140 Promenade Way Suite","Westlake Village","CA","91362","US","<MISSING>","TEL : (805) 370-1331","<MISSING>","34.1587122","-118.8235169","Hours:
Sun-Thurs : 7:30am – last seating 8:30pm
Fri-Sat : 7:30am – last seating 9:30pm"
