"locator_domain","page_url","location_name","street_address","city","state","zip","country_code","store_number","phone","location_type","latitude","longitude","hours_of_operation"
"http://www.gvgrocery.com","http://www.gvgrocery.com/locations/","GREEN VALLEY GROCERY #1","2630 Green Valley Pkwy.","Henderson","<MISSING>","89014","US","1","702/458-4234","<MISSING>","6.0695263","-115.0819564","<MISSING>"
"http://www.gvgrocery.com","http://www.gvgrocery.com/locations/","GREEN VALLEY GROCERY #10","7540 Westcliff Drive","Las Vegas","<MISSING>","89128","US","10","702/254-3828","<MISSING>","6.174327","-115.259457","<MISSING>"
"http://www.gvgrocery.com","http://www.gvgrocery.com/locations/","GREEN VALLEY GROCERY #11","4799 W. Lone Mountain","N. Las Vegas","<MISSING>","89030","US","11","702/658-3422","<MISSING>","6.2465406","-115.2068186","<MISSING>"
"http://www.gvgrocery.com","http://www.gvgrocery.com/locations/","GREEN VALLEY GROCERY #12","2599 Wigwam Parkway","Henderson","<MISSING>","89014","US","12","702/361-3536","<MISSING>","6.0338737","-115.0995351","<MISSING>"
"http://www.gvgrocery.com","http://www.gvgrocery.com/locations/","GREEN VALLEY GROCERY #13","530 E. Craig","N. Las Vegas","<MISSING>","89031","US","13","702/642-2222","<MISSING>","6.2402359","-115.1337955","<MISSING>"
"http://www.gvgrocery.com","http://www.gvgrocery.com/locations/","GREEN VALLEY GROCERY #14","5785 E. Charleston","Las Vegas","<MISSING>","89142","US","14","702/457-7688","<MISSING>","6.1588927","-115.0479687","<MISSING>"
"http://www.gvgrocery.com","http://www.gvgrocery.com/locations/","GREEN VALLEY GROCERY #15","7951 Vegas Drive","Las Vegas","<MISSING>","89128","US","15","702/254-2627","<MISSING>","6.188345","-115.2686403","<MISSING>"
"http://www.gvgrocery.com","http://www.gvgrocery.com/locations/","GREEN VALLEY GROCERY #16","7121 E. Lake Mead Blvd.","Las Vegas","<MISSING>","89156","US","16","702/438-7001","<MISSING>","6.19754","-115.0168157","<MISSING>"
"http://www.gvgrocery.com","http://www.gvgrocery.com/locations/","GREEN VALLEY GROCERY #17","4480 S. Durango","Las Vegas","<MISSING>","89117","US","17","702/251-4750","<MISSING>","6.1080052","-115.2784568","<MISSING>"
"http://www.gvgrocery.com","http://www.gvgrocery.com/locations/","GREEN VALLEY GROCERY #18","1220 E. Pebble Road","Las Vegas","<MISSING>","89123","US","18","702/617-4832","<MISSING>","6.028416","-115.135759","<MISSING>"
"http://www.gvgrocery.com","http://www.gvgrocery.com/locations/","GREEN VALLEY GROCERY #19","9692 So. Las Vegas Blvd.","Las Vegas","<MISSING>","89123","US","19","702/617-3278","<MISSING>","6.0142719","-115.1715625","<MISSING>"
"http://www.gvgrocery.com","http://www.gvgrocery.com/locations/","GREEN VALLEY GROCERY #2","3711 S. Valley View Blvd.","Las Vegas","<MISSING>","89103","US","2","702/362-2309","<MISSING>","6.122364","-115.1908149","<MISSING>"
"http://www.gvgrocery.com","http://www.gvgrocery.com/locations/","GREEN VALLEY GROCERY #20","8215 W. Flamingo","Las Vegas","<MISSING>","89117","US","20","702/362-4303","<MISSING>","6.1141275","-115.2706777","<MISSING>"
"http://www.gvgrocery.com","http://www.gvgrocery.com/locations/","GREEN VALLEY GROCERY #21","901 N. Lamb","Las Vegas","<MISSING>","89110","US","21","702/453-2900","<MISSING>","6.1812675","-115.0800052","<MISSING>"
"http://www.gvgrocery.com","http://www.gvgrocery.com/locations/","GREEN VALLEY GROCERY #22","51 E. Hwy. 372","Pahrump","<MISSING>","89048","US","22","775/751-6780","<MISSING>","6.2048078","-116.0136281","<MISSING>"
"http://www.gvgrocery.com","http://www.gvgrocery.com/locations/","GREEN VALLEY GROCERY #23","3660 W. Craig","N. Las Vegas","<MISSING>","89032","US","23","702/648-6111","<MISSING>","6.2397276","-115.1891732","<MISSING>"
"http://www.gvgrocery.com","http://www.gvgrocery.com/locations/","GREEN VALLEY GROCERY #24","290 N. Sandhill Blvd.","Mesquite","<MISSING>","89027","US","24","702/346-5289","<MISSING>","6.8074743","-114.063992","<MISSING>"
"http://www.gvgrocery.com","http://www.gvgrocery.com/locations/","GREEN VALLEY GROCERY #25","3790 Blue Diamond Road","Las Vegas","<MISSING>","89139","US","25","702/361-0042","<MISSING>","6.0415369","-115.1896107","<MISSING>"
"http://www.gvgrocery.com","http://www.gvgrocery.com/locations/","GREEN VALLEY GROCERY #26","5325 So. Fort Apache, #A","Las Vegas","<MISSING>","89148","US","26","702/895-9344","<MISSING>","6.0922437","-115.2978102","<MISSING>"
"http://www.gvgrocery.com","http://www.gvgrocery.com/locations/","GREEN VALLEY GROCERY #27","3680 W. Tropicana","Las Vegas","<MISSING>","89103","US","27","702/895-7770","<MISSING>","6.1015411","-115.1885917","<MISSING>"
"http://www.gvgrocery.com","http://www.gvgrocery.com/locations/","GREEN VALLEY GROCERY #28","300 E. Warm Springs","Las Vegas","<MISSING>","89119","US","28","702/932-4850","<MISSING>","6.0573948","-115.158577","<MISSING>"
"http://www.gvgrocery.com","http://www.gvgrocery.com/locations/","GREEN VALLEY GROCERY #29","4919 W. Sahara Avenue","Las Vegas","<MISSING>","89146","US","29","702/365-8405","<MISSING>","6.1438503","-115.2086993","<MISSING>"
"http://www.gvgrocery.com","http://www.gvgrocery.com/locations/","GREEN VALLEY GROCERY #30","6875 W. Russell Road","Las Vegas","<MISSING>","89118-1804","US","30","702/644-9219","<MISSING>","6.084454","-115.2421397","<MISSING>"
"http://www.gvgrocery.com","http://www.gvgrocery.com/locations/","GREEN VALLEY GROCERY #31","4620 E. Flamingo Rd.","Las Vegas","<MISSING>","89121-4739","US","31","702/436-0653","<MISSING>","6.1152516","-115.0733619","<MISSING>"
"http://www.gvgrocery.com","http://www.gvgrocery.com/locations/","GREEN VALLEY GROCERY #32","5780 E. Sahara Avenue","Las Vegas","<MISSING>","89142-1797","US","32","702/215-0769","<MISSING>","6.1452953","-115.0478502","<MISSING>"
"http://www.gvgrocery.com","http://www.gvgrocery.com/locations/","GREEN VALLEY GROCERY #33","5180 N. Lamb Blvd.","N. Las Vegas","<MISSING>","89031","US","33","702/632-2971","<MISSING>","6.2544105","-115.0795432","<MISSING>"
"http://www.gvgrocery.com","http://www.gvgrocery.com/locations/","GREEN VALLEY GROCERY #34","6055 W. Flamingo Road","Las Vegas","<MISSING>","89103-2385","US","34","702/215-0780","<MISSING>","6.1141279","-115.2242828","<MISSING>"
"http://www.gvgrocery.com","http://www.gvgrocery.com/locations/","GREEN VALLEY GROCERY #35","8390 N. Decatur Blvd.","N. Las Vegas","<MISSING>","89085","US","35","702/385-0810","<MISSING>","6.312981","-115.2064681","<MISSING>"
"http://www.gvgrocery.com","http://www.gvgrocery.com/locations/","GREEN VALLEY GROCERY #36","4615 E. Charleston","Las Vegas","<MISSING>","89104","US","36","702/457-5281","<MISSING>","6.1585464","-115.0742222","<MISSING>"
"http://www.gvgrocery.com","http://www.gvgrocery.com/locations/","GREEN VALLEY GROCERY #37","2400 N. Rainbow Blvd.","Las Vegas","<MISSING>","89108","US","37","702/655-8435","<MISSING>","6.2040252","-115.2418285","<MISSING>"
"http://www.gvgrocery.com","http://www.gvgrocery.com/locations/","GREEN VALLEY GROCERY #38","3711 S. Fort Apache","Las Vegas","<MISSING>","89147","US","38","702/256-9609","<MISSING>","6.1219639","-115.2977879","<MISSING>"
"http://www.gvgrocery.com","http://www.gvgrocery.com/locations/","GREEN VALLEY GROCERY #39","991 E. Desert Inn","Las Vegas","<MISSING>","89109","US","39","702/732-9991","<MISSING>","6.12953","-115.141633","<MISSING>"
"http://www.gvgrocery.com","http://www.gvgrocery.com/locations/","GREEN VALLEY GROCERY #4","4011 N. Lamb Blvd.","Las Vegas","<MISSING>","89115","US","4","702/643-6431","<MISSING>","6.2330235","-115.0806552","<MISSING>"
"http://www.gvgrocery.com","http://www.gvgrocery.com/locations/","GREEN VALLEY GROCERY #40","5820 E. Sahara Blvd.","Las Vegas","<MISSING>","89142","US","40","702/641-0134","<MISSING>","6.1449991","-115.0469466","<MISSING>"
"http://www.gvgrocery.com","http://www.gvgrocery.com/locations/","GREEN VALLEY GROCERY #41","910 W. Mesquite Blvd.","Mesquite","<MISSING>","89027","US","41","702/346-5725","<MISSING>","6.8035156","-114.0986266","<MISSING>"
"http://www.gvgrocery.com","http://www.gvgrocery.com/locations/","GREEN VALLEY GROCERY #42","5225 Camino Al Norte","N. Las Vegas","<MISSING>","89031","US","42","702/835-0147","<MISSING>","6.2549579","-115.1538522","<MISSING>"
"http://www.gvgrocery.com","http://www.gvgrocery.com/locations/","GREEN VALLEY GROCERY #43","901 W. Sunset Road","Henderson","<MISSING>","89011","US","43","702/454-9300","<MISSING>","6.0635377","-115.02906","<MISSING>"
"http://www.gvgrocery.com","http://www.gvgrocery.com/locations/","GREEN VALLEY GROCERY #44","251 N. Nellis Blvd.","Las Vegas","<MISSING>","89110","US","44","702/453-3905","<MISSING>","6.1660612","-115.0628631","<MISSING>"
"http://www.gvgrocery.com","http://www.gvgrocery.com/locations/","GREEN VALLEY GROCERY #45","10980 S. Eastern Avenue","Henderson","<MISSING>","89052","US","45","702/616-9293","<MISSING>","5.9931668","-115.1001837","<MISSING>"
"http://www.gvgrocery.com","http://www.gvgrocery.com/locations/","GREEN VALLEY GROCERY #46","234 Arroyo Grande Blvd.","Henderson","<MISSING>","89074","US","46","702/434-5900","<MISSING>","6.0425546","-115.0556973","<MISSING>"
"http://www.gvgrocery.com","http://www.gvgrocery.com/locations/","GREEN VALLEY GROCERY #47","6525 W. Sahara Avenue","Las Vegas","<MISSING>","89146-2909","US","47","702/221-2517","<MISSING>","6.1436718","-115.2342448","<MISSING>"
"http://www.gvgrocery.com","http://www.gvgrocery.com/locations/","GREEN VALLEY GROCERY #48","902 S. Boulder Hwy.","Henderson","<MISSING>","89015","US","48","702/565-1671","<MISSING>","6.0248664","-114.9635059","<MISSING>"
"http://www.gvgrocery.com","http://www.gvgrocery.com/locations/","GREEN VALLEY GROCERY #49","4308 S. Grand Canyon (Rochelle)","Las Vegas","<MISSING>","89147","US","49","702/478-6774","<MISSING>","6.111108","-115.3057515","<MISSING>"
"http://www.gvgrocery.com","http://www.gvgrocery.com/locations/","GREEN VALLEY GROCERY #5","4385 N. Nellis","Las Vegas","<MISSING>","89115","US","5","702/643-6432","<MISSING>","6.2401759","-115.062552","<MISSING>"
"http://www.gvgrocery.com","http://www.gvgrocery.com/locations/","GREEN VALLEY GROCERY #50","3815 E. Craig Road","N. Las Vegas","<MISSING>","89030","US","50","702/632-2999","<MISSING>","6.2397591","-115.0964079","<MISSING>"
"http://www.gvgrocery.com","http://www.gvgrocery.com/locations/","GREEN VALLEY GROCERY #51","8601 W. Charleston","Las Vegas","<MISSING>","89117-5406","US","51","702/242-2202","<MISSING>","6.1585085","-115.2809038","<MISSING>"
"http://www.gvgrocery.com","http://www.gvgrocery.com/locations/","GREEN VALLEY GROCERY #52","7311 S. Eastern Ave","Las Vegas","<MISSING>","89120","US","52","702/722-6844","<MISSING>","6.0564045","-115.117719","<MISSING>"
"http://www.gvgrocery.com","http://www.gvgrocery.com/locations/","GREEN VALLEY GROCERY #53","500 Conestoga Way","Henderson","<MISSING>","89002","US","53","702/558-9044","<MISSING>","5.9942143","-114.9341877","<MISSING>"
"http://www.gvgrocery.com","http://www.gvgrocery.com/locations/","GREEN VALLEY GROCERY #54","7801 W. Charleston Blvd.","Las Vegas","<MISSING>","89117","US","54","702/869-3500","<MISSING>","6.158524","-115.2626028","<MISSING>"
"http://www.gvgrocery.com","http://www.gvgrocery.com/locations/","GREEN VALLEY GROCERY #55","1080 Whitney Ranch Drive","Henderson","<MISSING>","89014","US","55","702/458-3525","<MISSING>","6.081545","-115.0534389","<MISSING>"
"http://www.gvgrocery.com","http://www.gvgrocery.com/locations/","GREEN VALLEY GROCERY #56","4171 Boulder Hwy.","Las Vegas","<MISSING>","89121","US","56","702/433-8277","<MISSING>","6.1301387","-115.0832035","<MISSING>"
"http://www.gvgrocery.com","http://www.gvgrocery.com/locations/","GREEN VALLEY GROCERY #57","1465 E. Windmill Ln","Las Vegas","<MISSING>","89123","US","57","702-616-3113","<MISSING>","6.0419702","-115.1320801","<MISSING>"
"http://www.gvgrocery.com","http://www.gvgrocery.com/locations/","GREEN VALLEY GROCERY #58","3685 Moapa Valley Blvd.","Logandale","<MISSING>","89021","US","58","702/398-3400","<MISSING>","6.607789","-114.484484","<MISSING>"
"http://www.gvgrocery.com","http://www.gvgrocery.com/locations/","GREEN VALLEY GROCERY #59","6285 S. Durango Drive","Las Vegas","<MISSING>","89113","US","59","<MISSING>","<MISSING>","6.0705303","-115.2806153","<MISSING>"
"http://www.gvgrocery.com","http://www.gvgrocery.com/locations/","GREEN VALLEY GROCERY #6","2395 N. Lamb Blvd.","Las Vegas","<MISSING>","89115","US","6","702/438-1976","<MISSING>","6.2026607","-115.0807247","<MISSING>"
"http://www.gvgrocery.com","http://www.gvgrocery.com/locations/","GREEN VALLEY GROCERY #60","5660 S. Hualapai Way","Las Vegas","<MISSING>","89148","US","60","<MISSING>","<MISSING>","6.0857612","-115.314945","<MISSING>"
"http://www.gvgrocery.com","http://www.gvgrocery.com/locations/","GREEN VALLEY GROCERY #61","5750 S. Decatur Blvd.","Las Vegas","<MISSING>","<MISSING>","US","61","<MISSING>","<MISSING>","6.0852347","-115.2073958","<MISSING>"
"http://www.gvgrocery.com","http://www.gvgrocery.com/locations/","GREEN VALLEY GROCERY #61","4207 S. Las Vegas Blvd","Las Vegas","<MISSING>","89119","US","61","702-586-7617","<MISSING>","6.089578","-115.17198300000001","<MISSING>"
"http://www.gvgrocery.com","http://www.gvgrocery.com/locations/","GREEN VALLEY GROCERY #62","6799 S Hwy. 93","Hiko","<MISSING>","89017","US","62","775/725-3545","<MISSING>","7.4632651","-115.1941497","<MISSING>"
"http://www.gvgrocery.com","http://www.gvgrocery.com/locations/","GREEN VALLEY GROCERY #63","4030 W. Charleston","Las Vegas","<MISSING>","89102","US","63","702/258-0488","<MISSING>","6.1593133","-115.1950297","<MISSING>"
"http://www.gvgrocery.com","http://www.gvgrocery.com/locations/","GREEN VALLEY GROCERY #64","Hualapai/Sunset","<MISSING>","<MISSING>","<MISSING>","US","64","<MISSING>","<MISSING>","<MISSING>","<MISSING>","<MISSING>"
"http://www.gvgrocery.com","http://www.gvgrocery.com/locations/","GREEN VALLEY GROCERY #7","3680 So. Decatur Blvd.","Las Vegas","<MISSING>","89103","US","7","702/367-1019","<MISSING>","6.1229992","-115.207859","<MISSING>"
"http://www.gvgrocery.com","http://www.gvgrocery.com/locations/","GREEN VALLEY GROCERY #9","6398 W. Sahara Avenue","Las Vegas","<MISSING>","89146","US","9","702/876-8808","<MISSING>","6.1445433","-115.2334627","<MISSING>"
