"locator_domain","location_name","street_address","city","state","zip","country_code","store_number","phone","location_type","latitude","longitude","hours_of_operation","page_url"
"https://www.vw.ca","Jim Pattison Volkswagen Surrey","15383 Guildford Dr","Surrey","BC","V3R 0H9","CA","91401","(604)584-1311","E_SALES  E_SERVICE  NEW_PC  PARTS   USED_PC ","49.1978361","-122.7954605","<MISSING>","https://www.vw.ca/app/dccsearch/vw-ca/en/Volkswagen%20Dealer%20Search/+/53.835794350000015/-95.32055685/4/+/+/+/+"
"https://www.vw.ca","Abbotsford Volkswagen","30150 Automall Dr","Abbotsford","BC","V2T 5M1","CA","91404","(604)853-1181","NEW_PC  PARTS   USED_PC ","49.0615287","-122.3882155","<MISSING>","https://www.vw.ca/app/dccsearch/vw-ca/en/Volkswagen%20Dealer%20Search/+/53.835794350000015/-95.32055685/4/+/+/+/+"
"https://www.vw.ca","Chilliwack Volkswagen","44615 Yale Road West","Chilliwack","BC","V2R 4H2","CA","91405","(604)795-5771","NEW_PC  PARTS   USED_PC ","49.1453283","-121.9900715","<MISSING>","https://www.vw.ca/app/dccsearch/vw-ca/en/Volkswagen%20Dealer%20Search/+/53.835794350000015/-95.32055685/4/+/+/+/+"
"https://www.vw.ca","Harbourview Autohaus Ltd.","4921 Wellington Rd","Nanaimo","BC","V9T 2H5","CA","91406","(250)751-1221","AWARD  E_SALES  E_SERVICE  NEW_PC  PARTS   USED_PC ","49.2132903","-124.0300638","<MISSING>","https://www.vw.ca/app/dccsearch/vw-ca/en/Volkswagen%20Dealer%20Search/+/53.835794350000015/-95.32055685/4/+/+/+/+"
"https://www.vw.ca","Hub City Volkswagen","1822 Queensway","Prince George","BC","V2L 1L8","CA","91416","(250)564-7228","NEW_PC  PARTS   USED_PC ","53.9068975","-122.741794","<MISSING>","https://www.vw.ca/app/dccsearch/vw-ca/en/Volkswagen%20Dealer%20Search/+/53.835794350000015/-95.32055685/4/+/+/+/+"
"https://www.vw.ca","Clarkdale Motors Ltd.","4575 Main St","Vancouver","BC","V5V 3R4","CA","91417","(604)872-5431","E_SALES  E_SERVICE  NEW_PC  PARTS   USED_PC ","49.2437177","-123.1016519","<MISSING>","https://www.vw.ca/app/dccsearch/vw-ca/en/Volkswagen%20Dealer%20Search/+/53.835794350000015/-95.32055685/4/+/+/+/+"
"https://www.vw.ca","Volkswagen Victoria","3329 Douglas St","Victoria","BC","V8Z 3L2","CA","91428","(250)475-2415","E_SALES  E_SERVICE  NEW_PC  PARTS   USED_PC ","48.4504485","-123.3731863","<MISSING>","https://www.vw.ca/app/dccsearch/vw-ca/en/Volkswagen%20Dealer%20Search/+/53.835794350000015/-95.32055685/4/+/+/+/+"
"https://www.vw.ca","Turner Volkswagen","2150 Enterprise Way","Kelowna","BC","V1Y 6H7","CA","91429","(250)860-6278","AWARD  NEW_PC  PARTS   USED_PC  WORKSHOP ","49.8837743","-119.4401161","<MISSING>","https://www.vw.ca/app/dccsearch/vw-ca/en/Volkswagen%20Dealer%20Search/+/53.835794350000015/-95.32055685/4/+/+/+/+"
"https://www.vw.ca","Volkswagen of Kamloops","2483 Trans Canada Hwy E","Kamloops","BC","V2C 4A9","CA","91438","(250)374-3000","AWARD  NEW_PC  PARTS   USED_PC ","50.675487","-120.2471032","<MISSING>","https://www.vw.ca/app/dccsearch/vw-ca/en/Volkswagen%20Dealer%20Search/+/53.835794350000015/-95.32055685/4/+/+/+/+"
"https://www.vw.ca","Cowell Motors Ltd.","Richmond Auto Mall 13611 Smallwood","Richmond","BC","V6V 1W8","CA","91444","(604)273-3922","E_SALES  E_SERVICE  NEW_PC  PARTS   USED_PC ","49.1721778","-123.0774885","<MISSING>","https://www.vw.ca/app/dccsearch/vw-ca/en/Volkswagen%20Dealer%20Search/+/53.835794350000015/-95.32055685/4/+/+/+/+"
"https://www.vw.ca","Capilano Volkswagen Audi Inc.","1151 Marine Dr","North Vancouver","BC","V7P 1T1","CA","91449","(604)985-0694","E_SALES  E_SERVICE  NEW_PC  PARTS   USED_PC  WORKSHOP ","49.3235076","-123.1058994","<MISSING>","https://www.vw.ca/app/dccsearch/vw-ca/en/Volkswagen%20Dealer%20Search/+/53.835794350000015/-95.32055685/4/+/+/+/+"
"https://www.vw.ca","Vernon Volkswagen","6205 Hwy 97","Vernon","BC","V1B 3R4","CA","91474","(250)545-2358","AWARD  NEW_PC  PARTS   USED_PC ","50.2944939","-119.2559861","<MISSING>","https://www.vw.ca/app/dccsearch/vw-ca/en/Volkswagen%20Dealer%20Search/+/53.835794350000015/-95.32055685/4/+/+/+/+"
"https://www.vw.ca","Maple Ridge Volkswagen","20279 Lougheed Hwy","Maple Ridge","BC","V2X 2P6","CA","91480","(604)460-8890","AWARD  NEW_PC  PARTS   USED_PC ","49.2198197","-122.6589474","<MISSING>","https://www.vw.ca/app/dccsearch/vw-ca/en/Volkswagen%20Dealer%20Search/+/53.835794350000015/-95.32055685/4/+/+/+/+"
"https://www.vw.ca","Regency Volkswagen","2555 Barnet Hwy","Coquitlam","BC","V3H 1W4","CA","91481","(604)461-5000","E_SALES  E_SERVICE  NEW_PC  PARTS   USED_PC ","49.2783722","-122.8205847","<MISSING>","https://www.vw.ca/app/dccsearch/vw-ca/en/Volkswagen%20Dealer%20Search/+/53.835794350000015/-95.32055685/4/+/+/+/+"
"https://www.vw.ca","OpenRoad Volkswagen","3775 Lougheed Hwy","Burnaby","BC","V5C 0J4","CA","91482","(604)298-0038","E_SALES  E_SERVICE  NEW_PC  PARTS   USED_PC ","49.2662558","-123.0211203","<MISSING>","https://www.vw.ca/app/dccsearch/vw-ca/en/Volkswagen%20Dealer%20Search/+/53.835794350000015/-95.32055685/4/+/+/+/+"
"https://www.vw.ca","Arrow Motors","2034 Cranbrook St N","Cranbrook","BC","V1C 3T1","CA","91486","(250)489-4327","NEW_PC  PARTS   USED_PC ","49.5315525","-115.7439376","<MISSING>","https://www.vw.ca/app/dccsearch/vw-ca/en/Volkswagen%20Dealer%20Search/+/53.835794350000015/-95.32055685/4/+/+/+/+"
"https://www.vw.ca","Comox Valley Volkswagen","401 Ryan Rd","Courtenay","BC","V9N 3R5","CA","91489","(250)338-1221","E_SALES  E_SERVICE  NEW_PC  PARTS   USED_PC ","49.6963981","-124.9908569","<MISSING>","https://www.vw.ca/app/dccsearch/vw-ca/en/Volkswagen%20Dealer%20Search/+/53.835794350000015/-95.32055685/4/+/+/+/+"
"https://www.vw.ca","White Rock Volkswagen","2092 152 St","Surrey","BC","V4A 4N8","CA","91491","(604)536-7212","E_SALES  E_SERVICE  NEW_PC  PARTS   USED_PC ","49.0400421","-122.8009163","<MISSING>","https://www.vw.ca/app/dccsearch/vw-ca/en/Volkswagen%20Dealer%20Search/+/53.835794350000015/-95.32055685/4/+/+/+/+"
"https://www.vw.ca","Gold Key Langley Volkswagen","19545 Langley Bypass","Surrey","BC","V3S 6K1","CA","91496","(604)534-7431","E_SALES  E_SERVICE  NEW_PC  PARTS   USED_PC  WORKSHOP ","49.1098928","-122.681679","<MISSING>","https://www.vw.ca/app/dccsearch/vw-ca/en/Volkswagen%20Dealer%20Search/+/53.835794350000015/-95.32055685/4/+/+/+/+"
"https://www.vw.ca","Northland Volkswagen","4849 Northland Dr Nw","Calgary","AB","T2L 2K3","CA","91507","(403)286-4849","NEW_PC  PARTS   USED_PC ","51.0955152","-114.1423617","<MISSING>","https://www.vw.ca/app/dccsearch/vw-ca/en/Volkswagen%20Dealer%20Search/+/53.835794350000015/-95.32055685/4/+/+/+/+"
"https://www.vw.ca","Country Hills Volkswagen","11380 Stonehill Drive Ne","Calgary","AB","T3N 1N7","CA","91509","(403)516-1140","NEW_PC  PARTS   USED_PC ","51.1560349","-114.0061503","<MISSING>","https://www.vw.ca/app/dccsearch/vw-ca/en/Volkswagen%20Dealer%20Search/+/53.835794350000015/-95.32055685/4/+/+/+/+"
"https://www.vw.ca","Fifth Avenue Auto Haus Ltd.","1120 Meridian Rd Ne","Calgary","AB","T2A 2N9","CA","91511","(403)273-2500","NEW_PC  PARTS   USED_PC  WORKSHOP ","51.0626782","-113.9999813","<MISSING>","https://www.vw.ca/app/dccsearch/vw-ca/en/Volkswagen%20Dealer%20Search/+/53.835794350000015/-95.32055685/4/+/+/+/+"
"https://www.vw.ca","Lethbridge Volkswagen","3521 1 Ave S","Lethbridge","AB","T1J 4H1","CA","91515","(403)328-4189","NEW_PC  PARTS   USED_PC ","49.6987483","-112.7892746","<MISSING>","https://www.vw.ca/app/dccsearch/vw-ca/en/Volkswagen%20Dealer%20Search/+/53.835794350000015/-95.32055685/4/+/+/+/+"
"https://www.vw.ca","South Centre Volkswagen","11527 29 St Se","Calgary","AB","T2Z 0N4","CA","91518","(403)255-6681","NEW_PC  PARTS   USED_PC  WORKSHOP ","50.9498872","-113.9981998","<MISSING>","https://www.vw.ca/app/dccsearch/vw-ca/en/Volkswagen%20Dealer%20Search/+/53.835794350000015/-95.32055685/4/+/+/+/+"
"https://www.vw.ca","Southland Volkswagen","1450 Strachan Rd Se","Medicine Hat","AB","T1B 4V2","CA","91525","(403)526-3633","NEW_PC  PARTS   USED_PC ","50.0036147","-110.6635401","<MISSING>","https://www.vw.ca/app/dccsearch/vw-ca/en/Volkswagen%20Dealer%20Search/+/53.835794350000015/-95.32055685/4/+/+/+/+"
"https://www.vw.ca","Gary Moe Volkswagen","7 Mckenzie Dr","Red Deer County","AB","T4S 2H4","CA","91571","(403)342-2923","NEW_PC  PARTS   USED_PC ","52.1976182","-113.8204558","<MISSING>","https://www.vw.ca/app/dccsearch/vw-ca/en/Volkswagen%20Dealer%20Search/+/53.835794350000015/-95.32055685/4/+/+/+/+"
"https://www.vw.ca","Grande Prairie Volkswagen","9602 108 St","Grande Prairie","AB","T8V 4E1","CA","91580","(780)532-7222","NEW_PC  PARTS   USED_PC ","55.1663354","-118.821618","<MISSING>","https://www.vw.ca/app/dccsearch/vw-ca/en/Volkswagen%20Dealer%20Search/+/53.835794350000015/-95.32055685/4/+/+/+/+"
"https://www.vw.ca","Norden Autohaus","14703 137 Ave Nw","Edmonton","AB","T5L 2L5","CA","91584","(780)484-3000","NEW_PC  PARTS   USED_PC  WORKSHOP ","53.5985467","-113.5762403","<MISSING>","https://www.vw.ca/app/dccsearch/vw-ca/en/Volkswagen%20Dealer%20Search/+/53.835794350000015/-95.32055685/4/+/+/+/+"
"https://www.vw.ca","Southgate Volkswagen","1223 101 St Sw","Edmonton","AB","T6X 1A1","CA","91590","(780)438-8888","NEW_PC  PARTS   USED_PC  WORKSHOP ","53.4221853","-113.4888488","<MISSING>","https://www.vw.ca/app/dccsearch/vw-ca/en/Volkswagen%20Dealer%20Search/+/53.835794350000015/-95.32055685/4/+/+/+/+"
"https://www.vw.ca","Sherwood Park Volkswagen","2365 Broadmoor Blvd","Sherwood Park","AB","T8H 1N1","CA","91599","(780)400-4800","NEW_PC  PARTS   USED_PC ","53.5523936","-113.3194026","<MISSING>","https://www.vw.ca/app/dccsearch/vw-ca/en/Volkswagen%20Dealer%20Search/+/53.835794350000015/-95.32055685/4/+/+/+/+"
"https://www.vw.ca","Taylor Volkswagen","3615 E Quance Gate","Regina","SK","S4V 3A4","CA","92603","(306)757-9657","NEW_PC  PARTS   USED_PC ","50.4436704","-104.5269211","<MISSING>","https://www.vw.ca/app/dccsearch/vw-ca/en/Volkswagen%20Dealer%20Search/+/53.835794350000015/-95.32055685/4/+/+/+/+"
"https://www.vw.ca","Volkswagen Centre of Saskatoon","635 Circle Dr E","Saskatoon","SK","S7K 7Y2","CA","92619","(306)955-8877","NEW_PC  PARTS   USED_PC ","52.1573776","-106.6586457","<MISSING>","https://www.vw.ca/app/dccsearch/vw-ca/en/Volkswagen%20Dealer%20Search/+/53.835794350000015/-95.32055685/4/+/+/+/+"
"https://www.vw.ca","Rally Motors Ltd.","60-38th Street East","Prince Albert","SK","S6W 1A6","CA","92641","(306)922-6363","NEW_PC  PARTS   USED_PC ","53.179006","-105.7515064","<MISSING>","https://www.vw.ca/app/dccsearch/vw-ca/en/Volkswagen%20Dealer%20Search/+/53.835794350000015/-95.32055685/4/+/+/+/+"
"https://www.vw.ca","Auto Haus Volkswagen","660 Pembina Hwy","Winnipeg","MB","R3M 2M5","CA","92703","(204)284-7520","E_SALES  E_SERVICE  NEW_PC  PARTS   USED_PC ","49.8624418","-97.1480132","<MISSING>","https://www.vw.ca/app/dccsearch/vw-ca/en/Volkswagen%20Dealer%20Search/+/53.835794350000015/-95.32055685/4/+/+/+/+"
"https://www.vw.ca","St. James Volkswagen","670 Century St","Winnipeg","MB","R3H 0A1","CA","92724","(204)788-1100","E_SALES  E_SERVICE  NEW_PC  PARTS   USED_PC ","49.8965758","-97.2038632","<MISSING>","https://www.vw.ca/app/dccsearch/vw-ca/en/Volkswagen%20Dealer%20Search/+/53.835794350000015/-95.32055685/4/+/+/+/+"
"https://www.vw.ca","Volkswagen Richmond Hill","10440 Yonge St","Richmond Hill","ON","L4C 3C4","CA","93004","(905)889-7701","NEW_PC  PARTS   USED_PC ","43.8818793","-79.4401932","<MISSING>","https://www.vw.ca/app/dccsearch/vw-ca/en/Volkswagen%20Dealer%20Search/+/53.835794350000015/-95.32055685/4/+/+/+/+"
"https://www.vw.ca","Don Valley Volkswagen","1695 Eglinton Ave E","North York","ON","M4A 1J6","CA","93007","(416)751-3131","E_SALES  E_SERVICE  NEW_PC  PARTS   USED_PC  WORKSHOP ","43.7259536","-79.3154463","<MISSING>","https://www.vw.ca/app/dccsearch/vw-ca/en/Volkswagen%20Dealer%20Search/+/53.835794350000015/-95.32055685/4/+/+/+/+"
"https://www.vw.ca","H.J. Pfaff Volkswagen","16885 Leslie St","Newmarket","ON","L3Y 9A1","CA","93008","(905)895-2366","AWARD  E_SALES  E_SERVICE  NEW_PC  PARTS   USED_PC  WORKSHOP ","44.0506097","-79.4272242","<MISSING>","https://www.vw.ca/app/dccsearch/vw-ca/en/Volkswagen%20Dealer%20Search/+/53.835794350000015/-95.32055685/4/+/+/+/+"
"https://www.vw.ca","Yorkdale Volkswagen","600 Wilson Ave","North York","ON","M3K 1C9","CA","93025","(416)741-7480","AWARD  E_SALES  E_SERVICE  EXPRESS_SERVICE  NEW_PC  PARTS   USED_PC  WORKSHOP ","43.732711","-79.4577197","<MISSING>","https://www.vw.ca/app/dccsearch/vw-ca/en/Volkswagen%20Dealer%20Search/+/53.835794350000015/-95.32055685/4/+/+/+/+"
"https://www.vw.ca","Mississauga Volkswagen","2420 Motorway Blvd","Mississauga","ON","L5L 1X3","CA","93027","(905)569-3233","E_SALES  E_SERVICE  NEW_PC  PARTS   USED_PC ","43.5304906","-79.6774863","<MISSING>","https://www.vw.ca/app/dccsearch/vw-ca/en/Volkswagen%20Dealer%20Search/+/53.835794350000015/-95.32055685/4/+/+/+/+"
"https://www.vw.ca","Volkswagen Midtown Toronto","3450 Sheppard Ave E","Scarborough","ON","M1T 3K4","CA","93030","(416)291-6456","E_SALES  E_SERVICE  NEW_PC  PARTS   USED_PC  WORKSHOP ","43.7797431","-79.3052841","<MISSING>","https://www.vw.ca/app/dccsearch/vw-ca/en/Volkswagen%20Dealer%20Search/+/53.835794350000015/-95.32055685/4/+/+/+/+"
"https://www.vw.ca","Volkswagen Villa","212 Steeles Ave W","Thornhill","ON","L4J 1A1","CA","93037","(905)886-6880","E_SALES  E_SERVICE  NEW_PC  PARTS   USED_PC  WORKSHOP ","43.7972338","-79.4272242","<MISSING>","https://www.vw.ca/app/dccsearch/vw-ca/en/Volkswagen%20Dealer%20Search/+/53.835794350000015/-95.32055685/4/+/+/+/+"
"https://www.vw.ca","Autohaus Stackelberg Inc.","332 Airport Rd","North Bay","ON","P1B 8W9","CA","93042","(705)474-3211","NEW_PC  PARTS   USED_PC ","46.3360255","-79.4593758","<MISSING>","https://www.vw.ca/app/dccsearch/vw-ca/en/Volkswagen%20Dealer%20Search/+/53.835794350000015/-95.32055685/4/+/+/+/+"
"https://www.vw.ca","Kingston Volkswagen","1670 Bath Rd","Kingston","ON","K7M 4X9","CA","93060","(613)384-1000","E_SALES  E_SERVICE  NEW_PC  PARTS   USED_PC ","44.2378405","-76.5695877","<MISSING>","https://www.vw.ca/app/dccsearch/vw-ca/en/Volkswagen%20Dealer%20Search/+/53.835794350000015/-95.32055685/4/+/+/+/+"
"https://www.vw.ca","Owasco Volkswagen Inc.","2030 Champlain Ave","Whitby","ON","L1N 6A7","CA","93076","(905)579-0010","E_SALES  E_SERVICE  NEW_PC  PARTS   USED_PC  WORKSHOP ","43.8725593","-78.904089","<MISSING>","https://www.vw.ca/app/dccsearch/vw-ca/en/Volkswagen%20Dealer%20Search/+/53.835794350000015/-95.32055685/4/+/+/+/+"
"https://www.vw.ca","Town + Country Volkswagen","7997 Kennedy Rd","Unionville","ON","L3R 2E2","CA","93088","(905)477-2421","E_SALES  E_SERVICE  NEW_PC  PARTS   USED_PC  WORKSHOP ","43.8525699","-79.3066794","<MISSING>","https://www.vw.ca/app/dccsearch/vw-ca/en/Volkswagen%20Dealer%20Search/+/53.835794350000015/-95.32055685/4/+/+/+/+"
"https://www.vw.ca","Peterborough Volkswagen Ltd.","500 Towerhill Rd","Peterborough","ON","K9H 7R8","CA","93107","(705)745-2413","NEW_PC  PARTS   USED_PC ","44.326894","-78.3409296","<MISSING>","https://www.vw.ca/app/dccsearch/vw-ca/en/Volkswagen%20Dealer%20Search/+/53.835794350000015/-95.32055685/4/+/+/+/+"
"https://www.vw.ca","New Sudbury Volkswagen Ltd.","1593 Lasalle Blvd","Sudbury","ON","P3A 1Z8","CA","93117","(705)566-8170","NEW_PC  PARTS   USED_PC ","46.5216185","-80.9381883","<MISSING>","https://www.vw.ca/app/dccsearch/vw-ca/en/Volkswagen%20Dealer%20Search/+/53.835794350000015/-95.32055685/4/+/+/+/+"
"https://www.vw.ca","Brantford Volkswagen","131 Lynden Rd","Brantford","ON","N3R 8A7","CA","93119","(519)751-8989","AWARD  NEW_PC  PARTS   USED_PC ","43.1748153","-80.2367047","<MISSING>","https://www.vw.ca/app/dccsearch/vw-ca/en/Volkswagen%20Dealer%20Search/+/53.835794350000015/-95.32055685/4/+/+/+/+"
"https://www.vw.ca","Lauria Volkswagen","55 Benson Court","Port Hope","ON","L1A 2V6","CA","93130","(905)885-6421","E_SALES  E_SERVICE  NEW_PC  PARTS   USED_PC ","43.9708342","-78.2752625","<MISSING>","https://www.vw.ca/app/dccsearch/vw-ca/en/Volkswagen%20Dealer%20Search/+/53.835794350000015/-95.32055685/4/+/+/+/+"
"https://www.vw.ca","Belleville Volkswagen","239 North Front St","Belleville","ON","K8P 3C3","CA","93140","(613)966-3333","NEW_PC  PARTS   USED_PC ","44.1815305","-77.3922088","<MISSING>","https://www.vw.ca/app/dccsearch/vw-ca/en/Volkswagen%20Dealer%20Search/+/53.835794350000015/-95.32055685/4/+/+/+/+"
"https://www.vw.ca","Northside Volkswagen","61 Great Northern Rd","Sault Ste. Marie","ON","P6B 4Y8","CA","93142","(705)541-5995","NEW_PC  PARTS   USED_PC ","46.5265432","-84.3199754","<MISSING>","https://www.vw.ca/app/dccsearch/vw-ca/en/Volkswagen%20Dealer%20Search/+/53.835794350000015/-95.32055685/4/+/+/+/+"
"https://www.vw.ca","Volkswagen Chatham","90 Keil Dr N","Chatham","ON","N7L 3W1","CA","93173","(519)352-8890","AWARD  NEW_PC  PARTS   USED_PC ","42.3964358","-82.2140955","<MISSING>","https://www.vw.ca/app/dccsearch/vw-ca/en/Volkswagen%20Dealer%20Search/+/53.835794350000015/-95.32055685/4/+/+/+/+"
"https://www.vw.ca","Orillia Volkswagen","345 West St S","Orillia","ON","L3V 5H1","CA","93181","(705)325-6107","AWARD  NEW_PC  PARTS   USED_PC ","44.6003569","-79.4137318","<MISSING>","https://www.vw.ca/app/dccsearch/vw-ca/en/Volkswagen%20Dealer%20Search/+/53.835794350000015/-95.32055685/4/+/+/+/+"
"https://www.vw.ca","Barrie Volkswagen","60 Fairview Rd","Barrie","ON","L4N 8X8","CA","93189","(705)737-0100","E_SALES  E_SERVICE  NEW_PC  PARTS   USED_PC ","44.3593436","-79.692569","<MISSING>","https://www.vw.ca/app/dccsearch/vw-ca/en/Volkswagen%20Dealer%20Search/+/53.835794350000015/-95.32055685/4/+/+/+/+"
"https://www.vw.ca","Oakville Volkswagen Inc.","1355 North Service Rd W","Oakville","ON","L6M 2W2","CA","93200","(905)844-3285","E_SALES  E_SERVICE  NEW_PC  PARTS   USED_PC  WORKSHOP ","43.4296179","-79.7206632","<MISSING>","https://www.vw.ca/app/dccsearch/vw-ca/en/Volkswagen%20Dealer%20Search/+/53.835794350000015/-95.32055685/4/+/+/+/+"
"https://www.vw.ca","Humberview Volkswagen","1650 The Queensway","Etobicoke","ON","M8Z 1X1","CA","93222","(416)259-7656","AWARD  E_SALES  E_SERVICE  NEW_PC  PARTS   USED_PC ","43.6171118","-79.5486126","<MISSING>","https://www.vw.ca/app/dccsearch/vw-ca/en/Volkswagen%20Dealer%20Search/+/53.835794350000015/-95.32055685/4/+/+/+/+"
"https://www.vw.ca","Dalmar Motors Limited.","475 Wharncliffe Rd S","London","ON","N6J 2N1","CA","93226","(519)433-3181","NEW_PC  PARTS   USED_PC ","42.9588948","-81.2614552","<MISSING>","https://www.vw.ca/app/dccsearch/vw-ca/en/Volkswagen%20Dealer%20Search/+/53.835794350000015/-95.32055685/4/+/+/+/+"
"https://www.vw.ca","Leavens Volkswagen","2360 Auto Mall Ave","London","ON","N5V 0B4","CA","93229","(519)455-2580","AWARD  E_SALES  E_SERVICE  EXPRESS_SERVICE  NEW_PC  PARTS   USED_PC ","43.014477","-81.149922","<MISSING>","https://www.vw.ca/app/dccsearch/vw-ca/en/Volkswagen%20Dealer%20Search/+/53.835794350000015/-95.32055685/4/+/+/+/+"
"https://www.vw.ca","Sarnia Volkswagen","791 Confederation St","Sarnia","ON","N7T 2E4","CA","93231","(519)339-0200","NEW_PC  PARTS   USED_PC ","42.9603746","-82.3818429","<MISSING>","https://www.vw.ca/app/dccsearch/vw-ca/en/Volkswagen%20Dealer%20Search/+/53.835794350000015/-95.32055685/4/+/+/+/+"
"https://www.vw.ca","Myers Volkswagen","501-2500 Palladium Dr","Kanata","ON","K2V 1E2","CA","93237","(613)592-8484","E_SALES  E_SERVICE  NEW_PC  PARTS   USED_PC ","45.2984345","-75.9105846","<MISSING>","https://www.vw.ca/app/dccsearch/vw-ca/en/Volkswagen%20Dealer%20Search/+/53.835794350000015/-95.32055685/4/+/+/+/+"
"https://www.vw.ca","Hunt Club Volkswagen","2655 Bank St","Gloucester","ON","K1T 1N1","CA","93239","(613)822-6565","NEW_PC  PARTS   USED_PC ","45.3533495","-75.6361104","<MISSING>","https://www.vw.ca/app/dccsearch/vw-ca/en/Volkswagen%20Dealer%20Search/+/53.835794350000015/-95.32055685/4/+/+/+/+"
"https://www.vw.ca","Bytek Automobiles Inc.","1325 St. Laurent Blvd","Ottawa","ON","K1G 0Z7","CA","93240","(613)745-6886","E_SALES  E_SERVICE  NEW_PC  PARTS   USED_PC ","45.4186584","-75.6334672","<MISSING>","https://www.vw.ca/app/dccsearch/vw-ca/en/Volkswagen%20Dealer%20Search/+/53.835794350000015/-95.32055685/4/+/+/+/+"
"https://www.vw.ca","Taylor Creek Volkswagen","1221 Trim Road","Orleans","ON","K4A 0E1","CA","93243","(613)841-8700","NEW_PC  PARTS   USED_PC ","45.4924764","-75.4791856","<MISSING>","https://www.vw.ca/app/dccsearch/vw-ca/en/Volkswagen%20Dealer%20Search/+/53.835794350000015/-95.32055685/4/+/+/+/+"
"https://www.vw.ca","Cornwall Volkswagen","632 Pitt St","Cornwall","ON","K6J 3R7","CA","93245","(613)933-3483","NEW_PC  PARTS   USED_PC ","45.025153","-74.7333645","<MISSING>","https://www.vw.ca/app/dccsearch/vw-ca/en/Volkswagen%20Dealer%20Search/+/53.835794350000015/-95.32055685/4/+/+/+/+"
"https://www.vw.ca","Hamilton Volkswagen,","1221 Upper James St","Hamilton","ON","L9C 3B2","CA","93246","(905)574-8989","E_SALES  E_SERVICE  NEW_PC  PARTS   USED_PC ","43.2149798","-79.8864698","<MISSING>","https://www.vw.ca/app/dccsearch/vw-ca/en/Volkswagen%20Dealer%20Search/+/53.835794350000015/-95.32055685/4/+/+/+/+"
"https://www.vw.ca","Roseland Motors Limited","888 Guelph Line","Burlington","ON","L7R 3N7","CA","93267","(905)632-0222","NEW_PC  PARTS   USED_PC ","43.3488892","-79.8007374","<MISSING>","https://www.vw.ca/app/dccsearch/vw-ca/en/Volkswagen%20Dealer%20Search/+/53.835794350000015/-95.32055685/4/+/+/+/+"
"https://www.vw.ca","St. Catharines Volkswagen Ltd.","125 Hartzel Rd","St Catharines","ON","L2P 1N6","CA","93272","(905)688-5230","NEW_PC  PARTS   USED_PC  WORKSHOP ","43.1511875","-79.2148464","<MISSING>","https://www.vw.ca/app/dccsearch/vw-ca/en/Volkswagen%20Dealer%20Search/+/53.835794350000015/-95.32055685/4/+/+/+/+"
"https://www.vw.ca","Cambridge Volkswagen Inc.","275 Hespeler Rd","Cambridge","ON","N1R 3H8","CA","93280","(519)621-8989","AWARD  E_SALES  E_SERVICE  NEW_PC  PARTS   USED_PC ","43.3879982","-80.3210986","<MISSING>","https://www.vw.ca/app/dccsearch/vw-ca/en/Volkswagen%20Dealer%20Search/+/53.835794350000015/-95.32055685/4/+/+/+/+"
"https://www.vw.ca","Simcoe Volkswagen","370 Queensway W","Simcoe","ON","N3Y 2N2","CA","93283","(519)426-6150","AWARD  NEW_PC  PARTS   USED_PC ","42.8435514","-80.318435","<MISSING>","https://www.vw.ca/app/dccsearch/vw-ca/en/Volkswagen%20Dealer%20Search/+/53.835794350000015/-95.32055685/4/+/+/+/+"
"https://www.vw.ca","Guelph Volkswagen","359 Woodlawn Rd W","Guelph","ON","N1H 7K9","CA","93284","(519)824-9150","AWARD  E_SALES  E_SERVICE  NEW_PC  PARTS   USED_PC  WORKSHOP ","43.5475214","-80.3029425","<MISSING>","https://www.vw.ca/app/dccsearch/vw-ca/en/Volkswagen%20Dealer%20Search/+/53.835794350000015/-95.32055685/4/+/+/+/+"
"https://www.vw.ca","Crosby Volkswagen","1175 Weber St E","Kitchener","ON","N2A 1C1","CA","93285","(519)894-9300","NEW_PC  PARTS   USED_PC ","43.433888","-80.446836","<MISSING>","https://www.vw.ca/app/dccsearch/vw-ca/en/Volkswagen%20Dealer%20Search/+/53.835794350000015/-95.32055685/4/+/+/+/+"
"https://www.vw.ca","Volkswagen Waterloo","550 Weber St N","Waterloo","ON","N2L 5C6","CA","93286","(519)884-7470","NEW_PC  PARTS   USED_PC  WORKSHOP ","43.4933256","-80.5451342","<MISSING>","https://www.vw.ca/app/dccsearch/vw-ca/en/Volkswagen%20Dealer%20Search/+/53.835794350000015/-95.32055685/4/+/+/+/+"
"https://www.vw.ca","Volkswagen Downtown Toronto","550 Adelaide St E","Toronto","ON","M5A 1N7","CA","93288","(416)865-9777","E_SALES  E_SERVICE  NEW_PC  PARTS   USED_PC ","43.653371","-79.3645956","<MISSING>","https://www.vw.ca/app/dccsearch/vw-ca/en/Volkswagen%20Dealer%20Search/+/53.835794350000015/-95.32055685/4/+/+/+/+"
"https://www.vw.ca","Easthill Volkswagen","1577 Bruce Rd 4","Walkerton","ON","N0G 2V0","CA","93311","(519)881-0835","NEW_PC  PARTS   USED_PC ","44.1371921","-81.1266748","<MISSING>","https://www.vw.ca/app/dccsearch/vw-ca/en/Volkswagen%20Dealer%20Search/+/53.835794350000015/-95.32055685/4/+/+/+/+"
"https://www.vw.ca","Owen Sound Volkswagen","R.R. #5 Sunset Strip","Owen Sound","ON","N4K 5N7","CA","93320","(519)372-2020","NEW_PC  PARTS   USED_PC ","44.5595605","-80.9705175","<MISSING>","https://www.vw.ca/app/dccsearch/vw-ca/en/Volkswagen%20Dealer%20Search/+/53.835794350000015/-95.32055685/4/+/+/+/+"
"https://www.vw.ca","Bramgate Volkswagen","15 Coachworks Crescent","Brampton","ON","L6R 3Y2","CA","93361","(905)459-6040","E_SALES  E_SERVICE  NEW_PC  PARTS   USED_PC ","43.7581709","-79.7940381","<MISSING>","https://www.vw.ca/app/dccsearch/vw-ca/en/Volkswagen%20Dealer%20Search/+/53.835794350000015/-95.32055685/4/+/+/+/+"
"https://www.vw.ca","Georgetown Volkswagen","203 Guelph St","Georgetown","ON","L7G 4A8","CA","93363","(905)877-5285","E_SALES  E_SERVICE  NEW_PC  PARTS   USED_PC ","43.6506798","-79.9018656","<MISSING>","https://www.vw.ca/app/dccsearch/vw-ca/en/Volkswagen%20Dealer%20Search/+/53.835794350000015/-95.32055685/4/+/+/+/+"
"https://www.vw.ca","Alliston Volkswagen","535 Victoria St E","Alliston","ON","L9R 1K1","CA","93365","(705)435-5701","NEW_PC  PARTS   USED_PC ","44.1593811","-79.840835","<MISSING>","https://www.vw.ca/app/dccsearch/vw-ca/en/Volkswagen%20Dealer%20Search/+/53.835794350000015/-95.32055685/4/+/+/+/+"
"https://www.vw.ca","Orangeville Volkswagen","633222 Highway 10","Mono","ON","L9W 5P7","CA","93368","(519)941-3317","AWARD  NEW_PC  PARTS   USED_PC  WORKSHOP ","43.9393368","-80.1037285","<MISSING>","https://www.vw.ca/app/dccsearch/vw-ca/en/Volkswagen%20Dealer%20Search/+/53.835794350000015/-95.32055685/4/+/+/+/+"
"https://www.vw.ca","Pickering Volkswagen Inc.","503 Kingston Rd","Pickering","ON","L1V 3N7","CA","93377","(905)420-9700","E_SALES  E_SERVICE  NEW_PC  PARTS   USED_PC ","43.812814","-79.1229929","<MISSING>","https://www.vw.ca/app/dccsearch/vw-ca/en/Volkswagen%20Dealer%20Search/+/53.835794350000015/-95.32055685/4/+/+/+/+"
"https://www.vw.ca","Martin Grove Motors","7731 Martin Grove Rd","Woodbridge","ON","L4L 2C5","CA","93382","(905)851-5111","NEW_PC  PARTS   USED_PC ","43.7757057","-79.6093597","<MISSING>","https://www.vw.ca/app/dccsearch/vw-ca/en/Volkswagen%20Dealer%20Search/+/53.835794350000015/-95.32055685/4/+/+/+/+"
"https://www.vw.ca","401 Dixie Volkswagen","5500 Dixie Rd Unit G","Mississauga","ON","L4W 4N3","CA","93388","(905)238-7188","E_SALES  E_SERVICE  NEW_PC  PARTS   USED_PC ","43.6443949","-79.6360864","<MISSING>","https://www.vw.ca/app/dccsearch/vw-ca/en/Volkswagen%20Dealer%20Search/+/53.835794350000015/-95.32055685/4/+/+/+/+"
"https://www.vw.ca","Maple Volkswagen","260 Sweetriver Blvd","Maple","ON","L6A 4V3","CA","93777","(905)832-5711","AWARD  NEW_PC  PARTS   USED_PC ","43.8366673","-79.5378252","<MISSING>","https://www.vw.ca/app/dccsearch/vw-ca/en/Volkswagen%20Dealer%20Search/+/53.835794350000015/-95.32055685/4/+/+/+/+"
"https://www.vw.ca","Milton Volkswagen","3030 James Snow Pky N","Milton","ON","L9T 2X7","CA","93778","(905)693-7800","NEW_PC  PARTS   USED_PC ","43.5332334","-79.9132358","<MISSING>","https://www.vw.ca/app/dccsearch/vw-ca/en/Volkswagen%20Dealer%20Search/+/53.835794350000015/-95.32055685/4/+/+/+/+"
"https://www.vw.ca","Downtown Volkswagen","591 Central Ave","Thunder Bay","ON","P7B 5R5","CA","93911","(807)344-9700","NEW_PC  PARTS   USED_PC ","48.4119448","-89.2495036","<MISSING>","https://www.vw.ca/app/dccsearch/vw-ca/en/Volkswagen%20Dealer%20Search/+/53.835794350000015/-95.32055685/4/+/+/+/+"
"https://www.vw.ca","Volkswagen of Windsor","9700 Tecumseh Rd E","Windsor","ON","N8R 1A2","CA","93913","(519)735-7706","NEW_PC  PARTS   USED_PC ","42.3150611","-82.9210795","<MISSING>","https://www.vw.ca/app/dccsearch/vw-ca/en/Volkswagen%20Dealer%20Search/+/53.835794350000015/-95.32055685/4/+/+/+/+"
"https://www.vw.ca","Volkswagen de l'Outaouais","850 Boul Saint-Joseph","Gatineau","QC","J8Z 1S9","CA","94302","(819)770-0220","E_SALES  E_SERVICE  NEW_PC  PARTS   USED_PC ","45.4634424","-75.7387639","<MISSING>","https://www.vw.ca/app/dccsearch/vw-ca/en/Volkswagen%20Dealer%20Search/+/53.835794350000015/-95.32055685/4/+/+/+/+"
"https://www.vw.ca","Leblanc Volkswagen","1776 Boul Albiny-Paquette","Mont-Laurier","QC","J9L 1N1","CA","94347","(819)623-4099","NEW_PC  PARTS   USED_PC ","46.5491248","-75.4567652","<MISSING>","https://www.vw.ca/app/dccsearch/vw-ca/en/Volkswagen%20Dealer%20Search/+/53.835794350000015/-95.32055685/4/+/+/+/+"
"https://www.vw.ca","Paquin Volkswagen","1005 Av Larivi%C3%A8re","Rouyn-Noranda","QC","J9X 4K6","CA","94509","(819)762-7788","NEW_PC  PARTS   USED_PC ","48.2250054","-78.998501","<MISSING>","https://www.vw.ca/app/dccsearch/vw-ca/en/Volkswagen%20Dealer%20Search/+/53.835794350000015/-95.32055685/4/+/+/+/+"
"https://www.vw.ca","Les Automobiles Popular Inc.","5441 Rue Saint-Hubert","Montreal","QC","H2J 2Y4","CA","94706","(514)274-5471","E_SALES  E_SERVICE  NEW_PC  PARTS   USED_PC  WORKSHOP ","45.5308449","-73.5915434","<MISSING>","https://www.vw.ca/app/dccsearch/vw-ca/en/Volkswagen%20Dealer%20Search/+/53.835794350000015/-95.32055685/4/+/+/+/+"
"https://www.vw.ca","Campbell & Cameron Inc.","1855 Av Dollard","Lasalle","QC","H8N 1T9","CA","94707","(514)767-9961","NEW_PC  PARTS   USED_PC ","45.4299675","-73.6325631","<MISSING>","https://www.vw.ca/app/dccsearch/vw-ca/en/Volkswagen%20Dealer%20Search/+/53.835794350000015/-95.32055685/4/+/+/+/+"
"https://www.vw.ca","Volkswagen St-Hyacinthe","5705 Av Trudeau","Saint-Hyacinthe","QC","J2S 1H5","CA","94711","(450)773-9643","AWARD  E_SALES  E_SERVICE  NEW_PC  PARTS   USED_PC ","45.6373866","-72.9755152","<MISSING>","https://www.vw.ca/app/dccsearch/vw-ca/en/Volkswagen%20Dealer%20Search/+/53.835794350000015/-95.32055685/4/+/+/+/+"
"https://www.vw.ca","Arbour Volkswagen","2475 Boul Chomedey","Laval","QC","H7T 2R2","CA","94713","(450)681-8110","E_SALES  E_SERVICE  NEW_PC  PARTS   USED_PC ","45.565927","-73.761228","<MISSING>","https://www.vw.ca/app/dccsearch/vw-ca/en/Volkswagen%20Dealer%20Search/+/53.835794350000015/-95.32055685/4/+/+/+/+"
"https://www.vw.ca","Volkswagen Prestige","925 Boul Marcel-Laurin","Saint-Laurent","QC","H4M 2N1","CA","94718","(514)744-7777","E_SALES  E_SERVICE  NEW_PC  PARTS   USED_PC  WORKSHOP ","45.5091192","-73.6861732","<MISSING>","https://www.vw.ca/app/dccsearch/vw-ca/en/Volkswagen%20Dealer%20Search/+/53.835794350000015/-95.32055685/4/+/+/+/+"
"https://www.vw.ca","Valleyfield Volkswagen","3399 Boul Monseigneur-Langlois","Salaberry-De-Valleyfield","QC","J6S 4Y2","CA","94722","(450)371-5563","AWARD  E_SALES  E_SERVICE  NEW_PC  PARTS   USED_PC ","45.2727046","-74.0970958","<MISSING>","https://www.vw.ca/app/dccsearch/vw-ca/en/Volkswagen%20Dealer%20Search/+/53.835794350000015/-95.32055685/4/+/+/+/+"
"https://www.vw.ca","Complexe Volkswagen 440","3501 Rue Gaumont","Laval","QC","H7E 0G8","CA","94729","(450)665-6500","E_SALES  E_SERVICE  NEW_PC  PARTS   USED_PC ","45.6115237","-73.6807048","<MISSING>","https://www.vw.ca/app/dccsearch/vw-ca/en/Volkswagen%20Dealer%20Search/+/53.835794350000015/-95.32055685/4/+/+/+/+"
"https://www.vw.ca","Joliette Volkswagen","558 Rte 131","Notre-Dame-Des-Prairies","QC","J6E 0M2","CA","94732","(450)756-4515","E_SALES  E_SERVICE  NEW_PC  PARTS   USED_PC ","46.0621005","-73.4209314","<MISSING>","https://www.vw.ca/app/dccsearch/vw-ca/en/Volkswagen%20Dealer%20Search/+/53.835794350000015/-95.32055685/4/+/+/+/+"
"https://www.vw.ca","Carrefour 40-640 Volkswagen","90 Ch Des Quarante-Arpents","Charlemagne","QC","J5Z 0B5","CA","94733","(450)581-8946","NEW_PC  PARTS   USED_PC ","45.7312274","-73.4944371","<MISSING>","https://www.vw.ca/app/dccsearch/vw-ca/en/Volkswagen%20Dealer%20Search/+/53.835794350000015/-95.32055685/4/+/+/+/+"
"https://www.vw.ca","Volkswagen Sorel-Tracy","7025 Avenue Du Major-Beaudet","Sorel-Tracy","QC","J3R 4X9","CA","94737","(450)743-5522","NEW_PC  PARTS   USED_PC ","46.0168371","-73.1558873","<MISSING>","https://www.vw.ca/app/dccsearch/vw-ca/en/Volkswagen%20Dealer%20Search/+/53.835794350000015/-95.32055685/4/+/+/+/+"
"https://www.vw.ca","Volkswagen Laurentides","85 Rue John-F.-Kennedy","Saint-J%C3%A9r%C3%B4me","QC","J7Y 4B5","CA","94743","(450)438-4101","AWARD  E_SALES  E_SERVICE  EXPRESS_SERVICE  NEW_PC  PARTS   USED_PC ","45.7714878","-74.0217066","<MISSING>","https://www.vw.ca/app/dccsearch/vw-ca/en/Volkswagen%20Dealer%20Search/+/53.835794350000015/-95.32055685/4/+/+/+/+"
"https://www.vw.ca","Volkswagen Lauzon Blainville","1305 Boul Mich%C3%A8le-Bohec","Blainville","QC","J7C 0P8","CA","94752","(450)430-1460","E_SALES  E_SERVICE  NEW_PC  PARTS   USED_PC ","45.6763724","-73.9088479","<MISSING>","https://www.vw.ca/app/dccsearch/vw-ca/en/Volkswagen%20Dealer%20Search/+/53.835794350000015/-95.32055685/4/+/+/+/+"
"https://www.vw.ca","Volkswagen Lauzon St-Eustache","312 Rue Dubois","Saint-Eustache","QC","J7P 4W9","CA","94756","(450)623-8977","E_SALES  E_SERVICE  NEW_PC  PARTS   USED_PC ","45.5748808","-73.8969872","<MISSING>","https://www.vw.ca/app/dccsearch/vw-ca/en/Volkswagen%20Dealer%20Search/+/53.835794350000015/-95.32055685/4/+/+/+/+"
"https://www.vw.ca","Volkswagen Gabriel","210 Rte 132","Saint-Constant","QC","J5A 2C9","CA","94758","(450)692-7777","E_SALES  E_SERVICE  NEW_PC  PARTS   USED_PC ","45.3869312","-73.5628841","<MISSING>","https://www.vw.ca/app/dccsearch/vw-ca/en/Volkswagen%20Dealer%20Search/+/53.835794350000015/-95.32055685/4/+/+/+/+"
"https://www.vw.ca","Grenier Volkswagen","118 Montee Masson","Mascouche","QC","J7K 3B5","CA","94759","(450)474-2428","AWARD  E_SALES  E_SERVICE  NEW_PC  PARTS   USED_PC ","45.7233899","-73.6207852","<MISSING>","https://www.vw.ca/app/dccsearch/vw-ca/en/Volkswagen%20Dealer%20Search/+/53.835794350000015/-95.32055685/4/+/+/+/+"
"https://www.vw.ca","Automobiles Niquet","1905 Boul Sir-Wilfrid-Laurier","Saint-Bruno","QC","J3V 0G8","CA","94761","(450)653-1553","E_SALES  E_SERVICE  NEW_PC  PARTS   USED_PC ","45.5128132","-73.3458235","<MISSING>","https://www.vw.ca/app/dccsearch/vw-ca/en/Volkswagen%20Dealer%20Search/+/53.835794350000015/-95.32055685/4/+/+/+/+"
"https://www.vw.ca","Vallee Automobile Inc.","375 136e Rue","Saint-Georges","QC","G5Y 2N7","CA","94762","(418)228-2931","NEW_PC  PARTS   USED_PC ","46.1155233","-70.6610291","<MISSING>","https://www.vw.ca/app/dccsearch/vw-ca/en/Volkswagen%20Dealer%20Search/+/53.835794350000015/-95.32055685/4/+/+/+/+"
"https://www.vw.ca","Laval Volkswagen Ltee","777 Boul Charest O","Qu%C3%A9bec","QC","G1N 2C6","CA","94763","(418)687-4451","E_SALES  E_SERVICE  NEW_PC  PARTS   USED_PC ","46.803494","-71.244273","<MISSING>","https://www.vw.ca/app/dccsearch/vw-ca/en/Volkswagen%20Dealer%20Search/+/53.835794350000015/-95.32055685/4/+/+/+/+"
"https://www.vw.ca","Volkswagen des Sources","2311 Place Transcanadienne","Dorval","QC","H9P 2X7","CA","94765","(514)683-2030","E_SALES  E_SERVICE  NEW_PC  PARTS   USED_PC ","45.4786089","-73.7903571","<MISSING>","https://www.vw.ca/app/dccsearch/vw-ca/en/Volkswagen%20Dealer%20Search/+/53.835794350000015/-95.32055685/4/+/+/+/+"
"https://www.vw.ca","Centre Ville Volkswagen","324 Rue Peel","Montr%C3%A9al","QC","H3C 2G8","CA","94770","(514)846-1717","E_SALES  E_SERVICE  NEW_PC  PARTS   USED_PC ","45.4943699","-73.5611912","<MISSING>","https://www.vw.ca/app/dccsearch/vw-ca/en/Volkswagen%20Dealer%20Search/+/53.835794350000015/-95.32055685/4/+/+/+/+"
"https://www.vw.ca","Volkswagen de l'Estrie","4465 Boul Bourque","Sherbrooke","QC","J1N 1S4","CA","94774","(819)569-9111","E_SALES  E_SERVICE  NEW_PC  PARTS   USED_PC ","45.3779689","-71.9772686","<MISSING>","https://www.vw.ca/app/dccsearch/vw-ca/en/Volkswagen%20Dealer%20Search/+/53.835794350000015/-95.32055685/4/+/+/+/+"
"https://www.vw.ca","Saguenay Volkswagen","1910 Boul Saint-Paul","Chicoutimi","QC","G7K 1C9","CA","94777","(418)545-7575","E_SALES  E_SERVICE  NEW_PC  PARTS   USED_PC ","48.3964511","-71.1066727","<MISSING>","https://www.vw.ca/app/dccsearch/vw-ca/en/Volkswagen%20Dealer%20Search/+/53.835794350000015/-95.32055685/4/+/+/+/+"
"https://www.vw.ca","Drummondville Volkswagen","1500 Boul Rene-Levesque","Drummondville","QC","J2C 5W4","CA","94785","(819)477-8866","E_SALES  E_SERVICE  NEW_PC  PARTS   USED_PC ","45.8926112","-72.5222598","<MISSING>","https://www.vw.ca/app/dccsearch/vw-ca/en/Volkswagen%20Dealer%20Search/+/53.835794350000015/-95.32055685/4/+/+/+/+"
"https://www.vw.ca","Volkswagen Victoriaville","660 Rue Notre-Dame O","Victoriaville","QC","G6P 1T4","CA","94786","(819)758-1532","NEW_PC  PARTS   USED_PC ","46.0562055","-71.9766899","<MISSING>","https://www.vw.ca/app/dccsearch/vw-ca/en/Volkswagen%20Dealer%20Search/+/53.835794350000015/-95.32055685/4/+/+/+/+"
"https://www.vw.ca","Desjardins Volkswagen","7777 Boul Henri-Bourassa","Quebec","QC","G1H 3G1","CA","94787","(418)626-7777","NEW_PC  PARTS   USED_PC ","46.8613542","-71.2670592","<MISSING>","https://www.vw.ca/app/dccsearch/vw-ca/en/Volkswagen%20Dealer%20Search/+/53.835794350000015/-95.32055685/4/+/+/+/+"
"https://www.vw.ca","Rinfret Volkswagen","5355 Boul De La Rive-Sud","Levis","QC","G6V 4Z3","CA","94788","(418)833-2133","E_SALES  E_SERVICE  NEW_PC  PARTS   USED_PC ","46.7934156","-71.1806345","<MISSING>","https://www.vw.ca/app/dccsearch/vw-ca/en/Volkswagen%20Dealer%20Search/+/53.835794350000015/-95.32055685/4/+/+/+/+"
"https://www.vw.ca","Mauricie Volkswagen Inc.","1755 Boul. Arthur Rousseau","Trois-Rivieres","QC","G9B 0X4","CA","94791","(819)377-7777","E_SALES  E_SERVICE  NEW_PC  PARTS   USED_PC ","46.3163127","-72.5827911","<MISSING>","https://www.vw.ca/app/dccsearch/vw-ca/en/Volkswagen%20Dealer%20Search/+/53.835794350000015/-95.32055685/4/+/+/+/+"
"https://www.vw.ca","Michaud Volkswagen","110 Rue Monseigneur-Blanche","Sept-Iles","QC","G4R 3G5","CA","94799","(418)962-5622","NEW_PC  PARTS   USED_PC ","50.2048722","-66.3694421","<MISSING>","https://www.vw.ca/app/dccsearch/vw-ca/en/Volkswagen%20Dealer%20Search/+/53.835794350000015/-95.32055685/4/+/+/+/+"
"https://www.vw.ca","Rimar Volkswagen","5500 Boul Metropolitain E","Saint-L%C3%A9onard","QC","H1S 1A6","CA","94800","(514)253-4888","NEW_PC  PARTS   USED_PC ","45.5834351","-73.5868023","<MISSING>","https://www.vw.ca/app/dccsearch/vw-ca/en/Volkswagen%20Dealer%20Search/+/53.835794350000015/-95.32055685/4/+/+/+/+"
"https://www.vw.ca","Volkswagen Rimouski","379 Boul Arthur-Buies E","Rimouski","QC","G5M 0C7","CA","94802","(418)724-5180","AWARD  E_SALES  E_SERVICE  NEW_PC  PARTS   USED_PC ","48.4519468","-68.4983636","<MISSING>","https://www.vw.ca/app/dccsearch/vw-ca/en/Volkswagen%20Dealer%20Search/+/53.835794350000015/-95.32055685/4/+/+/+/+"
"https://www.vw.ca","Granby Volkswagen 1998 Inc.","1133 Rue Principale","Granby","QC","J2J 0M3","CA","94803","(450)372-4763","E_SALES  E_SERVICE  NEW_PC  PARTS   USED_PC ","45.4197972","-72.7693551","<MISSING>","https://www.vw.ca/app/dccsearch/vw-ca/en/Volkswagen%20Dealer%20Search/+/53.835794350000015/-95.32055685/4/+/+/+/+"
"https://www.vw.ca","Volkswagen New Richmond","218 Ch De Saint-Edgar","New Richmond","QC","G0C 2B0","CA","94806","(418)392-4414","E_SALES  E_SERVICE  NEW_PC  PARTS   USED_PC ","48.1650771","-65.8311559","<MISSING>","https://www.vw.ca/app/dccsearch/vw-ca/en/Volkswagen%20Dealer%20Search/+/53.835794350000015/-95.32055685/4/+/+/+/+"
"https://www.vw.ca","Langlois Volkswagen","6090 Boul Sainte-Anne","L'Ange Gardien","QC","G0A 2K0","CA","94810","(418)822-0671","E_SALES  E_SERVICE  NEW_PC  PARTS   USED_PC ","46.906902","-71.1052","<MISSING>","https://www.vw.ca/app/dccsearch/vw-ca/en/Volkswagen%20Dealer%20Search/+/53.835794350000015/-95.32055685/4/+/+/+/+"
"https://www.vw.ca","Grand Portage Volkswagen","305 Boul De L'otel-De-Ville","Rivi%C3%A8re-Du-Loup","QC","G5R 5S4","CA","94812","(418)862-3490","AWARD  NEW_PC  PARTS   USED_PC ","47.82208","-69.5566113","<MISSING>","https://www.vw.ca/app/dccsearch/vw-ca/en/Volkswagen%20Dealer%20Search/+/53.835794350000015/-95.32055685/4/+/+/+/+"
"https://www.vw.ca","Volkswagen Lachute","475 Av Bethany","Lachute","QC","J8H 4H3","CA","94824","(450)562-0281","NEW_PC  PARTS   USED_PC ","45.6405052","-74.3273783","<MISSING>","https://www.vw.ca/app/dccsearch/vw-ca/en/Volkswagen%20Dealer%20Search/+/53.835794350000015/-95.32055685/4/+/+/+/+"
"https://www.vw.ca","Park Avenue Volkswagen","8900 Boul Taschereau","Brossard","QC","J4X 1C2","CA","94825","(450)656-4811","E_SALES  E_SERVICE  NEW_PC  PARTS   USED_PC ","45.4394601","-73.4743609","<MISSING>","https://www.vw.ca/app/dccsearch/vw-ca/en/Volkswagen%20Dealer%20Search/+/53.835794350000015/-95.32055685/4/+/+/+/+"
"https://www.vw.ca","Vaudreuil Volkswagen","29 Boul De La Cite-Des-Jeunes","Vaudreuil-Dorion","QC","J7V 0N3","CA","94829","(450)455-7941","AWARD  E_SALES  E_SERVICE  NEW_PC  PARTS   USED_PC ","45.4132139","-74.0283063","<MISSING>","https://www.vw.ca/app/dccsearch/vw-ca/en/Volkswagen%20Dealer%20Search/+/53.835794350000015/-95.32055685/4/+/+/+/+"
"https://www.vw.ca","Duval Volkswagen Inc.","1301 Rue Amp%C3%A8re","Boucherville","QC","J4B 5Z5","CA","94848","(450)679-0890","NEW_PC  PARTS   USED_PC ","45.569873","-73.431521","<MISSING>","https://www.vw.ca/app/dccsearch/vw-ca/en/Volkswagen%20Dealer%20Search/+/53.835794350000015/-95.32055685/4/+/+/+/+"
"https://www.vw.ca","Haut-Richelieu Volkswagen Inc.","950 Rue Douglas","Saint-Jean-Sur-Richelieu","QC","J3A 1V1","CA","94849","(450)359-4222","E_SALES  E_SERVICE  NEW_PC  PARTS   USED_PC  WORKSHOP ","45.3336678","-73.2860542","<MISSING>","https://www.vw.ca/app/dccsearch/vw-ca/en/Volkswagen%20Dealer%20Search/+/53.835794350000015/-95.32055685/4/+/+/+/+"
"https://www.vw.ca","Alma Volkswagen","665 Av Du Pont S","Alma","QC","G8B 2V3","CA","94977","(418)662-7070","NEW_PC  PARTS   USED_PC ","48.5401766","-71.6453784","<MISSING>","https://www.vw.ca/app/dccsearch/vw-ca/en/Volkswagen%20Dealer%20Search/+/53.835794350000015/-95.32055685/4/+/+/+/+"
"https://www.vw.ca","Volkswagen Moncton","850 Av Aviation","Dieppe","NB","E1A 9A3","CA","95211","(506)857-0444","NEW_PC  PARTS   USED_PC ","46.1184507","-64.6892917","<MISSING>","https://www.vw.ca/app/dccsearch/vw-ca/en/Volkswagen%20Dealer%20Search/+/53.835794350000015/-95.32055685/4/+/+/+/+"
"https://www.vw.ca","Roussel Volkswagen","349 King George Hwy","Miramichi","NB","E1V 1L2","CA","95234","(506)622-7091","NEW_PC  PARTS   USED_PC ","46.9891729","-65.5761078","<MISSING>","https://www.vw.ca/app/dccsearch/vw-ca/en/Volkswagen%20Dealer%20Search/+/53.835794350000015/-95.32055685/4/+/+/+/+"
"https://www.vw.ca","Fredericton Volkswagen","14 Avonlea Crt","Fredericton","NB","E3C 1N8","CA","95243","(506)454-2886","AWARD  NEW_PC  PARTS   USED_PC  WORKSHOP ","45.9449968","-66.6891051","<MISSING>","https://www.vw.ca/app/dccsearch/vw-ca/en/Volkswagen%20Dealer%20Search/+/53.835794350000015/-95.32055685/4/+/+/+/+"
"https://www.vw.ca","Saint John Volkswagen","407 Rothesay Ave","Saint John","NB","E2J 2C3","CA","95245","(506)658-1313","NEW_PC  PARTS   USED_PC ","45.3038791","-66.0346013","<MISSING>","https://www.vw.ca/app/dccsearch/vw-ca/en/Volkswagen%20Dealer%20Search/+/53.835794350000015/-95.32055685/4/+/+/+/+"
"https://www.vw.ca","Brown's Volkswagen","190 Sherwood Rd","Charlottetown","PE","C1E 0E4","CA","95409","(902)892-5381","NEW_PC  PARTS   USED_PC ","46.2812376","-63.1489424","<MISSING>","https://www.vw.ca/app/dccsearch/vw-ca/en/Volkswagen%20Dealer%20Search/+/53.835794350000015/-95.32055685/4/+/+/+/+"
"https://www.vw.ca","Hillcrest Volkswagen","3154 Robie St","Halifax","NS","B3K 4P9","CA","95855","(902)453-2790","NEW_PC  PARTS   USED_PC ","44.6601324","-63.6038896","<MISSING>","https://www.vw.ca/app/dccsearch/vw-ca/en/Volkswagen%20Dealer%20Search/+/53.835794350000015/-95.32055685/4/+/+/+/+"
"https://www.vw.ca","Steele Volkswagen","696 Windmill Rd","Dartmouth","NS","B3B 2A5","CA","95862","(902)468-6411","NEW_PC  PARTS   USED_PC  WORKSHOP ","44.7026267","-63.6073547","<MISSING>","https://www.vw.ca/app/dccsearch/vw-ca/en/Volkswagen%20Dealer%20Search/+/53.835794350000015/-95.32055685/4/+/+/+/+"
"https://www.vw.ca","Jim Sampson Motors (1997) Limited","132 Townsend St","Sydney","NS","B1P 5E2","CA","95866","(902)539-1610","NEW_PC  PARTS   USED_PC ","46.134749","-60.191014","<MISSING>","https://www.vw.ca/app/dccsearch/vw-ca/en/Volkswagen%20Dealer%20Search/+/53.835794350000015/-95.32055685/4/+/+/+/+"
"https://www.vw.ca","Bridgewater Volkswagen","15109 Highway 3","Hebbville","NS","B4V 6X4","CA","95884","(902)543-3344","AWARD  NEW_PC  PARTS   USED_PC ","44.360432","-64.527828","<MISSING>","https://www.vw.ca/app/dccsearch/vw-ca/en/Volkswagen%20Dealer%20Search/+/53.835794350000015/-95.32055685/4/+/+/+/+"
"https://www.vw.ca","Vantage Motors","16 Meadow Dr","Truro","NS","B2N 5V4","CA","95886","(902)895-5383","NEW_PC  PARTS   USED_PC ","45.3687376","-63.3169377","<MISSING>","https://www.vw.ca/app/dccsearch/vw-ca/en/Volkswagen%20Dealer%20Search/+/53.835794350000015/-95.32055685/4/+/+/+/+"
"https://www.vw.ca","Valley Volkswagen","7181 Highway 1","Coldbrook","NS","B4R 1A2","CA","95887","(902)678-2155","NEW_PC  PARTS   USED_PC ","45.068067","-64.5668","<MISSING>","https://www.vw.ca/app/dccsearch/vw-ca/en/Volkswagen%20Dealer%20Search/+/53.835794350000015/-95.32055685/4/+/+/+/+"
"https://www.vw.ca","Bill Matthews Volkswagen","575 Kenmount Rd Stn A","St. John'S","NL","A1B 3P9","CA","95982","(709)726-4424","NEW_PC  PARTS   USED_PC ","47.5536333","-52.7693364","<MISSING>","https://www.vw.ca/app/dccsearch/vw-ca/en/Volkswagen%20Dealer%20Search/+/53.835794350000015/-95.32055685/4/+/+/+/+"
