locator_domain,location_name,street_address,city,state,zip,country_code,store_number,phone,location_type,latitude,longitude,hours_of_operation
https://www.everythingbutwater.com/company/stores,The Summit,310 Summit Boulevard,Birmingham,AL,35243,US,<MISSING>,2052988032,<MISSING>,<MISSING>,<MISSING>,"Mon-Sat 10-9, Sun 12-6"
https://www.everythingbutwater.com/company/stores,Scottsdale Fashion Square,7014 E Camelback Road,Scottsdale,AZ,85251,US,<MISSING>,4809414623,<MISSING>,<MISSING>,<MISSING>,"Mon-Sat 10-9, Sun 11-6"
https://www.everythingbutwater.com/company/stores,Kierland Commons,7030 E Greenway Parkway,Scottsdale,AZ,85254,US,<MISSING>,4808456570,<MISSING>,<MISSING>,<MISSING>,"Mon-Thurs 10-8, Fri-Sat 10-9, Sun 12-6"
https://www.everythingbutwater.com/company/stores,South Beverly Drive,238 S Beverly Drive,Beverly Hills,CA,90212,US,<MISSING>,3102754886,<MISSING>,<MISSING>,<MISSING>,"Mon-Sat 10-7, Sun 11-6"
https://www.everythingbutwater.com/company/stores,Brea,2058 Brea Mall,Brea,CA,92821,US,<MISSING>,7145292485,<MISSING>,<MISSING>,<MISSING>,"Mon-Sat 10-9, Sun 11-7"
https://www.everythingbutwater.com/company/stores,The Forum,1923 Calle Barcelona,Carlsbad,CA,92009,US,<MISSING>,7606326809,<MISSING>,<MISSING>,<MISSING>,"Mon-Sat 10-9, Sun 11-6"
https://www.everythingbutwater.com/company/stores,South Coast Plaza,3333 Bear Street,Costa Mesa,CA,92626,US,<MISSING>,7145408523,<MISSING>,<MISSING>,<MISSING>,"Mon-Fri 10-9, Sat 10-8, Sun 11-6:30"
https://www.everythingbutwater.com/company/stores,Westfield Century City,10250 Santa Monica Boulevard,Los Angeles,CA,90067,US,<MISSING>,3108439734,<MISSING>,<MISSING>,<MISSING>,"Mon-Sat 10-9, Sun 11-7"
https://www.everythingbutwater.com/company/stores,Malibu Sands,22333 Pacific Coast Highway,Malibu,CA,90265,US,<MISSING>,3103170747,<MISSING>,<MISSING>,<MISSING>,Mon-Sun 10-6
https://www.everythingbutwater.com/company/stores,Waterside at Marina del Rey,4724 1/4 Admiralty Way,Marina del Rey,CA,90292,US,<MISSING>,3103013814,<MISSING>,<MISSING>,<MISSING>,"Mon-Thurs 10-7, Fri-Sat 10-8, Sun 11-7"
https://www.everythingbutwater.com/company/stores,The Shops at Mission Viejo,555 The Shops Boulevard,Mission Viejo,CA,92691,US,<MISSING>,9493477056,<MISSING>,<MISSING>,<MISSING>,"Mon-Fri 10-9, Sat 10-8, Sun 11-6"
https://www.everythingbutwater.com/company/stores,Stanford Shopping Center,1240 Stanford Shopping Center,Palo Alto,CA,94304,US,<MISSING>,6506652444,<MISSING>,<MISSING>,<MISSING>,"Mon-Fri 10-9, Sat 10-7, Sun 11-6"
https://www.everythingbutwater.com/company/stores,Fashion Valley,7007 Friars Road,San Diego,CA,92108,US,<MISSING>,6196100079,<MISSING>,<MISSING>,<MISSING>,"Mon-Sat 10-9, Sun 11-7"
https://www.everythingbutwater.com/company/stores,Santana Row,333 Santana Row,San Jose,CA,95128,US,<MISSING>,6692455599,<MISSING>,<MISSING>,<MISSING>,"Mon-Sat 10-9, Sun 11-6"
https://www.everythingbutwater.com/company/stores,Santa Monica,220 26th Street,Santa Monica,CA,90402,US,<MISSING>,4242807896,<MISSING>,<MISSING>,<MISSING>,"Mon-Sat 10-7, Sun 11-6"
https://www.everythingbutwater.com/company/stores,Broadway Plaza,1235 Broadway Plaza,Walnut Creek,CA,94596,US,<MISSING>,9259302980,<MISSING>,<MISSING>,<MISSING>,"Mon-Fri 10-9, Sat 10-7, Sun 11-6"
https://www.everythingbutwater.com/company/stores,The Village at Topanga,6320 Topanga Canyon Boulevard,Woodland Hills,CA,91367,US,<MISSING>,8189142448,<MISSING>,<MISSING>,<MISSING>,"Mon-Thu 10-8, Fri-Sat 10-9, Sun 11-8"
https://www.everythingbutwater.com/company/stores,Cherry Creek Center,3000 E 1st Avenue,Denver,CO,80206,US,<MISSING>,3033299416,<MISSING>,<MISSING>,<MISSING>,"Mon-Sat 10-9, Sun 11-6"
https://www.everythingbutwater.com/company/stores,Park Meadows,8505 Park Meadows Center Drive,Lone Tree,CO,80124,US,<MISSING>,3037996810,<MISSING>,<MISSING>,<MISSING>,"Mon-Sat 10-9, Sun 11-6"
https://www.everythingbutwater.com/company/stores,Westfarms,500 Westfarms Mall,Farmington,CT,06032,US,<MISSING>,8605613023,<MISSING>,<MISSING>,<MISSING>,"Mon-Sat 10-9, Sun 11-6"
https://www.everythingbutwater.com/company/stores,Greenwich Avenue,84 Greenwich Avenue,Greenwich,CT,06830,US,<MISSING>,2036221878,<MISSING>,<MISSING>,<MISSING>,"Mon-Sat 10-6, Sun 12-5"
https://www.everythingbutwater.com/company/stores,Aventura,19501 Biscayne Boulevard,Aventura,FL,33180,US,<MISSING>,3057490138,<MISSING>,<MISSING>,<MISSING>,"Mon-Sat 10-9:30, Sun 12-8"
https://www.everythingbutwater.com/company/stores,Town Center at Boca Raton,6000 Glades Road,Boca Raton,FL,33431,US,<MISSING>,5619551960,<MISSING>,<MISSING>,<MISSING>,"Mon-Sat 10-9, Sun 12-6"
https://www.everythingbutwater.com/company/stores,Chadwick's Square,14830 Captiva Drive,Captiva,FL,33924,US,<MISSING>,2393955383,<MISSING>,<MISSING>,<MISSING>,"Mon-Sat 9-6, Sun 12-6"
https://www.everythingbutwater.com/company/stores,Destin Commons,4271 Legendary Drive,Destin,FL,32541,US,<MISSING>,8508373557,<MISSING>,<MISSING>,<MISSING>,"Mon-Sat 10-9, Sun 11-7"
https://www.everythingbutwater.com/company/stores,Coconut Point Town Center,23160 Fashion Drive,Estero,FL,33928,US,<MISSING>,2393909138,<MISSING>,<MISSING>,<MISSING>,"Mon-Sat 10-9, Sun 12-6"
https://www.everythingbutwater.com/company/stores,Santini Marina Plaza,7205 Estero Boulevard,Fort Myers Beach,FL,33931,US,<MISSING>,2397655050,<MISSING>,<MISSING>,<MISSING>,"Mon-Sat 9-6, Sun 11-5"
https://www.everythingbutwater.com/company/stores,Disney Springs,1520 E Buena Vista Drive #P,Lake Buena Vista,FL,32830,US,<MISSING>,4075609160,<MISSING>,<MISSING>,<MISSING>,"Mon-Thu 10-11, Fri-Sat 10-11:30, Sun 10-11"
https://www.everythingbutwater.com/company/stores,Plaza Del Mar,267 S Ocean Boulevard,Manalapan,FL,33462,US,<MISSING>,5615858211,<MISSING>,<MISSING>,<MISSING>,Mon-Sun 10-6
https://www.everythingbutwater.com/company/stores,Marco Town Center,1089 N Collier Boulevard,Marco Island,FL,34145,US,<MISSING>,2396429171,<MISSING>,<MISSING>,<MISSING>,"Mon-Sat 10-6, Sun 11-5"
https://www.everythingbutwater.com/company/stores,Dadeland,7535 N Kendall Drive,Miami,FL,33156,US,<MISSING>,3056678593,<MISSING>,<MISSING>,<MISSING>,"Mon-Sat 10-9:30, Sun 12-7"
https://www.everythingbutwater.com/company/stores,1 Hotel South Beach,2323 Collins Avenue,Miami Beach,FL,33139,US,<MISSING>,7865425110,<MISSING>,<MISSING>,<MISSING>,"Mon - Sat 10-8, Sun 11-7"
https://www.everythingbutwater.com/company/stores,The Village on Venetian Bay,4350 Gulf Shore Boulevard N,Naples,FL,34103,US,<MISSING>,2396592782,<MISSING>,<MISSING>,<MISSING>,"Mon-Sat 10-6, Sun 12-5"
https://www.everythingbutwater.com/company/stores,Waterside Shops,5485 Tamiami Trail N,Naples,FL,34108,US,<MISSING>,2392541377,<MISSING>,<MISSING>,<MISSING>,"Mon-Sat 10-7, Sun 12-6"
https://www.everythingbutwater.com/company/stores,Millenia,4200 Conroy Road,Orlando,FL,32839,US,<MISSING>,4073455451,<MISSING>,<MISSING>,<MISSING>,"Mon-Sat 10-9, Sun 11-7"
https://www.everythingbutwater.com/company/stores,The Royal Poinciana Plaza,340 Royal Poinciana Way,Palm Beach,FL,33480,US,<MISSING>,5618201564,<MISSING>,<MISSING>,<MISSING>,"Mon-Sat 10-6, Sun 11-5"
https://www.everythingbutwater.com/company/stores,The Gardens,3101 PGA Boulevard,Palm Beach Gardens,FL,33410,US,<MISSING>,5616275267,<MISSING>,<MISSING>,<MISSING>,"Mon-Sat 10-9, Sun 12-6"
https://www.everythingbutwater.com/company/stores,The Gardens,3101 PGA Boulevard,Palm Beach Gardens,FL,33410,US,<MISSING>,5616146440,<MISSING>,<MISSING>,<MISSING>,"Mon-Sat 10-9, Sun 12-6"
https://www.everythingbutwater.com/company/stores,Periwinkle Place,2075 Periwinkle Way,Sanibel,FL,33957,US,<MISSING>,2394722676,<MISSING>,<MISSING>,<MISSING>,"Mon-Sat 10-6, Sun 12-6"
https://www.everythingbutwater.com/company/stores,St. Armands Circle,331 John Ringling Boulevard,Sarasota,FL,34236,US,<MISSING>,9413881205,<MISSING>,<MISSING>,<MISSING>,"Mon-Sat 10-9, Sun 11-6"
https://www.everythingbutwater.com/company/stores,University Town Center,140 University Town Center Drive,Sarasota,FL,34243,US,<MISSING>,9414872765,<MISSING>,<MISSING>,<MISSING>,"Mon-Sat 10-9, Sun 11-6"
https://www.everythingbutwater.com/company/stores,International Plaza,2223 N West Shore Boulevard,Tampa,FL,33607,US,<MISSING>,8138715918,<MISSING>,<MISSING>,<MISSING>,"Mon-Sat 10-9, Sun 11-6"
https://www.everythingbutwater.com/company/stores,The Village Shops,6220 N Highway A1A,Vero Beach,FL,32963,US,<MISSING>,7724921097,<MISSING>,<MISSING>,<MISSING>,Temporarily Closed
https://www.everythingbutwater.com/company/stores,Avalon,4150 Avalon Parkway,Alpharetta,GA,30009,US,<MISSING>,6782485215,<MISSING>,<MISSING>,<MISSING>,"Mon-Sat 10-9, Sun 12-7"
https://www.everythingbutwater.com/company/stores,Buckhead,3145 Peachtree Road NE,Atlanta,GA,30305,US,<MISSING>,4042390612,<MISSING>,<MISSING>,<MISSING>,"Mon-Sat 10-7, Sun 12-6"
https://www.everythingbutwater.com/company/stores,Phipps Plaza,3500 Peachtree Road NE,Atlanta,GA,30326,US,<MISSING>,4042602910,<MISSING>,<MISSING>,<MISSING>,"Mon-Sat 10-9, Sun 12-5:30"
https://www.everythingbutwater.com/company/stores,Deer Park Town Center,20530 N Rand Road,Deer Park,IL,60010,US,<MISSING>,8477260150,<MISSING>,<MISSING>,<MISSING>,"Mon-Sat 10-9, Sun 12-5"
https://www.everythingbutwater.com/company/stores,Northbrook Court,2104 Northbrook Court,Northbrook,IL,60062,US,<MISSING>,8472727601,<MISSING>,<MISSING>,<MISSING>,"Mon-Sat 10-9, Sun 11-6"
https://www.everythingbutwater.com/company/stores,Oakbrook Center,36 Oakbrook Center,Oak Brook,IL,60523,US,<MISSING>,7084416345,<MISSING>,<MISSING>,<MISSING>,"Mon-Sat 10-9, Sun 11-6"
https://www.everythingbutwater.com/company/stores,Woodfield,5 Woodfield Shopping Center,Schaumburg,IL,60173,US,<MISSING>,8474131645,<MISSING>,<MISSING>,<MISSING>,"Mon-Sat 10-9, Sun 11-6"
https://www.everythingbutwater.com/company/stores,Westfield Montgomery,7101 Democracy Boulevard,Bethesda,MD,20817,US,<MISSING>,3013650954,<MISSING>,<MISSING>,<MISSING>,"Mon-Sat 10-9, Sun 11-7"
https://www.everythingbutwater.com/company/stores,Burlington,75 Middlesex Turnpike,Burlington,MA,01803,US,<MISSING>,7812218499,<MISSING>,<MISSING>,<MISSING>,"Mon-Sat 10-9, Sun 11-6"
https://www.everythingbutwater.com/company/stores,Derby Street Shoppes,92 Derby Street,Hingham,MA,02043,US,<MISSING>,7817402710,<MISSING>,<MISSING>,<MISSING>,"Mon-Sat 10-9, Sun 11-6"
https://www.everythingbutwater.com/company/stores,MarketStreet Lynnfield,1325 Market Street,Lynnfield,MA,01940,US,<MISSING>,7813344131,<MISSING>,<MISSING>,<MISSING>,"Mon-Sat 10-9, Sun 11-6"
https://www.everythingbutwater.com/company/stores,Natick,1245 Worcester Street,Natick,MA,01760,US,<MISSING>,5086517688,<MISSING>,<MISSING>,<MISSING>,"Mon-Sat 10-9, Sun 11-6"
https://www.everythingbutwater.com/company/stores,Twelve Oaks,27500 Novi Road,Novi,MI,48377,US,<MISSING>,2483749498,<MISSING>,<MISSING>,<MISSING>,"Mon-Sat 10-9, Sun 11-6"
https://www.everythingbutwater.com/company/stores,Somerset Collection,2800 W Big Beaver Road,Troy,MI,48084,US,<MISSING>,2486496947,<MISSING>,<MISSING>,<MISSING>,"Mon-Sat 10-9, Sun 12-6"
https://www.everythingbutwater.com/company/stores,Mall of America,60 E Broadway,Bloomington,MN,55425,US,<MISSING>,9528589563,<MISSING>,<MISSING>,<MISSING>,"Mon-Sat 10-9:30, Sat 9:30-9:30, Sun 11-7"
https://www.everythingbutwater.com/company/stores,West County Center,143 West County Center,St Louis,MO,63131,US,<MISSING>,3149091928,<MISSING>,<MISSING>,<MISSING>,"Mon-Sat 10-9, Sun 11-6"
https://www.everythingbutwater.com/company/stores,Fashion Show,3200 Las Vegas Boulevard,Las Vegas,NV,89109,US,<MISSING>,7027347946,<MISSING>,<MISSING>,<MISSING>,"Mon-Sat 10-9, Sun 11-7"
https://www.everythingbutwater.com/company/stores,Freehold Raceway,3710 Route 9,Freehold,NJ,07728,US,<MISSING>,7325778577,<MISSING>,<MISSING>,<MISSING>,"Mon-Sat 10-9:30, Sun 11-7"
https://www.everythingbutwater.com/company/stores,Westfield Garden State Plaza,One Garden State Plaza,Paramus,NJ,07652,US,<MISSING>,2013671350,<MISSING>,<MISSING>,<MISSING>,"Mon-Sat 10-9:30, Sun closed"
https://www.everythingbutwater.com/company/stores,The Mall at Short Hills,1200 Morris Turnpike,Short Hills,NJ,07078,US,<MISSING>,9732180594,<MISSING>,<MISSING>,<MISSING>,"Mon-Fri 10-9, Sat 10-8, Sun 11-6"
https://www.everythingbutwater.com/company/stores,East Hampton,66 Newtown Lane,East Hampton,NY,11937,US,<MISSING>,6313245693,<MISSING>,<MISSING>,<MISSING>,Mon-Sun 10-6
https://www.everythingbutwater.com/company/stores,Roosevelt Field,630 Old Country Road,Garden City,NY,11530,US,<MISSING>,5162140077,<MISSING>,<MISSING>,<MISSING>,"Mon-Sat 10-9:30, Sun 11-7"
https://www.everythingbutwater.com/company/stores,Walt Whitman Shops,160 Walt Whitman Road,Huntington Station,NY,11746,US,<MISSING>,6319449835,<MISSING>,<MISSING>,<MISSING>,"Mon-Sat 10-9, Sun 11-7"
https://www.everythingbutwater.com/company/stores,East 17th Street,3 East 17th Street,New York,NY,10003,US,<MISSING>,2126200271,<MISSING>,<MISSING>,<MISSING>,"Mon-Sat 10-8, Sun 11-6"
https://www.everythingbutwater.com/company/stores,Madison Avenue,1060 Madison Avenue,New York,NY,10028,US,<MISSING>,2122494052,<MISSING>,<MISSING>,<MISSING>,"Mon-Sat 10-6, Sun 12-5"
https://www.everythingbutwater.com/company/stores,The Westchester,125 Westchester Avenue,White Plains,NY,10601,US,<MISSING>,9143288063,<MISSING>,<MISSING>,<MISSING>,"Mon-Sat 10-9, Sun 11-6:30"
https://www.everythingbutwater.com/company/stores,SouthPark,4400 Sharon Road,Charlotte,NC,28211,US,<MISSING>,7047700248,<MISSING>,<MISSING>,<MISSING>,"Mon-Sat 10-9, Sun 11-7"
https://www.everythingbutwater.com/company/stores,Emerald Isle,8305 Emerald Drive,Emerald Isle,NC,28594,US,<MISSING>,2523543151,<MISSING>,<MISSING>,<MISSING>,"Mon-Wed 10-7, Thu-Sat 9-7, Sun 12-6"
https://www.everythingbutwater.com/company/stores,Kenwood Towne Centre,7875 Montgomery Road,Cincinnati,OH,45236,US,<MISSING>,5137914862,<MISSING>,<MISSING>,<MISSING>,"Mon-Sat 10-9, Sun 12-6"
https://www.everythingbutwater.com/company/stores,Suburban Square,51 St James Place,Ardmore,PA,19003,US,<MISSING>,6106426900,<MISSING>,<MISSING>,<MISSING>,"Mon-Sat 10-8, Sun 12-6"
https://www.everythingbutwater.com/company/stores,King of Prussia,160 N Gulph Road,King of Prussia,PA,19406,US,<MISSING>,4846903315,<MISSING>,<MISSING>,<MISSING>,"Mon-Sat 10-9, Sun 11-6"
https://www.everythingbutwater.com/company/stores,The Shops at Belmond Charleston Place,193 Meeting Street,Charleston,SC,29401,US,<MISSING>,8437225884,<MISSING>,<MISSING>,<MISSING>,"Mon-Wed 10-6, Thu-Sat 10-8, Sun 12-5"
https://www.everythingbutwater.com/company/stores,Shops of Saddle Creek,7509 Poplar Avenue,Germantown,TN,38138,US,<MISSING>,9016466266,<MISSING>,<MISSING>,<MISSING>,"Mon-Sat 10-8, Sun 12-5:30"
https://www.everythingbutwater.com/company/stores,Green Hills,2126 Abbott Martin Road,Nashville,TN,37215,US,<MISSING>,6152798126,<MISSING>,<MISSING>,<MISSING>,"Mon-Sat 10-9, Sun 12-6"
https://www.everythingbutwater.com/company/stores,Domain North Side,3211 Palm Way,Austin,TX,78758,US,<MISSING>,5128339410,<MISSING>,<MISSING>,<MISSING>,"Mon-Sat 10-8, Sun 12-6"
https://www.everythingbutwater.com/company/stores,Arboretum,10000 Research Boulevard,Austin,TX,78759,US,<MISSING>,5123462682,<MISSING>,<MISSING>,<MISSING>,"Mon-Sat 10-8, Sun 12-6"
https://www.everythingbutwater.com/company/stores,Hill Country Galleria,12700 Hill Country Boulevard,Bee Cave,TX,78738,US,<MISSING>,5122632537,<MISSING>,<MISSING>,<MISSING>,"Mon-Sat 10-8, Sun 12-6"
https://www.everythingbutwater.com/company/stores,NorthPark Center,8687 N Central Expressway,Dallas,TX,75225,US,<MISSING>,2149872884,<MISSING>,<MISSING>,<MISSING>,"Mon-Sat 10-9, Sun 12-6"
https://www.everythingbutwater.com/company/stores,Preston Center,6139 Luther Lane,Dallas,TX,75225,US,<MISSING>,2146915881,<MISSING>,<MISSING>,<MISSING>,"Mon-Sat 10-7, Sun 12-6"
https://www.everythingbutwater.com/company/stores,Shops at Clearfork,5221 Marathon Avenue,Fort Worth,TX,76109,US,<MISSING>,8175273054,<MISSING>,<MISSING>,<MISSING>,"Mon-Sat 10-7, Sun 12-6"
https://www.everythingbutwater.com/company/stores,Town & Country Village,780 W Sam Houston Parkway,Houston,TX,77024,US,<MISSING>,7134612672,<MISSING>,<MISSING>,<MISSING>,"Mon-Sat 10-6, Sun 12-5"
https://www.everythingbutwater.com/company/stores,Houston Galleria,5085 Westheimer Road,Houston,TX,77056,US,<MISSING>,2816613924,<MISSING>,<MISSING>,<MISSING>,"Mon-Sat 10-9, Sun 11-7"
https://www.everythingbutwater.com/company/stores,Shops at Willow Bend,6121 W Park Boulevard,Plano,TX,75093,US,<MISSING>,4693661070,<MISSING>,<MISSING>,<MISSING>,"Mon-Sat 10-9, Sun 12-6"
https://www.everythingbutwater.com/company/stores,Preston Park Village,1900 Preston Road,Plano,TX,75093,US,<MISSING>,9726120976,<MISSING>,<MISSING>,<MISSING>,"Mon-Sat 10-7, Sun 12-6"
https://www.everythingbutwater.com/company/stores,Alamo Quarry Market,255 E Basse Road,San Antonio,TX,78209,US,<MISSING>,2108265256,<MISSING>,<MISSING>,<MISSING>,"Mon-Sat 10-7, Sun 12-6"
https://www.everythingbutwater.com/company/stores,The Shops at La Cantera,15900 La Cantera Parkway,San Antonio,TX,78256,US,<MISSING>,2105588979,<MISSING>,<MISSING>,<MISSING>,"Mon-Sat 10-9, Sun 12-6"
https://www.everythingbutwater.com/company/stores,Southlake Town Square,1447 Main Street,Southlake,TX,76092,US,<MISSING>,8174219798,<MISSING>,<MISSING>,<MISSING>,"Mon-Sat 10-8, Sun 12-6"
https://www.everythingbutwater.com/company/stores,Market Street,9595 Six Pines Drive,The Woodlands,TX,77380,US,<MISSING>,2812924635,<MISSING>,<MISSING>,<MISSING>,"Mon-Sat 10-7, Sun 12-6"
https://www.everythingbutwater.com/company/stores,Tysons Corner Center,1961 Chain Bridge Road,Mclean,VA,22102,US,<MISSING>,7037481987,<MISSING>,<MISSING>,<MISSING>,"Mon-Sat 10-9:30, Sun 11-7"
https://www.everythingbutwater.com/company/stores,MacArthur Center,300 Monticello Avenue,Norfolk,VA,23510,US,<MISSING>,7576238302,<MISSING>,<MISSING>,<MISSING>,"Mon-Sat 10-9, Sun 12-6"
https://www.everythingbutwater.com/company/stores,Short Pump Town Center,11800 W Broad Street,Richmond,VA,23233,US,<MISSING>,8043644763,<MISSING>,<MISSING>,<MISSING>,"Mon-Sat 10-9, Sun 11-6"
https://www.everythingbutwater.com/company/stores,Bellevue Square,202 Bellevue Square,Bellevue,WA,98004,US,<MISSING>,4257493702,<MISSING>,<MISSING>,<MISSING>,"Mon-Sat 9:30-9:30, Sun 11-7"
https://www.everythingbutwater.com/company/stores,University Village,2678 NE University Village Street,Seattle,WA,98105,US,<MISSING>,2065251101,<MISSING>,<MISSING>,<MISSING>,"Mon-Sat 9:30-9, Sun 11-6"
https://www.everythingbutwater.com/company/stores,Plaza Las Americas,525 Avenida FD Roosevelt,San Juan,PR,00918,US,<MISSING>,7877678821,<MISSING>,<MISSING>,<MISSING>,"Mon-Sat 9-9, Sun 11-7"
