"locator_domain","location_name","street_address","city","state","zip","country_code","store_number","phone","location_type","latitude","longitude","hours_of_operation"
"https://www.skyzone.com/","Kansas City","6495 Quivira Rd","Shawnee","KS","66216","US","22","(913) 213-5900","<MISSING>","39.0116647","-94.7218846","3:00 PM to  8:00 PM"
"https://www.skyzone.com/","Guam","302 Route 4, Space 300","Hagatna","GU","96910","US","190","(671) 969-9663","<MISSING>","13.4387974","144.7770501","10:00 AM to  9:00 PM"
"https://www.skyzone.com/","McAllen","<MISSING>","<MISSING>","TX","<MISSING>","US","164","<MISSING>","<MISSING>","31.9685988","-99.9018131","<MISSING>"
"https://www.skyzone.com/","Syracuse","3179 Erie Blvd E","Syracuse","NY","13214","US","70","(315) 928-3737","<MISSING>","43.0549451","-76.0736004","10:00 AM to  8:00 PM"
"https://www.skyzone.com/","Deer Park","111 Rodeo Dr","Deer Park","NY","11717","US","54","(631) 392-2600","<MISSING>","40.7771033","-73.2887854","11:00 AM to  2:00 PM"
"https://www.skyzone.com/","Jackson","65 East Park Square","Jackson","TN","38305","US","49","(731) 868-4418","<MISSING>","35.6772102","-88.7753099","12:00 PM to  4:00 PM"
"https://www.skyzone.com/","Columbia","7175 Oakland Mills Rd","Columbia","MD","21046","US","44","(443) 545-8377","<MISSING>","39.1739843","-76.8274409","4:00 PM to  8:00 PM"
"https://www.skyzone.com/","Sioux Falls","5129 South Solberg Ave","Sioux Falls","SD","57108","US","31","(605) 553-9910","<MISSING>","43.498346","-96.782255","3:00 PM to  8:00 PM"
"https://www.skyzone.com/","Tampa","10137 E Adamo Dr, Ste 800B","Tampa","FL","33619","US","100","(813) 833-1740","<MISSING>","27.9429683","-82.3402614","3:00 PM to  8:00 PM"
"https://www.skyzone.com/","Florence","250 Mangum Street","Florence","AL","35630","US","138","(256) 980-1700","<MISSING>","34.8325954","-87.6261693","4:00 PM to  8:00 PM"
"https://www.skyzone.com/","Colorado Springs","1750 E Woodmen Rd","Colorado Springs","CO","80920","US","61","(719) 354-2626","<MISSING>","38.9339938","-104.7950734","3:00 PM to  8:00 PM"
"https://www.skyzone.com/","Ocean Township","2355 State Highway 66","Ocean Township","NJ","07712","US","84","(732) 200-4344","<MISSING>","40.2276204","-74.0450182","4:00 PM to  8:00 PM"
"https://www.skyzone.com/","Mishawaka","5604 Grape Road","Mishawaka ","IN","46545","US","115","(574) 208-5005","<MISSING>","41.7112141","-86.1837893","4:00 PM to  8:00 PM"
"https://www.skyzone.com/","Doral","5450 NW 82nd Ave","Doral","FL","33166","US","23","(305) 640-5424","<MISSING>","25.8236139","-80.3299974","3:00 PM to  9:00 PM"
"https://www.skyzone.com/","Bethel","13 Francis J Clarke Circle","Bethel","CT","06801","US","55","(203) 902-5436","<MISSING>","41.360436","-73.426443","<MISSING>"
"https://www.skyzone.com/","Moncton","40 Champlain Street","Dieppe","NB","E1A 1N3","CA","169","(506) 386-3863","<MISSING>","46.0933","-64.7574999","10:00 AM to  9:00 PM"
"https://www.skyzone.com/","London","784 Wharncliffe Road South","London","ON","N6J2N4","CA","202","(519) 914-9663","<MISSING>","42.9437086","-81.2563363","10:00 AM to  9:00 PM"
"https://www.skyzone.com/","Canton","42550 Executive Drive","Canton","MI","48188","US","21","(734) 981-0007","<MISSING>","42.2791782","-83.4591033","4:00 PM to  8:00 PM"
"https://www.skyzone.com/","Toledo","1600 Albon Road","Holland","OH","43528","US","96","(419) 491-1194","<MISSING>","41.6118549","-83.7382703","4:00 PM to  8:00 PM"
"https://www.skyzone.com/","Springfield","5325 Port Royal Road","Springfield","VA","22151","US","200","(703) 688-2275","<MISSING>","38.806736","-77.215911","4:00 PM to  8:00 PM"
"https://www.skyzone.com/","Gaithersburg","15813 Gaither Dr","Gaithersburg","MD","20877","US","97","(202) 792-8404","<MISSING>","39.1165215","-77.1912586","4:00 PM to  8:00 PM"
"https://www.skyzone.com/","Wallingford","805 N Colony Rd","Wallingford","CT","06492","US","81","(203) 269-2000","<MISSING>","41.477474","-72.813304","4:00 PM to  8:00 PM"
"https://www.skyzone.com/","Kingston","Kingston Collection Mall, 101 Kingston Collection Way","Kingston","MA","02364","US","102","(781) 514-7595","<MISSING>","41.9705054","-70.7161642","2:00 PM to  8:00 PM"
"https://www.skyzone.com/","Mt. Sinai","269 Route 25A","Mount Sinai","NY","11766","US","89","(631) 619-9771","<MISSING>","40.9328428","-73.0307275","4:00 PM to  8:00 PM"
"https://www.skyzone.com/","Waldorf","4390 Crain Hwy.","White Plains","MD","20695","US","142","(301) 861-2600","<MISSING>","38.591215","-76.940276","4:00 PM to  8:00 PM"
"https://www.skyzone.com/","Greenfield","4940 South 76th Street","Greenfield","WI","53220","US","198","(414) 409-8150","<MISSING>","42.954985","-88.007187","4:00 PM to  8:00 PM"
"https://www.skyzone.com/","Madison","2134 W Beltline Hwy","Madison","WI","53713","US","181","(608) 856-5867","<MISSING>","43.0367226","-89.4147297","Closed Today"
"https://www.skyzone.com/","McDonough","165 Mill Road","McDonough","GA","30253","US","125","(770) 914-9444","<MISSING>","33.4584917","-84.2100548","4:00 PM to  8:00 PM"
"https://www.skyzone.com/","Tulsa","8306 E 61st St","Tulsa","OK","74133","US","51","(918) 877-7700","<MISSING>","36.073947","-95.8839752","4:00 PM to  8:00 PM"
"https://www.skyzone.com/","Fort Lauderdale","1834 SW 2nd St","Pompano Beach","FL","33069","US","56","(954) 417-3999","<MISSING>","26.2282294","-80.1475031","3:30 PM to  8:00 PM"
"https://www.skyzone.com/","Burnsville","<MISSING>","Burnsville","MN","<MISSING>","US","193","<MISSING>","<MISSING>","44.7677424","-93.2777226","<MISSING>"
"https://www.skyzone.com/","Westlake","31500 Viking Parkway","Westlake","OH","44145","US","40","(440) 467-5867","<MISSING>","41.4722023","-81.9672933","4:00 PM to  7:00 PM"
"https://www.skyzone.com/","Charleston","500 Southridge Boulevard","Charleston","WV","25309","US","191","(304) 833-9663","<MISSING>","38.3168435","-81.713073","4:30 PM to  8:00 PM"
"https://www.skyzone.com/","Hamilton","17 Quakerbridge Plaza Drive, Unit B","Hamilton Township","NJ","08619","US","162","(609) 587-5867","<MISSING>","40.2540242","-74.6827757","4:00 PM to  8:00 PM"
"https://www.skyzone.com/","Indy South","4150 Kildeer Dr.","Indianapolis","IN","46237","US","137","(317) 759-9925","<MISSING>","39.6681291","-86.0952885","4:00 PM to  8:00 PM"
"https://www.skyzone.com/","San Marcos","860 Los Vallecitos Blvd.","San Marcos","CA","92069","US","94","(858) 779-2377","<MISSING>","33.1409915","-117.1827891","10:00 AM to  9:00 PM"
"https://www.skyzone.com/","Parker","9851 S. Parker Rd","Parker","CO","80134","US","86","(720) 214-2000","<MISSING>","39.5378954","-104.7706903","3:00 PM to  8:00 PM"
"https://www.skyzone.com/","Boston Heights","6217 Chittenden Road","Boston Heights","OH","44236","US","77","(234) 249-3030","<MISSING>","41.235987028662","-81.491180661077","4:00 PM to  8:00 PM"
"https://www.skyzone.com/","Minneapolis","7625 Cahill Road","Edina","MN","55439","US","6","(952) 641-0834","<MISSING>","44.8650576","-93.3627754","4:00 PM to  8:00 PM"
"https://www.skyzone.com/","Elmhurst","325 W Lake St. Ste A","Elmhurst","IL","60126","US","57","(630) 478-8339","<MISSING>","41.9180178","-87.9483001","12:00 PM to  8:00 PM"
"https://www.skyzone.com/","Fargo","940 40th St South","Fargo","ND","58103","US","83","(701) 478-8484","<MISSING>","46.8662746","-96.8480307","3:30 PM to  8:00 PM"
"https://www.skyzone.com/","Kennesaw","1650 Airport Rd NW Suite 105","Kennesaw","GA","30144","US","32","(678) 426-4400","<MISSING>","34.0111914","-84.5998419","4:00 PM to  8:00 PM"
"https://www.skyzone.com/","Brighton","8151 Movie Drive","Brighton","MI","48116","US","105","(810) 224-6200","<MISSING>","42.5472085","-83.7928446","4:00 PM to  8:00 PM"
"https://www.skyzone.com/","Blaine","198 Northtown Dr.","Blaine","MN","55434","US","192","(651) 383-2020","<MISSING>","45.1255252","-93.2636632","4:00 PM to  8:00 PM"
"https://www.skyzone.com/","Columbia","1201 American Parkway","Columbia","MO","65202","US","161","(573) 309-9600","<MISSING>","38.990869","-92.3227235","Closed Today"
"https://www.skyzone.com/","Daytona Beach","1300 W. International Speedway Blvd., Suite 105","Daytona Beach","FL","32114","US","170","(386) 682-2020","<MISSING>","29.1985147","-81.0562376","12:00 PM to  9:00 PM"
"https://www.skyzone.com/","Orland Park","66 Orland Square - Suite B","Orland Park","IL","60462","US","167","(708) 966-2399","<MISSING>","41.6191892","-87.8438892","10:00 AM to  8:00 PM"
"https://www.skyzone.com/","Plantation","801 University Dr. Suite 500","Plantation","FL","33324","US","159","<MISSING>","<MISSING>","26.1097583","-80.2529118","<MISSING>"
"https://www.skyzone.com/","Joplin","2726 E. Newman","Joplin","MO","64801","US","165","<MISSING>","<MISSING>","37.0983255","-94.4824671","<MISSING>"
"https://www.skyzone.com/","Cincinnati","7522 Beechmont Avenue","Cincinnati","OH","45255","US","188","(513) 815-5400","<MISSING>","39.0728327","-84.3485378","4:00 PM to  8:00 PM"
"https://www.skyzone.com/","Metairie","6509 Riverside Dr.","Metairie","LA","70003","US","166","(504) 900-9663","<MISSING>","30.0092218","-90.215562","11:00 AM to  8:00 PM"
"https://www.skyzone.com/","Virginia Beach","2029 Lynnhaven Pkwy, 100A","Virginia Beach","VA"," 23456","US","120","(757) 961-8800","<MISSING>","36.7920768","-76.1223277","3:00 PM to  8:00 PM"
"https://www.skyzone.com/","Springfield","25 Route 22","Springfield","NJ","07081","US","204","(973) 671-5100","<MISSING>","40.6872732","-74.3128295","4:00 PM to  8:00 PM"
"https://www.skyzone.com/","Fort Myers","14181 S Tamiami Trail #140","Fort Myers","FL","33912","US","46","(239) 313-5448","<MISSING>","26.5361982","-81.8702243","3:00 PM to  8:00 PM"
"https://www.skyzone.com/","Boston","91-B Sprague Street","Boston","MA","02136","US","5","(857) 345-9693","<MISSING>","42.2349249","-71.140034","3:00 PM to  8:00 PM"
"https://www.skyzone.com/","Aurora","87 Executive Drive","Aurora","IL","60504","US","114","(331) 207-4759","<MISSING>","41.7553417","-88.2167213","4:00 PM to  8:00 PM"
"https://www.skyzone.com/","Kitchener","150 Gateway Park Drive","Kitchener","ON","N2P 2J4","CA","110","(519) 804-4455","<MISSING>","43.4062975","-80.3867957","4:00 PM to  9:00 PM"
"https://www.skyzone.com/","Dorval","2100 Rte Transcanadienne","Dorval","QC","H9P 2N4","CA","196","(514) 421-3456","<MISSING>","45.4831130109195","-73.7858211873563","4:00 PM to  9:00 PM"
"https://www.skyzone.com/","Vernon Hills","701 N Milwaukee Ave - Suite 244","Vernon Hills","IL","60061","US","209","(847) 984-3434","<MISSING>","42.2400002","-87.9433895","10:00 AM to  8:00 PM"
"https://www.skyzone.com/","Memphis","5355 Distriplex Farms Dr Ste 102","Memphis","TN","38141","US","16","(901) 322-3281","<MISSING>","35.0013124","-89.8584554","12:00 PM to  4:00 PM"
"https://www.skyzone.com/","Harrisburg","95 Gateway Dr","Mechanicsburg","PA","17050","US","68","(717) 208-8908","<MISSING>","40.236812","-76.980549","4:00 PM to  8:00 PM"
"https://www.skyzone.com/","Chesterfield","17379 Edison Ave","Chesterfield","MO","63005","US","2","(636) 530-4550","<MISSING>","38.6642936","-90.6058867","3:00 PM to  8:00 PM"
"https://www.skyzone.com/","Bismarck","5003 Ottawa Street","Bismarck","ND","58503","US","171","(701) 354-9099","<MISSING>","46.8613345","-100.7734592","4:00 PM to  8:00 PM"
"https://www.skyzone.com/","Fenton","631 Gravois Road","Fenton","MO","63026","US","107","(636) 364-4444","<MISSING>","38.4941816","-90.4790075","12:00 PM to  8:00 PM"
"https://www.skyzone.com/","Asheville","1836 Hendersonville Rd","Asheville","NC","28803","US","143","(828) 338-8630","<MISSING>","35.5029352","-82.5219695","3:00 PM to  8:00 PM"
"https://www.skyzone.com/","Pine Brook","60 Chapin Rd","Pine Brook","NJ","07058","US","65","(973) 396-4001","<MISSING>","40.8589245","-74.330158","4:00 PM to  8:00 PM"
"https://www.skyzone.com/","Danvers","Liberty Tree Mall, 100 Independence Way","Danvers","MA","01923","US","76","(978) 252-3000","<MISSING>","42.5526233","-70.9392495","2:00 PM to  8:00 PM"
"https://www.skyzone.com/","Newark","211 Executive Drive, #3","Newark","DE","19702","US","90","(302) 449-1252","<MISSING>","39.6143488","-75.7477108","4:00 PM to  8:00 PM"
"https://www.skyzone.com/","Tacoma","1680 S. Mildred St.","Tacoma","<MISSING>","98465","US","213","<MISSING>","<MISSING>","47.2459411","-122.529399","<MISSING>"
"https://www.skyzone.com/","Pineville","10200 Centrum Pkwy","Pineville","NC","28134","US","73","(704) 208-4040","<MISSING>","35.0948591","-80.8770859","3:00 PM to  9:00 PM"
"https://www.skyzone.com/","Hagerstown","12114 Insurance Way","Hagerstown","MD","21740","US","122","(301) 420-5867","<MISSING>","39.6479116","-77.7585486","3:00 PM to  8:00 PM"
"https://www.skyzone.com/","St. Paul","595 Hale Ave N","Oakdale","MN","55128","US","10","(952) 641-2302","<MISSING>","44.9559115","-92.9603263","4:00 PM to  8:00 PM"
"https://www.skyzone.com/","Westminster","1025 Westminster Mall, Suite 2086A","Westminster","CA","92683","US","129","(714) 415-5867","<MISSING>","33.7475119","-118.0132","2:00 PM to  9:00 PM"
"https://www.skyzone.com/","Manchester"," 500 Valley Street","Manchester","NH","03103","US","118","(603) 413-3533","<MISSING>","42.9813523","-71.4504051","12:00 PM to  8:00 PM"
"https://www.skyzone.com/","Cutler Bay","10200 SW 186th St","Cutler Bay","FL","33157","US","104","(305) 640-5424","<MISSING>","25.595446","-80.358089","3:00 PM to  9:00 PM"
"https://www.skyzone.com/","Charleston","411 Wando Park Blvd","Mt. Pleasant","SC","29464","US","58","(843) 588-5777","<MISSING>","32.8458121","-79.8759878","3:00 PM to  7:00 PM"
"https://www.skyzone.com/","New Rochelle","33 Lecount Place","New Rochelle","NY","10801","US","150","(914) 365-7370","<MISSING>","40.9112732","-73.779946","4:00 PM to  9:00 PM"
"https://www.skyzone.com/","Moorestown","2834 Route 73 North","Maple Shade","NJ","08052","US","63","(856) 600-4402","<MISSING>","39.9414639","-74.9729813","3:00 PM to  8:00 PM"
"https://www.skyzone.com/","Cedar Rapids","5515 Council St NE","Cedar Rapids","IA","52402","US","92","(319) 382-2222","<MISSING>","42.0336562","-91.6589127","4:00 PM to  9:00 PM"
"https://www.skyzone.com/","Allendale","80 Commerce Dr","Allendale ","NJ","07401","US","106","(201) 574-1800","<MISSING>","41.039802","-74.11766","4:00 PM to  8:00 PM"
"https://www.skyzone.com/","Fishers","10080 E. 121st Street, Suite 182","Fishers","IN","46037","US","13","(317) 572-2999","<MISSING>","39.9660977","-85.9887142","3:00 PM to  8:00 PM"
"https://www.skyzone.com/","Roswell","1425 Market Blvd Ste 100-A","Roswell","GA","30076","US","28","(678) 745-9900","<MISSING>","34.0181013","-84.3206112","Closed Today"
"https://www.skyzone.com/","Covina","1314 N Azusa Ave","Covina","CA","91722","US","26","(626) 986-0106","<MISSING>","34.103342","-117.906357","3:00 PM to  8:00 PM"
"https://www.skyzone.com/","Highland Heights","750 Alpha Drive","Highland Heights","OH","44143","US","79","(440) 467-5867","<MISSING>","41.5422","-81.454396","4:00 PM to  8:00 PM"
"https://www.skyzone.com/","Space Coast","624 BARNES BLVD","ROCKLEDGE","FL","32955","US","148","(321) 265-5867","<MISSING>","28.2953163","-80.7272178","4:00 PM to  8:00 PM"
"https://www.skyzone.com/","Torrance","1625 W 190th St","Gardena","CA","90248","US","18","(310) 323-4500","<MISSING>","33.858837","-118.3079797","3:00 PM to  8:00 PM"
"https://www.skyzone.com/","Glen Mills","10 Conchester Rd","Glen Mills","PA","19342","US","48","(484) 418-1500","<MISSING>","39.886608","-75.529003","4:00 PM to  8:00 PM"
"https://www.skyzone.com/","Des Moines","1300 SE Gateway Drive, Suite 103","Grimes","IA","50111","US","17","(515) 986-2524","<MISSING>","41.6774956","-93.778547","4:00 PM to  8:00 PM"
"https://www.skyzone.com/","Rochester","1180 Jefferson Rd.","Henrietta","NY","14623","US","50","(585) 797-0030","<MISSING>","43.0886269","-77.6020737","4:00 PM to  8:00 PM"
"https://www.skyzone.com/","Tallahassee","1925 N Monroe St. Suite 109","Tallahassee","FL","32303","US","111","(850) 999-5600","<MISSING>","30.4668985","-84.2833832","3:00 PM to  8:00 PM"
"https://www.skyzone.com/","Vaughan","2839 Rutherford Road","Vaughan","ON","L4K 2N7","CA","78","(905) 832-0080","<MISSING>","43.8323147","-79.5263454","4:00 PM to  9:00 PM"
"https://www.skyzone.com/","Clifton Park","22 Clifton Country Road Suite 99C","Clifton Park","NY","12065","US","216","<MISSING>","<MISSING>","42.8584127","-73.7782145","<MISSING>"
"https://www.skyzone.com/","Philadelphia","9490 Blue Grass Road ","Philadelphia","PA","19114","US","145","(215) 516-5867","<MISSING>","40.0787673","-75.0258345","4:00 PM to  8:00 PM"
"https://www.skyzone.com/","Springfield","2765 S Kansas Expressway","Springfield","MO","65807","US","88","(417) 771-3883","<MISSING>","37.1646474","-93.3169627","3:30 PM to  7:30 PM"
"https://www.skyzone.com/","Plainfield","851 Columbia Rd STE 172","Plainfield","IN","46168","US","29","(317) 268-3200","<MISSING>","39.6942089","-86.3381086","4:00 PM to  8:00 PM"
"https://www.skyzone.com/","Fredericksburg","1410 Central Park Blvd.","Fredericksburg","VA","22401","US","146","(540) 369-2227","<MISSING>","38.304564","-77.5141636","4:00 PM to  8:00 PM"
"https://www.skyzone.com/","Fort Wayne","401 Fernhill Ave","Fort Wayne","IN","46805","US","36","(260) 483-5867","<MISSING>","41.1108836","-85.1455291","4:00 PM to  8:00 PM"
"https://www.skyzone.com/","Anaheim","1301 N Kellogg Dr","Anaheim","CA","92807","US","19","(657) 205-1100","<MISSING>","33.8605034","-117.8076512","2:00 PM to  8:00 PM"
"https://www.skyzone.com/","Lexington","3644 Boston Rd ","Lexington","KY","40514","US","72","(859) 629-4455","<MISSING>","37.9801656","-84.5481886","4:00 PM to  8:00 PM"
"https://www.skyzone.com/","Bethlehem","2285 Schoenersville Road","Bethlehem","PA","18017","US","112","(610) 759-9663","<MISSING>","40.6418047","-75.4032485","4:00 PM to  8:00 PM"
"https://www.skyzone.com/","Chalfont","145 Liberty Lane ","Chalfont","PA","18914","US","144","(215) 642-8777","<MISSING>","40.2792987","-75.2488299","4:00 PM to  8:00 PM"
"https://www.skyzone.com/","Buffalo","425 Cayuga Rd","Cheektowaga","NY","14225","US","12","(716) 206-3300","<MISSING>","42.941879","-78.7419598","3:00 PM to  9:00 PM"
"https://www.skyzone.com/","San Diego","851 Showroom Pl #100","Chula Vista","CA","91914","US","25","(619) 754-9782","<MISSING>","32.6535706","-116.9543049","2:00 PM to  9:00 PM"
"https://www.skyzone.com/","Providence","70 Pawtucket Ave","East Providence","RI","02916","US","30","(401) 383-6000","<MISSING>","41.8573089","-71.3630165","3:00 PM to  8:00 PM"
"https://www.skyzone.com/","Dayton","976 Senate Dr","Dayton","OH","45459","US","66","(937) 396-6600","<MISSING>","39.6348486","-84.1852205","4:00 PM to  8:00 PM"
"https://www.skyzone.com/","Joliet","2318 Essington Road","Joliet","IL","60435","US","141","(815) 314-4890","<MISSING>","41.5642022","-88.1588049","4:00 PM to  8:00 PM"
"https://www.skyzone.com/","Belden Village","4381 Whipple Ave. NW","Canton","OH","44718","US","128","(330) 538-8300","<MISSING>","40.80341","-81.425914","4:00 PM to  9:00 PM"
"https://www.skyzone.com/","Greensboro","1572-A HIGHWOODS BLVD","Greensboro","NC","27410","US","130","(336) 550-1800","<MISSING>","36.1118325","-79.8797847","3:00 PM to  8:00 PM"
"https://www.skyzone.com/","Charlotte","7325 Smith Corners Blvd. ","Charlotte","NC","28269","US","218","(704) 709-9050","<MISSING>","35.3527552","-80.8423068","3:00 PM to  9:00 PM"
"https://www.skyzone.com/","Clearwater","13000 66th Street","Largo","FL","33773","US","158","(727) 900-5867","<MISSING>","27.8905243","-82.7303666","4:00 PM to  8:00 PM"
"https://www.skyzone.com/","Maple Grove","16501 County Road 30","Maple Grove","MN","55311","US","205","(952) 641-0832","<MISSING>","45.1242141","-93.4897315","4:00 PM to  8:00 PM"
"https://www.skyzone.com/","Las Vegas","7440 Dean Martin Dr Ste 201","Las Vegas","NV","89139","US","39","(702) 560-5900","<MISSING>","36.0544488","-115.1817821","3:00 PM to  8:00 PM"
"https://www.skyzone.com/","Oaks","122 Mill Rd Unit B-250","Oaks","PA","19456","US","34","(484) 393-2066","<MISSING>","40.1252125","-75.4552493","4:00 PM to  8:00 PM"
"https://www.skyzone.com/","Lees Summit","2801 NE McBaine Drive","Lees Summit","MO","64064","US","109","(816) 457-0068","<MISSING>","38.963233","-94.359849","3:00 PM to  6:00 PM"
"https://www.skyzone.com/","Queensbury","235 Corinth Road","Queensbury","NY","12804","US","189","(518) 836-5867","<MISSING>","43.2965536","-73.6880928","3:00 PM to  7:00 PM"
"https://www.skyzone.com/","Columbus","3716 Gentian Boulevard","Columbus","GA","31907","US","219","(706) 507-3958","<MISSING>","32.5079202267199","-84.9316001896617","4:00 PM to  8:00 PM"
"https://www.skyzone.com/","Norwalk","360 Dr. Martin Luther King, Jr. Drive","Norwalk","CT","06854","US","131","(203) 902-5437","<MISSING>","41.0786268","-73.4294833","4:00 PM to  8:00 PM"
"https://www.skyzone.com/","Richmond","1345 Carmia Way","Richmond ","VA","23235","US","53","(804) 379-2500","<MISSING>","37.5096712","-77.6012523","3:00 PM to  8:00 PM"
"https://www.skyzone.com/","Ridgeland","2000 E County Line Rd Suite B","Ridgeland","MS","39157","US","207","(601) 899-0015","<MISSING>","32.3996836","-90.1188599","3:00 PM to  8:00 PM"
"https://www.skyzone.com/","Schererville","1035 Eagle Ridge Dr.","Schererville","IN","46375","US","59","(219) 227-3777","<MISSING>","41.5030846","-87.4734847","3:00 PM to  8:00 PM"
"https://www.skyzone.com/","Phoenix","4857 E. Greenway Rd. Suite A ","Scottsdale","AZ","85254","US","211","(602) 493-5867","<MISSING>","33.6255571","-111.975636","3:00 PM to  8:00 PM"
"https://www.skyzone.com/","Shelby Township","50810 Sabrina Dr","Shelby Township","MI","48315","US","52","(586) 930-0600","<MISSING>","42.66899","-82.991819","4:00 PM to  8:00 PM"
"https://www.skyzone.com/","Topeka","1801 SW Wanamaker Road Ste B20","Topeka","KS","66604","US","194","(785) 337-8400","<MISSING>","39.034512","-95.7620265","4:00 PM to  8:00 PM"
"https://www.skyzone.com/","Laval ","Mega Center Notre Dame,                               2360 AutoRoute Chomedey Ouest","Laval","QC","H7X 4G8","CA","212","(450) 238-1228","<MISSING>","45.5342583","-73.79134","4:00 PM to  9:00 PM"
"https://www.skyzone.com/","Vancouver","5000 E. Fourth Plain Blvd., Suite C100","Vancouver","WA","98661","US","132","(503) 433-5379","<MISSING>","45.6408098","-122.6183305","11:00 AM to  8:00 PM"
"https://www.skyzone.com/","Van Nuys","7741 Hayvenhurst Ave","Van Nuys","CA","91406","US","43","(818) 946-0082","<MISSING>","34.211193","-118.492984","3:00 PM to  8:00 PM"
"https://www.skyzone.com/","East Baltimore ","8645 Pulaski Highway","Rosedale","MD","21237","US","215","(410) 874-5050","<MISSING>","39.3337352","-76.4844265","4:00 PM to  8:00 PM"
"https://www.skyzone.com/","Pakistan","Main Boulevard Lake city Raiwind Road","Lahore","<MISSING>","54000","US","208","(308) 402-5682","<MISSING>","31.3520598","74.2404124","2:00 PM to 10:00 PM"
"https://www.skyzone.com/","Mississauga","3636 Hawkestone Rd","Mississauga","ON","L5C 2V2","CA","9","(905) 306-9898","<MISSING>","43.5742007","-79.6536518","4:00 PM to  9:00 PM"
"https://www.skyzone.com/","Everett","69 Norman St.","Everett","MA","02149","US","11","(617) 387-1000","<MISSING>","42.4081415","-71.0665436","3:00 PM to  8:00 PM"
"https://www.skyzone.com/","Milwaukee","W229 N 1420 Westwood Dr","Waukesha","WI","53186","US","45","(262) 696-1600","<MISSING>","43.0497304","-88.2039998","4:00 PM to  8:00 PM"
"https://www.skyzone.com/","Whitby","240 South Blair St. Unit-2","Whitby","ON","L1N 0G3","CA","101","(905) 430-0333","<MISSING>","43.8551845","-78.9219827","4:00 PM to  9:00 PM"
"https://www.skyzone.com/","Windsor","7654 Tecumseh Rd. E.","Windsor","ON","N8T1E9","CA","187","(519) 916-9663","<MISSING>","42.3149718","-82.935537","10:00 AM to  9:00 PM"
"https://www.skyzone.com/","Baton Rouge","Visit our sister location: Area 51 Extreme Air Sports ","Baton Rouge","LA","<MISSING>","US","99","(225) 412-3300","<MISSING>","30.389711","-91.0628484","<MISSING>"
"https://www.skyzone.com/","Raleigh","2101 Westinghouse Blvd, Suite 111","Raleigh","NC","27604","US","71","(919) 948-4450","<MISSING>","35.808023","-78.5957888","3:00 PM to  8:00 PM"
"https://www.skyzone.com/","Fairview Heights","10850 Lincoln Trail","Fairview Heights","IL","62208","US","160","(618) 589-1111","<MISSING>","38.5909742","-89.9883035","12:00 PM to  8:00 PM"
"https://www.skyzone.com/","Westborough","290 Turnpike Road, Route 9","Westborough","MA","01581","US","41","(508) 870-5867","<MISSING>","42.2809429","-71.648548","3:00 PM to  8:00 PM"
"https://www.skyzone.com/","Riverside","4031 Flat Rock Dr","Riverside","CA","92505","US","20","(951) 643-0099","<MISSING>","33.9009914","-117.4901101","3:00 PM to  8:00 PM"
"https://www.skyzone.com/","Suwanee","560 Old Peachtree Rd NW Ste 300","Suwanee","GA","30024","US","14","(678) 745-9900","<MISSING>","34.010229","-84.0583773","Closed Today"
"https://www.skyzone.com/","South Plainfield","600 Hadley Rd.","South Plainfield","NJ","07080","US","117","(908) 756-5867","<MISSING>","40.5509889","-74.4152496","4:00 PM to  8:00 PM"
"https://www.skyzone.com/","Cerritos","10755 South St.","Cerritos","CA","90703","US","223","(562) 203-1333","<MISSING>","33.8586961","-118.0547261","2:00 PM to  9:00 PM"
"https://www.skyzone.com/","St. Catharines","333 ONTARIO ST","ST. CATHARINES","ON","L2R 5L3","CA","151","(289) 362-3377","<MISSING>","43.1710987","-79.2655148","10:00 AM to  9:00 PM"
"https://www.skyzone.com/","Greenville","2465 Laurens Rd","Greenville","SC","29607","US","47","(864) 558-2400","<MISSING>","34.8227784","-82.3418897","3:00 PM to  8:00 PM"
"https://www.skyzone.com/","Surrey","11125 124th Street","Surrey","BC","V3V4V1","CA","123","(778) 395-5867","<MISSING>","49.2044644","-122.8826242","<MISSING>"
"https://www.skyzone.com/","Jacksonville","<MISSING>","Jacksonville","FL","<MISSING>","US","203","<MISSING>","<MISSING>","30.3321838","-81.655651","<MISSING>"
"https://www.skyzone.com/","Pensacola","5007 N Davis Hwy, Unit 8A","Pensacola","FL","32503","US","147","(850) 500-9663","<MISSING>","30.4703027","-87.2265305","11:00 AM to  8:00 PM"
"https://www.skyzone.com/","Biloxi","2600 Beach Blvd Suite 17","Biloxi","MS","39531","US","214","<MISSING>","<MISSING>","30.3922533","-88.9898269","<MISSING>"
"https://www.skyzone.com/","Manassas","7807 Sudley Rd","Manassas ","VA","20109","US","108","(703) 334-0323","<MISSING>","38.7872913","-77.5107298","4:00 PM to  8:00 PM"
"https://www.skyzone.com/","Lancaster","1701 Hempstead Rd #102","Lancaster","PA","17601","US","64","(717) 208-8922","<MISSING>","40.044785","-76.246664","4:00 PM to  8:00 PM"
"https://www.skyzone.com/","Pittston","195 Enterprise Way","Pittston","PA","18640","US","75","(570) 316-0500","<MISSING>","41.3160047","-75.762791","4:00 PM to  8:00 PM"
"https://www.skyzone.com/","Omaha","4215 S 133rd St","Omaha","NE","68137","US","67","(402) 401-7600","<MISSING>","41.2178292","-96.1206003","4:00 PM to  8:00 PM"
"https://www.skyzone.com/","Sterling","21070 Southbank Street","Sterling","VA","20165","US","201","(703) 214-8113","<MISSING>","39.0325156","-77.3963209","4:00 PM to  8:00 PM"
"https://www.skyzone.com/","Ocala","2400 SW College Road","Ocala","FL","34471","US","154","(352) 304-5050","<MISSING>","29.1681672","-82.1636817","1:00 PM to  8:00 PM"
"https://www.skyzone.com/","Lakewood","1001 New Hampshire Ave ","Lakewood","NJ","08701","US","95","(609) 398-4759","<MISSING>","40.0592989","-74.1929203","4:00 PM to  8:00 PM"
"https://www.skyzone.com/","Lafayette","3814 Ambassador Caffery ","Lafayette","LA","70503","US","93","(337) 417-8000","<MISSING>","30.1682207","-92.0641795","9:00 AM to  8:00 PM"
"https://www.skyzone.com/","Arvada","7330 W. 52nd Avenue","Arvada","CO","80002","US","140","(720) 410-2750","<MISSING>","39.7909393","-105.0777643","3:00 PM to  8:00 PM"
"https://www.skyzone.com/","North Spring","605 Spring Hill Dr","Spring","TX","77386","US","60","(832) 246-5300","<MISSING>","30.1226902","-95.4332595","<MISSING>"
"https://www.skyzone.com/","Springfield","3454 Liberty Dr.","Springfield","IL","62704","US","168","(217) 331-6600","<MISSING>","39.7513401","-89.7137403","12:00 PM to  8:00 PM"
"https://www.skyzone.com/","Evansville","49 N. Green River Road","Evansville","IN","47715","US","62","(812) 730-4759","<MISSING>","37.977241","-87.4924886","3:00 PM to  8:00 PM"
"https://www.skyzone.com/","Peoria","9040 W. Larkspur Drive, Suite 134","Peoria","AZ","85381","US","15","(623) 979-4000","<MISSING>","33.5999668","-112.2538177","4:00 PM to  8:00 PM"
"https://www.skyzone.com/","Durham","1720 Guess Rd Ste 90","Durham","NC","27701","US","87","(919) 425-0800","<MISSING>","36.0207693","-78.9136277","2:00 PM to  8:00 PM"
"https://www.skyzone.com/","Irving","3823 Irving Mall","Irving","TX","75062","US","163","(469) 499-3100","<MISSING>","32.84107","-96.994427","2:00 PM to  9:00 PM"
"https://www.skyzone.com/","Columbus","459 Orange Point Dr, Suite E","Lewis Center","OH","43035","US","4","(740) 548-4004","<MISSING>","40.1816498","-83.0169376","4:00 PM to  8:00 PM"
"https://www.skyzone.com/","Hoover","1694 Montgomery Highway","Hoover","AL","35216","US","157","(205) 637-5867","<MISSING>","33.3878771","-86.8077428","<MISSING>"
"https://www.skyzone.com/","Edmond"," 2525 S. Broadway","Edmond","OK","73013","US","103","(405) 359-1631","<MISSING>","35.6292095","-97.4847418","4:00 PM to  8:00 PM"
"https://www.skyzone.com/","Ottawa","2935 Conroy Rd","Ottawa","ON","K1G 6C6","CA","38","(613) 523-1888","<MISSING>","45.382388","-75.6282496","<MISSING>"
"https://www.skyzone.com/","Normal","300 McKnight Drive","Normal","IL","61761","US","182","(309) 585-2274","<MISSING>","40.5368753","-88.9900944","9:00 AM to  8:00 PM"
"https://www.skyzone.com/","Albany","<MISSING>","<MISSING>","<MISSING>","<MISSING>","US","85","<MISSING>","<MISSING>","42.679813","-73.725253","<MISSING>"
"https://www.skyzone.com/","Levittown","45 Runway Rd","Levittown","PA","19057","US","69","(215) 642-8779","<MISSING>","40.1321166","-74.8457049","4:00 PM to  8:00 PM"
"https://www.skyzone.com/","Winnipeg","200-400 Fort Whyte Way","Winnipeg","MB","R0G 1N0","CA","42","(204) 888-5867","<MISSING>","49.8116688","-97.2325981","4:00 PM to  9:00 PM"
"https://www.skyzone.com/","Saginaw","2572 Tittabawassee Road","Saginaw","MI","48604","US","152","(989) 596-0022","<MISSING>","43.4799941","-83.9676055","4:00 PM to  8:00 PM"
"https://www.skyzone.com/","Kalamazoo","5103 Portage Rd","Kalamazoo","MI","49002","US","82","(269) 459-9243","<MISSING>","42.2430794","-85.5600696","4:00 PM to  8:00 PM"
"https://www.skyzone.com/","Taylor","23261 Eureka Rd","Taylor","MI","48180","US","74","(734) 225-2233","<MISSING>","42.1961727","-83.2585394","4:00 PM to  8:00 PM"
"https://www.skyzone.com/","Timonium","23 W Aylesbury Rd.","Timonium","MD","21093","US","80","(410) 842-1661","<MISSING>","39.4365802","-76.6269101","4:00 PM to  8:00 PM"
"https://www.skyzone.com/","Bowie","1300 Crain Hwy","Bowie","MD","20716","US","217","(301) 683-7997","<MISSING>","38.9067641625002","-76.7186092450092","4:00 PM to  8:00 PM"
"https://www.skyzone.com/","Monroeville","160 LEVIN WAY","MONROEVILLE","PA","15146","US","116","(412) 810-0200","<MISSING>","40.4338746","-79.7299802","4:00 PM to  8:00 PM"
"https://www.skyzone.com/","Franklin","1113 Murfreesboro Road, Suite 254","Franklin","TN","37064","US","98","(615) 721-3626","<MISSING>","35.916354","-86.836025","<MISSING>"
"https://www.skyzone.com/","Mt. Olive","61 International Drive South Unit ANCB","Mount Olive","NJ","07828","US","126","(973) 527-7000","<MISSING>","40.888432","-74.717272","4:00 PM to  8:00 PM"
"https://www.skyzone.com/","Toronto","45 Esandar Dr, Unit 1A","Toronto","ON","M4G 4C5","CA","33","(416) 421-4567","<MISSING>","43.7066569","-79.3568397","4:00 PM to  9:00 PM"
"https://www.skyzone.com/","Macon","245 Tom Hill SR Boulevard, Suite 100B","Macon","GA","31210","US","124","(478) 239-2900","<MISSING>","32.8958825","-83.6878025","4:00 PM to  8:00 PM"
"https://www.skyzone.com/","Clermont","2510 S Highway 27","Clermont","FL","34711","US","7","(352) 404-4134","<MISSING>","28.5350886","-81.7363455","3:00 PM to  8:00 PM"
"https://www.skyzone.com/","Grand Rapids","3636 29th St SE","Kentwood","MI","49512","US","27","(616) 214-4221","<MISSING>","42.9092893","-85.5774096","Closed Today"
"https://www.skyzone.com/","Sarasota","6180 Edgelake Drive","Sarasota","FL","34240","US","91","(941) 363-6359","<MISSING>","27.3008638","-82.4452582","4:00 PM to  8:00 PM"
"https://www.skyzone.com/","Canonsburg","281 Georgetown Road","Canonsburg","PA","15317","US","197","(724) 251-6100","<MISSING>","40.3064079","-80.1336256","4:00 PM to  8:00 PM"
"https://www.skyzone.com/","Houston","10207 S Sam Houston Pkwy W, Ste 100","Houston","TX","77071","US","8","(713) 292-5000","<MISSING>","29.6367103","-95.5324756","<MISSING>"
"https://www.skyzone.com/","Louisville","2671 Technology Dr #112","Jeffersontown","KY","40299","US","24","(502) 909-3500","<MISSING>","38.2067196","-85.5499075","4:00 PM to  8:00 PM"
"https://www.skyzone.com/","Stockton","5358 Pacific Ave","Stockton","CA","95207","US","127","(209) 888-0900","<MISSING>","37.9992185","-121.3157444","3:00 PM to  8:00 PM"
"https://www.skyzone.com/","Springdale","11745 Commons Dr","Springdale","OH","45246","US","35","(513) 671-1333","<MISSING>","39.2909484","-84.4544696","4:00 PM to  8:00 PM"
"https://www.skyzone.com/","Newnan","1098 BULLSBORO DRIVE, SUITE #15","Newnan","GA","30265","US","133","(678) 745-9900","<MISSING>","33.3969283","-84.7430432","Closed Today"
"https://www.skyzone.com/","Appleton","W3169 Van Roy Road     -    920-351-4441","Appleton","WI","54915","US","121","(920) 351-4441","<MISSING>","44.2572347","-88.3462974","<MISSING>"
"https://www.skyzone.com/","Rocklin","1091 Tinker Rd Ste 200","Rocklin","CA","95765","US","3","(916) 644-9966","<MISSING>","38.8110261","-121.3017943","<MISSING>"
"https://www.skyzone.com/","Ventura","2825 Johnson Dr","Ventura","CA","93003","US","119","(805) 804-9555","<MISSING>","34.2471311757645","-119.195230526132","2:00 PM to  9:00 PM"
