"locator_domain","location_name","street_address","city","state","zip","country_code","store_number","phone","location_type","latitude","longitude","hours_of_operation","page_url"
"https://www.siteone.com/","Madison Heights MI ","31691 Dequindre Rd","Madison Heights","MI","48071","US","1","248-588-2990","SiteOne Landscape Supply","42.526228","-83.0865","Monday7:30 a.m.- 4:00 p.m.Tuesday7:30 a.m.- 4:00 p.m.Wednesday7:30 a.m.- 4:00 p.m.Thursday7:30 a.m.- 4:00 p.m.Friday7:30 a.m.- 4:00 p.m.SaturdayClosedSundayClosed","https://www.siteone.com/store/1"
"https://www.siteone.com/","Grand Rapids MI ","4620 40th St SE","Grand Rapids","MI","49512","US","2","616-954-0660","SiteOne Landscape Supply","42.891536","-85.552954","Monday7:30 a.m.- 4:00 p.m.Tuesday7:30 a.m.- 4:00 p.m.Wednesday7:30 a.m.- 4:00 p.m.Thursday7:30 a.m.- 4:00 p.m.Friday7:30 a.m.- 4:00 p.m.SaturdayClosedSundayClosed","https://www.siteone.com/store/2"
"https://www.siteone.com/","Wheeling IL ","658 Wheeling Rd","Wheeling","IL","60090","US","3","847-541-0300","SiteOne Landscape Supply","42.127213","-87.926993","Monday7:30 a.m.- 4:00 p.m.Tuesday7:30 a.m.- 4:00 p.m.Wednesday7:30 a.m.- 4:00 p.m.Thursday7:30 a.m.- 4:00 p.m.Friday7:30 a.m.- 4:00 p.m.SaturdayClosedSundayClosed","https://www.siteone.com/store/3"
"https://www.siteone.com/","Livonia MI ","13580 Merriman Rd","Livonia","MI","48150","US","4","734-458-4770","SiteOne Landscape Supply","42.381144","-83.353208","Monday7:30 a.m.- 4:00 p.m.Tuesday7:30 a.m.- 4:00 p.m.Wednesday7:30 a.m.- 4:00 p.m.Thursday7:30 a.m.- 4:00 p.m.Friday7:30 a.m.- 4:00 p.m.SaturdayClosedSundayClosed","https://www.siteone.com/store/4"
"https://www.siteone.com/","Largo FL ","6781 118th Ave","Largo","FL","33773","US","5","727-531-3180","SiteOne Landscape Supply","27.879219","-82.732561","Monday7:00 a.m.- 4:00 p.m.Tuesday7:00 a.m.- 4:00 p.m.Wednesday7:00 a.m.- 4:00 p.m.Thursday7:00 a.m.- 4:00 p.m.Friday7:00 a.m.- 4:00 p.m.SaturdayClosedSundayClosed","https://www.siteone.com/store/5"
"https://www.siteone.com/","Elkhart IN ","2506 Ada Dr","Elkhart","IN","46514","US","6","574-262-2270","SiteOne Landscape Supply","41.719852","-85.922801","Monday7:30 a.m.- 4:00 p.m.Tuesday7:30 a.m.- 4:00 p.m.Wednesday7:30 a.m.- 4:00 p.m.Thursday7:30 a.m.- 4:00 p.m.Friday7:30 a.m.- 4:00 p.m.SaturdayClosedSundayClosed","https://www.siteone.com/store/6"
"https://www.siteone.com/","Tampa FL ","9810 E Broadway Ave","Tampa","FL","33619","US","7","813-621-2075","SiteOne Landscape Supply","27.972383","-82.33811","Monday7:00 a.m.- 4:00 p.m.Tuesday7:00 a.m.- 4:00 p.m.Wednesday7:00 a.m.- 4:00 p.m.Thursday7:00 a.m.- 4:00 p.m.Friday7:00 a.m.- 4:00 p.m.SaturdayClosedSundayClosed","https://www.siteone.com/store/7"
"https://www.siteone.com/","Fort Myers FL ","12720 Metro Pkwy","Fort Myers","FL","33966","US","8","239-768-2088","SiteOne Landscape Supply","26.557837","-81.85292","Monday7:00 a.m.- 4:00 p.m.Tuesday7:00 a.m.- 4:00 p.m.Wednesday7:00 a.m.- 4:00 p.m.Thursday7:00 a.m.- 4:00 p.m.Friday7:00 a.m.- 4:00 p.m.Saturday8:00 a.m.- 12:00 p.m.SundayClosed","https://www.siteone.com/store/8"
"https://www.siteone.com/","Sarasota FL ","6055 Clark Center Ave","Sarasota","FL","34238","US","9","941-923-2517","SiteOne Landscape Supply","27.26652","-82.476049","Monday7:00 a.m.- 4:00 p.m.Tuesday7:00 a.m.- 4:00 p.m.Wednesday7:00 a.m.- 4:00 p.m.Thursday7:00 a.m.- 4:00 p.m.Friday7:00 a.m.- 4:00 p.m.Saturday8:00 a.m.- 12:00 p.m.SundayClosed","https://www.siteone.com/store/9"
"https://www.siteone.com/","Kissimmee FL ","485 E Donegan Ave","Kissimmee","FL","34744","US","10","407-944-1400","SiteOne Landscape Supply","28.322871","-81.399504","Monday7:00 a.m.- 4:00 p.m.Tuesday7:00 a.m.- 4:00 p.m.Wednesday7:00 a.m.- 4:00 p.m.Thursday7:00 a.m.- 4:00 p.m.Friday7:00 a.m.- 4:00 p.m.Saturday8:00 a.m.- 12:00 p.m.SundayClosed","https://www.siteone.com/store/10"
"https://www.siteone.com/","Ann Arbor MI ","300 Jackson Plz Ste 288","Ann Arbor","MI","48103","US","12","734-668-1020","SiteOne Landscape Supply","42.280078","-83.802592","Monday7:30 a.m.- 4:00 p.m.Tuesday7:30 a.m.- 4:00 p.m.Wednesday7:30 a.m.- 4:00 p.m.Thursday7:30 a.m.- 4:00 p.m.Friday7:30 a.m.- 4:00 p.m.SaturdayClosedSundayClosed","https://www.siteone.com/store/12"
"https://www.siteone.com/","Pewaukee WI ","N27W23477 Paul Rd","Pewaukee","WI","53072","US","13","262-347-0037","SiteOne Landscape Supply","43.048551","-88.184443","Monday7:30 a.m.- 4:00 p.m.Tuesday7:30 a.m.- 4:00 p.m.Wednesday7:30 a.m.- 4:00 p.m.Thursday7:30 a.m.- 4:00 p.m.Friday7:30 a.m.- 4:00 p.m.SaturdayClosedSundayClosed","https://www.siteone.com/store/13"
"https://www.siteone.com/","Downers Grove IL ","5379 Walnut Ave","Downers Grove","IL","60515","US","14","630-515-8555","SiteOne Landscape Supply","41.788724","-88.051951","Monday7:30 a.m.- 4:00 p.m.Tuesday7:30 a.m.- 4:00 p.m.Wednesday7:30 a.m.- 4:00 p.m.Thursday7:30 a.m.- 4:00 p.m.Friday7:30 a.m.- 4:00 p.m.SaturdayClosedSundayClosed","https://www.siteone.com/store/14"
"https://www.siteone.com/","Orlando FL ","5340 Old Winter Garden Rd","Orlando","FL","32811","US","15","407-578-1545","SiteOne Landscape Supply","28.57135","-81.40522","Monday7:00 a.m.- 4:00 p.m.Tuesday7:00 a.m.- 4:00 p.m.Wednesday7:00 a.m.- 4:00 p.m.Thursday7:00 a.m.- 4:00 p.m.Friday7:00 a.m.- 4:00 p.m.Saturday8:00 a.m.- 12:00 p.m.SundayClosed","https://www.siteone.com/store/15"
"https://www.siteone.com/","Longwood FL ","731 N US Hwy 17-92 Ste 101","Longwood","FL","32750","US","17","407-699-9500","SiteOne Landscape Supply","28.710596","-81.326088","Monday7:00 a.m.- 4:00 p.m.Tuesday7:00 a.m.- 4:00 p.m.Wednesday7:00 a.m.- 4:00 p.m.Thursday7:00 a.m.- 4:00 p.m.Friday7:00 a.m.- 4:00 p.m.Saturday8:00 a.m.- 12:00 p.m.SundayClosed","https://www.siteone.com/store/17"
"https://www.siteone.com/","Winter Garden FL ","4023 Avalon Rd","Winter Garden","FL","34787","US","18","321-221-4505","SiteOne Landscape Supply","28.499","-81.641","Monday7:00 a.m.- 4:00 p.m.Tuesday7:00 a.m.- 4:00 p.m.Wednesday7:00 a.m.- 4:00 p.m.Thursday7:00 a.m.- 4:00 p.m.Friday7:00 a.m.- 4:00 p.m.SaturdayClosedSundayClosed","https://www.siteone.com/store/18"
"https://www.siteone.com/","Marietta GA ","1536 Cobb Industrial Dr","Marietta","GA","30066","US","19","770-421-8850","SiteOne Landscape Supply","33.984092","-84.532594","Monday7:30 a.m.- 4:30 p.m.Tuesday7:30 a.m.- 4:30 p.m.Wednesday7:30 a.m.- 4:30 p.m.Thursday7:30 a.m.- 4:30 p.m.Friday7:30 a.m.- 4:30 p.m.Saturday8:00 a.m.- 12:00 p.m.SundayClosed","https://www.siteone.com/store/19"
"https://www.siteone.com/","Homer Glen IL ","13148 W 159th St","Homer Glen","IL","60491","US","20","708-301-0703","SiteOne Hardscape Center","41.601","-87.939","Monday7:30 a.m.- 4:00 p.m.Tuesday7:30 a.m.- 4:00 p.m.Wednesday7:30 a.m.- 4:00 p.m.Thursday7:30 a.m.- 4:00 p.m.Friday7:30 a.m.- 4:00 p.m.Saturday7:30 a.m.- 12:00 p.m.SundayClosed","https://www.siteone.com/store/20"
"https://www.siteone.com/","Jacksonville FL ","8618 Philips Hwy","Jacksonville","FL","32256","US","21","904-880-0999","SiteOne Landscape Supply","30.157187","-81.530789","Monday7:00 a.m.- 4:00 p.m.Tuesday7:00 a.m.- 4:00 p.m.Wednesday7:00 a.m.- 4:00 p.m.Thursday7:00 a.m.- 4:00 p.m.Friday7:00 a.m.- 4:00 p.m.Saturday8:00 a.m.- 12:00 p.m.SundayClosed","https://www.siteone.com/store/21"
"https://www.siteone.com/","Pingree Grove IL ","900 Bell Rd","Pingree Grove","IL","60140","US","22","847-426-0072","SiteOne Landscape Supply","42.078","-88.442","Monday7:30 a.m.- 4:00 p.m.Tuesday7:30 a.m.- 4:00 p.m.Wednesday7:30 a.m.- 4:00 p.m.Thursday7:30 a.m.- 4:00 p.m.Friday7:30 a.m.- 4:00 p.m.Saturday7:30 a.m.- 12:00 p.m.SundayClosed","https://www.siteone.com/store/22"
"https://www.siteone.com/","Shelby Township MI ","51224 Simone Industrial Dr","Shelby Township","MI","48316","US","23","586-726-5441","SiteOne Landscape Supply","42.671062","-83.044639","Monday7:30 a.m.- 4:00 p.m.Tuesday7:30 a.m.- 4:00 p.m.Wednesday7:30 a.m.- 4:00 p.m.Thursday7:30 a.m.- 4:00 p.m.Friday7:30 a.m.- 4:00 p.m.SaturdayClosedSundayClosed","https://www.siteone.com/store/23"
"https://www.siteone.com/","Park City IL ","600 S Chestnut Ave","Park City","IL","60085","US","24","847-623-6022","SiteOne Hardscape Center","42.348","-87.886","Monday7:30 a.m.- 4:00 p.m.Tuesday7:30 a.m.- 4:00 p.m.Wednesday7:30 a.m.- 4:00 p.m.Thursday7:30 a.m.- 4:00 p.m.Friday7:30 a.m.- 4:00 p.m.Saturday7:30 a.m.- 12:00 p.m.SundayClosed","https://www.siteone.com/store/24"
"https://www.siteone.com/","Maryland Heights MO ","2135 Schuetz Rd","Saint Louis","MO","63146","US","25","314-991-3535","SiteOne Landscape Supply","38.698","-90.43","Monday7:30 a.m.- 4:00 p.m.Tuesday7:30 a.m.- 4:00 p.m.Wednesday7:30 a.m.- 4:00 p.m.Thursday7:30 a.m.- 4:00 p.m.Friday7:30 a.m.- 4:00 p.m.SaturdayClosedSundayClosed","https://www.siteone.com/store/25"
"https://www.siteone.com/","Naples FL ","3706 Progress Ave","Naples","FL","34104","US","26","239-643-3255","SiteOne Landscape Supply","26.164218","-81.762894","Monday7:00 a.m.- 4:00 p.m.Tuesday7:00 a.m.- 4:00 p.m.Wednesday7:00 a.m.- 4:00 p.m.Thursday7:00 a.m.- 4:00 p.m.Friday7:00 a.m.- 4:00 p.m.Saturday8:00 a.m.- 12:00 p.m.SundayClosed","https://www.siteone.com/store/26"
"https://www.siteone.com/","New Whiteland IN ","130 Crossroads Dr","New Whiteland","IN","46184","US","33","317-535-7891","SiteOne Landscape Supply","39.576882","-86.093801","Monday7:30 a.m.- 4:00 p.m.Tuesday7:30 a.m.- 4:00 p.m.Wednesday7:30 a.m.- 4:00 p.m.Thursday7:30 a.m.- 4:00 p.m.Friday7:30 a.m.- 4:00 p.m.SaturdayClosedSundayClosed","https://www.siteone.com/store/33"
"https://www.siteone.com/","Commerce Township MI ","1855 Rock Rd","Commerce Township","MI","48390","US","34","248-960-1882","SiteOne Landscape Supply","42.553647","-83.445191","Monday7:30 a.m.- 4:00 p.m.Tuesday7:30 a.m.- 4:00 p.m.Wednesday7:30 a.m.- 4:00 p.m.Thursday7:30 a.m.- 4:00 p.m.Friday7:30 a.m.- 4:00 p.m.SaturdayClosedSundayClosed","https://www.siteone.com/store/34"
"https://www.siteone.com/","Midlothian VA ","14440 Sommerville Ct","Midlothian","VA","23113","US","36","804-379-2879","SiteOne Landscape Supply","37.509117","-77.675744","Monday7:30 a.m.- 4:30 p.m.Tuesday7:30 a.m.- 4:30 p.m.Wednesday7:30 a.m.- 4:30 p.m.Thursday7:30 a.m.- 4:30 p.m.Friday7:30 a.m.- 4:30 p.m.Saturday8:00 a.m.- 12:00 p.m.SundayClosed","https://www.siteone.com/store/36"
"https://www.siteone.com/","Holland MI ","11380 E Lakewood Blvd","Holland","MI","49424","US","39","616-738-0382","SiteOne Landscape Supply","42.804982","-86.063213","Monday7:30 a.m.- 4:00 p.m.Tuesday7:30 a.m.- 4:00 p.m.Wednesday7:30 a.m.- 4:00 p.m.Thursday7:30 a.m.- 4:00 p.m.Friday7:30 a.m.- 4:00 p.m.SaturdayClosedSundayClosed","https://www.siteone.com/store/39"
"https://www.siteone.com/","Hammonton NJ ","716 White Horse Pike","Hammonton","NJ","08037","US","40","609-561-1777","SiteOne Landscape Supply","39.661255","-74.784722","Monday7:30 a.m.- 4:00 p.m.Tuesday7:30 a.m.- 4:00 p.m.Wednesday7:30 a.m.- 4:00 p.m.Thursday7:30 a.m.- 4:00 p.m.Friday7:30 a.m.- 4:00 p.m.SaturdayClosedSundayClosed","https://www.siteone.com/store/40"
"https://www.siteone.com/","Sterling VA ","22713 Commerce Center Ct Ste 110","Sterling","VA","20166","US","41","703-661-8262","SiteOne Landscape Supply","38.988539","-77.46994","Monday7:00 a.m.- 4:00 p.m.Tuesday7:00 a.m.- 4:00 p.m.Wednesday7:00 a.m.- 4:00 p.m.Thursday7:00 a.m.- 4:00 p.m.Friday7:00 a.m.- 4:00 p.m.Saturday7:00 a.m.- 11:00 a.m.SundayClosed","https://www.siteone.com/store/41"
"https://www.siteone.com/","Gaithersburg MD ","7913 Cessna Ave Ste F","Gaithersburg","MD","20879","US","42","301-926-7850","SiteOne Landscape Supply","39.171761","-77.160755","Monday7:00 a.m.- 4:00 p.m.Tuesday7:00 a.m.- 4:00 p.m.Wednesday7:00 a.m.- 4:00 p.m.Thursday7:00 a.m.- 4:00 p.m.Friday7:00 a.m.- 4:00 p.m.Saturday7:00 a.m.- 11:00 a.m.SundayClosed","https://www.siteone.com/store/42"
"https://www.siteone.com/","Raleigh NC ","8850 Westgate Park Dr","Raleigh","NC","27617","US","44","919-789-4779","SiteOne Landscape Supply","35.905586","-78.746831","Monday7:30 a.m.- 4:30 p.m.Tuesday7:30 a.m.- 4:30 p.m.Wednesday7:30 a.m.- 4:30 p.m.Thursday7:30 a.m.- 4:30 p.m.Friday7:30 a.m.- 4:30 p.m.SaturdayClosedSundayClosed","https://www.siteone.com/store/44"
"https://www.siteone.com/","Olathe KS ","15170 S Hamilton St Ste A","Olathe","KS","66062","US","45","913-780-3004","SiteOne Landscape Supply","38.853752","-94.811444","Monday7:30 a.m.- 4:00 p.m.Tuesday7:30 a.m.- 4:00 p.m.Wednesday7:30 a.m.- 4:00 p.m.Thursday7:30 a.m.- 4:00 p.m.Friday7:30 a.m.- 4:00 p.m.SaturdayClosedSundayClosed","https://www.siteone.com/store/45"
"https://www.siteone.com/","Salisbury MD ","2257 Northwood Dr Ste B","Salisbury","MD","21801","US","47","410-543-4650","SiteOne Landscape Supply","38.404886","-75.577626","Monday7:00 a.m.- 4:00 p.m.Tuesday7:00 a.m.- 4:00 p.m.Wednesday7:00 a.m.- 4:00 p.m.Thursday7:00 a.m.- 4:00 p.m.Friday7:00 a.m.- 4:00 p.m.Saturday7:00 a.m.- 11:00 a.m.SundayClosed","https://www.siteone.com/store/47"
"https://www.siteone.com/","Chesterfield MO ","18614 Olive Street Rd","Chesterfield","MO","63005","US","48","636-519-9996","SiteOne Landscape Supply","38.672","-90.664","Monday7:30 a.m.- 4:00 p.m.Tuesday7:30 a.m.- 4:00 p.m.Wednesday7:30 a.m.- 4:00 p.m.Thursday7:30 a.m.- 4:00 p.m.Friday7:30 a.m.- 4:00 p.m.SaturdayClosedSundayClosed","https://www.siteone.com/store/48"
"https://www.siteone.com/","McDonough GA ","135 Mount Carmel Rd","McDonough","GA","30253","US","50","678-583-5000","SiteOne Landscape Supply","33.438475","-84.246497","Monday7:30 a.m.- 4:30 p.m.Tuesday7:30 a.m.- 4:30 p.m.Wednesday7:30 a.m.- 4:30 p.m.Thursday7:30 a.m.- 4:30 p.m.Friday7:30 a.m.- 4:30 p.m.Saturday8:00 a.m.- 12:00 p.m.SundayClosed","https://www.siteone.com/store/50"
"https://www.siteone.com/","Naples, FL - Landscaper's Choice ","218 Sabal Palm Rd","Naples","FL","34114","US","55","239-774-9311","SiteOne Landscape Supply","<MISSING>","<MISSING>","Monday7:00 a.m.- 4:00 p.m.Tuesday7:00 a.m.- 4:00 p.m.Wednesday7:00 a.m.- 4:00 p.m.Thursday7:00 a.m.- 4:00 p.m.Friday7:00 a.m.- 4:00 p.m.Saturday7:00 a.m.- 12:00 p.m.SundayClosed","https://www.siteone.com/store/55"
"https://www.siteone.com/","Bonita Springs, FL- Landscaper's Choice ","24242 Production Cir","Bonita Springs","FL","34135","US","56","239-676-8293","SiteOne Landscape Supply","<MISSING>","<MISSING>","Monday7:00 a.m.- 4:00 p.m.Tuesday7:00 a.m.- 4:00 p.m.Wednesday7:00 a.m.- 4:00 p.m.Thursday7:00 a.m.- 4:00 p.m.Friday7:00 a.m.- 4:00 p.m.SaturdayClosedSundayClosed","https://www.siteone.com/store/56"
"https://www.siteone.com/","Buford GA ","4550 S Lee St","Buford","GA","30518","US","57","770-831-9232","SiteOne Landscape Supply","34.109","-84.005","Monday7:30 a.m.- 4:30 p.m.Tuesday7:30 a.m.- 4:30 p.m.Wednesday7:30 a.m.- 4:30 p.m.Thursday7:30 a.m.- 4:30 p.m.Friday7:30 a.m.- 4:30 p.m.Saturday8:00 a.m.- 12:00 p.m.SundayClosed","https://www.siteone.com/store/57"
"https://www.siteone.com/","Traverse City MI ","486 W Welch Ct","Traverse City","MI","49686","US","58","231-933-9090","SiteOne Landscape Supply","44.731379","-85.583181","Monday7:30 a.m.- 4:00 p.m.Tuesday7:30 a.m.- 4:00 p.m.Wednesday7:30 a.m.- 4:00 p.m.Thursday7:30 a.m.- 4:00 p.m.Friday7:30 a.m.- 4:00 p.m.SaturdayClosedSundayClosed","https://www.siteone.com/store/58"
"https://www.siteone.com/","Memphis TN ","5970 Macon Cv","Memphis","TN","38134","US","59","901-373-6164","SiteOne Landscape Supply","35.194745","-89.839047","Monday7:00 a.m.- 4:00 p.m.Tuesday7:00 a.m.- 4:00 p.m.Wednesday7:00 a.m.- 4:00 p.m.Thursday7:00 a.m.- 4:00 p.m.Friday7:00 a.m.- 4:00 p.m.Saturday8:00 a.m.- 12:00 p.m.SundayClosed","https://www.siteone.com/store/59"
"https://www.siteone.com/","Taylor MI ","22600 Pennsylvania Rd","Taylor","MI","48180","US","61","734-284-8314","SiteOne Landscape Supply","42.183727","-83.255024","Monday7:30 a.m.- 4:00 p.m.Tuesday7:30 a.m.- 4:00 p.m.Wednesday7:30 a.m.- 4:00 p.m.Thursday7:30 a.m.- 4:00 p.m.Friday7:30 a.m.- 4:00 p.m.SaturdayClosedSundayClosed","https://www.siteone.com/store/61"
"https://www.siteone.com/","Panama City FL ","7932 McElvey Rd","Panama City","FL","32408","US","63","850-763-5553","SiteOne Landscape Supply","30.204527","-85.673355","Monday7:00 a.m.- 4:00 p.m.Tuesday7:00 a.m.- 4:00 p.m.Wednesday7:00 a.m.- 4:00 p.m.Thursday7:00 a.m.- 4:00 p.m.Friday7:00 a.m.- 4:00 p.m.SaturdayClosedSundayClosed","https://www.siteone.com/store/63"
"https://www.siteone.com/","Montgomery AL ","700 Enterprise Ct","Montgomery","AL","36117","US","65","334-395-8080","SiteOne Landscape Supply","32.415488","-86.259187","Monday7:30 a.m.- 4:30 p.m.Tuesday7:30 a.m.- 4:30 p.m.Wednesday7:30 a.m.- 4:30 p.m.Thursday7:30 a.m.- 4:30 p.m.Friday7:30 a.m.- 4:30 p.m.SaturdayClosedSundayClosed","https://www.siteone.com/store/65"
"https://www.siteone.com/","Wichita KS ","2249 N Hoover Rd","Wichita","KS","67205","US","66","316-946-9788","SiteOne Landscape Supply","37.726994","-97.409159","Monday7:30 a.m.- 4:00 p.m.Tuesday7:30 a.m.- 4:00 p.m.Wednesday7:30 a.m.- 4:00 p.m.Thursday7:30 a.m.- 4:00 p.m.Friday7:30 a.m.- 4:00 p.m.SaturdayClosedSundayClosed","https://www.siteone.com/store/66"
"https://www.siteone.com/","Sewell NJ ","17 Hilltop Ave","Sewell","NJ","08080","US","68","856-881-0318","SiteOne Landscape Supply","39.761671","-75.109349","Monday7:30 a.m.- 4:00 p.m.Tuesday7:30 a.m.- 4:00 p.m.Wednesday7:30 a.m.- 4:00 p.m.Thursday7:30 a.m.- 4:00 p.m.Friday7:30 a.m.- 4:00 p.m.SaturdayClosedSundayClosed","https://www.siteone.com/store/68"
"https://www.siteone.com/","Clermont FL ","260 Hatteras Ave","Clermont","FL","34711","US","70","352-242-1126","SiteOne Landscape Supply","28.56625","-81.733307","Monday7:00 a.m.- 4:00 p.m.Tuesday7:00 a.m.- 4:00 p.m.Wednesday7:00 a.m.- 4:00 p.m.Thursday7:00 a.m.- 4:00 p.m.Friday7:00 a.m.- 4:00 p.m.Saturday8:00 a.m.- 12:00 p.m.SundayClosed","https://www.siteone.com/store/70"
"https://www.siteone.com/","Ocala FL ","4800 NW 5th St Ste 202","Ocala","FL","34482","US","73","352-351-3400","SiteOne Landscape Supply","29.187525","-82.140394","Monday7:00 a.m.- 4:00 p.m.Tuesday7:00 a.m.- 4:00 p.m.Wednesday7:00 a.m.- 4:00 p.m.Thursday7:00 a.m.- 4:00 p.m.Friday7:00 a.m.- 4:00 p.m.Saturday8:00 a.m.- 12:00 p.m.SundayClosed","https://www.siteone.com/store/73"
"https://www.siteone.com/","Santa Rosa Beach FL ","77 Shannon Ln","Santa Rosa Beach","FL","32459","US","74","850-622-1919","SiteOne Landscape Supply","30.371993","-86.229699","Monday7:00 a.m.- 4:00 p.m.Tuesday7:00 a.m.- 4:00 p.m.Wednesday7:00 a.m.- 4:00 p.m.Thursday7:00 a.m.- 4:00 p.m.Friday7:00 a.m.- 4:00 p.m.SaturdayClosedSundayClosed","https://www.siteone.com/store/74"
"https://www.siteone.com/","Riviera Beach FL ","3635 Fiscal Ct","Riviera Beach","FL","33404","US","75","561-844-8088","SiteOne Landscape Supply","26.783074","-80.065283","Monday7:00 a.m.- 4:00 p.m.Tuesday7:00 a.m.- 4:00 p.m.Wednesday7:00 a.m.- 4:00 p.m.Thursday7:00 a.m.- 4:00 p.m.Friday7:00 a.m.- 4:00 p.m.Saturday8:00 a.m.- 12:00 p.m.SundayClosed","https://www.siteone.com/store/75"
"https://www.siteone.com/","Hamel MN ","640 Hamel Rd","Hamel","MN","55340","US","76","763-478-4725","SiteOne Landscape Supply","45.042954","-93.537906","Monday7:30 a.m.- 4:00 p.m.Tuesday7:30 a.m.- 4:00 p.m.Wednesday7:30 a.m.- 4:00 p.m.Thursday7:30 a.m.- 4:00 p.m.Friday7:30 a.m.- 4:00 p.m.SaturdayClosedSundayClosed","https://www.siteone.com/store/76"
"https://www.siteone.com/","Concord NC ","1161 Biscayne Dr","Concord","NC","28027","US","77","704-262-7855","SiteOne Landscape Supply","35.429018","-80.668911","Monday7:30 a.m.- 4:30 p.m.Tuesday7:30 a.m.- 4:30 p.m.Wednesday7:30 a.m.- 4:30 p.m.Thursday7:30 a.m.- 4:30 p.m.Friday7:30 a.m.- 4:30 p.m.SaturdayClosedSundayClosed","https://www.siteone.com/store/77"
"https://www.siteone.com/","St. George UT ","177 N 3050 E","Saint George","UT","84790","US","79","435-628-5318","SiteOne Landscape Supply","37.085534","-113.574961","Monday7:00 a.m.- 4:00 p.m.Tuesday7:00 a.m.- 4:00 p.m.Wednesday7:00 a.m.- 4:00 p.m.Thursday7:00 a.m.- 4:00 p.m.Friday7:00 a.m.- 4:00 p.m.SaturdayClosedSundayClosed","https://www.siteone.com/store/79"
"https://www.siteone.com/","Tigard OR ","14555 SW 72nd Ave","Tigard","OR","97224","US","81","503-885-9096","SiteOne Landscape Supply","45.380002","-122.768394","Monday7:30 a.m.- 4:00 p.m.Tuesday7:30 a.m.- 4:00 p.m.Wednesday7:30 a.m.- 4:00 p.m.Thursday7:30 a.m.- 4:00 p.m.Friday7:30 a.m.- 4:00 p.m.SaturdayClosedSundayClosed","https://www.siteone.com/store/81"
"https://www.siteone.com/","Greenville SC ","714 Mauldin Rd","Greenville","SC","29607","US","85","864-236-0753","SiteOne Landscape Supply","34.791006","-82.351624","Monday7:30 a.m.- 4:30 p.m.Tuesday7:30 a.m.- 4:30 p.m.Wednesday7:30 a.m.- 4:30 p.m.Thursday7:30 a.m.- 4:30 p.m.Friday7:30 a.m.- 4:30 p.m.SaturdayClosedSundayClosed","https://www.siteone.com/store/85"
"https://www.siteone.com/","Twin Falls ID ","1773 Eldridge Ave","Twin Falls","ID","83301","US","86","208-734-9089","SiteOne Landscape Supply","42.541277","-114.450335","Monday8:00 a.m.- 4:00 p.m.Tuesday8:00 a.m.- 4:00 p.m.Wednesday8:00 a.m.- 4:00 p.m.Thursday8:00 a.m.- 4:00 p.m.Friday8:00 a.m.- 4:00 p.m.SaturdayClosedSundayClosed","https://www.siteone.com/store/86"
"https://www.siteone.com/","West Jordan UT ","9812 S 6045 W","West Jordan","UT","84081","US","88","801-282-5898","SiteOne Landscape Supply","40.573286","-112.03497","Monday7:30 a.m.- 4:00 p.m.Tuesday7:30 a.m.- 4:00 p.m.Wednesday7:30 a.m.- 4:00 p.m.Thursday7:30 a.m.- 4:00 p.m.Friday7:30 a.m.- 4:00 p.m.SaturdayClosedSundayClosed","https://www.siteone.com/store/88"
"https://www.siteone.com/","Mooresville NC ","214 Transco Rd","Mooresville","NC","28117","US","90","704-896-9969","SiteOne Landscape Supply","35.522727","-80.858734","Monday7:30 a.m.- 4:30 p.m.Tuesday7:30 a.m.- 4:30 p.m.Wednesday7:30 a.m.- 4:30 p.m.Thursday7:30 a.m.- 4:30 p.m.Friday7:30 a.m.- 4:30 p.m.Saturday8:00 a.m.- 4:30 p.m.SundayClosed","https://www.siteone.com/store/90"
"https://www.siteone.com/","Bellevue, WA - Terrazzo ","13162 SE 32nd St","Bellevue","WA","98005","US","92","425-644-5577","SiteOne Landscape Supply","47.608","-122.167","Monday7:00 a.m.- 4:00 p.m.Tuesday7:00 a.m.- 4:00 p.m.Wednesday7:00 a.m.- 4:00 p.m.Thursday7:00 a.m.- 4:00 p.m.Friday7:00 a.m.- 4:00 p.m.SaturdayClosedSundayClosed","https://www.siteone.com/store/92"
"https://www.siteone.com/","Freehold NJ ","3 Industrial Ct Ste 1","Freehold","NJ","07728","US","93","732-625-8194","SiteOne Landscape Supply","40.228219","-74.234111","Monday7:30 a.m.- 4:00 p.m.Tuesday7:30 a.m.- 4:00 p.m.Wednesday7:30 a.m.- 4:00 p.m.Thursday7:30 a.m.- 4:00 p.m.Friday7:30 a.m.- 4:00 p.m.SaturdayClosedSundayClosed","https://www.siteone.com/store/93"
"https://www.siteone.com/","Burnsville MN ","11431 Rupp Dr","Burnsville","MN","55337","US","96","952-707-8831","SiteOne Landscape Supply","44.797354","-93.255504","Monday7:30 a.m.- 4:00 p.m.Tuesday7:30 a.m.- 4:00 p.m.Wednesday7:30 a.m.- 4:00 p.m.Thursday7:30 a.m.- 4:00 p.m.Friday7:30 a.m.- 4:00 p.m.SaturdayClosedSundayClosed","https://www.siteone.com/store/96"
"https://www.siteone.com/","West Springfield MA ","1004 Memorial Ave # 1010","West Springfield","MA","01089","US","97","413-732-5335","SiteOne Landscape Supply","42.094578","-72.613966","Monday7:00 a.m.- 4:00 p.m.Tuesday7:00 a.m.- 4:00 p.m.Wednesday7:00 a.m.- 4:00 p.m.Thursday7:00 a.m.- 4:00 p.m.Friday7:00 a.m.- 4:00 p.m.SaturdayClosedSundayClosed","https://www.siteone.com/store/97"
"https://www.siteone.com/","Brighton MI ","7540 Whitmore Lake Rd Ste 200","Brighton","MI","48116","US","99","810-231-1107","SiteOne Landscape Supply","42.491","-83.758","Monday7:30 a.m.- 4:00 p.m.Tuesday7:30 a.m.- 4:00 p.m.Wednesday7:30 a.m.- 4:00 p.m.Thursday7:30 a.m.- 4:00 p.m.Friday7:30 a.m.- 4:00 p.m.SaturdayClosedSundayClosed","https://www.siteone.com/store/99"
"https://www.siteone.com/","San Diego CA ","5805 Kearny Villa Rd","San Diego","CA","92123","US","102","858-560-6611","SiteOne Landscape Supply","32.839","-117.133","Monday6:30 a.m.- 4:30 p.m.Tuesday6:30 a.m.- 4:30 p.m.Wednesday6:30 a.m.- 4:30 p.m.Thursday6:30 a.m.- 4:30 p.m.Friday6:30 a.m.- 4:30 p.m.Saturday7:00 a.m.- 11:30 a.m.SundayClosed","https://www.siteone.com/store/102"
"https://www.siteone.com/","Margate FL ","1701 NW 33rd St","Pompano Beach","FL","33064","US","103","954-977-4445","SiteOne Landscape Supply","26.248604","-80.197544","Monday7:00 a.m.- 4:00 p.m.Tuesday7:00 a.m.- 4:00 p.m.Wednesday7:00 a.m.- 4:00 p.m.Thursday7:00 a.m.- 4:00 p.m.Friday7:00 a.m.- 4:00 p.m.Saturday8:00 a.m.- 12:00 p.m.SundayClosed","https://www.siteone.com/store/103"
"https://www.siteone.com/","Nashville TN ","2639 Grandview Ave","Nashville","TN","37211","US","104","615-254-3100","SiteOne Landscape Supply","36.115836","-86.749143","Monday7:00 a.m.- 4:00 p.m.Tuesday7:00 a.m.- 4:00 p.m.Wednesday7:00 a.m.- 4:00 p.m.Thursday7:00 a.m.- 4:00 p.m.Friday7:00 a.m.- 4:00 p.m.Saturday7:00 a.m.- 11:00 a.m.SundayClosed","https://www.siteone.com/store/104"
"https://www.siteone.com/","Gahanna OH ","960 Claycraft Rd","Gahanna","OH","43230","US","105","614-863-4013","SiteOne Landscape Supply","39.992912","-82.848766","Monday7:30 a.m.- 4:00 p.m.Tuesday7:30 a.m.- 4:00 p.m.Wednesday7:30 a.m.- 4:00 p.m.Thursday7:30 a.m.- 4:00 p.m.Friday7:30 a.m.- 4:00 p.m.SaturdayClosedSundayClosed","https://www.siteone.com/store/105"
"https://www.siteone.com/","Orange CA ","610 N Batavia St","Orange","CA","92868","US","106","714-639-1850","SiteOne Landscape Supply","33.797","-117.862","Monday6:30 a.m.- 4:30 p.m.Tuesday6:30 a.m.- 4:30 p.m.Wednesday6:30 a.m.- 4:30 p.m.Thursday6:30 a.m.- 4:30 p.m.Friday6:30 a.m.- 4:30 p.m.Saturday7:00 a.m.- 11:30 a.m.SundayClosed","https://www.siteone.com/store/106"
"https://www.siteone.com/","Huntsville AL ","201 Dan Tibbs Rd NW","Huntsville","AL","35806","US","107","256-721-0071","SiteOne Landscape Supply","34.779","-86.662","Monday7:30 a.m.- 4:30 p.m.Tuesday7:30 a.m.- 4:30 p.m.Wednesday7:30 a.m.- 4:30 p.m.Thursday7:30 a.m.- 4:30 p.m.Friday7:30 a.m.- 4:30 p.m.Saturday7:30 a.m.- 11:30 a.m.SundayClosed","https://www.siteone.com/store/107"
"https://www.siteone.com/","Vista CA ","2120 La Mirada Dr","Vista","CA","92081","US","108","760-734-4334","SiteOne Landscape Supply","33.152","-117.235","Monday6:30 a.m.- 4:30 p.m.Tuesday6:30 a.m.- 4:30 p.m.Wednesday6:30 a.m.- 4:30 p.m.Thursday6:30 a.m.- 4:30 p.m.Friday6:30 a.m.- 4:30 p.m.Saturday7:00 a.m.- 11:30 a.m.SundayClosed","https://www.siteone.com/store/108"
"https://www.siteone.com/","San Bernardino CA ","1548 S Mountain View Ave","San Bernardino","CA","92408","US","109","909-824-3612","SiteOne Landscape Supply","34.073","-117.244","Monday6:30 a.m.- 4:30 p.m.Tuesday6:30 a.m.- 4:30 p.m.Wednesday6:30 a.m.- 4:30 p.m.Thursday6:30 a.m.- 4:30 p.m.Friday6:30 a.m.- 4:30 p.m.Saturday7:00 a.m.- 11:30 a.m.SundayClosed","https://www.siteone.com/store/109"
"https://www.siteone.com/","El Cajon CA ","435 N Marshall Ave","El Cajon","CA","92020","US","110","619-440-4703","SiteOne Landscape Supply","32.800","-116.975","Monday6:30 a.m.- 4:30 p.m.Tuesday6:30 a.m.- 4:30 p.m.Wednesday6:30 a.m.- 4:30 p.m.Thursday6:30 a.m.- 4:30 p.m.Friday6:30 a.m.- 4:30 p.m.Saturday7:00 a.m.- 11:30 a.m.SundayClosed","https://www.siteone.com/store/110"
"https://www.siteone.com/","Woburn MA ","21 Wheeling Ave","Woburn","MA","01801","US","111","781-938-6464","SiteOne Landscape Supply","42.500137","-71.137721","Monday7:00 a.m.- 4:00 p.m.Tuesday7:00 a.m.- 4:00 p.m.Wednesday7:00 a.m.- 4:00 p.m.Thursday7:00 a.m.- 4:00 p.m.Friday7:00 a.m.- 4:00 p.m.Saturday8:00 a.m.- 12:00 p.m.SundayClosed","https://www.siteone.com/store/111"
"https://www.siteone.com/","Encinitas CA ","750 S Coast Highway 101","Encinitas","CA","92024","US","112","760-436-2062","SiteOne Landscape Supply","33.043","-117.293","Monday6:30 a.m.- 4:30 p.m.Tuesday6:30 a.m.- 4:30 p.m.Wednesday6:30 a.m.- 4:30 p.m.Thursday6:30 a.m.- 4:30 p.m.Friday6:30 a.m.- 4:30 p.m.Saturday7:00 a.m.- 11:30 a.m.SundayClosed","https://www.siteone.com/store/112"
"https://www.siteone.com/","Noblesville IN ","20238 Hague Rd","Noblesville","IN","46062","US","114","317-770-8950","SiteOne Landscape Supply","40.080454","-86.033417","Monday7:30 a.m.- 4:00 p.m.Tuesday7:03 a.m.- 4:00 p.m.Wednesday7:30 a.m.- 4:00 p.m.Thursday7:30 a.m.- 4:00 p.m.Friday7:30 a.m.- 4:00 p.m.SaturdayClosedSundayClosed","https://www.siteone.com/store/114"
"https://www.siteone.com/","Eugene OR ","1285 Wallis St","Eugene","OR","97402","US","116","541-342-1203","SiteOne Landscape Supply","44.056944","-123.101853","Monday7:30 a.m.- 4:00 p.m.Tuesday7:30 a.m.- 4:00 p.m.Wednesday7:30 a.m.- 4:00 p.m.Thursday7:30 a.m.- 4:00 p.m.Friday7:30 a.m.- 4:00 p.m.SaturdayClosedSundayClosed","https://www.siteone.com/store/116"
"https://www.siteone.com/","Escondido CA ","731 Enterprise St","Escondido","CA","92029","US","117","760-746-8000","SiteOne Landscape Supply","33.126","-117.113","Monday6:30 a.m.- 4:30 p.m.Tuesday6:30 a.m.- 4:30 p.m.Wednesday6:30 a.m.- 4:30 p.m.Thursday6:30 a.m.- 4:30 p.m.Friday6:30 a.m.- 4:30 p.m.Saturday7:00 a.m.- 11:30 a.m.SundayClosed","https://www.siteone.com/store/117"
"https://www.siteone.com/","King of Prussia PA ","201 King Manor Dr","King Of Prussia","PA","19406","US","118","610-278-2637","SiteOne Landscape Supply","40.090552","-75.350847","Monday7:00 a.m.- 4:00 p.m.Tuesday7:00 a.m.- 4:00 p.m.Wednesday7:00 a.m.- 4:00 p.m.Thursday7:00 a.m.- 4:00 p.m.Friday7:00 a.m.- 4:00 p.m.Saturday7:00 a.m.- 11:00 a.m.SundayClosed","https://www.siteone.com/store/118"
"https://www.siteone.com/","Meridian ID ","2755 E Lanark St","Meridian","ID","83642","US","119","208-288-2102","SiteOne Landscape Supply","43.607226","-116.360049","Monday8:00 a.m.- 4:30 p.m.Tuesday8:00 a.m.- 4:30 p.m.Wednesday8:00 a.m.- 4:30 p.m.Thursday8:00 a.m.- 4:30 p.m.Friday8:00 a.m.- 4:30 p.m.SaturdayClosedSundayClosed","https://www.siteone.com/store/119"
"https://www.siteone.com/","Springfield VA ","7200 Fullerton Rd Ste G","Springfield","VA","22150","US","121","703-440-0900","SiteOne Landscape Supply","38.741844","-77.208697","Monday7:00 a.m.- 4:00 p.m.Tuesday7:00 a.m.- 4:00 p.m.Wednesday7:00 a.m.- 4:00 p.m.Thursday7:00 a.m.- 4:00 p.m.Friday7:00 a.m.- 4:00 p.m.Saturday7:00 a.m.- 11:00 a.m.SundayClosed","https://www.siteone.com/store/121"
"https://www.siteone.com/","Charleston SC ","637 Marina Dr","Charleston","SC","29492","US","122","843-216-1788","SiteOne Landscape Supply","32.887933","-79.932689","Monday7:30 a.m.- 4:30 p.m.Tuesday7:30 a.m.- 4:30 p.m.Wednesday7:30 a.m.- 4:30 p.m.Thursday7:30 a.m.- 4:30 p.m.Friday7:30 a.m.- 4:30 p.m.SaturdayClosedSundayClosed","https://www.siteone.com/store/122"
"https://www.siteone.com/","Wixom MI ","30023 S Wixom Rd","Wixom","MI","48393","US","123","248-669-3787","SiteOne Landscape Supply","42.513","-83.538","Monday7:30 a.m.- 4:00 p.m.Tuesday7:30 a.m.- 4:00 p.m.Wednesday7:30 a.m.- 4:00 p.m.Thursday7:30 a.m.- 4:00 p.m.Friday7:30 a.m.- 4:00 p.m.Saturday7:30 a.m.- 1:00 p.m.SundayClosed","https://www.siteone.com/store/123"
"https://www.siteone.com/","Farmington Hills MI ","29820 W 8 Mile Rd","Farmington Hills","MI","48336","US","124","248-478-1729","SiteOne Landscape Supply","42.442","-83.339","Monday7:30 a.m.- 4:00 p.m.Tuesday7:30 a.m.- 4:00 p.m.Wednesday7:30 a.m.- 4:00 p.m.Thursday7:30 a.m.- 4:00 p.m.Friday7:30 a.m.- 4:00 p.m.Saturday7:30 a.m.- 1:00 p.m.SundayClosed","https://www.siteone.com/store/124"
"https://www.siteone.com/","Ontario CA ","4280 E Lowell St","Ontario","CA","91761","US","125","909-390-4750","SiteOne Landscape Supply","34.052","-117.559","Monday6:30 a.m.- 4:30 p.m.Tuesday6:30 a.m.- 4:30 p.m.Wednesday6:30 a.m.- 4:30 p.m.Thursday6:30 a.m.- 4:30 p.m.Friday6:30 a.m.- 4:30 p.m.Saturday7:00 a.m.- 11:30 a.m.SundayClosed","https://www.siteone.com/store/125"
"https://www.siteone.com/","Corona CA ","360 E Harrison St","Corona","CA","92879","US","126","951-734-3330","SiteOne Landscape Supply","33.884","-117.562","Monday6:30 a.m.- 4:30 p.m.Tuesday6:30 a.m.- 4:30 p.m.Wednesday6:30 a.m.- 4:30 p.m.Thursday6:30 a.m.- 4:30 p.m.Friday6:30 a.m.- 4:30 p.m.Saturday7:00 a.m.- 11:30 a.m.SundayClosed","https://www.siteone.com/store/126"
"https://www.siteone.com/","Chula Vista CA ","375 Trousdale Dr","Chula Vista","CA","91910","US","127","619-691-9700","SiteOne Landscape Supply","32.654","-117.088","Monday6:30 a.m.- 4:30 p.m.Tuesday6:30 a.m.- 4:30 p.m.Wednesday6:30 a.m.- 4:30 p.m.Thursday6:30 a.m.- 4:30 p.m.Friday6:30 a.m.- 4:30 p.m.Saturday7:00 a.m.- 11:30 a.m.SundayClosed","https://www.siteone.com/store/127"
"https://www.siteone.com/","Orange Park FL ","105 Industrial Loop N","Orange Park","FL","32073","US","128","904-269-4159","SiteOne Landscape Supply","30.181034","-81.716198","Monday7:00 a.m.- 4:00 p.m.Tuesday7:00 a.m.- 4:00 p.m.Wednesday7:00 a.m.- 4:00 p.m.Thursday7:00 a.m.- 4:00 p.m.Friday7:00 a.m.- 4:00 p.m.Saturday8:00 a.m.- 12:00 p.m.SundayClosed","https://www.siteone.com/store/128"
"https://www.siteone.com/","San Juan Capistrano CA ","33012 Calle Aviador","San Juan Capistrano","CA","92675","US","129","949-496-1998","SiteOne Landscape Supply","33.483","-117.675","Monday6:30 a.m.- 4:30 p.m.Tuesday6:30 a.m.- 4:30 p.m.Wednesday6:30 a.m.- 4:30 p.m.Thursday6:30 a.m.- 4:30 p.m.Friday6:30 a.m.- 4:30 p.m.Saturday7:00 a.m.- 11:30 p.m.SundayClosed","https://www.siteone.com/store/129"
"https://www.siteone.com/","Duarte CA ","1824 Business Center Dr","Duarte","CA","91010","US","130","626-249-4761","SiteOne Landscape Supply","34.134","-117.966","Monday6:30 a.m.- 4:30 p.m.Tuesday6:30 a.m.- 4:30 p.m.Wednesday6:30 a.m.- 4:30 p.m.Thursday6:30 a.m.- 4:30 p.m.Friday6:30 a.m.- 4:30 p.m.Saturday7:00 a.m.- 11:00 a.m.SundayClosed","https://www.siteone.com/store/130"
"https://www.siteone.com/","Lakeland FL ","3560 Reynolds Rd","Lakeland","FL","33803","US","131","863-669-0212","SiteOne Landscape Supply","28.012179","-81.907761","Monday7:00 a.m.- 4:00 p.m.Tuesday7:00 a.m.- 4:00 p.m.Wednesday7:00 a.m.- 4:00 p.m.Thursday7:00 a.m.- 4:00 p.m.Friday7:00 a.m.- 4:00 p.m.SaturdayClosedSundayClosed","https://www.siteone.com/store/131"
"https://www.siteone.com/","Merrillville IN ","4068 W 82nd Ct","Merrillville","IN","46410","US","133","219-769-2351","SiteOne Landscape Supply","41.469","-87.387","Monday7:30 a.m.- 4:00 p.m.Tuesday7:30 a.m.- 4:00 p.m.Wednesday7:30 a.m.- 4:00 p.m.Thursday7:30 a.m.- 4:00 p.m.Friday7:30 a.m.- 4:00 p.m.SaturdayClosedSundayClosed","https://www.siteone.com/store/133"
"https://www.siteone.com/","Fort Worth TX ","1421 Markum Ranch Rd","Fort Worth","TX","76126","US","134","817-249-2700","SiteOne Landscape Supply","32.681994","-97.459163","Monday7:00 a.m.- 5:00 p.m.Tuesday7:00 a.m.- 5:00 p.m.Wednesday7:00 a.m.- 5:00 p.m.Thursday7:00 a.m.- 5:00 p.m.Friday7:00 a.m.- 5:00 p.m.Saturday7:30 a.m.- 11:30 a.m.SundayClosed","https://www.siteone.com/store/134"
"https://www.siteone.com/","City Of Industry CA ","16025 Robin Way","City Of Industry","CA","91745","US","135","626-968-0047","SiteOne Landscape Supply","34.01","-117.956","Monday6:30 a.m.- 4:30 p.m.Tuesday6:30 a.m.- 4:30 p.m.Wednesday6:30 a.m.- 4:30 p.m.Thursday6:30 a.m.- 4:30 p.m.Friday6:30 a.m.- 4:30 p.m.Saturday7:00 a.m.- 11:30 a.m.SundayClosed","https://www.siteone.com/store/135"
"https://www.siteone.com/","Vancouver WA ","14511 NE 13th Ave Ste 110","Vancouver","WA","98685","US","137","360-574-4201","SiteOne Landscape Supply","45.726215","-122.658826","Monday7:30 a.m.- 4:00 p.m.Tuesday7:30 a.m.- 4:00 p.m.Wednesday7:30 a.m.- 4:00 p.m.Thursday7:30 a.m.- 4:00 p.m.Friday7:30 a.m.- 4:00 p.m.SaturdayClosedSundayClosed","https://www.siteone.com/store/137"
"https://www.siteone.com/","Lakemoor IL ","303 Herbert Rd","Lakemoor","IL","60051","US","138","815-578-1533","SiteOne Landscape Supply","42.324758","-88.206627","Monday7:30 a.m.- 4:00 p.m.Tuesday7:30 a.m.- 4:00 p.m.Wednesday7:30 a.m.- 4:00 p.m.Thursday7:30 a.m.- 4:00 p.m.Friday7:30 a.m.- 4:00 p.m.SaturdayClosedSundayClosed","https://www.siteone.com/store/138"
"https://www.siteone.com/","Indianapolis IN ","9336 Castlegate Dr","Indianapolis","IN","46256","US","139","317-576-1888","SiteOne Landscape Supply","39.924657","-86.027109","Monday7:30 a.m.- 4:00 p.m.Tuesday7:30 a.m.- 4:00 p.m.Wednesday7:30 a.m.- 4:00 p.m.Thursday7:30 a.m.- 4:00 p.m.Friday7:30 a.m.- 4:00 p.m.SaturdayClosedSundayClosed","https://www.siteone.com/store/139"
"https://www.siteone.com/","Valencia CA ","28145 Avenue Crocker","Valencia","CA","91355","US","140","661-775-0930","SiteOne Landscape Supply","34.435","-118.585","Monday6:30 a.m.- 4:30 p.m.Tuesday6:30 a.m.- 4:30 p.m.Wednesday6:30 a.m.- 4:30 p.m.Thursday6:30 a.m.- 4:30 p.m.Friday6:30 a.m.- 4:30 p.m.Saturday7:00 a.m.- 11:30 a.m.SundayClosed","https://www.siteone.com/store/140"
"https://www.siteone.com/","Temecula CA ","41581 Enterprise Cir N","Temecula","CA","92590","US","145","951-296-9898","SiteOne Landscape Supply","33.521","-117.167","Monday6:30 a.m.- 4:30 p.m.Tuesday6:30 a.m.- 4:30 p.m.Wednesday6:30 a.m.- 4:30 p.m.Thursday6:30 a.m.- 4:30 p.m.Friday6:30 a.m.- 4:30 p.m.Saturday7:00 a.m.- 11:30 a.m.SundayClosed","https://www.siteone.com/store/145"
"https://www.siteone.com/","Palm Desert CA ","77868 Wildcat Dr","Palm Desert","CA","92211","US","146","760-360-2950","SiteOne Landscape Supply","33.765","-116.307","Monday6:30 a.m.- 4:30 p.m.Tuesday6:30 a.m.- 4:30 p.m.Wednesday6:30 a.m.- 4:30 p.m.Thursday6:30 a.m.- 4:30 p.m.Friday6:30 a.m.- 4:30 p.m.Saturday7:00 a.m.- 11:00 a.m.SundayClosed","https://www.siteone.com/store/146"
"https://www.siteone.com/","Los Alamitos CA - South Coast Supply ","3626 Cerritos Ave","Los Alamitos","CA","90720","US","147","562-596-6666","SiteOne Hardscape Center","33.81","-118.069","Monday6:30 a.m.- 5:00 p.m.Tuesday6:30 a.m.- 5:00 p.m.Wednesday6:30 a.m.- 5:00 p.m.Thursday6:30 a.m.- 5:00 p.m.Friday6:30 a.m.- 5:00 p.m.Saturday6:30 a.m.- 3:00 p.m.SundayClosed","https://www.siteone.com/store/147"
"https://www.siteone.com/","Huntington Beach CA - South Coast Supply ","18851 Goldenwest St","Huntington Beach","CA","92648","US","148","714-842-8866","SiteOne Hardscape Center","33.689","-118.007","Monday7:00 a.m.- 4:00 p.m.Tuesday7:00 a.m.- 4:00 p.m.Wednesday7:00 a.m.- 4:00 p.m.Thursday7:00 a.m.- 4:00 p.m.Friday7:00 a.m.- 4:00 p.m.Saturday7:00 a.m.- 3:00 p.m.SundayClosed","https://www.siteone.com/store/148"
"https://www.siteone.com/","Bear DE ","711 Carson Dr","Bear","DE","19701","US","152","302-836-3903","SiteOne Landscape Supply","39.609287","-75.690356","Monday7:00 a.m.- 4:00 p.m.Tuesday7:00 a.m.- 4:00 p.m.Wednesday7:00 a.m.- 4:00 p.m.Thursday7:00 a.m.- 4:00 p.m.Friday7:00 a.m.- 4:00 p.m.Saturday7:00 a.m.- 11:00 a.m.SundayClosed","https://www.siteone.com/store/152"
"https://www.siteone.com/","Gilroy CA ","7110 Alexander St","Gilroy","CA","95020","US","153","408-847-8793","SiteOne Landscape Supply","37.002828","-121.564078","Monday6:30 a.m.- 4:30 p.m.Tuesday6:30 a.m.- 4:30 p.m.Wednesday6:30 a.m.- 4:30 p.m.Thursday6:30 a.m.- 4:30 p.m.Friday6:30 a.m.- 4:30 p.m.Saturday7:30 a.m.- 12:00 p.m.SundayClosed","https://www.siteone.com/store/153"
"https://www.siteone.com/","Durham NC ","6408 Leesville Rd","Durham","NC","27703","US","156","919-767-1413","SiteOne Landscape Supply","35.935","-78.778","Monday7:30 a.m.- 4:30 p.m.Tuesday7:30 a.m.- 4:30 p.m.Wednesday7:30 a.m.- 4:30 p.m.Thursday7:30 a.m.- 4:30 p.m.Friday7:30 a.m.- 4:30 p.m.SaturdayClosedSundayClosed","https://www.siteone.com/store/156"
"https://www.siteone.com/","Conway SC ","6531 Highway 90","Conway","SC","29526","US","157","843-399-5990","SiteOne Landscape Supply","33.854","-78.827","Monday7:30 a.m.- 5:00 p.m.Tuesday7:30 a.m.- 5:00 p.m.Wednesday7:30 a.m.- 5:00 p.m.Thursday7:30 a.m.- 5:00 p.m.Friday7:30 a.m.- 4:00 p.m.SaturdayClosedSundayClosed","https://www.siteone.com/store/157"
"https://www.siteone.com/","Bonita Springs FL ","28610 N Diesel Dr","Bonita Springs","FL","34135","US","158","239-949-8551","SiteOne Landscape Supply","26.323377","-81.771293","Monday7:00 a.m.- 4:00 p.m.Tuesday7:00 a.m.- 4:00 p.m.Wednesday7:00 a.m.- 4:00 p.m.Thursday7:00 a.m.- 4:00 p.m.Friday7:00 a.m.- 4:00 p.m.SaturdayClosedSundayClosed","https://www.siteone.com/store/158"
"https://www.siteone.com/","Surprise AZ ","13415 W Westgate Dr","Surprise","AZ","85378","US","160","623-584-5901","SiteOne Landscape Supply","33.640402","-112.34801","Monday6:00 a.m.- 4:00 p.m.Tuesday6:00 a.m.- 4:00 p.m.Wednesday6:00 a.m.- 4:00 p.m.Thursday6:00 a.m.- 4:00 p.m.Friday6:00 a.m.- 4:00 p.m.Saturday7:00 a.m.- 12:00 p.m.SundayClosed","https://www.siteone.com/store/160"
"https://www.siteone.com/","Gilbert AZ ","4729 E Warner Rd","Gilbert","AZ","85296","US","161","480-840-6999","SiteOne Landscape Supply","33.336077","-111.689209","Monday6:00 a.m.- 4:00 p.m.Tuesday6:00 a.m.- 4:00 p.m.Wednesday6:00 a.m.- 4:00 p.m.Thursday6:00 a.m.- 4:00 p.m.Friday6:00 a.m.- 4:00 p.m.Saturday7:00 a.m.- 12:00 p.m.SundayClosed","https://www.siteone.com/store/161"
"https://www.siteone.com/","Austin TX ","10805 Metric Blvd","Austin","TX","78758","US","164","512-833-5070","SiteOne Landscape Supply","30.387742","-97.71089","Monday7:00 a.m.- 5:00 p.m.Tuesday7:00 a.m.- 5:00 p.m.Wednesday7:00 a.m.- 5:00 p.m.Thursday7:00 a.m.- 5:00 p.m.Friday7:00 a.m.- 5:00 p.m.Saturday7:00 a.m.- 12:00 p.m.SundayClosed","https://www.siteone.com/store/164"
"https://www.siteone.com/","San Antonio TX ","15934 Nacogdoches Rd","San Antonio","TX","78247","US","165","210-656-8100","SiteOne Landscape Supply","29.585577","-98.362104","Monday7:00 a.m.- 5:00 p.m.Tuesday7:00 a.m.- 5:00 p.m.Wednesday7:00 a.m.- 5:00 p.m.Thursday7:00 a.m.- 5:00 p.m.Friday7:00 a.m.- 5:00 p.m.Saturday7:00 a.m.- 12:00 p.m.SundayClosed","https://www.siteone.com/store/165"
"https://www.siteone.com/","Colfax NC ","8605 Triad Dr","Colfax","NC","27235","US","166","336-996-4918","SiteOne Hardscape Center","36.094","-79.997","Monday7:30 a.m.- 4:30 p.m.Tuesday7:30 a.m.- 4:30 p.m.Wednesday7:30 a.m.- 4:30 p.m.Thursday7:30 a.m.- 4:30 p.m.Friday7:30 a.m.- 4:30 p.m.Saturday8:00 a.m.- 12:00 p.m.SundayClosed","https://www.siteone.com/store/166"
"https://www.siteone.com/","Rocky Mount VA ","19730 Virgil H Goode Hwy","Rocky Mount","VA","24151","US","167","540-483-2737","SiteOne Hardscape Center","37.068","-79.887","Monday7:30 a.m.- 4:30 p.m.Tuesday7:30 a.m.- 4:30 p.m.Wednesday7:30 a.m.- 4:30 p.m.Thursday7:30 a.m.- 4:30 p.m.Friday7:30 a.m.- 4:30 p.m.Saturday8:00 a.m.- 12:00 p.m.SundayClosed","https://www.siteone.com/store/167"
"https://www.siteone.com/","Fort Worth TX ","1019 N Henderson St Ste 101","Fort Worth","TX","76107","US","168","817-334-7926","SiteOne Landscape Supply","32.762859","-97.348353","Monday7:00 a.m.- 5:00 p.m.Tuesday7:00 a.m.- 5:00 p.m.Wednesday7:00 a.m.- 5:00 p.m.Thursday7:00 a.m.- 5:00 p.m.Friday7:00 a.m.- 5:00 p.m.Saturday7:30 a.m.- 11:30 a.m.SundayClosed","https://www.siteone.com/store/168"
"https://www.siteone.com/","Everett WA ","2920 Chestnut St Ste B","Everett","WA","98201","US","169","425-259-3740","SiteOne Landscape Supply","47.981713","-122.185108","Monday7:30 a.m.- 4:00 p.m.Tuesday7:30 a.m.- 4:00 p.m.Wednesday7:30 a.m.- 4:00 p.m.Thursday7:30 a.m.- 4:00 p.m.Friday7:30 a.m.- 4:00 p.m.SaturdayClosedSundayClosed","https://www.siteone.com/store/169"
"https://www.siteone.com/","Holland OH ","10300 Geiser Rd","Holland","OH","43528","US","170","419-867-1675","SiteOne Landscape Supply","41.611582","-83.716843","Monday7:30 a.m.- 4:00 p.m.Tuesday7:30 a.m.- 4:00 p.m.Wednesday7:30 a.m.- 4:00 p.m.Thursday7:30 a.m.- 4:00 p.m.Friday7:30 a.m.- 4:00 p.m.SaturdayClosedSundayClosed","https://www.siteone.com/store/170"
"https://www.siteone.com/","Birmingham AL ","7347 Cahaba Valley Rd","Birmingham","AL","35242","US","171","205-980-0770","SiteOne Landscape Supply","33.434333","-86.663352","Monday7:30 a.m.- 4:30 p.m.Tuesday7:30 a.m.- 4:30 p.m.Wednesday7:30 a.m.- 4:30 p.m.Thursday7:30 a.m.- 4:30 p.m.Friday7:30 a.m.- 4:30 p.m.Saturday7:30 a.m.- 11:30 a.m.SundayClosed","https://www.siteone.com/store/171"
"https://www.siteone.com/","Alpharetta GA ","5610 McGinnis Ferry Rd Bldg 1","Alpharetta","GA","30005","US","172","770-442-8881","SiteOne Landscape Supply","34.088892","-84.197294","Monday7:30 a.m.- 4:30 p.m.Tuesday7:30 a.m.- 4:30 p.m.Wednesday7:30 a.m.- 4:30 p.m.Thursday7:30 a.m.- 4:30 p.m.Friday7:30 a.m.- 4:30 p.m.Saturday8:00 a.m.- 12:00 p.m.SundayClosed","https://www.siteone.com/store/172"
"https://www.siteone.com/","Kennesaw GA ","2501 S Main St NW","Kennesaw","GA","30144","US","173","770-590-1700","SiteOne Hardscape Center","34.014","-84.61","Monday7:30 a.m.- 4:30 p.m.Tuesday7:30 a.m.- 4:30 p.m.Wednesday7:30 a.m.- 4:30 p.m.Thursday7:30 a.m.- 4:30 p.m.Friday7:30 a.m.- 4:30 p.m.Saturday8:00 a.m.- 12:00 p.m.SundayClosed","https://www.siteone.com/store/173"
"https://www.siteone.com/","Macon GA ","6478 Thomaston Rd","Macon","GA","31220","US","176","478-471-1990","SiteOne Landscape Supply","32.851","-83.771","Monday7:30 a.m.- 4:30 p.m.Tuesday7:30 a.m.- 4:30 p.m.Wednesday7:30 a.m.- 4:30 p.m.Thursday7:30 a.m.- 4:30 p.m.Friday7:30 a.m.- 4:30 p.m.Saturday8:00 a.m.- 12:00 p.m.SundayClosed","https://www.siteone.com/store/176"
"https://www.siteone.com/","Marietta GA ","930 Mountain Industrial Dr NW","Marietta","GA","30060","US","177","770-424-5300","SiteOne Landscape Supply","33.98606","-84.576607","Monday7:30 a.m.- 4:30 p.m.Tuesday7:30 a.m.- 4:30 p.m.Wednesday7:30 a.m.- 4:30 p.m.Thursday7:30 a.m.- 4:30 p.m.Friday7:30 a.m.- 4:30 p.m.Saturday8:00 a.m.- 12:00 p.m.SundayClosed","https://www.siteone.com/store/177"
"https://www.siteone.com/","Wichita KS ","3500 N Hillside Ave","Wichita","KS","67219","US","179","316-832-1701","SiteOne Landscape Supply","37.74729","-97.299227","Monday7:30 a.m.- 4:00 p.m.Tuesday7:30 a.m.- 4:00 p.m.Wednesday7:30 a.m.- 4:00 p.m.Thursday7:30 a.m.- 4:00 p.m.Friday7:30 a.m.- 4:00 p.m.SaturdayClosedSundayClosed","https://www.siteone.com/store/179"
"https://www.siteone.com/","Louisville KY ","13909 Aiken Rd","Louisville","KY","40245","US","180","502-245-0465","SiteOne Landscape Supply","38.259572","-85.496672","Monday7:30 a.m.- 4:00 p.m.Tuesday7:30 a.m.- 4:00 p.m.Wednesday7:30 a.m.- 4:00 p.m.Thursday7:30 a.m.- 4:00 p.m.Friday7:30 a.m.- 4:00 p.m.SaturdayClosedSundayClosed","https://www.siteone.com/store/180"
"https://www.siteone.com/","Canton MS ","2498 US 51","Canton","MS","39046","US","181","601-829-4001","SiteOne Landscape Supply","32.558","-90.061","Monday7:00 a.m.- 4:30 p.m.Tuesday7:00 a.m.- 4:30 p.m.Wednesday7:00 a.m.- 4:30 p.m.Thursday7:00 a.m.- 4:30 p.m.Friday7:00 a.m.- 4:30 p.m.Saturday7:30 a.m.- 12:00 p.m.SundayClosed","https://www.siteone.com/store/181"
"https://www.siteone.com/","Springfield MO ","5236 S Campbell Ave","Springfield","MO","65810","US","182","417-881-6675","SiteOne Landscape Supply","37.116969","-93.296278","Monday7:30 a.m.- 4:30 p.m.Tuesday7:30 a.m.- 4:30 p.m.Wednesday7:30 a.m.- 4:30 p.m.Thursday7:30 a.m.- 4:30 p.m.Friday7:30 a.m.- 4:30 p.m.Saturday8:00 a.m.- 12:00 p.m.SundayClosed","https://www.siteone.com/store/182"
"https://www.siteone.com/","Apex NC ","12660 US 64 Hwy E","Apex","NC","27523","US","183","919-303-7290","SiteOne Landscape Supply","35.738929","-78.963781","Monday7:30 a.m.- 4:30 p.m.Tuesday7:30 a.m.- 4:30 p.m.Wednesday7:30 a.m.- 4:30 p.m.Thursday7:30 a.m.- 4:30 p.m.Friday7:30 a.m.- 4:30 p.m.SaturdayClosedSundayClosed","https://www.siteone.com/store/183"
"https://www.siteone.com/","High Point NC ","819 Gallimore Dairy Rd","High Point","NC","27265","US","184","336-662-8733","SiteOne Landscape Supply","36.067447","-79.983806","Monday7:30 a.m.- 4:30 p.m.Tuesday7:30 a.m.- 4:30 p.m.Wednesday7:30 a.m.- 4:30 p.m.Thursday7:30 a.m.- 4:30 p.m.Friday7:30 a.m.- 4:30 p.m.SaturdayClosedSundayClosed","https://www.siteone.com/store/184"
"https://www.siteone.com/","Greenville NC ","501 Staton Rd","Greenville","NC","27834","US","185","252-551-3700","SiteOne Landscape Supply","35.651068","-77.356473","Monday7:30 a.m.- 4:30 p.m.Tuesday7:30 a.m.- 4:30 p.m.Wednesday7:30 a.m.- 4:30 p.m.Thursday7:30 a.m.- 4:30 p.m.Friday7:30 a.m.- 4:30 p.m.SaturdayClosedSundayClosed","https://www.siteone.com/store/185"
"https://www.siteone.com/","Pineville NC ","11601 Downs Rd","Pineville","NC","28134","US","186","704-583-0711","SiteOne Landscape Supply","35.106","-80.908","Monday7:30 a.m.- 4:30 p.m.Tuesday7:30 a.m.- 4:30 p.m.Wednesday7:30 a.m.- 4:30 p.m.Thursday7:30 a.m.- 4:30 p.m.Friday7:30 a.m.- 4:30 p.m.Saturday7:30 a.m.- 12:00 p.m.SundayClosed","https://www.siteone.com/store/186"
"https://www.siteone.com/","Raleigh NC ","151 S New Hope Rd","Raleigh","NC","27610","US","187","919-250-3338","SiteOne Landscape Supply","35.809195","-78.596196","Monday7:30 a.m.- 4:30 p.m.Tuesday7:30 a.m.- 4:30 p.m.Wednesday7:30 a.m.- 4:30 p.m.Thursday7:30 a.m.- 4:30 p.m.Friday7:30 a.m.- 4:30 p.m.SaturdayClosedSundayClosed","https://www.siteone.com/store/187"
"https://www.siteone.com/","Fayetteville NC ","2494 Downing Rd","Fayetteville","NC","28312","US","188","910-677-0112","SiteOne Landscape Supply","35.045015","-78.828454","Monday7:30 a.m.- 4:30 p.m.Tuesday7:30 a.m.- 4:30 p.m.Wednesday7:30 a.m.- 4:30 p.m.Thursday7:30 a.m.- 4:30 p.m.Friday7:30 a.m.- 4:30 p.m.SaturdayClosedSundayClosed","https://www.siteone.com/store/188"
"https://www.siteone.com/","Bixby OK ","4902 E 121st St S","Bixby","OK","74008","US","189","918-369-2091","SiteOne Landscape Supply","35.9883","-95.904399","Monday7:30 a.m.- 4:30 p.m.Tuesday7:30 a.m.- 4:30 p.m.Wednesday7:30 a.m.- 4:30 p.m.Thursday7:30 a.m.- 4:30 p.m.Friday7:30 a.m.- 4:30 p.m.Saturday8:00 a.m.- 12:00 p.m.SundayClosed","https://www.siteone.com/store/189"
"https://www.siteone.com/","Greer SC ","1165 Brockman McClimon Rd","Greer","SC","29651","US","191","864-879-4914","SiteOne Landscape Supply","34.857915","-82.197238","Monday7:30 a.m.- 4:30 p.m.Tuesday7:30 a.m.- 4:30 p.m.Wednesday7:30 a.m.- 4:30 p.m.Thursday7:30 a.m.- 4:30 p.m.Friday7:30 a.m.- 4:30 p.m.SaturdayClosedSundayClosed","https://www.siteone.com/store/191"
"https://www.siteone.com/","Franklin TN ","1109 Hillsboro Rd","Franklin","TN","37064","US","193","615-794-4144","SiteOne Landscape Supply","35.946663","-86.881325","Monday7:00 a.m.- 4:00 p.m.Tuesday7:00 a.m.- 4:00 p.m.Wednesday7:00 a.m.- 4:00 p.m.Thursday7:00 a.m.- 4:00 p.m.Friday7:00 a.m.- 4:00 p.m.Saturday7:00 a.m.- 11:00 a.m.SundayClosed","https://www.siteone.com/store/193"
"https://www.siteone.com/","Gallatin TN ","1270 Long Hollow Pike","Gallatin","TN","37066","US","194","615-452-9411","SiteOne Landscape Supply","36.387354","-86.50329","Monday7:00 a.m.- 4:00 p.m.Tuesday7:00 a.m.- 4:00 p.m.Wednesday7:00 a.m.- 4:00 p.m.Thursday7:00 a.m.- 4:00 p.m.Friday7:00 a.m.- 4:00 p.m.Saturday7:00 a.m.- 11:00 a.m.SundayClosed","https://www.siteone.com/store/194"
"https://www.siteone.com/","Johnson City TN ","4318 N Roan St","Johnson City","TN","37615","US","195","423-282-8726","SiteOne Landscape Supply","36.379359","-82.407919","Monday7:30 a.m.- 4:30 p.m.Tuesday7:30 a.m.- 4:30 p.m.Wednesday7:30 a.m.- 4:30 p.m.Thursday7:30 a.m.- 4:30 p.m.Friday7:30 a.m.- 4:30 p.m.SaturdayClosedSundayClosed","https://www.siteone.com/store/195"
"https://www.siteone.com/","Knoxville TN ","2200 Lovell Rd","Knoxville","TN","37932","US","196","865-693-3013","SiteOne Landscape Supply","35.947604","-84.127671","Monday7:00 a.m.- 4:00 p.m.Tuesday7:00 a.m.- 4:00 p.m.Wednesday7:00 a.m.- 4:00 p.m.Thursday7:00 a.m.- 4:00 p.m.Friday7:00 a.m.- 4:00 p.m.Saturday7:30 a.m.- 11:30 a.m.SundayClosed","https://www.siteone.com/store/196"
"https://www.siteone.com/","Ooltewah TN ","6815 Mountain View Rd","Ooltewah","TN","37363","US","198","423-238-7273","SiteOne Landscape Supply","35.107681","-85.051254","Monday7:30 a.m.- 4:30 p.m.Tuesday7:30 a.m.- 4:30 p.m.Wednesday7:30 a.m.- 4:30 p.m.Thursday7:30 a.m.- 4:30 p.m.Friday7:30 a.m.- 4:30 p.m.SaturdayClosedSundayClosed","https://www.siteone.com/store/198"
"https://www.siteone.com/","Dallas TX ","13510 Floyd Cir","Dallas","TX","75243","US","199","972-231-0535","SiteOne Landscape Supply","32.931672","-96.744492","Monday7:00 a.m.- 5:00 p.m.Tuesday7:00 a.m.- 5:00 p.m.Wednesday7:00 a.m.- 5:00 p.m.Thursday7:00 a.m.- 5:00 p.m.Friday7:00 a.m.- 5:00 p.m.Saturday7:30 a.m.- 11:30 a.m.SundayClosed","https://www.siteone.com/store/199"
"https://www.siteone.com/","Dallas TX ","10588 Shady Trl","Dallas","TX","75220","US","201","214-352-7755","SiteOne Landscape Supply","32.861591","-96.884505","Monday7:00 a.m.- 5:00 p.m.Tuesday7:00 a.m.- 5:00 p.m.Wednesday7:00 a.m.- 5:00 p.m.Thursday7:00 a.m.- 5:00 p.m.Friday7:00 a.m.- 5:00 p.m.Saturday7:30 a.m.- 11:30 a.m.SundayClosed","https://www.siteone.com/store/201"
"https://www.siteone.com/","McKinney TX ","1501 Mercury Cir","McKinney","TX","75071","US","202","469-742-0953","SiteOne Landscape Supply","33.216423","-96.61115","Monday7:00 a.m.- 5:00 p.m.Tuesday7:00 a.m.- 5:00 p.m.Wednesday7:00 a.m.- 5:00 p.m.Thursday7:00 a.m.- 5:00 p.m.Friday7:00 a.m.- 5:00 p.m.Saturday7:30 a.m.- 11:30 a.m.SundayClosed","https://www.siteone.com/store/202"
"https://www.siteone.com/","Houston TX ","4519 Brittmoore Rd","Houston","TX","77041","US","204","713-849-2700","SiteOne Landscape Supply","29.836438","-95.569986","Monday7:00 a.m.- 5:00 p.m.Tuesday7:00 a.m.- 5:00 p.m.Wednesday7:00 a.m.- 5:00 p.m.Thursday7:00 a.m.- 5:00 p.m.Friday7:00 a.m.- 5:00 p.m.Saturday7:00 a.m.- 11:00 a.m.SundayClosed","https://www.siteone.com/store/204"
"https://www.siteone.com/","Lewisville TX ","701 S Stemmons Fwy Ste 50","Lewisville","TX","75067","US","205","972-434-0408","SiteOne Landscape Supply","33.039335","-97.003784","Monday7:00 a.m.- 5:00 p.m.Tuesday7:00 a.m.- 5:00 p.m.Wednesday7:00 a.m.- 5:00 p.m.Thursday7:00 a.m.- 5:00 p.m.Friday7:00 a.m.- 5:00 p.m.Saturday7:30 a.m.- 11:30 a.m.SundayClosed","https://www.siteone.com/store/205"
"https://www.siteone.com/","Lubbock TX ","5815 50th St","Lubbock","TX","79424","US","207","806-780-7995","SiteOne Landscape Supply","33.549164","-101.741927","Monday7:00 a.m.- 5:00 p.m.Tuesday7:00 a.m.- 5:00 p.m.Wednesday7:00 a.m.- 5:00 p.m.Thursday7:00 a.m.- 5:00 p.m.Friday7:00 a.m.- 5:00 p.m.Saturday7:30 a.m.- 11:30 a.m.SundayClosed","https://www.siteone.com/store/207"
"https://www.siteone.com/","Atlantic Irrigation - Bonaire, GA ","101 Pecan St","Bonaire","GA","31005","US","209","478-918-0204","SiteOne Landscape Supply","32.544","-83.597","MondayClosedTuesdayClosedWednesdayClosedThursdayClosedFridayClosedSaturdayClosedSundayClosed","https://www.siteone.com/store/209"
"https://www.siteone.com/","Mesquite TX ","2945 E Meadows Blvd","Mesquite","TX","75150","US","210","972-681-5511","SiteOne Landscape Supply","32.802876","-96.660677","Monday7:00 a.m.- 5:00 p.m.Tuesday7:00 a.m.- 5:00 p.m.Wednesday7:00 a.m.- 5:00 p.m.Thursday7:00 a.m.- 5:00 p.m.Friday7:00 a.m.- 5:00 p.m.Saturday7:30 a.m.- 11:30 a.m.SundayClosed","https://www.siteone.com/store/210"
"https://www.siteone.com/","Pflugerville TX ","1938 Waukesha Dr","Pflugerville","TX","78660","US","211","512-989-7510","SiteOne Landscape Supply","30.461287","-97.663262","Monday7:00 a.m.- 5:00 p.m.Tuesday7:00 a.m.- 5:00 p.m.Wednesday7:00 a.m.- 5:00 p.m.Thursday7:00 a.m.- 5:00 p.m.Friday7:00 a.m.- 5:00 p.m.Saturday7:00 a.m.- 12:00 p.m.SundayClosed","https://www.siteone.com/store/211"
"https://www.siteone.com/","Plano TX ","1200 Summit Ave","Plano","TX","75074","US","212","972-881-0205","SiteOne Landscape Supply","33.009461","-96.697292","Monday7:00 a.m.- 5:00 p.m.Tuesday7:00 a.m.- 5:00 p.m.Wednesday7:00 a.m.- 5:00 p.m.Thursday7:00 a.m.- 5:00 p.m.Friday7:00 a.m.- 5:00 p.m.Saturday7:30 a.m.- 11:30 a.m.SundayClosed","https://www.siteone.com/store/212"
"https://www.siteone.com/","Atlantic Irrigation - Bridgehampton, NY ","213 Butter Ln Unit I","Bridgehampton","NY","11932","US","213","631-537-1444","SiteOne Landscape Supply","40.941","-72.309","Monday7:30 a.m.- 4:00 p.m.Tuesday7:30 a.m.- 4:00 p.m.Wednesday7:30 a.m.- 4:00 p.m.Thursday7:30 a.m.- 4:00 p.m.Friday7:30 a.m.- 4:00 p.m.SaturdayClosedSundayClosed","https://www.siteone.com/store/213"
"https://www.siteone.com/","Spring TX ","21145 Falvel Rd","Spring","TX","77388","US","214","281-353-6502","SiteOne Landscape Supply","30.069","-95.477","Monday7:00 a.m.- 5:00 p.m.Tuesday7:00 a.m.- 5:00 p.m.Wednesday7:00 a.m.- 5:00 p.m.Thursday7:00 a.m.- 5:00 p.m.Friday7:00 a.m.- 5:00 p.m.Saturday7:00 a.m.- 11:00 a.m.SundayClosed","https://www.siteone.com/store/214"
"https://www.siteone.com/","Atlantic Irrigation - Cheshire, CT ","1187 Highland Ave","Cheshire","CT","06410","US","216","203-439-7922","SiteOne Landscape Supply","41.531","-72.895","Monday7:00 a.m.- 4:00 p.m.Tuesday7:00 a.m.- 4:00 p.m.Wednesday7:00 a.m.- 4:00 p.m.Thursday7:00 a.m.- 4:00 p.m.Friday7:00 a.m.- 4:00 p.m.SaturdayClosedSundayClosed","https://www.siteone.com/store/216"
"https://www.siteone.com/","Tyler TX ","1913 Deerbrook Dr","Tyler","TX","75703","US","217","903-581-8877","SiteOne Landscape Supply","32.277185","-95.278904","Monday7:00 a.m.- 5:00 p.m.Tuesday7:00 a.m.- 5:00 p.m.Wednesday7:00 a.m.- 5:00 p.m.Thursday7:00 a.m.- 5:00 p.m.Friday7:00 a.m.- 5:00 p.m.Saturday7:30 a.m.- 11:30 a.m.SundayClosed","https://www.siteone.com/store/217"
"https://www.siteone.com/","Chesapeake VA ","1020 Centerville Tpke S","Chesapeake","VA","23322","US","218","757-546-2394","SiteOne Landscape Supply","36.692097","-76.184626","Monday7:30 a.m.- 4:30 p.m.Tuesday7:30 a.m.- 4:30 p.m.Wednesday7:30 a.m.- 4:30 p.m.Thursday7:30 a.m.- 4:30 p.m.Friday7:30 a.m.- 4:30 p.m.Saturday8:00 a.m.- 12:00 p.m.SundayClosed","https://www.siteone.com/store/218"
"https://www.siteone.com/","Amarillo TX ","4113 Republic Ave","Amarillo","TX","79109","US","219","806-463-6334","SiteOne Landscape Supply","35.145489","-101.888124","Monday7:00 a.m.- 5:00 p.m.Tuesday7:00 a.m.- 5:00 p.m.Wednesday7:00 a.m.- 5:00 p.m.Thursday7:00 a.m.- 5:00 p.m.Friday7:00 a.m.- 5:00 p.m.Saturday7:30 a.m.- 11:30 a.m.SundayClosed","https://www.siteone.com/store/219"
"https://www.siteone.com/","Arlington TX ","811 W Harris Rd","Arlington","TX","76001","US","220","817-557-9732","SiteOne Landscape Supply","32.626738","-97.120629","Monday7:00 a.m.- 5:00 p.m.Tuesday7:00 a.m.- 5:00 p.m.Wednesday7:00 a.m.- 5:00 p.m.Thursday7:00 a.m.- 5:00 p.m.Friday7:00 a.m.- 5:00 p.m.Saturday7:30 a.m.- 11:30 a.m.SundayClosed","https://www.siteone.com/store/220"
"https://www.siteone.com/","Miami FL ","12951 SW 89th Ct","Miami","FL","33176","US","221","305-406-2533","SiteOne Landscape Supply","25.829939","-80.328682","Monday7:00 a.m.- 4:00 p.m.Tuesday7:00 a.m.- 4:00 p.m.Wednesday7:00 a.m.- 4:00 p.m.Thursday7:00 a.m.- 4:00 p.m.Friday7:00 a.m.- 4:00 p.m.Saturday8:00 a.m.- 12:00 p.m.SundayClosed","https://www.siteone.com/store/221"
"https://www.siteone.com/","Edmond OK ","14601 N Lincoln Blvd","Edmond","OK","73013","US","222","405-755-0510","SiteOne Landscape Supply","35.619327","-97.504871","Monday7:30 a.m.- 4:30 p.m.Tuesday7:30 a.m.- 4:30 p.m.Wednesday7:30 a.m.- 4:30 p.m.Thursday7:30 a.m.- 4:30 p.m.Friday7:30 a.m.- 4:30 p.m.Saturday8:00 a.m.- 12:00 p.m.SundayClosed","https://www.siteone.com/store/222"
"https://www.siteone.com/","Fort Worth TX ","4733 Keller Haslet Rd","Fort Worth","TX","76244","US","223","817-490-0330","SiteOne Landscape Supply","32.963589","-97.257129","Monday7:00 a.m.- 5:00 p.m.Tuesday7:00 a.m.- 5:00 p.m.Wednesday7:00 a.m.- 5:00 p.m.Thursday7:00 a.m.- 5:00 p.m.Friday7:00 a.m.- 5:00 p.m.Saturday7:30 a.m.- 11:30 a.m.SundayClosed","https://www.siteone.com/store/223"
"https://www.siteone.com/","Atlantic Irrigation - Deer Park, NY ","870 Long Island Ave","Deer Park","NY","11729","US","225","631-667-7801","SiteOne Landscape Supply","40.764","-73.32","Monday7:00 a.m.- 4:30 p.m.Tuesday7:00 a.m.- 4:30 p.m.Wednesday7:00 a.m.- 4:30 p.m.Thursday7:00 a.m.- 4:30 p.m.Friday7:00 a.m.- 4:30 p.m.Saturday7:00 a.m.- 12:00 p.m.SundayClosed","https://www.siteone.com/store/225"
"https://www.siteone.com/","Prosper TX ","544 S Dallas Pkwy","Prosper","TX","75078","US","226","972-346-3577","SiteOne Landscape Supply","33.22676","-96.819139","Monday7:00 a.m.- 5:00 p.m.Tuesday7:00 a.m.- 5:00 p.m.Wednesday7:00 a.m.- 5:00 p.m.Thursday7:00 a.m.- 5:00 p.m.Friday7:00 a.m.- 5:00 p.m.Saturday7:30 a.m.- 11:30 a.m.SundayClosed","https://www.siteone.com/store/226"
"https://www.siteone.com/","Ham Lake MN ","15840 Central Ave NE","Ham Lake","MN","55304","US","227","763-413-7000","SiteOne Landscape Supply","45.259","-93.235","Monday7:30 a.m.- 4:00 p.m.Tuesday7:30 a.m.- 4:00 p.m.Wednesday7:30 a.m.- 4:00 p.m.Thursday7:30 a.m.- 4:00 p.m.Friday7:30 a.m.- 4:00 p.m.SaturdayClosedSundayClosed","https://www.siteone.com/store/227"
"https://www.siteone.com/","Atlantic Irrigation - Delmar, DE ","38535 Sussex Hwy","Delmar","DE","19940","US","230","302-846-3527","SiteOne Landscape Supply","38.46","-75.558","Monday7:00 a.m.- 4:00 p.m.Tuesday7:00 a.m.- 4:00 p.m.Wednesday7:00 a.m.- 4:00 p.m.Thursday7:00 a.m.- 4:00 p.m.Friday7:00 a.m.- 4:00 p.m.SaturdayClosedSundayClosed","https://www.siteone.com/store/230"
"https://www.siteone.com/","Richfield OH ","3072 W Streetsboro Rd","Richfield","OH","44286","US","236","330-659-3669","SiteOne Hardscape Center","41.244463","-81.600472","Monday7:30 a.m.- 4:00 p.m.Tuesday7:30 a.m.- 4:00 p.m.Wednesday7:30 a.m.- 4:00 p.m.Thursday7:30 a.m.- 4:00 p.m.Friday7:30 a.m.- 4:00 p.m.SaturdayClosedSundayClosed","https://www.siteone.com/store/236"
"https://www.siteone.com/","Atlantic Irrigation - Garden City, NY ","3 Commercial Ave","Garden City","NY","11530","US","237","516-294-1096","SiteOne Landscape Supply","40.728","-73.618","Monday8:00 a.m.- 4:00 p.m.Tuesday8:00 a.m.- 4:00 p.m.Wednesday8:00 a.m.- 4:00 p.m.Thursday8:00 a.m.- 4:00 p.m.Friday8:00 a.m.- 4:00 p.m.SaturdayClosedSundayClosed","https://www.siteone.com/store/237"
"https://www.siteone.com/","Lakewood Ranch FL ","5115 Lena Rd","Lakewood Ranch","FL","34211","US","238","941-727-0742","SiteOne Landscape Supply","27.4492494","-82.4575964","Monday7:00 a.m.- 4:00 p.m.Tuesday7:00 a.m.- 4:00 p.m.Wednesday7:00 a.m.- 4:00 p.m.Thursday7:00 a.m.- 4:00 p.m.Friday7:00 a.m.- 4:00 p.m.Saturday8:00 a.m.- 12:00 p.m.SundayClosed","https://www.siteone.com/store/238"
"https://www.siteone.com/","Atlantic Irrigation - Garner, NC ","3810 Centurion Dr Ste 103","Garner","NC","27529","US","239","919-661-0068","SiteOne Landscape Supply","35.73","-78.571","Monday7:30 a.m.- 4:30 p.m.Tuesday7:30 a.m.- 4:30 p.m.Wednesday7:30 a.m.- 4:30 p.m.Thursday7:30 a.m.- 4:30 p.m.Friday7:30 a.m.- 4:30 p.m.SaturdayClosedSundayClosed","https://www.siteone.com/store/239"
"https://www.siteone.com/","Austin TX ","7110 E Ben White Blvd","Austin","TX","78741","US","240","512-389-5112","SiteOne Landscape Supply","30.218","-97.701","Monday7:00 a.m.- 5:00 p.m.Tuesday7:00 a.m.- 5:00 p.m.Wednesday7:00 a.m.- 5:00 p.m.Thursday7:00 a.m.- 5:00 p.m.Friday7:00 a.m.- 5:00 p.m.Saturday7:00 a.m.- 12:00 p.m.SundayClosed","https://www.siteone.com/store/240"
"https://www.siteone.com/","Southlake TX ","260 Bank St","Southlake","TX","76092","US","241","817-488-9392","SiteOne Landscape Supply","32.937","-97.103","Monday7:00 a.m.- 5:00 p.m.Tuesday7:00 a.m.- 5:00 p.m.Wednesday7:00 a.m.- 5:00 p.m.Thursday7:00 a.m.- 5:00 p.m.Friday7:00 a.m.- 5:00 p.m.Saturday7:30 a.m.- 11:30 a.m.SundayClosed","https://www.siteone.com/store/241"
"https://www.siteone.com/","Atlantic Irrigation - Latham, NY ","74 Swatling Rd","Latham","NY","12110","US","243","518-782-7070","SiteOne Landscape Supply","42.748","-73.735","Monday7:30 a.m.- 4:00 p.m.Tuesday7:30 a.m.- 4:00 p.m.Wednesday7:30 a.m.- 4:00 p.m.Thursday7:30 a.m.- 4:00 p.m.Friday7:30 a.m.- 4:00 p.m.SaturdayClosedSundayClosed","https://www.siteone.com/store/243"
"https://www.siteone.com/","Rio Grande Valley TX ","807 W Ferguson St","Pharr","TX","78577","US","246","956-782-7777","SiteOne Landscape Supply","26.213","-98.191","Monday7:00 a.m.- 5:00 p.m.Tuesday7:00 a.m.- 5:00 p.m.Wednesday7:00 a.m.- 5:00 p.m.Thursday7:00 a.m.- 5:00 p.m.Friday7:00 a.m.- 5:00 p.m.Saturday7:00 a.m.- 11:00 a.m.SundayClosed","https://www.siteone.com/store/246"
"https://www.siteone.com/","San Antonio TX ","3535 Metro Pkwy","San Antonio","TX","78247","US","247","210-545-2266","SiteOne Landscape Supply","29.562","-98.429","Monday7:00 a.m.- 5:00 p.m.Tuesday7:00 a.m.- 5:00 p.m.Wednesday7:00 a.m.- 5:00 p.m.Thursday7:00 a.m.- 5:00 p.m.Friday7:00 a.m.- 5:00 p.m.Saturday7:00 a.m.- 11:00 a.m.SundayClosed","https://www.siteone.com/store/247"
"https://www.siteone.com/","Clive IA ","9289 Swanson Blvd Ste 4","Clive","IA","50325","US","249","515-222-5344","SiteOne Landscape Supply","41.60952","-93.745331","Monday7:00 a.m.- 4:30 p.m.Tuesday7:00 a.m.- 4:30 p.m.Wednesday7:00 a.m.- 4:30 p.m.Thursday7:00 a.m.- 4:30 p.m.Friday7:00 a.m.- 4:30 p.m.Saturday8:00 a.m.- 12:00 p.m.SundayClosed","https://www.siteone.com/store/249"
"https://www.siteone.com/","Tulsa OK ","1903 N Yellowood Ave","Broken Arrow","OK","74012","US","250","918-294-0777","SiteOne Landscape Supply","36.07","-95.84","Monday7:30 a.m.- 4:30 p.m.Tuesday7:30 a.m.- 4:30 p.m.Wednesday7:30 a.m.- 4:30 p.m.Thursday7:30 a.m.- 4:30 p.m.Friday7:30 a.m.- 4:30 p.m.Saturday8:00 a.m.- 12:00 p.m.SundayClosed","https://www.siteone.com/store/250"
"https://www.siteone.com/","Woodlands TX ","8823 Fawn Trl Ste B","Conroe","TX","77385","US","251","936-273-7717","SiteOne Landscape Supply","30.212618","-95.442011","Monday7:00 a.m.- 5:00 p.m.Tuesday7:00 a.m.- 5:00 p.m.Wednesday7:00 a.m.- 5:00 p.m.Thursday7:00 a.m.- 5:00 p.m.Friday7:00 a.m.- 5:00 p.m.Saturday7:00 a.m.- 11:00 a.m.SundayClosed","https://www.siteone.com/store/251"
"https://www.siteone.com/","Atlantic Irrigation - Lockport, NY ","5025 Lockport Rd","Lockport","NY","14094","US","252","716-625-9916","SiteOne Landscape Supply","43.135","-78.766","Monday7:30 a.m.- 4:00 p.m.Tuesday7:30 a.m.- 4:00 p.m.Wednesday7:30 a.m.- 4:00 p.m.Thursday7:30 a.m.- 4:00 p.m.Friday7:30 a.m.- 4:00 p.m.SaturdayClosedSundayClosed","https://www.siteone.com/store/252"
"https://www.siteone.com/","Atlantic Irrigation - Milford, MA ","61 Industrial Rd Ste 4","Milford","MA","01757","US","256","508-381-0479","SiteOne Landscape Supply","42.14","-71.495","Monday7:00 a.m.- 4:00 p.m.Tuesday7:00 a.m.- 4:00 p.m.Wednesday7:00 a.m.- 4:00 p.m.Thursday7:00 a.m.- 4:00 p.m.Friday7:00 a.m.- 4:00 p.m.Saturday7:30 a.m.- 11:30 a.m.SundayClosed","https://www.siteone.com/store/256"
"https://www.siteone.com/","East Peoria IL ","128 Thunderbird Ln","East Peoria","IL","61611","US","258","309-694-4296","SiteOne Landscape Supply","40.712968","-89.532666","Monday7:30 a.m.- 4:00 p.m.Tuesday7:30 a.m.- 4:00 p.m.Wednesday7:30 a.m.- 4:00 p.m.Thursday7:30 a.m.- 4:00 p.m.Friday7:30 a.m.- 4:00 p.m.SaturdayClosedSundayClosed","https://www.siteone.com/store/258"
"https://www.siteone.com/","Atlantic Irrigation - Myrtle Beach, SC ","3931 Mega Dr Ste 9","Myrtle Beach","SC","29588","US","259","843-650-0626","SiteOne Landscape Supply","33.66","-78.996","Monday7:30 a.m.- 4:30 p.m.Tuesday7:30 a.m.- 4:30 p.m.Wednesday7:30 a.m.- 4:30 p.m.Thursday7:30 a.m.- 4:30 p.m.Friday7:30 a.m.- 4:30 p.m.SaturdayClosedSundayClosed","https://www.siteone.com/store/259"
"https://www.siteone.com/","Atlantic Irrigation - North Charleston, SC ","9491 Hamburg Rd","Ladson","SC","29456","US","260","843-554-3848","SiteOne Landscape Supply","32.977","-80.114","Monday7:30 a.m.- 4:30 p.m.Tuesday7:30 a.m.- 4:30 p.m.Wednesday7:30 a.m.- 4:30 p.m.Thursday7:30 a.m.- 4:30 p.m.Friday7:30 a.m.- 4:30 p.m.SaturdayClosedSundayClosed","https://www.siteone.com/store/260"
"https://www.siteone.com/","Atlantic Irrigation - Stamford, CT ","9 Viaduct Rd","Stamford","CT","06907","US","264","203-348-4884","SiteOne Landscape Supply","41.079","-73.52","Monday7:00 a.m.- 4:00 p.m.Tuesday7:00 a.m.- 4:00 p.m.Wednesday7:00 a.m.- 4:00 p.m.Thursday7:00 a.m.- 4:00 p.m.Friday7:00 a.m.- 4:00 p.m.SaturdayClosedSundayClosed","https://www.siteone.com/store/264"
"https://www.siteone.com/","Eau Claire WI ","2840 Melby St","Eau Claire","WI","54703","US","265","715-834-2124","SiteOne Landscape Supply","44.864706","-91.470812","Monday7:30 a.m.- 4:00 p.m.Tuesday7:30 a.m.- 4:00 p.m.Wednesday7:30 a.m.- 4:00 p.m.Thursday7:30 a.m.- 4:00 p.m.Friday7:30 a.m.- 4:00 p.m.SaturdayClosedSundayClosed","https://www.siteone.com/store/265"
"https://www.siteone.com/","Clifton Park NY ","1653 Route 9","Halfmoon","NY","12065","US","266","518-371-4012","SiteOne Landscape Supply","42.858203","-73.761771","Monday7:30 a.m.- 4:00 p.m.Tuesday7:30 a.m.- 4:00 p.m.Wednesday7:30 a.m.- 4:00 p.m.Thursday7:30 a.m.- 4:00 p.m.Friday7:30 a.m.- 4:00 p.m.SaturdayClosedSundayClosed","https://www.siteone.com/store/266"
"https://www.siteone.com/","College Station TX ","10253 State Highway 30","College Station","TX","77845","US","269","979-776-8000","SiteOne Landscape Supply","30.650889","-96.265979","Monday7:00 a.m.- 5:00 p.m.Tuesday7:00 a.m.- 5:00 p.m.Wednesday7:00 a.m.- 5:00 p.m.Thursday7:00 a.m.- 5:00 p.m.Friday7:00 a.m.- 5:00 p.m.Saturday7:00 a.m.- 11:00 a.m.SundayClosed","https://www.siteone.com/store/269"
"https://www.siteone.com/","Atlantic Irrigation - Wayne, NJ ","90 Newark Pompton Tpke","Wayne","NJ","07470","US","270","973-628-0203","SiteOne Landscape Supply","40.928","-74.272","Monday7:30 a.m.- 4:00 p.m.Tuesday7:30 a.m.- 4:00 p.m.Wednesday7:30 a.m.- 4:00 p.m.Thursday7:30 a.m.- 4:00 p.m.Friday7:30 a.m.- 4:00 p.m.SaturdayClosedSundayClosed","https://www.siteone.com/store/270"
"https://www.siteone.com/","Atlantic Irrigation - West Berlin, NJ ","309 Pinedge Dr","West Berlin","NJ","08091","US","271","856-767-1231","SiteOne Landscape Supply","39.81","-74.921","Monday7:30 a.m.- 4:00 p.m.Tuesday7:30 a.m.- 4:00 p.m.Wednesday7:30 a.m.- 4:00 p.m.Thursday7:30 a.m.- 4:00 p.m.Friday7:30 a.m.- 4:00 p.m.SaturdayClosedSundayClosed","https://www.siteone.com/store/271"
"https://www.siteone.com/","Leesburg FL ","1201 Thomas Ave","Leesburg","FL","34748","US","272","352-748-6555","SiteOne Landscape Supply","28.951569","-82.039062","Monday7:00 a.m.- 4:00 p.m.Tuesday7:00 a.m.- 4:00 p.m.Wednesday7:00 a.m.- 4:00 p.m.Thursday7:00 a.m.- 4:00 p.m.Friday7:00 a.m.- 4:00 p.m.Saturday8:00 a.m.- 12:00 p.m.SundayClosed","https://www.siteone.com/store/272"
"https://www.siteone.com/","San Marcos CA ","1370 La Mirada Dr","San Marcos","CA","92078","US","273","760-510-1014","SiteOne Landscape Supply","33.140586","-117.194571","Monday6:30 a.m.- 4:30 p.m.Tuesday6:30 a.m.- 4:30 p.m.Wednesday6:30 a.m.- 4:30 p.m.Thursday6:30 a.m.- 4:30 p.m.Friday6:30 a.m.- 4:30 p.m.Saturday7:00 a.m.- 11:30 a.m.SundayClosed","https://www.siteone.com/store/273"
"https://www.siteone.com/","Oxnard CA ","260 Lambert St Ste G","Oxnard","CA","93036","US","274","805-278-4556","SiteOne Landscape Supply","34.253828","-119.160257","Monday6:30 a.m.- 4:30 p.m.Tuesday6:30 a.m.- 4:30 p.m.Wednesday6:30 a.m.- 4:30 p.m.Thursday6:30 a.m.- 4:30 p.m.Friday6:30 a.m.- 4:30 p.m.Saturday7:00 a.m.- 11:00 a.m.SundayClosed","https://www.siteone.com/store/274"
"https://www.siteone.com/","Tacoma WA ","9605 26th Ave S","Tacoma","WA","98444","US","275","253-581-8223","SiteOne Landscape Supply","47.169","-122.471","Monday7:30 a.m.- 4:00 p.m.Tuesday7:30 a.m.- 4:00 p.m.Wednesday7:30 a.m.- 4:00 p.m.Thursday7:30 a.m.- 4:00 p.m.Friday7:30 a.m.- 4:00 p.m.SaturdayClosedSundayClosed","https://www.siteone.com/store/275"
"https://www.siteone.com/","Atlantic Irrigation - West Chester, PA ","19 Hagerty Blvd Unit 4","West Chester","PA","19382","US","276","610-431-6200","SiteOne Landscape Supply","39.947","-75.58","Monday7:30 a.m.- 4:00 p.m.Tuesday7:30 a.m.- 4:00 p.m.Wednesday7:30 a.m.- 4:00 p.m.Thursday7:30 a.m.- 4:00 p.m.Friday7:30 a.m.- 4:00 p.m.SaturdayClosedSundayClosed","https://www.siteone.com/store/276"
"https://www.siteone.com/","Kent WA ","633 Central Ave S","Kent","WA","98032","US","277","253-656-4726","SiteOne Landscape Supply","47.375507","-122.230742","Monday7:30 a.m.- 4:00 p.m.Tuesday7:30 a.m.- 4:00 p.m.Wednesday7:30 a.m.- 4:00 p.m.Thursday7:30 a.m.- 4:00 p.m.Friday7:30 a.m.- 4:00 p.m.SaturdayClosedSundayClosed","https://www.siteone.com/store/277"
"https://www.siteone.com/","Atlantic Irrigation - Wexford, PA ","518 Wallace Rd Ste 100","Wexford","PA","15090","US","278","724-935-1690","SiteOne Landscape Supply","40.65","-80.057","Monday7:30 a.m.- 4:00 p.m.Tuesday7:30 a.m.- 4:00 p.m.Wednesday7:30 a.m.- 4:00 p.m.Thursday7:30 a.m.- 4:00 p.m.Friday7:30 a.m.- 4:00 p.m.SaturdayClosedSundayClosed","https://www.siteone.com/store/278"
"https://www.siteone.com/","Atlantic Irrigation - White Plains, NY ","111 Lafayette Ave","White Plains","NY","10603","US","279","914-686-0008","SiteOne Landscape Supply","41.064","-73.773","Monday7:00 a.m.- 4:30 p.m.Tuesday7:00 a.m.- 4:30 p.m.Wednesday7:00 a.m.- 4:30 p.m.Thursday7:00 a.m.- 4:30 p.m.Friday7:00 a.m.- 4:30 p.m.SaturdayClosedSundayClosed","https://www.siteone.com/store/279"
"https://www.siteone.com/","Woodinville WA ","13930 NE 190th St","Woodinville","WA","98072","US","280","425-485-6167","SiteOne Landscape Supply","47.765563","-122.153536","Monday7:30 a.m.- 4:00 p.m.Tuesday7:30 a.m.- 4:00 p.m.Wednesday7:30 a.m.- 4:00 p.m.Thursday7:30 a.m.- 4:00 p.m.Friday7:30 a.m.- 4:00 p.m.SaturdayClosedSundayClosed","https://www.siteone.com/store/280"
"https://www.siteone.com/","Fresno CA ","2380 N Larkin Ave","Fresno","CA","93727","US","282","559-292-5302","SiteOne Landscape Supply","36.771792","-119.697059","Monday7:00 a.m.- 4:00 p.m.Tuesday7:00 a.m.- 4:00 p.m.Wednesday7:00 a.m.- 4:00 p.m.Thursday7:00 a.m.- 4:00 p.m.Friday7:00 a.m.- 4:00 p.m.Saturday7:00 a.m.- 11:00 a.m.SundayClosed","https://www.siteone.com/store/282"
"https://www.siteone.com/","Arden NC ","140 Glenn Bridge Rd","Arden","NC","28704","US","284","828-651-9967","SiteOne Landscape Supply","35.460344","-82.516344","Monday7:30 a.m.- 4:30 p.m.Tuesday7:30 a.m.- 4:30 p.m.Wednesday7:30 a.m.- 4:30 p.m.Thursday7:30 a.m.- 4:30 p.m.Friday7:30 a.m.- 4:30 p.m.SaturdayClosedSundayClosed","https://www.siteone.com/store/284"
"https://www.siteone.com/","Tempe AZ ","623 S Perry Ln","Tempe","AZ","85281","US","285","480-557-0032","SiteOne Landscape Supply","33.424399","-111.904775","Monday6:00 a.m.- 4:00 p.m.Tuesday6:00 a.m.- 4:00 p.m.Wednesday6:00 a.m.- 4:00 p.m.Thursday6:00 a.m.- 4:00 p.m.Friday6:00 a.m.- 4:00 p.m.Saturday7:00 a.m.- 12:00 p.m.SundayClosed","https://www.siteone.com/store/285"
"https://www.siteone.com/","San Diego CA ","9484 Candida St","San Diego","CA","92126","US","287","858-536-3470","SiteOne Landscape Supply","32.896111","-117.121903","Monday6:30 a.m.- 4:30 p.m.Tuesday6:30 a.m.- 4:30 p.m.Wednesday6:30 a.m.- 4:30 p.m.Thursday6:30 a.m.- 4:30 p.m.Friday6:30 a.m.- 4:30 p.m.Saturday7:00 a.m.- 11:30 a.m.SundayClosed","https://www.siteone.com/store/287"
"https://www.siteone.com/","Modesto CA ","701 Kearney Ave","Modesto","CA","95350","US","288","209-526-5471","SiteOne Landscape Supply","37.605331","-120.992536","Monday7:00 a.m.- 4:00 p.m.Tuesday7:00 a.m.- 4:00 p.m.Wednesday7:00 a.m.- 4:00 p.m.Thursday7:00 a.m.- 4:00 p.m.Friday7:00 a.m.- 4:00 p.m.Saturday7:00 a.m.- 11:00 a.m.SundayClosed","https://www.siteone.com/store/288"
"https://www.siteone.com/","Idaho Falls ID ","4030 N Haroldsen Dr","Idaho Falls","ID","83401","US","290","208-227-0695","SiteOne Landscape Supply","43.532647","-112.01227","Monday8:00 a.m.- 4:00 p.m.Tuesday8:00 a.m.- 4:00 p.m.Wednesday8:00 a.m.- 4:00 p.m.Thursday8:00 a.m.- 4:00 p.m.Friday8:00 a.m.- 4:00 p.m.SaturdayClosedSundayClosed","https://www.siteone.com/store/290"
"https://www.siteone.com/","Mokena IL ","18801 Wolf Rd Unit 5","Mokena","IL","60448","US","291","815-726-2655","SiteOne Landscape Supply","41.510553","-88.042036","Monday7:30 a.m.- 4:00 p.m.Tuesday7:30 a.m.- 4:00 p.m.Wednesday7:30 a.m.- 4:00 p.m.Thursday7:30 a.m.- 4:00 p.m.Friday7:30 a.m.- 4:00 p.m.SaturdayClosedSundayClosed","https://www.siteone.com/store/291"
"https://www.siteone.com/","Summerville SC ","2411 N Main St","Summerville","SC","29486","US","294","843-873-5724","SiteOne Landscape Supply","33.052228","-80.102663","Monday7:30 a.m.- 4:30 p.m.Tuesday7:30 a.m.- 4:30 p.m.Wednesday7:30 a.m.- 4:30 p.m.Thursday7:30 a.m.- 4:30 p.m.Friday7:30 a.m.- 4:30 p.m.SaturdayClosedSundayClosed","https://www.siteone.com/store/294"
"https://www.siteone.com/","Roanoke VA ","5889 Starkey Rd","Roanoke","VA","24018","US","295","540-725-1624","SiteOne Landscape Supply","37.202039","-79.995005","Monday7:30 a.m.- 4:30 p.m.Tuesday7:30 a.m.- 4:30 p.m.Wednesday7:30 a.m.- 4:30 p.m.Thursday7:30 a.m.- 4:30 p.m.Friday7:30 a.m.- 4:30 p.m.Saturday8:00 a.m.- 12:00 p.m.SundayClosed","https://www.siteone.com/store/295"
"https://www.siteone.com/","Henrico VA ","9107 Old Staples Mill Rd","Richmond","VA","23228","US","297","804-377-1977","SiteOne Landscape Supply","37.64","-77.508","Monday7:30 a.m.- 4:30 p.m.Tuesday7:30 a.m.- 4:30 p.m.Wednesday7:30 a.m.- 4:30 p.m.Thursday7:30 a.m.- 4:30 p.m.Friday7:30 a.m.- 4:30 p.m.Saturday8:00 a.m.- 12:00 p.m.SundayClosed","https://www.siteone.com/store/297"
"https://www.siteone.com/","Dublin CA ","6450 Trinity Ct Ste B","Dublin","CA","94568","US","300","925-829-6040","SiteOne Landscape Supply","37.709739","-121.912264","Monday6:30 a.m.- 4:30 p.m.Tuesday6:30 a.m.- 4:30 p.m.Wednesday6:30 a.m.- 4:30 p.m.Thursday6:30 a.m.- 4:30 p.m.Friday6:30 a.m.- 4:30 p.m.Saturday7:00 a.m.- 12:00 p.m.SundayClosed","https://www.siteone.com/store/300"
"https://www.siteone.com/","Dublin Hardscapes Center ","6515 Trinity Ct","Dublin","CA","94568","US","301","925-230-2119","SiteOne Hardscape Center","37.71","-121.911","Monday6:30 a.m.- 4:30 p.m.Tuesday6:30 a.m.- 4:30 p.m.Wednesday6:30 a.m.- 4:30 p.m.Thursday6:30 a.m.- 4:30 p.m.Friday6:30 a.m.- 4:30 p.m.Saturday7:30 a.m.- 12:00 p.m.SundayClosed","https://www.siteone.com/store/301"
"https://www.siteone.com/","San Rafael CA ","4224 Redwood Hwy","San Rafael","CA","94903","US","302","415-446-5550","SiteOne Landscape Supply","38.014532","-122.541264","Monday6:30 a.m.- 4:30 p.m.Tuesday6:30 a.m.- 4:30 p.m.Wednesday6:30 a.m.- 4:30 p.m.Thursday6:30 a.m.- 4:30 p.m.Friday6:30 a.m.- 4:30 p.m.Saturday7:30 a.m.- 12:00 p.m.SundayClosed","https://www.siteone.com/store/302"
"https://www.siteone.com/","Pacheco CA ","130 S Buchanan Cir Ste A","Pacheco","CA","94553","US","303","925-680-7620","SiteOne Landscape Supply","37.989411","-122.070101","Monday6:30 a.m.- 4:30 p.m.Tuesday6:30 a.m.- 4:30 p.m.Wednesday6:30 a.m.- 4:30 p.m.Thursday6:30 a.m.- 4:30 p.m.Friday6:30 a.m.- 4:30 p.m.Saturday7:30 a.m.- 12:00 p.m.SundayClosed","https://www.siteone.com/store/303"
"https://www.siteone.com/","Rancho Cordova CA ","11309 Folsom Blvd Ste A","Rancho Cordova","CA","95742","US","304","916-635-1200","SiteOne Landscape Supply","38.610249","-121.262802","Monday6:30 a.m.- 4:30 p.m.Tuesday6:30 a.m.- 4:30 p.m.Wednesday6:30 a.m.- 4:30 p.m.Thursday6:30 a.m.- 4:30 p.m.Friday6:30 a.m.- 4:30 p.m.Saturday7:00 a.m.- 11:00 a.m.SundayClosed","https://www.siteone.com/store/304"
"https://www.siteone.com/","Rocklin CA ","1675 Nichols Dr","Rocklin","CA","95765","US","305","916-408-0024","SiteOne Landscape Supply","38.810653","-121.314615","Monday6:30 a.m.- 4:30 p.m.Tuesday6:30 a.m.- 4:30 p.m.Wednesday6:30 a.m.- 4:30 p.m.Thursday6:30 a.m.- 4:30 p.m.Friday6:30 a.m.- 4:30 p.m.Saturday7:00 a.m.- 11:00 a.m.SundayClosed","https://www.siteone.com/store/305"
"https://www.siteone.com/","Sacramento CA ","6500 Elvas Ave","Sacramento","CA","95819","US","306","916-452-8041","SiteOne Landscape Supply","38.55601","-121.426637","Monday6:30 a.m.- 4:30 p.m.Tuesday6:30 a.m.- 4:30 p.m.Wednesday6:30 a.m.- 4:30 p.m.Thursday6:30 a.m.- 4:30 p.m.Friday6:30 a.m.- 4:30 p.m.Saturday7:00 a.m.- 11:00 a.m.SundayClosed","https://www.siteone.com/store/306"
"https://www.siteone.com/","San Jose CA ","1145 N 13th St","San Jose","CA","95112","US","307","408-295-3376","SiteOne Landscape Supply","37.363","-121.894","Monday6:30 a.m.- 4:30 p.m.Tuesday6:30 a.m.- 4:30 p.m.Wednesday6:30 a.m.- 4:30 p.m.Thursday6:30 a.m.- 4:30 p.m.Friday6:30 a.m.- 4:30 p.m.Saturday7:00 a.m.- 12:00 p.m.SundayClosed","https://www.siteone.com/store/307"
"https://www.siteone.com/","San Carlos CA ","815 American St","San Carlos","CA","94070","US","308","650-591-5163","SiteOne Landscape Supply","37.501318","-122.243855","Monday6:30 a.m.- 4:30 p.m.Tuesday6:30 a.m.- 4:30 p.m.Wednesday6:30 a.m.- 4:30 p.m.Thursday6:30 a.m.- 4:30 p.m.Friday6:30 a.m.- 4:30 p.m.Saturday7:00 a.m.- 12:00 p.m.SundayClosed","https://www.siteone.com/store/308"
"https://www.siteone.com/","Santa Rosa CA ","180 Sebastopol Rd","Santa Rosa","CA","95407","US","309","707-526-1171","SiteOne Landscape Supply","38.431067","-122.723289","Monday6:30 a.m.- 4:30 p.m.Tuesday6:30 a.m.- 4:30 p.m.Wednesday6:30 a.m.- 4:30 p.m.Thursday6:30 a.m.- 4:30 p.m.Friday6:30 a.m.- 4:30 p.m.Saturday7:30 a.m.- 12:00 p.m.SundayClosed","https://www.siteone.com/store/309"
"https://www.siteone.com/","Shingle Springs CA ","4045 Sunset Ln","Shingle Springs","CA","95682","US","310","530-677-0357","SiteOne Landscape Supply","38.660773","-120.933982","Monday7:00 a.m.- 4:00 p.m.Tuesday7:00 a.m.- 4:00 p.m.Wednesday7:00 a.m.- 4:00 p.m.Thursday7:00 a.m.- 4:00 p.m.Friday7:00 a.m.- 4:00 p.m.Saturday7:00 a.m.- 11:00 a.m.SundayClosed","https://www.siteone.com/store/310"
"https://www.siteone.com/","Stockton CA ","1610 N Broadway Ave","Stockton","CA","95205","US","311","209-465-4082","SiteOne Landscape Supply","37.978043","-121.251183","Monday7:00 a.m.- 4:00 p.m.Tuesday7:00 a.m.- 4:00 p.m.Wednesday7:00 a.m.- 4:00 p.m.Thursday7:00 a.m.- 4:00 p.m.Friday7:00 a.m.- 4:00 p.m.SaturdayClosedSundayClosed","https://www.siteone.com/store/311"
"https://www.siteone.com/","Arroyo Grande CA ","200 Traffic Way # C","Arroyo Grande","CA","93420","US","313","805-481-7855","SiteOne Landscape Supply","35.121991","-120.579272","Monday6:30 a.m.- 4:30 p.m.Tuesday6:30 a.m.- 4:30 p.m.Wednesday6:30 a.m.- 4:30 p.m.Thursday6:30 a.m.- 4:30 p.m.Friday6:30 a.m.- 4:30 p.m.Saturday7:00 a.m.- 11:00 a.m.SundayClosed","https://www.siteone.com/store/313"
"https://www.siteone.com/","Paso Robles CA ","1108 Paso Robles St","Paso Robles","CA","93446","US","314","805-227-0415","SiteOne Landscape Supply","35.588881","-120.694833","Monday7:00 a.m.- 4:30 p.m.Tuesday7:00 a.m.- 4:30 p.m.Wednesday7:00 a.m.- 4:30 p.m.Thursday7:00 a.m.- 4:30 p.m.Friday7:00 a.m.- 4:30 p.m.Saturday7:00 a.m.- 11:00 a.m.SundayClosed","https://www.siteone.com/store/314"
"https://www.siteone.com/","Bakersfield CA ","3600 Laborde Pl","Bakersfield","CA","93308","US","316","661-589-0027","SiteOne Landscape Supply","35.388","-119.06","Monday6:30 a.m.- 4:30 p.m.Tuesday6:30 a.m.- 4:30 p.m.Wednesday6:30 a.m.- 4:30 p.m.Thursday6:30 a.m.- 4:30 p.m.Friday6:30 a.m.- 4:30 p.m.Saturday7:00 a.m.- 11:00 a.m.SundayClosed","https://www.siteone.com/store/316"
"https://www.siteone.com/","Anaheim CA ","1301 N Tustin Ave","Anaheim","CA","92807","US","318","714-996-9937","SiteOne Landscape Supply","33.863093","-117.842174","Monday6:30 a.m.- 4:30 p.m.Tuesday6:30 a.m.- 4:30 p.m.Wednesday6:30 a.m.- 4:30 p.m.Thursday6:30 a.m.- 4:30 p.m.Friday6:30 a.m.- 4:30 p.m.Saturday7:00 a.m.- 11:30 a.m.SundayClosed","https://www.siteone.com/store/318"
"https://www.siteone.com/","Chula Vista CA ","751 Design Ct Ste B","Chula Vista","CA","91911","US","319","619-421-7627","SiteOne Landscape Supply","32.596","-117.02","Monday6:30 a.m.- 4:30 p.m.Tuesday6:30 a.m.- 4:30 p.m.Wednesday6:30 a.m.- 4:30 p.m.Thursday6:30 a.m.- 4:30 p.m.Friday6:30 a.m.- 4:30 p.m.Saturday7:00 a.m.- 11:30 a.m.SundayClosed","https://www.siteone.com/store/319"
"https://www.siteone.com/","Escondido CA ","900 W Washington Ave","Escondido","CA","92025","US","321","760-480-0060","SiteOne Landscape Supply","33.123066","-117.096424","Monday6:30 a.m.- 4:30 p.m.Tuesday6:30 a.m.- 4:30 p.m.Wednesday6:30 a.m.- 4:30 p.m.Thursday6:30 a.m.- 4:30 p.m.Friday6:30 a.m.- 4:30 p.m.Saturday7:00 a.m.- 11:30 a.m.SundayClosed","https://www.siteone.com/store/321"
"https://www.siteone.com/","Sacramento, CA ","6901 Bradshaw Rd","Sacramento","CA","95829","US","322","916-366-3966","SiteOne Landscape Supply","38.502","-121.332","Monday7:00 a.m.- 4:30 p.m.Tuesday7:00 a.m.- 4:30 p.m.Wednesday7:00 a.m.- 4:30 p.m.Thursday7:00 a.m.- 4:30 p.m.Friday7:00 a.m.- 4:30 p.m.Saturday7:00 a.m.- 4:30 p.m.SundayClosed","https://www.siteone.com/store/322"
"https://www.siteone.com/","Laguna Hills CA ","23432 S Pointe Dr","Laguna Hills","CA","92653","US","323","949-837-4460","SiteOne Landscape Supply","33.625322","-117.721696","Monday6:30 a.m.- 4:30 p.m.Tuesday6:30 a.m.- 4:30 p.m.Wednesday6:30 a.m.- 4:30 p.m.Thursday6:30 a.m.- 4:30 p.m.Friday6:30 a.m.- 4:30 p.m.Saturday7:00 a.m.- 11:30 a.m.SundayClosed","https://www.siteone.com/store/323"
"https://www.siteone.com/","Las Vegas NV ","4175 W Dewey Dr","Las Vegas","NV","89118","US","324","702-736-8188","SiteOne Landscape Supply","36.088142","-115.195352","Monday6:30 a.m.- 4:00 p.m.Tuesday6:30 a.m.- 4:00 p.m.Wednesday6:30 a.m.- 4:00 p.m.Thursday6:30 a.m.- 4:00 p.m.Friday6:30 a.m.- 4:00 p.m.Saturday7:00 a.m.- 11:00 a.m.SundayClosed","https://www.siteone.com/store/324"
"https://www.siteone.com/","Palm Desert CA ","74991 Velie Way","Palm Desert","CA","92260","US","326","760-776-4250","SiteOne Landscape Supply","33.742493","-116.356831","Monday6:30 a.m.- 4:30 p.m.Tuesday6:30 a.m.- 4:30 p.m.Wednesday6:30 a.m.- 4:30 p.m.Thursday6:30 a.m.- 4:30 p.m.Friday6:30 a.m.- 4:30 p.m.Saturday7:00 a.m.- 11:00 a.m.SundayClosed","https://www.siteone.com/store/326"
"https://www.siteone.com/","Riverside CA ","2656 Market St","Riverside","CA","92501","US","327","951-684-1080","SiteOne Hardscape Center","33.993025","-117.36928","Monday6:30 a.m.- 4:30 p.m.Tuesday6:30 a.m.- 4:30 p.m.Wednesday6:30 a.m.- 4:30 p.m.Thursday6:30 a.m.- 4:30 p.m.Friday6:30 a.m.- 4:30 p.m.Saturday7:00 a.m.- 11:30 a.m.SundayClosed","https://www.siteone.com/store/327"
"https://www.siteone.com/","Fort Collins CO - Harmony Gardens ","4315 E Harmony Rd","Fort Collins","CO","80528","US","329","970-226-8733","SiteOne Landscape Supply","40.522","-104.997","Monday8:00 a.m.- 5:00 p.m.Tuesday8:00 a.m.- 5:00 p.m.Wednesday8:00 a.m.- 5:00 p.m.Thursday8:00 a.m.- 5:00 p.m.Friday8:00 a.m.- 5:00 p.m.Saturday9:00 a.m.- 3:00 p.m.SundayClosed","https://www.siteone.com/store/329"
"https://www.siteone.com/","Brighton CO- Harmony Gardens ","23203 E 152nd Ave","Brighton","CO","80603","US","330","303-690-8733","SiteOne Landscape Supply","39.973","-104.716","Monday9:00 a.m.- 4:00 p.m.Tuesday9:00 a.m.- 4:00 p.m.Wednesday9:00 a.m.- 4:00 p.m.Thursday9:00 a.m.- 4:00 p.m.Friday9:00 a.m.- 4:00 p.m.SaturdayClosedSundayClosed","https://www.siteone.com/store/330"
"https://www.siteone.com/","Newbury Park CA ","914 Tourmaline Dr","Newbury Park","CA","91320","US","331","805-262-0400","SiteOne Landscape Supply","34.192","-118.931","Monday6:30 a.m.- 4:30 p.m.Tuesday6:30 a.m.- 4:30 p.m.Wednesday6:30 a.m.- 4:30 p.m.Thursday6:30 a.m.- 4:30 p.m.Friday6:30 a.m.- 4:30 p.m.Saturday7:00 a.m.- 11:30 a.m.SundayClosed","https://www.siteone.com/store/331"
"https://www.siteone.com/","Phoenix AZ ","22010 N 21st Ave","Phoenix","AZ","85027","US","332","623-587-5636","SiteOne Landscape Supply","33.685932","-112.104289","Monday6:00 a.m.- 4:00 p.m.Tuesday6:00 a.m.- 4:00 p.m.Wednesday6:00 a.m.- 4:00 p.m.Thursday6:00 a.m.- 4:00 p.m.Friday6:00 a.m.- 4:00 p.m.Saturday7:00 a.m.- 12:00 p.m.SundayClosed","https://www.siteone.com/store/332"
"https://www.siteone.com/","Albuquerque NM ","4110 Paseo Del Norte NE","Albuquerque","NM","87113","US","334","505-828-4437","SiteOne Landscape Supply","35.173155","-106.604929","Monday7:30 a.m.- 4:00 p.m.Tuesday7:30 a.m.- 4:00 p.m.Wednesday7:30 a.m.- 4:00 p.m.Thursday7:30 a.m.- 4:00 p.m.Friday7:30 a.m.- 4:00 p.m.SaturdayClosedSundayClosed","https://www.siteone.com/store/334"
"https://www.siteone.com/","Broomfield CO ","2240 Industrial Ln","Broomfield","CO","80020","US","335","303-404-3927","SiteOne Landscape Supply","39.920652","-105.095984","Monday7:30 a.m.- 4:00 p.m.Tuesday7:30 a.m.- 4:00 p.m.Wednesday7:30 a.m.- 4:00 p.m.Thursday7:30 a.m.- 4:00 p.m.Friday7:30 a.m.- 4:00 p.m.SaturdayClosedSundayClosed","https://www.siteone.com/store/335"
"https://www.siteone.com/","Colorado Springs CO ","4950 Northpark Dr","Colorado Springs","CO","80918","US","336","719-598-8888","SiteOne Landscape Supply","38.904086","-104.825696","Monday7:30 a.m.- 4:00 p.m.Tuesday7:30 a.m.- 4:00 p.m.Wednesday7:30 a.m.- 4:00 p.m.Thursday7:30 a.m.- 4:00 p.m.Friday7:30 a.m.- 4:00 p.m.SaturdayClosedSundayClosed","https://www.siteone.com/store/336"
"https://www.siteone.com/","Englewood CO ","2197 W College Ave","Englewood","CO","80110","US","338","303-922-6392","SiteOne Landscape Supply","39.668533","-105.013331","Monday7:30 a.m.- 4:00 p.m.Tuesday7:30 a.m.- 4:00 p.m.Wednesday7:30 a.m.- 4:00 p.m.Thursday7:30 a.m.- 4:00 p.m.Friday7:30 a.m.- 4:00 p.m.SaturdayClosedSundayClosed","https://www.siteone.com/store/338"
"https://www.siteone.com/","Loveland CO ","4000 Patton Ave","Loveland","CO","80538","US","340","970-667-3337","SiteOne Landscape Supply","40.433","-104.977","Monday7:30 a.m.- 4:00 p.m.Tuesday7:30 a.m.- 4:00 p.m.Wednesday7:30 a.m.- 4:00 p.m.Thursday7:30 a.m.- 4:00 p.m.Friday7:30 a.m.- 4:00 p.m.SaturdayClosedSundayClosed","https://www.siteone.com/store/340"
"https://www.siteone.com/","Clackamas OR ","12723 SE Carpenter Dr","Clackamas","OR","97015","US","352","503-657-4452","SiteOne Landscape Supply","45.407837","-122.548165","Monday7:30 a.m.- 4:00 p.m.Tuesday7:30 a.m.- 4:00 p.m.Wednesday7:30 a.m.- 4:00 p.m.Thursday7:30 a.m.- 4:00 p.m.Friday7:30 a.m.- 4:00 p.m.SaturdayClosedSundayClosed","https://www.siteone.com/store/352"
"https://www.siteone.com/","West Creek NJ ","145 Division St","West Creek","NJ","08092","US","353","609-812-1856","SiteOne Landscape Supply","39.636022","-74.310904","Monday7:30 a.m.- 4:00 p.m.Tuesday7:30 a.m.- 4:00 p.m.Wednesday7:30 a.m.- 4:00 p.m.Thursday7:30 a.m.- 4:00 p.m.Friday7:30 a.m.- 4:00 p.m.SaturdayClosedSundayClosed","https://www.siteone.com/store/353"
"https://www.siteone.com/","Fresno CA ","5530 W Spruce Ave","Fresno","CA","93722","US","356","559-277-1630","SiteOne Landscape Supply","36.839324","-119.891448","Monday7:00 a.m.- 4:00 p.m.Tuesday7:00 a.m.- 4:00 p.m.Wednesday7:00 a.m.- 4:00 p.m.Thursday7:00 a.m.- 4:00 p.m.Friday7:00 a.m.- 4:00 p.m.Saturday7:00 a.m.- 11:00 a.m.SundayClosed","https://www.siteone.com/store/356"
"https://www.siteone.com/","Spokane, WA - Auto-Rain Supply ","110 E Pacific Ave","Spokane","WA","99202","US","357","509-326-4440","SiteOne Landscape Supply","47.655","-117.41","Monday8:00 a.m.- 4:00 p.m.Tuesday8:00 a.m.- 4:00 p.m.Wednesday8:00 a.m.- 4:00 p.m.Thursday8:00 a.m.- 4:00 p.m.Friday8:00 a.m.- 4:00 p.m.SaturdayClosedSundayClosed","https://www.siteone.com/store/357"
"https://www.siteone.com/","Arlington TN ","10996 Highway 70","Arlington","TN","38002","US","358","901-867-8733","SiteOne Landscape Supply","35.277","-89.698","Monday7:00 a.m.- 4:30 p.m.Tuesday7:00 a.m.- 4:30 p.m.Wednesday7:00 a.m.- 4:30 p.m.Thursday7:00 a.m.- 4:30 p.m.Friday7:00 a.m.- 4:30 p.m.Saturday7:30 a.m.- 12:00 p.m.SundayClosed","https://www.siteone.com/store/358"
"https://www.siteone.com/","Spokane, WA - Auto-Rain Supply ","3718 E Decatur Ave","Spokane","WA","99217","US","359","509-847-0060","SiteOne Landscape Supply","47.713","-117.355","Monday8:00 a.m.- 4:00 p.m.Tuesday8:00 a.m.- 4:00 p.m.Wednesday8:00 a.m.- 4:00 p.m.Thursday8:00 a.m.- 4:00 p.m.Friday8:00 a.m.- 4:00 p.m.SaturdayClosedSundayClosed","https://www.siteone.com/store/359"
"https://www.siteone.com/","Veradale, WA - Auto-Rain Supply ","16823 E Sprague Ave","Spokane Valley","WA","99037","US","360","509-928-5403","SiteOne Landscape Supply","47.657","-117.178","Monday8:00 a.m.- 4:00 p.m.Tuesday8:00 a.m.- 4:00 p.m.Wednesday8:00 a.m.- 4:00 p.m.Thursday8:00 a.m.- 4:00 p.m.Friday8:00 a.m.- 4:00 p.m.SaturdayClosedSundayClosed","https://www.siteone.com/store/360"
"https://www.siteone.com/","Lewiston, ID - Auto-Rain Supply ","206 22nd St","Lewiston","ID","83501","US","361","208-798-3115","SiteOne Landscape Supply","46.423","-117.001","Monday8:00 a.m.- 4:00 p.m.Tuesday8:00 a.m.- 4:00 p.m.Wednesday8:00 a.m.- 4:00 p.m.Thursday8:00 a.m.- 4:00 p.m.Friday8:00 a.m.- 4:00 p.m.SaturdayClosedSundayClosed","https://www.siteone.com/store/361"
"https://www.siteone.com/","Coeur D'Alene, ID - Auto-Rain Supply ","2619 W Seltice Way","Coeur D Alene","ID","83814","US","362","208-667-3943","SiteOne Landscape Supply","<MISSING>","<MISSING>","Monday8:00 a.m.- 4:00 p.m.Tuesday8:00 a.m.- 4:00 p.m.Wednesday8:00 a.m.- 4:00 p.m.Thursday8:00 a.m.- 4:00 p.m.Friday8:00 a.m.- 4:00 p.m.SaturdayClosedSundayClosed","https://www.siteone.com/store/362"
"https://www.siteone.com/","Torrance CA ","3017 Kashiwa St","Torrance","CA","90505","US","363","310-784-0316","SiteOne Landscape Supply","33.814396","-118.338155","Monday6:30 a.m.- 4:30 p.m.Tuesday6:30 a.m.- 4:30 p.m.Wednesday6:30 a.m.- 4:30 p.m.Thursday6:30 a.m.- 4:30 p.m.Friday6:30 a.m.- 4:30 p.m.Saturday7:00 a.m.- 11:30 a.m.SundayClosed","https://www.siteone.com/store/363"
"https://www.siteone.com/","Aberdeen NC ","10327 NC Highway 211 E Unit 4","Aberdeen","NC","28315","US","365","910-944-2497","SiteOne Landscape Supply","35.125362","-79.401337","Monday7:30 a.m.- 4:30 p.m.Tuesday7:30 a.m.- 4:30 p.m.Wednesday7:30 a.m.- 4:30 p.m.Thursday7:30 a.m.- 4:30 p.m.Friday7:30 a.m.- 4:30 p.m.SaturdayClosedSundayClosed","https://www.siteone.com/store/365"
"https://www.siteone.com/","Murfreesboro TN ","9216 Franklin Rd","Murfreesboro","TN","37128","US","366","615-907-5700","SiteOne Landscape Supply","35.844667","-86.549093","Monday7:00 a.m.- 4:00 p.m.Tuesday7:00 a.m.- 4:00 p.m.Wednesday7:00 a.m.- 4:00 p.m.Thursday7:00 a.m.- 4:00 p.m.Friday7:00 a.m.- 4:00 p.m.Saturday7:00 a.m.- 11:00 a.m.SundayClosed","https://www.siteone.com/store/366"
"https://www.siteone.com/","Olathe KS ","12905 W 143rd St","Olathe","KS","66062","US","367","913-897-7010","SiteOne Landscape Supply","38.868","-94.736","Monday7:30 a.m.- 4:00 p.m.Tuesday7:30 a.m.- 4:00 p.m.Wednesday7:30 a.m.- 4:00 p.m.Thursday7:30 a.m.- 4:00 p.m.Friday7:30 a.m.- 4:00 p.m.SaturdayClosedSundayClosed","https://www.siteone.com/store/367"
"https://www.siteone.com/","Kansas City MO ","5901 NE 96th St","Kansas City","MO","64156","US","368","816-407-7888","SiteOne Landscape Supply","39.266","-94.507","Monday7:30 a.m.- 4:00 p.m.Tuesday7:30 a.m.- 4:00 p.m.Wednesday7:30 a.m.- 4:00 p.m.Thursday7:30 a.m.- 4:00 p.m.Friday7:30 a.m.- 4:00 p.m.SaturdayClosedSundayClosed","https://www.siteone.com/store/368"
"https://www.siteone.com/","Salem OR ","2130 Turner Rd SE","Salem","OR","97302","US","369","503-362-3569","SiteOne Landscape Supply","44.911255","-122.996011","Monday7:30 a.m.- 4:00 p.m.Tuesday7:30 a.m.- 4:00 p.m.Wednesday7:30 a.m.- 4:00 p.m.Thursday7:30 a.m.- 4:00 p.m.Friday7:30 a.m.- 4:00 p.m.SaturdayClosedSundayClosed","https://www.siteone.com/store/369"
"https://www.siteone.com/","Fargo ND ","3019 Thunder Rd S","Fargo","ND","58104","US","370","701-281-7034","SiteOne Landscape Supply","46.836","-96.843","Monday7:30 a.m.- 4:00 p.m.Tuesday7:30 a.m.- 4:00 p.m.Wednesday7:30 a.m.- 4:00 p.m.Thursday7:30 a.m.- 4:00 p.m.Friday7:30 a.m.- 4:00 p.m.SaturdayClosedSundayClosed","https://www.siteone.com/store/370"
"https://www.siteone.com/","Tea SD ","201 E Highpointe St","Tea","SD","57064","US","371","605-368-9057","SiteOne Landscape Supply","43.432827","-96.791952","Monday7:30 a.m.- 4:00 p.m.Tuesday7:30 a.m.- 4:00 p.m.Wednesday7:30 a.m.- 4:00 p.m.Thursday7:30 a.m.- 4:00 p.m.Friday7:30 a.m.- 4:00 p.m.SaturdayClosedSundayClosed","https://www.siteone.com/store/371"
"https://www.siteone.com/","Draper UT ","11623 S State St","Draper","UT","84020","US","372","801-572-1882","SiteOne Landscape Supply","40.540874","-111.891352","Monday7:30 a.m.- 4:00 p.m.Tuesday7:30 a.m.- 4:00 p.m.Wednesday7:30 a.m.- 4:00 p.m.Thursday7:30 a.m.- 4:00 p.m.Friday7:30 a.m.- 4:00 p.m.SaturdayClosedSundayClosed","https://www.siteone.com/store/372"
"https://www.siteone.com/","Charlottesville VA ","4010 Hunterstand Ct","Charlottesville","VA","22911","US","374","434-970-2500","SiteOne Landscape Supply","38.050623","-78.528563","Monday7:30 a.m.- 4:30 p.m.Tuesday7:30 a.m.- 4:30 p.m.Wednesday7:30 a.m.- 4:30 p.m.Thursday7:30 a.m.- 4:30 p.m.Friday7:30 a.m.- 4:30 p.m.Saturday8:00 a.m.- 12:00 p.m.SundayClosed","https://www.siteone.com/store/374"
"https://www.siteone.com/","Waite Park MN ","217 33rd Ave S","Waite Park","MN","56387","US","376","320-253-0028","SiteOne Landscape Supply","45.549677","-94.261409","Monday7:30 a.m.- 4:00 p.m.Tuesday7:30 a.m.- 4:00 p.m.Wednesday7:30 a.m.- 4:00 p.m.Thursday7:30 a.m.- 4:00 p.m.Friday7:30 a.m.- 4:00 p.m.SaturdayClosedSundayClosed","https://www.siteone.com/store/376"
"https://www.siteone.com/","Scottsdale AZ ","7501 E Monte Cristo Ave","Scottsdale","AZ","85260","US","377","480-483-0318","SiteOne Landscape Supply","33.631159","-111.918698","Monday6:00 a.m.- 4:00 p.m.Tuesday6:00 a.m.- 4:00 p.m.Wednesday6:00 a.m.- 4:00 p.m.Thursday6:00 a.m.- 4:00 p.m.Friday6:00 a.m.- 4:00 p.m.Saturday7:00 a.m.- 12:00 p.m.SundayClosed","https://www.siteone.com/store/377"
"https://www.siteone.com/","Grand Island NE ","1719 Aspen Cir Ste 16","Grand Island","NE","68803","US","380","308-384-1949","SiteOne Landscape Supply","40.9374","-98.387431","Monday7:30 a.m.- 4:00 p.m.Tuesday7:30 a.m.- 4:00 p.m.Wednesday7:30 a.m.- 4:00 p.m.Thursday7:30 a.m.- 4:00 p.m.Friday7:30 a.m.- 4:00 p.m.SaturdayClosedSundayClosed","https://www.siteone.com/store/380"
"https://www.siteone.com/","Lees Summit MO ","109 NW Victoria Dr","Lees Summit","MO","64086","US","381","816-525-2521","SiteOne Landscape Supply","38.936714","-94.383744","Monday7:30 a.m.- 4:00 p.m.Tuesday7:30 a.m.- 4:00 p.m.Wednesday7:30 a.m.- 4:00 p.m.Thursday7:30 a.m.- 4:00 p.m.Friday7:30 a.m.- 4:00 p.m.SaturdayClosedSundayClosed","https://www.siteone.com/store/381"
"https://www.siteone.com/","Canoga Park CA ","21361 Deering Ct","Canoga Park","CA","91304","US","382","818-704-1772","SiteOne Landscape Supply","34.217","-118.596","Monday6:00 a.m.- 4:30 p.m.Tuesday6:00 a.m.- 4:30 p.m.Wednesday6:00 a.m.- 4:30 p.m.Thursday6:00 a.m.- 4:30 p.m.Friday6:00 a.m.- 4:30 p.m.Saturday6:00 a.m.- 11:30 a.m.SundayClosed","https://www.siteone.com/store/382"
"https://www.siteone.com/","Manhattan KS ","8231 Southport Dr","Manhattan","KS","66502","US","383","785-539-0122","SiteOne Landscape Supply","39.195","-96.522","Monday7:30 a.m.- 4:00 p.m.Tuesday7:30 a.m.- 4:00 p.m.Wednesday7:30 a.m.- 4:00 p.m.Thursday7:30 a.m.- 4:00 p.m.Friday7:30 a.m.- 4:00 p.m.SaturdayClosedSundayClosed","https://www.siteone.com/store/383"
"https://www.siteone.com/","Petoskey MI ","1601 Standish Ave Unit 2","Petoskey","MI","49770","US","384","231-487-1087","SiteOne Landscape Supply","45.36","-84.956","Monday7:30 a.m.- 4:00 p.m.Tuesday7:30 a.m.- 4:00 p.m.Wednesday7:30 a.m.- 4:00 p.m.Thursday7:30 a.m.- 4:00 p.m.Friday7:30 a.m.- 4:00 p.m.SaturdayClosedSundayClosed","https://www.siteone.com/store/384"
"https://www.siteone.com/","Denver CO ","4880 Geneva St","Denver","CO","80238","US","385","303-872-4549","SiteOne Landscape Supply","39.786","-104.868","Monday7:30 a.m.- 4:00 p.m.Tuesday7:30 a.m.- 4:00 p.m.Wednesday7:30 a.m.- 4:00 p.m.Thursday7:30 a.m.- 4:00 p.m.Friday7:30 a.m.- 4:00 p.m.SaturdayClosedSundayClosed","https://www.siteone.com/store/385"
"https://www.siteone.com/","Mandeville LA ","1690 South Ln","Mandeville","LA","70471","US","386","985-809-5011","SiteOne Landscape Supply","30.426395","-90.037787","Monday7:00 a.m.- 4:00 p.m.Tuesday7:00 a.m.- 4:00 p.m.Wednesday7:00 a.m.- 4:00 p.m.Thursday7:00 a.m.- 4:00 p.m.Friday7:00 a.m.- 4:00 p.m.SaturdayClosedSundayClosed","https://www.siteone.com/store/386"
"https://www.siteone.com/","San Leandro CA ","2100 Davis St","San Leandro","CA","94577","US","387","510-562-1247","SiteOne Landscape Supply","37.718","-122.186","Monday6:30 a.m.- 4:30 p.m.Tuesday6:30 a.m.- 4:30 p.m.Wednesday6:30 a.m.- 4:30 p.m.Thursday6:30 a.m.- 4:30 p.m.Friday6:30 a.m.- 4:30 p.m.Saturday7:30 a.m.- 12:00 p.m.SundayClosed","https://www.siteone.com/store/387"
"https://www.siteone.com/","Santa Ana CA ","1441 E McFadden Ave","Santa Ana","CA","92705","US","388","714-285-9092","SiteOne Landscape Supply","33.734","-117.848","Monday6:30 a.m.- 4:30 p.m.Tuesday6:30 a.m.- 4:30 p.m.Wednesday6:30 a.m.- 4:30 p.m.Thursday6:30 a.m.- 4:30 p.m.Friday6:30 a.m.- 4:30 p.m.Saturday7:00 a.m.- 11:30 a.m.SundayClosed","https://www.siteone.com/store/388"
"https://www.siteone.com/","Honolulu HI ","850 Iwilei Rd","Honolulu","HI","96817","US","392","808-591-1122","SiteOne Landscape Supply","21.299","-157.854","Monday7:00 a.m.- 4:00 p.m.Tuesday7:00 a.m.- 4:00 p.m.Wednesday7:00 a.m.- 4:00 p.m.Thursday7:00 a.m.- 4:00 p.m.Friday7:00 a.m.- 4:00 p.m.Saturday7:00 a.m.- 12:00 p.m.SundayClosed","https://www.siteone.com/store/392"
"https://www.siteone.com/","Kailua Kona HI ","73-4080 Hulikoa Dr Ste 7","Kailua Kona","HI","96740","US","396","808-329-9339","SiteOne Landscape Supply","19.700","-156.016","Monday7:00 a.m.- 4:00 p.m.Tuesday7:00 a.m.- 4:00 p.m.Wednesday7:00 a.m.- 4:00 p.m.Thursday7:00 a.m.- 4:00 p.m.Friday7:00 a.m.- 4:00 p.m.SaturdayClosedSundayClosed","https://www.siteone.com/store/396"
"https://www.siteone.com/","Corpus Christi TX ","5045 Ambassador Row","Corpus Christi","TX","78416","US","397","361-854-7499","SiteOne Landscape Supply","27.748433","-97.451499","Monday7:00 a.m.- 5:00 p.m.Tuesday7:00 a.m.- 5:00 p.m.Wednesday7:00 a.m.- 5:00 p.m.Thursday7:00 a.m.- 5:00 p.m.Friday7:00 a.m.- 5:00 p.m.Saturday7:00 a.m.- 11:00 a.m.SundayClosed","https://www.siteone.com/store/397"
"https://www.siteone.com/","Boca Raton FL ","1090 S Rogers Cir","Boca Raton","FL","33487","US","402","561-998-2887","SiteOne Landscape Supply","26.403329","-80.109743","Monday7:00 a.m.- 4:00 p.m.Tuesday7:00 a.m.- 4:00 p.m.Wednesday7:00 a.m.- 4:00 p.m.Thursday7:00 a.m.- 4:00 p.m.Friday7:00 a.m.- 4:00 p.m.Saturday8:00 a.m.- 12:00 p.m.SundayClosed","https://www.siteone.com/store/402"
"https://www.siteone.com/","Tampa FL ","8502 Sunstate St","Tampa","FL","33634","US","406","813-889-8041","SiteOne Landscape Supply","28.02831","-82.528392","Monday7:00 a.m.- 4:00 p.m.Tuesday7:00 a.m.- 4:00 p.m.Wednesday7:00 a.m.- 4:00 p.m.Thursday7:00 a.m.- 4:00 p.m.Friday7:00 a.m.- 4:00 p.m.SaturdayClosedSundayClosed","https://www.siteone.com/store/406"
"https://www.siteone.com/","Port St. Lucie FL ","900 SW Biltmore St","Port Saint Lucie","FL","34983","US","407","772-340-7077","SiteOne Landscape Supply","27.309506","-80.372272","Monday7:00 a.m.- 4:00 p.m.Tuesday7:00 a.m.- 4:00 p.m.Wednesday7:00 a.m.- 4:00 p.m.Thursday7:00 a.m.- 4:00 p.m.Friday7:00 a.m.- 4:00 p.m.Saturday8:00 a.m.- 12:00 p.m.SundayClosed","https://www.siteone.com/store/407"
"https://www.siteone.com/","Cape Coral FL ","909 SE 14th Ave","Cape Coral","FL","33990","US","409","239-574-4500","SiteOne Landscape Supply","26.635762","-81.944539","Monday7:00 a.m.- 4:00 p.m.Tuesday7:00 a.m.- 4:00 p.m.Wednesday7:00 a.m.- 4:00 p.m.Thursday7:00 a.m.- 4:00 p.m.Friday7:00 a.m.- 4:00 p.m.Saturday8:00 a.m.- 12:00 p.m.SundayClosed","https://www.siteone.com/store/409"
"https://www.siteone.com/","Omaha NE ","2305 S 156th Cir","Omaha","NE","68130","US","414","402-333-2312","SiteOne Landscape Supply","41.236829","-96.158587","Monday7:30 a.m.- 4:00 p.m.Tuesday7:30 a.m.- 4:00 p.m.Wednesday7:30 a.m.- 4:00 p.m.Thursday7:30 a.m.- 4:00 p.m.Friday7:30 a.m.- 4:00 p.m.SaturdayClosedSundayClosed","https://www.siteone.com/store/414"
"https://www.siteone.com/","Edina MN ","6925 Washington Ave S","Edina","MN","55439","US","416","952-942-9282","SiteOne Landscape Supply","44.87658","-93.399009","Monday7:30 a.m.- 4:00 p.m.Tuesday7:30 a.m.- 4:00 p.m.Wednesday7:30 a.m.- 4:00 p.m.Thursday7:30 a.m.- 4:00 p.m.Friday7:30 a.m.- 4:00 p.m.SaturdayClosedSundayClosed","https://www.siteone.com/store/416"
"https://www.siteone.com/","Mobile AL ","1560 Cody Rd S","Mobile","AL","36695","US","423","251-639-1565","SiteOne Landscape Supply","30.658","-88.208","Monday7:00 a.m.- 4:00 p.m.Tuesday7:00 a.m.- 4:00 p.m.Wednesday7:00 a.m.- 4:00 p.m.Thursday7:00 a.m.- 4:00 p.m.Friday7:00 a.m.- 4:00 p.m.SaturdayClosedSundayClosed","https://www.siteone.com/store/423"
"https://www.siteone.com/","Pensacola FL ","540 W Michigan Ave","Pensacola","FL","32505","US","424","850-434-5475","SiteOne Landscape Supply","30.466","-87.256","Monday7:00 a.m.- 4:00 p.m.Tuesday7:00 a.m.- 4:00 p.m.Wednesday7:00 a.m.- 4:00 p.m.Thursday7:00 a.m.- 4:00 p.m.Friday7:00 a.m.- 4:00 p.m.SaturdayClosedSundayClosed","https://www.siteone.com/store/424"
"https://www.siteone.com/","Fort Walton Beach FL ","154 Blake Ave","Fort Walton Beach","FL","32548","US","426","850-862-1137","SiteOne Landscape Supply","30.423","-86.665","Monday7:00 a.m.- 4:00 p.m.Tuesday7:00 a.m.- 4:00 p.m.Wednesday7:00 a.m.- 4:00 p.m.Thursday7:00 a.m.- 4:00 p.m.Friday7:00 a.m.- 4:00 p.m.SaturdayClosedSundayClosed","https://www.siteone.com/store/426"
"https://www.siteone.com/","Bakersfield CA - American Builders Supply ","2504 E Brundage Ln","Bakersfield","CA","93307","US","430","661-852-0564","SiteOne Hardscape Center","35.354","-118.964","Monday6:00 a.m.- 5:00 p.m.Tuesday6:00 a.m.- 5:00 p.m.Wednesday6:00 a.m.- 5:00 p.m.Thursday6:00 a.m.- 5:00 p.m.Friday6:00 a.m.- 5:00 p.m.Saturday6:00 a.m.- 1:00 p.m.SundayClosed","https://www.siteone.com/store/430"
"https://www.siteone.com/","Plain City OH ","7801 Corporate Blvd Unit A","Plain City","OH","43064","US","431","614-504-9000","SiteOne Landscape Supply","40.126782","-83.192897","Monday7:30 a.m.- 4:00 p.m.Tuesday7:30 a.m.- 4:00 p.m.Wednesday7:30 a.m.- 4:00 p.m.Thursday7:30 a.m.- 4:00 p.m.Friday7:30 a.m.- 4:00 p.m.SaturdayClosedSundayClosed","https://www.siteone.com/store/431"
"https://www.siteone.com/","Canoga Park CA - American Builders Supply ","7647 Canoga Ave","Canoga Park","CA","91304","US","432","818-884-1795","SiteOne Hardscape Center","34.21","-118.598","Monday6:00 a.m.- 5:00 p.m.Tuesday6:00 a.m.- 5:00 p.m.Wednesday6:00 a.m.- 5:00 p.m.Thursday6:00 a.m.- 5:00 p.m.Friday6:00 a.m.- 5:00 p.m.Saturday6:00 a.m.- 2:00 p.m.SundayClosed","https://www.siteone.com/store/432"
"https://www.siteone.com/","Oxnard CA - American Builders Supply ","3288 E Vineyard Ave","Oxnard","CA","93036","US","434","805-988-0705","SiteOne Hardscape Center","34.243","-119.164","Monday6:00 a.m.- 5:00 p.m.Tuesday6:00 a.m.- 5:00 p.m.Wednesday6:00 a.m.- 5:00 p.m.Thursday6:00 a.m.- 5:00 p.m.Friday6:00 a.m.- 5:00 p.m.Saturday6:00 a.m.- 3:00 p.m.SundayClosed","https://www.siteone.com/store/434"
"https://www.siteone.com/","Dedham MA ","60 Stergis Way","Dedham","MA","02026","US","435","800-225-8006","SiteOne Landscape Supply","42.235","-71.177","Monday7:00 a.m.- 4:00 p.m.Tuesday7:00 a.m.- 4:00 p.m.Wednesday7:00 a.m.- 4:00 p.m.Thursday7:00 a.m.- 4:00 p.m.Friday7:00 a.m.- 4:00 p.m.Saturday7:30 a.m.- 11:30 a.m.SundayClosed","https://www.siteone.com/store/435"
"https://www.siteone.com/","Gainesville FL ","2320 NW 71st Pl","Gainesville","FL","32653","US","436","352-371-8011","SiteOne Landscape Supply","29.719839","-82.35596","Monday7:00 a.m.- 4:00 p.m.Tuesday7:00 a.m.- 4:00 p.m.Wednesday7:00 a.m.- 4:00 p.m.Thursday7:00 a.m.- 4:00 p.m.Friday7:00 a.m.- 4:00 p.m.Saturday8:00 a.m.- 12:00 p.m.SundayClosed","https://www.siteone.com/store/436"
"https://www.siteone.com/","Port Richey FL ","6721 Industrial Ave","Port Richey","FL","34668","US","437","727-849-1522","SiteOne Landscape Supply","28.278465","-82.703927","Monday7:00 a.m.- 4:00 p.m.Tuesday7:00 a.m.- 4:00 p.m.Wednesday7:00 a.m.- 4:00 p.m.Thursday7:00 a.m.- 4:00 p.m.Friday7:00 a.m.- 4:00 p.m.SaturdayClosedSundayClosed","https://www.siteone.com/store/437"
"https://www.siteone.com/","Cockeysville MD ","10822 Williamson Ln","Cockeysville","MD","21030","US","439","410-769-8011","SiteOne Landscape Supply","39.381559","-76.657385","Monday7:00 a.m.- 4:00 p.m.Tuesday7:00 a.m.- 4:00 p.m.Wednesday7:00 a.m.- 4:00 p.m.Thursday7:00 a.m.- 4:00 p.m.Friday7:00 a.m.- 4:00 p.m.Saturday7:00 a.m.- 11:00 a.m.SundayClosed","https://www.siteone.com/store/439"
"https://www.siteone.com/","Stamford CT ","52B Poplar St","Stamford","CT","06907","US","440","203-353-0061","SiteOne Landscape Supply","41.079104","-73.518291","Monday7:30 a.m.- 3:30 p.m.Tuesday7:30 a.m.- 3:30 p.m.Wednesday7:30 a.m.- 3:30 p.m.Thursday7:30 a.m.- 3:30 p.m.Friday7:30 a.m.- 3:30 p.m.SaturdayClosedSundayClosed","https://www.siteone.com/store/440"
"https://www.siteone.com/","Longwood FL ","1834 Longwood Lake Mary Rd","Longwood","FL","32750","US","441","407-332-8933","SiteOne Landscape Supply","28.721997","-81.337022","Monday7:00 a.m.- 4:00 p.m.Tuesday7:00 a.m.- 4:00 p.m.Wednesday7:00 a.m.- 4:00 p.m.Thursday7:00 a.m.- 4:00 p.m.Friday7:00 a.m.- 4:00 p.m.Saturday8:00 a.m.- 12:00 p.m.SundayClosed","https://www.siteone.com/store/441"
"https://www.siteone.com/","East Hartford CT ","80 Thomas St","East Hartford","CT","06108","US","442","860-528-9182","SiteOne Landscape Supply","41.773","-72.653","Monday7:00 a.m.- 4:00 p.m.Tuesday7:00 a.m.- 4:00 p.m.Wednesday7:00 a.m.- 4:00 p.m.Thursday7:00 a.m.- 4:00 p.m.Friday7:00 a.m.- 4:00 p.m.SaturdayClosedSundayClosed","https://www.siteone.com/store/442"
"https://www.siteone.com/","Rochester NY ","51 Goodway Dr S","Rochester","NY","14623","US","444","585-427-2070","SiteOne Landscape Supply","43.091","-77.579","Monday7:30 a.m.- 4:00 p.m.Tuesday7:30 a.m.- 4:00 p.m.Wednesday7:30 a.m.- 4:00 p.m.Thursday7:30 a.m.- 4:00 p.m.Friday7:30 a.m.- 4:00 p.m.SaturdayClosedSundayClosed","https://www.siteone.com/store/444"
"https://www.siteone.com/","Port Charlotte FL ","1464 Market Cir","Port Charlotte","FL","33953","US","445","941-235-1586","SiteOne Landscape Supply","27.013049","-82.153227","Monday7:00 a.m.- 4:00 p.m.Tuesday7:00 a.m.- 4:00 p.m.Wednesday7:00 a.m.- 4:00 p.m.Thursday7:00 a.m.- 4:00 p.m.Friday7:00 a.m.- 4:00 p.m.Saturday8:00 a.m.- 12:00 p.m.SundayClosed","https://www.siteone.com/store/445"
"https://www.siteone.com/","Portsmouth NH ","141 Banfield Rd","Portsmouth","NH","03801","US","446","888-805-2269","SiteOne Landscape Supply","43.047","-70.782","Monday7:00 a.m.- 4:00 p.m.Tuesday7:00 a.m.- 4:00 p.m.Wednesday7:00 a.m.- 4:00 p.m.Thursday7:00 a.m.- 4:00 p.m.Friday7:00 a.m.- 4:00 p.m.Saturday8:00 a.m.- 12:00 p.m.SundayClosed","https://www.siteone.com/store/446"
"https://www.siteone.com/","North Chelmsford MA ","7B Doris Dr","North Chelmsford","MA","01863","US","447","978-251-7100","SiteOne Landscape Supply","42.63051","-71.409545","Monday7:00 a.m.- 4:00 p.m.Tuesday7:00 a.m.- 4:00 p.m.Wednesday7:00 a.m.- 4:00 p.m.Thursday7:00 a.m.- 4:00 p.m.Friday7:00 a.m.- 4:00 p.m.Saturday8:00 a.m.- 12:00 p.m.SundayClosed","https://www.siteone.com/store/447"
"https://www.siteone.com/","Warwick RI ","40 Illinois Ave","Warwick","RI","02888","US","448","401-739-3161","SiteOne Landscape Supply","41.740721","-71.439706","Monday7:00 a.m.- 4:00 p.m.Tuesday7:00 a.m.- 4:00 p.m.Wednesday7:00 a.m.- 4:00 p.m.Thursday7:00 a.m.- 4:00 p.m.Friday7:00 a.m.- 4:00 p.m.Saturday7:30 a.m.- 11:30 a.m.SundayClosed","https://www.siteone.com/store/448"
"https://www.siteone.com/","North Haven CT ","355 Sackett Point Rd","North Haven","CT","06473","US","449","203-287-0026","SiteOne Landscape Supply","41.367387","-72.875316","Monday8:00 a.m.- 4:00 p.m.Tuesday8:00 a.m.- 4:00 p.m.Wednesday8:00 a.m.- 4:00 p.m.Thursday8:00 a.m.- 4:00 p.m.Friday8:00 a.m.- 4:00 p.m.SaturdayClosedSundayClosed","https://www.siteone.com/store/449"
"https://www.siteone.com/","Pacoima CA - American Builders Supply ","13265 Van Nuys Blvd","Pacoima","CA","91331","US","450","747-225-0765","SiteOne Hardscape Center","34.267","-118.422","Monday6:00 a.m.- 5:00 p.m.Tuesday6:00 a.m.- 5:00 p.m.Wednesday6:00 a.m.- 5:00 p.m.Thursday6:00 a.m.- 5:00 p.m.Friday6:00 a.m.- 5:00 p.m.Saturday6:00 a.m.- 2:00 p.m.SundayClosed","https://www.siteone.com/store/450"
"https://www.siteone.com/","Palmdale CA - American Builders Supply ","843 E Avenue R","Palmdale","CA","93550","US","451","661-947-2117","SiteOne Hardscape Center","34.573","-118.114","Monday6:00 a.m.- 5:00 p.m.Tuesday6:00 a.m.- 5:00 p.m.Wednesday6:00 a.m.- 5:00 p.m.Thursday6:00 a.m.- 5:00 p.m.Friday6:00 a.m.- 5:00 p.m.Saturday7:00 a.m.- 2:00 p.m.SundayClosed","https://www.siteone.com/store/451"
"https://www.siteone.com/","Paso Robles CA - American Builders Supply ","1108 Paso Robles St","Paso Robles","CA","93446","US","452","805-239-4317","SiteOne Hardscape Center","35.626","-120.685","Monday7:00 a.m.- 5:00 p.m.Tuesday7:00 a.m.- 5:00 p.m.Wednesday7:00 a.m.- 5:00 p.m.Thursday7:00 a.m.- 5:00 p.m.Friday7:00 a.m.- 5:00 p.m.Saturday7:00 a.m.- 2:00 p.m.SundayClosed","https://www.siteone.com/store/452"
"https://www.siteone.com/","Stoughton MA ","387 Page St Ste 5A","Stoughton","MA","02072","US","453","781-341-4746","SiteOne Landscape Supply","42.148999","-71.072186","Monday7:00 a.m.- 4:00 p.m.Tuesday7:00 a.m.- 4:00 p.m.Wednesday7:00 a.m.- 4:00 p.m.Thursday7:00 a.m.- 4:00 p.m.Friday7:00 a.m.- 4:00 p.m.Saturday7:30 a.m.- 11:30 a.m.SundayClosed","https://www.siteone.com/store/453"
"https://www.siteone.com/","Atlanta GA ","2351 Button Gwinnett Dr Ste 100","Atlanta","GA","30340","US","454","770-242-0607","SiteOne Landscape Supply","33.918716","-84.237412","Monday7:30 a.m.- 4:30 p.m.Tuesday7:30 a.m.- 4:30 p.m.Wednesday7:30 a.m.- 4:30 p.m.Thursday7:30 a.m.- 4:30 p.m.Friday7:30 a.m.- 4:30 p.m.Saturday8:00 a.m.- 12:00 p.m.SundayClosed","https://www.siteone.com/store/454"
"https://www.siteone.com/","Bethpage NY ","999 S Oyster Bay Rd Ste 103","Bethpage","NY","11714","US","455","516-576-0318","SiteOne Landscape Supply","40.75995","-73.506297","Monday7:00 a.m.- 4:00 p.m.Tuesday7:00 a.m.- 4:00 p.m.Wednesday7:00 a.m.- 4:00 p.m.Thursday7:00 a.m.- 4:00 p.m.Friday7:00 a.m.- 4:00 p.m.Saturday8:00 a.m.- 12:00 p.m.SundayClosed","https://www.siteone.com/store/455"
"https://www.siteone.com/","South Windsor CT ","171 Commerce Way","South Windsor","CT","06074","US","456","860-282-7661","SiteOne Landscape Supply","41.85975","-72.596594","Monday8:00 a.m.- 4:00 p.m.Tuesday8:00 a.m.- 4:00 p.m.Wednesday8:00 a.m.- 4:00 p.m.Thursday8:00 a.m.- 4:00 p.m.Friday8:00 a.m.- 4:00 p.m.SaturdayClosedSundayClosed","https://www.siteone.com/store/456"
"https://www.siteone.com/","Santa Clarita CA - American Builders Supply ","21400 Golden Triangle Rd","Santa Clarita","CA","91350","US","457","661-255-6300","SiteOne Hardscape Center","34.417","-118.51","Monday6:00 a.m.- 5:00 p.m.Tuesday6:00 a.m.- 5:00 p.m.Wednesday6:00 a.m.- 5:00 p.m.Thursday6:00 a.m.- 5:00 p.m.Friday6:00 a.m.- 5:00 p.m.Saturday6:00 a.m.- 2:00 p.m.SundayClosed","https://www.siteone.com/store/457"
"https://www.siteone.com/","Raleigh NC ","8925 Midway West Rd","Raleigh","NC","27617","US","458","919-420-0145","SiteOne Landscape Supply","35.907609","-78.758164","Monday7:30 a.m.- 4:30 p.m.Tuesday7:30 a.m.- 4:30 p.m.Wednesday7:30 a.m.- 4:30 p.m.Thursday7:30 a.m.- 4:30 p.m.Friday7:30 a.m.- 4:30 p.m.SaturdayClosedSundayClosed","https://www.siteone.com/store/458"
"https://www.siteone.com/","Cherry Hill  NJ ","1008 Astoria Blvd","Cherry Hill","NJ","08003","US","460","856-751-5977","SiteOne Landscape Supply","39.906287","-74.978624","Monday7:30 a.m.- 4:00 p.m.Tuesday7:30 a.m.- 4:00 p.m.Wednesday7:30 a.m.- 4:00 p.m.Thursday7:30 a.m.- 4:00 p.m.Friday7:30 a.m.- 4:00 p.m.SaturdayClosedSundayClosed","https://www.siteone.com/store/460"
"https://www.siteone.com/","Pineville NC ","10126 Industrial Dr","Pineville","NC","28134","US","461","704-553-9779","SiteOne Landscape Supply","35.097992","-80.89208","Monday7:30 a.m.- 4:30 p.m.Tuesday7:30 a.m.- 4:30 p.m.Wednesday7:30 a.m.- 4:30 p.m.Thursday7:30 a.m.- 4:30 p.m.Friday7:30 a.m.- 4:30 p.m.SaturdayClosedSundayClosed","https://www.siteone.com/store/461"
"https://www.siteone.com/","Johns Island SC ","3940 James Bay Rd","Johns Island","SC","29455","US","462","843-769-5566","SiteOne Landscape Supply","32.797291","-80.12787","Monday7:30 a.m.- 4:30 p.m.Tuesday7:30 a.m.- 4:30 p.m.Wednesday7:30 a.m.- 4:30 p.m.Thursday7:30 a.m.- 4:30 p.m.Friday7:30 a.m.- 4:30 p.m.SaturdayClosedSundayClosed","https://www.siteone.com/store/462"
"https://www.siteone.com/","South Daytona FL ","2430 S Nova Rd","South Daytona","FL","32119","US","465","386-760-3027","SiteOne Landscape Supply","29.274106","-81.060356","Monday7:00 a.m.- 4:00 p.m.Tuesday7:00 a.m.- 4:00 p.m.Wednesday7:00 a.m.- 4:00 p.m.Thursday7:00 a.m.- 4:00 p.m.Friday7:00 a.m.- 4:00 p.m.Saturday8:00 a.m.- 12:00 p.m.SundayClosed","https://www.siteone.com/store/465"
"https://www.siteone.com/","Sun Valley CA - American Builders Supply ","8563 San Fernando Rd","Sun Valley","CA","91352","US","466","818-768-3176","SiteOne Hardscape Center","34.225","-118.379","Monday6:00 a.m.- 5:00 p.m.Tuesday6:00 a.m.- 5:00 p.m.Wednesday6:00 a.m.- 5:00 p.m.Thursday6:00 a.m.- 5:00 p.m.Friday6:00 a.m.- 5:00 p.m.Saturday6:00 a.m.- 2:00 p.m.SundayClosed","https://www.siteone.com/store/466"
"https://www.siteone.com/","Eastlake OH ","34201 Melinz Pkwy","Eastlake","OH","44095","US","468","440-269-8611","SiteOne Landscape Supply","41.637263","-81.44434","Monday7:30 a.m.- 4:00 p.m.Tuesday7:30 a.m.- 4:00 p.m.Wednesday7:30 a.m.- 4:00 p.m.Thursday7:30 a.m.- 4:00 p.m.Friday7:30 a.m.- 4:00 p.m.SaturdayClosedSundayClosed","https://www.siteone.com/store/468"
"https://www.siteone.com/","Middlebury CT ","145 N Benson Rd Unit 1","Middlebury","CT","06762","US","469","203-758-2850","SiteOne Landscape Supply","41.507","-73.155","Monday7:00 a.m.- 3:30 p.m.Tuesday7:00 a.m.- 3:30 p.m.Wednesday7:00 a.m.- 3:30 p.m.Thursday7:00 a.m.- 3:30 p.m.Friday7:00 a.m.- 3:30 p.m.SaturdayClosedSundayClosed","https://www.siteone.com/store/469"
"https://www.siteone.com/","Stuart FL ","3147 SE Lionel Ter","Stuart","FL","34997","US","470","772-223-0079","SiteOne Landscape Supply","27.146865","-80.208589","Monday7:00 a.m.- 4:00 p.m.Tuesday7:00 a.m.- 4:00 p.m.Wednesday7:00 a.m.- 4:00 p.m.Thursday7:00 a.m.- 4:00 p.m.Friday7:00 a.m.- 4:00 p.m.Saturday8:00 a.m.- 12:00 p.m.SundayClosed","https://www.siteone.com/store/470"
"https://www.siteone.com/","Homewood AL ","121 Distribution Dr","Homewood","AL","35209","US","471","205-290-0100","SiteOne Landscape Supply","33.444909","-86.845839","Monday7:30 a.m.- 4:30 p.m.Tuesday7:30 a.m.- 4:30 p.m.Wednesday7:30 a.m.- 4:30 p.m.Thursday7:30 a.m.- 4:30 p.m.Friday7:30 a.m.- 4:30 p.m.Saturday7:30 a.m.- 11:30 a.m.SundayClosed","https://www.siteone.com/store/471"
"https://www.siteone.com/","Farmersville CA - SiteOne Hardscape Center ","293 Noble Ave","Farmersville","CA","93223","US","472","559-635-7833","SiteOne Hardscape Center","36.325","-119.21","Monday7:00 a.m.- 4:30 p.m.Tuesday7:00 a.m.- 4:30 p.m.Wednesday7:00 a.m.- 4:30 p.m.Thursday7:00 a.m.- 4:30 p.m.Friday7:00 a.m.- 4:30 p.m.Saturday8:00 a.m.- 1:30 p.m.SundayClosed","https://www.siteone.com/store/472"
"https://www.siteone.com/","Knoxville TN ","1337 E Weisgarber Rd","Knoxville","TN","37909","US","473","865-584-3566","SiteOne Landscape Supply","35.952171","-84.016168","Monday7:00 a.m.- 4:00 p.m.Tuesday7:00 a.m.- 4:00 p.m.Wednesday7:00 a.m.- 4:00 p.m.Thursday7:00 a.m.- 4:00 p.m.Friday7:00 a.m.- 4:00 p.m.SaturdayClosedSundayClosed","https://www.siteone.com/store/473"
"https://www.siteone.com/","SiteOne Hardscape Center ","7375 Tule Springs Rd","Las Vegas","NV","89131","US","474","702-645-4743","SiteOne Hardscape Center","36.295","-115.281","Monday7:00 a.m.- 4:00 p.m.Tuesday7:00 a.m.- 4:00 p.m.Wednesday7:00 a.m.- 4:00 p.m.Thursday7:00 a.m.- 4:00 p.m.Friday7:00 a.m.- 4:00 p.m.Saturday7:00 a.m.- 12:00 p.m.SundayClosed","https://www.siteone.com/store/474"
"https://www.siteone.com/","SiteOne Hardscape Center ","8845 S Bronco St","Las Vegas","NV","89139","US","475","702-407-5557","SiteOne Hardscape Center","36.029","-115.229","Monday7:00 a.m.- 4:00 p.m.Tuesday7:00 a.m.- 4:00 p.m.Wednesday7:00 a.m.- 4:00 p.m.Thursday7:00 a.m.- 4:00 p.m.Friday7:00 a.m.- 4:00 p.m.Saturday7:00 a.m.- 12:00 p.m.SundayClosed","https://www.siteone.com/store/475"
"https://www.siteone.com/","Fenton MO ","1535 Fenpark Dr","Fenton","MO","63026","US","476","636-349-8088","SiteOne Landscape Supply","38.534396","-90.449073","Monday7:30 a.m.- 4:00 p.m.Tuesday7:30 a.m.- 4:00 p.m.Wednesday7:30 a.m.- 4:00 p.m.Thursday7:30 a.m.- 4:00 p.m.Friday7:30 a.m.- 4:00 p.m.SaturdayClosedSundayClosed","https://www.siteone.com/store/476"
"https://www.siteone.com/","Chantilly VA ","4262 Entre Ct","Chantilly","VA","20151","US","477","703-631-3224","SiteOne Landscape Supply","38.888","-77.436","Monday7:00 a.m.- 4:00 p.m.Tuesday7:00 a.m.- 4:00 p.m.Wednesday7:00 a.m.- 4:00 p.m.Thursday7:00 a.m.- 4:00 p.m.Friday7:00 a.m.- 4:00 p.m.Saturday7:00 a.m.- 11:00 a.m.SundayClosed","https://www.siteone.com/store/477"
"https://www.siteone.com/","Ashland VA ","11102 Air Park Rd","Ashland","VA","23005","US","481","804-752-7017","SiteOne Landscape Supply","37.704334","-77.436865","Monday7:30 a.m.- 4:30 p.m.Tuesday7:30 a.m.- 4:30 p.m.Wednesday7:30 a.m.- 4:30 p.m.Thursday7:30 a.m.- 4:30 p.m.Friday7:30 a.m.- 4:30 p.m.SaturdayClosedSundayClosed","https://www.siteone.com/store/481"
"https://www.siteone.com/","Norfolk VA ","1147 Harmony Rd","Norfolk","VA","23502","US","484","757-461-7661","SiteOne Landscape Supply","36.860918","-76.218387","Monday7:30 a.m.- 4:30 p.m.Tuesday7:30 a.m.- 4:30 p.m.Wednesday7:30 a.m.- 4:30 p.m.Thursday7:30 a.m.- 4:30 p.m.Friday7:30 a.m.- 4:30 p.m.Saturday8:00 a.m.- 12:00 p.m.SundayClosed","https://www.siteone.com/store/484"
"https://www.siteone.com/","Peekskill NY ","2 John Walsh Blvd","Peekskill","NY","10566","US","485","914-736-9056","SiteOne Landscape Supply","41.277548","-73.939193","Monday7:30 a.m.- 3:30 p.m.Tuesday7:30 a.m.- 3:30 p.m.Wednesday7:30 a.m.- 3:30 p.m.Thursday7:30 a.m.- 3:30 p.m.Friday7:30 a.m.- 3:30 p.m.SaturdayClosedSundayClosed","https://www.siteone.com/store/485"
"https://www.siteone.com/","Peabody MA ","147 Summit St","Peabody","MA","01960","US","486","978-977-2777","SiteOne Landscape Supply","42.52737","-70.952296","Monday7:00 a.m.- 4:00 p.m.Tuesday7:00 a.m.- 4:00 p.m.Wednesday7:00 a.m.- 4:00 p.m.Thursday7:00 a.m.- 4:00 p.m.Friday7:00 a.m.- 4:00 p.m.Saturday8:00 a.m.- 12:00 p.m.SundayClosed","https://www.siteone.com/store/486"
"https://www.siteone.com/","North Dartmouth MA ","25 Ventura Dr","North Dartmouth","MA","02747","US","487","508-998-9862","SiteOne Landscape Supply","41.667361","-70.989929","Monday7:00 a.m.- 4:00 p.m.Tuesday7:00 a.m.- 4:00 p.m.Wednesday7:00 a.m.- 4:00 p.m.Thursday7:00 a.m.- 4:00 p.m.Friday7:00 a.m.- 4:00 p.m.Saturday7:30 a.m.- 11:30 a.m.SundayClosed","https://www.siteone.com/store/487"
"https://www.siteone.com/","Dania Beach FL ","2060 Tigertail Blvd Ste A","Dania Beach","FL","33004","US","489","954-921-2821","SiteOne Landscape Supply","26.053448","-80.165787","Monday7:00 a.m.- 4:00 p.m.Tuesday7:00 a.m.- 4:00 p.m.Wednesday7:00 a.m.- 4:00 p.m.Thursday7:00 a.m.- 4:00 p.m.Friday7:00 a.m.- 4:00 p.m.Saturday8:00 a.m.- 12:00 p.m.SundayClosed","https://www.siteone.com/store/489"
"https://www.siteone.com/","White Plains NY ","75 Virginia Rd","White Plains","NY","10603","US","490","914-948-1619","SiteOne Landscape Supply","41.063779","-73.775904","Monday7:30 a.m.- 3:30 p.m.Tuesday7:30 a.m.- 3:30 p.m.Wednesday7:30 a.m.- 3:30 p.m.Thursday7:30 a.m.- 3:30 p.m.Friday7:30 a.m.- 3:30 p.m.SaturdayClosedSundayClosed","https://www.siteone.com/store/490"
"https://www.siteone.com/","Waltham MA ","101 Clematis Ave Ste 3","Waltham","MA","02453","US","491","781-893-6660","SiteOne Landscape Supply","42.38332","-71.20365","Monday7:00 a.m.- 4:00 p.m.Tuesday7:00 a.m.- 4:00 p.m.Wednesday7:00 a.m.- 4:00 p.m.Thursday7:00 a.m.- 4:00 p.m.Friday7:00 a.m.- 4:00 p.m.Saturday8:00 a.m.- 12:00 p.m.SundayClosed","https://www.siteone.com/store/491"
"https://www.siteone.com/","Avon OH ","1354 Lear Industrial Pkwy","Avon","OH","44011","US","492","440-934-1482","SiteOne Landscape Supply","41.470171","-81.992303","Monday7:30 a.m.- 4:00 p.m.Tuesday7:30 a.m.- 4:00 p.m.Wednesday7:30 a.m.- 4:00 p.m.Thursday7:30 a.m.- 4:00 p.m.Friday7:30 a.m.- 4:00 p.m.SaturdayClosedSundayClosed","https://www.siteone.com/store/492"
"https://www.siteone.com/","Fair Lawn NJ ","4-29 Banta Pl","Fair Lawn","NJ","07410","US","493","201-797-6350","SiteOne Landscape Supply","40.927575","-74.116013","Monday7:00 a.m.- 4:00 p.m.Tuesday7:00 a.m.- 4:00 p.m.Wednesday7:00 a.m.- 4:00 p.m.Thursday7:00 a.m.- 4:00 p.m.Friday7:00 a.m.- 4:00 p.m.Saturday8:00 a.m.- 12:00 p.m.SundayClosed","https://www.siteone.com/store/493"
"https://www.siteone.com/","Jupiter FL ","1425 Commerce Ln","Jupiter","FL","33458","US","494","561-745-0500","SiteOne Landscape Supply","26.92965","-80.119976","Monday7:00 a.m.- 4:00 p.m.Tuesday7:00 a.m.- 4:00 p.m.Wednesday7:00 a.m.- 4:00 p.m.Thursday7:00 a.m.- 4:00 p.m.Friday7:00 a.m.- 4:00 p.m.Saturday8:00 a.m.- 12:00 p.m.SundayClosed","https://www.siteone.com/store/494"
"https://www.siteone.com/","Buffalo NY ","2479 Walden Ave Ste 100","Cheektowaga","NY","14225","US","497","716-684-0151","SiteOne Landscape Supply","43.043155","-78.75011","Monday7:30 a.m.- 4:00 p.m.Tuesday7:30 a.m.- 4:00 p.m.Wednesday7:30 a.m.- 4:00 p.m.Thursday7:30 a.m.- 4:00 p.m.Friday7:30 a.m.- 4:00 p.m.SaturdayClosedSundayClosed","https://www.siteone.com/store/497"
"https://www.siteone.com/","Lexington KY ","1063 Majaun Rd","Lexington","KY","40511","US","498","859-231-7001","SiteOne Landscape Supply","38.079706","-84.50709","Monday7:30 a.m.- 4:00 p.m.Tuesday7:30 a.m.- 4:00 p.m.Wednesday7:30 a.m.- 4:00 p.m.Thursday7:30 a.m.- 4:00 p.m.Friday7:30 a.m.- 4:00 p.m.SaturdayClosedSundayClosed","https://www.siteone.com/store/498"
"https://www.siteone.com/","Elkridge MD ","7387 Washington Blvd Ste &amp;108","Elkridge","MD","21075","US","500","410-379-6986","SiteOne Landscape Supply","39.181937","-76.766703","Monday7:00 a.m.- 4:00 p.m.Tuesday7:00 a.m.- 4:00 p.m.Wednesday7:00 a.m.- 4:00 p.m.Thursday7:00 a.m.- 4:00 p.m.Friday7:00 a.m.- 4:00 p.m.Saturday7:00 a.m.- 11:00 a.m.SundayClosed","https://www.siteone.com/store/500"
"https://www.siteone.com/","Brunswick OH ","2925 Interstate Pkwy","Brunswick","OH","44212","US","504","330-220-8691","SiteOne Landscape Supply","41.247122","-81.791617","Monday7:30 a.m.- 4:00 p.m.Tuesday7:30 a.m.- 4:00 p.m.Wednesday7:30 a.m.- 4:00 p.m.Thursday7:30 a.m.- 4:00 p.m.Friday7:30 a.m.- 4:00 p.m.SaturdayClosedSundayClosed","https://www.siteone.com/store/504"
"https://www.siteone.com/","Lake Worth FL ","1805 6th Avenue North Anx","Lake Worth","FL","33461","US","506","561-582-4488","SiteOne Landscape Supply","26.623001","-80.068133","Monday7:00 a.m.- 4:00 p.m.Tuesday7:00 a.m.- 4:00 p.m.Wednesday7:00 a.m.- 4:00 p.m.Thursday7:00 a.m.- 4:00 p.m.Friday7:00 a.m.- 4:00 p.m.Saturday8:00 a.m.- 12:00 p.m.SundayClosed","https://www.siteone.com/store/506"
"https://www.siteone.com/","West Palm Beach FL ","222 Tall Pines Rd","West Palm Beach","FL","33413","US","507","561-684-0204","SiteOne Landscape Supply","26.680543","-80.149331","Monday7:00 a.m.- 4:00 p.m.Tuesday7:00 a.m.- 4:00 p.m.Wednesday7:00 a.m.- 4:00 p.m.Thursday7:00 a.m.- 4:00 p.m.Friday7:00 a.m.- 4:00 p.m.Saturday8:00 a.m.- 12:00 p.m.SundayClosed","https://www.siteone.com/store/507"
"https://www.siteone.com/","San Antonio TX ","16113 University Oak","San Antonio","TX","78249","US","512","210-764-0619","SiteOne Landscape Supply","29.588491","-98.577637","Monday7:00 a.m.- 5:00 p.m.Tuesday7:00 a.m.- 5:00 p.m.Wednesday7:00 a.m.- 5:00 p.m.Thursday7:00 a.m.- 5:00 p.m.Friday7:00 a.m.- 5:00 p.m.Saturday7:00 a.m.- 11:00 a.m.SundayClosed","https://www.siteone.com/store/512"
"https://www.siteone.com/","Rockaway NJ ","419 Franklin Ave","Rockaway","NJ","07866","US","513","973-586-2044","SiteOne Landscape Supply","40.882791","-74.515223","Monday7:00 a.m.- 4:00 p.m.Tuesday7:00 a.m.- 4:00 p.m.Wednesday7:00 a.m.- 4:00 p.m.Thursday7:00 a.m.- 4:00 p.m.Friday7:00 a.m.- 4:00 p.m.Saturday8:00 a.m.- 12:00 p.m.SundayClosed","https://www.siteone.com/store/513"
"https://www.siteone.com/","Cincinnati OH ","4055 Commercial Blvd","Cincinnati","OH","45245","US","515","513-943-0940","SiteOne Landscape Supply","39.068028","-84.293427","Monday7:30 a.m.- 4:00 p.m.Tuesday7:30 a.m.- 4:00 p.m.Wednesday7:30 a.m.- 4:00 p.m.Thursday7:30 a.m.- 4:00 p.m.Friday7:30 a.m.- 4:00 p.m.SaturdayClosedSundayClosed","https://www.siteone.com/store/515"
"https://www.siteone.com/","Winter Park FL ","2968 Forsyth Rd","Winter Park","FL","32792","US","516","407-679-9099","SiteOne Landscape Supply","28.587513","-81.294689","Monday7:00 a.m.- 4:00 p.m.Tuesday7:00 a.m.- 4:00 p.m.Wednesday7:00 a.m.- 4:00 p.m.Thursday7:00 a.m.- 4:00 p.m.Friday7:00 a.m.- 4:00 p.m.Saturday8:00 a.m.- 12:00 p.m.SundayClosed","https://www.siteone.com/store/516"
"https://www.siteone.com/","Stafford TX ","10410 Mula Rd","Stafford","TX","77477","US","518","281-498-0904","SiteOne Landscape Supply","29.632638","-95.562435","Monday7:00 a.m.- 5:00 p.m.Tuesday7:00 a.m.- 5:00 p.m.Wednesday7:00 a.m.- 5:00 p.m.Thursday7:00 a.m.- 5:00 p.m.Friday7:00 a.m.- 5:00 p.m.Saturday7:00 a.m.- 11:00 a.m.SundayClosed","https://www.siteone.com/store/518"
"https://www.siteone.com/","Garden City GA ","9 Hoss Dr","Garden City","GA","31408","US","519","912-966-0990","SiteOne Landscape Supply","32.084427","-81.160092","Monday7:30 a.m.- 4:30 p.m.Tuesday7:30 a.m.- 4:30 p.m.Wednesday7:30 a.m.- 4:30 p.m.Thursday7:30 a.m.- 4:30 p.m.Friday7:30 a.m.- 4:30 p.m.SaturdayClosedSundayClosed","https://www.siteone.com/store/519"
"https://www.siteone.com/","Baton Rouge LA ","6911 Exchequer Dr","Baton Rouge","LA","70809","US","520","225-293-6400","SiteOne Landscape Supply","30.393888","-91.055277","Monday7:00 a.m.- 4:00 p.m.Tuesday7:00 a.m.- 4:00 p.m.Wednesday7:00 a.m.- 4:00 p.m.Thursday7:00 a.m.- 4:00 p.m.Friday7:00 a.m.- 4:00 p.m.Saturday7:00 a.m.- 11:00 a.m.SundayClosed","https://www.siteone.com/store/520"
"https://www.siteone.com/","Batavia IL ","1330 Pierson Dr","Batavia","IL","60510","US","521","630-406-0380","SiteOne Landscape Supply","41.865139","-88.266176","Monday7:30 a.m.- 4:00 p.m.Tuesday7:30 a.m.- 4:00 p.m.Wednesday7:30 a.m.- 4:00 p.m.Thursday7:30 a.m.- 4:00 p.m.Friday7:30 a.m.- 4:00 p.m.SaturdayClosedSundayClosed","https://www.siteone.com/store/521"
"https://www.siteone.com/","Greer SC ","7 Northway Ct","Greer","SC","29651","US","522","864-968-0818","SiteOne Landscape Supply","34.893817","-82.231928","Monday7:30 a.m.- 4:30 p.m.Tuesday7:30 a.m.- 4:30 p.m.Wednesday7:30 a.m.- 4:30 p.m.Thursday7:30 a.m.- 4:30 p.m.Friday7:30 a.m.- 4:30 p.m.SaturdayClosedSundayClosed","https://www.siteone.com/store/522"
"https://www.siteone.com/","Erlanger KY ","3635 Ohara Rd","Erlanger","KY","41018","US","523","859-282-9731","SiteOne Landscape Supply","39.036","-84.64","Monday7:30 a.m.- 4:00 p.m.Tuesday7:30 a.m.- 4:00 p.m.Wednesday7:30 a.m.- 4:00 p.m.Thursday7:30 a.m.- 4:00 p.m.Friday7:30 a.m.- 4:00 p.m.SaturdayClosedSundayClosed","https://www.siteone.com/store/523"
"https://www.siteone.com/","Columbia SC ","100 Sunbelt Blvd","Columbia","SC","29203","US","525","803-754-3900","SiteOne Landscape Supply","34.067697","-81.042189","Monday7:30 a.m.- 5:00 p.m.Tuesday7:30 a.m.- 5:00 p.m.Wednesday7:30 a.m.- 5:00 p.m.Thursday7:30 a.m.- 5:00 p.m.Friday7:30 a.m.- 5:00 p.m.Saturday8:00 a.m.- 12:00 p.m.SundayClosed","https://www.siteone.com/store/525"
"https://www.siteone.com/","Bethlehem PA ","4217 Fritch Dr","Bethlehem","PA","18020","US","529","610-866-6665","SiteOne Landscape Supply","40.681808","-75.344848","Monday7:00 a.m.- 4:30 p.m.Tuesday7:00 a.m.- 4:30 p.m.Wednesday7:00 a.m.- 4:30 p.m.Thursday7:00 a.m.- 4:30 p.m.Friday7:00 a.m.- 4:30 p.m.Saturday8:00 a.m.- 12:00 p.m.SundayClosed","https://www.siteone.com/store/529"
"https://www.siteone.com/","Maplewood MN ","1261 Highway 36 E","Maplewood","MN","55109","US","530","651-484-5166","SiteOne Landscape Supply","45.01221","-93.04729","Monday7:30 a.m.- 4:00 p.m.Tuesday7:30 a.m.- 4:00 p.m.Wednesday7:30 a.m.- 4:00 p.m.Thursday7:30 a.m.- 4:00 p.m.Friday7:30 a.m.- 4:00 p.m.SaturdayClosedSundayClosed","https://www.siteone.com/store/530"
"https://www.siteone.com/","Grand Blanc MI ","498 E Reid Rd Ste 5","Grand Blanc","MI","48439","US","534","810-694-9100","SiteOne Landscape Supply","42.926791","-83.63871","Monday7:30 a.m.- 4:00 p.m.Tuesday7:30 a.m.- 4:00 p.m.Wednesday7:30 a.m.- 4:00 p.m.Thursday7:30 a.m.- 4:00 p.m.Friday7:30 a.m.- 4:00 p.m.SaturdayClosedSundayClosed","https://www.siteone.com/store/534"
"https://www.siteone.com/","West Carrollton OH ","730 Royal Ridge Dr","West Carrollton","OH","45449","US","536","937-866-4252","SiteOne Landscape Supply","39.646","-84.245","Monday7:30 a.m.- 4:00 p.m.Tuesday7:30 a.m.- 4:00 p.m.Wednesday7:30 a.m.- 4:00 p.m.Thursday7:30 a.m.- 4:00 p.m.Friday7:30 a.m.- 4:00 p.m.SaturdayClosedSundayClosed","https://www.siteone.com/store/536"
"https://www.siteone.com/","Charlotte NC ","7618 Grier Rd","Charlotte","NC","28213","US","542","704-597-0506","SiteOne Landscape Supply","35.266079","-80.738125","Monday7:30 a.m.- 4:30 p.m.Tuesday7:30 a.m.- 4:30 p.m.Wednesday7:30 a.m.- 4:30 p.m.Thursday7:30 a.m.- 4:30 p.m.Friday7:30 a.m.- 4:30 p.m.SaturdayClosedSundayClosed","https://www.siteone.com/store/542"
"https://www.siteone.com/","Winston Salem NC ","3940 Westpoint Blvd","Winston Salem","NC","27103","US","543","336-765-2822","SiteOne Landscape Supply","36.038739","-80.320753","Monday7:30 a.m.- 4:30 p.m.Tuesday7:30 a.m.- 4:30 p.m.Wednesday7:30 a.m.- 4:30 p.m.Thursday7:30 a.m.- 4:30 p.m.Friday7:30 a.m.- 4:30 p.m.SaturdayClosedSundayClosed","https://www.siteone.com/store/543"
"https://www.siteone.com/","Ledyard CT ","18 Lorenz Industrial Pkwy","Ledyard","CT","06339","US","545","860-464-9752","SiteOne Landscape Supply","41.405042","-72.028475","Monday8:00 a.m.- 4:00 p.m.Tuesday8:00 a.m.- 4:00 p.m.Wednesday8:00 a.m.- 4:00 p.m.Thursday8:00 a.m.- 4:00 p.m.Friday8:00 a.m.- 4:00 p.m.SaturdayClosedSundayClosed","https://www.siteone.com/store/545"
"https://www.siteone.com/","Vero Beach FL ","180 Old Dixie Hwy","Vero Beach","FL","32962","US","549","772-569-9098","SiteOne Landscape Supply","27.604905","-80.386878","Monday7:00 a.m.- 4:00 p.m.Tuesday7:00 a.m.- 4:00 p.m.Wednesday7:00 a.m.- 4:00 p.m.Thursday7:00 a.m.- 4:00 p.m.Friday7:00 a.m.- 4:00 p.m.Saturday8:00 a.m.- 12:00 p.m.SundayClosed","https://www.siteone.com/store/549"
"https://www.siteone.com/","Tallahassee FL ","2840 Industrial Plaza Dr","Tallahassee","FL","32301","US","551","850-878-0103","SiteOne Landscape Supply","30.451239","-84.230232","Monday7:00 a.m.- 4:00 p.m.Tuesday7:00 a.m.- 4:00 p.m.Wednesday7:00 a.m.- 4:00 p.m.Thursday7:00 a.m.- 4:00 p.m.Friday7:00 a.m.- 4:00 p.m.SaturdayClosedSundayClosed","https://www.siteone.com/store/551"
"https://www.siteone.com/","Katy TX ","26118 Clay Rd","Katy","TX","77493","US","552","281-398-9388","SiteOne Landscape Supply","29.832","-95.826","Monday7:00 a.m.- 5:00 p.m.Tuesday7:00 a.m.- 5:00 p.m.Wednesday7:00 a.m.- 5:00 p.m.Thursday7:00 a.m.- 5:00 p.m.Friday7:00 a.m.- 5:00 p.m.Saturday7:00 a.m.- 11:00 a.m.SundayClosed","https://www.siteone.com/store/552"
"https://www.siteone.com/","Fort Wayne IN ","6250 Cross Creek Blvd","Fort Wayne","IN","46818","US","553","260-451-0668","SiteOne Landscape Supply","41.135","-85.166","Monday7:30 a.m.- 4:00 p.m.Tuesday7:30 a.m.- 4:00 p.m.Wednesday7:30 a.m.- 4:00 p.m.Thursday7:30 a.m.- 4:00 p.m.Friday7:30 a.m.- 4:00 p.m.SaturdayClosedSundayClosed","https://www.siteone.com/store/553"
"https://www.siteone.com/","Augusta GA ","2929 Riverwest Dr","Augusta","GA","30907","US","555","706-650-8882","SiteOne Landscape Supply","33.527259","-82.043533","Monday7:30 a.m.- 4:30 p.m.Tuesday7:30 a.m.- 4:30 p.m.Wednesday7:30 a.m.- 4:30 p.m.Thursday7:30 a.m.- 4:30 p.m.Friday7:30 a.m.- 4:30 p.m.Saturday8:00 a.m.- 12:00 p.m.SundayClosed","https://www.siteone.com/store/555"
"https://www.siteone.com/","Monroeville PA ","612 Beatty Rd","Monroeville","PA","15146","US","556","412-373-5446","SiteOne Landscape Supply","40.450498","-79.752132","Monday7:00 a.m.- 4:30 p.m.Tuesday7:00 a.m.- 4:30 p.m.Wednesday7:00 a.m.- 4:30 p.m.Thursday7:00 a.m.- 4:30 p.m.Friday7:00 a.m.- 4:30 p.m.Saturday7:00 a.m.- 12:00 p.m.SundayClosed","https://www.siteone.com/store/556"
"https://www.siteone.com/","Stratford CT ","265 Hathaway Dr","Stratford","CT","06615","US","558","203-375-6900","SiteOne Landscape Supply","41.171","-73.146","Monday7:30 a.m.- 3:30 p.m.Tuesday7:30 a.m.- 3:30 p.m.Wednesday7:30 a.m.- 3:30 p.m.Thursday7:30 a.m.- 3:30 p.m.Friday7:30 a.m.- 3:30 p.m.SaturdayClosedSundayClosed","https://www.siteone.com/store/558"
"https://www.siteone.com/","Riverhead NY ","188 Kroemer Ave","Riverhead","NY","11901","US","559","631-727-3135","SiteOne Landscape Supply","40.922706","-72.70769","Monday7:00 a.m.- 4:00 p.m.Tuesday7:00 a.m.- 4:00 p.m.Wednesday7:00 a.m.- 4:00 p.m.Thursday7:00 a.m.- 4:00 p.m.Friday7:00 a.m.- 4:00 p.m.Saturday8:00 a.m.- 12:00 p.m.SundayClosed","https://www.siteone.com/store/559"
"https://www.siteone.com/","Lancaster PA ","130 S Tree Dr","Lancaster","PA","17603","US","561","717-291-4434","SiteOne Landscape Supply","40.046582","-76.390901","Monday7:30 a.m.- 4:30 p.m.Tuesday7:30 a.m.- 4:30 p.m.Wednesday7:30 a.m.- 4:30 p.m.Thursday7:30 a.m.- 4:30 p.m.Friday7:30 a.m.- 4:30 p.m.Saturday8:00 a.m.- 12:00 p.m.SundayClosed","https://www.siteone.com/store/561"
"https://www.siteone.com/","Auburn MA ","5 B St Bldg 9E","Auburn","MA","01501","US","562","508-757-0592","SiteOne Landscape Supply","42.222036","-71.829993","Monday7:00 a.m.- 4:00 p.m.Tuesday7:00 a.m.- 4:00 p.m.Wednesday7:00 a.m.- 4:00 p.m.Thursday7:00 a.m.- 4:00 p.m.Friday7:00 a.m.- 4:00 p.m.Saturday8:00 a.m.- 12:00 p.m.SundayClosed","https://www.siteone.com/store/562"
"https://www.siteone.com/","Rockledge FL ","540 Gus Hipp Blvd","Rockledge","FL","32955","US","566","321-638-3510","SiteOne Landscape Supply","28.311393","-80.708989","Monday7:00 a.m.- 4:00 p.m.Tuesday7:00 a.m.- 4:00 p.m.Wednesday7:00 a.m.- 4:00 p.m.Thursday7:00 a.m.- 4:00 p.m.Friday7:00 a.m.- 4:00 p.m.Saturday8:00 a.m.- 12:00 p.m.SundayClosed","https://www.siteone.com/store/566"
"https://www.siteone.com/","Tulsa OK ","10825 E 55th Pl","Tulsa","OK","74146","US","567","918-665-6811","SiteOne Landscape Supply","36.083589","-95.85595","Monday7:30 a.m.- 4:30 p.m.Tuesday7:30 a.m.- 4:30 p.m.Wednesday7:30 a.m.- 4:30 p.m.Thursday7:30 a.m.- 4:30 p.m.Friday7:30 a.m.- 4:30 p.m.Saturday8:00 a.m.- 12:00 p.m.SundayClosed","https://www.siteone.com/store/567"
"https://www.siteone.com/","Middleton WI ","8520 Fairway Pl","Middleton","WI","53562","US","569","608-831-3240","SiteOne Landscape Supply","43.103166","-89.532903","Monday7:30 a.m.- 4:00 p.m.Tuesday7:30 a.m.- 4:00 p.m.Wednesday7:30 a.m.- 4:00 p.m.Thursday7:30 a.m.- 4:00 p.m.Friday7:30 a.m.- 4:00 p.m.SaturdayClosedSundayClosed","https://www.siteone.com/store/569"
"https://www.siteone.com/","Eatontown NJ ","246 Industrial Way W","Eatontown","NJ","07724","US","571","732-542-8100","SiteOne Landscape Supply","40.276211","-74.046237","Monday7:30 a.m.- 4:00 p.m.Tuesday7:30 a.m.- 4:00 p.m.Wednesday7:30 a.m.- 4:00 p.m.Thursday7:30 a.m.- 4:00 p.m.Friday7:30 a.m.- 4:00 p.m.SaturdayClosedSundayClosed","https://www.siteone.com/store/571"
"https://www.siteone.com/","North Little Rock AR ","9 Maumelle Curve Ct","North Little Rock","AR","72113","US","572","501-791-3484","SiteOne Landscape Supply","34.825231","-92.375136","Monday7:00 a.m.- 4:00 p.m.Tuesday7:00 a.m.- 4:00 p.m.Wednesday7:00 a.m.- 4:00 p.m.Thursday7:00 a.m.- 4:00 p.m.Friday7:00 a.m.- 4:00 p.m.SaturdayClosedSundayClosed","https://www.siteone.com/store/572"
"https://www.siteone.com/","East Syracuse NY ","6030 Drott Dr","East Syracuse","NY","13057","US","574","315-437-3423","SiteOne Landscape Supply","43.061127","-76.050094","Monday7:30 a.m.- 4:00 p.m.Tuesday7:30 a.m.- 4:00 p.m.Wednesday7:30 a.m.- 4:00 p.m.Thursday7:30 a.m.- 4:00 p.m.Friday7:30 a.m.- 4:00 p.m.SaturdayClosedSundayClosed","https://www.siteone.com/store/574"
"https://www.siteone.com/","Clinton Twp MI ","35004 Automation Dr","Clinton Township","MI","48035","US","575","586-792-6180","SiteOne Landscape Supply","42.555456","-82.88384","Monday7:30 a.m.- 4:00 p.m.Tuesday7:30 a.m.- 4:00 p.m.Wednesday7:30 a.m.- 4:00 p.m.Thursday7:30 a.m.- 4:00 p.m.Friday7:30 a.m.- 4:00 p.m.SaturdayClosedSundayClosed","https://www.siteone.com/store/575"
"https://www.siteone.com/","Dimondale MI ","9608 Davis Hwy","Dimondale","MI","48821","US","579","517-322-3215","SiteOne Landscape Supply","42.683","-84.653","Monday7:30 a.m.- 4:00 p.m.Tuesday7:30 a.m.- 4:00 p.m.Wednesday7:30 a.m.- 4:00 p.m.Thursday7:30 a.m.- 4:00 p.m.Friday7:30 a.m.- 4:00 p.m.SaturdayClosedSundayClosed","https://www.siteone.com/store/579"
"https://www.siteone.com/","Londonderry NH ","3 Aviation Park Dr","Londonderry","NH","03053","US","587","603-425-2572","SiteOne Landscape Supply","42.907664","-71.41746","Monday7:00 a.m.- 4:00 p.m.Tuesday7:00 a.m.- 4:00 p.m.Wednesday7:00 a.m.- 4:00 p.m.Thursday7:00 a.m.- 4:00 p.m.Friday7:00 a.m.- 4:00 p.m.Saturday8:00 a.m.- 12:00 p.m.SundayClosed","https://www.siteone.com/store/587"
"https://www.siteone.com/","South Bend IN ","3218 Sugar Maple Business Ct","South Bend","IN","46628","US","589","574-288-9471","SiteOne Landscape Supply","41.720754","-86.294381","Monday7:30 a.m.- 4:00 p.m.Tuesday7:30 a.m.- 4:00 p.m.Wednesday7:30 a.m.- 4:00 p.m.Thursday7:30 a.m.- 4:00 p.m.Friday7:30 a.m.- 4:00 p.m.SaturdayClosedSundayClosed","https://www.siteone.com/store/589"
"https://www.siteone.com/","Columbus GA ","1324 Concord Blvd","Columbus","GA","31904","US","590","706-327-2457","SiteOne Landscape Supply","32.526517","-84.973426","Monday7:30 a.m.- 4:30 p.m.Tuesday7:30 a.m.- 4:30 p.m.Wednesday7:30 a.m.- 4:30 p.m.Thursday7:30 a.m.- 4:30 p.m.Friday7:30 a.m.- 4:30 p.m.SaturdayClosedSundayClosed","https://www.siteone.com/store/590"
"https://www.siteone.com/","Bluffton SC ","24 Sheridan Park Cir","Bluffton","SC","29910","US","592","843-815-5011","SiteOne Landscape Supply","32.26267","-80.860213","Monday7:30 a.m.- 4:30 p.m.Tuesday7:30 a.m.- 4:30 p.m.Wednesday7:30 a.m.- 4:30 p.m.Thursday7:30 a.m.- 4:30 p.m.Friday7:30 a.m.- 4:30 p.m.SaturdayClosedSundayClosed","https://www.siteone.com/store/592"
"https://www.siteone.com/","Myrtle Beach SC ","3141 Mr Joe White Ave","Myrtle Beach","SC","29577","US","593","843-626-4421","SiteOne Landscape Supply","33.693569","-78.882665","Monday7:30 a.m.- 4:30 p.m.Tuesday7:30 a.m.- 4:30 p.m.Wednesday7:30 a.m.- 4:30 p.m.Thursday7:30 a.m.- 4:30 p.m.Friday7:30 a.m.- 4:30 p.m.SaturdayClosedSundayClosed","https://www.siteone.com/store/593"
"https://www.siteone.com/","Mashpee MA ","58 Echo Rd","Mashpee","MA","02649","US","594","508-539-0627","SiteOne Landscape Supply","41.656976","-70.498381","Monday7:00 a.m.- 4:00 p.m.Tuesday7:00 a.m.- 4:00 p.m.Wednesday7:00 a.m.- 4:00 p.m.Thursday7:00 a.m.- 4:00 p.m.Friday7:00 a.m.- 4:00 p.m.Saturday7:30 a.m.- 11:30 a.m.SundayClosed","https://www.siteone.com/store/594"
"https://www.siteone.com/","Newington CT ","235 Pascone Pl","Newington","CT","06111","US","599","860-665-0773","SiteOne Landscape Supply","41.668777","-72.722408","Monday8:00 a.m.- 4:00 p.m.Tuesday8:00 a.m.- 4:00 p.m.Wednesday8:00 a.m.- 4:00 p.m.Thursday8:00 a.m.- 4:00 p.m.Friday8:00 a.m.- 4:00 p.m.SaturdayClosedSundayClosed","https://www.siteone.com/store/599"
"https://www.siteone.com/","Larchmont NY ","5 5th Ave","Larchmont","NY","10538","US","600","914-834-2987","SiteOne Landscape Supply","40.93147","-73.766709","Monday7:30 a.m.- 3:30 p.m.Tuesday7:30 a.m.- 3:30 p.m.Wednesday7:30 a.m.- 3:30 p.m.Thursday7:30 a.m.- 3:30 p.m.Friday7:30 a.m.- 3:30 p.m.SaturdayClosedSundayClosed","https://www.siteone.com/store/600"
"https://www.siteone.com/","Rock Island IL ","2706 46th Ave Ste 1","Rock Island","IL","61201","US","601","309-794-1615","SiteOne Landscape Supply","41.464701","-90.560334","Monday7:30 a.m.- 4:00 p.m.Tuesday7:30 a.m.- 4:00 p.m.Wednesday7:30 a.m.- 4:00 p.m.Thursday7:30 a.m.- 4:00 p.m.Friday7:30 a.m.- 4:00 p.m.SaturdayClosedSundayClosed","https://www.siteone.com/store/601"
"https://www.siteone.com/","Pembroke MA ","120 Corporate Park Dr","Pembroke","MA","02359","US","603","781-829-4800","SiteOne Landscape Supply","42.101637","-70.769265","Monday7:00 a.m.- 4:00 p.m.Tuesday7:00 a.m.- 4:00 p.m.Wednesday7:00 a.m.- 4:00 p.m.Thursday7:00 a.m.- 4:00 p.m.Friday7:00 a.m.- 4:00 p.m.Saturday7:30 a.m.- 11:30 a.m.SundayClosed","https://www.siteone.com/store/603"
"https://www.siteone.com/","East Haven CT ","10 Mill St","East Haven","CT","06512","US","604","203-467-6260","SiteOne Landscape Supply","41.32","-72.852","Monday7:00 a.m.- 4:30 p.m.Tuesday7:00 a.m.- 4:30 p.m.Wednesday7:00 a.m.- 4:30 p.m.Thursday7:00 a.m.- 4:30 p.m.Friday7:00 a.m.- 4:30 p.m.Saturday8:00 a.m.- 12:00 p.m.SundayClosed","https://www.siteone.com/store/604"
"https://www.siteone.com/","Mountainside NJ ","237 Sheffield St","Mountainside","NJ","07092","US","606","908-317-0509","SiteOne Landscape Supply","40.68524","-74.339923","Monday7:00 a.m.- 4:00 p.m.Tuesday7:00 a.m.- 4:00 p.m.Wednesday7:00 a.m.- 4:00 p.m.Thursday7:00 a.m.- 4:00 p.m.Friday7:00 a.m.- 4:00 p.m.Saturday8:00 a.m.- 12:00 p.m.SundayClosed","https://www.siteone.com/store/606"
"https://www.siteone.com/","Fairfield NJ ","17B Daniel Rd","Fairfield","NJ","07004","US","607","973-575-6967","SiteOne Landscape Supply","40.883567","-74.276257","Monday7:00 a.m.- 4:00 p.m.Tuesday7:00 a.m.- 4:00 p.m.Wednesday7:00 a.m.- 4:00 p.m.Thursday7:00 a.m.- 4:00 p.m.Friday7:00 a.m.- 4:00 p.m.Saturday8:00 a.m.- 12:00 p.m.SundayClosed","https://www.siteone.com/store/607"
"https://www.siteone.com/","Lakewood NJ ","1935 Swarthmore Ave","Lakewood","NJ","08701","US","610","732-905-2744","SiteOne Landscape Supply","40.076925","-74.16397","Monday8:00 a.m.- 4:00 p.m.Tuesday8:00 a.m.- 4:00 p.m.Wednesday8:00 a.m.- 4:00 p.m.Thursday8:00 a.m.- 4:00 p.m.Friday8:00 a.m.- 4:00 p.m.SaturdayClosedSundayClosed","https://www.siteone.com/store/610"
"https://www.siteone.com/","Tyrone GA ","158 Rockwood Rd","Tyrone","GA","30290","US","612","770-631-2874","SiteOne Landscape Supply","33.506536","-84.433358","Monday7:30 a.m.- 4:30 p.m.Tuesday7:30 a.m.- 4:30 p.m.Wednesday7:30 a.m.- 4:30 p.m.Thursday7:30 a.m.- 4:30 p.m.Friday7:30 a.m.- 4:30 p.m.Saturday8:00 a.m.- 12:00 p.m.SundayClosed","https://www.siteone.com/store/612"
"https://www.siteone.com/","Springfield IL ","3534 Ogden Rd","Springfield","IL","62711","US","614","217-787-1912","SiteOne Landscape Supply","39.754698","-89.718882","Monday7:30 a.m.- 4:00 p.m.Tuesday7:30 a.m.- 4:00 p.m.Wednesday7:30 a.m.- 4:00 p.m.Thursday7:30 a.m.- 4:00 p.m.Friday7:30 a.m.- 4:00 p.m.SaturdayClosedSundayClosed","https://www.siteone.com/store/614"
"https://www.siteone.com/","Erie PA ","2094 W 16th St","Erie","PA","16505","US","616","814-455-7850","SiteOne Landscape Supply","42.10332","-80.128844","Monday7:30 a.m.- 4:00 p.m.Tuesday7:30 a.m.- 4:00 p.m.Wednesday7:30 a.m.- 4:00 p.m.Thursday7:30 a.m.- 4:00 p.m.Friday7:30 a.m.- 4:00 p.m.SaturdayClosedSundayClosed","https://www.siteone.com/store/616"
"https://www.siteone.com/","Weston FL ","1800 N Commerce Pkwy Ste 3","Weston","FL","33326","US","617","954-217-9147","SiteOne Landscape Supply","26.09469","-80.36552","Monday7:00 a.m.- 4:00 p.m.Tuesday7:00 a.m.- 4:00 p.m.Wednesday7:00 a.m.- 4:00 p.m.Thursday7:00 a.m.- 4:00 p.m.Friday7:00 a.m.- 4:00 p.m.Saturday8:00 a.m.- 12:00 p.m.SundayClosed","https://www.siteone.com/store/617"
"https://www.siteone.com/","Lincoln NE ","370 SW 25th St Ste 3","Lincoln","NE","68522","US","620","402-476-2334","SiteOne Landscape Supply","40.811756","-96.75626","Monday7:30 a.m.- 4:00 p.m.Tuesday7:30 a.m.- 4:00 p.m.Wednesday7:30 a.m.- 4:00 p.m.Thursday7:30 a.m.- 4:00 p.m.Friday7:30 a.m.- 4:00 p.m.SaturdayClosedSundayClosed","https://www.siteone.com/store/620"
"https://www.siteone.com/","Harrisburg PA ","493 Blue Eagle Ave # E","Harrisburg","PA","17112","US","621","717-652-5813","SiteOne Landscape Supply","40.328","-76.789","Monday7:00 a.m.- 4:30 p.m.Tuesday7:00 a.m.- 4:30 p.m.Wednesday7:00 a.m.- 4:30 p.m.Thursday7:00 a.m.- 4:30 p.m.Friday7:00 a.m.- 4:30 p.m.Saturday7:00 a.m.- 12:00 p.m.SundayClosed","https://www.siteone.com/store/621"
"https://www.siteone.com/","Egg Harbor Township NJ ","2628 Fire Rd Ste 405","Egg Harbor Township","NJ","08234","US","625","609-407-6593","SiteOne Landscape Supply","39.411646","-74.537757","Monday7:30 a.m.- 4:00 p.m.Tuesday7:30 a.m.- 4:00 p.m.Wednesday7:30 a.m.- 4:00 p.m.Thursday7:30 a.m.- 4:00 p.m.Friday7:30 a.m.- 4:00 p.m.SaturdayClosedSundayClosed","https://www.siteone.com/store/625"
"https://www.siteone.com/","Mequon WI ","6100 W Executive Dr Ste G","Mequon","WI","53092","US","626","262-512-1852","SiteOne Landscape Supply","43.209442","-87.98569","Monday7:30 a.m.- 4:00 p.m.Tuesday7:30 a.m.- 4:00 p.m.Wednesday7:30 a.m.- 4:00 p.m.Thursday7:30 a.m.- 4:00 p.m.Friday7:30 a.m.- 4:00 p.m.SaturdayClosedSundayClosed","https://www.siteone.com/store/626"
"https://www.siteone.com/","Portland ME ","76 City Line Dr","Portland","ME","04102","US","627","207-772-7173","SiteOne Landscape Supply","43.651058","-70.323181","Monday7:00 a.m.- 4:00 p.m.Tuesday7:00 a.m.- 4:00 p.m.Wednesday7:00 a.m.- 4:00 p.m.Thursday7:00 a.m.- 4:00 p.m.Friday7:00 a.m.- 4:00 p.m.Saturday8:00 a.m.- 12:00 p.m.SundayClosed","https://www.siteone.com/store/627"
"https://www.siteone.com/","Hudson MA ","570 Main St","Hudson","MA","01749","US","630","978-562-6988","SiteOne Landscape Supply","42.394","-71.504","Monday7:00 a.m.- 4:00 p.m.Tuesday7:00 a.m.- 4:00 p.m.Wednesday7:00 a.m.- 4:00 p.m.Thursday7:00 a.m.- 4:00 p.m.Friday7:00 a.m.- 4:00 p.m.Saturday7:00 a.m.- 12:00 p.m.SundayClosed","https://www.siteone.com/store/630"
"https://www.siteone.com/","Lexington MA ","1265 Massachusetts Ave","Lexington","MA","02420","US","631","781-861-1111","SiteOne Landscape Supply","42.44","-71.211","Monday7:00 a.m.- 4:00 p.m.Tuesday7:00 a.m.- 4:00 p.m.Wednesday7:00 a.m.- 4:00 p.m.Thursday7:00 a.m.- 4:00 p.m.Friday7:00 a.m.- 4:00 p.m.Saturday7:00 a.m.- 12:00 p.m.SundayClosed","https://www.siteone.com/store/631"
"https://www.siteone.com/","Windsor CT ","899 Marshall Phelps Rd","Windsor","CT","06095","US","633","860-688-0598","SiteOne Landscape Supply","41.862","-72.685","Monday7:00 a.m.- 4:00 p.m.Tuesday7:00 a.m.- 4:00 p.m.Wednesday7:00 a.m.- 4:00 p.m.Thursday7:00 a.m.- 4:00 p.m.Friday7:00 a.m.- 4:00 p.m.SaturdayClosedSundayClosed","https://www.siteone.com/store/633"
"https://www.siteone.com/","Bedford Hills NY ","281 Rte 117 Bypass Rd","Bedford Hills","NY","10507","US","634","914-244-1110","SiteOne Landscape Supply","41.247","-73.678","Monday7:00 a.m.- 5:00 p.m.Tuesday7:00 a.m.- 5:00 p.m.Wednesday7:00 a.m.- 5:00 p.m.Thursday7:00 a.m.- 5:00 p.m.Friday7:00 a.m.- 5:00 p.m.Saturday7:00 a.m.- 12:00 p.m.SundayClosed","https://www.siteone.com/store/634"
"https://www.siteone.com/","Greenwich CT ","1081 King St","Greenwich","CT","06831","US","636","203-531-7352","SiteOne Landscape Supply","41.052","-73.684","Monday7:00 a.m.- 5:00 p.m.Tuesday7:00 a.m.- 5:00 p.m.Wednesday7:00 a.m.- 5:00 p.m.Thursday7:00 a.m.- 5:00 p.m.Friday7:00 a.m.- 5:00 p.m.Saturday7:00 a.m.- 12:00 p.m.SundayClosed","https://www.siteone.com/store/636"
"https://www.siteone.com/","Brunswick GA ","110 Newman Dr","Brunswick","GA","31520","US","637","912-261-2230","SiteOne Landscape Supply","31.199716","-81.495309","Monday7:00 a.m.- 4:00 p.m.Tuesday7:00 a.m.- 4:00 p.m.Wednesday7:00 a.m.- 4:00 p.m.Thursday7:00 a.m.- 4:00 p.m.Friday7:00 a.m.- 4:00 p.m.Saturday8:00 a.m.- 12:00 p.m.SundayClosed","https://www.siteone.com/store/637"
"https://www.siteone.com/","Mahwah NJ ","100 Weyerhauser Rd","Mahwah","NJ","07430","US","638","201-529-0099","SiteOne Landscape Supply","41.084","-74.143","Monday7:00 a.m.- 4:00 p.m.Tuesday7:00 a.m.- 4:00 p.m.Wednesday7:00 a.m.- 4:00 p.m.Thursday7:00 a.m.- 4:00 p.m.Friday7:00 a.m.- 4:00 p.m.Saturday8:00 a.m.- 12:00 p.m.SundayClosed","https://www.siteone.com/store/638"
"https://www.siteone.com/","Branchburg NJ ","100 Meister Ave","Branchburg","NJ","08876","US","639","908-707-8222","SiteOne Landscape Supply","40.603","-74.704","Monday7:00 a.m.- 4:00 p.m.Tuesday7:00 a.m.- 4:00 p.m.Wednesday7:00 a.m.- 4:00 p.m.Thursday7:00 a.m.- 4:00 p.m.Friday7:00 a.m.- 4:00 p.m.Saturday8:00 a.m.- 12:00 p.m.SundayClosed","https://www.siteone.com/store/639"
"https://www.siteone.com/","Haverhill MA ","113 Neck Rd","Haverhill","MA","01835","US","640","978-372-1014","SiteOne Landscape Supply","42.750644","-71.109597","Monday7:00 a.m.- 4:00 p.m.Tuesday7:00 a.m.- 4:00 p.m.Wednesday7:00 a.m.- 4:00 p.m.Thursday7:00 a.m.- 4:00 p.m.Friday7:00 a.m.- 4:00 p.m.Saturday8:00 a.m.- 12:00 p.m.SundayClosed","https://www.siteone.com/store/640"
"https://www.siteone.com/","Lawrenceville NJ ","209 Bakers Basin Rd","Lawrence Township","NJ","08648","US","642","609-844-1075","SiteOne Landscape Supply","40.274","-74.704","Monday7:30 a.m.- 4:00 p.m.Tuesday7:30 a.m.- 4:00 p.m.Wednesday7:30 a.m.- 4:00 p.m.Thursday7:30 a.m.- 4:00 p.m.Friday7:30 a.m.- 4:00 p.m.SaturdayClosedSundayClosed","https://www.siteone.com/store/642"
"https://www.siteone.com/","Aston PA ","5191 Concord Rd","Aston","PA","19014","US","643","610-358-0220","SiteOne Landscape Supply","39.867","-75.467","Monday7:00 a.m.- 4:30 p.m.Tuesday7:00 a.m.- 4:30 p.m.Wednesday7:00 a.m.- 4:30 p.m.Thursday7:00 a.m.- 4:30 p.m.Friday7:00 a.m.- 4:30 p.m.Saturday7:00 a.m.- 12:00 p.m.SundayClosed","https://www.siteone.com/store/643"
"https://www.siteone.com/","South Dennis MA ","128 Great Western Rd","South Dennis","MA","02660","US","644","508-394-2193","SiteOne Landscape Supply","41.688603","-70.141111","Monday7:00 a.m.- 4:00 p.m.Tuesday7:00 a.m.- 4:00 p.m.Wednesday7:00 a.m.- 4:00 p.m.Thursday7:00 a.m.- 4:00 p.m.Friday7:00 a.m.- 4:00 p.m.Saturday7:30 a.m.- 11:30 a.m.SundayClosed","https://www.siteone.com/store/644"
"https://www.siteone.com/","Chesterland OH ","8745 Mayfield Rd","Chesterland","OH","44026","US","645","440-729-0853","SiteOne Landscape Supply","41.521996","-81.330131","Monday7:30 a.m.- 4:00 p.m.Tuesday7:30 a.m.- 4:00 p.m.Wednesday7:30 a.m.- 4:00 p.m.Thursday7:30 a.m.- 4:00 p.m.Friday7:30 a.m.- 4:00 p.m.SaturdayClosedSundayClosed","https://www.siteone.com/store/645"
"https://www.siteone.com/","Oaks PA ","100 Green Tree Road","Oaks","PA","19456","US","646","610-666-0595","SiteOne Landscape Supply","40.132","-75.469","Monday7:00 a.m.- 4:30 p.m.Tuesday7:00 a.m.- 4:30 p.m.Wednesday7:00 a.m.- 4:30 p.m.Thursday7:00 a.m.- 4:30 p.m.Friday7:00 a.m.- 4:30 p.m.Saturday7:00 a.m.- 12:00 p.m.SundayClosed","https://www.siteone.com/store/646"
"https://www.siteone.com/","White Marsh MD ","5801 Stevens Rd","White Marsh","MD","21162","US","650","410-335-1990","SiteOne Landscape Supply","39.39","-76.413","Monday7:00 a.m.- 5:00 p.m.Tuesday7:00 a.m.- 5:00 p.m.Wednesday7:00 a.m.- 5:00 p.m.Thursday7:00 a.m.- 5:00 p.m.Friday7:00 a.m.- 5:00 p.m.Saturday7:00 a.m.- 11:00 a.m.SundayClosed","https://www.siteone.com/store/650"
"https://www.siteone.com/","Milford MA ","6 Industrial Rd","Milford","MA","01757","US","652","508-966-0305","SiteOne Landscape Supply","42.143123","-71.492294","Monday7:00 a.m.- 4:00 p.m.Tuesday7:00 a.m.- 4:00 p.m.Wednesday7:00 a.m.- 4:00 p.m.Thursday7:00 a.m.- 4:00 p.m.Friday7:00 a.m.- 4:00 p.m.Saturday7:30 a.m.- 11:30 a.m.SundayClosed","https://www.siteone.com/store/652"
"https://www.siteone.com/","Burtonsville MD ","4100 Sandy Spring Rd","Burtonsville","MD","20866","US","654","301-421-1220","SiteOne Landscape Supply","39.112","-76.927","Monday7:00 a.m.- 5:00 p.m.Tuesday7:00 a.m.- 5:00 p.m.Wednesday7:00 a.m.- 5:00 p.m.Thursday7:00 a.m.- 5:00 p.m.Friday7:00 a.m.- 5:00 p.m.Saturday7:00 a.m.- 11:00 a.m.SundayClosed","https://www.siteone.com/store/654"
"https://www.siteone.com/","Frederick MD ","4635 Wedgewood Blvd Ste 117","Frederick","MD","21703","US","655","301-695-0232","SiteOne Landscape Supply","39.365614","-77.429567","Monday7:00 a.m.- 4:00 p.m.Tuesday7:00 a.m.- 4:00 p.m.Wednesday7:00 a.m.- 4:00 p.m.Thursday7:00 a.m.- 4:00 p.m.Friday7:00 a.m.- 4:00 p.m.Saturday7:00 a.m.- 11:00 a.m.SundayClosed","https://www.siteone.com/store/655"
"https://www.siteone.com/","Manassas VA ","8309 Quarry Rd","Manassas","VA","20110","US","656","703-631-8133","SiteOne Landscape Supply","38.757","-77.45","Monday7:00 a.m.- 4:30 p.m.Tuesday7:00 a.m.- 4:30 p.m.Wednesday7:00 a.m.- 4:30 p.m.Thursday7:00 a.m.- 4:30 p.m.Friday7:00 a.m.- 4:30 p.m.Saturday7:00 a.m.- 11:00 a.m.SundayClosed","https://www.siteone.com/store/656"
"https://www.siteone.com/","Morrisville NC ","580 Church St","Morrisville","NC","27560","US","657","919-380-8555","SiteOne Landscape Supply","35.83","-78.833","Monday7:30 a.m.- 4:30 p.m.Tuesday7:30 a.m.- 4:30 p.m.Wednesday7:30 a.m.- 4:30 p.m.Thursday7:30 a.m.- 4:30 p.m.Friday7:30 a.m.- 4:30 p.m.SaturdayClosedSundayClosed","https://www.siteone.com/store/657"
"https://www.siteone.com/","Saginaw MI ","5815 Bay Rd","Saginaw","MI","48604","US","658","989-793-0700","SiteOne Landscape Supply","43.492174","-83.973743","Monday7:30 a.m.- 4:00 p.m.Tuesday7:30 a.m.- 4:00 p.m.Wednesday7:30 a.m.- 4:00 p.m.Thursday7:30 a.m.- 4:00 p.m.Friday7:30 a.m.- 4:00 p.m.SaturdayClosedSundayClosed","https://www.siteone.com/store/658"
"https://www.siteone.com/","Cedar Rapids IA ","9805 Atlantic Dr SW","Cedar Rapids","IA","52404","US","660","319-848-4120","SiteOne Landscape Supply","41.915708","-91.673861","Monday7:30 a.m.- 4:00 p.m.Tuesday7:30 a.m.- 4:00 p.m.Wednesday7:30 a.m.- 4:00 p.m.Thursday7:30 a.m.- 4:00 p.m.Friday7:30 a.m.- 4:00 p.m.SaturdayClosedSundayClosed","https://www.siteone.com/store/660"
"https://www.siteone.com/","Pittsburgh PA ","360 Bilmar Dr","Pittsburgh","PA","15205","US","661","412-928-9430","SiteOne Landscape Supply","40.455","-80.107","Monday7:00 a.m.- 4:30 p.m.Tuesday7:00 a.m.- 4:30 p.m.Wednesday7:00 a.m.- 4:30 p.m.Thursday7:00 a.m.- 4:30 p.m.Friday7:00 a.m.- 4:30 p.m.Saturday7:00 a.m.- 12:00 p.m.SundayClosed","https://www.siteone.com/store/661"
"https://www.siteone.com/","Cornelius NC ","18500 Starcreek Dr","Cornelius","NC","28031","US","662","704-892-3295","SiteOne Landscape Supply","35.46","-80.849","Monday7:30 a.m.- 4:30 p.m.Tuesday7:30 a.m.- 4:30 p.m.Wednesday7:30 a.m.- 4:30 p.m.Thursday7:30 a.m.- 4:30 p.m.Friday7:30 a.m.- 4:30 p.m.Saturday7:30 a.m.- 12:00 p.m.SundayClosed","https://www.siteone.com/store/662"
"https://www.siteone.com/","Lenexa KS ","8306 Hedge Lane Ter","Lenexa","KS","66227","US","663","913-441-8226","SiteOne Landscape Supply","38.977402","-94.857411","Monday7:30 a.m.- 4:00 p.m.Tuesday7:30 a.m.- 4:00 p.m.Wednesday7:30 a.m.- 4:00 p.m.Thursday7:30 a.m.- 4:00 p.m.Friday7:30 a.m.- 4:00 p.m.SaturdayClosedSundayClosed","https://www.siteone.com/store/663"
"https://www.siteone.com/","Daphne AL ","26264 Public Works Rd","Daphne","AL","36526","US","664","251-626-8178","SiteOne Landscape Supply","30.609497","-87.873318","Monday7:00 a.m.- 4:00 p.m.Tuesday7:00 a.m.- 4:00 p.m.Wednesday7:00 a.m.- 4:00 p.m.Thursday7:00 a.m.- 4:00 p.m.Friday7:00 a.m.- 4:00 p.m.SaturdayClosedSundayClosed","https://www.siteone.com/store/664"
"https://www.siteone.com/","Murrells Inlet SC ","1100 Burgess Rd","Murrells Inlet","SC","29576","US","665","843-651-0569","SiteOne Landscape Supply","33.568934","-79.035834","Monday7:30 a.m.- 4:30 p.m.Tuesday7:30 a.m.- 4:30 p.m.Wednesday7:30 a.m.- 4:30 p.m.Thursday7:30 a.m.- 4:30 p.m.Friday7:30 a.m.- 4:30 p.m.SaturdayClosedSundayClosed","https://www.siteone.com/store/665"
"https://www.siteone.com/","Pineville NC ","11901 Downs Rd","Pineville","NC","28134","US","667","704-583-0246","SiteOne Landscape Supply","35.103","-80.907","Monday7:30 a.m.- 4:30 p.m.Tuesday7:30 a.m.- 4:30 p.m.Wednesday7:30 a.m.- 4:30 p.m.Thursday7:30 a.m.- 4:30 p.m.Friday7:30 a.m.- 4:30 p.m.SaturdayClosedSundayClosed","https://www.siteone.com/store/667"
"https://www.siteone.com/","Columbus OH ","4877 Vulcan Ave","Columbus","OH","43228","US","669","614-876-1193","SiteOne Landscape Supply","39.988","-83.138","Monday7:30 a.m.- 4:00 p.m.Tuesday7:30 a.m.- 4:00 p.m.Wednesday7:30 a.m.- 4:00 p.m.Thursday7:30 a.m.- 4:00 p.m.Friday7:30 a.m.- 4:00 p.m.SaturdayClosedSundayClosed","https://www.siteone.com/store/669"
"https://www.siteone.com/","Pontiac MI ","900 Featherstone St","Pontiac","MI","48342","US","670","248-333-1090","SiteOne Landscape Supply","42.646","-83.264","Monday7:30 a.m.- 4:00 p.m.Tuesday7:30 a.m.- 4:00 p.m.Wednesday7:30 a.m.- 4:00 p.m.Thursday7:30 a.m.- 4:00 p.m.Friday7:30 a.m.- 4:00 p.m.SaturdayClosedSundayClosed","https://www.siteone.com/store/670"
"https://www.siteone.com/","Cincinnati OH ","11245 Mosteller Rd","Cincinnati","OH","45241","US","672","513-771-1056","SiteOne Landscape Supply","39.276","-84.43","Monday7:30 a.m.- 4:00 p.m.Tuesday7:30 a.m.- 4:00 p.m.Wednesday7:30 a.m.- 4:00 p.m.Thursday7:30 a.m.- 4:00 p.m.Friday7:30 a.m.- 4:00 p.m.SaturdayClosedSundayClosed","https://www.siteone.com/store/672"
"https://www.siteone.com/","Kennesaw GA ","1320 Lockhart Dr NW","Kennesaw","GA","30144","US","673","770-974-3575","SiteOne Landscape Supply","34.028","-84.592","Monday7:30 a.m.- 4:30 p.m.Tuesday7:30 a.m.- 4:30 p.m.Wednesday7:30 a.m.- 4:30 p.m.Thursday7:30 a.m.- 4:30 p.m.Friday7:30 a.m.- 4:30 p.m.Saturday8:00 a.m.- 12:00 p.m.SundayClosed","https://www.siteone.com/store/673"
"https://www.siteone.com/","Harrison OH ","10051 Simonson Rd","Harrison","OH","45030","US","674","513-202-1740","SiteOne Landscape Supply","39.23675","-84.778007","Monday7:30 a.m.- 4:00 p.m.Tuesday7:30 a.m.- 4:00 p.m.Wednesday7:30 a.m.- 4:00 p.m.Thursday7:30 a.m.- 4:00 p.m.Friday7:30 a.m.- 4:00 p.m.SaturdayClosedSundayClosed","https://www.siteone.com/store/674"
"https://www.siteone.com/","Indianapolis IN ","10050 Hague Rd","Indianapolis","IN","46256","US","675","317-915-4000","SiteOne Landscape Supply","39.934","-86.033","Monday7:30 a.m.- 4:00 p.m.Tuesday7:30 a.m.- 4:00 p.m.Wednesday7:30 a.m.- 4:00 p.m.Thursday7:30 a.m.- 4:00 p.m.Friday7:30 a.m.- 4:00 p.m.SaturdayClosedSundayClosed","https://www.siteone.com/store/675"
"https://www.siteone.com/","Nashua  NH ","456 W Hollis St","Nashua","NH","03062","US","676","603-882-1368","SiteOne Landscape Supply","42.747563","-71.496001","Monday7:00 a.m.- 4:00 p.m.Tuesday7:00 a.m.- 4:00 p.m.Wednesday7:00 a.m.- 4:00 p.m.Thursday7:00 a.m.- 4:00 p.m.Friday7:00 a.m.- 4:00 p.m.Saturday8:00 a.m.- 12:00 p.m.SundayClosed","https://www.siteone.com/store/676"
"https://www.siteone.com/","Addison IL ","4N755 Foxdale Dr","Addison","IL","60101","US","677","630-773-8090","SiteOne Landscape Supply","41.947","-88.022","Monday7:30 a.m.- 4:00 p.m.Tuesday7:30 a.m.- 4:00 p.m.Wednesday7:30 a.m.- 4:00 p.m.Thursday7:30 a.m.- 4:00 p.m.Friday7:30 a.m.- 4:00 p.m.Saturday7:30 a.m.- 12:00 p.m.SundayClosed","https://www.siteone.com/store/677"
"https://www.siteone.com/","Naperville IL ","25013 111th St","Naperville","IL","60564","US","678","630-904-8700","SiteOne Landscape Supply","41.679","-88.229","Monday7:30 a.m.- 4:00 p.m.Tuesday7:30 a.m.- 4:00 p.m.Wednesday7:30 a.m.- 4:00 p.m.Thursday7:30 a.m.- 4:00 p.m.Friday7:30 a.m.- 4:00 p.m.Saturday7:30 a.m.- 12:00 p.m.SundayClosed","https://www.siteone.com/store/678"
"https://www.siteone.com/","Houston TX ","3802 Barker Cypress Rd","Houston","TX","77084","US","679","281-398-3040","SiteOne Landscape Supply","29.826","-95.686","Monday7:00 a.m.- 5:00 p.m.Tuesday7:00 a.m.- 5:00 p.m.Wednesday7:00 a.m.- 5:00 p.m.Thursday7:00 a.m.- 5:00 p.m.Friday7:00 a.m.- 5:00 p.m.Saturday7:00 a.m.- 11:00 a.m.SundayClosed","https://www.siteone.com/store/679"
"https://www.siteone.com/","Lewisville TX ","521 Huffines Blvd","Lewisville","TX","75056","US","681","972-939-1144","SiteOne Landscape Supply","33.044","-96.944","Monday7:00 a.m.- 5:00 p.m.Tuesday7:00 a.m.- 5:00 p.m.Wednesday7:00 a.m.- 5:00 p.m.Thursday7:00 a.m.- 5:00 p.m.Friday7:00 a.m.- 5:00 p.m.Saturday7:30 a.m.- 11:30 a.m.SundayClosed","https://www.siteone.com/store/681"
"https://www.siteone.com/","Manor TX ","12550 Harris Branch Pkwy","Manor","TX","78653","US","682","512-278-0997","SiteOne Landscape Supply","30.378","-97.615","Monday7:00 a.m.- 5:00 p.m.Tuesday7:00 a.m.- 5:00 p.m.Wednesday7:00 a.m.- 5:00 p.m.Thursday7:00 a.m.- 5:00 p.m.Friday7:00 a.m.- 5:00 p.m.Saturday7:00 a.m.- 12:00 p.m.SundayClosed","https://www.siteone.com/store/682"
"https://www.siteone.com/","Brookfield CT ","549 Federal Rd","Brookfield","CT","06804","US","703","203-775-4722","SiteOne Landscape Supply","41.465618","-73.409894","Monday8:00 a.m.- 4:00 p.m.Tuesday8:00 a.m.- 4:00 p.m.Wednesday8:00 a.m.- 4:00 p.m.Thursday8:00 a.m.- 4:00 p.m.Friday8:00 a.m.- 4:00 p.m.SaturdayClosedSundayClosed","https://www.siteone.com/store/703"
"https://www.siteone.com/","Appleton WI ","1970 S Van Dyke Rd","Appleton","WI","54914","US","705","920-733-2298","SiteOne Landscape Supply","44.245127","-88.468907","Monday7:30 a.m.- 4:00 p.m.Tuesday7:30 a.m.- 4:00 p.m.Wednesday7:30 a.m.- 4:00 p.m.Thursday7:30 a.m.- 4:00 p.m.Friday7:30 a.m.- 4:00 p.m.SaturdayClosedSundayClosed","https://www.siteone.com/store/705"
"https://www.siteone.com/","Matthews NC ","140 Cupped Oak Dr","Matthews","NC","28104","US","706","704-893-2102","SiteOne Landscape Supply","35.096702","-80.666644","Monday7:30 a.m.- 4:30 p.m.Tuesday7:30 a.m.- 4:30 p.m.Wednesday7:30 a.m.- 4:30 p.m.Thursday7:30 a.m.- 4:30 p.m.Friday7:30 a.m.- 4:30 p.m.SaturdayClosedSundayClosed","https://www.siteone.com/store/706"
"https://www.siteone.com/","Wilmington NC ","3406 Merchant Ct","Wilmington","NC","28405","US","707","910-798-8289","SiteOne Landscape Supply","34.313775","-77.875525","Monday7:30 a.m.- 4:30 p.m.Tuesday7:30 a.m.- 4:30 p.m.Wednesday7:30 a.m.- 4:30 p.m.Thursday7:30 a.m.- 4:30 p.m.Friday7:30 a.m.- 4:30 p.m.SaturdayClosedSundayClosed","https://www.siteone.com/store/707"
"https://www.siteone.com/","Millersville MD ","1512 Jabez Run","Millersville","MD","21108","US","710","410-923-1486","SiteOne Landscape Supply","39.074079","-76.632245","Monday7:00 a.m.- 4:00 p.m.Tuesday7:00 a.m.- 4:00 p.m.Wednesday7:00 a.m.- 4:00 p.m.Thursday7:00 a.m.- 4:00 p.m.Friday7:00 a.m.- 4:00 p.m.Saturday7:00 a.m.- 11:00 a.m.SundayClosed","https://www.siteone.com/store/710"
"https://www.siteone.com/","Pleasant Valley MO ","6609 Royal St Ste 114","Pleasant Valley","MO","64068","US","712","816-781-2802","SiteOne Landscape Supply","39.213334","-94.481921","Monday7:30 a.m.- 4:00 p.m.Tuesday7:30 a.m.- 4:00 p.m.Wednesday7:30 a.m.- 4:00 p.m.Thursday7:30 a.m.- 4:00 p.m.Friday7:30 a.m.- 4:00 p.m.SaturdayClosedSundayClosed","https://www.siteone.com/store/712"
"https://www.siteone.com/","Holtsville NY ","323 Long Island Ave","Holtsville","NY","11742","US","714","631-289-3500","SiteOne Landscape Supply","40.817","-73.022","Monday7:00 a.m.- 5:00 p.m.Tuesday7:00 a.m.- 5:00 p.m.Wednesday7:00 a.m.- 5:00 p.m.Thursday7:00 a.m.- 5:00 p.m.Friday7:00 a.m.- 5:00 p.m.Saturday7:00 a.m.- 3:00 p.m.SundayClosed","https://www.siteone.com/store/714"
"https://www.siteone.com/","Collinsville IL ","926 McDonough Lake Rd","Collinsville","IL","62234","US","717","618-345-6719","SiteOne Landscape Supply","38.690895","-90.020801","Monday7:30 a.m.- 4:00 p.m.Tuesday7:30 a.m.- 4:00 p.m.Wednesday7:30 a.m.- 4:00 p.m.Thursday7:30 a.m.- 4:00 p.m.Friday7:30 a.m.- 4:00 p.m.SaturdayClosedSundayClosed","https://www.siteone.com/store/717"
"https://www.siteone.com/","Dix Hills NY ","470 Deer Park Rd","Dix Hills","NY","11746","US","718","631-493-1600","SiteOne Landscape Supply","40.804","-73.342","Monday7:00 a.m.- 5:00 p.m.Tuesday7:00 a.m.- 5:00 p.m.Wednesday7:00 a.m.- 5:00 p.m.Thursday7:00 a.m.- 5:00 p.m.Friday7:00 a.m.- 5:00 p.m.Saturday7:00 a.m.- 3:00 p.m.SundayClosed","https://www.siteone.com/store/718"
"https://www.siteone.com/","Raynham MA ","65 Ryan Dr Unit 2F","Raynham","MA","02767","US","720","508-828-2332","SiteOne Landscape Supply","41.977599","-71.071466","Monday7:00 a.m.- 4:00 p.m.Tuesday7:00 a.m.- 4:00 p.m.Wednesday7:00 a.m.- 4:00 p.m.Thursday7:00 a.m.- 4:00 p.m.Friday7:00 a.m.- 4:00 p.m.Saturday7:30 a.m.- 11:30 a.m.SundayClosed","https://www.siteone.com/store/720"
"https://www.siteone.com/","Leominister MA ","375 Harvard St","Leominster","MA","01453","US","722","978-534-5908","SiteOne Landscape Supply","42.524031","-71.716527","Monday7:00 a.m.- 4:00 p.m.Tuesday7:00 a.m.- 4:00 p.m.Wednesday7:00 a.m.- 4:00 p.m.Thursday7:00 a.m.- 4:00 p.m.Friday7:00 a.m.- 4:00 p.m.Saturday8:00 a.m.- 12:00 p.m.SundayClosed","https://www.siteone.com/store/722"
"https://www.siteone.com/","Indianapolis IN ","8569 Zionsville Rd","Indianapolis","IN","46268","US","723","317-876-7792","SiteOne Landscape Supply","39.910255","-86.259831","Monday7:30 a.m.- 4:00 p.m.Tuesday7:30 a.m.- 4:00 p.m.Wednesday7:30 a.m.- 4:00 p.m.Thursday7:30 a.m.- 4:00 p.m.Friday7:30 a.m.- 4:00 p.m.SaturdayClosedSundayClosed","https://www.siteone.com/store/723"
"https://www.siteone.com/","Fredericksburg VA ","115 Juliad Ct Ste 107","Fredericksburg","VA","22406","US","724","540-752-1408","SiteOne Landscape Supply","38.361026","-77.513659","Monday7:30 a.m.- 4:00 p.m.Tuesday7:30 a.m.- 4:00 p.m.Wednesday7:30 a.m.- 4:00 p.m.Thursday7:30 a.m.- 4:00 p.m.Friday7:30 a.m.- 4:00 p.m.SaturdayClosedSundayClosed","https://www.siteone.com/store/724"
"https://www.siteone.com/","Gastonia NC ","3809 S New Hope Rd","Gastonia","NC","28056","US","732","704-823-0044","SiteOne Landscape Supply","35.224529","-81.112207","Monday7:30 a.m.- 4:30 p.m.Tuesday7:30 a.m.- 4:30 p.m.Wednesday7:30 a.m.- 4:30 p.m.Thursday7:30 a.m.- 4:30 p.m.Friday7:30 a.m.- 4:30 p.m.Saturday8:00 a.m.- 11:00 a.m.SundayClosed","https://www.siteone.com/store/732"
"https://www.siteone.com/","Champaign IL ","911 N Country Fair Dr","Champaign","IL","61821","US","735","217-355-5249","SiteOne Landscape Supply","40.124767","-88.28029","Monday7:30 a.m.- 4:00 p.m.Tuesday7:30 a.m.- 4:00 p.m.Wednesday7:30 a.m.- 4:00 p.m.Thursday7:30 a.m.- 4:00 p.m.Friday7:30 a.m.- 4:00 p.m.SaturdayClosedSundayClosed","https://www.siteone.com/store/735"
"https://www.siteone.com/","Newton NC ","2067 Fairgrove Church Rd","Newton","NC","28658","US","736","828-464-8101","SiteOne Landscape Supply","35.691981","-81.26194","Monday7:30 a.m.- 4:30 p.m.Tuesday7:30 a.m.- 4:30 p.m.Wednesday7:30 a.m.- 4:30 p.m.Thursday7:30 a.m.- 4:30 p.m.Friday7:30 a.m.- 4:30 p.m.SaturdayClosedSundayClosed","https://www.siteone.com/store/736"
"https://www.siteone.com/","Kalamazoo MI ","6395 Technology Ave Ste D","Kalamazoo","MI","49009","US","737","269-544-1396","SiteOne Landscape Supply","42.247434","-85.675247","Monday7:30 a.m.- 4:00 p.m.Tuesday7:30 a.m.- 4:00 p.m.Wednesday7:30 a.m.- 4:00 p.m.Thursday7:30 a.m.- 4:00 p.m.Friday7:30 a.m.- 4:00 p.m.SaturdayClosedSundayClosed","https://www.siteone.com/store/737"
"https://www.siteone.com/","Conyers GA ","1630 Autumn Blvd NE","Conyers","GA","30012","US","742","770-860-1560","SiteOne Landscape Supply","33.671773","-83.984512","Monday7:30 a.m.- 4:30 p.m.Tuesday7:30 a.m.- 4:30 p.m.Wednesday7:30 a.m.- 4:30 p.m.Thursday7:30 a.m.- 4:30 p.m.Friday7:30 a.m.- 4:30 p.m.Saturday8:00 a.m.- 12:00 p.m.SundayClosed","https://www.siteone.com/store/742"
"https://www.siteone.com/","Durham NC ","4511 Hillsborough Rd","Durham","NC","27705","US","749","919-383-9297","SiteOne Landscape Supply","36.033351","-78.97423","Monday7:30 a.m.- 4:30 p.m.Tuesday7:30 a.m.- 4:30 p.m.Wednesday7:30 a.m.- 4:30 p.m.Thursday7:30 a.m.- 4:30 p.m.Friday7:30 a.m.- 4:30 p.m.SaturdayClosedSundayClosed","https://www.siteone.com/store/749"
"https://www.siteone.com/","Southampton NY ","15 Mariner Dr","Southampton","NY","11968","US","752","631-287-1029","SiteOne Landscape Supply","40.898714","-72.383206","Monday7:00 a.m.- 4:00 p.m.Tuesday7:00 a.m.- 4:00 p.m.Wednesday7:00 a.m.- 4:00 p.m.Thursday7:00 a.m.- 4:00 p.m.Friday7:00 a.m.- 4:00 p.m.Saturday8:00 a.m.- 12:00 p.m.SundayClosed","https://www.siteone.com/store/752"
"https://www.siteone.com/","Lecanto FL ","4301 W Gulf To Lake Hwy","Lecanto","FL","34461","US","754","352-746-7600","SiteOne Landscape Supply","28.860582","-82.504999","Monday7:00 a.m.- 4:00 p.m.Tuesday7:00 a.m.- 4:00 p.m.Wednesday7:00 a.m.- 4:00 p.m.Thursday7:00 a.m.- 4:00 p.m.Friday7:00 a.m.- 4:00 p.m.SaturdayClosedSundayClosed","https://www.siteone.com/store/754"
"https://www.siteone.com/","Muskegon MI ","2151 Harvey St","Muskegon","MI","49442","US","757","616-844-0445","SiteOne Landscape Supply","43.114325","-86.218956","Monday7:30 a.m.- 4:00 p.m.Tuesday7:30 a.m.- 4:00 p.m.Wednesday7:30 a.m.- 4:00 p.m.Thursday7:30 a.m.- 4:00 p.m.Friday7:30 a.m.- 4:00 p.m.SaturdayClosedSundayClosed","https://www.siteone.com/store/757"
"https://www.siteone.com/","Foxboro MA ","7 Lincoln Rd","Foxboro","MA","02035","US","761","508-543-1525","SiteOne Landscape Supply","42.136811","-71.272564","Monday7:00 a.m.- 4:00 p.m.Tuesday7:00 a.m.- 4:00 p.m.Wednesday7:00 a.m.- 4:00 p.m.Thursday7:00 a.m.- 4:00 p.m.Friday7:00 a.m.- 4:00 p.m.Saturday7:30 a.m.- 11:30 a.m.SundayClosed","https://www.siteone.com/store/761"
"https://www.siteone.com/","Guilford CT ","1 Shoreline Dr","Guilford","CT","06437","US","768","203-453-8945","SiteOne Landscape Supply","41.281","-72.658","Monday7:30 a.m.- 4:00 p.m.Tuesday7:30 a.m.- 4:00 p.m.Wednesday7:30 a.m.- 4:00 p.m.Thursday7:30 a.m.- 4:00 p.m.Friday7:30 a.m.- 4:00 p.m.SaturdayClosedSundayClosed","https://www.siteone.com/store/768"
"https://www.siteone.com/","Lutz FL ","26611 Wesley Chapel Blvd","Lutz","FL","33559","US","769","813-907-5606","SiteOne Landscape Supply","28.227752","-82.376028","Monday7:00 a.m.- 4:00 p.m.Tuesday7:00 a.m.- 4:00 p.m.Wednesday7:00 a.m.- 4:00 p.m.Thursday7:00 a.m.- 4:00 p.m.Friday7:00 a.m.- 4:00 p.m.SaturdayClosedSundayClosed","https://www.siteone.com/store/769"
"https://www.siteone.com/","Brooksville FL ","15380 Aviation Loop Dr","Brooksville","FL","34604","US","770","352-799-3119","SiteOne Landscape Supply","28.480639","-82.473169","Monday7:00 a.m.- 4:00 p.m.Tuesday7:00 a.m.- 4:00 p.m.Wednesday7:00 a.m.- 4:00 p.m.Thursday7:00 a.m.- 4:00 p.m.Friday7:00 a.m.- 4:00 p.m.SaturdayClosedSundayClosed","https://www.siteone.com/store/770"
"https://www.siteone.com/","White Plains MD ","10735 Demarr Rd","White Plains","MD","20695","US","771","301-374-2554","SiteOne Landscape Supply","38.59","-76.939","Monday7:00 a.m.- 4:00 p.m.Tuesday7:00 a.m.- 4:00 p.m.Wednesday7:00 a.m.- 4:00 p.m.Thursday7:00 a.m.- 4:00 p.m.Friday7:00 a.m.- 4:00 p.m.Saturday7:00 a.m.- 11:00 a.m.SundayClosed","https://www.siteone.com/store/771"
"https://www.siteone.com/","Maryville TN ","2128 W Lamar Alexander Pkwy","Maryville","TN","37801","US","772","865-984-4652","SiteOne Landscape Supply","35.756329","-84.03829","Monday7:00 a.m.- 4:00 p.m.Tuesday7:00 a.m.- 4:00 p.m.Wednesday7:00 a.m.- 4:00 p.m.Thursday7:00 a.m.- 4:00 p.m.Friday7:00 a.m.- 4:00 p.m.Saturday7:30 a.m.- 11:30 a.m.SundayClosed","https://www.siteone.com/store/772"
"https://www.siteone.com/","Rock Hill SC ","495 E Springdale Rd","Rock Hill","SC","29730","US","773","803-328-2999","SiteOne Landscape Supply","34.917433","-80.966548","Monday7:30 a.m.- 4:30 p.m.Tuesday7:30 a.m.- 4:30 p.m.Wednesday7:30 a.m.- 4:30 p.m.Thursday7:30 a.m.- 4:30 p.m.Friday7:30 a.m.- 4:30 p.m.SaturdayClosedSundayClosed","https://www.siteone.com/store/773"
"https://www.siteone.com/","Easton MD ","8648 Commerce Dr Ste 700","Easton","MD","21601","US","774","410-820-0592","SiteOne Landscape Supply","38.785885","-76.082015","Monday7:00 a.m.- 4:00 p.m.Tuesday7:00 a.m.- 4:00 p.m.Wednesday7:00 a.m.- 4:00 p.m.Thursday7:00 a.m.- 4:00 p.m.Friday7:00 a.m.- 4:00 p.m.Saturday7:00 a.m.- 11:00 a.m.SundayClosed","https://www.siteone.com/store/774"
"https://www.siteone.com/","Spartanburg SC ","140 Landers Rd","Spartanburg","SC","29303","US","775","864-573-4148","SiteOne Landscape Supply","35.000502","-81.926227","Monday7:30 a.m.- 4:30 p.m.Tuesday7:30 a.m.- 4:30 p.m.Wednesday7:30 a.m.- 4:30 p.m.Thursday7:30 a.m.- 4:30 p.m.Friday7:30 a.m.- 4:30 p.m.SaturdayClosedSundayClosed","https://www.siteone.com/store/775"
"https://www.siteone.com/","West Wareham MA ","6 Little Brook Rd","West Wareham","MA","02576","US","777","508-291-6152","SiteOne Landscape Supply","41.783918","-70.750981","Monday7:00 a.m.- 4:00 p.m.Tuesday7:00 a.m.- 4:00 p.m.Wednesday7:00 a.m.- 4:00 p.m.Thursday7:00 a.m.- 4:00 p.m.Friday7:00 a.m.- 4:00 p.m.Saturday7:30 a.m.- 11:30 a.m.SundayClosed","https://www.siteone.com/store/777"
"https://www.siteone.com/","Grandview MO ","13416 S US Highway 71","Grandview","MO","64030","US","780","816-761-9880","SiteOne Landscape Supply","38.881289","-94.526219","Monday7:30 a.m.- 4:00 p.m.Tuesday7:30 a.m.- 4:00 p.m.Wednesday7:30 a.m.- 4:00 p.m.Thursday7:30 a.m.- 4:00 p.m.Friday7:30 a.m.- 4:00 p.m.SaturdayClosedSundayClosed","https://www.siteone.com/store/780"
"https://www.siteone.com/","North Canton OH ","7868 Whipple Ave NW","North Canton","OH","44720","US","782","330-305-6910","SiteOne Landscape Supply","40.895","-81.424","Monday7:30 a.m.- 4:00 p.m.Tuesday7:30 a.m.- 4:00 p.m.Wednesday7:30 a.m.- 4:00 p.m.Thursday7:30 a.m.- 4:00 p.m.Friday7:30 a.m.- 4:00 p.m.SaturdayClosedSundayClosed","https://www.siteone.com/store/782"
"https://www.siteone.com/","Newport News VA ","12660 McManus Blvd","Newport News","VA","23602","US","788","757-833-1607","SiteOne Landscape Supply","37.139245","-76.510393","Monday7:30 a.m.- 4:30 p.m.Tuesday7:30 a.m.- 4:30 p.m.Wednesday7:30 a.m.- 4:30 p.m.Thursday7:30 a.m.- 4:30 p.m.Friday7:30 a.m.- 4:30 p.m.Saturday8:00 a.m.- 12:00 p.m.SundayClosed","https://www.siteone.com/store/788"
"https://www.siteone.com/","Norman OK ","5711 Huettner Dr","Norman","OK","73069","US","793","405-364-3250","SiteOne Landscape Supply","35.284193","-97.48415","Monday7:30 a.m.- 4:30 p.m.Tuesday7:30 a.m.- 4:30 p.m.Wednesday7:30 a.m.- 4:30 p.m.Thursday7:30 a.m.- 4:30 p.m.Friday7:30 a.m.- 4:30 p.m.Saturday8:00 a.m.- 12:00 p.m.SundayClosed","https://www.siteone.com/store/793"
"https://www.siteone.com/","Evansville IN ","2500 Mjm Industrial Dr","Evansville","IN","47715","US","795","812-473-2956","SiteOne Landscape Supply","37.99968","-87.476726","Monday7:30 a.m.- 4:00 p.m.Tuesday7:30 a.m.- 4:00 p.m.Wednesday7:30 a.m.- 4:00 p.m.Thursday7:30 a.m.- 4:00 p.m.Friday7:30 a.m.- 4:00 p.m.SaturdayClosedSundayClosed","https://www.siteone.com/store/795"
"https://www.siteone.com/","State College PA ","143 Hawbaker Industrial Dr Ste 109","State College","PA","16803","US","798","814-861-3247","SiteOne Landscape Supply","40.811961","-77.914542","Monday7:00 a.m.- 4:30 p.m.Tuesday7:00 a.m.- 4:30 p.m.Wednesday7:00 a.m.- 4:30 p.m.Thursday7:00 a.m.- 4:30 p.m.Friday7:00 a.m.- 4:30 p.m.Saturday7:00 a.m.- 12:00 p.m.SundayClosed","https://www.siteone.com/store/798"
"https://www.siteone.com/","Charlotte NC ","1625 E Westinghouse Blvd","Charlotte","NC","28273","US","802","704-821-2426","SiteOne Hardscape Center","35.115","-80.891","Monday7:00 a.m.- 4:30 p.m.Tuesday7:00 a.m.- 4:30 p.m.Wednesday7:00 a.m.- 4:30 p.m.Thursday7:00 a.m.- 4:30 p.m.Friday7:00 a.m.- 4:30 p.m.Saturday7:30 a.m.- 12:00 p.m.SundayClosed","https://www.siteone.com/store/802"
"https://www.siteone.com/","Indian Trail NC ","115 Corporate Blvd","Indian Trail","NC","28079","US","803","704-684-4971","SiteOne Hardscape Center","35.077","-80.658","Monday7:30 a.m.- 4:30 p.m.Tuesday7:30 a.m.- 4:30 p.m.Wednesday7:30 a.m.- 4:30 p.m.Thursday7:30 a.m.- 4:30 p.m.Friday7:30 a.m.- 4:30 p.m.SaturdayClosedSundayClosed","https://www.siteone.com/store/803"
"https://www.siteone.com/","Columbia SC ","6320 Fairfield Rd","Columbia","SC","29203","US","804","803-851-6513","SiteOne Hardscape Center","34.071","-81.024","Monday7:30 a.m.- 4:30 p.m.Tuesday7:30 a.m.- 4:30 p.m.Wednesday7:30 a.m.- 4:30 p.m.Thursday7:30 a.m.- 4:30 p.m.Friday7:30 a.m.- 4:30 p.m.SaturdayClosedSundayClosed","https://www.siteone.com/store/804"
"https://www.siteone.com/","John's Island SC ","3066 Maybank Hwy","Johns Island","SC","29455","US","805","843-557-1225","SiteOne Hardscape Center","<MISSING>","<MISSING>","Monday7:30 a.m.- 4:30 p.m.Tuesday7:30 a.m.- 4:30 p.m.Wednesday7:30 a.m.- 4:30 p.m.Thursday7:30 a.m.- 4:30 p.m.Friday7:30 a.m.- 4:30 p.m.SaturdayClosedSundayClosed","https://www.siteone.com/store/805"
"https://www.siteone.com/","Charleston SC ","2716 Highway 41","Charleston","SC","29492","US","806","843-203-2700","SiteOne Hardscape Center","32.938","-79.817","Monday7:30 a.m.- 4:30 p.m.Tuesday7:30 a.m.- 4:30 p.m.Wednesday7:30 a.m.- 4:30 p.m.Thursday7:30 a.m.- 4:30 p.m.Friday7:30 a.m.- 4:30 p.m.SaturdayClosedSundayClosed","https://www.siteone.com/store/806"
