locator_domain,location_name,street_address,city,state,zip,country_code,store_number,phone,location_type,latitude,longitude,hours_of_operation,page_url
https://www.ymca.net,The Island of Hawaii YMCA,300 West Lanikaula Street,Hilo,HI,96720,US,<MISSING>,Phone: 808-935-3721,<MISSING>,<MISSING>,<MISSING>,<MISSING>,<MISSING>
https://www.ymca.net,Maui Family YMCA,250 Kanaloa Ave,Kahului,HI,96732-1100,US,<MISSING>,Phone: 808-242-9007,<MISSING>,<MISSING>,<MISSING>,<MISSING>,<MISSING>
https://www.ymca.net,Kaimuki-Waialae Branch YMCA,4835 Kilauea Ave,Honolulu,HI,96816-5729,US,<MISSING>,Phone: 808-737-5544,<MISSING>,<MISSING>,<MISSING>,<MISSING>,<MISSING>
https://www.ymca.net,Central Branch YMCA,401 Atkinson Dr,Honolulu,HI,96814-4799,US,<MISSING>,Phone: 808-941-3344,<MISSING>,<MISSING>,<MISSING>,<MISSING>,<MISSING>
https://www.ymca.net,Charles H. Atherton Branch YMCA,1810 University Ave,Honolulu,HI,96822-2401,US,<MISSING>,Phone: 808-946-0253,<MISSING>,<MISSING>,<MISSING>,<MISSING>,<MISSING>
https://www.ymca.net,Nuuanu Branch YMCA,1441 Pali Hwy,Honolulu,HI,96813-2099,US,<MISSING>,Phone: 808-536-3556,<MISSING>,<MISSING>,<MISSING>,<MISSING>,<MISSING>
https://www.ymca.net,YMCA of Honolulu,1441 Pali Hwy,Honolulu,HI,96813-2050,US,<MISSING>,Phone: 808-531-3558,<MISSING>,<MISSING>,<MISSING>,<MISSING>,<MISSING>
https://www.ymca.net,Kalihi Branch YMCA,1335 Kalihi Street,Honolulu,HI,96819-4101,US,<MISSING>,Phone: 808-848-2494,<MISSING>,<MISSING>,<MISSING>,<MISSING>,<MISSING>
https://www.ymca.net,Honolulu Armed Services YMCA,1260 Pierce St. Suite 145,Pearl Harbor,HI,96860,US,<MISSING>,Phone: 808-473-3398,<MISSING>,<MISSING>,<MISSING>,<MISSING>,<MISSING>
https://www.ymca.net,Windward Branch YMCA,1200 Kailua Rd,Kailua,HI,96734-4354,US,<MISSING>,Phone: 808-261-0808,<MISSING>,<MISSING>,<MISSING>,<MISSING>,<MISSING>
https://www.ymca.net,Leeward Branch YMCA,94-440 Mokuola St,Waipahu,HI,96797-3300,US,<MISSING>,Phone: 808-671-6495,<MISSING>,<MISSING>,<MISSING>,<MISSING>,<MISSING>
https://www.ymca.net,West Oahu Branch YMCA,95-1190 Hikikaulia St,Mililani,HI,96789-3041,US,<MISSING>,Phone: 808-625-1040,<MISSING>,<MISSING>,<MISSING>,<MISSING>,<MISSING>
https://www.ymca.net,Camp Harold R. Erdman Branch YMCA,69-385 Farrington Hwy,Waialua,HI,96791-0657,US,<MISSING>,Phone: 808-637-4615,<MISSING>,<MISSING>,<MISSING>,<MISSING>,<MISSING>
https://www.ymca.net,YMCA of Kauai,"PO Box 1786,NA",Lihue,HI,96766-5786,US,<MISSING>,Phone: 808-246-9090,<MISSING>,<MISSING>,<MISSING>,<MISSING>,<MISSING>
https://www.ymca.net,Upper Keys Family YMCA,500 St Croix Pl,Key Largo,FL,33037,US,<MISSING>,Phone: 305-451-3122,<MISSING>,<MISSING>,<MISSING>,<MISSING>,<MISSING>
https://www.ymca.net,Homestead Branch YMCA,1034 NE 8th St,Homestead,FL,33030-5055,US,<MISSING>,Phone: 305-248-5189,<MISSING>,<MISSING>,<MISSING>,<MISSING>,<MISSING>
https://www.ymca.net,South Dade Family Branch YMCA,9355 SW 134 St,Miami,FL,33176,US,<MISSING>,Phone: 305-254-0310,<MISSING>,<MISSING>,<MISSING>,<MISSING>,<MISSING>
https://www.ymca.net,YMCA Village of Allapattah Family Branch,2370 NW 17 Avenue,Miami,FL,33142,US,<MISSING>,Phone: 305-635-9622,<MISSING>,<MISSING>,<MISSING>,<MISSING>,<MISSING>
https://www.ymca.net,North Pointe YMCA Family Center,7351 NW 186th St,Miami,FL,23015,US,<MISSING>,Phone: 786-433-9622,<MISSING>,<MISSING>,<MISSING>,<MISSING>,<MISSING>
https://www.ymca.net,YMCA of South Collier,"101 Sand Hill Street,P.O. Box 2529",Marco Island,FL,34145,US,<MISSING>,Phone: 239-642-9622,<MISSING>,<MISSING>,<MISSING>,<MISSING>,<MISSING>
https://www.ymca.net,Pembroke Pines YMCA Family Center,501 SW 172 Ave,Pembroke Pines,FL,33029,US,<MISSING>,Phone: 954-727-9622,<MISSING>,<MISSING>,<MISSING>,<MISSING>,<MISSING>
https://www.ymca.net,Greater Hollywood YMCA Family Center,3161 Taft St,Hollywood,FL,33021-4442,US,<MISSING>,Phone: 954-989-9622,<MISSING>,<MISSING>,<MISSING>,<MISSING>,<MISSING>
https://www.ymca.net,Weston YMCA Family Center,20201 Saddle Club Road,Weston,FL,33327,US,<MISSING>,Phone: 954-424-9622,<MISSING>,<MISSING>,<MISSING>,<MISSING>,<MISSING>
https://www.ymca.net,Children's Advocacy YMCA Family Center,900 SE Third Ave,Fort Lauderdale,FL,33316,US,<MISSING>,Phone: 954-623-5555,<MISSING>,<MISSING>,<MISSING>,<MISSING>,<MISSING>
https://www.ymca.net,"YMCA of South Florida, Inc","900 SE 3rd Avenue,3rd Floor",Fort Lauderdale,FL,33316,US,<MISSING>,Phone: 954-334-9622,<MISSING>,<MISSING>,<MISSING>,<MISSING>,<MISSING>
https://www.ymca.net,L.A. Lee  YMCA Family  Center,408 NW 14th Terrace,Fort Lauderdale,FL,33311-7952,US,<MISSING>,Phone: 954-467-2444,<MISSING>,<MISSING>,<MISSING>,<MISSING>,<MISSING>
https://www.ymca.net,Greater Naples YMCA,5450 YMCA Rd,Naples,FL,34109-5944,US,<MISSING>,Phone: 239-597-3148,<MISSING>,<MISSING>,<MISSING>,<MISSING>,<MISSING>
https://www.ymca.net,Bonita Springs YMCA,27200 Kent Road,Bonita Springs,FL,34135,US,<MISSING>,Phone: 239-221-7560,<MISSING>,<MISSING>,<MISSING>,<MISSING>,<MISSING>
https://www.ymca.net,YMCA of South Palm Beach County,6631 Palmetto Cir S,Boca Raton,FL,33433-3549,US,<MISSING>,Phone: 561-395-9622,<MISSING>,<MISSING>,<MISSING>,<MISSING>,<MISSING>
https://www.ymca.net,The Peter Blum Family YMCA of Boca Raton,6631 Palmetto Cir S,Boca Raton,FL,33433,US,<MISSING>,Phone: 561-395-9622,<MISSING>,<MISSING>,<MISSING>,<MISSING>,<MISSING>
https://www.ymca.net,DeVos-Blum Family YMCA of Boynton Beach,9600 S Military Tr,Boynton Beach,FL,33436-3213,US,<MISSING>,Phone: 561-738-9622,<MISSING>,<MISSING>,<MISSING>,<MISSING>,<MISSING>
https://www.ymca.net,Palm Beaches Metropolitan YMCA,2085 S Congress Avenue,West Palm Beach,FL,33406-7601,US,<MISSING>,Phone: 561-968-9622,<MISSING>,<MISSING>,<MISSING>,<MISSING>,<MISSING>
https://www.ymca.net,Indiantown Branch YMCA,16451 SW Farm Rd,Indiantown,FL,34956,US,<MISSING>,Phone: 772-597-3700,<MISSING>,<MISSING>,<MISSING>,<MISSING>,<MISSING>
https://www.ymca.net,Richard C Geisinger Senior Branch YMCA,1700 SE Monterey Rd,Stuart,FL,34996,US,<MISSING>,Phone: 772-286-4444,<MISSING>,<MISSING>,<MISSING>,<MISSING>,<MISSING>
https://www.ymca.net,YMCA of the Treasure Coast,1700 SE Monterey Rd,Stuart,FL,34996-4109,US,<MISSING>,Phone: 772-286-4444,<MISSING>,<MISSING>,<MISSING>,<MISSING>,<MISSING>
https://www.ymca.net,Osceola County YMCA Family Center,2117 Mabbette St,Kissimmee,FL,34741-5969,US,<MISSING>,Phone: 407-847-7413,<MISSING>,<MISSING>,<MISSING>,<MISSING>,<MISSING>
https://www.ymca.net,Central Florida YMCA Family Center at the Walt Disney World Resort-Sherberth,32615 Sherberth Rd,Kissimmee,FL,34747,US,<MISSING>,Phone: 407-396-3001,<MISSING>,<MISSING>,<MISSING>,<MISSING>,<MISSING>
https://www.ymca.net,Cocoa YMCA Family Center at Eastern Florida State College,"1519 Clearlake Rd, Bldg 18",Cocoa,FL,32922,US,<MISSING>,Phone: 321-433-7770,<MISSING>,<MISSING>,<MISSING>,<MISSING>,<MISSING>
https://www.ymca.net,Central Florida YMCA Family Center at the Walt Disney World Resort-Lake Buena Vista,2800 E Vista Boulevard,Lake Buena Vista,FL,32830,US,<MISSING>,Phone: 407-938-0680,<MISSING>,<MISSING>,<MISSING>,<MISSING>,<MISSING>
https://www.ymca.net,Lake Nona YMCA Family Center,9055 Northlake Pkwy,Orlando,FL,32827,US,<MISSING>,Phone: 407-852-3520,<MISSING>,<MISSING>,<MISSING>,<MISSING>,<MISSING>
https://www.ymca.net,Rosen YMCA Aquatic Center,8422 International Dr,Orlando,FL,32819-9329,US,<MISSING>,Phone: 407-363-1911,<MISSING>,<MISSING>,<MISSING>,<MISSING>,<MISSING>
https://www.ymca.net,Tangelo Park YMCA Family Center,5160 Pueblo Street,Orlando,FL,32819,US,<MISSING>,Phone: 407-351-3584,<MISSING>,<MISSING>,<MISSING>,<MISSING>,<MISSING>
https://www.ymca.net,Dr. Phillips YMCA Family Center,7000 Dr Phillips Blvd,Orlando,FL,32819-5102,US,<MISSING>,Phone: 407-351-9417,<MISSING>,<MISSING>,<MISSING>,<MISSING>,<MISSING>
https://www.ymca.net,South Orlando YMCA Family Center,814 W Oak Ridge Rd,Orlando,FL,32809-4805,US,<MISSING>,Phone: 407-855-2430,<MISSING>,<MISSING>,<MISSING>,<MISSING>,<MISSING>
https://www.ymca.net,Avalon Park YMCA Family Center,"12001 Avalon Park Drive, Suite M-P",Orlando,FL,32828,US,<MISSING>,Phone: 407-381-2512,<MISSING>,<MISSING>,<MISSING>,<MISSING>,<MISSING>
https://www.ymca.net,South Lake County YMCA Family Center,100 Windermere Road,Winter Garden,FL,34787,US,<MISSING>,Phone: 352-394-7243,<MISSING>,<MISSING>,<MISSING>,<MISSING>,<MISSING>
https://www.ymca.net,Roper YMCA Family Center,100 Windermere Rd,Winter Garden,FL,34787-5603,US,<MISSING>,Phone: 407-656-6430,<MISSING>,<MISSING>,<MISSING>,<MISSING>,<MISSING>
https://www.ymca.net,Downtown YMCA Family Center,433 N Mills Ave,Orlando,FL,32803-5721,US,<MISSING>,Phone: 407-896-6901,<MISSING>,<MISSING>,<MISSING>,<MISSING>,<MISSING>
https://www.ymca.net,Central Florida Metro YMCA,433 N Mills Ave,Orlando,FL,32803-5798,US,<MISSING>,Phone: 407-896-9220,<MISSING>,<MISSING>,<MISSING>,<MISSING>,<MISSING>
https://www.ymca.net,Wayne Densch YMCA Family Center,870 N Hastings St,Orlando,FL,32808-7006,US,<MISSING>,Phone: 407-299-4350,<MISSING>,<MISSING>,<MISSING>,<MISSING>,<MISSING>
https://www.ymca.net,Blanchard Park YMCA,10501 J Blanchard Trail,Orlando,FL,32817,US,<MISSING>,Phone: 407-381-8000,<MISSING>,<MISSING>,<MISSING>,<MISSING>,<MISSING>
https://www.ymca.net,Titusville YMCA Family Center,2400 Harrison St,Titusville,FL,32780-4533,US,<MISSING>,Phone: 321-267-8924,<MISSING>,<MISSING>,<MISSING>,<MISSING>,<MISSING>
https://www.ymca.net,Winter Park YMCA Family Center,1201 N Lakemont Ave,Winter Park,FL,32792-2597,US,<MISSING>,Phone: 407-644-1509,<MISSING>,<MISSING>,<MISSING>,<MISSING>,<MISSING>
https://www.ymca.net,Center for Health and Wellness,7900 Red Bug Lake Rd,Oviedo,FL,32765,US,<MISSING>,Phone: 407-359-3606,<MISSING>,<MISSING>,<MISSING>,<MISSING>,<MISSING>
https://www.ymca.net,YMCA Wewa Outdoor Center,221 S Binion Rd,Apopka,FL,32703-1604,US,<MISSING>,Phone: 407-886-1240,<MISSING>,<MISSING>,<MISSING>,<MISSING>,<MISSING>
https://www.ymca.net,J. Douglas Williams YMCA Family Center,665 Longwood Lake Mary Rd,Lake Mary,FL,32746-3758,US,<MISSING>,Phone: 407-321-8944,<MISSING>,<MISSING>,<MISSING>,<MISSING>,<MISSING>
https://www.ymca.net,Golden Triangle YMCA Family Center,1465 David Walker Dr,Tavares,FL,32778,US,<MISSING>,Phone: 352-343-1144,<MISSING>,<MISSING>,<MISSING>,<MISSING>,<MISSING>
https://www.ymca.net,Plaquemines Partnership YMCA,36342 Highway 11,Buras,LA,70041,US,<MISSING>,Phone: 504-564-0591,<MISSING>,<MISSING>,<MISSING>,<MISSING>,<MISSING>
https://www.ymca.net,The Perry Family YMCA,1700 League City Prkwy West,League City,TX,77573,US,<MISSING>,Phone: 281-338-9622,<MISSING>,<MISSING>,<MISSING>,<MISSING>,<MISSING>
https://www.ymca.net,C.V. 'Vic' Coppinger Family YMCA,2700 YMCA Dr,Pearland,TX,77581-4874,US,<MISSING>,Phone: 281-485-6805,<MISSING>,<MISSING>,<MISSING>,<MISSING>,<MISSING>
https://www.ymca.net,Schertz Family YMCA,621 Westchester Dr.,Schertz,TX,78154,US,<MISSING>,Phone: 210-246-9622,<MISSING>,<MISSING>,<MISSING>,<MISSING>,<MISSING>
https://www.ymca.net,Edgar A. Smith Family Branch YMCA,14650 Highway 3,Webster,TX,77598-1831,US,<MISSING>,Phone: 281-486-9622,<MISSING>,<MISSING>,<MISSING>,<MISSING>,<MISSING>
https://www.ymca.net,T.W. Davis Memorial Branch YMCA,911 Thompson Rd,Richmond,TX,77469-4251,US,<MISSING>,Phone: 281-341-0791,<MISSING>,<MISSING>,<MISSING>,<MISSING>,<MISSING>
https://www.ymca.net,Bayouland YMCA,103 Valhi Blvd,Houma,LA,70360-6280,US,<MISSING>,Phone: 985-873-9622,<MISSING>,<MISSING>,<MISSING>,<MISSING>,<MISSING>
https://www.ymca.net,Fort Bend Branch YMCA,4433 Cartwright Rd,Missouri City,TX,77459-2970,US,<MISSING>,Phone: 281-499-9622,<MISSING>,<MISSING>,<MISSING>,<MISSING>,<MISSING>
https://www.ymca.net,Thousand Oaks Family YMCA,16103 Henderson Pass,San Antonio,TX,78232,US,<MISSING>,Phone: 210-494-5292,<MISSING>,<MISSING>,<MISSING>,<MISSING>,<MISSING>
https://www.ymca.net,West Orem Family YMCA,5801 West Orem Drive,Houston,TX,77085,US,<MISSING>,Phone: 713-726-1606,<MISSING>,<MISSING>,<MISSING>,<MISSING>,<MISSING>
https://www.ymca.net,Mays Family YMCA at Stone Oak,21654 Blanco Rd,San Antonio,TX,78258,US,<MISSING>,Phone: 210-497-7088,<MISSING>,<MISSING>,<MISSING>,<MISSING>,<MISSING>
https://www.ymca.net,Alief Branch YMCA,7850 Howell SugarLand Rd,Houston,TX,77083-3345,US,<MISSING>,Phone: 281-495-9100,<MISSING>,<MISSING>,<MISSING>,<MISSING>,<MISSING>
https://www.ymca.net,Houston Texans YMCA,5202 Griggs Rd,Houston,TX,77021,US,<MISSING>,Phone: 713-748-5405,<MISSING>,<MISSING>,<MISSING>,<MISSING>,<MISSING>
https://www.ymca.net,Weekley Family YMCA,7101 Stella Link Dr,Houston,TX,77025-1006,US,<MISSING>,Phone: 713-664-9622,<MISSING>,<MISSING>,<MISSING>,<MISSING>,<MISSING>
https://www.ymca.net,Cossaboom Branch YMCA,7903 S Loop E,Houston,TX,77012-4299,US,<MISSING>,Phone: 713-643-4396,<MISSING>,<MISSING>,<MISSING>,<MISSING>,<MISSING>
https://www.ymca.net,Monty Ballard YMCA at Cinco Ranch,22807 Westheimer Pkwy,Katy,TX,77494-3599,US,<MISSING>,Phone: 281-392-5055,<MISSING>,<MISSING>,<MISSING>,<MISSING>,<MISSING>
https://www.ymca.net,Tellepsen Family Downtown YMCA,808 Pease,Houston,TX,77002,US,<MISSING>,Phone: 713-659-8501,<MISSING>,<MISSING>,<MISSING>,<MISSING>,<MISSING>
https://www.ymca.net,Trotter Family YMCA,1331 Augusta Dr,Houston,TX,77057-2499,US,<MISSING>,Phone: 713-781-1061,<MISSING>,<MISSING>,<MISSING>,<MISSING>,<MISSING>
https://www.ymca.net,M.D. Anderson Branch YMCA,705 Cavalcade,Houston,TX,77009-2752,US,<MISSING>,Phone: 713-697-0648,<MISSING>,<MISSING>,<MISSING>,<MISSING>,<MISSING>
https://www.ymca.net,Wendel D. Ley Family Branch YMCA,15055 Wallisville Rd,Houston,TX,77049-4621,US,<MISSING>,Phone: 281-458-7777,<MISSING>,<MISSING>,<MISSING>,<MISSING>,<MISSING>
https://www.ymca.net,YMCA of the Greater Houston Area,"2600 North Loop West,Suite 300",Houston,TX,77092,US,<MISSING>,Phone: 713-659-5566,<MISSING>,<MISSING>,<MISSING>,<MISSING>,<MISSING>
https://www.ymca.net,The Harriet & Joe Foster Family YMCA,1234 W 34th St,Houston,TX,77018-6208,US,<MISSING>,Phone: 713-869-3378,<MISSING>,<MISSING>,<MISSING>,<MISSING>,<MISSING>
https://www.ymca.net,Brenda & John Duncan YMCA,10655 Clay Rd,Houston,TX,77041,US,<MISSING>,Phone: 713-467-9622,<MISSING>,<MISSING>,<MISSING>,<MISSING>,<MISSING>
https://www.ymca.net,Northeast Branch YMCA,9551 N. Wayside,Houston,TX,77028-1131,US,<MISSING>,Phone: 281-714-5996,<MISSING>,<MISSING>,<MISSING>,<MISSING>,<MISSING>
https://www.ymca.net,Belle Chasse YMCA,8101 Belle Chasse Hwy,Belle Chasse,LA,70037,US,<MISSING>,Phone: 504-392-9622,<MISSING>,<MISSING>,<MISSING>,<MISSING>,<MISSING>
https://www.ymca.net,Langham Creek Family YMCA,16725 Longenbaugh Dr,Houston,TX,77095-4235,US,<MISSING>,Phone: 281-859-6143,<MISSING>,<MISSING>,<MISSING>,<MISSING>,<MISSING>
https://www.ymca.net,Aldine-Greenspoint YMCA,500 Greens Rd.,Houston,TX,77060,US,<MISSING>,Phone: 832-484-9622,<MISSING>,<MISSING>,<MISSING>,<MISSING>,<MISSING>
https://www.ymca.net,Central Branch YMCA,"2220 O C Haley Blvd,PO Box 56217",New Orleans,LA,70113-1508,US,<MISSING>,Phone: 504-299-4310,<MISSING>,<MISSING>,<MISSING>,<MISSING>,<MISSING>
https://www.ymca.net,Youth Foundation,"1924 Philip Street,PO Box 56217",New Orleans,LA,70113,US,<MISSING>,Phone: 504-561-0606,<MISSING>,<MISSING>,<MISSING>,<MISSING>,<MISSING>
https://www.ymca.net,Pontchartrain Park Branch YMCA,"2000 Philip Street,PO Box 56217",New Orleans,LA,70113-1508,US,<MISSING>,Phone: 504-587-0903,<MISSING>,<MISSING>,<MISSING>,<MISSING>,<MISSING>
https://www.ymca.net,Hays Communities Family Branch YMCA,465 Buda Sportsplex Dr,Buda,TX,78610,US,<MISSING>,Phone: 512-523-0099,<MISSING>,<MISSING>,<MISSING>,<MISSING>,<MISSING>
https://www.ymca.net,School of Commerce,"2220 Oretha Castle Haley Blvd.,PO Box 56217",New Orleans,LA,70113,US,<MISSING>,Phone: 504-568-5299,<MISSING>,<MISSING>,<MISSING>,<MISSING>,<MISSING>
https://www.ymca.net,Dryades YMCA,2220 Oretha Castle Haley Bivd,New Orleans,LA,70113-1508,US,<MISSING>,Phone: 504-299-4310,<MISSING>,<MISSING>,<MISSING>,<MISSING>,<MISSING>
https://www.ymca.net,Educational Services YMCA,"New Orleans Public Library Learning,219 Loyola Avenue 3rd Floor",New Orleans,LA,70112-2044,US,<MISSING>,Phone: 504-596-3824,<MISSING>,<MISSING>,<MISSING>,<MISSING>,<MISSING>
https://www.ymca.net,D. Bradley McWilliams YMCA at Cypress Creek,19915 State Hwy 249,Houston,TX,77070-3105,US,<MISSING>,Phone: 281-469-1481,<MISSING>,<MISSING>,<MISSING>,<MISSING>,<MISSING>
https://www.ymca.net,Gentilly YMCA,3901 St. Bernard Ave.,New Orleans,LA,70122,US,<MISSING>,Phone: 504-821-7090,<MISSING>,<MISSING>,<MISSING>,<MISSING>,<MISSING>
https://www.ymca.net,East Jefferson Family Branch YMCA,6691 Riverside Dr,Metairie,LA,70003-3210,US,<MISSING>,Phone: 504-888-9622,<MISSING>,<MISSING>,<MISSING>,<MISSING>,<MISSING>
https://www.ymca.net,YMCA of Greater New Orleans,"Brown Foundation Center 320 Metairie Hammond Hwy,Suite 321",Metairie,LA,70005,US,<MISSING>,Phone: 504-568-9622,<MISSING>,<MISSING>,<MISSING>,<MISSING>,<MISSING>
https://www.ymca.net,Bastrop YMCA,1112 Main Street,Bastrop,TX,78602,US,<MISSING>,Phone: 512-321-9622,<MISSING>,<MISSING>,<MISSING>,<MISSING>,<MISSING>
https://www.ymca.net,Springs Family YMCA,27216 Ranch Rd 12,Drippings Springs,TX,78620,US,<MISSING>,Phone: 512-894-3309,<MISSING>,<MISSING>,<MISSING>,<MISSING>,<MISSING>
https://www.ymca.net,Southwest Family Branch YMCA,"6219 Oakclaire Dr,Hwy 290 W",Austin,TX,78735-8600,US,<MISSING>,Phone: 512-891-9622,<MISSING>,<MISSING>,<MISSING>,<MISSING>,<MISSING>
https://www.ymca.net,Austin Metropolitan YMCA,"3208 Red River,Suite 200",Austin,TX,78705,US,<MISSING>,Phone: 512-322-9622,<MISSING>,<MISSING>,<MISSING>,<MISSING>,<MISSING>
https://www.ymca.net,Program Services Branch YMCA,3208 Red River St.,Austin,TX,78705,US,<MISSING>,Phone: 512-236-9622,<MISSING>,<MISSING>,<MISSING>,<MISSING>,<MISSING>
https://www.ymca.net,Townlake Branch YMCA,1100 W Cesar Chavez St,Austin,TX,78703-4603,US,<MISSING>,Phone: 512-542-9622,<MISSING>,<MISSING>,<MISSING>,<MISSING>,<MISSING>
https://www.ymca.net,East Communities Branch YMCA,5315 Ed Bluestein Blvd,Austin,TX,78723-5609,US,<MISSING>,Phone: 512-933-9622,<MISSING>,<MISSING>,<MISSING>,<MISSING>,<MISSING>
https://www.ymca.net,YMCA of North Austin Community Rec Center,1000 W Rundberg Ln.,Austin,TX,78758,US,<MISSING>,Phone: 512-973-9622,<MISSING>,<MISSING>,<MISSING>,<MISSING>,<MISSING>
https://www.ymca.net,Paula G. Manship Branch YMCA,8100 YMCA Plaza Dr,Baton Rouge,LA,70810-0916,US,<MISSING>,Phone: 225-767-9622,<MISSING>,<MISSING>,<MISSING>,<MISSING>,<MISSING>
https://www.ymca.net,Southside Branch YMCA,8482 Perkins Rd,Baton Rouge,LA,70810,US,<MISSING>,Phone: 225-766-2991,<MISSING>,<MISSING>,<MISSING>,<MISSING>,<MISSING>
https://www.ymca.net,Snook Family YMCA,2560 S Pine St,Foley,AL,36535-1122,US,<MISSING>,Phone: 251-970-3003,<MISSING>,<MISSING>,<MISSING>,<MISSING>,<MISSING>
https://www.ymca.net,Bear Levin Studer Family YMCA,165 E. Intendencia St.,Pensacola,FL,32502-3919,US,<MISSING>,Phone: 850-438-4406,<MISSING>,<MISSING>,<MISSING>,<MISSING>,<MISSING>
https://www.ymca.net,Mississippi Gulf Coast YMCA,1810 Government St,Ocean Springs,MS,39564-3931,US,<MISSING>,Phone: 228-875-5050,<MISSING>,<MISSING>,<MISSING>,<MISSING>,<MISSING>
https://www.ymca.net,YMCA of Northwest Florida,165 E. Intendencia St.,Pensacola,FL,32502,US,<MISSING>,Phone: 850-432-8327,<MISSING>,<MISSING>,<MISSING>,<MISSING>,<MISSING>
https://www.ymca.net,Betty J. Pullum Family YMCA,2379 Pawnee Dr,Navarre,FL,32566,US,<MISSING>,Phone: 850-936-0049,<MISSING>,<MISSING>,<MISSING>,<MISSING>,<MISSING>
https://www.ymca.net,Baranco-Clark Branch YMCA,1735 Thomas H Delpit Dr,Baton Rouge,LA,70802-6633,US,<MISSING>,Phone: 225-344-6775,<MISSING>,<MISSING>,<MISSING>,<MISSING>,<MISSING>
https://www.ymca.net,Northwest Family Branch YMCA,5807 McNeil Dr,Austin,TX,78729,US,<MISSING>,Phone: 512-335-9622,<MISSING>,<MISSING>,<MISSING>,<MISSING>,<MISSING>
https://www.ymca.net,YMCA of the Capital Area,350 South Foster Drive,Baton Rouge,LA,70806-4105,US,<MISSING>,Phone: 225-923-0653,<MISSING>,<MISSING>,<MISSING>,<MISSING>,<MISSING>
https://www.ymca.net,Arthur Cullen Lewis Branch YMCA,350 S Foster Dr,Baton Rouge,LA,70806-4105,US,<MISSING>,Phone: 225-924-3606,<MISSING>,<MISSING>,<MISSING>,<MISSING>,<MISSING>
https://www.ymca.net,C.B. Pennington Jr. Branch YMCA,15550 Old Hammond Hwy,Baton Rouge,LA,70816-1253,US,<MISSING>,Phone: 225-272-9622,<MISSING>,<MISSING>,<MISSING>,<MISSING>,<MISSING>
https://www.ymca.net,West St. Tammany Branch YMCA,71256 Francis Road,Covington,LA,70433-8895,US,<MISSING>,Phone: 985-893-9622,<MISSING>,<MISSING>,<MISSING>,<MISSING>,<MISSING>
https://www.ymca.net,Northeast Branch YMCA,2130 Summit Blvd,Pensacola,FL,32503,US,<MISSING>,Phone: 850-478-1222,<MISSING>,<MISSING>,<MISSING>,<MISSING>,<MISSING>
https://www.ymca.net,Camp Twin Lakes YMCA,204 East Little Elm Trail,Cedar Park,TX,78613,US,<MISSING>,Phone: 512-257-0709,<MISSING>,<MISSING>,<MISSING>,<MISSING>,<MISSING>
https://www.ymca.net,Twin Lakes Family YMCA,204 East Little Elm Trail,Cedar Park,TX,78613,US,<MISSING>,Phone: 512-250-9622,<MISSING>,<MISSING>,<MISSING>,<MISSING>,<MISSING>
https://www.ymca.net,Hutto Family YMCA,200 Alliance Blvd.,Hutto,TX,78634,US,<MISSING>,Phone: 512-846-2360,<MISSING>,<MISSING>,<MISSING>,<MISSING>,<MISSING>
https://www.ymca.net,YMCA of Greater Williamson County,"1812 N Mays St.,PO Box 819",Round Rock,TX,78664-0819,US,<MISSING>,Phone: 512-615-5514,<MISSING>,<MISSING>,<MISSING>,<MISSING>,<MISSING>
https://www.ymca.net,CHASCO Family YMCA,"1812 N Mays,PO Box 819",Round Rock,TX,78680-0819,US,<MISSING>,Phone: 512-246-9622,<MISSING>,<MISSING>,<MISSING>,<MISSING>,<MISSING>
https://www.ymca.net,Taylor Family YMCA,1812 North Mays Street,Round Rock,TX,78664,US,<MISSING>,Phone: 512-615-5514,<MISSING>,<MISSING>,<MISSING>,<MISSING>,<MISSING>
https://www.ymca.net,Bounds Family Branch YMCA,8051 Whispering Pines Blvd,Daphne,AL,36526-6175,US,<MISSING>,Phone: 251-626-0888,<MISSING>,<MISSING>,<MISSING>,<MISSING>,<MISSING>
https://www.ymca.net,Hearin Chandler Branch YMCA,951 Downtowner Blvd,Mobile,AL,36609-5476,US,<MISSING>,Phone: 251-344-4856,<MISSING>,<MISSING>,<MISSING>,<MISSING>,<MISSING>
https://www.ymca.net,Monte L. and Louise R. Moorer YMCA,101 N Water St,Mobile,AL,36602-3904,US,<MISSING>,Phone: 251-438-1163,<MISSING>,<MISSING>,<MISSING>,<MISSING>,<MISSING>
https://www.ymca.net,Dearborn YMCA,321 N Warren St,Mobile,AL,36603-5938,US,<MISSING>,Phone: 251-432-4768,<MISSING>,<MISSING>,<MISSING>,<MISSING>,<MISSING>
https://www.ymca.net,"YMCA of South Alabama, Inc",P.O Box 2272,Mobile,AL,36652,US,<MISSING>,Phone: 251-344-5646,<MISSING>,<MISSING>,<MISSING>,<MISSING>,<MISSING>
https://www.ymca.net,Bogalusa YMCA,411 Ave B,Bogalusa,LA,70427,US,<MISSING>,Phone: 985-732-3741,<MISSING>,<MISSING>,<MISSING>,<MISSING>,<MISSING>
https://www.ymca.net,North Mobile Branch YMCA,92 Saraland Loop,Saraland,AL,36571-2400,US,<MISSING>,Phone: 251-679-8877,<MISSING>,<MISSING>,<MISSING>,<MISSING>,<MISSING>
https://www.ymca.net,Brewton Area YMCA,1 YMCA Dr,Brewton,AL,36426-1129,US,<MISSING>,Phone: 251-867-9622,<MISSING>,<MISSING>,<MISSING>,<MISSING>,<MISSING>
https://www.ymca.net,Killeen Armed Services YMCA,110 Mountain Lion Road,Harker Heights,TX,76548-5214,US,<MISSING>,Phone: 254-690-9622,<MISSING>,<MISSING>,<MISSING>,<MISSING>,<MISSING>
https://www.ymca.net,Family YMCA of Southeast Mississippi Inc.,3719 Veterans Memorial Dr,Hattiesburg,MS,39401,US,<MISSING>,Phone: 601-583-4000,<MISSING>,<MISSING>,<MISSING>,<MISSING>,<MISSING>
https://www.ymca.net,Petal Family Branch YMCA,547 Hillcrest Loop,Petal,MS,39465-2767,US,<MISSING>,Phone: 601-583-9399,<MISSING>,<MISSING>,<MISSING>,<MISSING>,<MISSING>
https://www.ymca.net,Enterprise YMCA,"P.O. Box 310700,904 Ozark Hwy",Enterprise,AL,36331-0700,US,<MISSING>,Phone: 334-347-4513,<MISSING>,<MISSING>,<MISSING>,<MISSING>,<MISSING>
https://www.ymca.net,Monroeville Area YMCA,2197 S Mt Pleasant Ave,Monroeville,AL,36460-2399,US,<MISSING>,Phone: 251-575-9622,<MISSING>,<MISSING>,<MISSING>,<MISSING>,<MISSING>
https://www.ymca.net,"YMCA of Greenville, Alabama",177 Academy Dr,Greenville,AL,36037,US,<MISSING>,Phone: 334-382-0550,<MISSING>,<MISSING>,<MISSING>,<MISSING>,<MISSING>
https://www.ymca.net,Northwest YMCA Pima County Community Ctr,7770 N Shannon Rd,Tucson,AZ,85741-2583,US,<MISSING>,Phone: 520-229-9001,<MISSING>,<MISSING>,<MISSING>,<MISSING>,<MISSING>
https://www.ymca.net,Kershaw Branch YMCA,2225 W. Fairview Avenue,Montgomery,AL,36108,US,<MISSING>,Phone: 334-265-1433,<MISSING>,<MISSING>,<MISSING>,<MISSING>,<MISSING>
https://www.ymca.net,YMCA of Selma-Dallas County,1 YMCA Drive,Selma,AL,36701-7770,US,<MISSING>,Phone: 334-874-9622,<MISSING>,<MISSING>,<MISSING>,<MISSING>,<MISSING>
https://www.ymca.net,Joshua Community YMCA,1009 Joshua Station Blvd,Joshua,TX,76058,US,<MISSING>,Phone: 817-645-9622,<MISSING>,<MISSING>,<MISSING>,<MISSING>,<MISSING>
https://www.ymca.net,YMCA of Northeast Louisiana,"Association Services Office,1505 Stubbs Ave",Monroe,LA,71201-5627,US,<MISSING>,Phone: 318-387-9622,<MISSING>,<MISSING>,<MISSING>,<MISSING>,<MISSING>
https://www.ymca.net,Ryan Family YMCA,8250 McCart Ave,Fort Worth,TX,76123-2300,US,<MISSING>,Phone: 817-346-8855,<MISSING>,<MISSING>,<MISSING>,<MISSING>,<MISSING>
https://www.ymca.net,Cooper Street YMCA Family Center,7120 S. Cooper St.,Arlington,TX,76001,US,<MISSING>,Phone: 817-419-9629,<MISSING>,<MISSING>,<MISSING>,<MISSING>,<MISSING>
https://www.ymca.net,Grand Prairie Branch YMCA,4556 S. Carrier Pkwy,Grand Prairie,TX,75052,US,<MISSING>,Phone: 972-642-9632,<MISSING>,<MISSING>,<MISSING>,<MISSING>,<MISSING>
https://www.ymca.net,Oak Cliff Branch YMCA,6701 S Hampton Rd,Dallas,TX,75232-3320,US,<MISSING>,Phone: 214-330-6321,<MISSING>,<MISSING>,<MISSING>,<MISSING>,<MISSING>
https://www.ymca.net,Benbrook Community Center YMCA,1899 Winscott Rd,Benbrook,TX,76126-4337,US,<MISSING>,Phone: 817-249-0500,<MISSING>,<MISSING>,<MISSING>,<MISSING>,<MISSING>
https://www.ymca.net,Moorland Branch YMCA,907 E Ledbetter Dr,Dallas,TX,75216-6859,US,<MISSING>,Phone: 214-375-2583,<MISSING>,<MISSING>,<MISSING>,<MISSING>,<MISSING>
https://www.ymca.net,Central  YMCA Family Center,2200 S Davis Dr,Arlington,TX,76013,US,<MISSING>,Phone: 817-274-9622,<MISSING>,<MISSING>,<MISSING>,<MISSING>,<MISSING>
https://www.ymca.net,Arlington-Mansfield Area YMCA,"1148 W Pioneer Parkway,Suite H",Arlington,TX,76013-6243,US,<MISSING>,Phone: 817-299-9629,<MISSING>,<MISSING>,<MISSING>,<MISSING>,<MISSING>
https://www.ymca.net,William M. McDonald YMCA,2701 Moresby St,Fort Worth,TX,76105,US,<MISSING>,Phone: 817-534-1591,<MISSING>,<MISSING>,<MISSING>,<MISSING>,<MISSING>
https://www.ymca.net,Westside YMCA,8201 Calmont Ave,Fort Worth,TX,76116-3504,US,<MISSING>,Phone: 817-244-4544,<MISSING>,<MISSING>,<MISSING>,<MISSING>,<MISSING>
https://www.ymca.net,YMCA of Metropolitan Fort Worth,"512 Lamar St, Suite 400",Fort Worth,TX,76102-3717,US,<MISSING>,Phone: 817-335-9622,<MISSING>,<MISSING>,<MISSING>,<MISSING>,<MISSING>
https://www.ymca.net,Amon Carter Jr. Downtown YMCA,512 Lamar St,Fort Worth,TX,76102-3717,US,<MISSING>,Phone: 817-332-3281,<MISSING>,<MISSING>,<MISSING>,<MISSING>,<MISSING>
https://www.ymca.net,North YMCA Family Center,1005 Skyline Dr.,Arlington,TX,76011-2659,US,<MISSING>,Phone: 817-548-9622,<MISSING>,<MISSING>,<MISSING>,<MISSING>,<MISSING>
https://www.ymca.net,Eastside YMCA,1500 Sandy Ln,Fort Worth,TX,76112-3529,US,<MISSING>,Phone: 817-451-8276,<MISSING>,<MISSING>,<MISSING>,<MISSING>,<MISSING>
https://www.ymca.net,Camp Carter YMCA,6200 Sand Springs Rd,Fort Worth,TX,76114-2446,US,<MISSING>,Phone: 817-738-9241,<MISSING>,<MISSING>,<MISSING>,<MISSING>,<MISSING>
https://www.ymca.net,Lakewest Family YMCA,3737 Goldman Bldg A Ste 300,Dallas,TX,75212,US,<MISSING>,Phone: 214-630-9880,<MISSING>,<MISSING>,<MISSING>,<MISSING>,<MISSING>
https://www.ymca.net,Irving Branch YMCA,2200 W Irving Blvd,Irving,TX,75061-4358,US,<MISSING>,Phone: 972-986-8898,<MISSING>,<MISSING>,<MISSING>,<MISSING>,<MISSING>
https://www.ymca.net,Airport Area YMCA,3524 Central Dr,Bedford,TX,76021-2649,US,<MISSING>,Phone: 817-571-3371,<MISSING>,<MISSING>,<MISSING>,<MISSING>,<MISSING>
https://www.ymca.net,Northpark YMCA,9100 North Beach Street,Fort Worth,TX,76244,US,<MISSING>,Phone: 817-993-1333,<MISSING>,<MISSING>,<MISSING>,<MISSING>,<MISSING>
https://www.ymca.net,Copper Basin YMCA,28300 N. Main St.,San Tan Valley,AZ,85143,US,<MISSING>,Phone: 480-882-2242,<MISSING>,<MISSING>,<MISSING>,<MISSING>,<MISSING>
https://www.ymca.net,Ahwatukee Foothills YMCA,1030 E Liberty Lane,Phoenix,AZ,85048-8461,US,<MISSING>,Phone: 480-759-6762,<MISSING>,<MISSING>,<MISSING>,<MISSING>,<MISSING>
https://www.ymca.net,Chandler Family YMCA,1655 W Frye Rd,Chandler,AZ,85224-6184,US,<MISSING>,Phone: 480-899-9622,<MISSING>,<MISSING>,<MISSING>,<MISSING>,<MISSING>
https://www.ymca.net,Tempe YMCA,7070 S Rural Rd,Tempe,AZ,85283-4700,US,<MISSING>,Phone: 480-730-0240,<MISSING>,<MISSING>,<MISSING>,<MISSING>,<MISSING>
https://www.ymca.net,Hodding Carter Memorial YMCA,1688 Fairgrounds Rd,Greenville,MS,38703-7805,US,<MISSING>,Phone: 662-335-7258,<MISSING>,<MISSING>,<MISSING>,<MISSING>,<MISSING>
https://www.ymca.net,South Mountain YMCA,350 N 1st Ave,Phoenix,AZ,85003-6550,US,<MISSING>,Phone: 602-212-5122,<MISSING>,<MISSING>,<MISSING>,<MISSING>,<MISSING>
https://www.ymca.net,Summit Family YMCA,1765 E Highway 34,Newnan,GA,30265,US,<MISSING>,Phone: 770-254-9622,<MISSING>,<MISSING>,<MISSING>,<MISSING>,<MISSING>
https://www.ymca.net,East Valley Family YMCA,1807 S Sunview,Mesa,AZ,85206,US,<MISSING>,Phone: 480-649-9622,<MISSING>,<MISSING>,<MISSING>,<MISSING>,<MISSING>
https://www.ymca.net,Mesa Family YMCA,"207 N Mesa Dr,Branch sold on 12/18/2018",Mesa,AZ,85201-6723,US,<MISSING>,Phone: 480-969-8166,<MISSING>,<MISSING>,<MISSING>,<MISSING>,<MISSING>
https://www.ymca.net,State YMCA of Georgia,Post Office Box 3789,Cartersville,GA,30120,US,<MISSING>,Phone: 770-455-9622,<MISSING>,<MISSING>,<MISSING>,<MISSING>,<MISSING>
https://www.ymca.net,Valley of the Sun YMCA,350 N 1st Ave,Phoenix,AZ,85003-1513,US,<MISSING>,Phone: 602-404-9622,<MISSING>,<MISSING>,<MISSING>,<MISSING>,<MISSING>
https://www.ymca.net,Community Initiatives,350 N 1st Ave,Phoenix,AZ,85003-1513,US,<MISSING>,Phone: 602-212-5122,<MISSING>,<MISSING>,<MISSING>,<MISSING>,<MISSING>
https://www.ymca.net,Lincoln Family YMCA,350 N 1st Ave,Phoenix,AZ,85003-1513,US,<MISSING>,Phone: 602-257-5138,<MISSING>,<MISSING>,<MISSING>,<MISSING>,<MISSING>
https://www.ymca.net,Southwest Valley Regional YMCA,2919 N Litchfield Rd,Goodyear,AZ,85395,US,<MISSING>,Phone: 623-935-5193,<MISSING>,<MISSING>,<MISSING>,<MISSING>,<MISSING>
https://www.ymca.net,Maryvale Family YMCA,3825 N 67th Ave,Phoenix,AZ,85033,US,<MISSING>,Phone: 623-873-9622,<MISSING>,<MISSING>,<MISSING>,<MISSING>,<MISSING>
https://www.ymca.net,Chris-Town YMCA,5517 N 17th Ave,Phoenix,AZ,85015-2516,US,<MISSING>,Phone: 602-242-7717,<MISSING>,<MISSING>,<MISSING>,<MISSING>,<MISSING>
https://www.ymca.net,Birmingham Metropolitan YMCA,2101 4th Ave N,Birmingham,AL,35203-3303,US,<MISSING>,Phone: 205-801-9622,<MISSING>,<MISSING>,<MISSING>,<MISSING>,<MISSING>
https://www.ymca.net,Birmingham YMCA Youth Center,2400 7th Avenue North,Birmingham,AL,35203-2601,US,<MISSING>,Phone: 205-324-1643,<MISSING>,<MISSING>,<MISSING>,<MISSING>,<MISSING>
https://www.ymca.net,Northwest Valley Family YMCA,12450 W Cinnabar,El Mirage,AZ,85335,US,<MISSING>,Phone: 602-688-5377,<MISSING>,<MISSING>,<MISSING>,<MISSING>,<MISSING>
https://www.ymca.net,Scottsdale/Paradise Valley YMCA,6869 E Shea Blvd,Scottsdale,AZ,85254-5245,US,<MISSING>,Phone: 480-951-9622,<MISSING>,<MISSING>,<MISSING>,<MISSING>,<MISSING>
https://www.ymca.net,Northeast Family Branch,628 Red Lane Rd,Birmingham,AL,35215-8236,US,<MISSING>,Phone: 205-833-7616,<MISSING>,<MISSING>,<MISSING>,<MISSING>,<MISSING>
https://www.ymca.net,YMCA of Warren and Bradley County,207 N Main St,Warren,AR,71671-2716,US,<MISSING>,Phone: 870-226-2404,<MISSING>,<MISSING>,<MISSING>,<MISSING>,<MISSING>
https://www.ymca.net,Glendale/Peoria YMCA,14711 N 59th Ave,Glendale,AZ,85306-3800,US,<MISSING>,Phone: 602-588-9622,<MISSING>,<MISSING>,<MISSING>,<MISSING>,<MISSING>
https://www.ymca.net,Trussville Branch YMCA,5920 Valley Rd,Birmingham,AL,35173,US,<MISSING>,Phone: 205-655-2224,<MISSING>,<MISSING>,<MISSING>,<MISSING>,<MISSING>
https://www.ymca.net,YMCA of Calhoun County,"29 W 14th St,PO Box 1649",Anniston,AL,36202-1649,US,<MISSING>,Phone: 256-238-9622,<MISSING>,<MISSING>,<MISSING>,<MISSING>,<MISSING>
https://www.ymca.net,YMCA Academies at South DeKalb,2575-A Snapfinger Road,Decatur,GA,30034,US,<MISSING>,Phone: 770-987-4666,<MISSING>,<MISSING>,<MISSING>,<MISSING>,<MISSING>
https://www.ymca.net,Andrew and Walter Young Family YMCA,2220 Campbellton Rd SW,Atlanta,GA,30311-4608,US,<MISSING>,Phone: 404-523-9622,<MISSING>,<MISSING>,<MISSING>,<MISSING>,<MISSING>
https://www.ymca.net,South Dekalb Family Branch YMCA,2565 Snapfinger Rd,Decatur,GA,30034-2320,US,<MISSING>,Phone: 770-987-3500,<MISSING>,<MISSING>,<MISSING>,<MISSING>,<MISSING>
https://www.ymca.net,The Villages at Carver Family YMCA,"1600 Pryor Road, SW,The Villages at Carver Family YMCA",Atlanta,GA,30315,US,<MISSING>,Phone: 404-635-9622,<MISSING>,<MISSING>,<MISSING>,<MISSING>,<MISSING>
https://www.ymca.net,East Lake Branch YMCA,275 Eva Davis Way,Atlanta,GA,30317,US,<MISSING>,Phone: 404-373-6561,<MISSING>,<MISSING>,<MISSING>,<MISSING>,<MISSING>
https://www.ymca.net,YMCA of Metropolitan Atlanta Inc.,569 Martin Luther King Jr Drive NW,Atlanta,GA,30314,US,<MISSING>,Phone: 404-588-9622,<MISSING>,<MISSING>,<MISSING>,<MISSING>,<MISSING>
https://www.ymca.net,Arthur M. Blank Family Youth YMCA,555 Luckie St,Atlanta,GA,30313,US,<MISSING>,Phone: 404-724-9622,<MISSING>,<MISSING>,<MISSING>,<MISSING>,<MISSING>
https://www.ymca.net,Downtown Branch YMCA,"3605 Long Beach Blvd.,Suite 219",Long Beach,CA,90807,US,<MISSING>,Phone: 562-279-1700,<MISSING>,<MISSING>,<MISSING>,<MISSING>,<MISSING>
https://www.ymca.net,Wilmington Family YMCA,1127 N Avalon,Wilmington,CA,90744,US,<MISSING>,Phone: 310-522-2100,<MISSING>,<MISSING>,<MISSING>,<MISSING>,<MISSING>
https://www.ymca.net,Decatur FamilyYMCA,1100 Clairmont Ave,Decatur,GA,30030-1206,US,<MISSING>,Phone: 404-377-9622,<MISSING>,<MISSING>,<MISSING>,<MISSING>,<MISSING>
https://www.ymca.net,Wade Walker Park Family YMCA,5605 Rockbridge Rd,Stone Mountain,GA,30088,US,<MISSING>,Phone: 678-781-9622,<MISSING>,<MISSING>,<MISSING>,<MISSING>,<MISSING>
https://www.ymca.net,Desert Foothills Family YMCA,"34250 N. 60th St,bldg c",Scottsdale,AZ,85266,US,<MISSING>,Phone: 480-596-9622,<MISSING>,<MISSING>,<MISSING>,<MISSING>,<MISSING>
https://www.ymca.net,YMCA of Greater Long Beach/Early Childhood Education,3605 Long Beach Blvd #210F,Long Beach,CA,90807-4503,US,<MISSING>,Phone: 562-279-1624,<MISSING>,<MISSING>,<MISSING>,<MISSING>,<MISSING>
https://www.ymca.net,YMCA of Greater Long Beach,"3605 Long Beach Blvd,Ste 210",Long Beach,CA,90807,US,<MISSING>,Phone: 562-279-1700,<MISSING>,<MISSING>,<MISSING>,<MISSING>,<MISSING>
https://www.ymca.net,Torrance-South Bay Family YMCA,2900 West Sepulveda Blvd,Torrance,CA,90505-2804,US,<MISSING>,Phone: 310-325-5885,<MISSING>,<MISSING>,<MISSING>,<MISSING>,<MISSING>
https://www.ymca.net,Weingart-Lakewood Family Branch YMCA,5835 Carson St,Lakewood,CA,90713-3056,US,<MISSING>,Phone: 562-425-7431,<MISSING>,<MISSING>,<MISSING>,<MISSING>,<MISSING>
https://www.ymca.net,Carl E. Sanders Family YMCA at Buckhead,1160 Moores Mill Rd NW,Atlanta,GA,30327-1646,US,<MISSING>,Phone: 404-350-9292,<MISSING>,<MISSING>,<MISSING>,<MISSING>,<MISSING>
https://www.ymca.net,Fairfield Family Branch YMCA,4949 Atlantic Ave,Long Beach,CA,90805-6505,US,<MISSING>,Phone: 562-423-0491,<MISSING>,<MISSING>,<MISSING>,<MISSING>,<MISSING>
https://www.ymca.net,Gardena-Carson Family YMCA,1000 W Artesia Blvd,Gardena,CA,90248-3364,US,<MISSING>,Phone: 310-523-3470,<MISSING>,<MISSING>,<MISSING>,<MISSING>,<MISSING>
https://www.ymca.net,Los Cerritos Branch YMCA,15530 Woodruff Ave,Bellflower,CA,90706-4096,US,<MISSING>,Phone: 562-925-1292,<MISSING>,<MISSING>,<MISSING>,<MISSING>,<MISSING>
https://www.ymca.net,Cowart Family YMCA,3692 Ashford Dunwoody Rd NE,Atlanta,GA,30319-2077,US,<MISSING>,Phone: 770-451-9622,<MISSING>,<MISSING>,<MISSING>,<MISSING>,<MISSING>
https://www.ymca.net,J.M. Tull Branch/Gwinnett Family YMCA,2985 Sugarloaf Pkwy,Lawrenceville,GA,30045-8319,US,<MISSING>,Phone: 770-963-1313,<MISSING>,<MISSING>,<MISSING>,<MISSING>,<MISSING>
https://www.ymca.net,YMCA of Sumter,510 Miller Road,Sumter,SC,29150-4168,US,<MISSING>,Phone: 803-773-1404,<MISSING>,<MISSING>,<MISSING>,<MISSING>,<MISSING>
https://www.ymca.net,Downey Family YMCA,11531 Downey Avenue,Downey,CA,90241-4997,US,<MISSING>,Phone: 562-862-4201,<MISSING>,<MISSING>,<MISSING>,<MISSING>,<MISSING>
https://www.ymca.net,Lexington Family YMCA,401 YMCA Road,Lexington,SC,29073-7603,US,<MISSING>,Phone: 803-359-3376,<MISSING>,<MISSING>,<MISSING>,<MISSING>,<MISSING>
https://www.ymca.net,Weingart YMCA Wellness and Aquatic Center,9900 South Vermont Avenue,Los Angeles,CA,90044-3160,US,<MISSING>,Phone: 323-754-3191,<MISSING>,<MISSING>,<MISSING>,<MISSING>,<MISSING>
https://www.ymca.net,Westchester Family YMCA,8015 S Sepulveda Blvd,Los Angeles,CA,90045-2940,US,<MISSING>,Phone: 310-670-4316,<MISSING>,<MISSING>,<MISSING>,<MISSING>,<MISSING>
https://www.ymca.net,McCleskey-East Cobb YMCA,1055 E Piedmont Rd,Marietta,GA,30062-4993,US,<MISSING>,Phone: 770-977-5991,<MISSING>,<MISSING>,<MISSING>,<MISSING>,<MISSING>
https://www.ymca.net,Robert D. Fowler Family YMCA,5600 W Jones Bridge Rd,Peachtree Corners,GA,30092-2036,US,<MISSING>,Phone: 770-246-9622,<MISSING>,<MISSING>,<MISSING>,<MISSING>,<MISSING>
https://www.ymca.net,Southeast-Rio Vista Family YMCA,4801 East 58th Street,Maywood,CA,90270-2913,US,<MISSING>,Phone: 323-588-2256,<MISSING>,<MISSING>,<MISSING>,<MISSING>,<MISSING>
https://www.ymca.net,Uptown Whittier YMCA,12510 Hadley Street,Whittier,CA,90601-3942,US,<MISSING>,Phone: 562-907-6530,<MISSING>,<MISSING>,<MISSING>,<MISSING>,<MISSING>
https://www.ymca.net,Northwest YMCA,1700 Dennis Kemp Ln,Kennesaw,GA,30152-3938,US,<MISSING>,Phone: 770-423-9622,<MISSING>,<MISSING>,<MISSING>,<MISSING>,<MISSING>
https://www.ymca.net,Culver-Palms Family YMCA,4500 Sepulveda Blvd,Culver City,CA,90230-4886,US,<MISSING>,Phone: 310-390-3604,<MISSING>,<MISSING>,<MISSING>,<MISSING>,<MISSING>
https://www.ymca.net,YMCA of Columbia,"Administrative Office,1612 Marion Street",Columbia,SC,29201-2828,US,<MISSING>,Phone: 803-748-9622,<MISSING>,<MISSING>,<MISSING>,<MISSING>,<MISSING>
https://www.ymca.net,Downtown YMCA,1447 Hampton Street,Columbia,SC,29201,US,<MISSING>,Phone: 803-799-9187,<MISSING>,<MISSING>,<MISSING>,<MISSING>,<MISSING>
https://www.ymca.net,YMCA of Greater Whittier,"12510 Hadley St., 2nd Fl",Whittier,CA,90601-3942,US,<MISSING>,Phone: 562-907-2727,<MISSING>,<MISSING>,<MISSING>,<MISSING>,<MISSING>
https://www.ymca.net,"YMCA of the Coosa Valley, Inc",100 Walnut St,Gadsden,AL,35901-5253,US,<MISSING>,Phone: 256-547-4947,<MISSING>,<MISSING>,<MISSING>,<MISSING>,<MISSING>
https://www.ymca.net,Crenshaw Family YMCA,3820 Santa Rosalia Dr,Los Angeles,CA,90008-2516,US,<MISSING>,Phone: 323-292-9195,<MISSING>,<MISSING>,<MISSING>,<MISSING>,<MISSING>
https://www.ymca.net,Santa Monica Family YMCA,1332 6th Street,Santa Monica,CA,90401-1604,US,<MISSING>,Phone: 310-393-2721,<MISSING>,<MISSING>,<MISSING>,<MISSING>,<MISSING>
https://www.ymca.net,Montebello Family YMCA,2000 W Beverly Blvd,Montebello,CA,90640-3939,US,<MISSING>,Phone: 323-887-9622,<MISSING>,<MISSING>,<MISSING>,<MISSING>,<MISSING>
https://www.ymca.net,Northeast Cobb YMCA,3010 Johnson Ferry Road,Marietta,GA,30062,US,<MISSING>,Phone: 678-569-9622,<MISSING>,<MISSING>,<MISSING>,<MISSING>,<MISSING>
https://www.ymca.net,Weingart-East Los Angeles YMCA,2900 Whittier Boulevard,Los Angeles,CA,90023,US,<MISSING>,Phone: 323-260-7005,<MISSING>,<MISSING>,<MISSING>,<MISSING>,<MISSING>
https://www.ymca.net,Collins & Katz Family YMCA,1466 South Westgate Avenue,Los Angeles,CA,90025-2249,US,<MISSING>,Phone: 310-477-1511,<MISSING>,<MISSING>,<MISSING>,<MISSING>,<MISSING>
https://www.ymca.net,Palisades-Malibu YMCA,821 Via De La Paz,Pacific Palisades,CA,90272-3618,US,<MISSING>,Phone: 310-454-5591,<MISSING>,<MISSING>,<MISSING>,<MISSING>,<MISSING>
https://www.ymca.net,Stuart M. Ketchum-Downtown YMCA,401 S Hope St,Los Angeles,CA,90071-1900,US,<MISSING>,Phone: 213-624-2348,<MISSING>,<MISSING>,<MISSING>,<MISSING>,<MISSING>
https://www.ymca.net,YMCA of Metropolitan Los Angeles,625 South New Hampshire Ave,Los Angeles,CA,90005-1300,US,<MISSING>,Phone: 213-380-6448,<MISSING>,<MISSING>,<MISSING>,<MISSING>,<MISSING>
https://www.ymca.net,Anderson Munger YMCA,4301 West 3rd St.,Los Angeles,CA,90020,US,<MISSING>,Phone: 213-427-9622,<MISSING>,<MISSING>,<MISSING>,<MISSING>,<MISSING>
https://www.ymca.net,Ed Isakson/Alpharetta YMCA,3655 Preston Ridge Rd,Alpharetta,GA,30005-3824,US,<MISSING>,Phone: 770-664-1220,<MISSING>,<MISSING>,<MISSING>,<MISSING>,<MISSING>
https://www.ymca.net,YMCA of West San Gabriel Valley,401East Corto St,Alhambra,CA,91801-4553,US,<MISSING>,Phone: 626-576-0226,<MISSING>,<MISSING>,<MISSING>,<MISSING>,<MISSING>
https://www.ymca.net,Hollywood YMCA,1553 N Schrader Blvd,Hollywood,CA,90028-7203,US,<MISSING>,Phone: 323-467-4161,<MISSING>,<MISSING>,<MISSING>,<MISSING>,<MISSING>
https://www.ymca.net,YMCA Camp High Harbour at Lake Allatoona,40 Old Sandtown Rd,Cartersville,GA,30121,US,<MISSING>,Phone: 770-966-9582,<MISSING>,<MISSING>,<MISSING>,<MISSING>,<MISSING>
https://www.ymca.net,South Pasadena-San Marino YMCA,1605 Garfield Ave,South Pasadena,CA,91030-4968,US,<MISSING>,Phone: 626-799-9119,<MISSING>,<MISSING>,<MISSING>,<MISSING>,<MISSING>
https://www.ymca.net,NorthWest Family YMCA,1501 Kennerly Rd,Irmo,SC,29063,US,<MISSING>,Phone: 803-407-8007,<MISSING>,<MISSING>,<MISSING>,<MISSING>,<MISSING>
https://www.ymca.net,Santa Anita Family YMCA,501 S. Mountain Ave.,Monrovia,CA,91016-3655,US,<MISSING>,Phone: 626-359-9244,<MISSING>,<MISSING>,<MISSING>,<MISSING>,<MISSING>
https://www.ymca.net,YMCA of Glendale,140 N Louise St,Glendale,CA,91206-4226,US,<MISSING>,Phone: 818-240-4130,<MISSING>,<MISSING>,<MISSING>,<MISSING>,<MISSING>
https://www.ymca.net,Pasadena YMCA,611 E. Sierra Madre Blvd,Sierra Madre,CA,91024,US,<MISSING>,Phone: 626-355-5261,<MISSING>,<MISSING>,<MISSING>,<MISSING>,<MISSING>
https://www.ymca.net,Cherokee Outdoor YMCA on Lake Allatoona,201 E Bells Ferry Rd,Woodstock,GA,30189-1430,US,<MISSING>,Phone: 770-345-9622,<MISSING>,<MISSING>,<MISSING>,<MISSING>,<MISSING>
https://www.ymca.net,Florence Family YMCA,1700 Rutherford Dr,Florence,SC,29505-3138,US,<MISSING>,Phone: 843-665-1234,<MISSING>,<MISSING>,<MISSING>,<MISSING>,<MISSING>
https://www.ymca.net,East Valley YMCA,5142 Tujunga Ave,North Hollywood,CA,91601-3742,US,<MISSING>,Phone: 818-763-5126,<MISSING>,<MISSING>,<MISSING>,<MISSING>,<MISSING>
https://www.ymca.net,Jeep Rogers Family YMCA,900 Lake Carolina Blvd,Columbia,SC,29229,US,<MISSING>,Phone: 803-451-8439,<MISSING>,<MISSING>,<MISSING>,<MISSING>,<MISSING>
https://www.ymca.net,Forsyth County Family YMCA,6050 Y Street,Cumming,GA,30040,US,<MISSING>,Phone: 770-888-2788,<MISSING>,<MISSING>,<MISSING>,<MISSING>,<MISSING>
https://www.ymca.net,YMCA of Burbank California,321 E Magnolia Blvd,Burbank,CA,91502-1132,US,<MISSING>,Phone: 818-845-8551,<MISSING>,<MISSING>,<MISSING>,<MISSING>,<MISSING>
https://www.ymca.net,West Valley Family YMCA,18810 Vanowen Street,Reseda,CA,91335-5298,US,<MISSING>,Phone: 818-774-2840,<MISSING>,<MISSING>,<MISSING>,<MISSING>,<MISSING>
https://www.ymca.net,Mid Valley Family YMCA,6901 Lennox Ave,Van Nuys,CA,91405-4093,US,<MISSING>,Phone: 818-989-3800,<MISSING>,<MISSING>,<MISSING>,<MISSING>,<MISSING>
https://www.ymca.net,Crescenta-Canada Family YMCA,1930 Foothill Blvd,La Canada Flintridge,CA,91011,US,<MISSING>,Phone: 818-790-0123,<MISSING>,<MISSING>,<MISSING>,<MISSING>,<MISSING>
https://www.ymca.net,YMCA of the Foothills,1930 Foothill Blvd,La Canada Flintridge,CA,91011-1933,US,<MISSING>,Phone: 818-790-0123,<MISSING>,<MISSING>,<MISSING>,<MISSING>,<MISSING>
https://www.ymca.net,Crescenta Valley Family YMCA,3931 Lowell Ave.,La Crescenta,CA,91214,US,<MISSING>,Phone: 818-790-0123,<MISSING>,<MISSING>,<MISSING>,<MISSING>,<MISSING>
https://www.ymca.net,G. Cecil Pruett Community Center Family YMCA,151 Waleska St,Canton,GA,30114,US,<MISSING>,Phone: 770-345-9622,<MISSING>,<MISSING>,<MISSING>,<MISSING>,<MISSING>
https://www.ymca.net,Rome-Floyd County YMCA,810 East 2nd Avenue,Rome,GA,30161,US,<MISSING>,Phone: 706-232-2468,<MISSING>,<MISSING>,<MISSING>,<MISSING>,<MISSING>
https://www.ymca.net,Verdugo Hills Branch YMCA,6840 Foothill Blvd,Tujunga,CA,91042-2711,US,<MISSING>,Phone: 818-352-3255,<MISSING>,<MISSING>,<MISSING>,<MISSING>,<MISSING>
https://www.ymca.net,Darlington Family YMCA,123 Exchange St,Darlington,SC,29532,US,<MISSING>,Phone: 843-398-0844,<MISSING>,<MISSING>,<MISSING>,<MISSING>,<MISSING>
https://www.ymca.net,Oxford YMCA,703 N. Lamar,Oxford,MS,38655,US,<MISSING>,Phone: 662-371-1500,<MISSING>,<MISSING>,<MISSING>,<MISSING>,<MISSING>
https://www.ymca.net,YMCA of the Upper Pee Dee,111 E Carolina Ave,Hartsville,SC,29550-4213,US,<MISSING>,Phone: 843-383-4547,<MISSING>,<MISSING>,<MISSING>,<MISSING>,<MISSING>
https://www.ymca.net,Hartsville Family YMCA,111 E Carolina Ave,Hartsville,SC,29550,US,<MISSING>,Phone: 843-383-4547,<MISSING>,<MISSING>,<MISSING>,<MISSING>,<MISSING>
https://www.ymca.net,Camping Services YMCA,5725 S Senator Hwy,Prescott,AZ,86303-7510,US,<MISSING>,Phone: 800-660-1385,<MISSING>,<MISSING>,<MISSING>,<MISSING>,<MISSING>
https://www.ymca.net,Camp Chalakee Branch YMCA,4380 Chalakee Rd,Guntersville,AL,35976-7706,US,<MISSING>,Phone: 256-571-2494,<MISSING>,<MISSING>,<MISSING>,<MISSING>,<MISSING>
https://www.ymca.net,YMCA of Hot Springs Arkansas Inc.,130 Werner St,Hot Springs,AR,71913-6443,US,<MISSING>,Phone: 501-623-8803,<MISSING>,<MISSING>,<MISSING>,<MISSING>,<MISSING>
https://www.ymca.net,Prescott YMCA of Yavapai County,750 Whipple St,Prescott,AZ,86301-1718,US,<MISSING>,Phone: 928-445-7221,<MISSING>,<MISSING>,<MISSING>,<MISSING>,<MISSING>
https://www.ymca.net,Preschool/Child Care Branch YMCA,120 Holmes Avenue,Huntsville,AL,35801,US,<MISSING>,Phone: 256-428-9622,<MISSING>,<MISSING>,<MISSING>,<MISSING>,<MISSING>
https://www.ymca.net,Southeast Branch YMCA,1000 Weatherly Rd SE,Huntsville,AL,35803-1145,US,<MISSING>,Phone: 256-883-9622,<MISSING>,<MISSING>,<MISSING>,<MISSING>,<MISSING>
https://www.ymca.net,Chester County Branch YMCA,"157 Columbia St,PO Box 1637",Chester,SC,29706-1298,US,<MISSING>,Phone: 803-581-9622,<MISSING>,<MISSING>,<MISSING>,<MISSING>,<MISSING>
https://www.ymca.net,Carolina Crossing YMCA,117 Carolina Crossing Dr,York,SC,29745,US,<MISSING>,Phone: 803-628-9622,<MISSING>,<MISSING>,<MISSING>,<MISSING>,<MISSING>
https://www.ymca.net,Downtown Branch YMCA,101 Church Street SW,Huntsville,AL,35801,US,<MISSING>,Phone: 256-319-9622,<MISSING>,<MISSING>,<MISSING>,<MISSING>,<MISSING>
https://www.ymca.net,YMCA of Metropolitan Huntsville AL,"120 Holmes Avenue,Suite 300",Huntsville,AL,35801,US,<MISSING>,Phone: 256-428-9622,<MISSING>,<MISSING>,<MISSING>,<MISSING>,<MISSING>
https://www.ymca.net,Chesterfield Family YMCA,344 East Boulevard,Chesterfield,SC,29709,US,<MISSING>,Phone: 843-623-9622,<MISSING>,<MISSING>,<MISSING>,<MISSING>,<MISSING>
https://www.ymca.net,Lancaster Branch YMCA,512 Hubbard Drive,Lancaster,SC,29720,US,<MISSING>,Phone: 803-313-9622,<MISSING>,<MISSING>,<MISSING>,<MISSING>,<MISSING>
https://www.ymca.net,Craig and Steven Hogan Family YMCA,130 Park Square Lane,Madison,AL,35758,US,<MISSING>,Phone: 256-705-9622,<MISSING>,<MISSING>,<MISSING>,<MISSING>,<MISSING>
https://www.ymca.net,YMCA of the Shoals,2121 Helton Drive,Florence,AL,35630-1448,US,<MISSING>,Phone: 256-246-9622,<MISSING>,<MISSING>,<MISSING>,<MISSING>,<MISSING>
https://www.ymca.net,North Georgia Family Branch YMCA,1735 Battlefield Parkway,Fort Oglethorpe,GA,30742,US,<MISSING>,Phone: 706-935-2226,<MISSING>,<MISSING>,<MISSING>,<MISSING>,<MISSING>
https://www.ymca.net,Upper Palmetto YMCA,151 S Oakland Ave,Rock Hill,SC,29730,US,<MISSING>,Phone: 803-324-9622,<MISSING>,<MISSING>,<MISSING>,<MISSING>,<MISSING>
https://www.ymca.net,Charlotte Avenue Branch YMCA,402 Charlotte Ave,Rock Hill,SC,29730-4955,US,<MISSING>,Phone: 803-329-9622,<MISSING>,<MISSING>,<MISSING>,<MISSING>,<MISSING>
https://www.ymca.net,YMCA Wellness Center,1735 Heckle Blvd Ste 122,Rock Hill,SC,29732-1885,US,<MISSING>,Phone: 803-366-9622,<MISSING>,<MISSING>,<MISSING>,<MISSING>,<MISSING>
https://www.ymca.net,Olive Branch Family YMCA,8555 Goodman Rd.,Olive Branch,MS,38654,US,<MISSING>,Phone: 662-890-9622,<MISSING>,<MISSING>,<MISSING>,<MISSING>,<MISSING>
https://www.ymca.net,Riverwalk YMCA,998 Riverwald Pkwy,Rock Hill,SC,29730,US,<MISSING>,Phone: 803-328-9622,<MISSING>,<MISSING>,<MISSING>,<MISSING>,<MISSING>
https://www.ymca.net,DeSoto County Child Care YMCA,"6373 N Quail Hollow Road,Suite 201",Memphis,TN,38120,US,<MISSING>,Phone: 901-766-7677,<MISSING>,<MISSING>,<MISSING>,<MISSING>,<MISSING>
https://www.ymca.net,Indian Land Branch YMCA,3000 World Reach Drive,Indian Land,SC,29707,US,<MISSING>,Phone: 803-324-9622,<MISSING>,<MISSING>,<MISSING>,<MISSING>,<MISSING>
https://www.ymca.net,Thomas Davis Family Branch YMCA,4727 Elvis Presley Blvd,Memphis,TN,38116-7769,US,<MISSING>,Phone: 901-398-2366,<MISSING>,<MISSING>,<MISSING>,<MISSING>,<MISSING>
https://www.ymca.net,Hamilton Branch YMCA,7430 Shallowford Rd,Chattanooga,TN,37421-2628,US,<MISSING>,Phone: 423-899-1721,<MISSING>,<MISSING>,<MISSING>,<MISSING>,<MISSING>
https://www.ymca.net,YMCA at Schilling Farms,1185 Schilling Blvd E,Collierville,TN,38017,US,<MISSING>,Phone: 901-850-9622,<MISSING>,<MISSING>,<MISSING>,<MISSING>,<MISSING>
https://www.ymca.net,Morrison Family YMCA at Ballantyne,9405 Bryant Farms Rd,Charlotte,NC,28277-0082,US,<MISSING>,Phone: 704-716-4600,<MISSING>,<MISSING>,<MISSING>,<MISSING>,<MISSING>
https://www.ymca.net,YMCA of Metropolitan Chattanooga,301 W. Sixth Street,Chattanooga,TN,37402-3112,US,<MISSING>,Phone: 423-265-8834,<MISSING>,<MISSING>,<MISSING>,<MISSING>,<MISSING>
https://www.ymca.net,Downtown Branch YMCA,301 W. Sixth Street,Chattanooga,TN,37402-3112,US,<MISSING>,Phone: 423-266-3766,<MISSING>,<MISSING>,<MISSING>,<MISSING>,<MISSING>
https://www.ymca.net,J.A. Henry Branch YMCA,301 W. 6th St,Chattanooga,TN,37402-5347,US,<MISSING>,Phone: 423-265-8834,<MISSING>,<MISSING>,<MISSING>,<MISSING>,<MISSING>
https://www.ymca.net,Health Innovations YMCA,"6373 N. Quail Hollow Road, Suite 201",Memphis,TN,38120,US,<MISSING>,Phone: 901-505-0977,<MISSING>,<MISSING>,<MISSING>,<MISSING>,<MISSING>
https://www.ymca.net,Ric Nuber YMCA,5885 Quince Rd,Memphis,TN,38119-7231,US,<MISSING>,Phone: 901-682-8025,<MISSING>,<MISSING>,<MISSING>,<MISSING>,<MISSING>
https://www.ymca.net,Sweeney YMCA Fitness Center,5959 Park Ave,Memphis,TN,38119-7769,US,<MISSING>,Phone: 901-765-3105,<MISSING>,<MISSING>,<MISSING>,<MISSING>,<MISSING>
https://www.ymca.net,YMCA of Memphis & The Mid-South,"6373 Quail Hollow Road,Suite 201",Memphis,TN,38120,US,<MISSING>,Phone: 901-766-7677,<MISSING>,<MISSING>,<MISSING>,<MISSING>,<MISSING>
https://www.ymca.net,YMCA Healthy Living Center at North River,4138 Hixson Pike,Chattanooga,TN,37415-3112,US,<MISSING>,Phone: 423-877-3517,<MISSING>,<MISSING>,<MISSING>,<MISSING>,<MISSING>
https://www.ymca.net,Y-CAP Branch YMCA,"4060 Park Ave.,PO BOX 111313",Memphis,TN,38111,US,<MISSING>,Phone: 901-746-9411,<MISSING>,<MISSING>,<MISSING>,<MISSING>,<MISSING>
https://www.ymca.net,Louis T. Fogelman Branch YMCA,245 Madison Ave,Memphis,TN,38103-2709,US,<MISSING>,Phone: 901-527-9622,<MISSING>,<MISSING>,<MISSING>,<MISSING>,<MISSING>
https://www.ymca.net,Church Health YMCA,"1350 Concourse Ave,Suite 241",Memphis,TN,38104,US,<MISSING>,Phone: 901-505-0910,<MISSING>,<MISSING>,<MISSING>,<MISSING>,<MISSING>
https://www.ymca.net,Cordova Family YMCA,7950 Club Center Cove,Cordova,TN,38016,US,<MISSING>,Phone: 901-755-2123,<MISSING>,<MISSING>,<MISSING>,<MISSING>,<MISSING>
https://www.ymca.net,Millington Family YMCA,7725 E Navy Rd,Millington,TN,38053,US,<MISSING>,Phone: 901-873-1434,<MISSING>,<MISSING>,<MISSING>,<MISSING>,<MISSING>
https://www.ymca.net,Shawnee Family YMCA,700 W Saratoga,Shawnee,OK,74804-2765,US,<MISSING>,Phone: 405-273-4386,<MISSING>,<MISSING>,<MISSING>,<MISSING>,<MISSING>
https://www.ymca.net,Midwest City YMCA,2817 N Woodcrest Dr,Midwest City,OK,73110-1540,US,<MISSING>,Phone: 405-733-9622,<MISSING>,<MISSING>,<MISSING>,<MISSING>,<MISSING>
https://www.ymca.net,Okmulgee County Family YMCA,106 W 13th St,Okmulgee,OK,74447-4958,US,<MISSING>,Phone: 918-756-6677,<MISSING>,<MISSING>,<MISSING>,<MISSING>,<MISSING>
https://www.ymca.net,Rankin YMCA,1220 S Rankin St,Edmond,OK,73034-4769,US,<MISSING>,Phone: 405-348-9622,<MISSING>,<MISSING>,<MISSING>,<MISSING>,<MISSING>
https://www.ymca.net,Mitch Park YMCA,2901 Marilyn Williams Dr,Edmond,OK,70003,US,<MISSING>,Phone: 405-330-4016,<MISSING>,<MISSING>,<MISSING>,<MISSING>,<MISSING>
https://www.ymca.net,Poole Family YMCA,2110 Avesboro Road,Garner,NC,27529,US,<MISSING>,Phone: 919-773-3621,<MISSING>,<MISSING>,<MISSING>,<MISSING>,<MISSING>
https://www.ymca.net,Kraft Family YMCA,8921 Holly Springs Road,Apex,NC,27539,US,<MISSING>,Phone: 919-657-9622,<MISSING>,<MISSING>,<MISSING>,<MISSING>,<MISSING>
https://www.ymca.net,Johnston County YMCA,"951 Heather Park Drive,Suite 101",Garner,NC,27529,US,<MISSING>,Phone: 919-773-3621,<MISSING>,<MISSING>,<MISSING>,<MISSING>,<MISSING>
https://www.ymca.net,Poyner YMCA,227 Fayetteville Street,Raleigh,NC,27601,US,<MISSING>,Phone: 919-719-9989,<MISSING>,<MISSING>,<MISSING>,<MISSING>,<MISSING>
https://www.ymca.net,Taylor Family YMCA,101 YMCA Drive,Cary,NC,27513-4871,US,<MISSING>,Phone: 919-469-9622,<MISSING>,<MISSING>,<MISSING>,<MISSING>,<MISSING>
https://www.ymca.net,John M. Alexander Family YMCA,1603 Hillsborough Street,Raleigh,NC,27605-1638,US,<MISSING>,Phone: 919-832-9622,<MISSING>,<MISSING>,<MISSING>,<MISSING>,<MISSING>
https://www.ymca.net,YMCA of the Triangle Area,"801 Corporate Center Drive,Suite 200",Raleigh,NC,27607-5073,US,<MISSING>,Phone: 919-719-9622,<MISSING>,<MISSING>,<MISSING>,<MISSING>,<MISSING>
https://www.ymca.net,Northwest Cary YMCA,6903 Carpenter Fire Station Road,Cary,NC,27519,US,<MISSING>,Phone: 919-719-9622,<MISSING>,<MISSING>,<MISSING>,<MISSING>,<MISSING>
https://www.ymca.net,Guthrie YMCA,114 East Oklahoma Avenue,Guthrie,OK,73044,US,<MISSING>,Phone: 405-282-8206,<MISSING>,<MISSING>,<MISSING>,<MISSING>,<MISSING>
https://www.ymca.net,Franklin Family YMCA,501 S Royal Oaks Blvd,Franklin,TN,37064-8213,US,<MISSING>,Phone: 615-591-0322,<MISSING>,<MISSING>,<MISSING>,<MISSING>,<MISSING>
https://www.ymca.net,A.E. Finley YMCA,9216 Baileywick Road,Raleigh,NC,27615-1907,US,<MISSING>,Phone: 919-848-9622,<MISSING>,<MISSING>,<MISSING>,<MISSING>,<MISSING>
https://www.ymca.net,Chapel Hill-Carrboro YMCA,980 Martin Luther King Jr. Blvd,Chapel Hill,NC,27514-2601,US,<MISSING>,Phone: 919-442-9622,<MISSING>,<MISSING>,<MISSING>,<MISSING>,<MISSING>
https://www.ymca.net,Hope Valley Farms YMCA,4818 S Roxboro Street,Durham,NC,27713,US,<MISSING>,Phone: 919-667-9622,<MISSING>,<MISSING>,<MISSING>,<MISSING>,<MISSING>
https://www.ymca.net,Banks D Kerr Family YMCA,2500 Wakefield Pines Drive,Raleigh,NC,27614-8812,US,<MISSING>,Phone: 919-562-9622,<MISSING>,<MISSING>,<MISSING>,<MISSING>,<MISSING>
https://www.ymca.net,Daily Family YMCA of Bixby,7910 E 134th St S,Bixby,OK,74008-3180,US,<MISSING>,Phone: 918-369-9622,<MISSING>,<MISSING>,<MISSING>,<MISSING>,<MISSING>
https://www.ymca.net,North Rutherford YMCA Ronald Reagan Family Center,2001 Motlow College Blvd.,Smyrna,TN,37167,US,<MISSING>,Phone: 615-220-9622,<MISSING>,<MISSING>,<MISSING>,<MISSING>,<MISSING>
https://www.ymca.net,Lakewood YMCA,2119 Chapel Hill Rd,Durham,NC,27707,US,<MISSING>,Phone: 919-493-4502,<MISSING>,<MISSING>,<MISSING>,<MISSING>,<MISSING>
https://www.ymca.net,Downtown Durham YMCA Wellness Center-American Tobacco Historic District,"410 Blackwell Street,Suite 20",Durham,NC,27710,US,<MISSING>,Phone: 919-956-9602,<MISSING>,<MISSING>,<MISSING>,<MISSING>,<MISSING>
https://www.ymca.net,Brentwood Family YMCA,8207 Concord Rd,Brentwood,TN,37027-6725,US,<MISSING>,Phone: 615-373-9622,<MISSING>,<MISSING>,<MISSING>,<MISSING>,<MISSING>
https://www.ymca.net,Downtown Durham YMCA,218 W Morgan St,Durham,NC,27701-2117,US,<MISSING>,Phone: 919-667-9622,<MISSING>,<MISSING>,<MISSING>,<MISSING>,<MISSING>
https://www.ymca.net,YMCA Camp Kanata,13524 Camp Kanata Road,Wake Forest,NC,27587-8078,US,<MISSING>,Phone: 919-556-2661,<MISSING>,<MISSING>,<MISSING>,<MISSING>,<MISSING>
https://www.ymca.net,Maryland Farms YMCA Carol & Roy Elam Family Ctr,5101 Maryland Way,Brentwood,TN,37027-7509,US,<MISSING>,Phone: 615-373-2900,<MISSING>,<MISSING>,<MISSING>,<MISSING>,<MISSING>
https://www.ymca.net,R.C. Dickenson Family YMCA,8501 S Garnett,Broken Arrow,OK,74012,US,<MISSING>,Phone: 918-872-9622,<MISSING>,<MISSING>,<MISSING>,<MISSING>,<MISSING>
https://www.ymca.net,Bellevue Family YMCA &  Fifty Forward J.L. Turner Lifelong Ctr,8101 Highway 100,Nashville,TN,37221,US,<MISSING>,Phone: 615-646-9622,<MISSING>,<MISSING>,<MISSING>,<MISSING>,<MISSING>
https://www.ymca.net,Dickson County Family YMCA,225 Henslee Drive,Dickson,TN,37055,US,<MISSING>,Phone: 615-326-7070,<MISSING>,<MISSING>,<MISSING>,<MISSING>,<MISSING>
https://www.ymca.net,Westside Branch YMCA,5400 S Olympia Ave,Tulsa,OK,74107-9431,US,<MISSING>,Phone: 918-446-1424,<MISSING>,<MISSING>,<MISSING>,<MISSING>,<MISSING>
https://www.ymca.net,Joe C. Davis YMCA Outdoor Center,3088 Smith Springs Rd,Nashville,TN,37013,US,<MISSING>,Phone: 615-360-2267,<MISSING>,<MISSING>,<MISSING>,<MISSING>,<MISSING>
https://www.ymca.net,YMCA Camp Takatoka,5400 S Olympia Ave,Tulsa,OK,74107-6006,US,<MISSING>,Phone: 918-446-1424,<MISSING>,<MISSING>,<MISSING>,<MISSING>,<MISSING>
https://www.ymca.net,Tandy Family YMCA,5005 S Darlington Ave,Tulsa,OK,74135-6998,US,<MISSING>,Phone: 918-280-9622,<MISSING>,<MISSING>,<MISSING>,<MISSING>,<MISSING>
https://www.ymca.net,Bob Temple North Side Family YMCA,7609 Maynardville Pike,Knoxville,TN,37938-3724,US,<MISSING>,Phone: 865-922-9622,<MISSING>,<MISSING>,<MISSING>,<MISSING>,<MISSING>
https://www.ymca.net,YMCA Pryme Time Branch,7609 Maynardville Highway,Knoxville,TN,37938,US,<MISSING>,Phone: 865-546-0600,<MISSING>,<MISSING>,<MISSING>,<MISSING>,<MISSING>
https://www.ymca.net,Green Hills Family  YMCA,4041 Hillsboro Cir,Nashville,TN,37215-2708,US,<MISSING>,Phone: 615-297-6529,<MISSING>,<MISSING>,<MISSING>,<MISSING>,<MISSING>
https://www.ymca.net,Stillwater YMCA,204 S Duck St,Stillwater,OK,74074-3216,US,<MISSING>,Phone: 405-372-5833,<MISSING>,<MISSING>,<MISSING>,<MISSING>,<MISSING>
https://www.ymca.net,Unicoi County Family YMCA,"601 Love Street,PO Box 60",Erwin,TN,37650-1735,US,<MISSING>,Phone: 423-743-3361,<MISSING>,<MISSING>,<MISSING>,<MISSING>,<MISSING>
https://www.ymca.net,YMCA of Greater Tulsa,"420 S Main St., Ste 200",Tulsa,OK,74103-3689,US,<MISSING>,Phone: 918-747-9622,<MISSING>,<MISSING>,<MISSING>,<MISSING>,<MISSING>
https://www.ymca.net,Downtown Branch YMCA,418 S. Main St.,Tulsa,OK,74101,US,<MISSING>,Phone: 918-583-9622,<MISSING>,<MISSING>,<MISSING>,<MISSING>,<MISSING>
https://www.ymca.net,Putnam County Family YMCA,235 Raider Drive,Cookeville,TN,38501,US,<MISSING>,Phone: 931-528-1133,<MISSING>,<MISSING>,<MISSING>,<MISSING>,<MISSING>
https://www.ymca.net,Downtown District YMCA,1000 Church St,Nashville,TN,37203-3420,US,<MISSING>,Phone: 615-254-0631,<MISSING>,<MISSING>,<MISSING>,<MISSING>,<MISSING>
https://www.ymca.net,YMCA of Middle Tennessee,1000 Church St,Nashville,TN,37203-3418,US,<MISSING>,Phone: 615-259-9622,<MISSING>,<MISSING>,<MISSING>,<MISSING>,<MISSING>
https://www.ymca.net,YMCA of Greene County,404 Y St,Greeneville,TN,37745-6257,US,<MISSING>,Phone: 423-639-6107,<MISSING>,<MISSING>,<MISSING>,<MISSING>,<MISSING>
https://www.ymca.net,Donelson-Hermitage Family YMCA,3001 Lebanon Pike,Nashville,TN,37214-2217,US,<MISSING>,Phone: 615-889-2632,<MISSING>,<MISSING>,<MISSING>,<MISSING>,<MISSING>
https://www.ymca.net,YMCA Youth Services,1021 Russell St,Nashville,TN,37206-3424,US,<MISSING>,Phone: 615-226-5577,<MISSING>,<MISSING>,<MISSING>,<MISSING>,<MISSING>
https://www.ymca.net,W.L. Hutcherson Branch YMCA,1120 E Pine St,Tulsa,OK,74106-4959,US,<MISSING>,Phone: 918-382-9622,<MISSING>,<MISSING>,<MISSING>,<MISSING>,<MISSING>
https://www.ymca.net,Northwest Family  YMCA,3700 Ashland City Hwy,Nashville,TN,37218-2614,US,<MISSING>,Phone: 615-242-6559,<MISSING>,<MISSING>,<MISSING>,<MISSING>,<MISSING>
https://www.ymca.net,Margaret Maddox Family YMCA-East Center,2624 Gallatin Rd,Nashville,TN,37216-3794,US,<MISSING>,Phone: 615-228-5525,<MISSING>,<MISSING>,<MISSING>,<MISSING>,<MISSING>
https://www.ymca.net,Owasso Family YMCA,8300 N Owasso Expy,Owasso,OK,74055-2621,US,<MISSING>,Phone: 918-272-9622,<MISSING>,<MISSING>,<MISSING>,<MISSING>,<MISSING>
https://www.ymca.net,Noble County Family YMCA,107 N 7th St,Perry,OK,73077-6401,US,<MISSING>,Phone: 580-336-4411,<MISSING>,<MISSING>,<MISSING>,<MISSING>,<MISSING>
https://www.ymca.net,Sumner County Family YMCA,102 Bluegrass Commons Blvd,Hendersonville,TN,37075-2706,US,<MISSING>,Phone: 615-826-9622,<MISSING>,<MISSING>,<MISSING>,<MISSING>,<MISSING>
https://www.ymca.net,Henderson Family YMCA,380 Ruin Creek Rd,Henderson,NC,27536-6698,US,<MISSING>,Phone: 252-438-2144,<MISSING>,<MISSING>,<MISSING>,<MISSING>,<MISSING>
https://www.ymca.net,"The Denny Price Family YMCA of Enid, Oklahoma",415 W Cherokee Ave,Enid,OK,73701-5502,US,<MISSING>,Phone: 580-237-4645,<MISSING>,<MISSING>,<MISSING>,<MISSING>,<MISSING>
https://www.ymca.net,Robertson County Family YMCA,3332 Tom Austin Hwy,Springfield,TN,37172-4517,US,<MISSING>,Phone: 615-382-9622,<MISSING>,<MISSING>,<MISSING>,<MISSING>,<MISSING>
https://www.ymca.net,Greater Kingsport Family YMCA,1840 Meadowview Pkwy,Kingsport,TN,37660,US,<MISSING>,Phone: 423-247-9622,<MISSING>,<MISSING>,<MISSING>,<MISSING>,<MISSING>
https://www.ymca.net,Clarksville Area YMCA-Kimbrough Family Center,260 Hillcrest Dr,Clarksville,TN,37043-6520,US,<MISSING>,Phone: 931-647-2376,<MISSING>,<MISSING>,<MISSING>,<MISSING>,<MISSING>
https://www.ymca.net,Grand Lake Family YMCA,821 E. 11th St.,Grove,OK,74344,US,<MISSING>,Phone: 918-786-5774,<MISSING>,<MISSING>,<MISSING>,<MISSING>,<MISSING>
https://www.ymca.net,Danville YMCA,215 Riverside Drive,Danville,VA,24540,US,<MISSING>,Phone: 434-792-0621,<MISSING>,<MISSING>,<MISSING>,<MISSING>,<MISSING>
https://www.ymca.net,YMCA of Bristol,400 Martin Luther King Jr. Blvd.,Bristol,TN,37620-2360,US,<MISSING>,Phone: 423-968-3133,<MISSING>,<MISSING>,<MISSING>,<MISSING>,<MISSING>
https://www.ymca.net,Ozark Mountain Family YMCA,175 Industial Park Dr,Hollister,MO,65672,US,<MISSING>,Phone: 417-334-6949,<MISSING>,<MISSING>,<MISSING>,<MISSING>,<MISSING>
https://www.ymca.net,Mecklenburg County YMCA,1567 Noblin Farm Rd,Clarksville,VA,23927-1753,US,<MISSING>,Phone: 434-374-5858,<MISSING>,<MISSING>,<MISSING>,<MISSING>,<MISSING>
https://www.ymca.net,Fort Campbell Armed Services YMCA,3068 Reed Avenue,Fort Campbell,KY,42223,US,<MISSING>,Phone: 270-798-7422,<MISSING>,<MISSING>,<MISSING>,<MISSING>,<MISSING>
https://www.ymca.net,Cassville YMCA,408 MO-248,Cassville,MO,65625,US,<MISSING>,Phone: 417-846-1535,<MISSING>,<MISSING>,<MISSING>,<MISSING>,<MISSING>
https://www.ymca.net,Martinsville & Henry County Family YMCA,3 Starling Ave,Martinsville,VA,24112-2921,US,<MISSING>,Phone: 276-632-6427,<MISSING>,<MISSING>,<MISSING>,<MISSING>,<MISSING>
https://www.ymca.net,YMCA of Ponca City Oklahoma,1604 West Grand,Ponca City,OK,74601,US,<MISSING>,Phone: 580-765-5417,<MISSING>,<MISSING>,<MISSING>,<MISSING>,<MISSING>
https://www.ymca.net,YMCA of South Boston and Halifax County Inc.,650 Hamilton Blvd,South Boston,VA,24592-5210,US,<MISSING>,Phone: 434-572-8909,<MISSING>,<MISSING>,<MISSING>,<MISSING>,<MISSING>
https://www.ymca.net,Family YMCA of Bartlesville,101 N Osage Ave,Bartlesville,OK,74003-2713,US,<MISSING>,Phone: 918-336-0713,<MISSING>,<MISSING>,<MISSING>,<MISSING>,<MISSING>
https://www.ymca.net,Tri-State Family YMCA,4701 Chouteau Dr,Neosho,MO,64850-9123,US,<MISSING>,Phone: 417-455-9999,<MISSING>,<MISSING>,<MISSING>,<MISSING>,<MISSING>
https://www.ymca.net,Hopkinsville/Christian County Family YMCA,7805 Eagle Way,Hopkinsville,KY,42240-0549,US,<MISSING>,Phone: 270-887-5382,<MISSING>,<MISSING>,<MISSING>,<MISSING>,<MISSING>
https://www.ymca.net,Willow Springs Branch YMCA,405 W Main St,Willow Springs,MO,65793-1134,US,<MISSING>,Phone: 417-469-5101,<MISSING>,<MISSING>,<MISSING>,<MISSING>,<MISSING>
https://www.ymca.net,Franklin County Family YMCA,"235 Technology Dr,PO Box 720",Rocky Mount,VA,24151-0720,US,<MISSING>,Phone: 540-489-9622,<MISSING>,<MISSING>,<MISSING>,<MISSING>,<MISSING>
https://www.ymca.net,"YMCA of Pulaski County, Inc.",615 Oakhurst Ave,Pulaski,VA,24301-2817,US,<MISSING>,Phone: 540-980-3671,<MISSING>,<MISSING>,<MISSING>,<MISSING>,<MISSING>
https://www.ymca.net,Altavista Area YMCA,718 7th St,Altavista,VA,24517-1702,US,<MISSING>,Phone: 434-369-9622,<MISSING>,<MISSING>,<MISSING>,<MISSING>,<MISSING>
https://www.ymca.net,The Four Seasons YMCA,106 Gratton Rd,Tazewell,VA,24651,US,<MISSING>,Phone: 276-979-0280,<MISSING>,<MISSING>,<MISSING>,<MISSING>,<MISSING>
https://www.ymca.net,YMCA at Virginia Tech,403 Washington Street SW,Blacksburg,VA,24060-4747,US,<MISSING>,Phone: 540-961-9622,<MISSING>,<MISSING>,<MISSING>,<MISSING>,<MISSING>
https://www.ymca.net,YMCA of Virginia's Blue Ridge,PO Box 2130,Roanoke,VA,24009,US,<MISSING>,Phone: 540-527-9622,<MISSING>,<MISSING>,<MISSING>,<MISSING>,<MISSING>
https://www.ymca.net,Kirk Family YMCA,520 Church Ave SW,Roanoke,VA,24016,US,<MISSING>,Phone: 540-342-9622,<MISSING>,<MISSING>,<MISSING>,<MISSING>,<MISSING>
https://www.ymca.net,YMCA of Buchanan County,"1059 Golden Wave Drive,PO Box 1450",Grundy,VA,24614-1450,US,<MISSING>,Phone: 276-935-8871,<MISSING>,<MISSING>,<MISSING>,<MISSING>,<MISSING>
https://www.ymca.net,Gainsboro Family YMCA,"108 Orange Ave., NW",Roanoke,VA,24016,US,<MISSING>,Phone: 540-344-9622,<MISSING>,<MISSING>,<MISSING>,<MISSING>,<MISSING>
https://www.ymca.net,San Francisco-Camp Jones Gulch YMCA,11000 Pescadero Rd,La Honda,CA,94020-9711,US,<MISSING>,Phone: 650-747-1200,<MISSING>,<MISSING>,<MISSING>,<MISSING>,<MISSING>
https://www.ymca.net,Salem Family YMCA,1126 Kime Ln,Salem,VA,24153-5301,US,<MISSING>,Phone: 540-387-9622,<MISSING>,<MISSING>,<MISSING>,<MISSING>,<MISSING>
https://www.ymca.net,Southside Virginia Family YMCA,580 Commerce Road,Farmville,VA,23901,US,<MISSING>,Phone: 434-392-3456,<MISSING>,<MISSING>,<MISSING>,<MISSING>,<MISSING>
https://www.ymca.net,Bedford Area Family YMCA,"PO Box 1026,1111 Turnpike Rd.",Bedford,VA,24523-1026,US,<MISSING>,Phone: 540-586-3483,<MISSING>,<MISSING>,<MISSING>,<MISSING>,<MISSING>
https://www.ymca.net,YMCA of Central Virginia,1309 Church Street,Lynchburg,VA,24504,US,<MISSING>,Phone: 434-616-4590,<MISSING>,<MISSING>,<MISSING>,<MISSING>,<MISSING>
https://www.ymca.net,Jamerson Family YMCA,801 Wyndhurst Dr,Lynchburg,VA,24502-2550,US,<MISSING>,Phone: 434-582-1900,<MISSING>,<MISSING>,<MISSING>,<MISSING>,<MISSING>
https://www.ymca.net,Virginia YMCA,PO Box 10365,Lynchburg,VA,24506-0365,US,<MISSING>,Phone: 434-385-9117,<MISSING>,<MISSING>,<MISSING>,<MISSING>,<MISSING>
https://www.ymca.net,YMCA Express,3408 Old Forest Road,Lynchburg,VA,24501,US,<MISSING>,Phone: 434-455-5996,<MISSING>,<MISSING>,<MISSING>,<MISSING>,<MISSING>
https://www.ymca.net,Child Care and Outreach Branch YMCA,1316 Church St,Lynchburg,VA,24504,US,<MISSING>,Phone: 434-847-8750,<MISSING>,<MISSING>,<MISSING>,<MISSING>,<MISSING>
https://www.ymca.net,Downtown YMCA,1315 Church St,Lynchburg,VA,24504,US,<MISSING>,Phone: 434-847-5597,<MISSING>,<MISSING>,<MISSING>,<MISSING>,<MISSING>
https://www.ymca.net,Botetourt Family YMCA,115 Shenandoah Ave,Daleville,VA,24083,US,<MISSING>,Phone: 540-966-9622,<MISSING>,<MISSING>,<MISSING>,<MISSING>,<MISSING>
https://www.ymca.net,Pikeville Area Family YMCA,424 Bob Amos Dr,Pikeville,KY,41501-2035,US,<MISSING>,Phone: 606-433-9622,<MISSING>,<MISSING>,<MISSING>,<MISSING>,<MISSING>
https://www.ymca.net,Peninsula Family YMCA,1877 S Grant St,San Mateo,CA,94402-2647,US,<MISSING>,Phone: 650-286-9622,<MISSING>,<MISSING>,<MISSING>,<MISSING>,<MISSING>
https://www.ymca.net,Camp Hyde Branch YMCA,26201 W 71st St,Viola,KS,67149-9517,US,<MISSING>,Phone: 620-545-7290,<MISSING>,<MISSING>,<MISSING>,<MISSING>,<MISSING>
https://www.ymca.net,South Branch YMCA,3405 S Meridian Ave,Wichita,KS,67217-2151,US,<MISSING>,Phone: 316-942-5511,<MISSING>,<MISSING>,<MISSING>,<MISSING>,<MISSING>
https://www.ymca.net,Andover Branch YMCA,1115 East US Highway 54,Andover,KS,67002,US,<MISSING>,Phone: 316-733-9622,<MISSING>,<MISSING>,<MISSING>,<MISSING>,<MISSING>
https://www.ymca.net,East Branch YMCA,9333 E Douglas Ave,Wichita,KS,67207-1203,US,<MISSING>,Phone: 316-685-2251,<MISSING>,<MISSING>,<MISSING>,<MISSING>,<MISSING>
https://www.ymca.net,Central Branch YMCA,402 N Market St,Wichita,KS,67202-2012,US,<MISSING>,Phone: 316-264-9374,<MISSING>,<MISSING>,<MISSING>,<MISSING>,<MISSING>
https://www.ymca.net,Child Care Branch YMCA,402 N Market St,Wichita,KS,67202-2012,US,<MISSING>,Phone: 316-264-1610,<MISSING>,<MISSING>,<MISSING>,<MISSING>,<MISSING>
https://www.ymca.net,Community Development Branch YMCA,402 N Market St,Wichita,KS,67202-2012,US,<MISSING>,Phone: 316-264-4066,<MISSING>,<MISSING>,<MISSING>,<MISSING>,<MISSING>
https://www.ymca.net,YMCA of Wichita Kansas,402 N Market,Wichita,KS,67202-2012,US,<MISSING>,Phone: 316-219-9622,<MISSING>,<MISSING>,<MISSING>,<MISSING>,<MISSING>
https://www.ymca.net,West Branch YMCA,6940 Newell St,Wichita,KS,67212-3379,US,<MISSING>,Phone: 316-942-2271,<MISSING>,<MISSING>,<MISSING>,<MISSING>,<MISSING>
https://www.ymca.net,Northwest Branch YMCA,13838 W 21st St N,Wichita,KS,67235,US,<MISSING>,Phone: 316-260-9622,<MISSING>,<MISSING>,<MISSING>,<MISSING>,<MISSING>
https://www.ymca.net,Stonestown Family Branch YMCA,333 Eucalyptus Dr,San Francisco,CA,94132-1526,US,<MISSING>,Phone: 415-242-7101,<MISSING>,<MISSING>,<MISSING>,<MISSING>,<MISSING>
https://www.ymca.net,Bayview Hunter's Point YMCA,1601 Lane St,San Francisco,CA,94124-2732,US,<MISSING>,Phone: 415-822-7728,<MISSING>,<MISSING>,<MISSING>,<MISSING>,<MISSING>
https://www.ymca.net,Mission Branch YMCA,4080 Mission St,San Francisco,CA,94112-1090,US,<MISSING>,Phone: 415-586-6900,<MISSING>,<MISSING>,<MISSING>,<MISSING>,<MISSING>
https://www.ymca.net,Telford Community Center YMCA,1100 E Main St,Richmond,KY,40475-2028,US,<MISSING>,Phone: 859-623-9356,<MISSING>,<MISSING>,<MISSING>,<MISSING>,<MISSING>
https://www.ymca.net,North Branch YMCA,3330 N Woodlawn St,Wichita,KS,67220-2223,US,<MISSING>,Phone: 316-858-9622,<MISSING>,<MISSING>,<MISSING>,<MISSING>,<MISSING>
https://www.ymca.net,Alleghany Highlands YMCA,101 YMCA Way,Covington,VA,24426,US,<MISSING>,Phone: 540-962-9622,<MISSING>,<MISSING>,<MISSING>,<MISSING>,<MISSING>
https://www.ymca.net,Rockbridge Area YMCA,"790 N Lee Hwy,College Square Shopping Center",Lexington,VA,24450,US,<MISSING>,Phone: 540-464-9622,<MISSING>,<MISSING>,<MISSING>,<MISSING>,<MISSING>
https://www.ymca.net,"YMCA of Southern West Virginia, Inc.",121 East Main Street,Beckley,WV,25801-4705,US,<MISSING>,Phone: 304-252-0715,<MISSING>,<MISSING>,<MISSING>,<MISSING>,<MISSING>
https://www.ymca.net,Richmond District Branch YMCA,360 18th Ave,San Francisco,CA,94121-2317,US,<MISSING>,Phone: 415-666-9622,<MISSING>,<MISSING>,<MISSING>,<MISSING>,<MISSING>
https://www.ymca.net,Shih Yu - Lang Central YMCA,246 Eddy Street,San Francisco,CA,94102-3706,US,<MISSING>,Phone: 415-292-2316,<MISSING>,<MISSING>,<MISSING>,<MISSING>,<MISSING>
https://www.ymca.net,Urban Services YMCA,"1426 Fillmore Street,Suite 204",San Francisco,CA,94115-3709,US,<MISSING>,Phone: 415-561-0631,<MISSING>,<MISSING>,<MISSING>,<MISSING>,<MISSING>
https://www.ymca.net,Buchanan District Branch YMCA,1530 Buchanan St,San Francisco,CA,94115-3709,US,<MISSING>,Phone: 415-931-9622,<MISSING>,<MISSING>,<MISSING>,<MISSING>,<MISSING>
https://www.ymca.net,Embarcadero Branch YMCA,169 Steuart St,San Francisco,CA,94105-1293,US,<MISSING>,Phone: 415-957-9622,<MISSING>,<MISSING>,<MISSING>,<MISSING>,<MISSING>
https://www.ymca.net,Chinatown Branch YMCA,855 Sacramento St,San Francisco,CA,94108-2116,US,<MISSING>,Phone: 415-576-9622,<MISSING>,<MISSING>,<MISSING>,<MISSING>,<MISSING>
https://www.ymca.net,YMCA of San Francisco,"50 California St., Ste. 650",San Francisco,CA,94111-3937,US,<MISSING>,Phone: 415-777-9622,<MISSING>,<MISSING>,<MISSING>,<MISSING>,<MISSING>
https://www.ymca.net,Presidio Community YMCA,63 Funston Ave.,San Francisco,CA,94129-0911,US,<MISSING>,Phone: 415-447-9622,<MISSING>,<MISSING>,<MISSING>,<MISSING>,<MISSING>
https://www.ymca.net,YMCA of the East Bay,"Association Office,2330 Broadway",Oakland,CA,94612,US,<MISSING>,Phone: 510-451-8039,<MISSING>,<MISSING>,<MISSING>,<MISSING>,<MISSING>
https://www.ymca.net,Oakland YMCA,2350 Broadway,Oakland,CA,94612-2415,US,<MISSING>,Phone: 510-451-9622,<MISSING>,<MISSING>,<MISSING>,<MISSING>,<MISSING>
https://www.ymca.net,El Dorado Branch YMCA,300 N Main St,El Dorado,KS,67042-2020,US,<MISSING>,Phone: 316-320-9622,<MISSING>,<MISSING>,<MISSING>,<MISSING>,<MISSING>
https://www.ymca.net,Pt. Bonita Outdoor Branch YMCA,"981 Fort Barry, GGNRA",Sausalito,CA,94965,US,<MISSING>,Phone: 415-331-9622,<MISSING>,<MISSING>,<MISSING>,<MISSING>,<MISSING>
https://www.ymca.net,Downtown Berkeley Branch YMCA,2001 Allston Way,Berkeley,CA,94704-1417,US,<MISSING>,Phone: 510-848-9622,<MISSING>,<MISSING>,<MISSING>,<MISSING>,<MISSING>
https://www.ymca.net,YMCA-PG&E Teen Center,2111 Martin Luther King Jr. Way,Berkeley,CA,94704,US,<MISSING>,Phone: 510-486-4813,<MISSING>,<MISSING>,<MISSING>,<MISSING>,<MISSING>
https://www.ymca.net,Jessamine County Branch YMCA,220 E Maple St,Nicholasville,KY,40356-1204,US,<MISSING>,Phone: 859-885-5013,<MISSING>,<MISSING>,<MISSING>,<MISSING>,<MISSING>
https://www.ymca.net,Albany Branch YMCA,921 Kains Ave,Albany,CA,94706-2003,US,<MISSING>,Phone: 510-525-1130,<MISSING>,<MISSING>,<MISSING>,<MISSING>,<MISSING>
https://www.ymca.net,Pleasant Hill YMCA,350 Civic Drive,Pleasant Hill,CA,94523-1921,US,<MISSING>,Phone: 925-687-8900,<MISSING>,<MISSING>,<MISSING>,<MISSING>,<MISSING>
https://www.ymca.net,Beaumont Centre Family YMCA,3251 Beaumont Centre Circle,Lexington,KY,40513,US,<MISSING>,Phone: 859-219-9622,<MISSING>,<MISSING>,<MISSING>,<MISSING>,<MISSING>
https://www.ymca.net,Marin Branch YMCA,1500 Los Gamos Dr,San Rafael,CA,94903-1841,US,<MISSING>,Phone: 415-492-9622,<MISSING>,<MISSING>,<MISSING>,<MISSING>,<MISSING>
https://www.ymca.net,Newton YMCA,701 E. Wheatridge Drive,Newton,KS,67114,US,<MISSING>,Phone: 316-219-9622,<MISSING>,<MISSING>,<MISSING>,<MISSING>,<MISSING>
https://www.ymca.net,YMCA of San Joaquin County,"2105 W March Lane, #1",Stockton,CA,95207,US,<MISSING>,Phone: 209-472-9622,<MISSING>,<MISSING>,<MISSING>,<MISSING>,<MISSING>
https://www.ymca.net,Whitaker Family YMCA at Hamburg Place,2681 Old Rosebud Road,Lexington,KY,40509,US,<MISSING>,Phone: 859-543-9622,<MISSING>,<MISSING>,<MISSING>,<MISSING>,<MISSING>
https://www.ymca.net,YMCA of Central Kentucky,381 West Loudon Avenue,Lexington,KY,40508-1409,US,<MISSING>,Phone: 859-255-9622,<MISSING>,<MISSING>,<MISSING>,<MISSING>,<MISSING>
https://www.ymca.net,High Street Branch YMCA,239 E High St,Lexington,KY,40507-1409,US,<MISSING>,Phone: 859-254-9622,<MISSING>,<MISSING>,<MISSING>,<MISSING>,<MISSING>
https://www.ymca.net,North Lexington Family YMCA,381 W Loudon Ave,Lexington,KY,40508,US,<MISSING>,Phone: 859-258-9622,<MISSING>,<MISSING>,<MISSING>,<MISSING>,<MISSING>
https://www.ymca.net,YMCA of Hutchinson and Reno County,716 E 13th Ave,Hutchinson,KS,67501-5896,US,<MISSING>,Phone: 620-662-1203,<MISSING>,<MISSING>,<MISSING>,<MISSING>,<MISSING>
https://www.ymca.net,Scott County Branch YMCA,160 East Main St,Georgetown,KY,40324-0882,US,<MISSING>,Phone: 502-863-4841,<MISSING>,<MISSING>,<MISSING>,<MISSING>,<MISSING>
https://www.ymca.net,Paris-Bourbon County YMCA,917 Main Street,Paris,KY,40361-0290,US,<MISSING>,Phone: 859-987-1395,<MISSING>,<MISSING>,<MISSING>,<MISSING>,<MISSING>
https://www.ymca.net,YMCA of Kanawha Inc.,100 YMCA Drive,Charleston,WV,25311,US,<MISSING>,Phone: 304-340-3527,<MISSING>,<MISSING>,<MISSING>,<MISSING>,<MISSING>
https://www.ymca.net,McPherson Family YMCA,"220 N Walnut St,PO Box 1066",McPherson,KS,67460-1066,US,<MISSING>,Phone: 620-241-0363,<MISSING>,<MISSING>,<MISSING>,<MISSING>,<MISSING>
https://www.ymca.net,Camp Wood YMCA,1101 Camp Wood Road,Elmdale,KS,66850-9801,US,<MISSING>,Phone: 620-273-8641,<MISSING>,<MISSING>,<MISSING>,<MISSING>,<MISSING>
https://www.ymca.net,Monroe County Center YMCA,9514 Caring Way,Columbia,IL,62236,US,<MISSING>,Phone: 618-281-9622,<MISSING>,<MISSING>,<MISSING>,<MISSING>,<MISSING>
https://www.ymca.net,YMCA of Huntington West Virginia,935 10th Ave,Huntington,WV,25701-3398,US,<MISSING>,Phone: 304-525-8127,<MISSING>,<MISSING>,<MISSING>,<MISSING>,<MISSING>
https://www.ymca.net,Sonoma County Family YMCA,1111 College Ave,Santa Rosa,CA,95404-3905,US,<MISSING>,Phone: 707-545-9622,<MISSING>,<MISSING>,<MISSING>,<MISSING>,<MISSING>
https://www.ymca.net,Tri-County YMCA Inc.,"200 Carls Ln,PO Box 737",Scott Depot,WV,25560-0737,US,<MISSING>,Phone: 304-757-0016,<MISSING>,<MISSING>,<MISSING>,<MISSING>,<MISSING>
https://www.ymca.net,Ashland Area YMCA,3232 Megan Neyer Way,Ashland,KY,41102-5454,US,<MISSING>,Phone: 606-324-6191,<MISSING>,<MISSING>,<MISSING>,<MISSING>,<MISSING>
https://www.ymca.net,South County Branch YMCA,12736 Southfork Road,St. Louis,MO,63128-3262,US,<MISSING>,Phone: 314-849-9622,<MISSING>,<MISSING>,<MISSING>,<MISSING>,<MISSING>
https://www.ymca.net,Downtown Belleville Center YMCA,200 South Illinois Street,Belleville,IL,62220-2132,US,<MISSING>,Phone: 618-233-1243,<MISSING>,<MISSING>,<MISSING>,<MISSING>,<MISSING>
https://www.ymca.net,East Belleville Center YMCA,2627 Carlyle Ave.,Belleville,IL,62221-5882,US,<MISSING>,Phone: 618-236-9983,<MISSING>,<MISSING>,<MISSING>,<MISSING>,<MISSING>
https://www.ymca.net,YMCA of Southwest Illinois,"326 South 21st Street, 4th floor",St. Louis,MO,63103,US,<MISSING>,Phone: 314-436-1177,<MISSING>,<MISSING>,<MISSING>,<MISSING>,<MISSING>
https://www.ymca.net,Community Service YMCA,"c/o Historic Carondelet Family YMCA,600 Loughborough Avenue",St. Louis,MO,63111,US,<MISSING>,Phone: 314-776-7102,<MISSING>,<MISSING>,<MISSING>,<MISSING>,<MISSING>
https://www.ymca.net,Historic Carondelet Family YMCA,600 Loughborough Ave.,St. Louis,MO,63111,US,<MISSING>,Phone: 314-776-7102,<MISSING>,<MISSING>,<MISSING>,<MISSING>,<MISSING>
https://www.ymca.net,Central Family YMCA,2021 W St,Sacramento,CA,95818-1625,US,<MISSING>,Phone: 916-452-9622,<MISSING>,<MISSING>,<MISSING>,<MISSING>,<MISSING>
https://www.ymca.net,Gold Country YMCA,1926 V St,Sacramento,CA,95818-1624,US,<MISSING>,Phone: 916-452-9622,<MISSING>,<MISSING>,<MISSING>,<MISSING>,<MISSING>
https://www.ymca.net,YMCA of Superior California,"Administration Offices,1926 V Street",Sacramento,CA,95818-1624,US,<MISSING>,Phone: 916-452-9622,<MISSING>,<MISSING>,<MISSING>,<MISSING>,<MISSING>
https://www.ymca.net,Carondelet Park Rec Complex,930 Holly Hills,St. Louis,MO,63111,US,<MISSING>,Phone: 314-768-9622,<MISSING>,<MISSING>,<MISSING>,<MISSING>,<MISSING>
https://www.ymca.net,El Dorado County Family YMCA,1926 V St,Sacramento,CA,95818-1624,US,<MISSING>,Phone: 916-452-9622,<MISSING>,<MISSING>,<MISSING>,<MISSING>,<MISSING>
https://www.ymca.net,South Placer County Family YMCA,1926 V St,Sacramento,CA,95818-1624,US,<MISSING>,Phone: 916-452-9622,<MISSING>,<MISSING>,<MISSING>,<MISSING>,<MISSING>
https://www.ymca.net,California YMCA Youth and Government,"1792 TRIBUTE RD,STE 480",SACRAMENTO,CA,95815-4320,US,<MISSING>,Phone: 916-287-9622,<MISSING>,<MISSING>,<MISSING>,<MISSING>,<MISSING>
https://www.ymca.net,Wildwood Family YMCA,2641 Highway 109,Wildwood,MO,63040-1106,US,<MISSING>,Phone: 636-458-6636,<MISSING>,<MISSING>,<MISSING>,<MISSING>,<MISSING>
https://www.ymca.net,Kirkwood/Webster Groves Program Center,325 North Taylor Avenue,Kirkwood,MO,63122-4411,US,<MISSING>,Phone: 314-965-9622,<MISSING>,<MISSING>,<MISSING>,<MISSING>,<MISSING>
https://www.ymca.net,O'Fallon Center YMCA,284 North Seven Hills Road,O Fallon,IL,62269-4125,US,<MISSING>,Phone: 618-628-7701,<MISSING>,<MISSING>,<MISSING>,<MISSING>,<MISSING>
https://www.ymca.net,South City Family YMCA,3150 Sublette Avenue,St. Louis,MO,63139-1467,US,<MISSING>,Phone: 314-644-3100,<MISSING>,<MISSING>,<MISSING>,<MISSING>,<MISSING>
https://www.ymca.net,Gateway Region YMCA,"326 South 21st Street, 4th Floor",St. Louis,MO,63103,US,<MISSING>,Phone: 314-436-1177,<MISSING>,<MISSING>,<MISSING>,<MISSING>,<MISSING>
https://www.ymca.net,Mid-County Branch YMCA,1900 Urban Drive,Brentwood,MO,63144-1824,US,<MISSING>,Phone: 314-962-9450,<MISSING>,<MISSING>,<MISSING>,<MISSING>,<MISSING>
https://www.ymca.net,Downtown at the MX YMCA,605 Locust Street,St. Louis,MO,63101,US,<MISSING>,Phone: 314-436-4100,<MISSING>,<MISSING>,<MISSING>,<MISSING>,<MISSING>
https://www.ymca.net,Washington University Branch YMCA,"One Brookings Drive,Box 1076",St. Louis,MO,63130-4862,US,<MISSING>,Phone: 314-935-5010,<MISSING>,<MISSING>,<MISSING>,<MISSING>,<MISSING>
https://www.ymca.net,Armed Services YMCA of the USA-National Hdqtrs,"14040 Central Loop,Suite B",Woodbridge,VA,22193,US,<MISSING>,Phone: 703-455-3986,<MISSING>,<MISSING>,<MISSING>,<MISSING>,<MISSING>
https://www.ymca.net,Chesterfield Family YMCA,16464 Burkhardt Place,Chesterfield,MO,63017,US,<MISSING>,Phone: 636-532-3100,<MISSING>,<MISSING>,<MISSING>,<MISSING>,<MISSING>
https://www.ymca.net,Monsanto Branch YMCA,5555 Page Boulevard,St. Louis,MO,63112-4111,US,<MISSING>,Phone: 314-367-4646,<MISSING>,<MISSING>,<MISSING>,<MISSING>,<MISSING>
https://www.ymca.net,Yolo County YMCA,1300 College St,Woodland,CA,95695-4707,US,<MISSING>,Phone: 530-662-1086,<MISSING>,<MISSING>,<MISSING>,<MISSING>,<MISSING>
https://www.ymca.net,O'Fallon Park Recreation Center YMCA,4343 West Florissant Avenue,St. Louis,MO,63115,US,<MISSING>,Phone: 314-932-1423,<MISSING>,<MISSING>,<MISSING>,<MISSING>,<MISSING>
https://www.ymca.net,Tri-City Area YMCA,451 Niedringhaus Avenue,Granite City,IL,62040-4514,US,<MISSING>,Phone: 618-876-7200,<MISSING>,<MISSING>,<MISSING>,<MISSING>,<MISSING>
https://www.ymca.net,Edward Jones Family Branch YMCA,12521 Marine Ave.,Maryland Heights,MO,63146,US,<MISSING>,Phone: 314-439-9622,<MISSING>,<MISSING>,<MISSING>,<MISSING>,<MISSING>
https://www.ymca.net,CMT Center YMCA,1 Town Center Drive,Maryville,IL,62062-5402,US,<MISSING>,Phone: 618-346-5600,<MISSING>,<MISSING>,<MISSING>,<MISSING>,<MISSING>
https://www.ymca.net,Sussex Family Branch YMCA,20080 Church St,Rehoboth Beach,DE,19971-1111,US,<MISSING>,Phone: 302-296-9622,<MISSING>,<MISSING>,<MISSING>,<MISSING>,<MISSING>
https://www.ymca.net,"YMCA of the Chesapeake, Inc.",111-1 E. Dover Street,Easton,MD,21601,US,<MISSING>,Phone: 410-770-3890,<MISSING>,<MISSING>,<MISSING>,<MISSING>,<MISSING>
https://www.ymca.net,O'Fallon Family YMCA,3451 Pheasant Meadow Drive,O'Fallon,MO,63368,US,<MISSING>,Phone: 636-379-0092,<MISSING>,<MISSING>,<MISSING>,<MISSING>,<MISSING>
https://www.ymca.net,Easton Family YMCA,202 Peach Blossom Lane,Easton,MD,21601,US,<MISSING>,Phone: 401-822-0566,<MISSING>,<MISSING>,<MISSING>,<MISSING>,<MISSING>
https://www.ymca.net,Emerson Family YMCA,3390 Pershall Road,St. Louis,MO,63135-1407,US,<MISSING>,Phone: 314-521-1822,<MISSING>,<MISSING>,<MISSING>,<MISSING>,<MISSING>
https://www.ymca.net,Edwardsville YMCA,1200 Esic Dr,Edwardsville,IL,62025-3818,US,<MISSING>,Phone: 618-656-0436,<MISSING>,<MISSING>,<MISSING>,<MISSING>,<MISSING>
https://www.ymca.net,St. Charles Branch YMCA,3900 Shady Springs Lane,St. Peters,MO,63376-6467,US,<MISSING>,Phone: 636-928-1928,<MISSING>,<MISSING>,<MISSING>,<MISSING>,<MISSING>
https://www.ymca.net,Caroline County Family YMCA,40 Denton Plaza,Denton,MD,21629,US,<MISSING>,Phone: 410-479-3060,<MISSING>,<MISSING>,<MISSING>,<MISSING>,<MISSING>
https://www.ymca.net,Tri-County YMCA,"c/o O'Fallon Family YMCA,3451 Pheasant Meadow Drive",O'Fallon,MO,63368,US,<MISSING>,Phone: 636-379-0092,<MISSING>,<MISSING>,<MISSING>,<MISSING>,<MISSING>
https://www.ymca.net,Alexandria Branch YMCA,420 E Monroe Ave,Alexandria,VA,22301-1694,US,<MISSING>,Phone: 703-838-8085,<MISSING>,<MISSING>,<MISSING>,<MISSING>,<MISSING>
https://www.ymca.net,YMCA of Salina Kansas,570 YMCA Drive,Salina,KS,67401-7433,US,<MISSING>,Phone: 785-825-2151,<MISSING>,<MISSING>,<MISSING>,<MISSING>,<MISSING>
https://www.ymca.net,YMCA Capital View,2118 Ridgecrest Court SE,Washington,DC,20020-6206,US,<MISSING>,Phone: 202-889-0643,<MISSING>,<MISSING>,<MISSING>,<MISSING>,<MISSING>
https://www.ymca.net,Arlington Branch YMCA,3422 North 13th Street,Arlington,VA,22201-4997,US,<MISSING>,Phone: 703-525-5420,<MISSING>,<MISSING>,<MISSING>,<MISSING>,<MISSING>
https://www.ymca.net,YMCA of Metropolitan Washington,"1112 16th St NW,Suite 240",Washington,DC,20036-4824,US,<MISSING>,Phone: 202-232-6700,<MISSING>,<MISSING>,<MISSING>,<MISSING>,<MISSING>
https://www.ymca.net,Anthony Bowen Branch YMCA,1325 W St NW,Washington,DC,20009,US,<MISSING>,Phone: 202-232-6936,<MISSING>,<MISSING>,<MISSING>,<MISSING>,<MISSING>
https://www.ymca.net,YMCA Camp Letts,"PO Box 208,4003 Camp Letts Road",Edgewater,MD,21037-0208,US,<MISSING>,Phone: 410-919-1400,<MISSING>,<MISSING>,<MISSING>,<MISSING>,<MISSING>
https://www.ymca.net,Fairfax County YMCA in Reston,12196 Sunset Hills Rd,Reston,VA,20190-5840,US,<MISSING>,Phone: 703-742-8800,<MISSING>,<MISSING>,<MISSING>,<MISSING>,<MISSING>
https://www.ymca.net,Briargate Family Center YMCA,4025 Family Pl,Colorado Springs,CO,80920-7807,US,<MISSING>,Phone: 719-282-9622,<MISSING>,<MISSING>,<MISSING>,<MISSING>,<MISSING>
https://www.ymca.net,Fayette County Family YMCA,710 Rock Island Ave.,Vandalia,IL,62471-2701,US,<MISSING>,Phone: 618-283-1258,<MISSING>,<MISSING>,<MISSING>,<MISSING>,<MISSING>
https://www.ymca.net,YMCA Ayrlawn,5650 Oakmont Ave,Bethesda,MD,20817-3569,US,<MISSING>,Phone: 301-530-8500,<MISSING>,<MISSING>,<MISSING>,<MISSING>,<MISSING>
https://www.ymca.net,YMCA Bethesda-Chevy Chase,9401 Old Georgetown Rd,Bethesda,MD,20814-1799,US,<MISSING>,Phone: 301-530-3725,<MISSING>,<MISSING>,<MISSING>,<MISSING>,<MISSING>
https://www.ymca.net,Silver Spring Branch YMCA,9800 Hastings Drive,Silver Spring,MD,20901-3198,US,<MISSING>,Phone: 301-585-2120,<MISSING>,<MISSING>,<MISSING>,<MISSING>,<MISSING>
https://www.ymca.net,Junction City Family YMCA Inc.,"1703 McFarland Rd,PO Box 113",Junction City,KS,66441-0113,US,<MISSING>,Phone: 785-762-4780,<MISSING>,<MISSING>,<MISSING>,<MISSING>,<MISSING>
https://www.ymca.net,Queen Anne's County Family YMCA,123 Coursevall Drive,Centreville,MD,21617,US,<MISSING>,Phone: 443-262-9994,<MISSING>,<MISSING>,<MISSING>,<MISSING>,<MISSING>
https://www.ymca.net,Greater Annapolis Family Center YMCA,1209 Ritchie Hwy,Arnold,MD,21012,US,<MISSING>,Phone: 410-544-2525,<MISSING>,<MISSING>,<MISSING>,<MISSING>,<MISSING>
https://www.ymca.net,Tri-Lakes Family YMCA,17250 Jackson Creek Parkway,Monument,CO,80132,US,<MISSING>,Phone: 719-481-8728,<MISSING>,<MISSING>,<MISSING>,<MISSING>,<MISSING>
https://www.ymca.net,YMCA of Loudoun County,"26 Fairfax Street, SE,Suite 101",Leesburg,VA,20175,US,<MISSING>,Phone: 703-777-9622,<MISSING>,<MISSING>,<MISSING>,<MISSING>,<MISSING>
https://www.ymca.net,The YMCA in Pasadena,26 Magothy Beach Road,Pasadena,MD,21122,US,<MISSING>,Phone: 410-437-4242,<MISSING>,<MISSING>,<MISSING>,<MISSING>,<MISSING>
https://www.ymca.net,Dover YMCA,1137 S State St,Dover,DE,19901-4112,US,<MISSING>,Phone: 302-346-9622,<MISSING>,<MISSING>,<MISSING>,<MISSING>,<MISSING>
https://www.ymca.net,Yuba-Sutter Family YMCA,1926 V street,Sacramento,CA,95818,US,<MISSING>,Phone: 916-452-9622,<MISSING>,<MISSING>,<MISSING>,<MISSING>,<MISSING>
https://www.ymca.net,Dancel Family Center YMCA,4331 Montgomery Road,Ellicott,MD,21043,US,<MISSING>,Phone: 410-465-4334,<MISSING>,<MISSING>,<MISSING>,<MISSING>,<MISSING>
https://www.ymca.net,Catonsville Family Center YMCA,850 S Rollings Rd,Catonsville,MD,21228,US,<MISSING>,Phone: 410-747-9622,<MISSING>,<MISSING>,<MISSING>,<MISSING>,<MISSING>
https://www.ymca.net,Y Aquatic Center at Dundalk,120 Trading Place,Dundalk,MD,21222,US,<MISSING>,Phone: 410-285-7616,<MISSING>,<MISSING>,<MISSING>,<MISSING>,<MISSING>
https://www.ymca.net,Druid Hill Family Center YMCA,1609 Druid Hill Ave,Baltimore,MD,21217,US,<MISSING>,Phone: 410-728-1600,<MISSING>,<MISSING>,<MISSING>,<MISSING>,<MISSING>
https://www.ymca.net,Harry & Jeanette Weinberg Family Center Y at Stadium Place,900 E 33rd St,Baltimore,MD,21218,US,<MISSING>,Phone: 410-889-9622,<MISSING>,<MISSING>,<MISSING>,<MISSING>,<MISSING>
https://www.ymca.net,South County Branch YMCA,9239 Fingerboard Rd,IJamsville,MD,21754,US,<MISSING>,Phone: 301-607-6900,<MISSING>,<MISSING>,<MISSING>,<MISSING>,<MISSING>
https://www.ymca.net,Camp Tockwogh Branch YMCA,24370 Still Pond Neck Rd,Worton,MD,21678-1411,US,<MISSING>,Phone: 410-348-6000,<MISSING>,<MISSING>,<MISSING>,<MISSING>,<MISSING>
https://www.ymca.net,Y Aquatic Center at Randallstown,3505 Resource Drive,Randallstown,MD,21133,US,<MISSING>,Phone: 410-496-4272,<MISSING>,<MISSING>,<MISSING>,<MISSING>,<MISSING>
https://www.ymca.net,Perry Hall Family Center YMCA,4375 Ebenezer Road,Perry Hall,MD,21236,US,<MISSING>,Phone: 410-529-1999,<MISSING>,<MISSING>,<MISSING>,<MISSING>,<MISSING>
https://www.ymca.net,YMCA of Central Maryland,303 W. Chesapeake Avenue,Baltimore,MD,21204,US,<MISSING>,Phone: 443-322-9622,<MISSING>,<MISSING>,<MISSING>,<MISSING>,<MISSING>
https://www.ymca.net,Towson Family Center YMCA,600 W Chesapeake Ave,Towson,MD,21204,US,<MISSING>,Phone: 410-823-8870,<MISSING>,<MISSING>,<MISSING>,<MISSING>,<MISSING>
https://www.ymca.net,Parkville Family Center YMCA,8910 Waltham Woods Road,Parkville,MD,21234,US,<MISSING>,Phone: 410-663-1300,<MISSING>,<MISSING>,<MISSING>,<MISSING>,<MISSING>
https://www.ymca.net,Ruth Lilly YMCA Outdoor Center,6981 W County Rd 650 N,Saint Paul,IN,47272-9731,US,<MISSING>,Phone: 765-525-6730,<MISSING>,<MISSING>,<MISSING>,<MISSING>,<MISSING>
https://www.ymca.net,Barbara B. Jordan YMCA Inc.,2039 E Morgan St,Martinsville,IN,46151-1372,US,<MISSING>,Phone: 765-342-6688,<MISSING>,<MISSING>,<MISSING>,<MISSING>,<MISSING>
https://www.ymca.net,YMCA Camp Santa Maria,51321 US-285,Grant,CO,80448,US,<MISSING>,Phone: 303-447-4474,<MISSING>,<MISSING>,<MISSING>,<MISSING>,<MISSING>
https://www.ymca.net,Walter & Betty Ward Family Center YMCA,101 Walter Ward Blvd,Abingdon,MD,21109,US,<MISSING>,Phone: 410-679-9622,<MISSING>,<MISSING>,<MISSING>,<MISSING>,<MISSING>
https://www.ymca.net,Mattoon Area Family YMCA,"221 N 16th St,PO Box 875",Mattoon,IL,61938,US,<MISSING>,Phone: 217-234-9494,<MISSING>,<MISSING>,<MISSING>,<MISSING>,<MISSING>
https://www.ymca.net,Cumberland Cape Atlantic YMCA,1159 E Landis Ave,Vineland,NJ,08360-4220,US,<MISSING>,Phone: 856-691-0030,<MISSING>,<MISSING>,<MISSING>,<MISSING>,<MISSING>
https://www.ymca.net,YMCA of Oroville California,1684 Robinson Street,Oroville,CA,95965-4844,US,<MISSING>,Phone: 530-533-9622,<MISSING>,<MISSING>,<MISSING>,<MISSING>,<MISSING>
https://www.ymca.net,Hill Family Center YMCA,1719 Sykesville Road,Westminster,MD,21157,US,<MISSING>,Phone: 410-848-3660,<MISSING>,<MISSING>,<MISSING>,<MISSING>,<MISSING>
https://www.ymca.net,Christian County YMCA,900 McAdam Dr,Taylorville,IL,62568-9635,US,<MISSING>,Phone: 217-287-7271,<MISSING>,<MISSING>,<MISSING>,<MISSING>,<MISSING>
https://www.ymca.net,Littleton Branch YMCA,11 W Dry Creek Ct,Littleton,CO,80120-2038,US,<MISSING>,Phone: 303-797-9622,<MISSING>,<MISSING>,<MISSING>,<MISSING>,<MISSING>
https://www.ymca.net,Aurora  YMCA,27151 E Lakeview Dr,Aurora,CO,80016,US,<MISSING>,Phone: 720-870-2221,<MISSING>,<MISSING>,<MISSING>,<MISSING>,<MISSING>
https://www.ymca.net,Bear Glasgow Branch YMCA,351 George Williams Way,Newark,DE,19702,US,<MISSING>,Phone: 302-836-9622,<MISSING>,<MISSING>,<MISSING>,<MISSING>,<MISSING>
https://www.ymca.net,YMCA of Cecil County Inc.,25 YMCA Blvd,Elkton,MD,21921-5329,US,<MISSING>,Phone: 410-398-2333,<MISSING>,<MISSING>,<MISSING>,<MISSING>,<MISSING>
https://www.ymca.net,Southwest-Chatfield Branch YMCA,5181 W Kenyon Ave,Denver,CO,80236-2901,US,<MISSING>,Phone: 303-761-7530,<MISSING>,<MISSING>,<MISSING>,<MISSING>,<MISSING>
https://www.ymca.net,Arthur R. Baxter Branch YMCA,7900 Shelby St,Indianapolis,IN,46227-5995,US,<MISSING>,Phone: 317-881-9347,<MISSING>,<MISSING>,<MISSING>,<MISSING>,<MISSING>
https://www.ymca.net,Gerald L Schlessman Branch YMCA,3901 E Yale Ave,Denver,CO,80210-6646,US,<MISSING>,Phone: 720-524-2750,<MISSING>,<MISSING>,<MISSING>,<MISSING>,<MISSING>
https://www.ymca.net,YMCA of Metropolitan Denver,2625 S Colorado Blvd,Denver,CO,80222-5108,US,<MISSING>,Phone: 720-524-2700,<MISSING>,<MISSING>,<MISSING>,<MISSING>,<MISSING>
https://www.ymca.net,Child Care/Day Camp Branch YMCA,2625 S Colorado Blvd,Denver,CO,80222-5910,US,<MISSING>,Phone: 720-524-2700,<MISSING>,<MISSING>,<MISSING>,<MISSING>,<MISSING>
https://www.ymca.net,Community Program Branch YMCA,3532 Franklin ST,Denver,CO,80205,US,<MISSING>,Phone: 303-292-2281,<MISSING>,<MISSING>,<MISSING>,<MISSING>,<MISSING>
https://www.ymca.net,Western Community Center YMCA,1400 Mortimer St,Barry,IL,62312,US,<MISSING>,Phone: 217-335-3030,<MISSING>,<MISSING>,<MISSING>,<MISSING>,<MISSING>
https://www.ymca.net,Glendale Branch YMCA,4500 East Kentucky Ave,Glendale,CO,80246,US,<MISSING>,Phone: 303-639-4711,<MISSING>,<MISSING>,<MISSING>,<MISSING>,<MISSING>
https://www.ymca.net,Western Branch YMCA,2600 Kirkwood Hwy,Newark,DE,19711-7251,US,<MISSING>,Phone: 302-709-9622,<MISSING>,<MISSING>,<MISSING>,<MISSING>,<MISSING>
https://www.ymca.net,Bob Freesen YMCA,1000 Sherwood Ln,Jacksonville,IL,62650-2795,US,<MISSING>,Phone: 217-245-2141,<MISSING>,<MISSING>,<MISSING>,<MISSING>,<MISSING>
https://www.ymca.net,Downtown YMCA,25 E 16th Ave Unit B,Denver,CO,80202-5195,US,<MISSING>,Phone: 303-861-8300,<MISSING>,<MISSING>,<MISSING>,<MISSING>,<MISSING>
https://www.ymca.net,Walnut Street Branch YMCA,1000 N Walnut St,Wilmington,DE,19801-3339,US,<MISSING>,Phone: 302-472-9622,<MISSING>,<MISSING>,<MISSING>,<MISSING>,<MISSING>
https://www.ymca.net,YMCA of Delaware,100 W 10th St Ste 1100,Wilmington,DE,19801-6605,US,<MISSING>,Phone: 302-571-6908,<MISSING>,<MISSING>,<MISSING>,<MISSING>,<MISSING>
https://www.ymca.net,Central Branch YMCA,501 W 11th St,Wilmington,DE,19801-1425,US,<MISSING>,Phone: 302-254-9622,<MISSING>,<MISSING>,<MISSING>,<MISSING>,<MISSING>
https://www.ymca.net,Southern York County Branch YMCA,"100 Constitution Ave,PO Box 263",Shrewsbury,PA,17361-1732,US,<MISSING>,Phone: 717-235-0446,<MISSING>,<MISSING>,<MISSING>,<MISSING>,<MISSING>
https://www.ymca.net,YMCA at CityWay,430 S. Alabama Street,Indianapolis,IN,46225,US,<MISSING>,Phone: 317-955-9622,<MISSING>,<MISSING>,<MISSING>,<MISSING>,<MISSING>
https://www.ymca.net,Hendricks Regional Health YMCA,301 Satori Pkwy,Avon,IN,46123-1364,US,<MISSING>,Phone: 317-273-9622,<MISSING>,<MISSING>,<MISSING>,<MISSING>,<MISSING>
https://www.ymca.net,Indy Bike Hub YMCA,242 E. Market Street Suite 100,Indianapolis,IN,46204,US,<MISSING>,Phone: 317-612-3083,<MISSING>,<MISSING>,<MISSING>,<MISSING>,<MISSING>
https://www.ymca.net,Gus & Flora Kerasotes YMCA,4550 West Iles,Springfield,IL,62711,US,<MISSING>,Phone: 217-679-1625,<MISSING>,<MISSING>,<MISSING>,<MISSING>,<MISSING>
https://www.ymca.net,YMCA at the Athenaeum,401 E Michigan St,Indianapolis,IN,46204-1612,US,<MISSING>,Phone: 317-685-9705,<MISSING>,<MISSING>,<MISSING>,<MISSING>,<MISSING>
https://www.ymca.net,YMCA of Greater Indianapolis,"615 N Alabama St,Suite 200",Indianapolis,IN,46204-1359,US,<MISSING>,Phone: 317-266-9622,<MISSING>,<MISSING>,<MISSING>,<MISSING>,<MISSING>
https://www.ymca.net,Butler Intercollegiate Branch YMCA,"615 N Alabama St,Suite 200",Indianapolis,IN,46204,US,<MISSING>,Phone: 317-713-8523,<MISSING>,<MISSING>,<MISSING>,<MISSING>,<MISSING>
https://www.ymca.net,Harper J. Ransburg Branch YMCA,501 N Shortridge Rd,Indianapolis,IN,46219-4911,US,<MISSING>,Phone: 317-357-8441,<MISSING>,<MISSING>,<MISSING>,<MISSING>,<MISSING>
https://www.ymca.net,YMCA of Springfield,"701 S 4th St,PO Box 155",Springfield,IL,62705-0155,US,<MISSING>,Phone: 217-544-9846,<MISSING>,<MISSING>,<MISSING>,<MISSING>,<MISSING>
https://www.ymca.net,Brandywine Branch YMCA,3 Mount Lebanon Rd,Wilmington,DE,19803-1713,US,<MISSING>,Phone: 302-478-9622,<MISSING>,<MISSING>,<MISSING>,<MISSING>,<MISSING>
https://www.ymca.net,Sports Branch YMCA,6350 Eldridge St,Arvada,CO,80004,US,<MISSING>,Phone: 303-422-4977,<MISSING>,<MISSING>,<MISSING>,<MISSING>,<MISSING>
https://www.ymca.net,Jeffco Branch YMCA,6350 Eldridge St,Arvada,CO,80004,US,<MISSING>,Phone: 303-422-4977,<MISSING>,<MISSING>,<MISSING>,<MISSING>,<MISSING>
https://www.ymca.net,Susan M. Duncan Family YMCA,6350 Eldridge St,Arvada,CO,80004-3616,US,<MISSING>,Phone: 303-422-4977,<MISSING>,<MISSING>,<MISSING>,<MISSING>,<MISSING>
https://www.ymca.net,Jennersville YMCA,880 W Baltimore Pike,West Grove,PA,19390-9116,US,<MISSING>,Phone: 610-869-9622,<MISSING>,<MISSING>,<MISSING>,<MISSING>,<MISSING>
https://www.ymca.net,Avondale Meadows YMCA,3908 Meadows Dr,Indianapolis,IN,46205,US,<MISSING>,Phone: 317-549-9622,<MISSING>,<MISSING>,<MISSING>,<MISSING>,<MISSING>
https://www.ymca.net,Gloucester County YMCA,235 E Red Bank Ave,Woodbury,NJ,08096-1398,US,<MISSING>,Phone: 856-845-0720,<MISSING>,<MISSING>,<MISSING>,<MISSING>,<MISSING>
https://www.ymca.net,Kennett Area YMCA,101 Race St,Kennett Square,PA,19348-3165,US,<MISSING>,Phone: 610-444-9622,<MISSING>,<MISSING>,<MISSING>,<MISSING>,<MISSING>
https://www.ymca.net,Benjamin Harrison YMCA,5736 Lee Rd,Indianapolis,IN,46216-2062,US,<MISSING>,Phone: 317-547-9622,<MISSING>,<MISSING>,<MISSING>,<MISSING>,<MISSING>
https://www.ymca.net,Decatur Family YMCA,220 W McKinley Ave,Decatur,IL,62526-5858,US,<MISSING>,Phone: 217-872-9622,<MISSING>,<MISSING>,<MISSING>,<MISSING>,<MISSING>
https://www.ymca.net,Pike YMCA,7114 Lakeview Parkway West Dr,Indianapolis,IN,46268,US,<MISSING>,Phone: 317-297-9622,<MISSING>,<MISSING>,<MISSING>,<MISSING>,<MISSING>
https://www.ymca.net,Snow Mountain Ranch YMCA,PO Box 169,Winter Park,CO,80482-0169,US,<MISSING>,Phone: 970-887-2152,<MISSING>,<MISSING>,<MISSING>,<MISSING>,<MISSING>
https://www.ymca.net,Rocky Run YMCA,1299 W Baltimore Pike,Media,PA,19063,US,<MISSING>,Phone: 610-627-9622,<MISSING>,<MISSING>,<MISSING>,<MISSING>,<MISSING>
https://www.ymca.net,Arthur Jordan Branch YMCA,8400 Westfield Blvd,Indianapolis,IN,46240-2368,US,<MISSING>,Phone: 317-253-3206,<MISSING>,<MISSING>,<MISSING>,<MISSING>,<MISSING>
https://www.ymca.net,Adams County Branch YMCA,1500 E 128th Ave,Thornton,CO,80241,US,<MISSING>,Phone: 303-452-9622,<MISSING>,<MISSING>,<MISSING>,<MISSING>,<MISSING>
https://www.ymca.net,Hamilton County Branch YMCA,"615 N Alabama Street,Suite 400",Indianapolis,IN,46204,US,<MISSING>,Phone: 317-484-9622,<MISSING>,<MISSING>,<MISSING>,<MISSING>,<MISSING>
https://www.ymca.net,Fishers Branch YMCA,9012 E 126th St,Fishers,IN,46038,US,<MISSING>,Phone: 317-595-9622,<MISSING>,<MISSING>,<MISSING>,<MISSING>,<MISSING>
https://www.ymca.net,YMCA of Boulder Valley,"Administrative Offices,2800 Dagny Way",Lafayette,CO,80026,US,<MISSING>,Phone: 303-443-4474,<MISSING>,<MISSING>,<MISSING>,<MISSING>,<MISSING>
https://www.ymca.net,Mt. Sterling Community Center YMCA,PO Box 247,Mount Sterling,IL,62353,US,<MISSING>,Phone: 217-773-2230,<MISSING>,<MISSING>,<MISSING>,<MISSING>,<MISSING>
https://www.ymca.net,Pendleton YMCA,520 Falls Park Dr,Pendleton,IN,46064,US,<MISSING>,Phone: 765-221-7508,<MISSING>,<MISSING>,<MISSING>,<MISSING>,<MISSING>
https://www.ymca.net,Ed & Ruth Lehman YMCA,950 Lashley Street,Longmont,CO,80504,US,<MISSING>,Phone: 303-776-0370,<MISSING>,<MISSING>,<MISSING>,<MISSING>,<MISSING>
https://www.ymca.net,Arapahoe Center YMCA,2800 Dagny Way,Lafayette,CO,80026-8011,US,<MISSING>,Phone: 303-664-5455,<MISSING>,<MISSING>,<MISSING>,<MISSING>,<MISSING>
https://www.ymca.net,Mapleton Center YMCA,2850 Mapleton Ave,Boulder,CO,80301-1122,US,<MISSING>,Phone: 303-442-2778,<MISSING>,<MISSING>,<MISSING>,<MISSING>,<MISSING>
https://www.ymca.net,Witham Family YMCA,2791 N Lebanon St,Lebanon,IN,46052,US,<MISSING>,Phone: 765-483-9622,<MISSING>,<MISSING>,<MISSING>,<MISSING>,<MISSING>
https://www.ymca.net,Champaign County YMCA,2501 Fields South Drive,Champaign,IL,61822-3733,US,<MISSING>,Phone: 217-359-9622,<MISSING>,<MISSING>,<MISSING>,<MISSING>,<MISSING>
https://www.ymca.net,Anderson Branch YMCA,28 W 12th St,Anderson,IN,46016,US,<MISSING>,Phone: 765-644-7796,<MISSING>,<MISSING>,<MISSING>,<MISSING>,<MISSING>
https://www.ymca.net,YMCA of Madison County Inc.,28 W 12th Street,Anderson,IN,46016-0527,US,<MISSING>,Phone: 765-644-7796,<MISSING>,<MISSING>,<MISSING>,<MISSING>,<MISSING>
https://www.ymca.net,YMCA of the University of Illinois,1001 S Wright Street,Champaign,IL,61820-6225,US,<MISSING>,Phone: 217-337-1500,<MISSING>,<MISSING>,<MISSING>,<MISSING>,<MISSING>
https://www.ymca.net,Lincoln Area YMCA,604 Broadway Ste 1,Lincoln,IL,62656-2538,US,<MISSING>,Phone: 217-735-3915,<MISSING>,<MISSING>,<MISSING>,<MISSING>,<MISSING>
https://www.ymca.net,Clinton Community YMCA,417 S Alexander Street,Clinton,IL,61727-2348,US,<MISSING>,Phone: 217-935-8307,<MISSING>,<MISSING>,<MISSING>,<MISSING>,<MISSING>
https://www.ymca.net,Mon Valley YMCA,101 Taylor Run Rd,Monongahela,PA,15063,US,<MISSING>,Phone: 724-483-8077,<MISSING>,<MISSING>,<MISSING>,<MISSING>,<MISSING>
https://www.ymca.net,Ed Thomas YMCA,901 West E Street,McCook,NE,69001-3848,US,<MISSING>,Phone: 308-345-6228,<MISSING>,<MISSING>,<MISSING>,<MISSING>,<MISSING>
https://www.ymca.net,Beatrice Mary Family YMCA,1801 Scott St,Beatrice,NE,68310-4112,US,<MISSING>,Phone: 402-223-5266,<MISSING>,<MISSING>,<MISSING>,<MISSING>,<MISSING>
https://www.ymca.net,Greensburg YMCA,101 S Maple Ave,Greensburg,PA,15601-3267,US,<MISSING>,Phone: 724-834-0150,<MISSING>,<MISSING>,<MISSING>,<MISSING>,<MISSING>
https://www.ymca.net,Spencer Family YMCA,305 Church Road,Bethel Park,PA,15102,US,<MISSING>,Phone: 412-833-5600,<MISSING>,<MISSING>,<MISSING>,<MISSING>,<MISSING>
https://www.ymca.net,YMCA of the Rockies,2515 Tunnel Rd,Estes Park,CO,80511,US,<MISSING>,Phone: 970-586-4444,<MISSING>,<MISSING>,<MISSING>,<MISSING>,<MISSING>
https://www.ymca.net,Estes Park Center YMCA,2515 Tunnel Rd,Estes Park,CO,80511-9500,US,<MISSING>,Phone: 970-586-3341,<MISSING>,<MISSING>,<MISSING>,<MISSING>,<MISSING>
https://www.ymca.net,YMCA of McKeesport,604 Evans Avenue,McKeesport,PA,15132-3029,US,<MISSING>,Phone: 412-672-9622,<MISSING>,<MISSING>,<MISSING>,<MISSING>,<MISSING>
https://www.ymca.net,Hazelwood Outreach Branch YMCA,4713 Chatsworth St,Pittsburgh,PA,15207-1515,US,<MISSING>,Phone: 412-421-5648,<MISSING>,<MISSING>,<MISSING>,<MISSING>,<MISSING>
https://www.ymca.net,Collegiate Branch YMCA,"420 Ft. Duquesne Blvd,Ste 625",Pittsburgh,PA,15222,US,<MISSING>,Phone: 412-648-7960,<MISSING>,<MISSING>,<MISSING>,<MISSING>,<MISSING>
https://www.ymca.net,Downtown YMCA,"600 Grant Street,Concourse Level",Pittsburgh,PA,15219,US,<MISSING>,Phone: 412-471-9622,<MISSING>,<MISSING>,<MISSING>,<MISSING>,<MISSING>
https://www.ymca.net,YMCA of Greater Pittsburgh,"420 Ft Duquesne Blvd,Suite 625",Pittsburgh,PA,15222-1908,US,<MISSING>,Phone: 412-227-3800,<MISSING>,<MISSING>,<MISSING>,<MISSING>,<MISSING>
https://www.ymca.net,Thelma Lovette YMCA,2114 Centre Ave.,Pittsburgh,PA,15219,US,<MISSING>,Phone: 412-292-0130,<MISSING>,<MISSING>,<MISSING>,<MISSING>,<MISSING>
https://www.ymca.net,YMCA of the Prairie,"1415 Broadway St.,PO Box 618",Holdrege,NE,68949,US,<MISSING>,Phone: 308-995-4050,<MISSING>,<MISSING>,<MISSING>,<MISSING>,<MISSING>
https://www.ymca.net,Centre Avenue Branch YMCA,2621 Centre Ave,Pittsburgh,PA,15219-4933,US,<MISSING>,Phone: 412-621-1762,<MISSING>,<MISSING>,<MISSING>,<MISSING>,<MISSING>
https://www.ymca.net,Allegheny Branch YMCA,600 W North Ave,Pittsburgh,PA,15212-4538,US,<MISSING>,Phone: 412-321-8594,<MISSING>,<MISSING>,<MISSING>,<MISSING>,<MISSING>
https://www.ymca.net,Homewood-Brushton Branch YMCA,7140 Bennett St,Pittsburgh,PA,15208-1477,US,<MISSING>,Phone: 412-243-2900,<MISSING>,<MISSING>,<MISSING>,<MISSING>,<MISSING>
https://www.ymca.net,Sampson Family YMCA,2200 Rte 286,Pittsburgh,PA,15239-2797,US,<MISSING>,Phone: 724-327-4667,<MISSING>,<MISSING>,<MISSING>,<MISSING>,<MISSING>
https://www.ymca.net,YMCA of McDonough County,400 E Calhoun St,Macomb,IL,61455-2391,US,<MISSING>,Phone: 309-833-2129,<MISSING>,<MISSING>,<MISSING>,<MISSING>,<MISSING>
https://www.ymca.net,Bloomington YMCA,602 S Main St,Bloomington,IL,61701-5199,US,<MISSING>,Phone: 309-827-6233,<MISSING>,<MISSING>,<MISSING>,<MISSING>,<MISSING>
https://www.ymca.net,North Boroughs Branch YMCA,629 Lincoln Ave,Pittsburgh,PA,15202-3405,US,<MISSING>,Phone: 412-761-1227,<MISSING>,<MISSING>,<MISSING>,<MISSING>,<MISSING>
https://www.ymca.net,Sewickley Valley YMCA,625 Blackburn Road,Sewickley,PA,15143-1470,US,<MISSING>,Phone: 412-741-9622,<MISSING>,<MISSING>,<MISSING>,<MISSING>,<MISSING>
https://www.ymca.net,YMCA of Canton,1325 E Ash St,Canton,IL,61520-1504,US,<MISSING>,Phone: 309-647-1616,<MISSING>,<MISSING>,<MISSING>,<MISSING>,<MISSING>
https://www.ymca.net,YMCA of New Kensington,800 Constitution Blvd,New Kensington,PA,15068-6223,US,<MISSING>,Phone: 724-335-9191,<MISSING>,<MISSING>,<MISSING>,<MISSING>,<MISSING>
https://www.ymca.net,Valley Points Family YMCA,800 Constitution Blvd,New Kensington,PA,15068,US,<MISSING>,Phone: 724-335-9191,<MISSING>,<MISSING>,<MISSING>,<MISSING>,<MISSING>
https://www.ymca.net,Coney Island YMCA,2980 W. 29th St.,Brooklyn,NY,11224,US,<MISSING>,Phone: 718-215-6900,<MISSING>,<MISSING>,<MISSING>,<MISSING>,<MISSING>
https://www.ymca.net,Shasta County YMCA,1155 N Court St,Redding,CA,96001-0437,US,<MISSING>,Phone: 530-246-9622,<MISSING>,<MISSING>,<MISSING>,<MISSING>,<MISSING>
https://www.ymca.net,Kiski Valley YMCA,204 Pennsylvania Avenue,Vandergrift,PA,15690-2100,US,<MISSING>,Phone: 724-845-1968,<MISSING>,<MISSING>,<MISSING>,<MISSING>,<MISSING>
https://www.ymca.net,YMCA of Hastings Nebraska,1430 W 16th St.,Hastings,NE,68901,US,<MISSING>,Phone: 402-463-3139,<MISSING>,<MISSING>,<MISSING>,<MISSING>,<MISSING>
https://www.ymca.net,Baierl Family YMCA,2565 Nicholson Road,Sewickley,PA,15143,US,<MISSING>,Phone: 724-934-9622,<MISSING>,<MISSING>,<MISSING>,<MISSING>,<MISSING>
https://www.ymca.net,YMCA of East Liverpool Ohio,"15655 State Route 170,Suite A2",East Liverpool,OH,43920-3044,US,<MISSING>,Phone: 330-385-6400,<MISSING>,<MISSING>,<MISSING>,<MISSING>,<MISSING>
https://www.ymca.net,Flatbush Branch YMCA,1401 Flatbush Ave,Brooklyn,NY,11210-1439,US,<MISSING>,Phone: 718-469-8100,<MISSING>,<MISSING>,<MISSING>,<MISSING>,<MISSING>
https://www.ymca.net,Allegheny Valley YMCA,5021 Freeport Rd,Natrona Heights,PA,15065-1944,US,<MISSING>,Phone: 724-224-9500,<MISSING>,<MISSING>,<MISSING>,<MISSING>,<MISSING>
https://www.ymca.net,Prospect Park Branch YMCA,"357 9th St,Between 5th & 6th Ave",Brooklyn,NY,11215-4007,US,<MISSING>,Phone: 718-768-7100,<MISSING>,<MISSING>,<MISSING>,<MISSING>,<MISSING>
https://www.ymca.net,North Brooklyn Branch YMCA-Twelve Town Center,570 Jamaica Ave,Brooklyn,NY,11208-1237,US,<MISSING>,Phone: 718-277-1600,<MISSING>,<MISSING>,<MISSING>,<MISSING>,<MISSING>
https://www.ymca.net,Bedford-Stuyvesant Branch YMCA,1121 Bedford Ave,Brooklyn,NY,11216-1302,US,<MISSING>,Phone: 718-789-1497,<MISSING>,<MISSING>,<MISSING>,<MISSING>,<MISSING>
https://www.ymca.net,Dodge YMCA,225 Atlantic Avenue,Brooklyn,NY,11201-4110,US,<MISSING>,Phone: 718-625-3136,<MISSING>,<MISSING>,<MISSING>,<MISSING>,<MISSING>
https://www.ymca.net,Ridgewood Branch YMCA,69-02 64th Ave,Ridgewood,NY,11385,US,<MISSING>,Phone: 212-912-2180,<MISSING>,<MISSING>,<MISSING>,<MISSING>,<MISSING>
https://www.ymca.net,YMCA of Northern Utah,"3216 Highland Dr,Suite 200",Salt Lake City,UT,84106-4097,US,<MISSING>,Phone: 801-466-6299,<MISSING>,<MISSING>,<MISSING>,<MISSING>,<MISSING>
https://www.ymca.net,North Brooklyn Branch YMCA-Eastern District,125 Humboldt St,Brooklyn,NY,11206-2725,US,<MISSING>,Phone: 718-782-8300,<MISSING>,<MISSING>,<MISSING>,<MISSING>,<MISSING>
https://www.ymca.net,Beaver County YMCA,2236 Third Ave,New Brighton,PA,15066-3205,US,<MISSING>,Phone: 724-891-8439,<MISSING>,<MISSING>,<MISSING>,<MISSING>,<MISSING>
https://www.ymca.net,Kearney Family YMCA,4500 6th Ave,Kearney,NE,68845-3396,US,<MISSING>,Phone: 308-237-9622,<MISSING>,<MISSING>,<MISSING>,<MISSING>,<MISSING>
https://www.ymca.net,Chinatown Branch YMCA,"Houston Street Center,273 Bowery",New York,NY,10002,US,<MISSING>,Phone: 212-912-2460,<MISSING>,<MISSING>,<MISSING>,<MISSING>,<MISSING>
https://www.ymca.net,Copple Family YMCA,"8700 Yankee Woods Drive,Suite B",Lincoln,NE,68526,US,<MISSING>,Phone: 402-327-0037,<MISSING>,<MISSING>,<MISSING>,<MISSING>,<MISSING>
https://www.ymca.net,Greenpoint Branch YMCA,99 Meserole Ave,Brooklyn,NY,11222-2633,US,<MISSING>,Phone: 212-912-2260,<MISSING>,<MISSING>,<MISSING>,<MISSING>,<MISSING>
https://www.ymca.net,Rathbun Lake Area YMCA,708 S. Main St.,Centerville,IA,52544,US,<MISSING>,Phone: 641-437-1977,<MISSING>,<MISSING>,<MISSING>,<MISSING>,<MISSING>
https://www.ymca.net,Rose E. Schneider Family YMCA,2001 Ehrman Road,Cranberry Township,PA,16066,US,<MISSING>,Phone: 724-452-9122,<MISSING>,<MISSING>,<MISSING>,<MISSING>,<MISSING>
https://www.ymca.net,McBurney Branch YMCA,125 West 14th St,New York,NY,10011-2302,US,<MISSING>,Phone: 212-912-2300,<MISSING>,<MISSING>,<MISSING>,<MISSING>,<MISSING>
https://www.ymca.net,Cooper Branch YMCA,6767 S 14th St,Lincoln,NE,68512-2310,US,<MISSING>,Phone: 402-323-6400,<MISSING>,<MISSING>,<MISSING>,<MISSING>,<MISSING>
https://www.ymca.net,YMCA Newark and Vicinity,600 Broad Street,Newark,NJ,07102-4504,US,<MISSING>,Phone: 973-624-8900,<MISSING>,<MISSING>,<MISSING>,<MISSING>,<MISSING>
https://www.ymca.net,Central Branch YMCA,600 Broad Street,Newark,NJ,07102-4504,US,<MISSING>,Phone: 973-624-8900,<MISSING>,<MISSING>,<MISSING>,<MISSING>,<MISSING>
https://www.ymca.net,Long Island City Branch YMCA,32-23 Queens Blvd,Long Island City,NY,11101-5248,US,<MISSING>,Phone: 718-392-7932,<MISSING>,<MISSING>,<MISSING>,<MISSING>,<MISSING>
https://www.ymca.net,Vanderbilt Branch YMCA,224 E 47th St,New York,NY,10017-2102,US,<MISSING>,Phone: 212-912-2500,<MISSING>,<MISSING>,<MISSING>,<MISSING>,<MISSING>
https://www.ymca.net,Flushing Branch YMCA,138-46 Northern Blvd,Flushing,NY,11354,US,<MISSING>,Phone: 718-551-9350,<MISSING>,<MISSING>,<MISSING>,<MISSING>,<MISSING>
https://www.ymca.net,YMCA of Greater New York,"5 W 63rd St, 6th Fl",New York,NY,10023,US,<MISSING>,Phone: 212-630-9600,<MISSING>,<MISSING>,<MISSING>,<MISSING>,<MISSING>
https://www.ymca.net,International Branch YMCA,"5 West 63rd Street,Second Floor",New York,NY,10023,US,<MISSING>,Phone: 212-875-4336,<MISSING>,<MISSING>,<MISSING>,<MISSING>,<MISSING>
https://www.ymca.net,West Side Branch YMCA,5 W 63rd St,New York,NY,10023-7101,US,<MISSING>,Phone: 212-912-2600,<MISSING>,<MISSING>,<MISSING>,<MISSING>,<MISSING>
https://www.ymca.net,Greater Peoria Family YMCA,7000 N Fleming Lane,Peoria,IL,61614-1236,US,<MISSING>,Phone: 309-692-7631,<MISSING>,<MISSING>,<MISSING>,<MISSING>,<MISSING>
https://www.ymca.net,YMCA of Lexington,1207 N. Grant St,Lexington,NE,68850,US,<MISSING>,Phone: 308-324-1970,<MISSING>,<MISSING>,<MISSING>,<MISSING>,<MISSING>
https://www.ymca.net,Meadowlands Area YMCA,390 Murray Hill Parkway,East Rutherford,NJ,07073,US,<MISSING>,Phone: 201-955-5300,<MISSING>,<MISSING>,<MISSING>,<MISSING>,<MISSING>
https://www.ymca.net,Camp Kon-O-Kwee Branch YMCA,126 Nagel Road,Fombell,PA,16123-9802,US,<MISSING>,Phone: 724-758-6238,<MISSING>,<MISSING>,<MISSING>,<MISSING>,<MISSING>
https://www.ymca.net,Castle Hill YMCA,2 Castle Hill Ave,Bronx,NY,10473-1636,US,<MISSING>,Phone: 718-792-9736,<MISSING>,<MISSING>,<MISSING>,<MISSING>,<MISSING>
https://www.ymca.net,Downtown Branch YMCA,1039 P St,Lincoln,NE,68508-3687,US,<MISSING>,Phone: 402-434-9230,<MISSING>,<MISSING>,<MISSING>,<MISSING>,<MISSING>
https://www.ymca.net,Harlem Branch YMCA,180 W 135th St,New York,NY,10030-2996,US,<MISSING>,Phone: 212-912-2100,<MISSING>,<MISSING>,<MISSING>,<MISSING>,<MISSING>
https://www.ymca.net,Northeast Branch YMCA,2601 N 70th St,Lincoln,NE,68507-2772,US,<MISSING>,Phone: 402-434-9262,<MISSING>,<MISSING>,<MISSING>,<MISSING>,<MISSING>
https://www.ymca.net,Fallbrook YMCA,700 Penrose Dr. Ste B,Lincoln,NE,68521,US,<MISSING>,Phone: 402-323-6444,<MISSING>,<MISSING>,<MISSING>,<MISSING>,<MISSING>
https://www.ymca.net,Youth Sports Branch YMCA,"570 Fallbrook Blvd., Suite 210",Lincoln,NE,68521-9026,US,<MISSING>,Phone: 402-434-9217,<MISSING>,<MISSING>,<MISSING>,<MISSING>,<MISSING>
https://www.ymca.net,Camp Kitaki Branch YMCA,"570 Fallbrook Blvd., Suite 210",Lincoln,NE,68521-9026,US,<MISSING>,Phone: 402-434-9222,<MISSING>,<MISSING>,<MISSING>,<MISSING>,<MISSING>
https://www.ymca.net,YMCA of Lincoln Nebraska,"570 Fallbrook Blvd, Suite 210",Lincoln,NE,68521-9026,US,<MISSING>,Phone: 402-434-9233,<MISSING>,<MISSING>,<MISSING>,<MISSING>,<MISSING>
https://www.ymca.net,YMCA of Garfield,33 Outwater Ln,Garfield,NJ,07026-3813,US,<MISSING>,Phone: 973-772-7450,<MISSING>,<MISSING>,<MISSING>,<MISSING>,<MISSING>
https://www.ymca.net,YMCA of Greater Bergen County,360 Main St,Hackensack,NJ,07601-5877,US,<MISSING>,Phone: 201-487-6600,<MISSING>,<MISSING>,<MISSING>,<MISSING>,<MISSING>
https://www.ymca.net,New Rochelle YMCA,50 Weyman Ave,New Rochelle,NY,10805-1411,US,<MISSING>,Phone: 914-632-1818,<MISSING>,<MISSING>,<MISSING>,<MISSING>,<MISSING>
https://www.ymca.net,YMCA of Warren County,"700 W Harlem Ave,PO Box 527",Monmouth,IL,61462-0527,US,<MISSING>,Phone: 309-734-3183,<MISSING>,<MISSING>,<MISSING>,<MISSING>,<MISSING>
https://www.ymca.net,YMCA of Grand Island Nebraska,221 E South Front St,Grand Island,NE,68801-5952,US,<MISSING>,Phone: 308-395-9622,<MISSING>,<MISSING>,<MISSING>,<MISSING>,<MISSING>
https://www.ymca.net,YMCA of Yonkers Inc.,17 Riverdale Ave,Yonkers,NY,10701-3646,US,<MISSING>,Phone: 914-963-0183,<MISSING>,<MISSING>,<MISSING>,<MISSING>,<MISSING>
https://www.ymca.net,YMCA at Gothenburg Health,910 20th Street,Gothenburg,NE,69138,US,<MISSING>,Phone: 308-537-4022,<MISSING>,<MISSING>,<MISSING>,<MISSING>,<MISSING>
https://www.ymca.net,Downtown Galesburg YMCA,201 E. Main,Galesburg,IL,61401,US,<MISSING>,Phone: 309-344-1324,<MISSING>,<MISSING>,<MISSING>,<MISSING>,<MISSING>
https://www.ymca.net,YMCA of Knox County,1324 W Carl Sandburg Dr,Galesburg,IL,61401-1348,US,<MISSING>,Phone: 309-344-1324,<MISSING>,<MISSING>,<MISSING>,<MISSING>,<MISSING>
https://www.ymca.net,YMCA of Ottumwa Iowa,611 N Hancock St,Ottumwa,IA,52501-4278,US,<MISSING>,Phone: 641-684-6571,<MISSING>,<MISSING>,<MISSING>,<MISSING>,<MISSING>
https://www.ymca.net,Lake Anna YMCA Community Center,500 W. Hopocan Ave,Barberton,OH,44203,US,<MISSING>,Phone: 330-745-9622,<MISSING>,<MISSING>,<MISSING>,<MISSING>,<MISSING>
https://www.ymca.net,Montgomery County Family YMCA,101 E Cherry St,Red Oak,IA,51566-1076,US,<MISSING>,Phone: 712-623-2161,<MISSING>,<MISSING>,<MISSING>,<MISSING>,<MISSING>
https://www.ymca.net,Wadsworth Y Community Center,623 School Dr,Wadsworth,OH,44281-9225,US,<MISSING>,Phone: 330-334-9622,<MISSING>,<MISSING>,<MISSING>,<MISSING>,<MISSING>
https://www.ymca.net,Firestone Park Branch YMCA,350 E Wilbeth Rd,Akron,OH,44301-2624,US,<MISSING>,Phone: 330-724-1255,<MISSING>,<MISSING>,<MISSING>,<MISSING>,<MISSING>
https://www.ymca.net,East Akron YMCA,888 Jonathan Ave,Akron,OH,44306,US,<MISSING>,Phone: 330-784-0408,<MISSING>,<MISSING>,<MISSING>,<MISSING>,<MISSING>
https://www.ymca.net,Southern Prairie YMCA,1201 W Townline St,Creston,IA,50801-1036,US,<MISSING>,Phone: 641-782-9622,<MISSING>,<MISSING>,<MISSING>,<MISSING>,<MISSING>
https://www.ymca.net,Kohl Family YMCA,477 E Market St,Akron,OH,44304-1037,US,<MISSING>,Phone: 330-434-9622,<MISSING>,<MISSING>,<MISSING>,<MISSING>,<MISSING>
https://www.ymca.net,Child Care Branch YMCA,50 S Main St LL 100,Akron,OH,44308-1037,US,<MISSING>,Phone: 330-376-1335,<MISSING>,<MISSING>,<MISSING>,<MISSING>,<MISSING>
https://www.ymca.net,YMCA of Akron Ohio Inc.,"50 S. Main St., LL100",Akron,OH,44308,US,<MISSING>,Phone: 330-376-1335,<MISSING>,<MISSING>,<MISSING>,<MISSING>,<MISSING>
https://www.ymca.net,Jackson R Lehman Family YMCA,5680 YMCA Park Drive W,Fort Wayne,IN,46835,US,<MISSING>,Phone: 260-755-4949,<MISSING>,<MISSING>,<MISSING>,<MISSING>,<MISSING>
https://www.ymca.net,Riverfront Family YMCA,544 Broad Blvd,Cuyahoga Falls,OH,44221-3836,US,<MISSING>,Phone: 330-923-9622,<MISSING>,<MISSING>,<MISSING>,<MISSING>,<MISSING>
https://www.ymca.net,Cheyenne Family YMCA,1426 E Lincolnway,Cheyenne,WY,82001-4800,US,<MISSING>,Phone: 307-634-9622,<MISSING>,<MISSING>,<MISSING>,<MISSING>,<MISSING>
https://www.ymca.net,Parkview YMCA,10001 Dawsons Creek Blvd,Fort Wayne,IN,46825-1957,US,<MISSING>,Phone: 260-497-9996,<MISSING>,<MISSING>,<MISSING>,<MISSING>,<MISSING>
https://www.ymca.net,Mercer County Family YMCA,401 SW 2nd Ave,Aledo,IL,61231-1904,US,<MISSING>,Phone: 309-582-5101,<MISSING>,<MISSING>,<MISSING>,<MISSING>,<MISSING>
https://www.ymca.net,YMCA of Kewanee,315 W 1st St,Kewanee,IL,61443-2103,US,<MISSING>,Phone: 309-853-4431,<MISSING>,<MISSING>,<MISSING>,<MISSING>,<MISSING>
https://www.ymca.net,Mahaska County YMCA,414 N Third Street,Oskaloosa,IA,52577-2216,US,<MISSING>,Phone: 641-673-8411,<MISSING>,<MISSING>,<MISSING>,<MISSING>,<MISSING>
https://www.ymca.net,Longwood Branch YMCA,8761 Shepard Rd,Macedonia,OH,44056-1928,US,<MISSING>,Phone: 330-467-8366,<MISSING>,<MISSING>,<MISSING>,<MISSING>,<MISSING>
https://www.ymca.net,Twin Rivers Branch YMCA,6100 Twin Rivers Cir,Valley,NE,68064-2707,US,<MISSING>,Phone: 402-359-9622,<MISSING>,<MISSING>,<MISSING>,<MISSING>,<MISSING>
https://www.ymca.net,Camp Crosley YMCA,165 EMS T2 Lane,North Webster,IN,46555-9378,US,<MISSING>,Phone: 574-834-2331,<MISSING>,<MISSING>,<MISSING>,<MISSING>,<MISSING>
https://www.ymca.net,North Royalton Family YMCA,11409 State Road,North Royalton,OH,44133,US,<MISSING>,Phone: 440-230-9339,<MISSING>,<MISSING>,<MISSING>,<MISSING>,<MISSING>
https://www.ymca.net,YMCA of Dekalb County Inc.,533 North Street,Auburn,IN,46706,US,<MISSING>,Phone: 260-925-9622,<MISSING>,<MISSING>,<MISSING>,<MISSING>,<MISSING>
https://www.ymca.net,Ridgewood Branch YMCA,6840 Ridge Road,Parma,OH,44129-5627,US,<MISSING>,Phone: 440-842-5200,<MISSING>,<MISSING>,<MISSING>,<MISSING>,<MISSING>
https://www.ymca.net,Indianola YMCA,306 E Scenic Valley Dr,Indianola,IA,50125,US,<MISSING>,Phone: 515-777-7746,<MISSING>,<MISSING>,<MISSING>,<MISSING>,<MISSING>
https://www.ymca.net,Nishna Valley Family YMCA,1100 Maple St,Atlantic,IA,50022-2708,US,<MISSING>,Phone: 712-243-3934,<MISSING>,<MISSING>,<MISSING>,<MISSING>,<MISSING>
https://www.ymca.net,Vermilion Family YMCA,320 Aldrich Road,Vermilion,OH,44089-2286,US,<MISSING>,Phone: 440-967-4208,<MISSING>,<MISSING>,<MISSING>,<MISSING>,<MISSING>
https://www.ymca.net,Muscatine Community YMCA,1823 Logan St,Muscatine,IA,52761-2434,US,<MISSING>,Phone: 563-263-9996,<MISSING>,<MISSING>,<MISSING>,<MISSING>,<MISSING>
https://www.ymca.net,YMCA of Fremont Nebraska,810 N Lincoln Ave,Fremont,NE,68025-4488,US,<MISSING>,Phone: 402-721-6952,<MISSING>,<MISSING>,<MISSING>,<MISSING>,<MISSING>
https://www.ymca.net,Cole Center Family YMCA,"700 Garden St,PO Box 233",Kendallville,IN,46755-0233,US,<MISSING>,Phone: 260-347-9622,<MISSING>,<MISSING>,<MISSING>,<MISSING>,<MISSING>
https://www.ymca.net,Warrensville Family Branch YMCA,4433 Northfield Road,Warrensville Heights,OH,44128,US,<MISSING>,Phone: 216-518-9622,<MISSING>,<MISSING>,<MISSING>,<MISSING>,<MISSING>
https://www.ymca.net,West Park Fairview Branch YMCA,15501 Lorain Ave,Cleveland,OH,44111-5539,US,<MISSING>,Phone: 216-941-5410,<MISSING>,<MISSING>,<MISSING>,<MISSING>,<MISSING>
https://www.ymca.net,French Creek YMCA,2010 Recreational Lane,Avon,OH,44011,US,<MISSING>,Phone: 440-934-9622,<MISSING>,<MISSING>,<MISSING>,<MISSING>,<MISSING>
https://www.ymca.net,Columbus Family YMCA Inc.,3912 38th St.,Columbus,NE,68601-3261,US,<MISSING>,Phone: 402-564-9477,<MISSING>,<MISSING>,<MISSING>,<MISSING>,<MISSING>
https://www.ymca.net,Camp Abe Lincoln,1624 W. Front St,Blue Grass,IA,52726-9658,US,<MISSING>,Phone: 563-381-3053,<MISSING>,<MISSING>,<MISSING>,<MISSING>,<MISSING>
https://www.ymca.net,Williams County Family YMCA,One Faber Dr.,Bryan,OH,43506-9127,US,<MISSING>,Phone: 419-636-6185,<MISSING>,<MISSING>,<MISSING>,<MISSING>,<MISSING>
https://www.ymca.net,West Shore Family Branch YMCA,1575 Columbia Road,Westlake,OH,44145-2497,US,<MISSING>,Phone: 440-871-6885,<MISSING>,<MISSING>,<MISSING>,<MISSING>,<MISSING>
https://www.ymca.net,Lakewood Branch YMCA,16915 Detroit Avenue,Lakewood,OH,44107-3620,US,<MISSING>,Phone: 216-521-8400,<MISSING>,<MISSING>,<MISSING>,<MISSING>,<MISSING>
https://www.ymca.net,Y-Haven Branch YMCA,6001 Woodland Avenue,Cleveland,OH,44104,US,<MISSING>,Phone: 216-431-2018,<MISSING>,<MISSING>,<MISSING>,<MISSING>,<MISSING>
https://www.ymca.net,Two Rivers YMCA,2040 -  53rd St,Moline,IL,61265-3698,US,<MISSING>,Phone: 309-797-3945,<MISSING>,<MISSING>,<MISSING>,<MISSING>,<MISSING>
https://www.ymca.net,Downtown Branch YMCA,1301 E. 9th St.,Cleveland,OH,44114,US,<MISSING>,Phone: 216-344-7700,<MISSING>,<MISSING>,<MISSING>,<MISSING>,<MISSING>
https://www.ymca.net,Community Youth Services Branch YMCA,1801 Superior Avenue,Cleveland,OH,44115-2697,US,<MISSING>,Phone: 216-344-0095,<MISSING>,<MISSING>,<MISSING>,<MISSING>,<MISSING>
https://www.ymca.net,YMCA of Greater Cleveland,"1801 Superior Ave,Suite #130",Cleveland,OH,44114,US,<MISSING>,Phone: 216-781-1337,<MISSING>,<MISSING>,<MISSING>,<MISSING>,<MISSING>
https://www.ymca.net,Rock Island Family YMCA,630 9th Street,Rock Island,IL,61201,US,<MISSING>,Phone: 309-277-1781,<MISSING>,<MISSING>,<MISSING>,<MISSING>,<MISSING>
https://www.ymca.net,Bass Street YMCA and Sylvan Boathouse,1701 1st Avenue,Moline,IL,61265,US,<MISSING>,Phone: 309-762-6030,<MISSING>,<MISSING>,<MISSING>,<MISSING>,<MISSING>
https://www.ymca.net,Hillcrest Family Branch YMCA,5000 Mayfield Road,Lyndhurst,OH,44124-2605,US,<MISSING>,Phone: 216-382-4300,<MISSING>,<MISSING>,<MISSING>,<MISSING>,<MISSING>
https://www.ymca.net,Davenport Family YMCA,606 W 2nd St,Davenport,IA,52801-1095,US,<MISSING>,Phone: 563-322-7171,<MISSING>,<MISSING>,<MISSING>,<MISSING>,<MISSING>
https://www.ymca.net,Scott County Family YMCA,606 W 2nd St,Davenport,IA,52801-1095,US,<MISSING>,Phone: 563-322-7171,<MISSING>,<MISSING>,<MISSING>,<MISSING>,<MISSING>
https://www.ymca.net,South Suburban YMCA,401 E Army Post Rd,Des Moines,IA,50315-7236,US,<MISSING>,Phone: 515-285-0444,<MISSING>,<MISSING>,<MISSING>,<MISSING>,<MISSING>
https://www.ymca.net,YMCA Child Care,624 E 4th St.,Davenport,IA,52801,US,<MISSING>,Phone: 563-323-5770,<MISSING>,<MISSING>,<MISSING>,<MISSING>,<MISSING>
https://www.ymca.net,Geauga Branch YMCA,12460 Bass Lake Road,Chardon,OH,44024-8315,US,<MISSING>,Phone: 440-285-7543,<MISSING>,<MISSING>,<MISSING>,<MISSING>,<MISSING>
https://www.ymca.net,Camp Potawotami Branch YMCA,PO Box 38,South Milford,IN,46786-0038,US,<MISSING>,Phone: 260-351-2525,<MISSING>,<MISSING>,<MISSING>,<MISSING>,<MISSING>
https://www.ymca.net,West Family YMCA,3503 W Locust St,Davenport,IA,52804-3018,US,<MISSING>,Phone: 563-386-4414,<MISSING>,<MISSING>,<MISSING>,<MISSING>,<MISSING>
https://www.ymca.net,Bettendorf Family YMCA,3800 Tanglefoot Lane,Bettendorf,IA,52722-3200,US,<MISSING>,Phone: 563-359-9622,<MISSING>,<MISSING>,<MISSING>,<MISSING>,<MISSING>
https://www.ymca.net,Utica Ridge YMCA,4885 Utica Ridge Rd,Davenport,IA,52807,US,<MISSING>,Phone: 563-345-4244,<MISSING>,<MISSING>,<MISSING>,<MISSING>,<MISSING>
https://www.ymca.net,North Family Branch YMCA,624 W 53rd St,Davenport,IA,52806-2239,US,<MISSING>,Phone: 563-391-7771,<MISSING>,<MISSING>,<MISSING>,<MISSING>,<MISSING>
https://www.ymca.net,YMCA of the Hammond Area Inc.,7322 Southeastern Ave,Hammond,IN,46324-2931,US,<MISSING>,Phone: 219-845-1507,<MISSING>,<MISSING>,<MISSING>,<MISSING>,<MISSING>
https://www.ymca.net,YMCA Supportive Housing Campus,2 SW 9th St,Des Moines,IA,50309,US,<MISSING>,Phone: 515-288-2424,<MISSING>,<MISSING>,<MISSING>,<MISSING>,<MISSING>
https://www.ymca.net,YMCA of Greater Des Moines Iowa,501 Grand Ave.,Des Moines,IA,50309,US,<MISSING>,Phone: 515-282-9622,<MISSING>,<MISSING>,<MISSING>,<MISSING>,<MISSING>
https://www.ymca.net,Wellmark YMCA,501 Grand Ave.,Des Moines,IA,50309,US,<MISSING>,Phone: 515-282-9622,<MISSING>,<MISSING>,<MISSING>,<MISSING>,<MISSING>
https://www.ymca.net,Walnut Creek Family YMCA,948 73rd St,Windsor Heights,IA,50324-1032,US,<MISSING>,Phone: 515-224-1888,<MISSING>,<MISSING>,<MISSING>,<MISSING>,<MISSING>
https://www.ymca.net,Euclid Family Branch YMCA,631 Babbitt Road,Euclid,OH,44123-2025,US,<MISSING>,Phone: 216-731-7454,<MISSING>,<MISSING>,<MISSING>,<MISSING>,<MISSING>
https://www.ymca.net,John R. Grubb Community YMCA,1611 - 11th St,Des Moines,IA,50314-2440,US,<MISSING>,Phone: 515-246-0791,<MISSING>,<MISSING>,<MISSING>,<MISSING>,<MISSING>
https://www.ymca.net,South Suburban YMCA,178 E 155th St,Harvey,IL,60426-3622,US,<MISSING>,Phone: 708-331-6500,<MISSING>,<MISSING>,<MISSING>,<MISSING>,<MISSING>
https://www.ymca.net,Waukee Family YMCA,210 N Warrior Lane,Waukee,IA,50263,US,<MISSING>,Phone: 515-987-9996,<MISSING>,<MISSING>,<MISSING>,<MISSING>,<MISSING>
https://www.ymca.net,Lake County West End Branch YMCA,37100 Euclid Ave,Willoughby,OH,44094-5612,US,<MISSING>,Phone: 440-946-1160,<MISSING>,<MISSING>,<MISSING>,<MISSING>,<MISSING>
https://www.ymca.net,"YMCA of Steuben County, Inc.",500 E Harcourt Rd,Angola,IN,46703-7590,US,<MISSING>,Phone: 260-668-3607,<MISSING>,<MISSING>,<MISSING>,<MISSING>,<MISSING>
https://www.ymca.net,Whiting Family YMCA,1938 Clark St.,Whiting,IN,46394,US,<MISSING>,Phone: 219-370-5091,<MISSING>,<MISSING>,<MISSING>,<MISSING>,<MISSING>
https://www.ymca.net,YMCA of Newton Iowa Inc.,1701 S 8th Ave E,Newton,IA,50208-5055,US,<MISSING>,Phone: 641-792-4006,<MISSING>,<MISSING>,<MISSING>,<MISSING>,<MISSING>
https://www.ymca.net,Lake County YMCA,933 Mentor Ave,Painesville,OH,44077,US,<MISSING>,Phone: 440-354-5656,<MISSING>,<MISSING>,<MISSING>,<MISSING>,<MISSING>
https://www.ymca.net,Lake County Central Branch YMCA,933 Mentor Ave,Painesville,OH,44077-2519,US,<MISSING>,Phone: 440-352-3303,<MISSING>,<MISSING>,<MISSING>,<MISSING>,<MISSING>
https://www.ymca.net,South Chicago YMCA ,3039 E 91st St,Chicago,IL,60617-4499,US,<MISSING>,Phone: 773-721-9100,<MISSING>,<MISSING>,<MISSING>,<MISSING>,<MISSING>
https://www.ymca.net,Lake County Outdoor Family Center YMCA,4540 River Rd,Perry,OH,44081-8613,US,<MISSING>,Phone: 440-259-2724,<MISSING>,<MISSING>,<MISSING>,<MISSING>,<MISSING>
https://www.ymca.net,Ankeny Family YMCA,1102 N Ankeny Blvd,Ankeny,IA,50021-4005,US,<MISSING>,Phone: 515-965-8800,<MISSING>,<MISSING>,<MISSING>,<MISSING>,<MISSING>
https://www.ymca.net,West Communities YMCA,6235 S Homan Ave,Chicago,IL,60629-3337,US,<MISSING>,Phone: 773-434-0300,<MISSING>,<MISSING>,<MISSING>,<MISSING>,<MISSING>
https://www.ymca.net,South Side YMCA,6330 S Stony Island Ave,Chicago,IL,60637-3754,US,<MISSING>,Phone: 773-947-0700,<MISSING>,<MISSING>,<MISSING>,<MISSING>,<MISSING>
https://www.ymca.net,Indian Boundary YMCA,711 59th Street,Downers Grove,IL,60516-6064,US,<MISSING>,Phone: 630-968-8400,<MISSING>,<MISSING>,<MISSING>,<MISSING>,<MISSING>
https://www.ymca.net,Sterling-Rock Falls Family YMCA,2505 YMCA Way,Sterling,IL,61081-9063,US,<MISSING>,Phone: 815-535-9622,<MISSING>,<MISSING>,<MISSING>,<MISSING>,<MISSING>
https://www.ymca.net,Illinois YMCA Youth and Government,"1315 Butterfield Rd,Ste. 218",Downers Grove,IL,60515,US,<MISSING>,Phone: 630-833-9622,<MISSING>,<MISSING>,<MISSING>,<MISSING>,<MISSING>
https://www.ymca.net,Greater LaGrange YMCA,1100 E. 31st St,La Grange,IL,60525-2016,US,<MISSING>,Phone: 708-352-7600,<MISSING>,<MISSING>,<MISSING>,<MISSING>,<MISSING>
https://www.ymca.net,YMCA of Berwyn-Cicero,2947 Oak Park Ave,Berwyn,IL,60402-3048,US,<MISSING>,Phone: 708-749-0606,<MISSING>,<MISSING>,<MISSING>,<MISSING>,<MISSING>
https://www.ymca.net,Rauner Family YMCA,2700 S. Western Ave,Chicago,IL,60608,US,<MISSING>,Phone: 773-847-3115,<MISSING>,<MISSING>,<MISSING>,<MISSING>,<MISSING>
https://www.ymca.net,Scottsbluff Family YMCA,"22 South Beltline Hwy East,PO Box 2423",Scottsbluff,NE,69363-2423,US,<MISSING>,Phone: 308-635-2318,<MISSING>,<MISSING>,<MISSING>,<MISSING>,<MISSING>
https://www.ymca.net,Kimball Camp YMCA Nature Center,4502 Berlin Drive,Reading,MI,49274-9303,US,<MISSING>,Phone: 517-283-2168,<MISSING>,<MISSING>,<MISSING>,<MISSING>,<MISSING>
https://www.ymca.net,North Lawndale YMCA,3449 W Arthington St,Chicago,IL,60624-4104,US,<MISSING>,Phone: 773-638-0773,<MISSING>,<MISSING>,<MISSING>,<MISSING>,<MISSING>
https://www.ymca.net,YMCA of Metropolitan Chicago,1030 W Van Buren St.,Chicago,IL,60607-2916,US,<MISSING>,Phone: 312-932-1200,<MISSING>,<MISSING>,<MISSING>,<MISSING>,<MISSING>
https://www.ymca.net,Tri-Town YMCA,105 W. Maple Street,Lombard,IL,60148,US,<MISSING>,Phone: 630-629-9622,<MISSING>,<MISSING>,<MISSING>,<MISSING>,<MISSING>
https://www.ymca.net,The West Cook YMCAs,255 S. Marion St.,Oak Park,IL,60302-3103,US,<MISSING>,Phone: 708-383-5200,<MISSING>,<MISSING>,<MISSING>,<MISSING>,<MISSING>
https://www.ymca.net,Elmhurst YMCA,211 W First St,Elmhurst,IL,60126-2601,US,<MISSING>,Phone: 630-834-9200,<MISSING>,<MISSING>,<MISSING>,<MISSING>,<MISSING>
https://www.ymca.net,Kelly Hall YMCA,824 N Hamlin Ave,Chicago,IL,60651,US,<MISSING>,Phone: 773-886-1220,<MISSING>,<MISSING>,<MISSING>,<MISSING>,<MISSING>
https://www.ymca.net,YMCA of Lenawee County,638 W. Maumee St,Adrian,MI,49221-2030,US,<MISSING>,Phone: 517-263-2151,<MISSING>,<MISSING>,<MISSING>,<MISSING>,<MISSING>
https://www.ymca.net,McCormick YMCA,1834 N Lawndale Ave,Chicago,IL,60647-4700,US,<MISSING>,Phone: 773-235-2525,<MISSING>,<MISSING>,<MISSING>,<MISSING>,<MISSING>
https://www.ymca.net,Lake View YMCA,3333 N Marshfield Ave,Chicago,IL,60657-2123,US,<MISSING>,Phone: 773-248-3333,<MISSING>,<MISSING>,<MISSING>,<MISSING>,<MISSING>
https://www.ymca.net,YMCA Camp Eberhart,10481 Camp Eberhart Rd,Three Rivers,MI,49093,US,<MISSING>,Phone: 269-244-5125,<MISSING>,<MISSING>,<MISSING>,<MISSING>,<MISSING>
https://www.ymca.net,Irving Park YMCA,4251 W Irving Park Rd,Chicago,IL,60641-2984,US,<MISSING>,Phone: 773-777-7500,<MISSING>,<MISSING>,<MISSING>,<MISSING>,<MISSING>
https://www.ymca.net,Campanelli YMCA,300 W. Wise Rd.,Schaumburg,IL,60193,US,<MISSING>,Phone: 847-891-9622,<MISSING>,<MISSING>,<MISSING>,<MISSING>,<MISSING>
https://www.ymca.net,Leaning Tower YMCA,6300 W Touhy Ave,Niles,IL,60714-4627,US,<MISSING>,Phone: 847-410-5108,<MISSING>,<MISSING>,<MISSING>,<MISSING>,<MISSING>
https://www.ymca.net,High Ridge YMCA,2424 W Touhy Ave,Chicago,IL,60645-3397,US,<MISSING>,Phone: 773-262-8300,<MISSING>,<MISSING>,<MISSING>,<MISSING>,<MISSING>
https://www.ymca.net,YMCA of Marshalltown Iowa,108 Washington St,Marshalltown,IA,50158-2833,US,<MISSING>,Phone: 641-752-8658,<MISSING>,<MISSING>,<MISSING>,<MISSING>,<MISSING>
https://www.ymca.net,McGaw YMCA Child Care Center,1420 Maple Ave,Evanston,IL,60201-4323,US,<MISSING>,Phone: 847-475-8580,<MISSING>,<MISSING>,<MISSING>,<MISSING>,<MISSING>
https://www.ymca.net,McGaw YMCA,1000 Grove St,Evanston,IL,60201-4294,US,<MISSING>,Phone: 847-475-7400,<MISSING>,<MISSING>,<MISSING>,<MISSING>,<MISSING>
https://www.ymca.net,YMCA of Norfolk Nebraska,301 W Benjamin Ave,Norfolk,NE,68701-2910,US,<MISSING>,Phone: 402-371-9770,<MISSING>,<MISSING>,<MISSING>,<MISSING>,<MISSING>
https://www.ymca.net,Lattof YMCA,300 E Northwest Hwy,Des Plaines,IL,60016-2284,US,<MISSING>,Phone: 847-296-3376,<MISSING>,<MISSING>,<MISSING>,<MISSING>,<MISSING>
https://www.ymca.net,Boone County Family YMCA,608 Carroll St,Boone,IA,50036,US,<MISSING>,Phone: 515-432-5925,<MISSING>,<MISSING>,<MISSING>,<MISSING>,<MISSING>
https://www.ymca.net,Maquoketa Area Family YMCA,500 E Summit St,Maquoketa,IA,52060,US,<MISSING>,Phone: 563-652-6566,<MISSING>,<MISSING>,<MISSING>,<MISSING>,<MISSING>
https://www.ymca.net,YMCA Camp Merrill Benson,16355 Scenic Palisades Rd.,Mt.Carroll,IL,61053,US,<MISSING>,Phone: 815-244-8722,<MISSING>,<MISSING>,<MISSING>,<MISSING>,<MISSING>
https://www.ymca.net,North Suburban YMCA,2705 Techny Rd,Northbrook,IL,60062-5963,US,<MISSING>,Phone: 847-272-7250,<MISSING>,<MISSING>,<MISSING>,<MISSING>,<MISSING>
https://www.ymca.net,Des Moines YMCA Camp,1192 166th Dr,Boone,IA,50036-7222,US,<MISSING>,Phone: 515-432-7558,<MISSING>,<MISSING>,<MISSING>,<MISSING>,<MISSING>
https://www.ymca.net,Storer Camps,6941 Stoney Lake Road,Jackson,MI,49201-9211,US,<MISSING>,Phone: 517-536-8607,<MISSING>,<MISSING>,<MISSING>,<MISSING>,<MISSING>
https://www.ymca.net,Portage Branch YMCA,2900 W. Centre Ave,Portage,MI,49024,US,<MISSING>,Phone: 269-324-9622,<MISSING>,<MISSING>,<MISSING>,<MISSING>,<MISSING>
https://www.ymca.net,Jackson YMCA Center Inc.,127 W Wesley St,Jackson,MI,49201-2226,US,<MISSING>,Phone: 517-782-0537,<MISSING>,<MISSING>,<MISSING>,<MISSING>,<MISSING>
https://www.ymca.net,YMCA of Greater Kalamazoo,1001 W Maple St,Kalamazoo,MI,49008-1885,US,<MISSING>,Phone: 269-345-9622,<MISSING>,<MISSING>,<MISSING>,<MISSING>,<MISSING>
https://www.ymca.net,Maple Branch YMCA,1001 West Maple St,Kalamazoo,MI,49008,US,<MISSING>,Phone: 269-345-9622,<MISSING>,<MISSING>,<MISSING>,<MISSING>,<MISSING>
https://www.ymca.net,Lincoln School Branch YMCA,912 N Burdick St,Kalamazoo,MI,49007,US,<MISSING>,Phone: 269-345-9845,<MISSING>,<MISSING>,<MISSING>,<MISSING>,<MISSING>
https://www.ymca.net,Battle Creek Family YMCA,182 Capital Ave NE,Battle Creek,MI,49017-3925,US,<MISSING>,Phone: 269-963-9622,<MISSING>,<MISSING>,<MISSING>,<MISSING>,<MISSING>
https://www.ymca.net,Sherman Lake YMCA Outdoor Center,6225 N 39th St,Augusta,MI,49012-9722,US,<MISSING>,Phone: 269-731-3000,<MISSING>,<MISSING>,<MISSING>,<MISSING>,<MISSING>
https://www.ymca.net,Grundy Family YMCA,102 East G Ave,Grundy Center,IA,50638,US,<MISSING>,Phone: 319-825-6210,<MISSING>,<MISSING>,<MISSING>,<MISSING>,<MISSING>
https://www.ymca.net,Family YMCA of Black Hawk County,669 S Hackett Rd,Waterloo,IA,50701-5632,US,<MISSING>,Phone: 319-233-3531,<MISSING>,<MISSING>,<MISSING>,<MISSING>,<MISSING>
https://www.ymca.net,Magic Valley YMCA,1751 Elizabeth Blvd,Twin Falls,ID,83301-6938,US,<MISSING>,Phone: 208-733-4384,<MISSING>,<MISSING>,<MISSING>,<MISSING>,<MISSING>
https://www.ymca.net,Kenosha YMCA,7101- 53rd St,Kenosha,WI,53144,US,<MISSING>,Phone: 262-654-9622,<MISSING>,<MISSING>,<MISSING>,<MISSING>,<MISSING>
https://www.ymca.net,YMCA of Barry County,"PO Box 252,2055 Iroquois Trail",Hastings,MI,49058-0252,US,<MISSING>,Phone: 269-945-4574,<MISSING>,<MISSING>,<MISSING>,<MISSING>,<MISSING>
https://www.ymca.net,Camp MacLean YMCA,31401 Durand Avenue,Burlington,WI,53105-9401,US,<MISSING>,Phone: 262-763-7742,<MISSING>,<MISSING>,<MISSING>,<MISSING>,<MISSING>
https://www.ymca.net,Riverside Branch YMCA,"141 Main St,Suite 5",Racine,WI,53403,US,<MISSING>,Phone: 262-634-1994,<MISSING>,<MISSING>,<MISSING>,<MISSING>,<MISSING>
https://www.ymca.net,Racine Family YMCA,245 Main St,Racine,WI,53403,US,<MISSING>,Phone: 262-634-1994,<MISSING>,<MISSING>,<MISSING>,<MISSING>,<MISSING>
https://www.ymca.net,Sealed Air Family YMCA,8501 campus Dr,Mt. Pleasant,WI,53406,US,<MISSING>,Phone: 262-634-1994,<MISSING>,<MISSING>,<MISSING>,<MISSING>,<MISSING>
https://www.ymca.net,Le Mars Area Family YMCA,"241 12th St SE,PO Box 41",Le Mars,IA,51031-0041,US,<MISSING>,Phone: 712-546-6655,<MISSING>,<MISSING>,<MISSING>,<MISSING>,<MISSING>
https://www.ymca.net,Camp Edwards Branch YMCA,N8901 Army Lake Rd,East Troy,WI,53120,US,<MISSING>,Phone: 262-642-7466,<MISSING>,<MISSING>,<MISSING>,<MISSING>,<MISSING>
https://www.ymca.net,YMCA of Natrona County,1611 Casper Mountain Road,Casper,WY,82601-4325,US,<MISSING>,Phone: 307-234-9187,<MISSING>,<MISSING>,<MISSING>,<MISSING>,<MISSING>
https://www.ymca.net,Phantom Lake YMCA Camp Inc.,S110W30240 YMCA Camp Rd,Mukwonago,WI,53149-9535,US,<MISSING>,Phone: 262-363-4386,<MISSING>,<MISSING>,<MISSING>,<MISSING>,<MISSING>
https://www.ymca.net,Mukwonago YMCA,245 E Wolf Run,Mukwonago,WI,53149,US,<MISSING>,Phone: 262-363-7950,<MISSING>,<MISSING>,<MISSING>,<MISSING>,<MISSING>
https://www.ymca.net,Ionia County Branch YMCA,250 E Tuttle Rd,Ionia,MI,48846-8605,US,<MISSING>,Phone: 616-527-5760,<MISSING>,<MISSING>,<MISSING>,<MISSING>,<MISSING>
https://www.ymca.net,Southwest YMCA,11311 W Howard Ave,Greenfield,WI,53228-1899,US,<MISSING>,Phone: 414-546-9622,<MISSING>,<MISSING>,<MISSING>,<MISSING>,<MISSING>
https://www.ymca.net,Shiawassee Family YMCA,515 W Main St,Owosso,MI,48867-2608,US,<MISSING>,Phone: 989-725-8136,<MISSING>,<MISSING>,<MISSING>,<MISSING>,<MISSING>
https://www.ymca.net,YMCA of Greater Waukesha County,320 E Broadway,Waukesha,WI,53186-5060,US,<MISSING>,Phone: 262-542-2557,<MISSING>,<MISSING>,<MISSING>,<MISSING>,<MISSING>
https://www.ymca.net,Waukesha YMCA,320 E. Broadway,Waukesha,WI,53186,US,<MISSING>,Phone: 262-542-2557,<MISSING>,<MISSING>,<MISSING>,<MISSING>,<MISSING>
https://www.ymca.net,YMCA of Metropolitan Milwaukee Inc.,161 W Wisconsin Ave Ste 4000,Milwaukee,WI,53203-2607,US,<MISSING>,Phone: 414-224-9622,<MISSING>,<MISSING>,<MISSING>,<MISSING>,<MISSING>
https://www.ymca.net,Downtown Branch YMCA,"161 W Wisconsin Avenue,Suite 4000",Milwaukee,WI,53203-2607,US,<MISSING>,Phone: 414-291-9622,<MISSING>,<MISSING>,<MISSING>,<MISSING>,<MISSING>
https://www.ymca.net,Flint YMCA-Pierson Road Branch,G-5219 Pierson Rd,Flushing,MI,48433-2411,US,<MISSING>,Phone: 810-732-9622,<MISSING>,<MISSING>,<MISSING>,<MISSING>,<MISSING>
https://www.ymca.net,Northside Branch YMCA,1350 W North Ave,Milwaukee,WI,53205-1264,US,<MISSING>,Phone: 414-265-9622,<MISSING>,<MISSING>,<MISSING>,<MISSING>,<MISSING>
https://www.ymca.net,West Suburban YMCA,2420 N 124th St,Wauwatosa,WI,53226-1093,US,<MISSING>,Phone: 414-302-9622,<MISSING>,<MISSING>,<MISSING>,<MISSING>,<MISSING>
https://www.ymca.net,Glacial Community YMCA,1750 E Valley Rd,Oconomowoc,WI,53066-4851,US,<MISSING>,Phone: 262-567-7251,<MISSING>,<MISSING>,<MISSING>,<MISSING>,<MISSING>
https://www.ymca.net,Wolverine World Wide Family YMCA,6555 Jupiter Ave,Belmont,MI,49306,US,<MISSING>,Phone: 616-363-3000,<MISSING>,<MISSING>,<MISSING>,<MISSING>,<MISSING>
https://www.ymca.net,Parklawn Branch YMCA,4340 N 46th St,Milwaukee,WI,53216-1476,US,<MISSING>,Phone: 414-873-9622,<MISSING>,<MISSING>,<MISSING>,<MISSING>,<MISSING>
https://www.ymca.net,Tri-County YMCA,N84W17501 Menomonee Ave,Menomonee Falls,WI,53051,US,<MISSING>,Phone: 262-255-9622,<MISSING>,<MISSING>,<MISSING>,<MISSING>,<MISSING>
https://www.ymca.net,Northwest YMCA,9050 N Swan Rd,Milwaukee,WI,53224-1910,US,<MISSING>,Phone: 414-586-9622,<MISSING>,<MISSING>,<MISSING>,<MISSING>,<MISSING>
https://www.ymca.net,Rite-Hite Family YMCA,9250 N Green Bay Rd,Brown Deer,WI,53209-1199,US,<MISSING>,Phone: 414-354-9622,<MISSING>,<MISSING>,<MISSING>,<MISSING>,<MISSING>
https://www.ymca.net,Camp Minikani Branch YMCA,875 Amy Belle Rd,Hubertus,WI,53033-9657,US,<MISSING>,Phone: 262-251-9080,<MISSING>,<MISSING>,<MISSING>,<MISSING>,<MISSING>
https://www.ymca.net,Edgemont YMCA,"715 D St,PO Box 29",Edgemont,SD,57735,US,<MISSING>,Phone: 605-662-7999,<MISSING>,<MISSING>,<MISSING>,<MISSING>,<MISSING>
https://www.ymca.net,Camp Pinewood YMCA,4230 Obenauf Rd,Twin Lake,MI,49457,US,<MISSING>,Phone: 231-821-2421,<MISSING>,<MISSING>,<MISSING>,<MISSING>,<MISSING>
https://www.ymca.net,Feith Family Ozaukee Branch YMCA,465 Northwoods Rd,Port Washington,WI,53074-2617,US,<MISSING>,Phone: 262-268-9622,<MISSING>,<MISSING>,<MISSING>,<MISSING>,<MISSING>
https://www.ymca.net,YMCA of Saginaw,1915 Fordney St,Saginaw,MI,48601-2809,US,<MISSING>,Phone: 989-753-7721,<MISSING>,<MISSING>,<MISSING>,<MISSING>,<MISSING>
https://www.ymca.net,Kettle Moraine YMCA Inc.,1111 W Washington St,West Bend,WI,53095-2433,US,<MISSING>,Phone: 262-334-3405,<MISSING>,<MISSING>,<MISSING>,<MISSING>,<MISSING>
https://www.ymca.net,Bedell Family YMCA,1900 41st St,Spirit Lake,IA,51360,US,<MISSING>,Phone: 712-336-9622,<MISSING>,<MISSING>,<MISSING>,<MISSING>,<MISSING>
https://www.ymca.net,Camp Foster YMCA,1900 41st St,Spirit Lake,IA,51360-0296,US,<MISSING>,Phone: 712-336-9622,<MISSING>,<MISSING>,<MISSING>,<MISSING>,<MISSING>
https://www.ymca.net,YMCA Camp Pendalouan,1243 East Fruitvale Rd,Montague,MI,49437-9540,US,<MISSING>,Phone: 231-894-4538,<MISSING>,<MISSING>,<MISSING>,<MISSING>,<MISSING>
https://www.ymca.net,McGaw YMCA Camp Echo,3782 South Triangle Trail,Fremont,MI,49412-8726,US,<MISSING>,Phone: 231-924-7076,<MISSING>,<MISSING>,<MISSING>,<MISSING>,<MISSING>
https://www.ymca.net,YMCA of Idaho Falls Inc.,"155 N. Corner St,155 N. Corner St",Idaho Falls,ID,83402-4031,US,<MISSING>,Phone: 208-523-0600,<MISSING>,<MISSING>,<MISSING>,<MISSING>,<MISSING>
https://www.ymca.net,YMCA of Sioux Falls,220 S Minnesota Ave,Sioux Falls,SD,57104-6314,US,<MISSING>,Phone: 605-336-3190,<MISSING>,<MISSING>,<MISSING>,<MISSING>,<MISSING>
https://www.ymca.net,South Meridian Family YMCA,5155 South Hillsdale Ave,Meridian,ID,83642,US,<MISSING>,Phone: 208-331-9622,<MISSING>,<MISSING>,<MISSING>,<MISSING>,<MISSING>
https://www.ymca.net,Dow Bay Area Family YMCA,225 Washington Avenue,Bay City,MI,48708-6432,US,<MISSING>,Phone: 989-895-8596,<MISSING>,<MISSING>,<MISSING>,<MISSING>,<MISSING>
https://www.ymca.net,Downtown Family YMCA,1050 W State Street,Boise,ID,83702-5442,US,<MISSING>,Phone: 208-344-5501,<MISSING>,<MISSING>,<MISSING>,<MISSING>,<MISSING>
https://www.ymca.net,Child Development YMCA,1177 West State Street,Boise,ID,83702,US,<MISSING>,Phone: 208-344-5501,<MISSING>,<MISSING>,<MISSING>,<MISSING>,<MISSING>
https://www.ymca.net,YMCA of Boise Inc.,1177 W. State St.,Boise,ID,83702-8364,US,<MISSING>,Phone: 208-344-5501,<MISSING>,<MISSING>,<MISSING>,<MISSING>,<MISSING>
https://www.ymca.net,Horsethief Reservoir Camp,3720 S. Indiana Avenue,Caldwell,ID,83605,US,<MISSING>,Phone: 208-344-5502,<MISSING>,<MISSING>,<MISSING>,<MISSING>,<MISSING>
https://www.ymca.net,Worthington Area YMCA,1501 Collegeway,Worthington,MN,56187-2448,US,<MISSING>,Phone: 507-376-6197,<MISSING>,<MISSING>,<MISSING>,<MISSING>,<MISSING>
https://www.ymca.net,Caldwell Branch YMCA,3720 S. Indiana,Caldwell,ID,83605,US,<MISSING>,Phone: 208-454-9622,<MISSING>,<MISSING>,<MISSING>,<MISSING>,<MISSING>
https://www.ymca.net,West Family YMCA and Boise City Aquatic Center,5959 N Discovery Way,Boise,ID,83713-1556,US,<MISSING>,Phone: 208-377-9622,<MISSING>,<MISSING>,<MISSING>,<MISSING>,<MISSING>
https://www.ymca.net,Wood River Community YMCA,"101 Saddle Road,PO Box 6801",Ketchum,ID,83340,US,<MISSING>,Phone: 208-727-9622,<MISSING>,<MISSING>,<MISSING>,<MISSING>,<MISSING>
https://www.ymca.net,Custer Branch YMCA,644 Crook St,Custer,SD,57730-1608,US,<MISSING>,Phone: 605-673-5134,<MISSING>,<MISSING>,<MISSING>,<MISSING>,<MISSING>
https://www.ymca.net,Mystic Lake Camp Branch YMCA,9505 W Ludington Dr,Lake,MI,48632,US,<MISSING>,Phone: 517-827-9650,<MISSING>,<MISSING>,<MISSING>,<MISSING>,<MISSING>
https://www.ymca.net,Eugene Family YMCA,2055 Patterson St.,Eugene,OR,97405-2958,US,<MISSING>,Phone: 541-686-9622,<MISSING>,<MISSING>,<MISSING>,<MISSING>,<MISSING>
https://www.ymca.net,YMCA of Rapid City South Dakota,815 Kansas City St,Rapid City,SD,57701-2605,US,<MISSING>,Phone: 605-718-9622,<MISSING>,<MISSING>,<MISSING>,<MISSING>,<MISSING>
https://www.ymca.net,Cadillac Area YMCA,9845 Campus Drive,Cadillac,MI,49601,US,<MISSING>,Phone: 231-775-3369,<MISSING>,<MISSING>,<MISSING>,<MISSING>,<MISSING>
https://www.ymca.net,Johnson County Family YMCA,101 Klondike Drive,Buffalo,WY,82834-2599,US,<MISSING>,Phone: 307-684-9558,<MISSING>,<MISSING>,<MISSING>,<MISSING>,<MISSING>
https://www.ymca.net,Oahe YMCA Inc.,900 E Church St,Pierre,SD,57501-2219,US,<MISSING>,Phone: 605-224-1683,<MISSING>,<MISSING>,<MISSING>,<MISSING>,<MISSING>
https://www.ymca.net,Marshall Area YMCA,200 South A St,Marshall,MN,56258-1700,US,<MISSING>,Phone: 507-532-9622,<MISSING>,<MISSING>,<MISSING>,<MISSING>,<MISSING>
https://www.ymca.net,Camp Nissokone,6836 F 41,Oscoda,MI,48750-9608,US,<MISSING>,Phone: 989-739-2801,<MISSING>,<MISSING>,<MISSING>,<MISSING>,<MISSING>
https://www.ymca.net,Mid-Willamette Family YMCA,3201 Pacific Blvd SW,Albany,OR,97321,US,<MISSING>,Phone: 541-926-4488,<MISSING>,<MISSING>,<MISSING>,<MISSING>,<MISSING>
https://www.ymca.net,Grand Traverse Bay YMCA,3700 Silver Lake Road,Traverse City,MI,49684,US,<MISSING>,Phone: 231-933-9622,<MISSING>,<MISSING>,<MISSING>,<MISSING>,<MISSING>
https://www.ymca.net,Sheridan County YMCA,417 N Jefferson St,Sheridan,WY,82801-3827,US,<MISSING>,Phone: 307-674-7488,<MISSING>,<MISSING>,<MISSING>,<MISSING>,<MISSING>
https://www.ymca.net,Door County YMCA,1900 Michigan Street,Sturgeon Bay,WI,54235-3706,US,<MISSING>,Phone: 920-743-4949,<MISSING>,<MISSING>,<MISSING>,<MISSING>,<MISSING>
https://www.ymca.net,Family YMCA of Marion and Polk Counties,685 Court St NE,Salem,OR,97301-3844,US,<MISSING>,Phone: 503-581-9622,<MISSING>,<MISSING>,<MISSING>,<MISSING>,<MISSING>
https://www.ymca.net,State YMCA of Michigan,919 N East Torch Lake Drive,Central Lake,MI,49622-9628,US,<MISSING>,Phone: 231-544-5915,<MISSING>,<MISSING>,<MISSING>,<MISSING>,<MISSING>
https://www.ymca.net,Camp Hayo-Went-Ha YMCA,919 N East Torch Lake Drive,Central Lake,MI,49622-9628,US,<MISSING>,Phone: 231-544-5915,<MISSING>,<MISSING>,<MISSING>,<MISSING>,<MISSING>
https://www.ymca.net,General Convention of Sioux YMCAs,"PO Box 218,224 6th Street",Dupree,SD,57623-0218,US,<MISSING>,Phone: 605-365-5232,<MISSING>,<MISSING>,<MISSING>,<MISSING>,<MISSING>
https://www.ymca.net,Greater Marinette-Menominee YMCA Inc.,1600 West Dr,Menominee,MI,49858-2238,US,<MISSING>,Phone: 906-863-9983,<MISSING>,<MISSING>,<MISSING>,<MISSING>,<MISSING>
https://www.ymca.net,Kandiyohi County Area Family YMCA,"PO Box 757,1000 Lakeland Dr. SE",Willmar,MN,56201,US,<MISSING>,Phone: 320-222-9622,<MISSING>,<MISSING>,<MISSING>,<MISSING>,<MISSING>
https://www.ymca.net,Northern Door Program Center YMCA,3866 Gibraltar Rd,Fish Creek,WI,54212-9626,US,<MISSING>,Phone: 920-868-3660,<MISSING>,<MISSING>,<MISSING>,<MISSING>,<MISSING>
https://www.ymca.net,"Southwestern Montana Family YMCA, Inc",75 Swenson Way,Dillon,MT,59725,US,<MISSING>,Phone: 406-683-9622,<MISSING>,<MISSING>,<MISSING>,<MISSING>,<MISSING>
https://www.ymca.net,YMCA Forest Lake,19845 Forest Rd,Forest Lake,MN,55025,US,<MISSING>,Phone: 651-259-2133,<MISSING>,<MISSING>,<MISSING>,<MISSING>,<MISSING>
https://www.ymca.net,Camp Icaghowan Branch YMCA,889A 115th Street,Amery,WI,54001-5146,US,<MISSING>,Phone: 763-479-1146,<MISSING>,<MISSING>,<MISSING>,<MISSING>,<MISSING>
https://www.ymca.net,Sherwood Regional Family YMCA,23000 SW Pacific Hwy,Sherwood,OR,97140,US,<MISSING>,Phone: 503-625-9622,<MISSING>,<MISSING>,<MISSING>,<MISSING>,<MISSING>
https://www.ymca.net,YMCA of Northern Michigan,523 West Jefferson Street,Petoskey,MI,49770-0652,US,<MISSING>,Phone: 231-348-8393,<MISSING>,<MISSING>,<MISSING>,<MISSING>,<MISSING>
https://www.ymca.net,Clackamas Family Branch YMCA,10121 SE Sunnyside Rd  #300,Clackamas,OR,97015,US,<MISSING>,Phone: 503-654-7950,<MISSING>,<MISSING>,<MISSING>,<MISSING>,<MISSING>
https://www.ymca.net,Tillamook County Family YMCA,610 Stillwell Ave,Tillamook,OR,97141-3752,US,<MISSING>,Phone: 503-842-9622,<MISSING>,<MISSING>,<MISSING>,<MISSING>,<MISSING>
https://www.ymca.net,YMCA of Columbia-Willamette Association Services,9500 SW Barbur Blvd Ste 200,Portland,OR,97219-5426,US,<MISSING>,Phone: 503-223-9622,<MISSING>,<MISSING>,<MISSING>,<MISSING>,<MISSING>
https://www.ymca.net,Child Care Division,9500 SW Barbur Blvd Ste 200,Portland,OR,97219-5426,US,<MISSING>,Phone: 503-223-9622,<MISSING>,<MISSING>,<MISSING>,<MISSING>,<MISSING>
https://www.ymca.net,Aberdeen Family YMCA,5 South State Street,Aberdeen,SD,57401-4524,US,<MISSING>,Phone: 605-225-4910,<MISSING>,<MISSING>,<MISSING>,<MISSING>,<MISSING>
https://www.ymca.net,Westside Community YMCA,9685 SW Harvest Court,Beaverton,OR,97005-9425,US,<MISSING>,Phone: 503-644-2191,<MISSING>,<MISSING>,<MISSING>,<MISSING>,<MISSING>
https://www.ymca.net,YMCA Camp Collins,3001 SE Oxbow Pkwy,Gresham,OR,97080-8916,US,<MISSING>,Phone: 503-663-5813,<MISSING>,<MISSING>,<MISSING>,<MISSING>,<MISSING>
https://www.ymca.net,Teen Division Branch YMCA,3001 SE Oxbow,Gresham,OR,97080,US,<MISSING>,Phone: 503-663-7966,<MISSING>,<MISSING>,<MISSING>,<MISSING>,<MISSING>
https://www.ymca.net,Mt. Hood Branch YMCA,"2500 SE Palmblad Rd, Suite 200",Gresham,OR,97080,US,<MISSING>,Phone: 503-492-9890,<MISSING>,<MISSING>,<MISSING>,<MISSING>,<MISSING>
https://www.ymca.net,St. Cloud Area Family YMCA,2001 Stockinger Dr,Saint Cloud,MN,56303-1255,US,<MISSING>,Phone: 320-253-2664,<MISSING>,<MISSING>,<MISSING>,<MISSING>,<MISSING>
https://www.ymca.net,Clark County Branch YMCA,11324 NE 51st Cir,Vancouver,WA,98682-6130,US,<MISSING>,Phone: 360-885-9622,<MISSING>,<MISSING>,<MISSING>,<MISSING>,<MISSING>
https://www.ymca.net,"Gallatin Valley YMCA, Inc",3673 Love Lane,Bozeman,MT,59718,US,<MISSING>,Phone: 406-994-9622,<MISSING>,<MISSING>,<MISSING>,<MISSING>,<MISSING>
https://www.ymca.net,Northern Lights YMCA,"2001 North Lincoln Rd,PO Box 602",Escanaba,MI,49829-0602,US,<MISSING>,Phone: 906-789-0005,<MISSING>,<MISSING>,<MISSING>,<MISSING>,<MISSING>
https://www.ymca.net,Billings Family YMCA,402 N 32nd St,Billings,MT,59101-1273,US,<MISSING>,Phone: 406-248-1685,<MISSING>,<MISSING>,<MISSING>,<MISSING>,<MISSING>
https://www.ymca.net,Alexandria Area YMCA,110 Karl Drive NW,Alexandria,MN,56308,US,<MISSING>,Phone: 320-834-9622,<MISSING>,<MISSING>,<MISSING>,<MISSING>,<MISSING>
https://www.ymca.net,Butte Family YMCA Inc.,2975 Washoe St,Butte,MT,59701-9199,US,<MISSING>,Phone: 406-782-1266,<MISSING>,<MISSING>,<MISSING>,<MISSING>,<MISSING>
https://www.ymca.net,YMCA Family Camp Nawakwa,13400 Camp Nawakwa Ln,Lac du Flambeau,WI,54538-9111,US,<MISSING>,Phone: 715-588-7422,<MISSING>,<MISSING>,<MISSING>,<MISSING>,<MISSING>
https://www.ymca.net,Camp Manito-Wish YMCA Inc.,PO Box 246,Boulder Junction,WI,54512-0246,US,<MISSING>,Phone: 715-385-2312,<MISSING>,<MISSING>,<MISSING>,<MISSING>,<MISSING>
https://www.ymca.net,YMCA of Southwest Washington,"766 15th Avenue,PO Box 698",Longview,WA,98632-7446,US,<MISSING>,Phone: 360-423-4770,<MISSING>,<MISSING>,<MISSING>,<MISSING>,<MISSING>
https://www.ymca.net,Camp Jorn YMCA Inc.,13591 Zenner Lane,Manitowish Waters,WI,54545-0430,US,<MISSING>,Phone: 715-543-8808,<MISSING>,<MISSING>,<MISSING>,<MISSING>,<MISSING>
https://www.ymca.net,Fergus Falls Area Family YMCA,1164 N Friberg Ave,Fergus Falls,MN,56537-1580,US,<MISSING>,Phone: 218-739-4489,<MISSING>,<MISSING>,<MISSING>,<MISSING>,<MISSING>
https://www.ymca.net,Brainerd Family YMCA Inc.,602 Oak St,Brainerd,MN,56401-3611,US,<MISSING>,Phone: 218-829-4767,<MISSING>,<MISSING>,<MISSING>,<MISSING>,<MISSING>
https://www.ymca.net,YMCA Camp Miller,89382 E Frontage Rd,Sturgeon Lake,MN,55783,US,<MISSING>,Phone: 218-372-3188,<MISSING>,<MISSING>,<MISSING>,<MISSING>,<MISSING>
https://www.ymca.net,YMCA of Helena Inc.,1200 N. Last Chance Gulch,Helena,MT,59602-2995,US,<MISSING>,Phone: 406-442-9622,<MISSING>,<MISSING>,<MISSING>,<MISSING>,<MISSING>
https://www.ymca.net,Superior-Douglas County Family YMCA,9 N 21st St,Superior,WI,54880-5201,US,<MISSING>,Phone: 715-392-5611,<MISSING>,<MISSING>,<MISSING>,<MISSING>,<MISSING>
https://www.ymca.net,Duluth Area Family YMCA Downtown Branch,302 W 1st ST,Duluth,MN,55802,US,<MISSING>,Phone: 218-722-4745,<MISSING>,<MISSING>,<MISSING>,<MISSING>,<MISSING>
https://www.ymca.net,Duluth Area Family YMCA,302 W 1st St,Duluth,MN,55802-1694,US,<MISSING>,Phone: 218-722-4745,<MISSING>,<MISSING>,<MISSING>,<MISSING>,<MISSING>
https://www.ymca.net,Community Services YMCA,"Harbor Highlands,28 W Village View Drive",Duluth,MN,55802,US,<MISSING>,Phone: 218-722-4745,<MISSING>,<MISSING>,<MISSING>,<MISSING>,<MISSING>
https://www.ymca.net,Missouri Valley Family YMCA,"1608 N Washington St,PO Box 549",Bismarck,ND,58502-0549,US,<MISSING>,Phone: 701-255-1525,<MISSING>,<MISSING>,<MISSING>,<MISSING>,<MISSING>
https://www.ymca.net,Greater Missoula Family YMCA,3000 S Russell St,Missoula,MT,59801-8547,US,<MISSING>,Phone: 406-721-9622,<MISSING>,<MISSING>,<MISSING>,<MISSING>,<MISSING>
https://www.ymca.net,Schlossman Family YMCA West,4243 19th Ave SW,Fargo,ND,58103-7183,US,<MISSING>,Phone: 701-281-0126,<MISSING>,<MISSING>,<MISSING>,<MISSING>,<MISSING>
https://www.ymca.net,YMCA of Cass and Clay Counties,400 1st Ave S,Fargo,ND,58103-1998,US,<MISSING>,Phone: 701-293-9622,<MISSING>,<MISSING>,<MISSING>,<MISSING>,<MISSING>
https://www.ymca.net,YMCA Camp Olson,4160 Little Boy Rd NE,Longville,MN,56655-3354,US,<MISSING>,Phone: 218-363-2207,<MISSING>,<MISSING>,<MISSING>,<MISSING>,<MISSING>
https://www.ymca.net,YMCA of Grays Harbor,2500 Simpson Ave,Hoquiam,WA,98550-3937,US,<MISSING>,Phone: 360-537-9622,<MISSING>,<MISSING>,<MISSING>,<MISSING>,<MISSING>
https://www.ymca.net,South Sound YMCA,"2102 Carriage Dr SW,Bldg K",Olympia,WA,98502,US,<MISSING>,Phone: 360-918-0311,<MISSING>,<MISSING>,<MISSING>,<MISSING>,<MISSING>
https://www.ymca.net,Briggs Community Branch YMCA,1530 Yelm Hwy SE,Olympia,WA,98501-4680,US,<MISSING>,Phone: 360-753-6576,<MISSING>,<MISSING>,<MISSING>,<MISSING>,<MISSING>
https://www.ymca.net,Plum Street YMCA Branch,505 Plum St SE,Olympia,WA,98501-1391,US,<MISSING>,Phone: 360-357-6609,<MISSING>,<MISSING>,<MISSING>,<MISSING>,<MISSING>
https://www.ymca.net,Mel Korum Family YMCA,302 43rd Ave SE,Puyallup,WA,98374-5754,US,<MISSING>,Phone: 253-841-9622,<MISSING>,<MISSING>,<MISSING>,<MISSING>,<MISSING>
https://www.ymca.net,Lakewood Family YMCA,9715 Lakewood Dr SW,Lakewood,WA,98499-3980,US,<MISSING>,Phone: 253-584-9622,<MISSING>,<MISSING>,<MISSING>,<MISSING>,<MISSING>
https://www.ymca.net,YMCA Center for Community Impact,9715 Lakewood Dr SW,Lakewood,WA,98499,US,<MISSING>,Phone: 253-460-8917,<MISSING>,<MISSING>,<MISSING>,<MISSING>,<MISSING>
https://www.ymca.net,Gordon Family YMCA,16101 64th Street East,Sumner,WA,98390,US,<MISSING>,Phone: 253-826-9622,<MISSING>,<MISSING>,<MISSING>,<MISSING>,<MISSING>
https://www.ymca.net,Itasca County Family YMCA,400 River Rd,Grand Rapids,MN,55744-3784,US,<MISSING>,Phone: 218-327-1161,<MISSING>,<MISSING>,<MISSING>,<MISSING>,<MISSING>
https://www.ymca.net,YMCA of Pierce and Kitsap Counties,4717 S 19th St Ste 201,Tacoma,WA,98405,US,<MISSING>,Phone: 253-534-7800,<MISSING>,<MISSING>,<MISSING>,<MISSING>,<MISSING>
https://www.ymca.net,University YMCA Student Center,1710 Market Street,Tacoma,WA,98402,US,<MISSING>,Phone: 253-272-9622,<MISSING>,<MISSING>,<MISSING>,<MISSING>,<MISSING>
https://www.ymca.net,YMCA Child Care Branch,1614 S Mildred St Ste 1,Tacoma,WA,98465,US,<MISSING>,Phone: 253-534-7840,<MISSING>,<MISSING>,<MISSING>,<MISSING>,<MISSING>
https://www.ymca.net,John O. Morgan Family YMCA,1002 S Pearl St,Tacoma,WA,98465-2122,US,<MISSING>,Phone: 253-564-9622,<MISSING>,<MISSING>,<MISSING>,<MISSING>,<MISSING>
https://www.ymca.net,Tacoma Center YMCA,1144 Market St,Tacoma,WA,98402-3506,US,<MISSING>,Phone: 253-597-6444,<MISSING>,<MISSING>,<MISSING>,<MISSING>,<MISSING>
https://www.ymca.net,Auburn Valley Branch YMCA,1620 Perimeter Road SW,Auburn,WA,98001,US,<MISSING>,Phone: 253-833-2770,<MISSING>,<MISSING>,<MISSING>,<MISSING>,<MISSING>
https://www.ymca.net,YMCA Camp Seymour,9725 Cramer Rd KPN,Gig Harbor,WA,98329-5041,US,<MISSING>,Phone: 253-884-3392,<MISSING>,<MISSING>,<MISSING>,<MISSING>,<MISSING>
https://www.ymca.net,Tom Taylor Family YMCA,10550 Harbor Hill Dr,Gig Harbor,WA,98332,US,<MISSING>,Phone: 253-853-9622,<MISSING>,<MISSING>,<MISSING>,<MISSING>,<MISSING>
https://www.ymca.net,Camp Warren Branch YMCA,3726 Miller Trunk Road,Eveleth,MN,55734-4023,US,<MISSING>,Phone: 612-822-2267,<MISSING>,<MISSING>,<MISSING>,<MISSING>,<MISSING>
https://www.ymca.net,Matt Griffin YMCA,3595 S 188th St,SeaTac,WA,98188,US,<MISSING>,Phone: 206-244-5880,<MISSING>,<MISSING>,<MISSING>,<MISSING>,<MISSING>
https://www.ymca.net,Mesabi Family YMCA Inc.,8367 Unity Drive,Virginia,MN,55792-4005,US,<MISSING>,Phone: 218-749-8020,<MISSING>,<MISSING>,<MISSING>,<MISSING>,<MISSING>
https://www.ymca.net,Snoqualmie Valley YMCA,35018 SE Ridge St,Snoqualmie,WA,98065,US,<MISSING>,Phone: 425-256-3115,<MISSING>,<MISSING>,<MISSING>,<MISSING>,<MISSING>
https://www.ymca.net,Coal Creek Family YMCA,13750 Newcastle Golf Club Rd,Newcastle,WA,98059,US,<MISSING>,Phone: 425-282-1500,<MISSING>,<MISSING>,<MISSING>,<MISSING>,<MISSING>
https://www.ymca.net,West Seattle Branch YMCA,3622 SW Snoqualmie Street,Seattle,WA,98126-2711,US,<MISSING>,Phone: 206-935-6000,<MISSING>,<MISSING>,<MISSING>,<MISSING>,<MISSING>
https://www.ymca.net,Sammamish Family YMCA,831 228th Ave. SE,Sammamish,WA,98075,US,<MISSING>,Phone: 425-391-4840,<MISSING>,<MISSING>,<MISSING>,<MISSING>,<MISSING>
https://www.ymca.net,Bremerton Family YMCA,2261 Homer R Jones Drive,Bremerton,WA,98310-4537,US,<MISSING>,Phone: 360-377-3741,<MISSING>,<MISSING>,<MISSING>,<MISSING>,<MISSING>
https://www.ymca.net,Accelerator YMCA,"2100 24th Ave S, Ste 260",Seattle,WA,98144,US,<MISSING>,Phone: 206-382-5013,<MISSING>,<MISSING>,<MISSING>,<MISSING>,<MISSING>
https://www.ymca.net,YMCA of Greater Seattle,909 4th Ave,Seattle,WA,98104-1108,US,<MISSING>,Phone: 206-382-5000,<MISSING>,<MISSING>,<MISSING>,<MISSING>,<MISSING>
https://www.ymca.net,Downtown Branch YMCA,909 4th Ave,Seattle,WA,98104-1108,US,<MISSING>,Phone: 206-382-5010,<MISSING>,<MISSING>,<MISSING>,<MISSING>,<MISSING>
https://www.ymca.net,Camping Services YMCA,909 4th Ave,Seattle,WA,98104-1108,US,<MISSING>,Phone: 206-382-5009,<MISSING>,<MISSING>,<MISSING>,<MISSING>,<MISSING>
https://www.ymca.net,Meredith Mathews East Madison Branch YMCA,1700 23rd Ave,Seattle,WA,98122-2922,US,<MISSING>,Phone: 206-322-6969,<MISSING>,<MISSING>,<MISSING>,<MISSING>,<MISSING>
https://www.ymca.net,Bellevue Branch YMCA,14230 Bel Red Rd,Bellevue,WA,98007-3911,US,<MISSING>,Phone: 425-746-9900,<MISSING>,<MISSING>,<MISSING>,<MISSING>,<MISSING>
https://www.ymca.net,Haselwood Family YMCA,3909 NW Randall Way,Silverdale,WA,98383,US,<MISSING>,Phone: 360-698-9622,<MISSING>,<MISSING>,<MISSING>,<MISSING>,<MISSING>
https://www.ymca.net,University Family YMCA,5003 12th Ave NE,Seattle,WA,98105-4306,US,<MISSING>,Phone: 206-524-1400,<MISSING>,<MISSING>,<MISSING>,<MISSING>,<MISSING>
https://www.ymca.net,Cook County Family YMCA,105 W 5th Street,Grand Marais,MN,55604,US,<MISSING>,Phone: 218-387-3386,<MISSING>,<MISSING>,<MISSING>,<MISSING>,<MISSING>
https://www.ymca.net,Dale Turner Family YMCA,19290 Aurora Ave North,Shoreline,WA,98133,US,<MISSING>,Phone: 206-363-0446,<MISSING>,<MISSING>,<MISSING>,<MISSING>,<MISSING>
https://www.ymca.net,Northshore Branch YMCA,11811 NE 195th St,Bothell,WA,98011-3146,US,<MISSING>,Phone: 425-485-9797,<MISSING>,<MISSING>,<MISSING>,<MISSING>,<MISSING>
https://www.ymca.net,Monroe/Sky Valley Family Branch,14033 Fryelands Boulevard,Monroe,WA,98272,US,<MISSING>,Phone: 360-805-1879,<MISSING>,<MISSING>,<MISSING>,<MISSING>,<MISSING>
https://www.ymca.net,Mill Creek Family YMCA,13723 Puget Park Dr,Everett,WA,98208-9447,US,<MISSING>,Phone: 425-337-0123,<MISSING>,<MISSING>,<MISSING>,<MISSING>,<MISSING>
https://www.ymca.net,Mukilteo Family Branch YMCA,10601 47th Pl W,Mukilteo,WA,98275-4709,US,<MISSING>,Phone: 425-493-9622,<MISSING>,<MISSING>,<MISSING>,<MISSING>,<MISSING>
https://www.ymca.net,Knoxville Family YMCA,600 E. Main St.,Knoxville,IL,61448,US,<MISSING>,Phone: 309-344-1324,<MISSING>,<MISSING>,<MISSING>,<MISSING>,<MISSING>
https://www.ymca.net,Grand Forks YMCA Family Center,"215 N 7th St,PO Box 13177",Grand Forks,ND,58208-3177,US,<MISSING>,Phone: 701-775-2586,<MISSING>,<MISSING>,<MISSING>,<MISSING>,<MISSING>
https://www.ymca.net,YMCA Camp Du Nord,3606 North Arm Road,Ely,MN,55731-8440,US,<MISSING>,Phone: 218-365-0365,<MISSING>,<MISSING>,<MISSING>,<MISSING>,<MISSING>
https://www.ymca.net,Big Brothers Big Sisters Branch YMCA,"10520 19th Avenue SE, Suite B",Everett,WA,98208,US,<MISSING>,Phone: 425-252-2227,<MISSING>,<MISSING>,<MISSING>,<MISSING>,<MISSING>
https://www.ymca.net,YMCA of Snohomish County,2720 Rockefeller Ave,Everett,WA,98201-3523,US,<MISSING>,Phone: 425-258-9211,<MISSING>,<MISSING>,<MISSING>,<MISSING>,<MISSING>
https://www.ymca.net,Everett Family Branch YMCA,2720 Rockefeller Ave,Everett,WA,98201-3523,US,<MISSING>,Phone: 425-258-9211,<MISSING>,<MISSING>,<MISSING>,<MISSING>,<MISSING>
https://www.ymca.net,YMCA Camp Widjiwagan,3788 North Arm Road,Ely,MN,55731-8441,US,<MISSING>,Phone: 612-822-2267,<MISSING>,<MISSING>,<MISSING>,<MISSING>,<MISSING>
https://www.ymca.net,Marysville/North County Family Branch YMCA,6420 60th Dr NE,Marysville,WA,98270-5412,US,<MISSING>,Phone: 360-653-9622,<MISSING>,<MISSING>,<MISSING>,<MISSING>,<MISSING>
https://www.ymca.net,Camp Menogyn Branch YMCA,3425 Ihduhapi Road,Loretto,MN,55734-2043,US,<MISSING>,Phone: 612-822-2267,<MISSING>,<MISSING>,<MISSING>,<MISSING>,<MISSING>
https://www.ymca.net,Olympic Peninsula YMCA,302 S Francis Street,Port Angeles,WA,98362,US,<MISSING>,Phone: 360-452-9244,<MISSING>,<MISSING>,<MISSING>,<MISSING>,<MISSING>
https://www.ymca.net,Jefferson County Family YMCA,PO Box 1637,Port Townsend,WA,98368,US,<MISSING>,Phone: 360-385-5811,<MISSING>,<MISSING>,<MISSING>,<MISSING>,<MISSING>
https://www.ymca.net,YMCA of Minot North Dakota,"PO Box 69,3515 16th St SW",Minot,ND,58702-0069,US,<MISSING>,Phone: 701-852-0141,<MISSING>,<MISSING>,<MISSING>,<MISSING>,<MISSING>
https://www.ymca.net,Stanwood-Camano YMCA,7213 267th NW,Stanwood,WA,98292,US,<MISSING>,Phone: 360-629-9622,<MISSING>,<MISSING>,<MISSING>,<MISSING>,<MISSING>
https://www.ymca.net,Skagit Valley Family YMCA,1901 Hoag Rd.,Mount Vernon,WA,98273,US,<MISSING>,Phone: 360-336-9622,<MISSING>,<MISSING>,<MISSING>,<MISSING>,<MISSING>
https://www.ymca.net,Whatcom Family YMCA,1256 N State St,Bellingham,WA,98225,US,<MISSING>,Phone: 360-733-8630,<MISSING>,<MISSING>,<MISSING>,<MISSING>,<MISSING>
https://www.ymca.net,YMCA of Anchorage Alaska,5353 Lake Otis Pkwy,Anchorage,AK,99507,US,<MISSING>,Phone: 907-563-3211,<MISSING>,<MISSING>,<MISSING>,<MISSING>,<MISSING>
https://www.ymca.net,Armed Services YMCA of Alaska,PO Box 6272,JBER,AK,99506-0272,US,<MISSING>,Phone: 907-552-8469,<MISSING>,<MISSING>,<MISSING>,<MISSING>,<MISSING>
