"locator_domain","location_name","street_address","city","state","zip","country_code","store_number","phone","location_type","latitude","longitude","hours_of_operation"
"https://inglotcosmetics.com/stores","MACY'S PHEASANT","310 Daniel Webster Hwy","Nashua","NH","03060","US","432","<MISSING>","<MISSING>","42.701849321325376","-71.43669602268449","<MISSING>"
"https://inglotcosmetics.com/stores","MACY'S DOWNTOWN BOSTON","450 Washington Street","Boston","MA","02111","US","414","<MISSING>","<MISSING>","42.35500502800074","-71.06050838776628","<MISSING>"
"https://inglotcosmetics.com/stores","MACY'S CROSS COUNTY","800 Central Park Ave","Yonkers","NY","10704","US","436","<MISSING>","<MISSING>","40.92857658439414","-73.85559964907378","<MISSING>"
"https://inglotcosmetics.com/stores","MACY'S GARDEN STATE PLAZA NEW JERSEY","One Garden State Plaza","Paramus","NJ","07652","US","445","<MISSING>","<MISSING>","40.91763875467924","-74.07581949508915","<MISSING>"
"https://inglotcosmetics.com/stores","MACY'S QUEENS CENTER MALL","90-15 Queens Blvd","New York","NY","11373","US","438","<MISSING>","<MISSING>","40.73478074346487","-73.86947322268446","<MISSING>"
"https://inglotcosmetics.com/stores","INGLOT STORE TIMES SQUARE","1592 Broadway","New York","NY","10036","US","433","<MISSING>","<MISSING>","40.759801","-73.98460999999998","<MISSING>"
"https://inglotcosmetics.com/stores","MACY'S HERALD SQUARE","151 West 34th Street","New York","NY","10001","US","437","<MISSING>","<MISSING>","40.75088110457115","-73.98953816994054","<MISSING>"
"https://inglotcosmetics.com/stores","MACY'S BRIDGEWATER COMMONS","400 Commons Way","Bridgewater","New York","08807","US","702","<MISSING>","<MISSING>","40.58473074996326","-74.61866331520537","<MISSING>"
"https://inglotcosmetics.com/stores","MACY'S METRO CENTER","1201 G. Street N.W.","<MISSING>","WA","20005","US","703","<MISSING>","<MISSING>","38.898692998406126","-77.02904709154052","<MISSING>"
"https://inglotcosmetics.com/stores","INGLOT POTOMAC MILLS","2700 Potomac Mills Circle,","Woodbridge,","VA","22192","US","791","<MISSING>","<MISSING>","38.645328","-77.296063","<MISSING>"
"https://inglotcosmetics.com/stores","MACY'S SOMERSET COLLECTION","2800 W Big Beaver Rd","Detroit","<MISSING>","48084","US","701","<MISSING>","<MISSING>","42.56303663017482","-83.18240374603272","<MISSING>"
"https://inglotcosmetics.com/stores","MACY'S EASTON TOWN CENTER","4141 Easton Loop E","Columbus","OH","43219","US","418","<MISSING>","<MISSING>","40.05071428682138","-82.91536583778151","<MISSING>"
"https://inglotcosmetics.com/stores","MACY'S WATER TOWER PLACE","835 N Michigan Ave","Chicago","IL","60611","US","417","<MISSING>","<MISSING>","41.89815916012977","-87.62334214106977","<MISSING>"
"https://inglotcosmetics.com/stores","MACY'S STATE STREET","111 N State Street","Chicago","IL","60602","US","416","<MISSING>","<MISSING>","41.88391506205336","-87.62702785819704","<MISSING>"
"https://inglotcosmetics.com/stores","MACY'S OAKBROOK CENTER","1 Oakbrook Center","Oak Brook","IL","60523","US","442","<MISSING>","<MISSING>","41.84902627819262","-87.9543458533903","<MISSING>"
"https://inglotcosmetics.com/stores","MACY'S MALL OF GEORGIA","3333 Buford Dr NE","Buford","GA","30519","US","415","<MISSING>","<MISSING>","34.06523817775957","-83.98502607427446","<MISSING>"
"https://inglotcosmetics.com/stores","LAS CATALINAS MALL","<MISSING>","Caguas","Puerto","00726-0362","US","696","<MISSING>","<MISSING>","18.236345610943257","-66.03999330517769","<MISSING>"
"https://inglotcosmetics.com/stores","MACY'S THE MALL AT MILLENIA","4298 Millenia Blvd","Orlando","FL","32839","US","443","<MISSING>","<MISSING>","28.486882806987502","-81.43317653753854","<MISSING>"
"https://inglotcosmetics.com/stores","MACY'S ALDERWOOD MALL","1870 Alderwood Mall Blvd","Lynnwood","WA","28037","US","429","<MISSING>","<MISSING>","47.830073613507885","-122.27125356969339","<MISSING>"
"https://inglotcosmetics.com/stores","TOWN CENTER AT BOCA RATON","Macy's 5700 Glades Rd","Boca Raton","FL","33431","US","413","<MISSING>","<MISSING>","26.372778","-80.133085","<MISSING>"
"https://inglotcosmetics.com/stores","MACY'S CENTER TUKWILA","500 Southcenter Mall","Tukwila","WA","98188","US","455","<MISSING>","<MISSING>","47.459503697783234","-122.25913368526744","<MISSING>"
"https://inglotcosmetics.com/stores","AVENTURA MALL","19501 Biscayne Blvd","Aventura","FL","33180","US","430","<MISSING>","<MISSING>","25.957493","-80.145558","<MISSING>"
"https://inglotcosmetics.com/stores","MACY'S CLACKAMAS","12100 SE 82nd Ave","Portland","OR","97086","US","447","<MISSING>","<MISSING>","45.43666100180421","-122.57189456971491","<MISSING>"
"https://inglotcosmetics.com/stores","MACY'S DALLAS","13375 Noel Rd","Dallas","TX","75240","US","421","<MISSING>","<MISSING>","32.90241","-96.812948","<MISSING>"
"https://inglotcosmetics.com/stores","MACY'S HOUSTON GALLERIA AT HIDALGO","5135 W. Alabama","Houston","TX","77056","US","423","<MISSING>","<MISSING>","29.737432","-95.46344699999997","<MISSING>"
"https://inglotcosmetics.com/stores","MACY’S NORTH STAR MALL SAN ANTONIO","7400 San Pedro Ave","San Antonio","TX","78216","US","448","<MISSING>","<MISSING>","29.518751267656288","-98.49773848930204","<MISSING>"
"https://inglotcosmetics.com/stores","MACY'S FASHION SHOW MALL","3200 S Las Vegas Blvd","Las Vegas","NV","89109","US","426","<MISSING>","<MISSING>","36.1272241","-115.17155120000001","<MISSING>"
"https://inglotcosmetics.com/stores","INGLOT GRAND CANAL SHOPPES","3377 S Las Vegas Blvd","Las Vegas","NV","89109","US","704","<MISSING>","<MISSING>","36.1218691","-115.16965290000002","<MISSING>"
"https://inglotcosmetics.com/stores","CAESARS PALACE","3500 S Las Vegas Blvd","Las Vegas","NV","89109","US","427","<MISSING>","<MISSING>","36.122183","-115.17846400000002","<MISSING>"
"https://inglotcosmetics.com/stores","INGLOT STORE TOWN SQUARE","6671 S Las Vegas Blvd","Las Vegas","NV","89109","US","425","<MISSING>","<MISSING>","36.067963","-115.17818299999999","<MISSING>"
"https://inglotcosmetics.com/stores","MACY'S STONERIDGE SHOPPING CENTRE","1300 Stoneridge Mall","Pleasanton","CA","94588","US","446","<MISSING>","<MISSING>","37.6935797","-121.9282172","<MISSING>"
"https://inglotcosmetics.com/stores","MACY'S UNION SQUARE","170 O’Farrell Street","San Francisco","CA","94102","US","450","<MISSING>","<MISSING>","37.78685583294755","-122.40666003362543","<MISSING>"
"https://inglotcosmetics.com/stores","MACY'S VALLEY FAIR SANTA CLARA","2801 Stevens Creek Blvd","Santa Clara","CA","95050","US","452","<MISSING>","<MISSING>","37.324617551427025","-121.94807285700836","<MISSING>"
"https://inglotcosmetics.com/stores","MACY'S ANTELOPE VALLEY","1123 Rancho Vista Blvd","Palmdale","CA","93551","US","444","<MISSING>","<MISSING>","34.60478896949849","-118.15010511471519","<MISSING>"
"https://inglotcosmetics.com/stores","MACY'S SANTA ANITA","400 Baldwin Ave","Arcadia","CA","91006","US","412","<MISSING>","<MISSING>","34.13345566710805","-118.05170758538895","<MISSING>"
"https://inglotcosmetics.com/stores","NIGEL`S BEAUTY EMPORIUM / MONDA STUDIO","11252 Magnolia Blvd","North Hollywood Los Angeles","CA","91601","US","441","<MISSING>","<MISSING>","34.16477853492482","-118.37643349141905","<MISSING>"
"https://inglotcosmetics.com/stores","MACY'S MONTEBELLO","2000 Montebello Town Center","Montebello","CA","90640","US","431","<MISSING>","<MISSING>","34.0351731","-118.08374550000002","<MISSING>"
"https://inglotcosmetics.com/stores","MACY'S SHERMAN OAKS","14000 Riverside Dr","Sherman Oaks","CA","91423","US","453","<MISSING>","<MISSING>","34.157224776467906","-118.43559761045071","<MISSING>"
"https://inglotcosmetics.com/stores","MACY'S BEVERLY CENTER","8500 Beverly Blvd","Los Angeles","CA","90048","US","428","<MISSING>","<MISSING>","34.0753309","-118.37749329999997","<MISSING>"
"https://inglotcosmetics.com/stores","MACY'S CULVER CITY","6200 Slauson Ave","Culver City","CA","90230","US","420","<MISSING>","<MISSING>","33.98637025327291","-118.39365719259035","<MISSING>"
"https://inglotcosmetics.com/stores","MACY'S TEMECULA PROMENADE","40780 Winchester Road","Temecula","CA","92591","US","454","<MISSING>","<MISSING>","33.523111901866855","-117.15409791527901","<MISSING>"
"https://inglotcosmetics.com/stores","MACY'S MAIN PLACE SANTA ANA","2850 N Main St","Santa Ana","CA","92868","US","451","<MISSING>","<MISSING>","33.77604722740829","-117.86927988863829","<MISSING>"
"https://inglotcosmetics.com/stores","MACY'S COAST PLAZA","3333 Bristol Street","Costa Mesa","CA","92626","US","419","<MISSING>","<MISSING>","33.6902582355934","-117.8891531805649","<MISSING>"
"https://inglotcosmetics.com/stores","MACY'S FASHION ISLAND","101 Newport Center Drive","Newport Beach","CA","92660","US","440","<MISSING>","<MISSING>","33.615928476227815","-117.87580601652871","<MISSING>"
"https://inglotcosmetics.com/stores","MACY'S FASHION VALLEY MALL","7017 Friars Rd","San Diego","CA","92108","US","449","<MISSING>","<MISSING>","32.76742178230076","-117.16740280061168","<MISSING>"
"https://inglotcosmetics.com/stores","MACY'S KA MAKANA","91-5431 Kapolei Pkwy","Kapolei","HI","96707","US","424","<MISSING>","<MISSING>","21.335422599616116","-158.05215818222638","<MISSING>"
