"locator_domain","location_name","street_address","city","state","zip","country_code","store_number","phone","location_type","latitude","longitude","hours_of_operation"
"https://mastercuts.com","Spokane Valley Mall","14700 E Indiana Ste 2004","Spokane","WA","99216","US","<MISSING>","(509) 928-8889","<MISSING>","47.673544","-117.206869","Monday10:00 AM - 9:00 PMTuesday10:00 AM - 9:00 PMWednesday10:00 AM - 9:00 PMThursday10:00 AM - 9:00 PMFriday10:00 AM - 9:00 PMSaturday10:00 AM - 9:00 PMSunday11:00 AM - 6:00 PM"
"https://mastercuts.com","Arnot Mall","3300 Chambers Rd Ste 5125","Horseheads","NY","14845","US","<MISSING>","(607) 739-3505","<MISSING>","42.160151","-76.8728","Monday10:00 AM - 9:00 PMTuesday10:00 AM - 9:00 PMWednesday10:00 AM - 9:00 PMThursday10:00 AM - 9:00 PMFriday10:00 AM - 9:00 PMSaturday9:00 AM - 9:00 PMSunday10:00 AM - 6:00 PM"
"https://mastercuts.com","Logan Valley Mall","5580 Goods Ln Ste 2133","Altoona","PA","16601","US","<MISSING>","(814) 942-4400","<MISSING>","40.468724","-78.411723","Monday10:00 AM - 9:00 PMTuesday10:00 AM - 9:00 PMWednesday10:00 AM - 9:00 PMThursday10:00 AM - 9:00 PMFriday10:00 AM - 9:00 PMSaturday9:00 AM - 9:00 PMSunday12:00 PM - 6:00 PM"
"https://mastercuts.com","The Galleria","500 Galleria Dr Ste 150","Richland Township","PA","15904","US","<MISSING>","(814) 266-5949","<MISSING>","40.294766","-78.833555","Monday10:00 AM - 9:00 PMTuesday10:00 AM - 9:00 PMWednesday10:00 AM - 9:00 PMThursday10:00 AM - 9:00 PMFriday10:00 AM - 9:00 PMSaturday10:00 AM - 9:00 PMSunday12:00 PM - 5:00 PM"
"https://mastercuts.com","Factoria Mall","4021 Factoria Mall Se Ste C4","Bellevue","WA","98006","US","<MISSING>","(425) 401-2121","<MISSING>","47.574953","-122.170802","Monday10:00 AM - 8:30 PMTuesday10:00 AM - 8:30 PMWednesday10:00 AM - 8:30 PMThursday10:00 AM - 8:30 PMFriday10:00 AM - 8:30 PMSaturday10:00 AM - 8:30 PMSunday11:00 AM - 6:00 PM"
"https://mastercuts.com","Crossroads Mall","6650 S Westnedge Ave Ste 234","Portage","MI","49024","US","<MISSING>","(269) 327-1155","<MISSING>","42.22017","-85.596362","Monday10:00 AM - 9:00 PMTuesday10:00 AM - 9:00 PMWednesday10:00 AM - 9:00 PMThursday10:00 AM - 9:00 PMFriday10:00 AM - 9:00 PMSaturday10:00 AM - 9:00 PMSunday11:00 AM - 6:00 PM"
"https://mastercuts.com","White Mountain Mall","2441 Foothill Blvd Ste 144","Rock Springs","WY","82901","US","<MISSING>","(307) 382-3393","<MISSING>","41.580689","-109.263784","Monday10:00 AM - 9:00 PMTuesday10:00 AM - 9:00 PMWednesday10:00 AM - 9:00 PMThursday10:00 AM - 9:00 PMFriday10:00 AM - 9:00 PMSaturday10:00 AM - 7:00 PMSunday12:00 PM - 6:00 PM"
"https://mastercuts.com","Carolina Mall","1480 Concord Pkwy N Ste 296","Concord","NC","28025","US","<MISSING>","(704) 782-8878","<MISSING>","35.44061","-80.603458","Monday10:00 AM - 9:00 PMTuesday10:00 AM - 9:00 PMWednesday10:00 AM - 9:00 PMThursday10:00 AM - 9:00 PMFriday10:00 AM - 9:00 PMSaturday10:00 AM - 9:00 PMSunday12:30 PM - 6:00 PM"
"https://mastercuts.com","Roseburg Valley Mall","1440 Nw Garden Valley Blvd#120","Roseburg","OR","97470","US","<MISSING>","(541) 672-6257","<MISSING>","43.23476","-123.373703","Monday9:00 AM - 7:00 PMTuesday9:00 AM - 7:00 PMWednesday9:00 AM - 7:00 PMThursday9:00 AM - 7:00 PMFriday9:00 AM - 7:00 PMSaturday9:00 AM - 6:00 PMSunday10:00 AM - 6:00 PM"
"https://mastercuts.com","Rogue Valley Mall","1600 N Riverside Ste 2015","Medford","OR","97501","US","<MISSING>","(541) 772-2277","<MISSING>","42.344205","-122.87751","Monday10:00 AM - 9:00 PMTuesday10:00 AM - 9:00 PMWednesday10:00 AM - 9:00 PMThursday10:00 AM - 9:00 PMFriday10:00 AM - 9:00 PMSaturday10:00 AM - 9:00 PMSunday11:00 AM - 7:00 PM"
"https://mastercuts.com","Beaver Valley Mall","358 Beaver Valley Mall","Monaca","PA","15061","US","<MISSING>","(724) 774-5679","<MISSING>","40.67474","-80.314092","Monday10:00 AM - 9:00 PMTuesday10:00 AM - 9:00 PMWednesday10:00 AM - 9:00 PMThursday10:00 AM - 9:00 PMFriday10:00 AM - 9:00 PMSaturday10:00 AM - 9:00 PMSunday11:00 AM - 6:00 PM"
"https://mastercuts.com","Northwest Arkansas Mall","4201 N Shiloh Dr Ste 161","Fayetteville","AR","72703","US","<MISSING>","(479) 575-0666","<MISSING>","36.128305","-94.148004","Monday10:00 AM - 9:00 PMTuesday10:00 AM - 9:00 PMWednesday10:00 AM - 9:00 PMThursday10:00 AM - 9:00 PMFriday10:00 AM - 9:00 PMSaturday10:00 AM - 9:00 PMSunday12:00 PM - 6:00 PM"
"https://mastercuts.com","Morgantown Mall","9919 Mall Rd","Morgantown","WV","26501","US","<MISSING>","(304) 983-6866","<MISSING>","39.627375","-79.998171","Monday10:00 AM - 9:00 PMTuesday10:00 AM - 9:00 PMWednesday10:00 AM - 9:00 PMThursday10:00 AM - 9:00 PMFriday9:00 AM - 9:00 PMSaturday9:00 AM - 9:00 PMSunday11:00 AM - 6:00 PM"
"https://mastercuts.com","Lakeview Square","5775 Beckley Rd Ste 637","Battle Creek","MI","49015","US","<MISSING>","(269) 979-4449","<MISSING>","42.262665","-85.183903","Monday10:00 AM - 9:00 PMTuesday10:00 AM - 9:00 PMWednesday10:00 AM - 9:00 PMThursday10:00 AM - 9:00 PMFriday10:00 AM - 9:00 PMSaturday10:00 AM - 9:00 PMSunday12:00 PM - 6:00 PM"
"https://mastercuts.com","University Mall","1237 E Main St Ste 1036","Carbondale","IL","62901","US","<MISSING>","(618) 549-4466","<MISSING>","37.72902","-89.19315","Monday10:00 AM - 9:00 PMTuesday10:00 AM - 9:00 PMWednesday10:00 AM - 9:00 PMThursday10:00 AM - 9:00 PMFriday10:00 AM - 9:00 PMSaturday10:00 AM - 9:00 PMSunday12:00 PM - 5:30 PM"
"https://mastercuts.com","Huntington Mall","404 Huntington Mall Ste 475","Barboursville","WV","25504","US","<MISSING>","(304) 733-0033","<MISSING>","38.422347","-82.266422","Monday10:00 AM - 9:00 PMTuesday10:00 AM - 9:00 PMWednesday10:00 AM - 9:00 PMThursday10:00 AM - 9:00 PMFriday10:00 AM - 9:00 PMSaturday10:00 AM - 9:00 PMSunday11:00 AM - 7:00 PM"
"https://mastercuts.com","Wiregrass Commons Mall","900 Commons Dr Ste 824","Dothan","AL","36303","US","<MISSING>","(334) 793-5559","<MISSING>","31.254014","-85.424426","Monday10:00 AM - 9:00 PMTuesday10:00 AM - 9:00 PMWednesday10:00 AM - 9:00 PMThursday10:00 AM - 9:00 PMFriday10:00 AM - 9:00 PMSaturday10:00 AM - 9:00 PMSunday12:00 PM - 6:00 PM"
"https://mastercuts.com","Coastal Grand Mall","2000 Coastal Grand Cir Ste 325","Myrtle Beach","SC","29577","US","<MISSING>","(843) 839-9992","<MISSING>","33.702446","-78.923335","Monday10:00 AM - 9:00 PMTuesday10:00 AM - 9:00 PMWednesday10:00 AM - 9:00 PMThursday10:00 AM - 9:00 PMFriday10:00 AM - 9:00 PMSaturday10:00 AM - 9:00 PMSunday12:00 PM - 6:00 PM"
"https://mastercuts.com","Champlain Center North","60 Smithfield Blvd Ste C123","Plattsburgh","NY","12901","US","<MISSING>","(518) 566-6600","<MISSING>","44.703966","-73.491308","Monday9:00 AM - 9:00 PMTuesday9:00 AM - 9:00 PMWednesday9:00 AM - 9:00 PMThursday9:00 AM - 9:00 PMFriday9:00 AM - 9:00 PMSaturday9:00 AM - 9:00 PMSunday11:00 AM - 6:00 PM"
"https://mastercuts.com","Clearview Mall","101 Clearview Cir Ste 745","Butler","PA","16001","US","<MISSING>","(724) 287-4066","<MISSING>","40.8962","-79.904647","Monday10:00 AM - 9:00 PMTuesday10:00 AM - 9:00 PMWednesday10:00 AM - 9:00 PMThursday10:00 AM - 9:00 PMFriday10:00 AM - 9:00 PMSaturday10:00 AM - 9:00 PMSunday12:00 PM - 5:00 PM"
"https://mastercuts.com","Hickory Point Mall","1045 Hickory Point Mall","Forsyth","IL","62535","US","<MISSING>","(217) 876-7784","<MISSING>","39.917074","-88.957486","Monday10:00 AM - 9:00 PMTuesday10:00 AM - 9:00 PMWednesday10:00 AM - 9:00 PMThursday10:00 AM - 9:00 PMFriday10:00 AM - 9:00 PMSaturday10:00 AM - 9:00 PMSunday12:00 PM - 5:00 PM"
"https://mastercuts.com","Meridian Mall","1982 E Grand River Rd Ste 300","Okemos","MI","48864","US","<MISSING>","(517) 347-0727","<MISSING>","42.725279","-84.419527","Monday10:00 AM - 9:00 PMTuesday10:00 AM - 9:00 PMWednesday10:00 AM - 9:00 PMThursday10:00 AM - 9:00 PMFriday10:00 AM - 9:00 PMSaturday10:00 AM - 9:00 PMSunday12:00 PM - 6:00 PM"
"https://mastercuts.com","The Mall Of Monroe","2121 N Monroe St Ste 180","Monroe","MI","48162","US","<MISSING>","(734) 241-7226","<MISSING>","41.949516","-83.394917","Monday10:00 AM - 9:00 PMTuesday10:00 AM - 9:00 PMWednesday10:00 AM - 9:00 PMThursday10:00 AM - 9:00 PMFriday10:00 AM - 9:00 PMSaturday10:00 AM - 9:00 PMSunday12:00 PM - 5:00 PM"
"https://mastercuts.com","Grand Traverse Mall","3200 S Airport Rd W Ste 106","Traverse City","MI","49684","US","<MISSING>","(231) 941-7744","<MISSING>","44.725071","-85.639907","Monday10:00 AM - 9:00 PMTuesday10:00 AM - 9:00 PMWednesday10:00 AM - 9:00 PMThursday10:00 AM - 9:00 PMFriday10:00 AM - 9:00 PMSaturday10:00 AM - 9:00 PMSunday12:00 PM - 6:00 PM"
"https://mastercuts.com","Cordova Mall","5100 N 9Th Ave Ste A-113","Pensacola","FL","32504","US","<MISSING>","(850) 477-3355","<MISSING>","30.475114","-87.207241","Monday10:00 AM - 9:00 PMTuesday10:00 AM - 9:00 PMWednesday10:00 AM - 9:00 PMThursday10:00 AM - 9:00 PMFriday10:00 AM - 9:00 PMSaturday10:00 AM - 9:00 PMSunday12:00 PM - 6:00 PM"
"https://mastercuts.com","Bellis Fair Mall","1 Bellis Fair Pkwy Ste 316","Bellingham","WA","98226","US","<MISSING>","(360) 734-4100","<MISSING>","48.785745","-122.490534","Monday10:00 AM - 9:00 PMTuesday10:00 AM - 9:00 PMWednesday10:00 AM - 9:00 PMThursday10:00 AM - 9:00 PMFriday10:00 AM - 9:00 PMSaturday10:00 AM - 9:00 PMSunday10:00 AM - 6:00 PM"
"https://mastercuts.com","Tyrone Square Mall","2358 Tyrone Way","Saint Petersburg","FL","33710","US","<MISSING>","(727) 384-1212","<MISSING>","27.793787","-82.733381","Monday10:00 AM - 9:00 PMTuesday10:00 AM - 9:00 PMWednesday10:00 AM - 9:00 PMThursday10:00 AM - 9:00 PMFriday10:00 AM - 9:00 PMSaturday10:00 AM - 9:00 PMSunday11:00 AM - 6:00 PM"
"https://mastercuts.com","Southpark Mall","4500 16Th St Ste 0660","Moline","IL","61265","US","<MISSING>","(309) 764-7775","<MISSING>","41.467589","-90.502807","Monday10:00 AM - 9:00 PMTuesday10:00 AM - 9:00 PMWednesday10:00 AM - 9:00 PMThursday10:00 AM - 9:00 PMFriday10:00 AM - 9:00 PMSaturday9:00 AM - 9:00 PMSunday12:00 PM - 6:00 PM"
"https://mastercuts.com","Lake Square Mall","10401 Us Highway 441 Ste 243","Leesburg","FL","34788","US","<MISSING>","(352) 365-2225","<MISSING>","28.826991","-81.788425","Monday10:00 AM - 9:00 PMTuesday10:00 AM - 9:00 PMWednesday10:00 AM - 9:00 PMThursday10:00 AM - 9:00 PMFriday10:00 AM - 9:00 PMSaturday10:00 AM - 9:00 PMSunday12:00 PM - 6:00 PM"
"https://mastercuts.com","Sarasota Square","8201 S Tamiami Trl Unit A27","Sarasota","FL","34238","US","<MISSING>","(941) 925-7475","<MISSING>","27.234193","-82.494468","Monday10:00 AM - 9:00 PMTuesday10:00 AM - 9:00 PMWednesday10:00 AM - 9:00 PMThursday10:00 AM - 9:00 PMFriday10:00 AM - 9:00 PMSaturday9:00 AM - 9:00 PMSunday10:00 AM - 5:30 PM"
"https://mastercuts.com","Sawgrass Mills Mall","12801 W Sunrise Blvd Ste 939","Fort Lauderdale","FL","33323","US","<MISSING>","(954) 846-0866","<MISSING>","26.151701","-80.320787","Monday10:00 AM - 9:30 PMTuesday10:00 AM - 9:30 PMWednesday10:00 AM - 9:30 PMThursday10:00 AM - 9:30 PMFriday10:00 AM - 9:30 PMSaturday10:00 AM - 9:30 PMSunday11:00 AM - 8:00 PM"
"https://mastercuts.com","Countryside Mall","27001 Us Highway 19 N Ste 1074","Clearwater","FL","33761","US","<MISSING>","(727) 669-7878","<MISSING>","28.017313","-82.733366","Monday10:00 AM - 9:00 PMTuesday10:00 AM - 9:00 PMWednesday10:00 AM - 9:00 PMThursday10:00 AM - 9:00 PMFriday10:00 AM - 9:00 PMSaturday10:00 AM - 9:00 PMSunday12:00 PM - 6:00 PM"
"https://mastercuts.com","Maine Mall","364 Maine Mall Ste F-131","South Portland","ME","04106","US","<MISSING>","(207) 772-4433","<MISSING>","43.636155","-70.336402","Monday10:00 AM - 9:00 PMTuesday10:00 AM - 9:00 PMWednesday10:00 AM - 9:00 PMThursday10:00 AM - 9:00 PMFriday10:00 AM - 9:00 PMSaturday10:00 AM - 9:00 PMSunday11:00 AM - 6:00 PM"
"https://mastercuts.com","Edgewater Plaza","2600 Beach Blvd Ste 39-A","Biloxi","MS","39531","US","<MISSING>","(228) 385-9911","<MISSING>","30.392349","-88.986279","Monday10:00 AM - 9:00 PMTuesday10:00 AM - 9:00 PMWednesday10:00 AM - 9:00 PMThursday10:00 AM - 9:00 PMFriday10:00 AM - 9:00 PMSaturday10:00 AM - 9:00 PMSunday12:00 PM - 6:00 PM"
"https://mastercuts.com","Turtle Creek Mall","1000 Turtle Creek Dr Ste 210","Hattiesburg","MS","39402","US","<MISSING>","(601) 264-3999","<MISSING>","31.326564","-89.376327","Monday10:00 AM - 9:00 PMTuesday10:00 AM - 9:00 PMWednesday10:00 AM - 9:00 PMThursday10:00 AM - 9:00 PMFriday10:00 AM - 9:00 PMSaturday10:00 AM - 9:00 PMSunday12:00 PM - 6:00 PM"
"https://mastercuts.com","Colonial Park Mall","4600 Jonestown Rd Ste 46A","Harrisburg","PA","17109","US","<MISSING>","(717) 657-1128","<MISSING>","40.301509","-76.81588","Monday10:00 AM - 9:00 PMTuesday10:00 AM - 9:00 PMWednesday10:00 AM - 9:00 PMThursday10:00 AM - 9:00 PMFriday10:00 AM - 9:00 PMSaturday10:00 AM - 9:00 PMSunday12:00 PM - 6:00 PM"
"https://mastercuts.com","Magic Valley Mall","1485 Pole Line Rd E Ste 183","Twin Falls","ID","83301","US","<MISSING>","(208) 733-8100","<MISSING>","42.594051","-114.455011","Monday10:00 AM - 9:00 PMTuesday10:00 AM - 9:00 PMWednesday10:00 AM - 9:00 PMThursday10:00 AM - 9:00 PMFriday10:00 AM - 9:00 PMSaturday10:00 AM - 9:00 PMSunday11:00 AM - 6:00 PM"
"https://mastercuts.com","Uniontown Mall","1153 Mall Run Rd","Uniontown","PA","15401","US","<MISSING>","(724) 438-6366","<MISSING>","39.907286","-79.74742","Monday10:00 AM - 9:00 PMTuesday10:00 AM - 9:00 PMWednesday10:00 AM - 9:00 PMThursday10:00 AM - 9:00 PMFriday10:00 AM - 9:00 PMSaturday9:00 AM - 9:00 PMSunday10:00 AM - 6:00 PM"
"https://mastercuts.com","Shenango Valley Mall","3357 E State St Ste 862","Hermitage","PA","16148","US","<MISSING>","(724) 346-4996","<MISSING>","41.235192","-80.446533","Monday10:00 AM - 9:00 PMTuesday10:00 AM - 9:00 PMWednesday10:00 AM - 9:00 PMThursday10:00 AM - 9:00 PMFriday10:00 AM - 9:00 PMSaturday9:00 AM - 9:00 PMSunday11:00 AM - 5:00 PM"
"https://mastercuts.com","The Shops At Ithaca Mall","40 Catherwood Rd Ste A08","Ithaca","NY","14850","US","<MISSING>","(607) 257-0880","<MISSING>","42.483329","-76.491302","Monday10:00 AM - 9:00 PMTuesday10:00 AM - 9:00 PMWednesday10:00 AM - 9:00 PMThursday10:00 AM - 9:00 PMFriday10:00 AM - 9:00 PMSaturday10:00 AM - 9:00 PMSunday11:00 AM - 6:00 PM"
"https://mastercuts.com","Crossroads Mall","4201 W Division St Ste 63","Saint Cloud","MN","56301","US","<MISSING>","(320) 252-1415","<MISSING>","45.555541","-94.208927","Monday10:00 AM - 9:00 PMTuesday10:00 AM - 9:00 PMWednesday10:00 AM - 9:00 PMThursday10:00 AM - 9:00 PMFriday10:00 AM - 9:00 PMSaturday10:00 AM - 9:00 PMSunday11:00 AM - 6:00 PM"
"https://mastercuts.com","Rivergate Mall","1000 Rivergate Pkwy Ste 1650","Goodlettsville","TN","37072","US","<MISSING>","(615) 851-9900","<MISSING>","36.30263","-86.697571","Monday10:00 AM - 9:00 PMTuesday10:00 AM - 9:00 PMWednesday10:00 AM - 9:00 PMThursday10:00 AM - 9:00 PMFriday10:00 AM - 9:00 PMSaturday10:00 AM - 9:00 PMSunday12:00 PM - 6:00 PM"
"https://mastercuts.com","Opry Mills Mall","342 Opry Mills Dr","Nashville","TN","37214","US","<MISSING>","(615) 514-1222","<MISSING>","36.20485","-86.693073","Monday10:00 AM - 9:00 PMTuesday10:00 AM - 9:00 PMWednesday10:00 AM - 9:00 PMThursday10:00 AM - 9:00 PMFriday10:00 AM - 9:00 PMSaturday10:00 AM - 9:00 PMSunday12:00 PM - 6:00 PM"
"https://mastercuts.com","Cool Springs Galleria","1800 Galleria Blvd Ste 2320","Franklin","TN","37067","US","<MISSING>","(615) 771-7722","<MISSING>","35.957226","-86.81361","Monday10:00 AM - 9:00 PMTuesday10:00 AM - 9:00 PMWednesday10:00 AM - 9:00 PMThursday10:00 AM - 9:00 PMFriday10:00 AM - 9:00 PMSaturday10:00 AM - 9:00 PMSunday12:00 PM - 6:00 PM"
"https://mastercuts.com","College Square","2550 E Morris Blvd Ste 15","Morristown","TN","37813","US","<MISSING>","(423) 581-8871","<MISSING>","36.220275","-83.260155","Monday10:00 AM - 9:00 PMTuesday10:00 AM - 9:00 PMWednesday10:00 AM - 9:00 PMThursday10:00 AM - 9:00 PMFriday10:00 AM - 9:00 PMSaturday10:00 AM - 9:00 PMSunday12:00 PM - 6:00 PM"
"https://mastercuts.com","Governor's Square Mall","2801 Guthrie Hwy Ste 880","Clarksville","TN","37040","US","<MISSING>","(931) 552-0550","<MISSING>","36.588267","-87.287149","Monday10:00 AM - 9:00 PMTuesday10:00 AM - 9:00 PMWednesday10:00 AM - 9:00 PMThursday10:00 AM - 9:00 PMFriday10:00 AM - 9:00 PMSaturday10:00 AM - 9:00 PMSunday11:00 AM - 6:00 PM"
"https://mastercuts.com","Northtown Mall","4750 N Division St Ste B-117","Spokane","WA","99207","US","<MISSING>","(509) 482-4000","<MISSING>","47.702542","-117.408625","Monday10:00 AM - 9:00 PMTuesday10:00 AM - 9:00 PMWednesday10:00 AM - 9:00 PMThursday10:00 AM - 9:00 PMFriday10:00 AM - 9:00 PMSaturday10:00 AM - 9:00 PMSunday11:00 AM - 6:00 PM"
"https://mastercuts.com","Charleston Town Center","2079 Charleston Town Ctr","Charleston","WV","25389","US","<MISSING>","(304) 342-6662","<MISSING>","38.353919","-81.637831","Monday10:00 AM - 9:00 PMTuesday10:00 AM - 9:00 PMWednesday10:00 AM - 9:00 PMThursday10:00 AM - 9:00 PMFriday10:00 AM - 9:00 PMSaturday10:00 AM - 9:00 PMSunday12:30 PM - 6:00 PM"
"https://mastercuts.com","Salmon Run Mall","21182 Salmon Run Mall Loop W","Watertown","NY","13601","US","<MISSING>","(315) 786-8000","<MISSING>","43.978325","-75.953204","Monday9:00 AM - 9:00 PMTuesday9:00 AM - 9:00 PMWednesday9:00 AM - 9:00 PMThursday9:00 AM - 9:00 PMFriday9:00 AM - 9:00 PMSaturday9:00 AM - 9:00 PMSunday10:00 AM - 6:00 PM"
"https://mastercuts.com","Boise Towne Square","350 N Milwaukee St Ste 2177","Boise","ID","83704","US","<MISSING>","(208) 322-5022","<MISSING>","43.608348","-116.278031","Monday10:00 AM - 9:00 PMTuesday10:00 AM - 9:00 PMWednesday10:00 AM - 9:00 PMThursday10:00 AM - 9:00 PMFriday10:00 AM - 9:00 PMSaturday10:00 AM - 9:00 PMSunday11:00 AM - 7:00 PM"
"https://mastercuts.com","Meadowbrook Mall","2388 Meadowbrook Rd Ste 410","Bridgeport","WV","26330","US","<MISSING>","(304) 842-6768","<MISSING>","39.312864","-80.272367","Monday10:00 AM - 9:00 PMTuesday10:00 AM - 9:00 PMWednesday10:00 AM - 9:00 PMThursday10:00 AM - 9:00 PMFriday10:00 AM - 9:00 PMSaturday10:00 AM - 9:00 PMSunday11:00 AM - 6:00 PM"
"https://mastercuts.com","Lakeside Mall","14600 Lakeside Cir Ste 2430","Sterling Heights","MI","48313","US","<MISSING>","(586) 247-5555","<MISSING>","42.622386","-82.985728","Monday10:00 AM - 9:00 PMTuesday10:00 AM - 9:00 PMWednesday10:00 AM - 9:00 PMThursday10:00 AM - 9:00 PMFriday10:00 AM - 9:00 PMSaturday10:00 AM - 9:00 PMSunday12:00 PM - 6:00 PM"
"https://mastercuts.com","Rimrock Mall","300 S 24Th St W Ste Ao3","Billings","MT","59102","US","<MISSING>","(406) 651-9111","<MISSING>","45.765639","-108.579374","Monday10:00 AM - 9:00 PMTuesday10:00 AM - 9:00 PMWednesday10:00 AM - 9:00 PMThursday10:00 AM - 9:00 PMFriday10:00 AM - 9:00 PMSaturday10:00 AM - 9:00 PMSunday10:00 AM - 6:00 PM"
"https://mastercuts.com","Mount Berry Square Mall","227 Mount Berry Square Ne","Rome","GA","30165","US","<MISSING>","(706) 235-4422","<MISSING>","34.284826","-85.20387","Monday10:00 AM - 9:00 PMTuesday10:00 AM - 9:00 PMWednesday10:00 AM - 9:00 PMThursday10:00 AM - 9:00 PMFriday10:00 AM - 9:00 PMSaturday10:00 AM - 9:00 PMSunday12:00 PM - 6:00 PM"
"https://mastercuts.com","New Towne Mall","400 Mill Ave Se Ste 345","New Philadelphia","OH","44663","US","<MISSING>","(330) 339-6396","<MISSING>","40.480128","-81.441289","Monday10:00 AM - 9:00 PMTuesday10:00 AM - 9:00 PMWednesday10:00 AM - 9:00 PMThursday10:00 AM - 9:00 PMFriday10:00 AM - 9:00 PMSaturday10:00 AM - 9:00 PMSunday12:00 PM - 6:00 PM"
"https://mastercuts.com","Crystal Mall","850 Hartford Tpke Ste H111","Waterford","CT","06385","US","<MISSING>","(860) 439-0233","<MISSING>","41.374038","-72.144764","Monday10:00 AM - 9:00 PMTuesday10:00 AM - 9:00 PMWednesday10:00 AM - 9:00 PMThursday10:00 AM - 9:00 PMFriday10:00 AM - 9:00 PMSaturday10:00 AM - 9:00 PMSunday11:00 AM - 6:00 PM"
"https://mastercuts.com","Hilltop Mall","4917 2Nd Ave Ste 3","Kearney","NE","68847","US","<MISSING>","(308) 338-8484","<MISSING>","40.723714","-99.08133","Monday10:00 AM - 9:00 PMTuesday10:00 AM - 9:00 PMWednesday10:00 AM - 9:00 PMThursday10:00 AM - 9:00 PMFriday10:00 AM - 9:00 PMSaturday10:00 AM - 9:00 PMSunday12:00 PM - 6:00 PM"
"https://mastercuts.com","Rivertown Crossings","3700 Rivertown Pkwy Ste 1110","Grandville","MI","49418","US","<MISSING>","(616) 261-3333","<MISSING>","42.879455","-85.755973","Monday10:00 AM - 9:00 PMTuesday10:00 AM - 9:00 PMWednesday10:00 AM - 9:00 PMThursday10:00 AM - 9:00 PMFriday10:00 AM - 9:00 PMSaturday10:00 AM - 9:00 PMSunday12:00 PM - 6:00 PM"
"https://mastercuts.com","Quincy Mall","3240 Quincy Mall","Quincy","IL","62301","US","<MISSING>","(217) 228-2523","<MISSING>","39.936666","-91.363201","Monday10:00 AM - 9:00 PMTuesday10:00 AM - 9:00 PMWednesday10:00 AM - 9:00 PMThursday10:00 AM - 9:00 PMFriday10:00 AM - 9:00 PMSaturday10:00 AM - 9:00 PMSunday12:00 PM - 5:00 PM"
"https://mastercuts.com","Crossroads Mall","217 S 25Th St Ste D1","Fort Dodge","IA","50501","US","<MISSING>","(515) 955-5550","<MISSING>","42.50372","-94.160836","Monday10:00 AM - 9:00 PMTuesday10:00 AM - 9:00 PMWednesday10:00 AM - 9:00 PMThursday10:00 AM - 9:00 PMFriday10:00 AM - 9:00 PMSaturday10:00 AM - 8:00 PMSunday12:00 PM - 6:00 PM"
"https://mastercuts.com","The Pavillions @ Buckland Hill","194 Buckland Hills Dr Ste 1004","Manchester","CT","06040","US","<MISSING>","(860) 648-9446","<MISSING>","41.809557","-72.541074","Monday9:00 AM - 9:00 PMTuesday9:00 AM - 9:00 PMWednesday9:00 AM - 9:00 PMThursday9:00 AM - 9:00 PMFriday9:00 AM - 9:00 PMSaturday9:00 AM - 9:00 PMSunday11:00 AM - 6:00 PM"
"https://mastercuts.com","Chambersburg Mall","916 Chambersburg Mall","Chambersburg","PA","17202","US","<MISSING>","(717) 264-3434","<MISSING>","39.957611","-77.574962","Monday10:00 AM - 9:00 PMTuesday10:00 AM - 9:00 PMWednesday10:00 AM - 9:00 PMThursday10:00 AM - 9:00 PMFriday10:00 AM - 9:00 PMSaturday10:00 AM - 9:00 PMSunday11:00 PM - 5:00 PM"
"https://mastercuts.com","Northfield Square Mall","1600 N State Route 50","Bourbonnais","IL","60914","US","<MISSING>","(815) 935-7777","<MISSING>","41.174341","-87.847151","Monday10:00 AM - 8:00 PMTuesday10:00 AM - 8:00 PMWednesday10:00 AM - 8:00 PMThursday10:00 AM - 8:00 PMFriday10:00 AM - 8:00 PMSaturday10:00 AM - 8:00 PMSunday11:00 AM - 6:00 PM"
"https://mastercuts.com","North Hanover Mall","1155 Carlisle St Ste 42","Hanover","PA","17331","US","<MISSING>","(717) 632-7622","<MISSING>","39.821511","-76.993778","Monday10:00 AM - 9:00 PMTuesday10:00 AM - 9:00 PMWednesday10:00 AM - 9:00 PMThursday10:00 AM - 9:00 PMFriday10:00 AM - 9:00 PMSaturday10:00 AM - 9:00 PMSunday11:00 AM - 5:00 PM"
"https://mastercuts.com","West Park Mall","3049 William St Ste 246","Cape Girardeau","MO","63703","US","<MISSING>","(573) 335-8995","<MISSING>","37.298971","-89.573835","Monday10:00 AM - 9:00 PMTuesday10:00 AM - 9:00 PMWednesday10:00 AM - 9:00 PMThursday10:00 AM - 9:00 PMFriday10:00 AM - 9:00 PMSaturday10:00 AM - 9:00 PMSunday12:00 PM - 5:00 PM"
"https://mastercuts.com","Jordan Creek Town Center","101 Jordan Creek Pkwy # 12260","West Des Moines","IA","50266","US","<MISSING>","(515) 974-5281","<MISSING>","41.569722","-93.804574","Monday10:00 AM - 9:00 PMTuesday10:00 AM - 9:00 PMWednesday10:00 AM - 9:00 PMThursday10:00 AM - 9:00 PMFriday10:00 AM - 9:00 PMSaturday10:00 AM - 9:00 PMSunday11:00 AM - 6:00 PM"
"https://mastercuts.com","South Mall","3300 Lehigh St Ste 715","Allentown","PA","18103","US","<MISSING>","(610) 797-5558","<MISSING>","40.555975","-75.491757","Monday8:00 AM - 9:00 PMTuesday8:00 AM - 9:00 PMWednesday8:00 AM - 9:00 PMThursday8:00 AM - 9:00 PMFriday8:00 AM - 9:00 PMSaturday8:00 AM - 9:00 PMSunday10:00 AM - 4:00 PM"
"https://mastercuts.com","Empire Mall","1500 Empire Mall","Sioux Falls","SD","57106","US","<MISSING>","(605) 361-3636","<MISSING>","43.511156","-96.775808","Monday10:00 AM - 9:00 PMTuesday10:00 AM - 9:00 PMWednesday10:00 AM - 9:00 PMThursday10:00 AM - 9:00 PMFriday10:00 AM - 9:00 PMSaturday10:00 AM - 9:00 PMSunday12:00 PM - 6:00 PM"
"https://mastercuts.com","Lansing Mall","5330 W Saginaw Hwy Ste 123","Lansing","MI","48917","US","<MISSING>","(517) 886-6999","<MISSING>","42.74304","-84.628538","Monday10:00 AM - 9:00 PMTuesday10:00 AM - 9:00 PMWednesday10:00 AM - 9:00 PMThursday10:00 AM - 9:00 PMFriday10:00 AM - 9:00 PMSaturday10:00 AM - 9:00 PMSunday12:00 PM - 6:00 PM"
"https://mastercuts.com","Pembroke Lakes Mall","11401 Pines Blvd Ste 608","Pembroke Pines","FL","33026","US","<MISSING>","(954) 704-0220","<MISSING>","26.010569","-80.304625","Monday10:00 AM - 9:00 PMTuesday10:00 AM - 9:00 PMWednesday10:00 AM - 9:00 PMThursday10:00 AM - 9:00 PMFriday10:00 AM - 9:00 PMSaturday10:00 AM - 9:00 PMSunday12:00 PM - 6:00 PM"
"https://mastercuts.com","Galleria At Pittsburgh Mills","269 Pittsburgh Mills Cir","Tarentum","PA","15084","US","<MISSING>","(724) 274-7273","<MISSING>","40.572803","-79.796727","Monday10:00 AM - 9:00 PMTuesday10:00 AM - 9:00 PMWednesday10:00 AM - 9:00 PMThursday10:00 AM - 9:00 PMFriday10:00 AM - 9:00 PMSaturday10:00 AM - 9:00 PMSunday11:00 AM - 5:00 PM"
"https://mastercuts.com","Midland Mall","6800 Eastman Ave Ste C-316","Midland","MI","48642","US","<MISSING>","(989) 835-1300","<MISSING>","43.659257","-84.242496","Monday10:00 AM - 9:00 PMTuesday10:00 AM - 9:00 PMWednesday10:00 AM - 9:00 PMThursday10:00 AM - 9:00 PMFriday10:00 AM - 9:00 PMSaturday10:00 AM - 9:00 PMSunday12:00 PM - 6:00 PM"
"https://mastercuts.com","The Mall At Whitney Field","100 Commercial Rd Ste 119","Leominster","MA","01453","US","<MISSING>","(978) 537-1111","<MISSING>","42.529427","-71.741807","Monday10:00 AM - 9:00 PMTuesday10:00 AM - 9:00 PMWednesday10:00 AM - 9:00 PMThursday10:00 AM - 9:00 PMFriday10:00 AM - 9:00 PMSaturday10:00 AM - 9:00 PMSunday11:00 AM - 6:00 PM"
"https://mastercuts.com","Southern Hills Mall","4400 Sergeant Rd","Sioux City","IA","51106","US","<MISSING>","(712) 276-7444","<MISSING>","42.446277","-96.353551","Monday10:00 AM - 9:00 PMTuesday10:00 AM - 9:00 PMWednesday10:00 AM - 9:00 PMThursday10:00 AM - 9:00 PMFriday10:00 AM - 9:00 PMSaturday10:00 AM - 9:00 PMSunday12:00 PM - 6:00 PM"
"https://mastercuts.com","West Acres Shopping Center","3902 13Th Ave Sw Ste 229","Fargo","ND","58103","US","<MISSING>","(701) 282-6100","<MISSING>","46.859246","-96.846717","Monday10:00 AM - 9:00 PMTuesday10:00 AM - 9:00 PMWednesday10:00 AM - 9:00 PMThursday10:00 AM - 9:00 PMFriday10:00 AM - 9:00 PMSaturday10:00 AM - 9:00 PMSunday12:00 PM - 6:00 PM"
"https://mastercuts.com","Neshaminy Mall","4200 Neshaminy Blvd Ste 108","Bensalem","PA","19020","US","<MISSING>","(215) 364-5999","<MISSING>","40.138794","-74.95535","Monday10:00 AM - 9:00 PMTuesday10:00 AM - 9:00 PMWednesday10:00 AM - 9:00 PMThursday10:00 AM - 9:00 PMFriday10:00 AM - 9:00 PMSaturday10:00 AM - 9:00 PMSunday11:00 AM - 6:00 PM"
"https://mastercuts.com","Dakota Square","2400 10Th St Sw Ste 226","Minot","ND","58701","US","<MISSING>","(701) 839-4989","<MISSING>","48.216267","-101.322152","Monday10:00 AM - 9:00 PMTuesday10:00 AM - 9:00 PMWednesday10:00 AM - 9:00 PMThursday10:00 AM - 9:00 PMFriday10:00 AM - 9:00 PMSaturday10:00 AM - 7:00 PMSunday12:00 PM - 6:00 PM"
"https://mastercuts.com","Kirkwood Mall","720 Kirkwood Mall","Bismarck","ND","58504","US","<MISSING>","(701) 222-4422","<MISSING>","46.797549","-100.785089","Monday10:00 AM - 9:00 PMTuesday10:00 AM - 9:00 PMWednesday10:00 AM - 9:00 PMThursday10:00 AM - 9:00 PMFriday10:00 AM - 9:00 PMSaturday10:00 AM - 7:00 PMSunday12:00 PM - 6:00 PM"
"https://mastercuts.com","River Ridge Mall","3405 Candlers Mountain Rd #310","Lynchburg","VA","24502","US","<MISSING>","(434) 237-6651","<MISSING>","37.364903","-79.178623","Monday10:00 AM - 9:00 PMTuesday10:00 AM - 9:00 PMWednesday10:00 AM - 9:00 PMThursday10:00 AM - 9:00 PMFriday10:00 AM - 9:00 PMSaturday9:00 AM - 9:00 PMSunday12:00 PM - 6:00 PM"
"https://mastercuts.com","Mill Creek Mall","605 Mill Creek Mall","Erie","PA","16565","US","<MISSING>","(814) 868-5291","<MISSING>","42.068108","-80.103947","Monday10:00 AM - 9:00 PMTuesday10:00 AM - 9:00 PMWednesday10:00 AM - 9:00 PMThursday10:00 AM - 9:00 PMFriday10:00 AM - 9:00 PMSaturday9:00 AM - 9:00 PMSunday11:00 AM - 6:00 PM"
"https://mastercuts.com","Rosedale Center","1595 Highway 36 W, Suite 377","Roseville","MN","55113","US","<MISSING>","(651) 633-6333","<MISSING>","45.012682","-93.172023","Monday10:00 AM - 9:00 PMTuesday10:00 AM - 9:00 PMWednesday10:00 AM - 9:00 PMThursday10:00 AM - 9:00 PMFriday10:00 AM - 9:00 PMSaturday10:00 AM - 9:00 PMSunday11:00 AM - 6:00 PM"
"https://mastercuts.com","Mall In Columbia Ste 1605","10300 Little Patuxent Pkwy","Columbia","MD","21044","US","<MISSING>","(410) 992-4295","<MISSING>","39.215635","-76.860655","Monday10:00 AM - 9:00 PMTuesday10:00 AM - 9:00 PMWednesday10:00 AM - 9:00 PMThursday10:00 AM - 9:00 PMFriday10:00 AM - 9:00 PMSaturday10:00 AM - 9:00 PMSunday12:00 PM - 6:00 PM"
"https://mastercuts.com","Lebanon Valley Mall","2255 Lebanon Valley Mall","Lebanon","PA","17042","US","<MISSING>","(717) 272-7959","<MISSING>","40.340947","-76.451732","Monday10:00 AM - 9:00 PMTuesday10:00 AM - 9:00 PMWednesday10:00 AM - 9:00 PMThursday10:00 AM - 9:00 PMFriday10:00 AM - 9:00 PMSaturday10:00 AM - 9:00 PMSunday11:00 AM - 5:00 PM"
"https://mastercuts.com","Westwood Mall","1850 W Michigan Ave Ste 1760","Jackson","MI","49202","US","<MISSING>","(517) 783-5775","<MISSING>","42.249917","-84.43663","Monday10:00 AM - 9:00 PMTuesday10:00 AM - 9:00 PMWednesday10:00 AM - 9:00 PMThursday10:00 AM - 9:00 PMFriday10:00 AM - 9:00 PMSaturday10:00 AM - 9:00 PMSunday12:00 PM - 6:00 PM"
"https://mastercuts.com","Columbia Center","1321 N Columbia Ctr Blvd # 205","Kennewick","WA","99336","US","<MISSING>","(509) 783-2166","<MISSING>","46.22609","-119.227167","Monday10:00 AM - 9:00 PMTuesday10:00 AM - 9:00 PMWednesday10:00 AM - 9:00 PMThursday10:00 AM - 9:00 PMFriday10:00 AM - 9:00 PMSaturday10:00 AM - 9:00 PMSunday11:00 AM - 7:00 PM"
"https://mastercuts.com","Spotsylvania Mall","360 Spotsylvania Mall","Fredericksburg","VA","22407","US","<MISSING>","(540) 786-7998","<MISSING>","38.293994","-77.51487","Monday10:00 AM - 9:30 PMTuesday10:00 AM - 9:30 PMWednesday10:00 AM - 9:30 PMThursday10:00 AM - 9:30 PMFriday10:00 AM - 9:30 PMSaturday10:00 AM - 9:30 PMSunday11:00 AM - 6:00 PM"
"https://mastercuts.com","Aviation Mall","578 Aviation Rd Ste C103","Glens Falls","NY","12804","US","<MISSING>","(518) 792-6731","<MISSING>","43.326732","-73.677628","Monday9:30 AM - 9:00 PMTuesday9:30 AM - 9:00 PMWednesday9:30 AM - 9:00 PMThursday9:30 AM - 9:00 PMFriday9:30 AM - 9:00 PMSaturday9:30 AM - 9:00 PMSunday11:00 AM - 6:00 PM"
"https://mastercuts.com","Southshore Mall","1017 S Boone St Ste 120","Aberdeen","WA","98520","US","<MISSING>","(360) 533-4445","<MISSING>","46.960762","-123.807345","Monday9:00 AM - 7:00 PMTuesday9:00 AM - 7:00 PMWednesday9:00 AM - 7:00 PMThursday9:00 AM - 7:00 PMFriday9:00 AM - 7:00 PMSaturday9:00 AM - 7:00 PMSunday10:00 AM - 5:00 PM"
"https://mastercuts.com","Sangertown Square","Route 5 & Route 5A Ste P-01","New Hartford","NY","13413","US","<MISSING>","(315) 733-5555","<MISSING>","43.082187","-75.318265","Monday10:00 AM - 9:30 PMTuesday10:00 AM - 9:30 PMWednesday10:00 AM - 9:30 PMThursday10:00 AM - 9:30 PMFriday10:00 AM - 9:30 PMSaturday9:00 AM - 9:30 PMSunday11:00 AM - 6:00 PM"
"https://mastercuts.com","Heritage Mall","2021 14Th Ave Se","Albany","OR","97321","US","<MISSING>","(541) 926-6000","<MISSING>","44.630351","-123.080194","Monday10:00 AM - 9:00 PMTuesday10:00 AM - 9:00 PMWednesday10:00 AM - 9:00 PMThursday10:00 AM - 9:00 PMFriday10:00 AM - 9:00 PMSaturday10:00 AM - 9:00 PMSunday11:00 AM - 6:00 PM"
"https://mastercuts.com","Ohio Valley Mall","67800 Mall Ring Rd Ste 885","Saint Clairsville","OH","43950","US","<MISSING>","(740) 695-8866","<MISSING>","40.069486","-80.866843","Monday10:00 AM - 9:00 PMTuesday10:00 AM - 9:00 PMWednesday10:00 AM - 9:00 PMThursday10:00 AM - 9:00 PMFriday10:00 AM - 9:00 PMSaturday10:00 AM - 9:00 PMSunday11:00 AM - 6:00 PM"
"https://mastercuts.com","Oakwood Mall","4800 Golf Rd Ste 116","Eau Claire","WI","54701","US","<MISSING>","(715) 834-3432","<MISSING>","44.775369","-91.441891","Monday10:00 AM - 9:00 PMTuesday10:00 AM - 9:00 PMWednesday10:00 AM - 9:00 PMThursday10:00 AM - 9:00 PMFriday10:00 AM - 9:00 PMSaturday10:00 AM - 9:00 PMSunday11:00 AM - 6:00 PM"
"https://mastercuts.com","Eastwood Mall","5555 Youngstown Warren Rd #292","Niles","OH","44446","US","<MISSING>","(330) 652-6606","<MISSING>","41.214978","-80.751421","Monday10:00 AM - 9:00 PMTuesday10:00 AM - 9:00 PMWednesday10:00 AM - 9:00 PMThursday10:00 AM - 9:00 PMFriday10:00 AM - 9:00 PMSaturday9:00 AM - 9:00 PMSunday11:00 AM - 6:00 PM"
"https://mastercuts.com","Eastfield Mall","1655 Boston Rd Unit D7","Springfield","MA","01129","US","<MISSING>","(413) 543-1688","<MISSING>","42.141646","-72.487252","Monday10:00 AM - 9:00 PMTuesday10:00 AM - 9:00 PMWednesday10:00 AM - 9:00 PMThursday10:00 AM - 9:00 PMFriday10:00 AM - 9:00 PMSaturday10:00 AM - 9:00 PMSunday11:00 AM - 6:00 PM"
"https://mastercuts.com","West County Mall","6 W County Ctr Ste 1010-A","Des Peres","MO","63131","US","<MISSING>","(314) 822-3184","<MISSING>","38.600472","-90.446006","Monday10:00 AM - 9:00 PMTuesday10:00 AM - 9:00 PMWednesday10:00 AM - 9:00 PMThursday10:00 AM - 9:00 PMFriday10:00 AM - 9:00 PMSaturday10:00 AM - 9:00 PMSunday11:00 AM - 6:00 PM"
"https://mastercuts.com","East Hills Mall","3702 Fredrick Ave Ste 15","Saint Joseph","MO","64506","US","<MISSING>","(816) 279-7979","<MISSING>","39.774629","-94.800557","Monday10:00 AM - 9:00 PMTuesday10:00 AM - 9:00 PMWednesday10:00 AM - 9:00 PMThursday10:00 AM - 9:00 PMFriday10:00 AM - 9:00 PMSaturday10:00 AM - 9:00 PMSunday12:00 PM - 5:00 PM"
"https://mastercuts.com","Northpark Mall","101 N Range Line Rd Ste 240","Joplin","MO","64801","US","<MISSING>","(417) 782-8270","<MISSING>","37.090727","-94.474469","Monday10:00 AM - 9:00 PMTuesday10:00 AM - 9:00 PMWednesday10:00 AM - 9:00 PMThursday10:00 AM - 9:00 PMFriday10:00 AM - 9:00 PMSaturday10:00 AM - 9:00 PMSunday12:00 PM - 6:00 PM"
"https://mastercuts.com","Ashtabula Mall","3315 N Ridge E Unit 610","Ashtabula","OH","44004","US","<MISSING>","(440) 998-1777","<MISSING>","41.882782","-80.755391","Monday10:00 AM - 9:00 PMTuesday10:00 AM - 9:00 PMWednesday10:00 AM - 9:00 PMThursday10:00 AM - 9:00 PMFriday10:00 AM - 9:00 PMSaturday9:00 AM - 9:00 PMSunday11:00 AM - 5:00 PM"
"https://mastercuts.com","Lehigh Valley Mall","268 Lehigh Valley Mall","Whitehall","PA","18052","US","<MISSING>","(610) 264-7064","<MISSING>","40.632601","-75.48046","Monday10:00 AM - 9:00 PMTuesday10:00 AM - 9:00 PMWednesday10:00 AM - 9:00 PMThursday10:00 AM - 9:00 PMFriday10:00 AM - 9:00 PMSaturday10:00 AM - 9:00 PMSunday11:00 AM - 6:00 PM"
"https://mastercuts.com","Colony Square","3575 Maple Ave Ste 100","Zanesville","OH","43701","US","<MISSING>","(740) 588-0257","<MISSING>","39.98762","-82.027086","Monday10:00 AM - 9:00 PMTuesday10:00 AM - 9:00 PMWednesday10:00 AM - 9:00 PMThursday10:00 AM - 9:00 PMFriday10:00 AM - 9:00 PMSaturday10:00 AM - 9:00 PMSunday12:00 PM - 6:00 PM"
"https://mastercuts.com","Square One Mall","1277 Broadway Ste E-219","Saugus","MA","01906","US","<MISSING>","(781) 231-9111","<MISSING>","42.460834","-71.027447","Monday10:00 AM - 9:00 PMTuesday10:00 AM - 9:00 PMWednesday10:00 AM - 9:00 PMThursday10:00 AM - 9:00 PMFriday10:00 AM - 9:00 PMSaturday10:00 AM - 9:00 PMSunday11:00 AM - 6:00 PM"
"https://mastercuts.com","Kentucky Oaks Mall","5101 Hinkleville Rd Ste 515","Paducah","KY","42001","US","<MISSING>","(270) 442-3234","<MISSING>","37.079383","-88.688668","Monday10:00 AM - 9:00 PMTuesday10:00 AM - 9:00 PMWednesday10:00 AM - 9:00 PMThursday10:00 AM - 9:00 PMFriday10:00 AM - 9:00 PMSaturday10:00 AM - 9:00 PMSunday11:00 AM - 6:00 PM"
"https://mastercuts.com","Walnut Square Mall","816 Walnut Square Blvd Ste 21","Dalton","GA","30721","US","<MISSING>","(706) 226-0006","<MISSING>","34.758851","-84.933259","Monday10:00 AM - 9:00 PMTuesday10:00 AM - 9:00 PMWednesday10:00 AM - 9:00 PMThursday10:00 AM - 9:00 PMFriday10:00 AM - 9:00 PMSaturday10:00 AM - 9:00 PMSunday12:00 PM - 6:00 PM"
"https://mastercuts.com","Greenwood Mall","2625 Scottsville Rd Ste 110","Bowling Green","KY","42104","US","<MISSING>","(270) 781-7871","<MISSING>","36.948314","-86.427394","Monday10:00 AM - 9:00 PMTuesday10:00 AM - 9:00 PMWednesday10:00 AM - 9:00 PMThursday10:00 AM - 9:00 PMFriday10:00 AM - 9:00 PMSaturday10:00 AM - 9:00 PMSunday12:30 PM - 6:00 PM"
"https://mastercuts.com","Ashland Town Center","500 Winchester Ave Ste 640","Ashland","KY","41101","US","<MISSING>","(606) 325-3444","<MISSING>","38.483609","-82.65307","Monday10:00 AM - 9:00 PMTuesday10:00 AM - 9:00 PMWednesday10:00 AM - 9:00 PMThursday10:00 AM - 9:00 PMFriday10:00 AM - 9:00 PMSaturday9:00 AM - 9:00 PMSunday12:00 PM - 6:00 PM"
"https://mastercuts.com","Viewmont Mall","100 Viewmont Mall Ste 848","Scranton","PA","18505","US","<MISSING>","(570) 342-8222","<MISSING>","41.45921","-75.654361","Monday10:00 AM - 9:00 PMTuesday10:00 AM - 9:00 PMWednesday10:00 AM - 9:00 PMThursday10:00 AM - 9:00 PMFriday10:00 AM - 9:00 PMSaturday10:00 AM - 9:00 PMSunday11:00 AM - 6:00 PM"
"https://mastercuts.com","Westfield Capital Mall","625 Black Lake Blvd Ste 270","Olympia","WA","98502","US","<MISSING>","(360) 786-8833","<MISSING>","47.041883","-122.934182","Monday9:30 AM - 8:00 PMTuesday9:30 AM - 8:00 PMWednesday9:30 AM - 8:00 PMThursday9:30 AM - 8:00 PMFriday9:30 AM - 9:00 PMSaturday9:30 AM - 9:00 PMSunday11:00 AM - 6:00 PM"
"https://mastercuts.com","Eastland Mall","800 N Green River Rd Ste 330","Evansville","IN","47715","US","<MISSING>","(812) 479-7774","<MISSING>","37.984528","-87.495493","Monday10:00 AM - 9:00 PMTuesday10:00 AM - 9:00 PMWednesday10:00 AM - 9:00 PMThursday10:00 AM - 9:00 PMFriday10:00 AM - 9:00 PMSaturday10:00 AM - 9:00 PMSunday12:00 PM - 6:00 PM"
"https://mastercuts.com","Dover Mall","1365 N Dupont Hwy","Dover","DE","19901","US","<MISSING>","(302) 674-0300","<MISSING>","39.193897","-75.53965","Monday10:00 AM - 9:00 PMTuesday10:00 AM - 9:00 PMWednesday10:00 AM - 9:00 PMThursday10:00 AM - 9:00 PMFriday10:00 AM - 9:00 PMSaturday10:00 AM - 9:00 PMSunday11:00 AM - 6:00 PM"
"https://mastercuts.com","Valley View Mall","3800 Highway 16 Ste 165","La Crosse","WI","54601","US","<MISSING>","(608) 779-9999","<MISSING>","43.867985","-91.196657","Monday10:00 AM - 9:00 PMTuesday10:00 AM - 9:00 PMWednesday10:00 AM - 9:00 PMThursday10:00 AM - 9:00 PMFriday10:00 AM - 9:00 PMSaturday10:00 AM - 9:00 PMSunday11:00 AM - 6:00 PM"
"https://mastercuts.com","Citadel Mall","2070 Sam Rittenberg Blvd #D524","Charleston","SC","29407","US","<MISSING>","(843) 769-5466","<MISSING>","32.798172","-80.031878","Monday10:00 AM - 9:00 PMTuesday10:00 AM - 9:00 PMWednesday10:00 AM - 9:00 PMThursday10:00 AM - 9:00 PMFriday10:00 AM - 9:00 PMSaturday10:00 AM - 9:00 PMSunday12:00 PM - 6:00 PM"
"https://mastercuts.com","Mall At St.matthews","5000 Shelbyville Rd Ste 1085","Saint Matthews","KY","40207","US","<MISSING>","(502) 893-3331","<MISSING>","38.246805","-85.623102","Monday10:00 AM - 9:00 PMTuesday10:00 AM - 9:00 PMWednesday10:00 AM - 9:00 PMThursday10:00 AM - 9:00 PMFriday10:00 AM - 9:00 PMSaturday10:00 AM - 9:00 PMSunday12:00 PM - 6:00 PM"
"https://mastercuts.com","Bangor Mall","663 Stillwater Ave Ste E17","Bangor","ME","04401","US","<MISSING>","(207) 941-1110","<MISSING>","44.830134","-68.748976","Monday9:30 AM - 9:00 PMTuesday9:30 AM - 9:00 PMWednesday9:30 AM - 9:00 PMThursday9:30 AM - 9:00 PMFriday9:30 AM - 9:00 PMSaturday9:00 AM - 9:00 PMSunday11:00 AM - 6:00 PM"
"https://mastercuts.com","Susquehanna Valley Mall","1 Susquehanna Valley Mall C-12","Selinsgrove","PA","17870","US","<MISSING>","(570) 374-2888","<MISSING>","40.824977","-76.848454","Monday10:00 AM - 9:00 PMTuesday10:00 AM - 9:00 PMWednesday10:00 AM - 9:00 PMThursday10:00 AM - 9:00 PMFriday10:00 AM - 9:00 PMSaturday10:00 AM - 9:00 PMSunday11:00 AM - 5:00 PM"
"https://mastercuts.com","Eastridge Mall","601 Se Wyoming Blvd Ste 1252","Casper","WY","82609","US","<MISSING>","(307) 577-5777","<MISSING>","42.84643","-106.265327","Monday10:00 AM - 9:00 PMTuesday10:00 AM - 9:00 PMWednesday10:00 AM - 9:00 PMThursday10:00 AM - 9:00 PMFriday10:00 AM - 9:00 PMSaturday10:00 AM - 9:00 PMSunday11:00 AM - 6:00 PM"
"https://mastercuts.com","Crossroads Mall","4 Crossroads Mall Ste F17","Mount Hope","WV","25880","US","<MISSING>","(304) 255-9055","<MISSING>","37.847312","-81.197569","Monday10:00 AM - 9:00 PMTuesday10:00 AM - 9:00 PMWednesday10:00 AM - 9:00 PMThursday10:00 AM - 9:00 PMFriday10:00 AM - 9:00 PMSaturday10:00 AM - 9:00 PMSunday12:00 PM - 6:00 PM"
"https://mastercuts.com","Wellington Green Mall","10300 W Forest Hill Blvd # 213","Wellington","FL","33414","US","<MISSING>","(561) 792-7622","<MISSING>","26.646324","-80.208445","Monday10:00 AM - 9:00 PMTuesday10:00 AM - 9:00 PMWednesday10:00 AM - 9:00 PMThursday10:00 AM - 9:00 PMFriday10:00 AM - 9:00 PMSaturday10:00 AM - 9:00 PMSunday11:00 AM - 6:00 PM"
"https://mastercuts.com","Eden Prairie Center","8251 Flying Cloud Dr Ste 2168","Eden Prairie","MN","55344","US","<MISSING>","(952) 944-5444","<MISSING>","44.854487","-93.424573","Monday10:00 AM - 9:00 PMTuesday10:00 AM - 9:00 PMWednesday10:00 AM - 9:00 PMThursday10:00 AM - 9:00 PMFriday10:00 AM - 9:00 PMSaturday10:00 AM - 9:00 PMSunday11:00 AM - 6:00 PM"
"https://mastercuts.com","University Park Mall","6501 N Grape Rd","Mishawaka","IN","46545","US","<MISSING>","(574) 277-3770","<MISSING>","41.719184","-86.190405","Monday10:00 AM - 9:00 PMTuesday10:00 AM - 9:00 PMWednesday10:00 AM - 9:00 PMThursday10:00 AM - 9:00 PMFriday10:00 AM - 9:00 PMSaturday10:00 AM - 9:00 PMSunday11:00 AM - 6:00 PM"
"https://mastercuts.com","Savannah Mall","14045 Abercorn St Ste 1302","Savannah","GA","31419","US","<MISSING>","(912) 927-9999","<MISSING>","31.984034","-81.172327","Monday10:00 AM - 9:00 PMTuesday10:00 AM - 9:00 PMWednesday10:00 AM - 9:00 PMThursday10:00 AM - 9:00 PMFriday10:00 AM - 9:00 PMSaturday10:00 AM - 9:00 PMSunday12:00 PM - 6:00 PM"
"https://mastercuts.com","Tippecanoe Mall","2415 Sagamore Pkwy S Ste D17","Lafayette","IN","47905","US","<MISSING>","(765) 447-4444","<MISSING>","40.391543","-86.8504","Monday10:00 AM - 9:00 PMTuesday10:00 AM - 9:00 PMWednesday10:00 AM - 9:00 PMThursday10:00 AM - 9:00 PMFriday10:00 AM - 9:30 PMSaturday10:00 AM - 9:00 PMSunday12:00 PM - 6:00 PM"
"https://mastercuts.com","Chauncey Hill Center","135 S Chauncey Ave Ste 1B","West Lafayette","IN","47906","US","<MISSING>","(765) 743-9689","<MISSING>","40.423308","-86.90778","Monday10:00 AM - 7:00 PMTuesday10:00 AM - 7:00 PMWednesday10:00 AM - 7:00 PMThursday10:00 AM - 7:00 PMFriday10:00 AM - 7:00 PMSaturday10:00 AM - 7:00 PMSunday11:00 AM - 5:00 PM"
"https://mastercuts.com","Honey Creek Square","3401 S Us Highway 41 Ste D5B","Terre Haute","IN","47802","US","<MISSING>","(812) 242-1888","<MISSING>","39.430298","-87.422173","Monday10:00 AM - 9:00 PMTuesday10:00 AM - 9:00 PMWednesday10:00 AM - 9:00 PMThursday10:00 AM - 9:00 PMFriday10:00 AM - 9:00 PMSaturday10:00 AM - 9:00 PMSunday12:00 PM - 6:00 PM"
"https://mastercuts.com","Wyoming Valley Mall","71 1/2 Wyoming Valley Mall","Wilkes Barre","PA","18702","US","<MISSING>","(570) 826-5555","<MISSING>","41.246491","-75.844471","Monday10:00 AM - 9:00 PMTuesday10:00 AM - 9:00 PMWednesday10:00 AM - 9:00 PMThursday10:00 AM - 9:00 PMFriday10:00 AM - 9:00 PMSaturday10:00 AM - 9:00 PMSunday11:00 AM - 6:00 PM"
"https://mastercuts.com","Du Bois Mall","690 Shaffer Rd Ste 78","Du Bois","PA","15801","US","<MISSING>","(814) 375-2466","<MISSING>","41.120608","-78.726872","Monday10:00 AM - 8:00 PMTuesday10:00 AM - 8:00 PMWednesday10:00 AM - 8:00 PMThursday10:00 AM - 8:00 PMFriday10:00 AM - 9:00 PMSaturday10:00 AM - 9:00 PMSunday11:00 AM - 6:00 PM"
"https://mastercuts.com","The Mall At Robinson","100 Robinson Center Dr # 2530","Pittsburgh","PA","15205","US","<MISSING>","(412) 494-4449","<MISSING>","40.454452","-80.157122","Monday10:00 AM - 9:00 PMTuesday10:00 AM - 9:00 PMWednesday10:00 AM - 9:00 PMThursday10:00 AM - 9:00 PMFriday10:00 AM - 9:30 PMSaturday10:00 AM - 9:30 PMSunday11:00 AM - 6:00 PM"
"https://mastercuts.com","Birchwood Mall","4350 24Th Ave Ste 110","Fort Gratiot","MI","48059","US","<MISSING>","(810) 385-7997","<MISSING>","43.036182","-82.454966","Monday10:00 AM - 9:00 PMTuesday10:00 AM - 9:00 PMWednesday10:00 AM - 9:00 PMThursday10:00 AM - 9:00 PMFriday10:00 AM - 9:00 PMSaturday9:00 AM - 9:00 PMSunday11:00 AM - 6:00 PM"
"https://mastercuts.com","Phillipsburg Mall","1200 Highway 22 E Ste 723","Phillipsburg","NJ","08865","US","<MISSING>","(908) 387-1887","<MISSING>","40.685003","-75.153977","Monday11:00 AM - 7:00 PMTuesday11:00 AM - 7:00 PMWednesday11:00 AM - 7:00 PMThursday10:00 AM - 8:00 PMFriday10:00 AM - 8:00 PMSaturday10:00 AM - 8:00 PMSunday11:00 AM - 5:00 PM"
"https://mastercuts.com","San Tan Village","2180 E Williams Field Rd # 112","Gilbert","AZ","85295","US","<MISSING>","(480) 857-1509","<MISSING>","33.311121","-111.742981","Monday10:00 AM - 8:00 PMTuesday10:00 AM - 8:00 PMWednesday10:00 AM - 8:00 PMThursday10:00 AM - 8:00 PMFriday10:00 AM - 8:00 PMSaturday10:00 AM - 8:00 PMSunday11:00 AM - 6:00 PM"
"https://mastercuts.com","Santa Fe Place","4250 Cerrillos Rd Ste 1190","Santa Fe","NM","87592","US","<MISSING>","(505) 471-2022","<MISSING>","35.63648","-106.014718","Monday10:00 AM - 9:00 PMTuesday10:00 AM - 9:00 PMWednesday10:00 AM - 9:00 PMThursday10:00 AM - 9:00 PMFriday10:00 AM - 9:00 PMSaturday10:00 AM - 9:00 PMSunday12:00 PM - 6:00 PM"
"https://mastercuts.com","Eagle Rock","2700 Colorado Blvd Ste 113","Los Angeles","CA","90041","US","<MISSING>","(323) 257-1105","<MISSING>","34.132247","-118.211726","Monday10:00 AM - 9:00 PMTuesday10:00 AM - 9:00 PMWednesday10:00 AM - 9:00 PMThursday10:00 AM - 9:00 PMFriday10:00 AM - 9:00 PMSaturday10:00 AM - 8:00 PMSunday11:00 AM - 6:00 PM"
"https://mastercuts.com","Midland Park Mall","4511 N Midkiff Rd Ste F-1","Midland","TX","79705","US","<MISSING>","(432) 689-8811","<MISSING>","32.030406","-102.131735","Monday10:00 AM - 9:00 PMTuesday10:00 AM - 9:00 PMWednesday10:00 AM - 9:30 PMThursday10:00 AM - 9:30 PMFriday10:00 AM - 10:00 PMSaturday10:00 AM - 9:30 PMSunday12:00 PM - 7:00 PM"
"https://mastercuts.com","Chico Mall","1950 E 20Th St Ste G709","Chico","CA","95928","US","<MISSING>","(530) 345-1113","<MISSING>","39.729029","-121.805434","Monday10:00 AM - 9:00 PMTuesday10:00 AM - 9:00 PMWednesday10:00 AM - 9:00 PMThursday10:00 AM - 9:00 PMFriday10:00 AM - 9:00 PMSaturday10:00 AM - 9:00 PMSunday12:00 PM - 6:00 PM"
"https://mastercuts.com","Pueblo Mall","3229 Dillon Dr Ste H-12","Pueblo","CO","81008","US","<MISSING>","(719) 545-4334","<MISSING>","38.302852","-104.608784","Monday10:30 AM - 9:00 PMTuesday10:30 AM - 9:00 PMWednesday10:00 AM - 9:30 PMThursday10:30 AM - 9:00 PMFriday10:30 AM - 9:00 PMSaturday10:00 AM - 7:00 PMSunday10:30 AM - 6:00 PM"
"https://mastercuts.com","Eastgate Square","75 Centennial Pkwy N Ste J-12B","Hamilton","ON","L8E 2P2","CA","<MISSING>","(905) 662-7222","<MISSING>","43.230756","-79.765519","Monday9:00 AM - 9:00 PMTuesday9:00 AM - 9:00 PMWednesday9:00 AM - 9:00 PMThursday9:00 AM - 9:00 PMFriday9:00 AM - 9:00 PMSaturday9:00 AM - 6:00 PMSunday11:00 AM - 5:00 PM"
"https://mastercuts.com","Pecanland Mall","4700 Millhaven Rd Ste 1032","Monroe","LA","71203","US","<MISSING>","(318) 322-9777","<MISSING>","32.498125","-92.05935","Monday10:00 AM - 9:00 PMTuesday10:00 AM - 9:00 PMWednesday10:00 AM - 9:00 PMThursday10:00 AM - 9:00 PMFriday10:00 AM - 9:00 PMSaturday10:00 AM - 9:00 PMSunday12:00 PM - 6:00 PM"
"https://mastercuts.com","Inland Center","310 Inland Ctr","San Bernardino","CA","92408","US","<MISSING>","(909) 884-2701","<MISSING>","34.08494","-117.297321","Monday10:00 AM - 9:00 PMTuesday10:00 AM - 9:00 PMWednesday10:00 AM - 9:00 PMThursday10:00 AM - 9:00 PMFriday10:00 AM - 9:00 PMSaturday10:00 AM - 8:00 PMSunday11:00 AM - 7:00 PM"
"https://mastercuts.com","Southland Mall","5953 W Park Ave Ste 1047","Houma","LA","70364","US","<MISSING>","(985) 868-6888","<MISSING>","29.634965","-90.756597","Monday10:00 AM - 9:00 PMTuesday10:00 AM - 9:00 PMWednesday10:00 AM - 9:00 PMThursday10:00 AM - 9:00 PMFriday10:00 AM - 9:00 PMSaturday10:00 AM - 9:00 PMSunday12:00 PM - 6:00 PM"
"https://mastercuts.com","Sunrise Mall","2370 N Expressway Ste 1192","Brownsville","TX","78521","US","<MISSING>","(956) 574-0033","<MISSING>","25.953819","-97.5031","Monday10:00 AM - 9:00 PMTuesday10:00 AM - 9:00 PMWednesday10:00 AM - 9:00 PMThursday10:00 AM - 9:00 PMFriday10:00 AM - 9:00 PMSaturday9:00 AM - 9:00 PMSunday12:00 PM - 7:00 PM"
"https://mastercuts.com","Mall Of Abilene","4310 Buffalo Gap Rd","Abilene","TX","79606","US","<MISSING>","(325) 698-3791","<MISSING>","32.402036","-99.76041","Monday10:00 AM - 9:00 PMTuesday10:00 AM - 9:00 PMWednesday10:00 AM - 9:00 PMThursday10:00 AM - 9:00 PMFriday10:00 AM - 9:00 PMSaturday10:00 AM - 9:00 PMSunday12:00 PM - 6:00 PM"
"https://mastercuts.com","Coronado Center","6600 Menual Blvd Ne Ste C-013","Albuquerque","NM","87110","US","<MISSING>","(505) 884-6500","<MISSING>","35.107116","-106.572808","Monday10:00 AM - 9:30 PMTuesday10:00 AM - 9:30 PMWednesday9:00 AM - 9:00 PMThursday10:00 AM - 10:00 PMFriday9:00 AM - 9:30 PMSaturday10:00 AM - 9:30 PMSunday12:00 PM - 6:30 PM"
"https://mastercuts.com","Woodgrove Centre","6631 Island Hwy N Suite 30A","Nanaimo","BC","V9T 4T7","CA","<MISSING>","(250) 390-4422","<MISSING>","49.236581","-124.050633","Monday10:00 AM - 6:00 PMTuesday10:00 AM - 6:00 PMWednesday10:00 AM - 9:00 PMThursday10:00 AM - 9:00 PMFriday10:00 AM - 9:00 PMSaturday10:00 AM - 7:00 PMSunday10:00 AM - 6:00 PM"
"https://mastercuts.com","Devonshire Mall","3100 Howard Ave Suite E-15","Windsor","ON","N8X 3Y8","CA","<MISSING>","(519) 250-3929","<MISSING>","42.274902","-83.002073","Monday9:30 AM - 9:00 PMTuesday9:30 AM - 9:00 PMWednesday9:30 AM - 9:00 PMThursday9:30 AM - 9:00 PMFriday9:30 AM - 9:00 PMSaturday9:00 AM - 6:00 PMSunday11:00 AM - 5:00 PM"
"https://mastercuts.com","Victoria Mall","7800 N Navarro St Ste 351A","Victoria","TX","77904","US","<MISSING>","(361) 578-4444","<MISSING>","28.868333","-96.994078","Monday10:00 AM - 9:00 PMTuesday10:00 AM - 9:00 PMWednesday10:00 AM - 9:00 PMThursday10:00 AM - 9:00 PMFriday10:00 AM - 9:00 PMSaturday9:00 AM - 9:00 PMSunday12:00 PM - 6:00 PM"
"https://mastercuts.com","Pierre Bossier Mall","2950 E Texas Ave Box 230","Bossier City","LA","71111","US","<MISSING>","(318) 742-7400","<MISSING>","32.525999","-93.706072","Monday10:00 AM - 9:00 PMTuesday10:00 AM - 9:00 PMWednesday10:00 AM - 9:00 PMThursday10:00 AM - 9:00 PMFriday10:00 AM - 9:00 PMSaturday10:00 AM - 9:00 PMSunday12:00 PM - 6:00 PM"
"https://mastercuts.com","Acadiana Mall","5725 Johnston St Ste 156","Lafayette","LA","70503","US","<MISSING>","(337) 981-9991","<MISSING>","30.171227","-92.075662","Monday10:00 AM - 9:00 PMTuesday10:00 AM - 9:00 PMWednesday10:00 AM - 9:00 PMThursday10:00 AM - 9:00 PMFriday10:00 AM - 9:00 PMSaturday10:00 AM - 9:00 PMSunday12:00 PM - 6:00 PM"
"https://mastercuts.com","La Palmera Mall","5488 S Padre Island Dr # 1400","Corpus Christi","TX","78411","US","<MISSING>","(361) 993-8988","<MISSING>","27.710037","-97.37167","Monday10:00 AM - 9:00 PMTuesday10:00 AM - 9:00 PMWednesday10:00 AM - 9:00 PMThursday10:00 AM - 9:00 PMFriday10:00 AM - 9:00 PMSaturday9:00 AM - 9:00 PMSunday11:00 AM - 6:00 PM"
"https://mastercuts.com","Metropolis At Metrotown","4800 Kingsway Suite 368","Burnaby","BC","V5H 4N2","CA","<MISSING>","(604) 433-6334","<MISSING>","49.22615","-122.999113","Monday10:00 AM - 9:00 PMTuesday10:00 AM - 9:00 PMWednesday10:00 AM - 9:00 PMThursday10:00 AM - 9:00 PMFriday10:00 AM - 9:00 PMSaturday10:00 AM - 9:00 PMSunday11:00 AM - 7:00 PM"
"https://mastercuts.com","Southgate Shopping Centre","5015 111 Street Northwest Ste 23A","Edmonton","AB","T6H 4M6","CA","<MISSING>","(780) 436-3322","<MISSING>","53.485452","-113.515049","Monday10:00 AM - 9:00 PMTuesday10:00 AM - 9:00 PMWednesday10:00 AM - 9:00 PMThursday10:00 AM - 9:00 PMFriday10:00 AM - 9:00 PMSaturday9:30 AM - 6:00 PMSunday11:00 AM - 5:00 PM"
"https://mastercuts.com","Mall Of Louisiana","6401 Bluebonnet Blvd Ste 1124","Baton Rouge","LA","70836","US","<MISSING>","(225) 819-8118","<MISSING>","30.389165","-91.087872","Monday10:00 AM - 9:00 PMTuesday10:00 AM - 9:00 PMWednesday10:00 AM - 9:00 PMThursday10:00 AM - 9:00 PMFriday10:00 AM - 9:00 PMSaturday10:00 AM - 9:00 PMSunday12:00 PM - 6:00 PM"
"https://mastercuts.com","Music City Mall","4101 E 42Nd St Box 63","Odessa","TX","79762","US","<MISSING>","(432) 362-8881","<MISSING>","31.895099","-102.338891","Monday10:00 AM - 10:00 PMTuesday10:00 AM - 9:30 PMWednesday10:00 AM - 9:30 PMThursday10:00 AM - 9:00 PMFriday10:00 AM - 10:00 PMSaturday10:00 AM - 9:00 PMSunday12:30 PM - 6:30 PM"
"https://mastercuts.com","Southwest Plaza","8501 W Bowles Ave Ste 2010","Littleton","CO","80123","US","<MISSING>","(720) 922-8222","<MISSING>","39.612175","-105.095685","Monday10:00 AM - 9:00 PMTuesday10:00 AM - 9:00 PMWednesday10:00 AM - 9:00 PMThursday10:00 AM - 9:00 PMFriday10:00 AM - 9:00 PMSaturday10:00 AM - 9:00 PMSunday11:00 AM - 6:00 PM"
"https://mastercuts.com","Arizona Mills","5000 S Arizona Mills Cir # 108","Tempe","AZ","85282","US","<MISSING>","(480) 756-3996","<MISSING>","33.383045","-111.964472","Monday9:00 AM - 8:00 PMTuesday9:00 AM - 8:00 PMWednesday9:00 AM - 8:00 PMThursday9:00 AM - 8:00 PMFriday9:00 AM - 12:00 AMSaturday9:00 AM - 5:00 PMSunday10:00 AM - 5:00 PM"
"https://mastercuts.com","Flatiron Crossing","1 W Flatiron Crossing Dr #1100","Broomfield","CO","80021","US","<MISSING>","(720) 887-1777","<MISSING>","39.932983","-105.133117","Monday10:00 AM - 9:00 PMTuesday10:00 AM - 9:00 PMWednesday10:00 AM - 9:00 PMThursday10:00 AM - 9:00 PMFriday10:00 AM - 9:00 PMSaturday10:00 AM - 9:00 PMSunday11:00 AM - 6:00 PM"
"https://mastercuts.com","Valley Plaza Center","2701 Ming Ave Ste 214","Bakersfield","CA","93304","US","<MISSING>","(661) 832-8888","<MISSING>","35.337816","-119.033756","Monday10:00 AM - 9:00 PMTuesday10:00 AM - 9:00 PMWednesday10:00 AM - 9:00 PMThursday10:00 AM - 9:00 PMFriday10:00 AM - 9:00 PMSaturday10:00 AM - 9:00 PMSunday11:00 AM - 7:00 PM"
"https://mastercuts.com","Mesilla Valley Mall","700 S Telshor Blvd Ste 1548A","Las Cruces","NM","88011","US","<MISSING>","(575) 522-2200","<MISSING>","32.310252","-106.743033","Monday10:00 AM - 9:00 PMTuesday10:00 AM - 9:00 PMWednesday10:00 AM - 9:00 PMThursday10:00 AM - 9:00 PMFriday10:00 AM - 9:00 PMSaturday10:00 AM - 9:00 PMSunday12:00 PM - 6:00 PM"
"https://mastercuts.com","Solano Mall","1350 Travis Blvd Ste 1523-B","Fairfield","CA","94533","US","<MISSING>","(707) 426-4154","<MISSING>","38.259677","-121.993216","Monday10:00 AM - 9:00 PMTuesday10:00 AM - 9:00 PMWednesday10:00 AM - 9:00 PMThursday10:00 AM - 9:00 PMFriday10:00 AM - 9:00 PMSaturday10:00 AM - 9:00 PMSunday11:00 AM - 6:00 PM"
"https://mastercuts.com","Southland Mall","2965 Gordon Rd","Regina","SK","S4S 6H7","CA","<MISSING>","(306) 585-6644","<MISSING>","50.403193","-104.622529","Monday9:30 AM - 6:00 PMTuesday9:30 AM - 6:00 PMWednesday9:30 AM - 9:00 PMThursday9:30 AM - 9:00 PMFriday9:30 AM - 9:00 PMSaturday9:30 AM - 6:00 PMSunday12:00 PM - 5:00 PM"
"https://mastercuts.com","Cornwall Square","547-1 Water St E","Cornwall","ON","K6H 6M2","CA","<MISSING>","(613) 936-9549","<MISSING>","45.016169","-74.725792","Monday9:30 AM - 9:00 PMTuesday9:30 AM - 9:00 PMWednesday9:30 AM - 9:00 PMThursday9:30 AM - 9:00 PMFriday9:30 AM - 9:00 PMSaturday9:30 AM - 5:30 PMSunday11:00 AM - 5:00 PM"
"https://mastercuts.com","Yuma Palms Regional Center","1418 S Yuma Palms Pkwy Ste H","Yuma","AZ","85365","US","<MISSING>","(928) 329-6363","<MISSING>","32.701568","-114.602959","Monday10:00 AM - 9:00 PMTuesday10:00 AM - 9:00 PMWednesday10:00 AM - 9:00 PMThursday10:00 AM - 9:00 PMFriday10:00 AM - 9:00 PMSaturday10:00 AM - 9:00 PMSunday11:00 AM - 6:00 PM"
"https://mastercuts.com","Alexandria Mall","3437 Masonic Dr Ste 1602","Alexandria","LA","71301","US","<MISSING>","(318) 443-6225","<MISSING>","31.277465","-92.461306","Monday10:00 AM - 9:00 PMTuesday10:00 AM - 9:00 PMWednesday10:00 AM - 9:00 PMThursday10:00 AM - 9:00 PMFriday10:00 AM - 9:00 PMSaturday9:00 AM - 9:00 PMSunday12:00 PM - 6:00 PM"
"https://mastercuts.com","Westgate Centre","11509 Westgate Drive Unit 103","Grande Prairie","AB","T8V 3B1","CA","<MISSING>","(780) 402-0260","<MISSING>","55.172786","-118.8412","Monday9:00 AM - 5:00 PMTuesday9:00 AM - 5:00 PMWednesday9:00 AM - 5:00 PMThursday9:00 AM - 5:00 PMFriday9:00 AM - 5:00 PMSaturday9:00 AM - 5:00 PMSunday10:00 AM - 4:00 PM"
"https://mastercuts.com","Heritage Place","1350 16Th St E Unit C1-C2","Owen Sound","ON","N4K 6N7","CA","<MISSING>","(519) 372-1616","<MISSING>","44.576249","-80.9187","Monday10:00 AM - 9:00 PMTuesday10:00 AM - 9:00 PMWednesday10:00 AM - 9:00 PMThursday10:00 AM - 9:00 PMFriday10:00 AM - 9:00 PMSaturday10:00 AM - 6:00 PMSunday11:00 AM - 5:00 PM"
"https://mastercuts.com","Coquitlam Centre","2929 Barnet Hwy Suite 2434","Port Coquitlam","BC","V3B 5R5","CA","<MISSING>","(604) 468-9996","<MISSING>","49.279601","-122.798488","Monday9:00 AM - 6:00 PMTuesday9:00 AM - 6:00 PMWednesday9:00 AM - 9:00 PMThursday9:00 AM - 9:00 PMFriday9:00 AM - 9:00 PMSaturday9:00 AM - 6:00 PMSunday10:00 AM - 6:00 PM"
"https://mastercuts.com","Imperial Valley","3451 S Dogwood Ave Ste 1374","El Centro","CA","92243","US","<MISSING>","(760) 370-9285","<MISSING>","32.792","-115.563051","Monday10:00 AM - 9:00 PMTuesday10:00 AM - 9:00 PMWednesday10:00 AM - 9:00 PMThursday10:00 AM - 9:00 PMFriday10:00 AM - 9:00 PMSaturday10:00 AM - 9:00 PMSunday11:00 AM - 6:00 PM"
"https://mastercuts.com","Lufkin Mall","4600 S Medford Dr Ste 1378","Lufkin","TX","75901","US","<MISSING>","(936) 639-6555","<MISSING>","31.312394","-94.724587","Monday10:00 AM - 9:00 PMTuesday10:00 AM - 9:00 PMWednesday10:00 AM - 9:00 PMThursday10:00 AM - 9:00 PMFriday10:00 AM - 9:00 PMSaturday10:00 AM - 9:00 PMSunday12:00 PM - 6:00 PM"
"https://mastercuts.com","Prien Lake Mall","496 W Prien Lake Rd Ste F05A","Lake Charles","LA","70601","US","<MISSING>","(337) 474-6667","<MISSING>","30.200455","-93.226481","Monday10:00 AM - 9:00 PMTuesday10:00 AM - 9:00 PMWednesday10:00 AM - 9:00 PMThursday10:00 AM - 9:00 PMFriday10:00 AM - 9:00 PMSaturday10:00 AM - 9:00 PMSunday12:00 PM - 6:00 PM"
"https://mastercuts.com","Medicine Hat Mall","3292 Dunmore Rd Se Suite 123D","Medicine Hat","AB","T1B 2R4","CA","<MISSING>","(403) 580-8228","<MISSING>","50.003965","-110.647239","Monday10:00 AM - 9:00 PMTuesday10:00 AM - 9:00 PMWednesday10:00 AM - 9:00 PMThursday10:00 AM - 9:00 PMFriday10:00 AM - 9:00 PMSaturday10:00 AM - 6:00 PMSunday12:00 PM - 5:00 PM"
"https://mastercuts.com","Sunridge Mall","2525 36Th St Ne Unit 271B","Calgary","AB","T1Y 5T4","CA","<MISSING>","(403) 285-4445","<MISSING>","51.074584","-113.986276","Monday10:00 AM - 8:00 PMTuesday10:00 AM - 8:00 PMWednesday10:00 AM - 8:00 PMThursday10:00 AM - 8:00 PMFriday10:00 AM - 8:00 PMSaturday10:00 AM - 8:00 PMSunday11:00 AM - 5:00 PM"
"https://mastercuts.com","South Plains Mall","6002 Slide Rd Ste 68204","Lubbock","TX","79414","US","<MISSING>","(806) 792-8788","<MISSING>","33.539293","-101.925359","Monday10:00 AM - 9:00 PMTuesday10:00 AM - 9:00 PMWednesday10:00 AM - 9:00 PMThursday10:00 AM - 9:00 PMFriday10:00 AM - 9:00 PMSaturday10:00 AM - 9:00 PMSunday11:00 AM - 6:00 PM"
"https://mastercuts.com","Galleria At Sunset","1300 W Sunset Rd Ste 2101","Henderson","NV","89014","US","<MISSING>","(702) 433-5444","<MISSING>","36.067206","-115.042443","Monday10:00 AM - 9:00 PMTuesday10:00 AM - 9:00 PMWednesday10:00 AM - 9:00 PMThursday10:00 AM - 9:00 PMFriday10:00 AM - 9:00 PMSaturday10:00 AM - 9:00 PMSunday11:00 AM - 6:00 PM"
"https://mastercuts.com","Westgate Mall","7701 Interstate 40 W Ste 108","Amarillo","TX","79121","US","<MISSING>","(806) 354-8500","<MISSING>","35.184263","-101.928003","Monday10:00 AM - 9:00 PMTuesday10:00 AM - 9:00 PMWednesday10:00 AM - 9:00 PMThursday10:00 AM - 9:00 PMFriday10:00 AM - 9:00 PMSaturday10:00 AM - 9:00 PMSunday12:00 PM - 6:00 PM"
"https://mastercuts.com","Animas Valley Mall","4601 E Main St Ste 980","Farmington","NM","87402","US","<MISSING>","(505) 324-8555","<MISSING>","36.762966","-108.150369","Monday10:00 AM - 9:00 PMTuesday10:00 AM - 9:00 PMWednesday10:00 AM - 9:00 PMThursday10:00 AM - 9:00 PMFriday10:00 AM - 9:00 PMSaturday10:00 AM - 9:00 PMSunday12:00 PM - 6:00 PM"
"https://mastercuts.com","Sierra Vista Mall","2200 El Mercado Loop Ste 1118","Sierra Vista","AZ","85635","US","<MISSING>","(520) 439-5555","<MISSING>","31.529129","-110.259794","Monday10:00 AM - 9:00 PMTuesday10:00 AM - 9:00 PMWednesday10:00 AM - 9:00 PMThursday10:00 AM - 9:00 PMFriday10:00 AM - 9:00 PMSaturday10:00 AM - 9:00 PMSunday12:00 PM - 6:00 PM"
"https://mastercuts.com","First Colony Mall","16535 Southwest Fwy Ste 815","Sugar Land","TX","77479","US","<MISSING>","(281) 491-2999","<MISSING>","29.591273","-95.625504","Monday10:00 AM - 9:00 PMTuesday10:00 AM - 9:00 PMWednesday10:00 AM - 9:00 PMThursday10:00 AM - 9:00 PMFriday10:00 AM - 9:00 PMSaturday10:00 AM - 9:00 PMSunday12:00 PM - 6:00 PM"
"https://mastercuts.com","Colorado Mills","14500 W Colfax Ave Ste 330","Lakewood","CO","80401","US","<MISSING>","(303) 278-6888","<MISSING>","39.731722","-105.158288","Monday10:00 AM - 9:00 PMTuesday10:00 AM - 9:00 PMWednesday10:00 AM - 9:00 PMThursday10:00 AM - 9:00 PMFriday10:00 AM - 9:00 PMSaturday10:00 AM - 9:00 PMSunday11:00 AM - 6:00 PM"
"https://mastercuts.com","Cielo Vista Mall","8401 Gateway Blvd W Ste M02A","El Paso","TX","79925","US","<MISSING>","(915) 772-7227","<MISSING>","31.775044","-106.37921","Monday10:00 AM - 9:00 PMTuesday10:00 AM - 9:00 PMWednesday10:00 AM - 9:00 PMThursday10:00 AM - 9:00 PMFriday10:00 AM - 9:00 PMSaturday10:00 AM - 9:00 PMSunday12:00 PM - 6:00 PM"
"https://mastercuts.com","Bassett Center","6101 Gateway Blvd W Ste D-3","El Paso","TX","79925","US","<MISSING>","(915) 771-8844","<MISSING>","31.78338","-106.412075","Monday10:00 AM - 9:00 PMTuesday10:00 AM - 9:00 PMWednesday10:00 AM - 9:00 PMThursday10:00 AM - 9:00 PMFriday10:00 AM - 9:00 PMSaturday10:00 AM - 9:00 PMSunday12:00 PM - 6:00 PM"
"https://mastercuts.com","Sikes Senter","3111 Midwestern Pkwy Ste 162","Wichita Falls","TX","76308","US","<MISSING>","(940) 692-1199","<MISSING>","33.86888","-98.532899","Monday10:00 AM - 9:00 PMTuesday10:00 AM - 9:00 PMWednesday10:00 AM - 9:00 PMThursday10:00 AM - 9:00 PMFriday10:00 AM - 9:00 PMSaturday10:00 AM - 9:00 PMSunday12:00 PM - 6:00 PM"
"https://mastercuts.com","The Woodlands Mall","1201 Lake Woodlands Dr # 1002","The Woodlands","TX","77380","US","<MISSING>","(281) 298-8400","<MISSING>","30.164228","-95.455377","Monday10:00 AM - 9:00 PMTuesday10:00 AM - 9:00 PMWednesday10:00 AM - 9:00 PMThursday10:00 AM - 9:00 PMFriday10:00 AM - 9:00 PMSaturday10:00 AM - 9:00 PMSunday12:00 PM - 6:00 PM"
"https://mastercuts.com","Edgewood Mall","1722 Smithdale Rd Unit 810","Mccomb","MS","39648","US","<MISSING>","(601) 249-3144","<MISSING>","31.262472","-90.476779","Monday9:00 AM - 7:00 PMTuesday9:00 AM - 7:00 PMWednesday9:00 AM - 7:00 PMThursday9:00 AM - 7:00 PMFriday9:00 AM - 7:00 PMSaturday9:00 AM - 7:00 PMSunday10:00 AM - 6:00 PM"
"https://mastercuts.com","Bayshore Mall","3300 Broadway Ste 420","Eureka","CA","95501","US","<MISSING>","(707) 443-1515","<MISSING>","40.778803","-124.190344","Monday10:00 AM - 8:00 PMTuesday10:00 AM - 8:00 PMWednesday10:00 AM - 8:00 PMThursday10:00 AM - 8:00 PMFriday10:00 AM - 9:00 PMSaturday10:00 AM - 8:00 PMSunday11:00 AM - 6:00 PM"
"https://mastercuts.com","West Covina Plaza","537 Plaza Dr","West Covina","CA","91790","US","<MISSING>","(626) 338-3389","<MISSING>","34.070683","-117.933048","Monday10:00 AM - 9:00 PMTuesday10:00 AM - 9:00 PMWednesday10:00 AM - 9:00 PMThursday10:00 AM - 9:00 PMFriday10:00 AM - 9:00 PMSaturday10:00 AM - 9:00 PMSunday11:00 AM - 7:00 PM"
"https://mastercuts.com","Santa Anita Fashion Place","400 S Baldwin Ave Ste 320","Arcadia","CA","91007","US","<MISSING>","(626) 574-0082","<MISSING>","34.134383","-118.051569","Monday10:00 AM - 9:00 PMTuesday10:00 AM - 9:00 PMWednesday10:00 AM - 9:00 PMThursday10:00 AM - 9:00 PMFriday10:00 AM - 9:00 PMSaturday10:00 AM - 9:00 PMSunday11:00 AM - 7:00 PM"
"https://mastercuts.com","Baybrook Mall","1050 Baybrook Mall","Friendswood","TX","77546","US","<MISSING>","(281) 486-0735","<MISSING>","29.541913","-95.148178","Monday10:00 AM - 9:00 PMTuesday10:00 AM - 9:00 PMWednesday10:00 AM - 9:00 PMThursday10:00 AM - 9:00 PMFriday10:00 AM - 9:00 PMSaturday10:00 AM - 9:00 PMSunday12:00 PM - 6:00 PM"
"https://mastercuts.com","Park Place","5870 E Broadway Blvd","Tucson","AZ","85711","US","<MISSING>","(520) 747-1718","<MISSING>","32.219748","-110.865453","Monday10:00 AM - 9:00 PMTuesday10:00 AM - 9:00 PMWednesday10:00 AM - 9:00 PMThursday10:00 AM - 9:00 PMFriday10:00 AM - 9:00 PMSaturday10:00 AM - 9:00 PMSunday11:00 AM - 6:00 PM"
"https://mastercuts.com","Mall Of America","368 E Broadway","Bloomington","MN","55425","US","<MISSING>","(952) 854-1414","<MISSING>","44.854865","-93.242215","Monday10:00 AM - 9:30 PMTuesday10:00 AM - 9:30 PMWednesday10:00 AM - 9:30 PMThursday10:00 AM - 9:30 PMFriday10:00 AM - 9:30 PMSaturday10:00 AM - 9:30 PMSunday11:00 AM - 7:00 PM"
"https://mastercuts.com","Cottonwood Mall","10000 Coors Byp Nw Ste E241","Albuquerque","NM","87114","US","<MISSING>","(505) 792-3300","<MISSING>","35.197153","-106.6563","Monday10:00 AM - 9:00 PMTuesday10:00 AM - 9:00 PMWednesday10:00 AM - 9:00 PMThursday10:00 AM - 9:00 PMFriday10:00 AM - 9:00 PMSaturday10:00 AM - 9:00 PMSunday11:00 AM - 6:00 PM"
"https://mastercuts.com","Panama City Mall","2214 Martin Luther King Jr Blv","Panama City","FL","32405","US","<MISSING>","(850) 763-0007","<MISSING>","30.187073","-85.647579","Monday10:00 AM - 9:00 PMTuesday10:00 AM - 9:00 PMWednesday10:00 AM - 9:00 PMThursday10:00 AM - 9:00 PMFriday10:00 AM - 9:00 PMSaturday10:00 AM - 9:00 PMSunday12:00 PM - 6:00 PM"
"https://mastercuts.com","Polaris Fashion Place","1500 Polaris Pkwy Ste 2136","Columbus","OH","43240","US","<MISSING>","(614) 781-5050","<MISSING>","40.145506","-82.981658","Monday10:00 AM - 9:00 PMTuesday10:00 AM - 9:00 PMWednesday10:00 AM - 9:00 PMThursday10:00 AM - 9:00 PMFriday10:00 AM - 9:30 PMSaturday10:00 AM - 9:30 PMSunday12:00 PM - 6:00 PM"
"https://mastercuts.com","Mount Shasta Mall","900 Dana Dr Ste B31","Redding","CA","96003","US","<MISSING>","(530) 222-3222","<MISSING>","40.589233","-122.355138","Monday10:00 AM - 9:00 PMTuesday10:00 AM - 9:00 PMWednesday10:00 AM - 9:00 PMThursday10:00 AM - 9:00 PMFriday10:00 AM - 9:00 PMSaturday10:00 AM - 9:00 PMSunday11:00 AM - 6:00 PM"
"https://mastercuts.com","Katy Mills","5000 Katy Mills Cir Ste 738","Katy","TX","77494","US","<MISSING>","(281) 644-6666","<MISSING>","29.775746","-95.80937","Monday10:00 AM - 9:00 PMTuesday10:00 AM - 9:00 PMWednesday10:00 AM - 9:00 PMThursday10:00 AM - 9:00 PMFriday10:00 AM - 9:00 PMSaturday10:00 AM - 9:00 PMSunday11:00 AM - 6:00 PM"
"https://mastercuts.com","Charlottetown Mall","670 University Mall","Charlottetown","PE","C1E 1H6","CA","<MISSING>","(902) 628-6667","<MISSING>","46.265823","-63.145018","Monday9:00 AM - 8:00 PMTuesday9:00 AM - 8:00 PMWednesday9:00 AM - 8:00 PMThursday9:00 AM - 8:00 PMFriday9:00 AM - 8:00 PMSaturday9:00 AM - 8:00 PMSunday12:00 PM - 5:00 PM"
"https://mastercuts.com","Oakridge Mall","925 Blossom Hill Rd Ste 1738","San Jose","CA","95123","US","<MISSING>","(408) 972-7979","<MISSING>","37.251269","-121.86186","Monday10:00 AM - 9:00 PMTuesday10:00 AM - 9:00 PMWednesday10:00 AM - 9:00 PMThursday10:00 AM - 9:00 PMFriday10:00 AM - 9:00 PMSaturday10:00 AM - 9:00 PMSunday11:00 AM - 7:00 PM"
"https://mastercuts.com","Moreno Valley Mall","22500 Towngate Cir Ste 1193","Moreno Valley","CA","92553","US","<MISSING>","(951) 656-1300","<MISSING>","33.939449","-117.271185","Monday10:00 AM - 9:00 PMTuesday10:00 AM - 9:00 PMWednesday10:00 AM - 9:00 PMThursday10:00 AM - 9:00 PMFriday10:00 AM - 9:00 PMSaturday10:00 AM - 9:00 PMSunday11:00 AM - 7:00 PM"
"https://mastercuts.com","Shawnee Mall","4901 N Kickapoo Ave Ste 1482","Shawnee","OK","74804","US","<MISSING>","(405) 273-0338","<MISSING>","35.384351","-96.919265","Monday10:00 AM - 9:00 PMTuesday10:00 AM - 9:00 PMWednesday10:00 AM - 9:00 PMThursday10:00 AM - 9:00 PMFriday10:00 AM - 9:00 PMSaturday10:00 AM - 9:00 PMSunday12:00 PM - 6:00 PM"
"https://mastercuts.com","Sooner Fashion Mall","3355 West Main Street","Norman","OK","73072","US","<MISSING>","(405) 360-9191","<MISSING>","35.222602","-97.486098","Monday10:00 AM - 9:00 PMTuesday10:00 AM - 9:00 PMWednesday10:00 AM - 9:00 PMThursday10:00 AM - 9:00 PMFriday10:00 AM - 9:00 PMSaturday10:00 AM - 9:00 PMSunday12:00 PM - 6:00 PM"
"https://mastercuts.com","Central Mall","87 Central Mall Ste 87","Lawton","OK","73501","US","<MISSING>","(580) 353-4343","<MISSING>","34.603238","-98.391698","Monday10:00 AM - 9:00 PMTuesday10:00 AM - 9:00 PMWednesday10:00 AM - 9:00 PMThursday10:00 AM - 9:00 PMFriday10:00 AM - 9:00 PMSaturday10:00 AM - 9:00 PMSunday12:00 PM - 6:00 PM"
"https://mastercuts.com","Central Mall","2259 S 9Th St Ste 165","Salina","KS","67401","US","<MISSING>","(785) 823-5353","<MISSING>","38.801351","-97.60977","Monday10:00 AM - 9:00 PMTuesday10:00 AM - 9:00 PMWednesday10:00 AM - 9:00 PMThursday10:00 AM - 9:00 PMFriday10:00 AM - 9:00 PMSaturday10:00 AM - 9:00 PMSunday12:00 PM - 6:00 PM"
"https://mastercuts.com","Galleria At Roseville","1151 Galleria Blvd Ste 223","Roseville","CA","95678","US","<MISSING>","(916) 771-2219","<MISSING>","38.768693","-121.265882","Monday10:00 AM - 9:00 PMTuesday10:00 AM - 9:00 PMWednesday10:00 AM - 9:00 PMThursday10:00 AM - 9:00 PMFriday10:00 AM - 9:00 PMSaturday10:00 AM - 9:00 PMSunday11:00 AM - 7:00 PM"
"https://mastercuts.com","Swansea Mall","262 Swansea Mall Dr Ste 307","Swansea","MA","02777","US","<MISSING>","(508) 678-2299","<MISSING>","41.751369","-71.215664","Monday10:00 AM - 8:00 PMTuesday10:00 AM - 8:00 PMWednesday10:00 AM - 8:00 PMThursday10:00 AM - 8:00 PMFriday10:00 AM - 8:00 PMSaturday10:00 AM - 8:00 PMSunday12:00 PM - 6:00 PM"
"https://mastercuts.com","Killeen Mall","2100 Sws Young Dr Ste 1504","Killeen","TX","76543","US","<MISSING>","(254) 690-2221","<MISSING>","31.092967","-97.717233","Monday10:00 AM - 9:00 PMTuesday10:00 AM - 9:00 PMWednesday10:00 AM - 9:00 PMThursday10:00 AM - 9:00 PMFriday10:00 AM - 9:00 PMSaturday10:00 AM - 9:00 PMSunday12:00 PM - 6:00 PM"
"https://mastercuts.com","Westland Mall","550 S Gear Ave Ste 57","West Burlington","IA","52655","US","<MISSING>","(319) 752-5555","<MISSING>","40.821085","-91.167371","Monday10:00 AM - 8:00 PMTuesday10:00 AM - 8:00 PMWednesday10:00 AM - 8:00 PMThursday10:00 AM - 8:00 PMFriday10:00 AM - 8:00 PMSaturday10:00 AM - 8:00 PMSunday12:00 PM - 5:00 PM"
"https://mastercuts.com","Tacoma Mall","4502 S Steele St Ste 917","Tacoma","WA","98409","US","<MISSING>","(253) 475-5557","<MISSING>","47.216092","-122.468741","Monday10:00 AM - 9:00 PMTuesday10:00 AM - 9:00 PMWednesday10:00 AM - 9:00 PMThursday10:00 AM - 9:00 PMFriday10:00 AM - 9:00 PMSaturday10:00 AM - 9:00 PMSunday11:00 AM - 6:00 PM"
"https://mastercuts.com","Northland Village Shoppes","5111 Northland Dr Nw Suite F3","Calgary","AB","T2L 2J7","CA","<MISSING>","(403) 247-4466","<MISSING>","51.098444","-114.143792","Monday9:30 AM - 7:00 PMTuesday9:30 AM - 7:00 PMWednesday9:30 AM - 7:00 PMThursday9:30 AM - 8:00 PMFriday9:30 AM - 8:00 PMSaturday9:30 AM - 6:00 PMSunday11:00 AM - 5:00 PM"
"https://mastercuts.com","Champlain Place","477 Rue Paul Suite B100-B1","Dieppe","NB","E1A 4X5","CA","<MISSING>","(506) 382-4441","<MISSING>","46.095978","-64.76072","Monday10:00 AM - 9:00 PMTuesday10:00 AM - 9:00 PMWednesday10:00 AM - 9:00 PMThursday10:00 AM - 9:00 PMFriday10:00 AM - 9:00 PMSaturday10:00 AM - 9:00 PMSunday12:00 PM - 5:00 PM"
