"locator_domain","location_name","street_address","city","state","zip","country_code","store_number","phone","location_type","latitude","longitude","hours_of_operation"
"https://www.homewatchcaregivers.com","homewatch caregivers of birmingham","300 Vestavia Pkwy #2300","birmingham","AL","35216","US","<MISSING>","(205) 639-0180","<MISSING>","33.4201521","-86.7963772","<MISSING>"
"https://www.homewatchcaregivers.com","homewatch caregivers of phoenix","11201 N. Tatum Blvd. Suite 315","phoenix","AZ","85028","US","<MISSING>","(602) 313-3991","<MISSING>","33.5873951","-111.9756306","<MISSING>"
"https://www.homewatchcaregivers.com","homewatch caregivers of tucson","1870 W Orange Grove Road","tucson","AZ","85704","US","<MISSING>","(520) 214-5929","<MISSING>","32.3236099","-111.0061289","<MISSING>"
"https://www.homewatchcaregivers.com","homewatch caregivers of green valley","75 W. Calle De Las Tiendas Suite 113B","green valley","AZ","85614","US","<MISSING>","(520) 254-0281","<MISSING>","31.898434","-110.9882457","<MISSING>"
"https://www.homewatchcaregivers.com","homewatch caregivers of laguna woods","8175 E. Kaiser Blvd. Suite 217","anaheim hills","CA","92808","US","<MISSING>","(714) 804-0910","<MISSING>","33.87","-117.74","<MISSING>"
"https://www.homewatchcaregivers.com","homewatch caregivers of san jose","4300 Stevens Creek Blvd Suite 187","san jose","CA","95129","US","<MISSING>","(408) 763-4800","<MISSING>","37.322679","-121.9783255","<MISSING>"
"https://www.homewatchcaregivers.com","homewatch caregivers of west los angeles","8929 S Sepulveda Blvd. Suite 314","los angeles","CA","90045","US","<MISSING>","(310) 620-1735","<MISSING>","33.9549428","-118.3965314","<MISSING>"
"https://www.homewatchcaregivers.com","homewatch caregivers of north san diego","5731 Palmer Way Suite F","carlsbad","CA","92010","US","<MISSING>","(760) 407-3349","<MISSING>","33.14","-117.27","<MISSING>"
"https://www.homewatchcaregivers.com","homewatch caregivers of yorba linda","17451 Bastanchury Road Suite 204","yorba linda","CA","92886","US","<MISSING>","(714) 576-2789","<MISSING>","33.8998175","-117.8306849","<MISSING>"
"https://www.homewatchcaregivers.com","homewatch caregivers of san fernando valley","6316 Topanga Blvd. Suite 2140","woodland hills","CA","91367","US","<MISSING>","(818) 650-3614","<MISSING>","34.1849766","-118.6046516","<MISSING>"
"https://www.homewatchcaregivers.com","homewatch caregivers of thousand oaks","3717 Thousand Oaks Blvd Suite 110","thousand oaks","CA","91362","US","<MISSING>","(805) 716-6656","<MISSING>","34.17","-118.83","<MISSING>"
"https://www.homewatchcaregivers.com","homewatch caregivers of santa rosa","3855 Montgomery Dr","santa rosa","CA","95405","US","<MISSING>","(707) 229-1364","<MISSING>","38.4523323","-122.6752024","<MISSING>"
"https://www.homewatchcaregivers.com","homewatch caregivers of huntington newport beach","20902 Brookhurst St Suite 204","huntington beach","CA","92646","US","<MISSING>","(714) 559-3778","<MISSING>","33.6587494","-117.9531826","<MISSING>"
"https://www.homewatchcaregivers.com","homewatch caregivers of san juan capistrano","30448 Rancho Viejo Rd  Ste 160","san juan capistrano","CA","92675","US","<MISSING>","(949) 647-4035","<MISSING>","33.5213874","-117.6642937","<MISSING>"
"https://www.homewatchcaregivers.com","homewatch caregivers of castro valley","21168 Redwood Road Suite 100","castro valley","CA","94546","US","<MISSING>","(510) 901-4404","<MISSING>","37.69","-122.07","<MISSING>"
"https://www.homewatchcaregivers.com","homewatch caregivers of walnut creek","1700 Ygnacio Valley Road Suite 200","walnut creek","CA","94598","US","<MISSING>","(925) 329-3146","<MISSING>","37.9165242","-122.041083","<MISSING>"
"https://www.homewatchcaregivers.com","homewatch caregivers of oakland","3820 Broadway","oakland","CA","94611","US","<MISSING>","(510) 953-5112","<MISSING>","37.8262364","-122.2571247","<MISSING>"
"https://www.homewatchcaregivers.com","homewatch caregivers of temecula","27570 Commerce Center Drive Suite 116","temecula","CA","92590","US","<MISSING>","(951) 382-5380","<MISSING>","33.5141412","-117.1613346","<MISSING>"
"https://www.homewatchcaregivers.com","homewatch caregivers of orange","1100 Town & Country Road Suite 1252","orange","CA","92868","US","<MISSING>","(657) 220-6128","<MISSING>","33.78","-117.86","<MISSING>"
"https://www.homewatchcaregivers.com","homewatch caregivers of la jolla","888 Prospect Street Suite 200","la jolla","CA","92037","US","<MISSING>","(858) 251-0937","<MISSING>","32.85","-117.28","<MISSING>"
"https://www.homewatchcaregivers.com","homewatch caregivers of tustin","202 Fashion Lane Suite 202","tustin","CA","92780","US","<MISSING>","(714) 677-8174","<MISSING>","33.7372177","-117.8135579","<MISSING>"
"https://www.homewatchcaregivers.com","homewatch caregivers of boulder","2945 Center Green Ct Suite D","boulder","CO","80301","US","<MISSING>","(303) 625-9365","<MISSING>","40.03","-105.25","<MISSING>"
"https://www.homewatchcaregivers.com","homewatch caregivers of northern colorado","1220 West Ash St. Suite C","windsor","CO","80550","US","<MISSING>","(970) 355-3372","<MISSING>","40.480861","-104.9212502","<MISSING>"
"https://www.homewatchcaregivers.com","homewatch caregivers of englewood","3333 S. Bannock St. Suite 740","englewood","CO","80110","US","<MISSING>","(720) 571-7396","<MISSING>","39.6558303","-104.9904103","<MISSING>"
"https://www.homewatchcaregivers.com","homewatch caregivers of arvada","5801 Balsam Place","arvada","CO","80004","US","<MISSING>","(720) 605-7108","<MISSING>","39.802193","-105.08905","<MISSING>"
"https://www.homewatchcaregivers.com","homewatch caregivers of west hartford","15 North Main Street Suite 100","west hartford","CT","06107","US","<MISSING>","(860) 300-3822","<MISSING>","41.76","-72.74","<MISSING>"
"https://www.homewatchcaregivers.com","homewatch caregivers of windsor","340 Broad Street Suite 202","windsor","CT","06095","US","<MISSING>","(860) 300-3384","<MISSING>","41.848912","-72.646113","<MISSING>"
"https://www.homewatchcaregivers.com","homewatch caregivers of norwalk","30 Oakwood Ave Lower Level","norwalk","CT","06850","US","<MISSING>","(203) 587-8442","<MISSING>","41.1173696","-73.459142","<MISSING>"
"https://www.homewatchcaregivers.com","homewatch caregivers of wilmington","5560 Kirkwood Highway","wilmington","DE","19808","US","<MISSING>","(302) 200-5523","<MISSING>","39.72","-75.67","<MISSING>"
"https://www.homewatchcaregivers.com","homewatch caregivers of sarasota","98 Sarasota Center Blvd Suite C","sarasota","FL","34240","US","<MISSING>","(941) 214-4172","<MISSING>","27.3419425","-82.4068327","<MISSING>"
"https://www.homewatchcaregivers.com","homewatch caregivers of jacksonville","8280 Princeton Square Blvd W Suite 5","jacksonville","FL","32256","US","<MISSING>","(904) 204-7078","<MISSING>","30.2189633","-81.5649128","<MISSING>"
"https://www.homewatchcaregivers.com","homewatch caregivers of lakewood ranch","8470 Enterprise Circle Suite 110-F","lakewood","FL","34202","US","<MISSING>","(941) 214-2349","<MISSING>","27.3885539","-82.4338499","<MISSING>"
"https://www.homewatchcaregivers.com","homewatch caregivers of northwest tampa","13907 N. Dale Mabry Hwy Suite 206","tampa","FL","33618","US","<MISSING>","(813) 285-4165","<MISSING>","28.0735721","-82.5061368","<MISSING>"
"https://www.homewatchcaregivers.com","homewatch caregivers of boca raton","8177 Glades Rd Suite 220","boca raton","FL","33434","US","<MISSING>","(561) 220-2377","<MISSING>","26.3692771","-80.1730769","<MISSING>"
"https://www.homewatchcaregivers.com","homewatch caregivers of southwest broward","2701 Executive Park Drive Suite 3","weston","FL","33331","US","<MISSING>","(954) 866-7051","<MISSING>","26.0848611","-80.3729549","<MISSING>"
"https://www.homewatchcaregivers.com","homewatch caregivers of east atlanta","457 Flat Shoals Ave SE Suite 1A","atlanta","GA","30316","US","<MISSING>","(404) 982-4189","<MISSING>","33.7415203","-84.3471802","<MISSING>"
"https://www.homewatchcaregivers.com","homewatch caregivers of kennesaw","3440 Blue Springs Rd Ste 103","kennesaw","GA","30144","US","<MISSING>","(678) 647-7390","<MISSING>","34.0235914","-84.5955732","<MISSING>"
"https://www.homewatchcaregivers.com","homewatch caregivers of cedar rapids","3037 Center Point Road NE Suite 200","cedar rapids","IA","52402-4074","US","<MISSING>","(319) 250-5563","<MISSING>","42.01","-91.66","<MISSING>"
"https://www.homewatchcaregivers.com","homewatch caregivers of boise","3023 East Copper Point Drive Suite 201","meridian","ID","83642","US","<MISSING>","(208) 273-9308","<MISSING>","43.58","-116.36","<MISSING>"
"https://www.homewatchcaregivers.com","homewatch caregivers of saint charles","303 E. Main St.","saint charles","IL","60174","US","<MISSING>","(630) 407-1379","<MISSING>","41.9139626","-88.3101491","<MISSING>"
"https://www.homewatchcaregivers.com","homewatch caregivers of hickory hills","8723 West 95th Street","hickory hills","IL","60457","US","<MISSING>","(708) 501-6795","<MISSING>","41.7170965","-87.8363779","<MISSING>"
"https://www.homewatchcaregivers.com","homewatch caregivers of highland park","1954 First Street Suite 216","highland park","IL","60035","US","<MISSING>","(847) 584-1993","<MISSING>","42.1873017","-87.8012694","<MISSING>"
"https://www.homewatchcaregivers.com","homewatch caregivers of northshore","900 Skokie Blvd Ste 126","northbrook","IL","60062","US","<MISSING>","(847) 603-2367","<MISSING>","42.1361602","-87.7920758","<MISSING>"
"https://www.homewatchcaregivers.com","homewatch caregivers of crystal lake","333 Commerce Drive Suite 275","crystal lake","IL","60014","US","<MISSING>","(815) 310-1369","<MISSING>","42.25","-88.33","<MISSING>"
"https://www.homewatchcaregivers.com","homewatch caregivers of naperville","300 East Fifth Ave. Suite 380C","naperville","IL","60563","US","<MISSING>","(331) 214-3272","<MISSING>","41.7803592","-88.1433979","<MISSING>"
"https://www.homewatchcaregivers.com","homewatch caregivers of oak brook","1415 W 22nd Suite 1025","oak brook","IL","60523","US","<MISSING>","(630) 394-5745","<MISSING>","41.85","-87.96","<MISSING>"
"https://www.homewatchcaregivers.com","homewatch caregivers of overland park","9270 Glenwood St. Suite A","overland park","KS","66212","US","<MISSING>","(913) 586-2712","<MISSING>","38.9610102","-94.6635231","<MISSING>"
"https://www.homewatchcaregivers.com","homewatch caregivers of louisville","13117 Eastpoint Park Blvd.
						Suite G","louisville","KY","40223","US","<MISSING>","(502) 306-0258","<MISSING>","38.279217","-85.5143472","<MISSING>"
"https://www.homewatchcaregivers.com","homewatch caregivers of framingham","945 Concord Street Suite 400","framingham","MA","01701","US","<MISSING>","(508) 436-2394","<MISSING>","42.3034297","-71.4042858","<MISSING>"
"https://www.homewatchcaregivers.com","homewatch caregivers of northampton","90 Conz Street","northampton","MA","01060","US","<MISSING>","(413) 344-2272","<MISSING>","42.3135027","-72.6265279","<MISSING>"
"https://www.homewatchcaregivers.com","homewatch caregivers of springfield, ma","425 Union Street","west springfield","MA","01089","US","<MISSING>","(413) 344-2204","<MISSING>","42.1013604","-72.6141467","<MISSING>"
"https://www.homewatchcaregivers.com","homewatch caregivers of weymouth","33 Union Street Suite 5","weymouth","MA","02190","US","<MISSING>","(781) 460-6758","<MISSING>","42.1736622","-70.9499896","<MISSING>"
"https://www.homewatchcaregivers.com","homewatch caregivers of malden","40 Eastern Avenue Suite 206","malden","MA","02148","US","<MISSING>","(781) 417-3891","<MISSING>","42.4238263","-71.0664094","<MISSING>"
"https://www.homewatchcaregivers.com","homewatch caregivers of baltimore","305 West Chesapeake Avenue Suite # 111","baltimore","MD","21204","US","<MISSING>","(410) 849-6276","<MISSING>","39.3996775","-76.6098444","<MISSING>"
"https://www.homewatchcaregivers.com","homewatch caregivers of annapolis","1997 Annapolis Exchange Parkway Suite 300","annapolis","MD","21401","US","<MISSING>","(410) 431-1897","<MISSING>","38.9877872","-76.5380839","<MISSING>"
"https://www.homewatchcaregivers.com","homewatch caregivers of ellicott city","3440 Ellicott Center Drive Suite 101","ellicott city","MD","21043","US","<MISSING>","(410) 941-3239","<MISSING>","39.28","-76.82","<MISSING>"
"https://www.homewatchcaregivers.com","homewatch caregivers of ann arbor","525 Avis Dr.
						Ste 3","ann arbor","MI","48108","US","<MISSING>","(734) 530-4217","<MISSING>","42.213388","-83.737146","<MISSING>"
"https://www.homewatchcaregivers.com","homewatch caregivers of grand rapids","1550 East Beltline Ave SE Suite 245","grand rapids","MI","49506","US","<MISSING>","(616) 920-0430","<MISSING>","42.9357273","-85.5843263","<MISSING>"
"https://www.homewatchcaregivers.com","homewatch caregivers of freeland","143 S. 1st St. Suite B","freeland","MI","48623","US","<MISSING>","(989) 264-0921","<MISSING>","43.5242857","-84.1207128","<MISSING>"
"https://www.homewatchcaregivers.com","homewatch caregivers of huron valley","42450 12 Mile Rd Suite 215","novi","MI","48377","US","<MISSING>","(248) 413-8425","<MISSING>","42.4964546","-83.468773","<MISSING>"
"https://www.homewatchcaregivers.com","homewatch caregivers of edina","7242 Metro Blvd. Suite 500","edina","MN","55439","US","<MISSING>","(952) 260-6223","<MISSING>","44.87","-93.35","<MISSING>"
"https://www.homewatchcaregivers.com","homewatch caregivers of st. louis","7915 Big Bend Blvd.","st. louis","MO","63119","US","<MISSING>","(314) 310-2708","<MISSING>","38.5948085","-90.3347229","<MISSING>"
"https://www.homewatchcaregivers.com","homewatch caregivers of st. charles","222 S. Second Street Suite 3","st. charles","MO","63301","US","<MISSING>","(636) 352-2639","<MISSING>","38.78","-90.48","<MISSING>"
"https://www.homewatchcaregivers.com","homewatch caregivers of charlotte","8301 University Executive Park Drive Suite 120","charlotte","NC","28262","US","<MISSING>","(704) 270-2515","<MISSING>","35.3","-80.76","<MISSING>"
"https://www.homewatchcaregivers.com","homewatch caregivers of cary","1210 SE Maynard Road Suite 202","cary","NC","27511","US","<MISSING>","(919) 214-5112","<MISSING>","35.79","-78.76","<MISSING>"
"https://www.homewatchcaregivers.com","homewatch caregivers of chapel hill","101 Cosgrove Ave. Suite 120","chapel hill","NC","27514","US","<MISSING>","(919) 289-3270","<MISSING>","35.9437922","-79.0164848","<MISSING>"
"https://www.homewatchcaregivers.com","homewatch caregivers of peterborough","70 Main Street","peterborough","NH","03458","US","<MISSING>","(603) 288-1482","<MISSING>","42.8773877","-71.9517579","<MISSING>"
"https://www.homewatchcaregivers.com","homewatch caregivers of haddon township","212 Haddon Avenue Suite 2","haddon township","NJ","08108","US","<MISSING>","(856) 347-8850","<MISSING>","39.9092033","-75.0478585","<MISSING>"
"https://www.homewatchcaregivers.com","homewatch caregivers of old bridge","400 Belchase Drive Suite 404","matawan","NJ","07747","US","<MISSING>","(732) 313-0516","<MISSING>","40.41","-74.28","<MISSING>"
"https://www.homewatchcaregivers.com","homewatch caregivers of bridgewater","991 US Highway 22 Suite 200","bridgewater","NJ","08807","US","<MISSING>","(908) 282-3875","<MISSING>","40.58","-74.6","<MISSING>"
"https://www.homewatchcaregivers.com","homewatch caregivers of south orange","75 South Orange Avenue Suite 203","south orange","NJ","07079","US","<MISSING>","(973) 755-0996","<MISSING>","40.7461208","-74.2579495","<MISSING>"
"https://www.homewatchcaregivers.com","homewatch caregivers of princeton","20 Nassau Street Suite 10","princeton","NJ","08542","US","<MISSING>","(609) 917-9221","<MISSING>","40.349048","-74.6627984","<MISSING>"
"https://www.homewatchcaregivers.com","homewatch caregivers of bergen","901 Teaneck Road Suite 2S","teaneck","NJ","07666","US","<MISSING>","(201) 212-6012","<MISSING>","40.8864123","-74.006027","<MISSING>"
"https://www.homewatchcaregivers.com","homewatch caregivers of ocean grove","2260 State Highway 33 Office 11","neptune city","NJ","07753","US","<MISSING>","(732) 945-8772","<MISSING>","40.2059993","-74.0500023","<MISSING>"
"https://www.homewatchcaregivers.com","homewatch caregivers of morris","1719 NJ-10 Suite 217","parsippany","NJ","07054","US","<MISSING>","(973) 833-4848","<MISSING>","40.8403908","-74.4601647","<MISSING>"
"https://www.homewatchcaregivers.com","homewatch caregivers of las vegas","7151 Cascade Valley Court Suite 101","las vegas","NV","89128","US","<MISSING>","(702) 710-4423","<MISSING>","36.2113048","-115.2479141","<MISSING>"
"https://www.homewatchcaregivers.com","homewatch caregivers of reno sw","955 S. Virginia St.
						Suite 219","reno","NV","89502","US","<MISSING>","(775) 238-4038","<MISSING>","39.5156575","-119.8083936","<MISSING>"
"https://www.homewatchcaregivers.com","homewatch caregivers of buffalo","5500 Main Street Suite 222","williamsville","NY","14221","US","<MISSING>","(716) 219-2953","<MISSING>","42.9632324","-78.7481816","<MISSING>"
"https://www.homewatchcaregivers.com","homewatch caregivers of nassau county","400 Post Ave. Suite 203","westbury","NY","11590","US","<MISSING>","(516) 217-8506","<MISSING>","40.76","-73.59","<MISSING>"
"https://www.homewatchcaregivers.com","homewatch caregivers of southern westchester","19 Court Street Suite 300","white plains","NY","10601","US","<MISSING>","(914) 229-9688","<MISSING>","41.0320206","-73.7673531","<MISSING>"
"https://www.homewatchcaregivers.com","homewatch caregivers of beachwood","23811 Chagrin Blvd. Ste 114","beachwood","OH","44122","US","<MISSING>","(216) 208-5015","<MISSING>","41.4651261","-81.510481","<MISSING>"
"https://www.homewatchcaregivers.com","homewatch caregivers of columbus","5001 Horizons Drive Suite 203","columbus","OH","43220","US","<MISSING>","(614) 698-1578","<MISSING>","40.06","-83.1","<MISSING>"
"https://www.homewatchcaregivers.com","homewatch caregivers of akron","150 Springside Drive Suite C340","akron","OH","44333","US","<MISSING>","(440) 472-1268","<MISSING>","41.14","-81.65","<MISSING>"
"https://www.homewatchcaregivers.com","homewatch caregivers of westlake","27352 Center Ridge Rd. Suite A","westlake","OH","44145","US","<MISSING>","(440) 305-5240","<MISSING>","41.44935","-81.9252091","<MISSING>"
"https://www.homewatchcaregivers.com","homewatch caregivers of mississauga","6553 Mississauga Road Suite C","mississauga","ON","L5N 1A6","CA","<MISSING>","(888) 636-5784","<MISSING>","43.5987545","-79.7384978","<MISSING>"
"https://www.homewatchcaregivers.com","homewatch caregivers of ottawa","220 Kennevale Drive Suite 302","nepean","ON","K2J 6B6","CA","<MISSING>","(613) 801-3025","<MISSING>","45.27","-75.78","<MISSING>"
"https://www.homewatchcaregivers.com","homewatch caregivers of richmond hill","30 Via Renzo Dr Suite 200","richmond hill","ON","L4S 0B8","CA","<MISSING>","(905) 614-2540","<MISSING>","43.891049","-79.3917809","<MISSING>"
"https://www.homewatchcaregivers.com","homewatch caregivers of portland","3880 SE 8th Avenue Suite 110","portland","OR","97202","US","<MISSING>","(503) 743-0439","<MISSING>","45.4944879","-122.6571545","<MISSING>"
"https://www.homewatchcaregivers.com","homewatch caregivers of central pa","351 Budfield Street","johnstown","PA","15904","US","<MISSING>","(814) 347-8404","<MISSING>","40.2713562","-78.8478638","<MISSING>"
"https://www.homewatchcaregivers.com","homewatch caregivers of kennett square","500 Orchard Place Suite 103","kennett square","PA","19348","US","<MISSING>","(610) 298-0523","<MISSING>","39.86","-75.68","<MISSING>"
"https://www.homewatchcaregivers.com","homewatch caregivers of north hills pittsburgh","3380 Babcock Blvd.","pittsburgh","PA","15237","US","<MISSING>","(412) 312-4755","<MISSING>","40.54","-80.02","<MISSING>"
"https://www.homewatchcaregivers.com","homewatch caregivers of williamsport","460 Market Street Suite 109","williamsport","PA","17701","US","<MISSING>","(570) 258-8704","<MISSING>","41.2435109","-77.0024868","<MISSING>"
"https://www.homewatchcaregivers.com","homewatch caregivers of ardmore","150 Allendale Rd. Suite 1115","king of prussia","PA","19406","US","<MISSING>","(484) 233-6173","<MISSING>","40.0901777","-75.3820695","<MISSING>"
"https://www.homewatchcaregivers.com","homewatch caregivers of lower bucks county","607 Corporate Drive W","langhorne","PA","19047","US","<MISSING>","(215) 608-1720","<MISSING>","40.2209475","-74.9087163","<MISSING>"
"https://www.homewatchcaregivers.com","homewatch caregivers of grand strand","4524 Highway 17 Bypass","murrells inlet","SC","29576","US","<MISSING>","(843) 376-6197","<MISSING>","33.5762542","-79.0289369","<MISSING>"
"https://www.homewatchcaregivers.com","homewatch caregivers of rock hill","2342 Ebenezer Road Suite A","rock hill","SC","29732","US","<MISSING>","(803) 592-3967","<MISSING>","34.9721094","-81.0550558","<MISSING>"
"https://www.homewatchcaregivers.com","homewatch caregivers of columbia","115 Atrium Way Suite 211","columbia","SC","29223","US","<MISSING>","(803) 560-5153","<MISSING>","34.09","-80.94","<MISSING>"
"https://www.homewatchcaregivers.com","homewatch caregivers of nashville","7105 Peach Court Suite 205","brentwood","TN","37027","US","<MISSING>","(615) 398-4431","<MISSING>","36.0266993","-86.7864558","<MISSING>"
"https://www.homewatchcaregivers.com","homewatch caregivers of knoxville","3110 Henson Road Suite 7","knoxville","TN","37921","US","<MISSING>","(865) 270-4281","<MISSING>","35.9587578","-84.0028008","<MISSING>"
"https://www.homewatchcaregivers.com","homewatch caregivers of el paso","8933 Ankerson St.","el paso","TX","79904","US","<MISSING>","(915) 206-2865","<MISSING>","31.8658201","-106.4371134","<MISSING>"
"https://www.homewatchcaregivers.com","homewatch caregivers of north dallas","5220 Spring Valley Road Suite 250","dallas","TX","75254","US","<MISSING>","(972) 891-8398","<MISSING>","32.9388578","-96.8198597","<MISSING>"
"https://www.homewatchcaregivers.com","homewatch caregivers of burleson","124 S. Main St. Suite 205","burleson","TX","76028","US","<MISSING>","(817) 406-3589","<MISSING>","32.54188","-97.321211","<MISSING>"
"https://www.homewatchcaregivers.com","homewatch caregivers of north san antonio","1802 NE Loop 410 Suite 515","san antonio","TX","78217","US","<MISSING>","(210) 361-5122","<MISSING>","29.5153041","-98.4353014","<MISSING>"
"https://www.homewatchcaregivers.com","homewatch caregivers of houston galleria","1800 Augusta Drive Suite 210","houston","TX","77057","US","<MISSING>","(713) 766-0908","<MISSING>","29.75","-95.48","<MISSING>"
"https://www.homewatchcaregivers.com","homewatch caregivers of georgetown","2406 Dawn Drive","georgetown","TX","78628","US","<MISSING>","(512) 379-6406","<MISSING>","30.66","-97.69","<MISSING>"
"https://www.homewatchcaregivers.com","homewatch caregivers of katy","25722 Kingsland Blvd
						Suite 114","katy","TX","77494","US","<MISSING>","(832) 952-1495","<MISSING>","29.74","-95.82","<MISSING>"
"https://www.homewatchcaregivers.com","homewatch caregivers of west spring","4606 FM 1960 Rd. West Suite 670","spring","TX","77069","US","<MISSING>","(281) 724-5680","<MISSING>","29.988263","-95.5011331","<MISSING>"
"https://www.homewatchcaregivers.com","homewatch caregivers of keller grapevine","2200 Pool Rd Suite 102","grapevine","TX","76051","US","<MISSING>","(817) 677-6731","<MISSING>","32.9133767","-97.1263896","<MISSING>"
"https://www.homewatchcaregivers.com","homewatch caregivers of austin lakeway","6101 W Courtyard Drive Suite 150","austin","TX","78730","US","<MISSING>","(512) 359-3372","<MISSING>","30.356018","-97.798087","<MISSING>"
"https://www.homewatchcaregivers.com","homewatch caregivers of northeast garland","675 Town Square Blvd. Suite 200, Bldg 1A","garland","TX","75040","US","<MISSING>","(972) 576-7952","<MISSING>","32.9543979","-96.6118174","<MISSING>"
"https://www.homewatchcaregivers.com","homewatch caregivers of layton","50 N Main Street","layton","UT","84041","US","<MISSING>","(801) 331-5463","<MISSING>","41.0608799","-111.9662687","<MISSING>"
"https://www.homewatchcaregivers.com","homewatch caregivers of orem","246 N Orem Blvd","orem","UT","84058","US","<MISSING>","(801) 663-7957","<MISSING>","40.3019665","-111.6991539","<MISSING>"
"https://www.homewatchcaregivers.com","homewatch caregivers of salt lake city","152 W. Burton Ave Suite H","salt lake city","UT","84115","US","<MISSING>","(801) 823-4564","<MISSING>","40.7197932","-111.8956568","<MISSING>"
"https://www.homewatchcaregivers.com","homewatch caregivers of west jordan","8539 S Redwood Road Suite C2","west jordan","UT","84088","US","<MISSING>","(801) 790-4365","<MISSING>","40.5961117","-111.9378568","<MISSING>"
"https://www.homewatchcaregivers.com","homewatch caregivers of sandy","11075 S State St Suite 14","sandy","UT","84070","US","<MISSING>","(801) 894-9509","<MISSING>","40.55","-111.89","<MISSING>"
"https://www.homewatchcaregivers.com","homewatch caregivers of logan","95 West 100 Soth Suite 320","logan","UT","84321","US","<MISSING>","(435) 222-3617","<MISSING>","41.73","-111.84","<MISSING>"
"https://www.homewatchcaregivers.com","homewatch caregivers of price","425 S 400 W","ferron","UT","84523","US","<MISSING>","(435) 294-3173","<MISSING>","39.0821985","-111.140813","<MISSING>"
"https://www.homewatchcaregivers.com","homewatch caregivers of richmond","4901 Fitzhugh Ave Suite 201","richmond","VA","23230","US","<MISSING>","(804) 294-3391","<MISSING>","37.5795337","-77.495739","<MISSING>"
"https://www.homewatchcaregivers.com","homewatch caregivers of fairfax","3919 Old Lee Highway 82A","fairfax","VA","22030","US","<MISSING>","(703) 750-8918","<MISSING>","38.85","-77.3","<MISSING>"
"https://www.homewatchcaregivers.com","homewatch caregivers of loudoun","2 Pidgeon Hill Drive Suite 430","sterling","VA","20165","US","<MISSING>","(703) 215-2230","<MISSING>","39.04","-77.41","<MISSING>"
"https://www.homewatchcaregivers.com","homewatch caregivers of western wa","6912 220th St SW Ste. #107","mountlake terrace","WA","98043","US","<MISSING>","(206) 483-1969","<MISSING>","47.7984676","-122.3262607","<MISSING>"
"https://www.homewatchcaregivers.com","homewatch caregivers of tacoma","2621 70th Avenue West Suite C","university place","WA","98466","US","<MISSING>","(253) 733-0126","<MISSING>","47.2358147","-122.5297923","<MISSING>"
