locator_domain,location_name,street_address,city,state,zip,country_code,store_number,phone,location_type,latitude,longitude,hours_of_operation,page_url
https://www.steward.org/,Fetal Diagnostic Center,1537 South Higley Road,Gilbert,AZ,85296,US,<MISSING>,(480) 257-2699,<MISSING>,33.3227024,-111.720465, Monday 8:00 AM - 5:00 PM Tuesday 8:00 AM - 5:00 PM Wednesday 8:00 AM - 5:00 PM Thursday 8:00 AM - 5:00 PM Friday 8:00 AM - 5:00 PM Saturday Closed Sunday Closed,https://locations.steward.org/az/gilbert/1537-south-higley-road-12220839.html
https://www.steward.org/,Desert Grove Family Medical,5656 South Power Road,Gilbert,AZ,85295,US,<MISSING>,(480) 834-7546,<MISSING>,33.313811,-111.687364, Monday 8:00 AM - 4:30 PM Tuesday 8:00 AM - 4:30 PM Wednesday 8:00 AM - 4:30 PM Thursday 8:00 AM - 4:30 PM Friday 7:30 AM - 3:30 PM Saturday Closed Sunday Closed,https://locations.steward.org/az/gilbert/5656-south-power-road.html
https://www.steward.org/,Steward Orthopedic & Sports Medicine Center,10238 E Hampton Avenue,Mesa,AZ,85208,US,<MISSING>,(602) 553-3113,<MISSING>,33.3910041,-111.6099141, Monday 8:00 AM - 5:00 PM Tuesday 8:00 AM - 5:00 PM Wednesday 8:00 AM - 5:00 PM Thursday 8:00 AM - 5:00 PM Friday 8:00 AM - 5:00 PM Saturday Closed Sunday Closed,https://locations.steward.org/az/mesa/10238-e-hampton-avenue-9095405.html
https://www.steward.org/,SMG Women's Health Associates,10238 E. Hampton Ave.,Mesa,AZ,85208,US,<MISSING>,(480) 632-2004,<MISSING>,33.39090802,-111.6099129, Monday 8:00 AM - 5:00 PM Tuesday 8:00 AM - 5:00 PM Wednesday 8:00 AM - 5:00 PM Thursday 8:00 AM - 5:00 PM Friday 8:00 AM - 5:00 PM Saturday Closed Sunday Closed,https://locations.steward.org/az/mesa/10238-e--hampton-ave.html
https://www.steward.org/,Desert Grove Family Medical,10238 East Hampton Avenue,Mesa,AZ,85209,US,<MISSING>,(480) 834-7546,<MISSING>,33.39097041,-111.6099386, Monday 8:00 AM - 4:30 PM Tuesday 8:00 AM - 4:30 PM Wednesday 8:00 AM - 4:30 PM Thursday 8:00 AM - 4:30 PM Friday 7:30 AM - 3:30 PM Saturday Closed Sunday Closed,https://locations.steward.org/az/mesa/10238-east-hampton-avenue.html
https://www.steward.org/,Desert Grove Family Medical,1855 North Stapley Drive,Mesa,AZ,85203,US,<MISSING>,(480) 834-7546,<MISSING>,33.4490279,-111.8046403, Monday 8:00 AM - 4:30 PM Tuesday 8:00 AM - 4:30 PM Wednesday 8:00 AM - 4:30 PM Thursday 8:00 AM - 4:30 PM Friday 7:30 AM - 3:30 PM Saturday Closed Sunday Closed,https://locations.steward.org/az/mesa/1855-north-stapley-drive.html
https://www.steward.org/,SMG Women's Health Associates,455 East 6th Street,Mesa,AZ,85203,US,<MISSING>,(480) 844-4702,<MISSING>,33.42569404,-111.8207271, Monday 8:00 AM - 5:00 PM Tuesday 8:00 AM - 5:00 PM Wednesday 8:00 AM - 5:00 PM Thursday 8:00 AM - 5:00 PM Friday 8:00 AM - 5:00 PM Saturday Closed Sunday Closed,https://locations.steward.org/az/mesa/455-east-6th-street.html
https://www.steward.org/,Steward Podiatry Specialists,2122 East Highland Avenue,Phoenix,AZ,85016,US,<MISSING>,(480) 505-0755,<MISSING>,33.5059502,-112.0356217, Monday 8:00 AM - 5:00 PM Tuesday 8:00 AM - 5:00 PM Wednesday 8:00 AM - 5:00 PM Thursday 8:00 AM - 5:00 PM Friday 8:00 AM - 5:00 PM Saturday Closed Sunday Closed,https://locations.steward.org/az/phoenix/2122-east-highland-avenue-12220848.html
https://www.steward.org/,Phoenix Heart Center,555 N. 18th St.,Phoenix,AZ,85006,US,<MISSING>,(602) 234-0004,<MISSING>,33.455098,-112.0432739, Monday 8:00 AM - 5:00 PM Tuesday 8:00 AM - 5:00 PM Wednesday 8:00 AM - 5:00 PM Thursday 8:00 AM - 5:00 PM Friday 8:00 AM - 5:00 PM Saturday Closed Sunday Closed,https://locations.steward.org/az/phoenix/555-n--18th-st.html
https://www.steward.org/,Steward Surgical Specialists,555 North 18th Street,Phoenix,AZ,85006,US,<MISSING>,(602) 251-8828,<MISSING>,33.45509043,-112.0433011, Monday 8:00 AM - 5:00 PM Tuesday 8:00 AM - 5:00 PM Wednesday 8:00 AM - 5:00 PM Thursday 8:00 AM - 5:00 PM Friday 8:00 AM - 5:00 PM Saturday Closed Sunday Closed,https://locations.steward.org/az/phoenix/555-north-18th-street.html
https://www.steward.org/,Steward Primary Care at St. Luke's Medical Center,556 North 18th Street,Phoenix,AZ,85006,US,<MISSING>,(602) 507-4457,<MISSING>,33.454551,-112.042529, Monday 8:00 AM - 5:00 PM Tuesday 8:00 AM - 5:00 PM Wednesday 8:00 AM - 5:00 PM Thursday 8:00 AM - 5:00 PM Friday 8:00 AM - 5:00 PM Saturday Closed Sunday Closed,https://locations.steward.org/az/phoenix/556-north-18th-street.html
https://www.steward.org/,Desert Grove Family Medical,1492 S. Mill Ave.,Tempe,AZ,85281,US,<MISSING>,(480) 834-7546,<MISSING>,33.4128053,-111.9419544, Monday 8:00 AM - 4:30 PM Tuesday 8:00 AM - 4:30 PM Wednesday 8:00 AM - 4:30 PM Thursday 8:00 AM - 4:30 PM Friday 7:30 AM - 3:30 PM Saturday Closed Sunday Closed,https://locations.steward.org/az/tempe/1492-s--mill-ave.html
https://www.steward.org/,SMG Women's Health Associates,1492 South Mill Avenue,Tempe,AZ,85281,US,<MISSING>,(480) 257-2777,<MISSING>,33.4127785,-111.941976, Monday 8:00 AM - 5:00 PM Tuesday 8:00 AM - 5:00 PM Wednesday 8:00 AM - 5:00 PM Thursday 8:00 AM - 5:00 PM Friday 8:00 AM - 5:00 PM Saturday Closed Sunday Closed,https://locations.steward.org/az/tempe/1492-south-mill-avenue-12220835.html
https://www.steward.org/,<MISSING>,302 Bill Clinton Drive,Hope,AR,71801,US,<MISSING>,(870) 777-4868,<MISSING>,33.64705375,-93.58445976, Monday 8:00 AM - 5:00 PM Tuesday 8:00 AM - 5:00 PM Wednesday 8:00 AM - 5:00 PM Thursday 8:00 AM - 5:00 PM Friday 8:00 AM - 1:00 PM Saturday Closed Sunday Closed,https://locations.steward.org/ar/hope/302-bill-clinton-drive.html
https://www.steward.org/,"Steward Primary Care, Cocoa",1317 West Point Drive,Cocoa,FL,32922,US,<MISSING>,(321) 636-2621,<MISSING>,28.37389256,-80.75046991, Monday 8:00 AM - 5:00 PM Tuesday 8:00 AM - 5:00 PM Wednesday 8:00 AM - 5:00 PM Thursday 8:00 AM - 5:00 PM Friday 8:00 AM - 12:00 PM Saturday Closed Sunday Closed,https://locations.steward.org/fl/cocoa/1317-west-point-drive.html
https://www.steward.org/,Brevard Cardiology Group - Cocoa,7227 N US Highway 1,Cocoa,FL,32927,US,<MISSING>,(321) 452-3811,<MISSING>,28.485215,-80.77328159, Monday Closed Tuesday 8:00 AM - 5:00 PM Wednesday Closed Thursday Closed Friday Closed Saturday Closed Sunday Closed,https://locations.steward.org/fl/cocoa/7227-n-us-highway-1.html
https://www.steward.org/,Urology Specialists of Brevard - Cocoa,7227 N US Hwy 1,Cocoa,FL,32927,US,<MISSING>,(321) 637-7655,<MISSING>,28.485227,-80.773283, Monday 8:00 AM - 5:00 PM Tuesday 8:00 AM - 5:00 PM Wednesday 8:00 AM - 5:00 PM Thursday 8:00 AM - 5:00 PM Friday 8:00 AM - 5:00 PM Saturday Closed Sunday Closed,https://locations.steward.org/fl/cocoa/7227-n-us-hwy-1--suite-220-8611816.html
https://www.steward.org/,Brevard Vascular Associates,7227 North US Highway 1,Cocoa,FL,32927,US,<MISSING>,(321) 255-8080,<MISSING>,28.48526405,-80.77327846, Monday Closed Tuesday Closed Wednesday Closed Thursday Closed Friday Closed Saturday Closed Sunday Closed,https://locations.steward.org/fl/cocoa/7227-north-us-highway-1.html
https://www.steward.org/,Brevard Vascular Associates,240 N. Wickham Road,Melbourne,FL,32935,US,<MISSING>,(321) 752-1540,<MISSING>,28.10865039,-80.67525019, Monday 8:00 AM - 5:00 PM Tuesday 8:00 AM - 5:00 PM Wednesday 8:00 AM - 5:00 PM Thursday 8:00 AM - 5:00 PM Friday 8:00 AM - 5:00 PM Saturday Closed Sunday Closed,https://locations.steward.org/fl/melbourne/240-n--wickham-road.html
https://www.steward.org/,Baytree Medical Associates,7970 N Wickham Road,Melbourne,FL,32940,US,<MISSING>,(321) 637-2908,<MISSING>,28.23112357,-80.70516898, Monday 8:00 AM - 5:00 PM Tuesday 8:00 AM - 5:00 PM Wednesday 8:00 AM - 5:00 PM Thursday 8:00 AM - 5:00 PM Friday 8:00 AM - 5:00 PM Saturday Closed Sunday Closed,https://locations.steward.org/fl/melbourne/7970-n-wickham-road.html
https://www.steward.org/,Partners In Women's Health,7970 N. Wickham Road,Melbourne,FL,32940,US,<MISSING>,(321) 459-1192,<MISSING>,28.2304576,-80.7056438, Monday 8:00 AM - 5:00 PM Tuesday Closed Wednesday 8:00 AM - 5:00 PM Thursday Closed Friday 8:00 AM - 5:00 PM Saturday Closed Sunday Closed,https://locations.steward.org/fl/melbourne/7970-n--wickham-road.html
https://www.steward.org/,Brevard Cardiology Group,8055 Spyglass Hill Road,Melbourne,FL,32940,US,<MISSING>,(321) 452-3811,<MISSING>,28.23742638,-80.70858887, Monday 8:00 AM - 5:00 PM Tuesday 8:00 AM - 5:00 PM Wednesday 8:00 AM - 5:00 PM Thursday 8:00 AM - 5:00 PM Friday 8:00 AM - 5:00 PM Saturday Closed Sunday Closed,https://locations.steward.org/fl/melbourne/8055-spyglass-hill-road-8611806.html
https://www.steward.org/,G.I. Associates Of Brevard,8075 Spyglass Hill Road,Melbourne,FL,32940,US,<MISSING>,(321) 255-8008,<MISSING>,28.23679538,-80.71061523, Monday 8:00 AM - 5:00 PM Tuesday 8:00 AM - 5:00 PM Wednesday 8:00 AM - 5:00 PM Thursday 8:00 AM - 5:00 PM Friday 8:00 AM - 5:00 PM Saturday Closed Sunday Closed,https://locations.steward.org/fl/melbourne/8075-spyglass-hill-road-8611811.html
https://www.steward.org/,Surgical Associates of Brevard -Melbourne,"8075 Spyglass Hill Road
#101",Melbourne,FL,32940,US,<MISSING>,(321) 637-2975,<MISSING>,28.23675428,-80.7106175, Monday Closed Tuesday Closed Wednesday Closed Thursday Closed Friday 9:00 AM - 2:00 PM Saturday Closed Sunday Closed,https://locations.steward.org/fl/melbourne/8075-spyglass-hill-road--101.html
https://www.steward.org/,Brevard Cardiology Group,150 N. Sykes Creek Parkway #300,Merritt Island,FL,32953,US,<MISSING>,(321) 452-3811,<MISSING>,28.35921537,-80.68333358, Monday 8:00 AM - 5:00 PM Tuesday 8:00 AM - 5:00 PM Wednesday 8:00 AM - 5:00 PM Thursday 8:00 AM - 5:00 PM Friday 8:00 AM - 5:00 PM Saturday Closed Sunday Closed,https://locations.steward.org/fl/merritt-island/150-n--sykes-creek-parkway.html
https://www.steward.org/,"Steward Family Medicine, Merritt Island",2404 N Courtenay Pkwy,Merritt Island,FL,32953,US,<MISSING>,(321) 453-3638,<MISSING>,28.39904369,-80.70417236, Monday 8:00 AM - 5:00 PM Tuesday 8:00 AM - 5:00 PM Wednesday 8:00 AM - 5:00 PM Thursday 8:00 AM - 5:00 PM Friday 8:00 AM - 5:00 PM Saturday Closed Sunday Closed,https://locations.steward.org/fl/merritt-island/2404-n-courtenay-pkwy-suite-d.html
https://www.steward.org/,Partners In Women's Health,255 Fortenberry Road,Merritt Island,FL,32952,US,<MISSING>,(321) 459-1192,<MISSING>,28.35374167,-80.69491535, Monday 8:30 AM - 5:00 PM Tuesday 8:30 AM - 5:00 PM Wednesday 8:30 AM - 5:00 PM Thursday 8:30 AM - 5:00 PM Friday 8:30 AM - 5:00 PM Saturday Closed Sunday Closed,https://locations.steward.org/fl/merritt-island/255-fortenberry-road.html
https://www.steward.org/,Brevard Pulmonary Specialists,"255 N Sykes Creek Pkwy
 #101",Merritt Island,FL,32953,US,<MISSING>,(321) 986-8887,<MISSING>,28.35993796,-80.68502213, Monday 8:00 AM - 5:00 PM Tuesday 8:00 AM - 5:00 PM Wednesday 8:00 AM - 5:00 PM Thursday 8:00 AM - 5:00 PM Friday 8:00 AM - 5:00 PM Saturday Closed Sunday Closed,https://locations.steward.org/fl/merritt-island/255-n-sykes-creek-pkwy---101.html
https://www.steward.org/,Brevard Pulmonary Specialists,103 Longwood Avenue,Rockledge,FL,32955,US,<MISSING>,(321) 631-5677,<MISSING>,28.33429408,-80.72233307, Monday 8:00 AM - 5:00 PM Tuesday 8:00 AM - 5:00 PM Wednesday 8:00 AM - 5:00 PM Thursday 8:00 AM - 5:00 PM Friday 8:00 AM - 5:00 PM Saturday Closed Sunday Closed,https://locations.steward.org/fl/rockledge/103-longwood-avenue.html
https://www.steward.org/,Internal Medicine - Rockledge,111 Longwood Ave,Rockledge,FL,32955,US,<MISSING>,(321) 637-2811,<MISSING>,28.33418724,-80.72315902, Monday 8:00 AM - 5:00 PM Tuesday 8:00 AM - 5:00 PM Wednesday 8:00 AM - 5:00 PM Thursday 8:00 AM - 5:00 PM Friday 8:00 AM - 5:00 PM Saturday Closed Sunday Closed,https://locations.steward.org/fl/rockledge/111-longwood-ave.html
https://www.steward.org/,"Guillermo Sanabria, MD & David Sims, MD Thoracic & Cardiovascular Surgery",1133 Seminole Dr,Rockledge,FL,32955,US,<MISSING>,(321) 433-3322,<MISSING>,28.33253345,-80.72217788, Monday Closed Tuesday 1:00 PM - 3:00 PM Wednesday Closed Thursday 1:00 PM - 3:00 PM Friday Closed Saturday Closed Sunday Closed,https://locations.steward.org/fl/rockledge/1133-seminole-dr.html
https://www.steward.org/,Partners In Women's Health,1133 Seminole Drive,Rockledge,FL,32955,US,<MISSING>,(321) 459-1192,<MISSING>,28.33257307,-80.72218805, Monday 8:00 AM - 5:00 PM Tuesday 8:00 AM - 5:00 PM Wednesday 8:00 AM - 5:00 PM Thursday 8:00 AM - 5:00 PM Friday 9:00 AM - 2:30 PM Saturday Closed Sunday Closed,https://locations.steward.org/fl/rockledge/1133-seminole-drive-8611813.html
https://www.steward.org/,Heart Rhythm Associates,119 Longwood Avenue,Rockledge,FL,32955,US,<MISSING>,(321) 632-6963,<MISSING>,28.33431355,-80.7239449, Monday 7:30 AM - 5:00 PM Tuesday 7:30 AM - 5:00 PM Wednesday 7:30 AM - 5:00 PM Thursday 7:30 AM - 5:00 PM Friday 7:30 AM - 5:00 PM Saturday Closed Sunday Closed,https://locations.steward.org/fl/rockledge/119-longwood-avenue.html
https://www.steward.org/,"T. Seth Tudor, Do",12920 US Hwy 1,Sebastian,FL,32958,US,<MISSING>,(772) 228-9808,<MISSING>,27.83093387,-80.4794506, Monday 8:30 AM - 5:00 PM Tuesday 8:30 AM - 5:00 PM Wednesday 8:30 AM - 5:00 PM Thursday 8:30 AM - 5:00 PM Friday 8:30 AM - 5:00 PM Saturday Closed Sunday Closed,https://locations.steward.org/fl/sebastian/12920-us-hwy-1-6192910.html
https://www.steward.org/,Coastal Joint & Sports Medicine Associates,13000 US Hwy 1,Sebastian,FL,32958,US,<MISSING>,(772) 581-5881,<MISSING>,27.83168776,-80.47992289, Monday 8:00 AM - 4:30 PM Tuesday 8:00 AM - 4:30 PM Wednesday 8:00 AM - 4:30 PM Thursday 8:00 AM - 4:30 PM Friday 8:00 AM - 4:30 PM Saturday Closed Sunday Closed,https://locations.steward.org/fl/sebastian/13000-us-hwy-1.html
https://www.steward.org/,North County Medical,13838 US Hwy 1,Sebastian,FL,32958,US,<MISSING>,(772) 581-6900,<MISSING>,27.84541822,-80.48763023, Monday 9:00 AM - 5:00 PM Tuesday 9:00 AM - 5:00 PM Wednesday 9:00 AM - 5:00 PM Thursday 9:00 AM - 5:00 PM Friday 9:00 AM - 5:00 PM Saturday Closed Sunday Closed,https://locations.steward.org/fl/sebastian/13838-us-hwy-1.html
https://www.steward.org/,Sebastian River Medical Group,13840 US Hwy 1,Sebastian,FL,32958,US,<MISSING>,(772) 581-0334,<MISSING>,27.84368727,-80.48877815,<MISSING>,https://locations.steward.org/fl/sebastian/13840-us-hwy-1.html
https://www.steward.org/,Coastal Gynecology,14430 US Hwy 1,Sebastian,FL,32958,US,<MISSING>,(772) 589-6400,<MISSING>,27.8491737,-80.48894812, Monday 8:00 AM - 5:00 PM Tuesday 8:00 AM - 5:00 PM Wednesday 8:00 AM - 5:00 PM Thursday 8:00 AM - 5:00 PM Friday 8:00 AM - 5:00 PM Saturday Closed Sunday Closed,https://locations.steward.org/fl/sebastian/14430-us-hwy-1-5683322.html
https://www.steward.org/,Coastal Cardiovascular Associates,7754 Bay Street,Sebastian,FL,32958,US,<MISSING>,(772) 589-3000,<MISSING>,27.8484501,-80.48706154, Monday 8:00 AM - 5:00 PM Tuesday 8:00 AM - 5:00 PM Wednesday 8:00 AM - 5:00 PM Thursday 8:00 AM - 5:00 PM Friday 8:00 AM - 5:00 PM Saturday Closed Sunday Closed,https://locations.steward.org/fl/sebastian/7754-bay-street.html
https://www.steward.org/,Treasure Coast Thoracic Surgery,816 US Highway 1,Sebastian,FL,32958,US,<MISSING>,(772) 581-5848,<MISSING>,27.81033267,-80.46662025, Monday 8:30 AM - 5:00 PM Tuesday 8:30 AM - 5:00 PM Wednesday 8:30 AM - 5:00 PM Thursday 8:30 AM - 5:00 PM Friday 8:30 AM - 5:00 PM Saturday Closed Sunday Closed,https://locations.steward.org/fl/sebastian/816-us-highway-1.html
https://www.steward.org/,Coastal Gynecology Vero,1300 36th Street,Vero Beach,FL,32960,US,<MISSING>,(772) 567-6412,<MISSING>,27.65903564,-80.39786654, Monday 8:15 AM - 5:00 PM Tuesday 8:15 AM - 5:00 PM Wednesday 8:15 AM - 5:00 PM Thursday 8:15 AM - 5:00 PM Friday 8:15 AM - 5:00 PM Saturday Closed Sunday Closed,https://locations.steward.org/fl/vero-beach/1300-36th-street.html
https://www.steward.org/,Ortho/Spine Vero,1715 37th Place,Vero Beach,FL,32960,US,<MISSING>,(772) 778-0600,<MISSING>,27.66057487,-80.40150745, Monday 8:30 AM - 5:00 PM Tuesday 8:30 AM - 5:00 PM Wednesday 8:30 AM - 5:00 PM Thursday 8:30 AM - 5:00 PM Friday 8:30 AM - 5:00 PM Saturday Closed Sunday Closed,https://locations.steward.org/fl/vero-beach/1715-37th-place.html
https://www.steward.org/,Indian River Walk In & Family Medicine,1880 37th Street,Vero Beach,FL,32960,US,<MISSING>,(772) 778-1400,<MISSING>,27.660744,-80.403727, Monday 8:00 AM - 5:00 PM Tuesday 8:00 AM - 5:00 PM Wednesday 8:00 AM - 5:00 PM Thursday 8:00 AM - 5:00 PM Friday 8:00 AM - 5:00 PM Saturday Closed Sunday Closed,https://locations.steward.org/fl/vero-beach/1880-37th-street.html
https://www.steward.org/,Vero Family Medicine,3745 11th Circle,Vero Beach,FL,32960,US,<MISSING>,(772) 564-2485,<MISSING>,27.6619688,-80.39425892, Monday 8:00 AM - 5:00 PM Tuesday 8:00 AM - 5:00 PM Wednesday 8:00 AM - 5:00 PM Thursday 8:00 AM - 5:00 PM Friday 8:00 AM - 5:00 PM Saturday Closed Sunday Closed,https://locations.steward.org/fl/vero-beach/3745-11th-circle-6192899.html
https://www.steward.org/,Family Doctors of NELA,1117 Cheniere Drew Road,West Monroe,LA,71291,US,<MISSING>,(318) 329-4370,<MISSING>,32.5455999,-92.2469324, Monday 8:00 AM - 5:00 PM Tuesday 8:00 AM - 5:00 PM Wednesday 8:00 AM - 5:00 PM Thursday 8:00 AM - 5:00 PM Friday 8:00 AM - 1:00 PM Saturday Closed Sunday Closed,https://locations.steward.org/la/west-monroe/1117-cheniere-drew-road.html
https://www.steward.org/,Family Medicine of NELA After Hours Clinic,1900 North 7th Street,West Monroe,LA,71291,US,<MISSING>,(318) 651-7000,<MISSING>,32.51266,-92.14659, Monday 8:00 AM - 6:30 PM Tuesday 8:00 AM - 6:30 PM Wednesday 8:00 AM - 6:30 PM Thursday 8:00 AM - 6:30 PM Friday 8:00 AM - 5:00 PM Saturday 9:00 AM - 3:00 PM Sunday 9:00 AM - 3:00 PM,https://locations.steward.org/la/west-monroe/1900-north-7th-street.html
https://www.steward.org/,SMG Ayer Surgical,190 Groton Road,Ayer,MA,1432,US,<MISSING>,(978) 772-6265,<MISSING>,42.577513,-71.575479, Monday 8:00 AM - 5:00 PM Tuesday 8:00 AM - 5:00 PM Wednesday 8:00 AM - 5:00 PM Thursday 8:00 AM - 5:00 PM Friday 8:00 AM - 5:00 PM Saturday Closed Sunday Closed,https://locations.steward.org/ma/ayer/190-groton-road-2406814.html
https://www.steward.org/,SMG Women's Health At Nashoba Valley,198 Groton Road,Ayer,MA,1432,US,<MISSING>,(978) 784-9831,<MISSING>,42.57595955,-71.5740022, Monday 8:30 AM - 5:00 PM Tuesday 8:00 AM - 5:30 PM Wednesday 8:00 AM - 5:30 PM Thursday 9:00 AM - 6:00 PM Friday 9:00 AM - 3:00 PM Saturday Closed Sunday Closed,https://locations.steward.org/ma/ayer/198-groton-road.html
https://www.steward.org/,Steward Nashoba Valley Medical Center,200 Groton Road,Ayer,MA,1432,US,<MISSING>,(978) 784-9534,<MISSING>,42.57742168,-71.5737777, Monday 8:00 AM - 4:30 PM Tuesday 8:00 AM - 4:30 PM Wednesday 8:00 AM - 4:30 PM Thursday 8:00 AM - 4:30 PM Friday 8:00 AM - 4:30 PM Saturday Closed Sunday Closed,https://locations.steward.org/ma/ayer/200-groton-road.html
https://www.steward.org/,SMG Brookline Women's Health,226 Harvard Avenue,Boston,MA,2134,US,<MISSING>,(617) 751-5520,<MISSING>,42.34935002,-71.12976245, Monday 8:00 AM - 5:00 PM Tuesday 8:00 AM - 5:00 PM Wednesday 8:00 AM - 5:00 PM Thursday 8:00 AM - 5:00 PM Friday 8:00 AM - 5:00 PM Saturday Closed Sunday Closed,https://locations.steward.org/ma/boston/226-harvard-avenue-2406838.html
https://www.steward.org/,SMG Gastroenterology at St. Elizabeth's Medical Center,11 Nevins St,Brighton,MA,2135,US,<MISSING>,(617) 562-5432,<MISSING>,42.3498491,-71.1469868, Monday 8:00 AM - 5:00 PM Tuesday 8:00 AM - 5:00 PM Wednesday 8:00 AM - 5:00 PM Thursday 8:00 AM - 5:00 PM Friday 8:00 AM - 5:00 PM Saturday Closed Sunday Closed,https://locations.steward.org/ma/brighton/11-nevins-st.html
https://www.steward.org/,SMG Brighton Internal Medicine,11 Nevins Street,Brighton,MA,2135,US,<MISSING>,(617) 782-5316,<MISSING>,42.34827942,-71.1481418, Monday 7:45 AM - 5:00 PM Tuesday 7:45 AM - 5:00 PM Wednesday 7:45 AM - 5:00 PM Thursday 7:45 AM - 5:00 PM Friday 7:45 AM - 5:00 PM Saturday Closed Sunday Closed,https://locations.steward.org/ma/brighton/11-nevins-street-2406790.html
https://www.steward.org/,SMG Brighton Primary Care,280 Washington Street,Brighton,MA,2135,US,<MISSING>,(617) 782-5700,<MISSING>,42.34813416,-71.15023447, Monday 8:30 AM - 5:00 PM Tuesday 8:30 AM - 5:00 PM Wednesday 8:30 AM - 5:00 PM Thursday 8:30 AM - 5:00 PM Friday 8:30 AM - 5:00 PM Saturday Closed Sunday Closed,https://locations.steward.org/ma/brighton/280-washington-street-2406847.html
https://www.steward.org/,SMG Women's Health at St. Elizabeth's Medical Center,736 Cambridge St SMC,Brighton,MA,2135,US,<MISSING>,(617) 562-7007,<MISSING>,42.34813062,-71.14787936, Monday 8:30 AM - 5:00 PM Tuesday 8:30 AM - 5:00 PM Wednesday 8:30 AM - 5:00 PM Thursday 8:30 AM - 5:00 PM Friday 8:30 AM - 5:00 PM Saturday Closed Sunday Closed,https://locations.steward.org/ma/brighton/736-cambridge-st-2406883.html
https://www.steward.org/,SMG Cardiology at St. Elizabeth's Medical Center,736 Cambridge St Seton,Brighton,MA,2135,US,<MISSING>,(617) 789-2000,<MISSING>,42.34894063,-71.14828579, Monday 8:00 AM - 5:00 PM Tuesday 8:00 AM - 5:00 PM Wednesday 8:00 AM - 5:00 PM Thursday 8:00 AM - 5:00 PM Friday 8:00 AM - 5:00 PM Saturday Closed Sunday Closed,https://locations.steward.org/ma/brighton/736-cambridge-st-2406886.html
https://www.steward.org/,Steward Medical Group,736 Cambridge St,Brighton,MA,2135,US,<MISSING>,(617) 789-2102,<MISSING>,42.3494717,-71.1481905, Monday 8:00 AM - 4:00 PM Tuesday 8:00 AM - 4:00 PM Wednesday 8:00 AM - 4:00 PM Thursday 8:00 AM - 4:00 PM Friday 8:00 AM - 4:00 PM Saturday Closed Sunday Closed,https://locations.steward.org/ma/brighton/736-cambridge-st-2406898.html
https://www.steward.org/,SMG Neurology at St. Elizabeth's Medical Center,736 Cambridge St.,Brighton,MA,2135,US,<MISSING>,(617) 789-2375,<MISSING>,42.34864491,-71.14832477, Monday 8:30 AM - 5:00 PM Tuesday 8:30 AM - 5:00 PM Wednesday 8:30 AM - 5:00 PM Thursday 8:30 AM - 5:00 PM Friday 8:30 AM - 5:00 PM Saturday Closed Sunday Closed,https://locations.steward.org/ma/brighton/736-cambridge-st-9483321.html
https://www.steward.org/,SMG Women's Health at St. Elizabeth's Medical Center,736 Cambridge Street,Brighton,MA,2135,US,<MISSING>,(617) 562-7007,<MISSING>,42.34887895,-71.14758247, Monday 8:30 AM - 5:00 PM Tuesday 8:30 AM - 5:00 PM Wednesday 8:30 AM - 5:00 PM Thursday 8:30 AM - 5:00 PM Friday 8:30 AM - 5:00 PM Saturday Closed Sunday Closed,https://locations.steward.org/ma/brighton/736-cambridge-street-2406884.html
https://www.steward.org/,SMG Vascular Surgery at St. Elizabeth's Medical Center,736 Cambridge Street Csemc-Ccp8,Brighton,MA,2135,US,<MISSING>,(617) 779-6504,<MISSING>,42.34884692,-71.14767286, Monday 8:00 AM - 4:30 PM Tuesday 8:00 AM - 4:30 PM Wednesday 8:00 AM - 4:30 PM Thursday 8:00 AM - 4:30 PM Friday 8:00 AM - 4:30 PM Saturday Closed Sunday Closed,https://locations.steward.org/ma/brighton/736-cambridge-street-2406885.html
https://www.steward.org/,SMG Addiction Medicine at St. Elizabeth's Medical Center,736 Cambridge Street Csemc-Ccp10,Brighton,MA,2135,US,<MISSING>,(617) 789-2574,<MISSING>,42.34907752,-71.14845228, Monday Open 24 hours Tuesday Open 24 hours Wednesday Open 24 hours Thursday Open 24 hours Friday Open 24 hours Saturday Open 24 hours Sunday Open 24 hours,https://locations.steward.org/ma/brighton/736-cambridge-street-2406889.html
https://www.steward.org/,SMG Maternal Fetal Medicine at St. Elizabeth's Medical Center,736 Cambridge Street Csemc-Smc7,Brighton,MA,2135,US,<MISSING>,(617) 562-7026,<MISSING>,42.34950535,-71.14833534, Monday 8:30 AM - 5:00 PM Tuesday 8:30 AM - 5:00 PM Wednesday 8:30 AM - 5:00 PM Thursday 8:30 AM - 5:00 PM Friday 8:30 AM - 5:00 PM Saturday Closed Sunday Closed,https://locations.steward.org/ma/brighton/736-cambridge-street-2406894.html
https://www.steward.org/,SMG Neurosurgery at St. Elizabeth's Medical Center,736 Cambridge Street Csmec - Ccp8,Brighton,MA,2135,US,<MISSING>,(617) 779-6083,<MISSING>,42.34898758,-71.14846366, Monday 8:30 AM - 4:30 PM Tuesday 8:30 AM - 4:30 PM Wednesday 8:30 AM - 4:30 PM Thursday 8:30 AM - 4:30 PM Friday 8:30 AM - 4:30 PM Saturday Closed Sunday Closed,https://locations.steward.org/ma/brighton/736-cambridge-street-2406895.html
https://www.steward.org/,SMG Otolaryngology At St. Elizabeth's Medical Center,736 Cambridge Street Smc 8,Brighton,MA,2135,US,<MISSING>,(617) 789-5004,<MISSING>,42.34874811,-71.14845335, Monday 8:30 AM - 5:00 PM Tuesday 8:30 AM - 5:00 PM Wednesday 8:30 AM - 5:00 PM Thursday 8:30 AM - 5:00 PM Friday 8:30 AM - 5:00 PM Saturday Closed Sunday Closed,https://locations.steward.org/ma/brighton/736-cambridge-street-2406897.html
https://www.steward.org/,"SMG Pulmonary, Critical Care and Sleep Medicine at St. Elizabeth's Medical Center",77 Warren Street,Brighton,MA,2135,US,<MISSING>,(617) 789-2545,<MISSING>,42.34895144,-71.14271369, Monday 8:30 AM - 5:00 PM Tuesday 8:30 AM - 5:00 PM Wednesday 8:30 AM - 5:00 PM Thursday 8:30 AM - 5:00 PM Friday 8:30 AM - 5:00 PM Saturday Closed Sunday Closed,https://locations.steward.org/ma/brighton/77-warren-street-2406900.html
https://www.steward.org/,Steward Center for Weight Control - Brockton,1 Pearl St,Brockton,MA,2301,US,<MISSING>,(508) 584-4104,<MISSING>,42.08888574,-71.06481135, Monday 8:30 AM - 5:00 PM Tuesday 8:30 AM - 5:00 PM Wednesday 8:30 AM - 5:00 PM Thursday 8:30 AM - 5:00 PM Friday 8:30 AM - 5:00 PM Saturday Closed Sunday Closed,https://locations.steward.org/ma/brockton/1-pearl-st.html
https://www.steward.org/,SMG Brockton Internal Medicine,1 Pearl Street,Brockton,MA,2301,US,<MISSING>,(508) 897-6070,<MISSING>,42.08890195,-71.06477118, Monday 8:00 AM - 5:00 PM Tuesday 8:00 AM - 5:00 PM Wednesday 8:00 AM - 5:00 PM Thursday 8:00 AM - 5:00 PM Friday 8:00 AM - 5:00 PM Saturday Closed Sunday Closed,https://locations.steward.org/ma/brockton/1-pearl-street-2406929.html
https://www.steward.org/,SMG Endocrinology - Brockton,830 Oak St,Brockton,MA,2301,US,<MISSING>,(508) 897-6390,<MISSING>,42.09877372,-71.06086642, Monday 8:00 AM - 5:00 PM Tuesday 8:00 AM - 5:00 PM Wednesday 8:00 AM - 5:00 PM Thursday 8:00 AM - 5:00 PM Friday Closed Saturday Closed Sunday Closed,https://locations.steward.org/ma/brockton/830-oak-st.html
https://www.steward.org/,SMG Brockton Cardiology,830 Oak Street,Brockton,MA,2301,US,<MISSING>,(508) 583-4440,<MISSING>,42.09875561,-71.06084708, Monday 8:00 AM - 4:30 PM Tuesday 8:00 AM - 4:30 PM Wednesday 8:00 AM - 4:30 PM Thursday 8:00 AM - 4:30 PM Friday 8:00 AM - 4:30 PM Saturday Closed Sunday Closed,https://locations.steward.org/ma/brockton/830-oak-street-2406912.html
https://www.steward.org/,SMG Women's Health Ob/Gyn,2100 Dorchester Ave,Dorchester,MA,2124,US,<MISSING>,(617) 506-4240,<MISSING>,42.27758791,-71.06535418, Monday 8:30 AM - 5:00 PM Tuesday 8:30 AM - 5:00 PM Wednesday 8:30 AM - 5:00 PM Thursday 8:30 AM - 5:00 PM Friday 8:30 AM - 5:00 PM Saturday Closed Sunday Closed,https://locations.steward.org/ma/dorchester/2100-dorchester-ave.html
https://www.steward.org/,SMG Psychiatry at Carney Hospital,2100 Dorchester Avenue,Dorchester,MA,2124,US,<MISSING>,(617) 296-4000,<MISSING>,42.27749135,-71.06558919, Monday 8:30 AM - 4:00 PM Tuesday 8:30 AM - 4:00 PM Wednesday 8:30 AM - 4:00 PM Thursday 8:30 AM - 4:00 PM Friday 8:30 AM - 4:00 PM Saturday Closed Sunday Closed,https://locations.steward.org/ma/dorchester/2100-dorchester-avenue-2406827.html
https://www.steward.org/,SMG Family Medicine At Carney Hospital,2110 Dorchester Ave,Dorchester,MA,2124,US,<MISSING>,(617) 506-4970,<MISSING>,42.27794156,-71.06466412, Monday 8:00 AM - 7:00 PM Tuesday 7:00 AM - 5:00 PM Wednesday 8:00 AM - 5:00 PM Thursday 8:00 AM - 7:00 PM Friday 8:00 AM - 5:00 PM Saturday Closed Sunday Closed,https://locations.steward.org/ma/dorchester/2110-dorchester-ave.html
https://www.steward.org/,SMG Saint Anne's Orthopedics,277 Pleasant Street Building 1,Fall River,MA,2721,US,<MISSING>,(508) 646-7645,<MISSING>,41.6993594,-71.1502707, Monday 9:00 AM - 5:00 PM Tuesday 9:00 AM - 5:00 PM Wednesday 9:00 AM - 5:00 PM Thursday 9:00 AM - 5:00 PM Friday 9:00 AM - 5:00 PM Saturday Closed Sunday Closed,https://locations.steward.org/ma/fall-river/277-pleasant-street.html
https://www.steward.org/,Steward Surgical Specialists,289 Pleasant Street Building 4,Fall River,MA,2721,US,<MISSING>,(508) 567-0463,<MISSING>,41.6993184,-71.1504191, Monday 9:00 AM - 5:00 PM Tuesday 9:00 AM - 5:00 PM Wednesday 9:00 AM - 5:00 PM Thursday 9:00 AM - 5:00 PM Friday 9:00 AM - 5:00 PM Saturday Closed Sunday Closed,https://locations.steward.org/ma/fall-river/289-pleasant-street.html
https://www.steward.org/,SMG New Boston Village Primary Care,295 New Boston Road,Fall River,MA,2720,US,<MISSING>,(508) 674-9300,<MISSING>,41.71017402,-71.14039736,<MISSING>,https://locations.steward.org/ma/fall-river/295-new-boston-road.html
https://www.steward.org/,SMG Physiatry,851 Middle St,Fall River,MA,2721,US,<MISSING>,(508) 689-3214,<MISSING>,41.69223852,-71.16253495, Monday 8:00 AM - 4:30 AM Tuesday 8:00 AM - 4:30 AM Wednesday 7:00 AM - 3:30 PM Thursday 7:00 AM - 3:30 PM Friday 8:00 AM - 4:30 AM Saturday Closed Sunday Closed,https://locations.steward.org/ma/fall-river/851-middle-st-2406919.html
https://www.steward.org/,SMG Breast Care,851 Middle St.,Fall River,MA,2721,US,<MISSING>,(508) 235-5766,<MISSING>,41.692221,-71.1625828, Monday 8:00 AM - 4:30 PM Tuesday 8:00 AM - 4:30 PM Wednesday 8:00 AM - 4:30 PM Thursday 8:00 AM - 4:30 PM Friday 7:30 AM - 4:00 PM Saturday Closed Sunday Closed,https://locations.steward.org/ma/fall-river/851-middle-st-9917002.html
https://www.steward.org/,SMG Andrade Medical Associates,851 Middle Street,Fall River,MA,2721,US,<MISSING>,(508) 235-5400,<MISSING>,41.69223852,-71.16248667,<MISSING>,https://locations.steward.org/ma/fall-river/851-middle-street-2406920.html
https://www.steward.org/,Steward Center for Weight Control - Fall River,851 Middle Street Medical Office Building,Fall River,MA,2721,US,<MISSING>,(508) 672-0483,<MISSING>,41.692259,-71.162514, Monday 8:30 AM - 5:00 PM Tuesday 8:30 AM - 5:00 PM Wednesday 8:30 AM - 5:00 PM Thursday 8:30 AM - 5:00 PM Friday 8:30 AM - 5:00 PM Saturday Closed Sunday Closed,https://locations.steward.org/ma/fall-river/851-middle-street-8266136.html
https://www.steward.org/,SMG Chestnut Green Family Medicine,15 Payson Road,Foxboro,MA,2035,US,<MISSING>,(508) 772-1438,<MISSING>,42.07652881,-71.25645642, Monday 8:00 AM - 4:30 PM Tuesday 8:00 AM - 4:30 PM Wednesday 8:00 AM - 4:30 PM Thursday 8:00 AM - 4:30 PM Friday 8:00 AM - 4:30 PM Saturday Closed Sunday Closed,https://locations.steward.org/ma/foxboro/15-payson-road-2406808.html
https://www.steward.org/,Norwood Hospital Cancer Center at Foxboro,70 Walnut St,Foxboro,MA,2035,US,<MISSING>,(508) 698-3266,<MISSING>,42.051412,-71.239396, Monday 8:30 AM - 5:00 PM Tuesday 8:30 AM - 5:00 PM Wednesday 8:30 AM - 5:00 PM Thursday 8:30 AM - 5:00 PM Friday 8:30 AM - 5:00 PM Saturday Closed Sunday Closed,https://locations.steward.org/ma/foxboro/70-walnut-st.html
https://www.steward.org/,SMG Foxboro Family and Internal Medicine,70 Walnut Street,Foxboro,MA,2035,US,<MISSING>,(508) 543-6371,<MISSING>,42.05156121,-71.23989266, Monday 8:00 AM - 6:30 PM Tuesday 8:00 AM - 5:00 PM Wednesday 8:00 AM - 5:00 PM Thursday 8:00 AM - 7:30 PM Friday 8:00 AM - 5:00 PM Saturday Closed Sunday Closed,https://locations.steward.org/ma/foxboro/70-walnut-street.html
https://www.steward.org/,SMG Groton Internal Medicine,497 Main Street,Groton,MA,1450,US,<MISSING>,(978) 449-0471,<MISSING>,42.62067312,-71.58679605, Monday 8:00 AM - 5:00 PM Tuesday 7:00 AM - 5:00 PM Wednesday 8:00 AM - 5:00 PM Thursday 8:00 AM - 5:00 PM Friday 8:00 AM - 5:00 PM Saturday Closed Sunday Closed,https://locations.steward.org/ma/groton/497-main-street.html
https://www.steward.org/,SMG Nashoba Family Medicine,788 Boston Rd,Groton,MA,1450,US,<MISSING>,(978) 449-0282,<MISSING>,42.5781107,-71.5209539, Monday 7:30 AM - 5:00 PM Tuesday 7:30 AM - 5:00 PM Wednesday 7:30 AM - 5:00 PM Thursday 7:30 AM - 5:00 PM Friday 7:30 AM - 5:00 PM Saturday Closed Sunday Closed,https://locations.steward.org/ma/groton/788-boston-rd.html
https://www.steward.org/,Nashoba Sports & Physical Therapy,788 Boston Road,Groton,MA,1450,US,<MISSING>,(978) 784-9910,<MISSING>,42.57807484,-71.52078004, Monday 6:00 AM - 7:00 PM Tuesday 6:00 AM - 7:00 PM Wednesday 6:00 AM - 7:00 PM Thursday 6:00 AM - 7:00 PM Friday 9:00 AM - 3:30 PM Saturday Closed Sunday Closed,https://locations.steward.org/ma/groton/788-boston-road.html
https://www.steward.org/,SMG Wound Care at Merrimack Valley,140 Lincoln Avenue,Haverhill,MA,1830,US,<MISSING>,(978) 420-1405,<MISSING>,42.76525286,-71.04531437, Monday 8:00 AM - 4:00 PM Tuesday 8:00 AM - 4:00 PM Wednesday 8:00 AM - 4:00 PM Thursday 8:00 AM - 4:00 PM Friday 8:00 AM - 4:00 PM Saturday Closed Sunday Closed,https://locations.steward.org/ma/haverhill/140-lincoln-avenue.html
https://www.steward.org/,SMG Primary Care and Women's Health of Haverhill,62 Brown St,Haverhill,MA,1830,US,<MISSING>,(978) 478-5058,<MISSING>,42.76524499,-71.0453546, Monday 8:00 AM - 5:00 PM Tuesday 8:00 AM - 5:00 PM Wednesday 8:00 AM - 5:00 PM Thursday 8:00 AM - 5:00 PM Friday 8:00 AM - 5:00 PM Saturday Closed Sunday Closed,https://locations.steward.org/ma/haverhill/62-brown-st.html
https://www.steward.org/,SMG Merrimack Valley Gastroenterology,62 Brown Street,Haverhill,MA,1830,US,<MISSING>,(978) 521-3681,<MISSING>,42.76524892,-71.04497105, Monday 8:00 AM - 4:30 PM Tuesday 8:00 AM - 4:30 PM Wednesday 8:00 AM - 4:30 PM Thursday 8:00 AM - 4:30 PM Friday 8:00 AM - 4:30 PM Saturday Closed Sunday Closed,https://locations.steward.org/ma/haverhill/62-brown-street-2406865.html
https://www.steward.org/,SMG Women's Health Lawrence,101 Amesbury Street,Lawrence,MA,1840,US,<MISSING>,(978) 683-0324,<MISSING>,42.7087739,-71.16363399, Monday 9:00 AM - 5:00 PM Tuesday 9:00 AM - 5:00 PM Wednesday 9:00 AM - 5:00 PM Thursday 9:00 AM - 5:00 PM Friday 9:00 AM - 5:00 PM Saturday Closed Sunday Closed,https://locations.steward.org/ma/lawrence/101-amesbury-street.html
https://www.steward.org/,SMG New England Cardiology of Lawrence,25 Marston Street,Lawrence,MA,1841,US,<MISSING>,(978) 989-9811,<MISSING>,42.7067689,-71.1458177, Monday 9:00 AM - 5:00 PM Tuesday 9:00 AM - 5:00 PM Wednesday 9:00 AM - 5:00 PM Thursday 9:00 AM - 5:00 PM Friday 9:00 AM - 5:00 PM Saturday Closed Sunday Closed,https://locations.steward.org/ma/lawrence/25-marston-street-2406845.html
https://www.steward.org/,SMG Branch Internal Medicine,1 Branch Street,Methuen,MA,1844,US,<MISSING>,(978) 683-9177,<MISSING>,42.705413,-71.214574, Monday 7:00 AM - 5:00 PM Tuesday 7:00 AM - 5:00 PM Wednesday 7:00 AM - 5:00 PM Thursday 7:00 AM - 5:00 PM Friday 7:00 AM - 5:00 PM Saturday Closed Sunday Closed,https://locations.steward.org/ma/methuen/1-branch-street.html
https://www.steward.org/,SMG Methuen Pediatrics,380 R Merrimack Street,Methuen,MA,1844,US,<MISSING>,(978) 687-6355,<MISSING>,42.74736869,-71.1291562, Monday 7:00 AM - 5:00 PM Tuesday 7:00 AM - 5:00 PM Wednesday 7:00 AM - 5:00 PM Thursday 7:00 AM - 5:00 PM Friday 7:00 AM - 5:00 PM Saturday Closed Sunday Closed,https://locations.steward.org/ma/methuen/380-r-merrimack-street.html
https://www.steward.org/,Steward Primary Care of Methuen,60 East Street,Methuen,MA,1844,US,<MISSING>,(978) 683-9177,<MISSING>,42.7267034,-71.1663547, Monday 7:00 AM - 5:00 PM Tuesday 7:00 AM - 5:00 PM Wednesday 7:00 AM - 5:00 PM Thursday 7:00 AM - 5:00 PM Friday 7:00 AM - 5:00 PM Saturday Closed Sunday Closed,https://locations.steward.org/ma/methuen/60-east-street-2406851.html
https://www.steward.org/,Steward Centers For Weight Control At Holy Family Hospital,70 East Street,Methuen,MA,1844,US,<MISSING>,(978) 687-0156,<MISSING>,42.72754136,-71.16804805, Monday 8:30 AM - 5:00 PM Tuesday 8:30 AM - 5:00 PM Wednesday 8:30 AM - 5:00 PM Thursday 8:30 AM - 5:00 PM Friday 8:30 AM - 5:00 PM Saturday Closed Sunday Closed,https://locations.steward.org/ma/methuen/70-east-street.html
https://www.steward.org/,SMG Middleboro Family Practice,511 West Grove Street #104,Middleboro,MA,2346,US,<MISSING>,(508) 923-1913,<MISSING>,41.90031991,-70.95361143, Monday 8:30 AM - 5:00 PM Tuesday 8:30 AM - 5:00 PM Wednesday 8:30 AM - 5:00 PM Thursday 8:30 AM - 5:00 PM Friday 8:30 AM - 5:00 PM Saturday Closed Sunday Closed,https://locations.steward.org/ma/middleboro/511-west-grove-street-2406858.html
https://www.steward.org/,SMG Middleboro Internal Medicine,511 West Grove Street,Middleboro,MA,2346,US,<MISSING>,(508) 923-6471,<MISSING>,41.900333,-70.95360567, Monday 8:30 AM - 5:00 PM Tuesday 8:30 AM - 5:00 PM Wednesday 8:30 AM - 5:00 PM Thursday 8:30 AM - 5:00 PM Friday 8:30 AM - 5:00 PM Saturday Closed Sunday Closed,https://locations.steward.org/ma/middleboro/511-west-grove-street-2406859.html
https://www.steward.org/,SMG Middleboro Multispecialty Group,8 Commerce Boulevard,Middleboro,MA,2346,US,<MISSING>,(774) 213-0380,<MISSING>,41.90606803,-70.95924901, Monday 8:30 AM - 5:00 PM Tuesday 8:30 AM - 5:00 PM Wednesday 8:30 AM - 5:00 PM Thursday 8:30 AM - 5:00 PM Friday 8:30 AM - 5:00 PM Saturday Closed Sunday Closed,https://locations.steward.org/ma/middleboro/8-commerce-boulevard.html
https://www.steward.org/,SMG Norwood Orthopedic Associates,1345 Boston Providence Highway,Norwood,MA,2062,US,<MISSING>,(781) 769-4660,<MISSING>,42.167484,-71.198663, Monday 8:00 AM - 5:00 PM Tuesday 8:00 AM - 5:00 PM Wednesday 8:00 AM - 5:00 PM Thursday 8:00 AM - 5:00 PM Friday 8:00 AM - 5:00 PM Saturday Closed Sunday Closed,https://locations.steward.org/ma/norwood/1345-boston-providence-highway.html
https://www.steward.org/,SMG Cardiology Associates,825 Washington St #290,Norwood,MA,2062,US,<MISSING>,(781) 255-0561,<MISSING>,42.18868954,-71.2039724, Monday 9:00 AM - 4:00 PM Tuesday 9:00 AM - 4:00 PM Wednesday 9:00 AM - 4:00 PM Thursday 9:00 AM - 4:00 PM Friday 9:00 AM - 4:00 PM Saturday Closed Sunday Closed,https://locations.steward.org/ma/norwood/825-washington-st.html
https://www.steward.org/,SMG Pulmonary & Sleep Medicine At Norwood Hospital,825 Washington Street,Norwood,MA,2062,US,<MISSING>,(781) 762-1186,<MISSING>,42.18866768,-71.20384097, Monday 8:30 AM - 4:30 PM Tuesday 8:30 AM - 4:30 PM Wednesday 8:30 AM - 4:30 PM Thursday 8:30 AM - 4:30 PM Friday 8:30 AM - 4:30 PM Saturday Closed Sunday Closed,https://locations.steward.org/ma/norwood/825-washington-street-2406910.html
https://www.steward.org/,SMG Urology,886 Washington St #4,Norwood,MA,2062,US,<MISSING>,(781) 762-5542,<MISSING>,42.18610792,-71.2018159, Monday 8:30 AM - 5:00 PM Tuesday 8:30 AM - 5:00 PM Wednesday 8:30 AM - 5:00 PM Thursday 8:30 AM - 5:00 PM Friday 8:30 AM - 5:00 PM Saturday Closed Sunday Closed,https://locations.steward.org/ma/norwood/886-washington-st-2406924.html
https://www.steward.org/,SMG Gastroenterology,886 Washington St #3,Norwood,MA,2062,US,<MISSING>,(781) 762-1531,<MISSING>,42.186096,-71.20178103, Monday 8:30 AM - 5:00 PM Tuesday 8:30 AM - 5:00 PM Wednesday 8:30 AM - 5:00 PM Thursday 8:30 AM - 5:00 PM Friday 8:30 AM - 5:00 PM Saturday Closed Sunday Closed,https://locations.steward.org/ma/norwood/886-washington-st-2406926.html
https://www.steward.org/,SMG Women's Health At Norwood Hospital,886 Washington Street,Norwood,MA,2062,US,<MISSING>,(781) 762-5542,<MISSING>,42.18608699,-71.20171006, Monday 9:00 AM - 5:00 PM Tuesday 9:00 AM - 5:00 PM Wednesday 9:00 AM - 5:00 PM Thursday 9:00 AM - 5:00 PM Friday 9:00 AM - 5:00 PM Saturday Closed Sunday Closed,https://locations.steward.org/ma/norwood/886-washington-street-2406925.html
https://www.steward.org/,SMG Norwood Primary Care,900 Washington Street,Norwood,MA,2062,US,<MISSING>,(781) 349-8375,<MISSING>,42.1859238,-71.2025485, Monday 9:00 AM - 5:00 PM Tuesday 9:00 AM - 5:00 PM Wednesday 9:00 AM - 5:00 PM Thursday 9:00 AM - 5:00 PM Friday 9:00 AM - 5:00 PM Saturday Closed Sunday Closed,https://locations.steward.org/ma/norwood/900-washington-street.html
https://www.steward.org/,SMG Quincy Geriatrics,54 Miller Street,Quincy,MA,2169,US,<MISSING>,(617) 472-5005,<MISSING>,42.24334268,-71.02606523, Monday 8:00 AM - 4:30 PM Tuesday 8:00 AM - 4:30 PM Wednesday 8:00 AM - 4:30 PM Thursday 8:00 AM - 4:30 PM Friday 8:00 AM - 4:30 PM Saturday Closed Sunday Closed,https://locations.steward.org/ma/quincy/54-miller-street-2406860.html
https://www.steward.org/,SMG Mill River Internal Medicine,1 Washington Street,Taunton,MA,2780,US,<MISSING>,(508) 823-9921,<MISSING>,41.9005562,-71.0985519, Monday 8:30 AM - 5:00 PM Tuesday 8:30 AM - 5:00 PM Wednesday 8:30 AM - 5:00 PM Thursday 8:30 AM - 5:00 PM Friday 8:30 AM - 5:00 PM Saturday Closed Sunday Closed,https://locations.steward.org/ma/taunton/1-washington-street.html
https://www.steward.org/,SMG Center for Weight Control,100 Industrial Park Road,Taunton,MA,2780,US,<MISSING>,(774) 409-7803,<MISSING>,41.958842,-71.1223209, Monday 9:00 AM - 4:30 PM Tuesday 9:00 AM - 4:30 PM Wednesday 9:00 AM - 4:30 PM Thursday 9:00 AM - 4:30 PM Friday 9:00 AM - 4:30 PM Saturday Closed Sunday Closed,https://locations.steward.org/ma/taunton/100-industrial-park-road-14663272.html
https://www.steward.org/,SMG Taunton Medical,54 Court Street,Taunton,MA,2780,US,<MISSING>,(508) 821-2500,<MISSING>,41.90288076,-71.09717033, Monday 9:00 AM - 5:00 PM Tuesday 9:00 AM - 6:00 PM Wednesday 9:00 AM - 5:00 PM Thursday 9:00 AM - 5:00 PM Friday 9:00 AM - 5:00 PM Saturday Closed Sunday Closed,https://locations.steward.org/ma/taunton/54-court-street.html
https://www.steward.org/,SMG Medical Specialties of Taunton,72 Washington St,Taunton,MA,2780,US,<MISSING>,(508) 824-5865,<MISSING>,41.90524758,-71.0955883,<MISSING>,https://locations.steward.org/ma/taunton/72-washington-st.html
https://www.steward.org/,SMG Orthopedics at Morton Hospital,72 Washington Street,Taunton,MA,2780,US,<MISSING>,(508) 828-7090,<MISSING>,41.90582,-71.0953144, Monday Closed Tuesday Closed Wednesday Closed Thursday Closed Friday 9:00 AM - 4:00 PM Saturday Closed Sunday Closed,https://locations.steward.org/ma/taunton/72-washington-street-14663270.html
https://www.steward.org/,SMG Pain Management at Morton Hospital,88 Washington Street,Taunton,MA,2780,US,<MISSING>,(508) 828-7186,<MISSING>,41.9062928,-71.0954214, Monday 8:00 AM - 5:00 PM Tuesday 8:00 AM - 5:00 PM Wednesday 8:00 AM - 5:00 PM Thursday 8:00 AM - 5:00 PM Friday 8:00 AM - 5:00 PM Saturday Closed Sunday Closed,https://locations.steward.org/ma/taunton/88-washington-street.html
https://www.steward.org/,SMG Wrentham Cardiology,24 Common St,Wrentham,MA,2093,US,<MISSING>,(508) 384-2500,<MISSING>,42.06554758,-71.32830096, Monday 8:30 AM - 4:30 PM Tuesday 9:00 AM - 3:30 PM Wednesday 8:30 AM - 4:30 PM Thursday 8:30 AM - 4:30 PM Friday 8:30 AM - 4:30 PM Saturday Closed Sunday Closed,https://locations.steward.org/ma/wrentham/24-common-st.html
https://www.steward.org/,SMG Wrentham Primary Care,24 Common Street,Wrentham,MA,2093,US,<MISSING>,(508) 384-2223,<MISSING>,42.06553706,-71.32832497, Monday 8:00 AM - 4:30 PM Tuesday 8:00 AM - 4:30 PM Wednesday 8:00 AM - 4:30 PM Thursday 8:00 AM - 4:30 PM Friday 8:00 AM - 4:30 PM Saturday Closed Sunday Closed,https://locations.steward.org/ma/wrentham/24-common-street.html
https://www.steward.org/,SMG Salem Ob/Gyn,18 Keewaydin Drive,Salem,NH,3079,US,<MISSING>,(603) 870-9150,<MISSING>,42.7716038,-71.24556379, Monday 9:00 AM - 5:00 PM Tuesday 9:00 AM - 5:00 PM Wednesday 9:00 AM - 5:00 PM Thursday 9:00 AM - 5:00 PM Friday 9:00 AM - 5:00 PM Saturday Closed Sunday Closed,https://locations.steward.org/nh/salem/18-keewaydin-drive.html
https://www.steward.org/,SMG Primary Care of Southern New Hampshire,22 Keewaydin Drive,Salem,NH,3079,US,<MISSING>,(603) 685-6977,<MISSING>,42.7713771,-71.2455071, Monday 7:00 AM - 5:00 PM Tuesday 7:00 AM - 6:00 PM Wednesday 7:00 AM - 6:00 PM Thursday 7:00 AM - 6:00 PM Friday 7:00 AM - 5:00 PM Saturday Closed Sunday Closed,https://locations.steward.org/nh/salem/22-keewaydin-drive.html
https://www.steward.org/,"Steward Health Center Elm Road - Steward Primary Care, Cortland",2668 Elm Road NE Building C,Cortland,OH,44410,US,<MISSING>,(330) 841-1070,<MISSING>,41.28823939,-80.76334582, Monday 9:00 AM - 5:00 PM Tuesday 9:00 AM - 5:00 PM Wednesday 9:00 AM - 5:00 PM Thursday 9:00 AM - 5:00 PM Friday 9:00 AM - 5:00 PM Saturday Closed Sunday Closed,https://locations.steward.org/oh/cortland/2668-elm-road-ne.html
https://www.steward.org/,"Steward Internal Medicine, Windsor Court",310 Windsor Drive,Cortland,OH,44410,US,<MISSING>,(330) 637-0356,<MISSING>,41.312091,-80.729558, Monday 9:00 AM - 5:00 PM Tuesday 9:00 AM - 5:00 PM Wednesday 9:00 AM - 5:00 PM Thursday 9:00 AM - 5:00 PM Friday 9:00 AM - 5:00 PM Saturday Closed Sunday Closed,https://locations.steward.org/oh/cortland/310-windsor-drive.html
https://www.steward.org/,"Steward Family Medicine, Hubbard",55 Hall Avenue,Hubbard,OH,44425,US,<MISSING>,(330) 534-1978,<MISSING>,41.15507334,-80.5807122, Monday 7:00 AM - 5:00 PM Tuesday 7:00 AM - 5:00 PM Wednesday 7:00 AM - 5:00 PM Thursday 7:00 AM - 5:00 PM Friday 7:00 AM - 5:00 PM Saturday Closed Sunday Closed,https://locations.steward.org/oh/hubbard/55-hall-avenue.html
https://www.steward.org/,Steward Medical Group Physician Specialists,880 West Liberty Street,Hubbard,OH,44425,US,<MISSING>,(330) 534-5400,<MISSING>,41.15770378,-80.58394421, Monday 7:00 AM - 5:00 PM Tuesday 7:00 AM - 5:00 PM Wednesday 7:00 AM - 5:00 PM Thursday 7:00 AM - 5:00 PM Friday 7:00 AM - 5:00 PM Saturday 8:00 AM - 1:00 PM Sunday Closed,https://locations.steward.org/oh/hubbard/880-west-liberty-street.html
https://www.steward.org/,Steward Heart and Vascular Surgery,1353 East Market Street,Warren,OH,44483,US,<MISSING>,(330) 841-1120,<MISSING>,41.23675944,-80.80005125, Monday 8:00 AM - 4:30 PM Tuesday 8:00 AM - 4:30 PM Wednesday 8:00 AM - 4:30 PM Thursday 8:00 AM - 4:30 PM Friday 8:00 AM - 4:30 PM Saturday Closed Sunday Closed,https://locations.steward.org/oh/warren/1353-east-market-street.html
https://www.steward.org/,SMG Family Medicine,1405 East Market Street,Warren,OH,44483,US,<MISSING>,(330) 373-1635,<MISSING>,41.236823,-80.798681, Monday 9:00 AM - 5:00 PM Tuesday 9:00 AM - 5:00 PM Wednesday 9:00 AM - 5:00 PM Thursday 9:00 AM - 5:00 PM Friday 9:00 AM - 5:00 PM Saturday Closed Sunday Closed,https://locations.steward.org/oh/warren/1405-east-market-street.html
https://www.steward.org/,"Steward Family Medicine, Champion",5975 Mahoning Avenue,Warren,OH,44483,US,<MISSING>,(330) 847-7217,<MISSING>,41.31555,-80.85276, Monday 9:00 AM - 5:00 PM Tuesday 9:00 AM - 5:00 PM Wednesday 9:00 AM - 5:00 PM Thursday 9:00 AM - 5:00 PM Friday 9:00 AM - 5:00 PM Saturday Closed Sunday Closed,https://locations.steward.org/oh/warren/5975-mahoning-avenue.html
https://www.steward.org/,Steward Physical Medicine and Rehabilitation,8747 Squires Lane NE,Warren,OH,44484,US,<MISSING>,(330) 841-3607,<MISSING>,41.2507496,-80.73232207, Monday 6:30 AM - 3:00 PM Tuesday 6:30 AM - 3:00 PM Wednesday 6:30 AM - 3:00 PM Thursday 6:30 AM - 3:00 PM Friday 6:30 AM - 3:00 PM Saturday Closed Sunday Closed,https://locations.steward.org/oh/warren/8747-squires-lane-ne.html
https://www.steward.org/,Living Well Family Practice at SMG,20 Ohltown Road,Youngstown,OH,44515,US,<MISSING>,(330) 726-9355,<MISSING>,41.101848,-80.765197, Monday 9:00 AM - 5:00 PM Tuesday 9:00 AM - 5:00 PM Wednesday 9:00 AM - 5:00 PM Thursday 9:00 AM - 5:00 PM Friday 9:00 AM - 5:00 PM Saturday Closed Sunday Closed,https://locations.steward.org/oh/youngstown/20-ohltown-road.html
https://www.steward.org/,"Steward Primary Care, Gypsy Lane",500 Gypsy Ln Building B,Youngstown,OH,44504,US,<MISSING>,(330) 884-3916,<MISSING>,41.133995,-80.6567001, Monday 8:00 AM - 4:30 PM Tuesday 8:00 AM - 4:30 PM Wednesday 8:00 AM - 4:30 PM Thursday 8:00 AM - 4:30 PM Friday 8:00 AM - 4:30 PM Saturday Closed Sunday Closed,https://locations.steward.org/oh/youngstown/500-gypsy-ln.html
https://www.steward.org/,"Steward Family Medicine & OB, Belmont",5170 Belmont Avenue,Youngstown,OH,44505,US,<MISSING>,(330) 759-2511,<MISSING>,41.174119,-80.665413, Monday 9:00 AM - 5:00 PM Tuesday 9:00 AM - 5:00 PM Wednesday 9:00 AM - 5:00 PM Thursday 9:00 AM - 5:00 PM Friday 9:00 AM - 5:00 PM Saturday Closed Sunday Closed,https://locations.steward.org/oh/youngstown/5170-belmont-avenue.html
https://www.steward.org/,Easton Medical Group - Primary Care,3101 Emrick Blvd,Bethlehem,PA,18020,US,<MISSING>,(610) 419-6426,<MISSING>,40.66521667,-75.29656693, Monday 7:00 AM - 5:30 PM Tuesday 7:00 AM - 5:30 PM Wednesday 7:00 AM - 5:30 PM Thursday 7:00 AM - 5:30 PM Friday 7:00 AM - 5:30 PM Saturday Closed Sunday Closed,https://locations.steward.org/pa/bethlehem/3101-emrick-blvd-6192943.html
https://www.steward.org/,Easton Endocrinology,3101 Emrick Blvd.,Bethlehem,PA,18020,US,<MISSING>,(610) 419-6483,<MISSING>,40.6655395,-75.2964144,<MISSING>,https://locations.steward.org/pa/bethlehem/3101-emrick-blvd-6192951.html
https://www.steward.org/,Easton Internal Medical Associates,1723 Northampton Street,Easton,PA,18042,US,<MISSING>,(610) 253-7211,<MISSING>,40.6793278,-75.258944,<MISSING>,https://locations.steward.org/pa/easton/1723-northampton-street.html
https://www.steward.org/,Easton Medical Associates,1800 Sullivan Trail,Easton,PA,18040,US,<MISSING>,(610) 250-8799,<MISSING>,40.716359,-75.223078, Monday 7:00 AM - 6:00 PM Tuesday 7:00 AM - 6:00 PM Wednesday 7:00 AM - 6:00 PM Thursday 7:00 AM - 6:00 PM Friday 7:00 AM - 6:00 PM Saturday Closed Sunday Closed,https://locations.steward.org/pa/easton/1800-sullivan-trail.html
https://www.steward.org/,Cardiothoracic Surgeons of Easton,2005 Fairview Avenue,Easton,PA,18042,US,<MISSING>,(610) 923-5272,<MISSING>,40.68788901,-75.24133162,<MISSING>,https://locations.steward.org/pa/easton/2005-fairview-avenue-6192945.html
https://www.steward.org/,Easton Gastroenterology Associates,2025 Fairview Avenue,Easton,PA,18042,US,<MISSING>,(610) 258-3568,<MISSING>,40.68785237,-75.24206473,<MISSING>,https://locations.steward.org/pa/easton/2025-fairview-avenue.html
https://www.steward.org/,Easton Surgical Associates,205 S. 22nd Street,Easton,PA,18042,US,<MISSING>,(610) 258-4705,<MISSING>,40.68725448,-75.24502554,<MISSING>,https://locations.steward.org/pa/easton/205-s--22nd-street.html
https://www.steward.org/,Easton Medical Group - Infectious Disease,2061 Fairview Avenue,Easton,PA,18042,US,<MISSING>,(610) 253-1764,<MISSING>,40.68787992,-75.24281457,<MISSING>,https://locations.steward.org/pa/easton/2061-fairview-avenue.html
https://www.steward.org/,Northampton Internal Medicine at Corporate Drive,21 Corporate Drive,Easton,PA,18045,US,<MISSING>,(610) 253-7211,<MISSING>,40.6863521,-75.25444095,<MISSING>,https://locations.steward.org/pa/easton/21-corporate-drive.html
https://www.steward.org/,Easton Medical Group - Neurology,2111 Washington Blvd,Easton,PA,18042,US,<MISSING>,(610) 867-4450,<MISSING>,40.68597414,-75.24346427,<MISSING>,https://locations.steward.org/pa/easton/2111-washington-blvd-6192953.html
https://www.steward.org/,Easton Area Family Medicine Associates,2925 William Penn Hwy,Easton,PA,18045,US,<MISSING>,(610) 258-1400,<MISSING>,40.67924697,-75.25893369, Monday 8:00 AM - 5:00 PM Tuesday 8:00 AM - 6:00 PM Wednesday 8:00 AM - 6:00 PM Thursday 8:00 AM - 5:00 PM Friday 8:00 AM - 4:30 PM Saturday Closed Sunday Closed,https://locations.steward.org/pa/easton/2925-william-penn-hwy-5683449.html
https://www.steward.org/,Steward Pulmonology Associates,2320 Highland Road,Hermitage,PA,16148,US,<MISSING>,(724) 983-1980,<MISSING>,41.238866,-80.466133, Monday 9:00 AM - 5:00 PM Tuesday 9:00 AM - 5:00 PM Wednesday 9:00 AM - 5:00 PM Thursday 9:00 AM - 5:00 PM Friday 9:00 AM - 5:00 PM Saturday Closed Sunday Closed,https://locations.steward.org/pa/hermitage/2320-highland-road.html
https://www.steward.org/,Orthopedic Center of Western PA,2395 Garden Way,Hermitage,PA,16148,US,<MISSING>,(724) 981-2522,<MISSING>,41.23775696,-80.46493811, Monday 8:00 AM - 5:00 PM Tuesday 8:00 AM - 5:00 PM Wednesday 8:00 AM - 5:00 PM Thursday 8:00 AM - 5:00 PM Friday 8:00 AM - 5:00 PM Saturday Closed Sunday Closed,https://locations.steward.org/pa/hermitage/2395-garden-way-6192940.html
https://www.steward.org/,Steward Surgical & Weight Loss Specialists,2425 Garden Way,Hermitage,PA,16148,US,<MISSING>,(724) 981-0630,<MISSING>,41.23795604,-80.46391502, Monday 8:00 AM - 5:00 PM Tuesday 8:00 AM - 5:00 PM Wednesday 8:00 AM - 5:00 PM Thursday 8:00 AM - 5:00 PM Friday 8:00 AM - 5:00 PM Saturday Closed Sunday Closed,https://locations.steward.org/pa/hermitage/2425-garden-way-6192932.html
https://www.steward.org/,Steward Women's Health,2435 Garden Way,Hermitage,PA,16148,US,<MISSING>,(724) 342-9729,<MISSING>,41.2379222,-80.463867, Monday 8:00 AM - 5:00 PM Tuesday 8:00 AM - 5:00 PM Wednesday 8:00 AM - 5:00 PM Thursday 8:00 AM - 5:00 PM Friday 8:00 AM - 5:00 PM Saturday Closed Sunday Closed,https://locations.steward.org/pa/hermitage/2435-garden-way.html
https://www.steward.org/,Steward Gastroenterology Associates,2501 Shenango Valley Freeway,Hermitage,PA,16148,US,<MISSING>,(724) 983-0223,<MISSING>,41.22862034,-80.46360153, Monday 8:00 AM - 5:00 PM Tuesday 8:00 AM - 5:00 PM Wednesday 8:00 AM - 5:00 PM Thursday 8:00 AM - 5:00 PM Friday 8:00 AM - 5:00 PM Saturday Closed Sunday Closed,https://locations.steward.org/pa/hermitage/2501-shenango-valley-freeway.html
https://www.steward.org/,Steward Cardiology Associates,2999 Innovation Way,Hermitage,PA,16148,US,<MISSING>,(724) 983-1800,<MISSING>,41.21814283,-80.45252809, Monday 9:00 AM - 5:00 PM Tuesday 9:00 AM - 5:00 PM Wednesday 9:00 AM - 5:00 PM Thursday 9:00 AM - 5:00 PM Friday 9:00 AM - 5:00 PM Saturday Closed Sunday Closed,https://locations.steward.org/pa/hermitage/2999-innovation-way.html
https://www.steward.org/,Steward Specialty Care Neshannock,143 Enclave Drive,New Castle,PA,16105,US,<MISSING>,(724) 654-3010,<MISSING>,41.06294,-80.35789, Monday 9:00 AM - 5:00 PM Tuesday 9:00 AM - 5:00 PM Wednesday 9:00 AM - 5:00 PM Thursday 9:00 AM - 5:00 PM Friday 9:00 AM - 5:00 PM Saturday Closed Sunday Closed,https://locations.steward.org/pa/new-castle/143-enclave-drive.html
https://www.steward.org/,Lawrence County Pediatrics,183 Enclave Drive,New Castle,PA,16105,US,<MISSING>,(724) 654-9910,<MISSING>,41.0629968,-80.3569836, Monday 8:00 AM - 5:00 PM Tuesday 8:00 AM - 5:00 PM Wednesday 8:00 AM - 5:00 PM Thursday 8:00 AM - 5:00 PM Friday 9:00 AM - 5:00 PM Saturday Closed Sunday Closed,https://locations.steward.org/pa/new-castle/183-enclave-drive.html
https://www.steward.org/,Lawrence County Family Medicine,2520 Wilmington Road,New Castle,PA,16105,US,<MISSING>,(724) 658-7550,<MISSING>,41.030914,-80.35384, Monday 8:00 AM - 6:00 PM Tuesday 8:00 AM - 6:00 PM Wednesday 8:00 AM - 5:00 PM Thursday 8:00 AM - 5:00 PM Friday 10:00 AM - 5:00 PM Saturday Closed Sunday Closed,https://locations.steward.org/pa/new-castle/2520-wilmington-road.html
https://www.steward.org/,Lawrence County Family Medicine,605 Mt. Jackson Road,New Castle,PA,16102,US,<MISSING>,(724) 667-2276,<MISSING>,40.96984,-80.40858, Monday 9:00 AM - 5:00 PM Tuesday 9:00 AM - 5:00 PM Wednesday Closed Thursday Closed Friday Closed Saturday Closed Sunday Closed,https://locations.steward.org/pa/new-castle/605-mt--jackson-road.html
https://www.steward.org/,"Steward Family Medicine, Sharon",62 Strawbridge Avenue,Sharon,PA,16146,US,<MISSING>,(724) 347-2955,<MISSING>,41.232172,-80.48621, Monday 9:00 AM - 5:00 PM Tuesday 9:00 AM - 5:00 PM Wednesday 9:00 AM - 12:00 PM Thursday 9:00 AM - 5:00 PM Friday 9:00 AM - 12:00 PM Saturday Closed Sunday Closed,https://locations.steward.org/pa/sharon/62-strawbridge-avenue.html
https://www.steward.org/,Steward Cardiothoracic Specialists,740 E State Street,Sharon,PA,16146,US,<MISSING>,(724) 983-7200,<MISSING>,41.2324055,-80.49569439, Monday 8:00 AM - 5:00 PM Tuesday 8:00 AM - 5:00 PM Wednesday 8:00 AM - 5:00 PM Thursday 8:00 AM - 5:00 PM Friday 8:00 AM - 5:00 PM Saturday Closed Sunday Closed,https://locations.steward.org/pa/sharon/740-e-state-street.html
https://www.steward.org/,SETMA West,2010 Dowlen Road,Beaumont,TX,77706,US,<MISSING>,(409) 833-9797,<MISSING>,30.09600004,-94.17082578, Monday 8:00 AM - 5:30 PM Tuesday 8:00 AM - 5:30 PM Wednesday 8:00 AM - 5:30 PM Thursday 8:00 AM - 5:30 PM Friday 8:00 AM - 12:00 PM Saturday Closed Sunday Closed,https://locations.steward.org/tx/beaumont/2010-dowlen-road.html
https://www.steward.org/,SETMA Calder,2929 Calder,Beaumont,TX,77702,US,<MISSING>,(409) 833-9797,<MISSING>,30.08528432,-94.13238438, Monday 8:00 AM - 5:30 PM Tuesday 8:00 AM - 5:30 PM Wednesday 8:00 AM - 5:30 PM Thursday 8:00 AM - 5:30 PM Friday 8:00 AM - 12:00 PM Saturday Closed Sunday Closed,https://locations.steward.org/tx/beaumont/2929-calder.html
https://www.steward.org/,SETMA College,3570 College St,Beaumont,TX,77701,US,<MISSING>,(409) 833-9797,<MISSING>,30.06890817,-94.12695481, Monday 8:00 AM - 5:30 PM Tuesday 8:00 AM - 5:30 PM Wednesday 8:00 AM - 5:30 PM Thursday 8:00 AM - 5:30 PM Friday 8:00 AM - 12:00 PM Saturday Closed Sunday Closed,https://locations.steward.org/tx/beaumont/3570-college-st.html
https://www.steward.org/,Scenic Mountain Medical Group - Pediatrics,1501 West Eleventh Place,Big Spring,TX,79720,US,<MISSING>,(432) 268-4660,<MISSING>,32.23702719,-101.4910117,<MISSING>,https://locations.steward.org/tx/big-spring/1501-west-eleventh-place-15745888.html
https://www.steward.org/,Scenic Mountain Medical Group - Podiatry,1608 West FM 700,Big Spring,TX,79720,US,<MISSING>,(432) 267-1441,<MISSING>,32.23519939,-101.4905955,<MISSING>,https://locations.steward.org/tx/big-spring/1608-west-fm-700.html
https://www.steward.org/,Scenic Mountain Medical Group - Gregg Street,2301 South Gregg Street,Big Spring,TX,79720,US,<MISSING>,(432) 267-5531,<MISSING>,32.23208281,-101.4705503,<MISSING>,https://locations.steward.org/tx/big-spring/2301-south-gregg-street.html
https://www.steward.org/,Scenic Mountain Medical Group - Main Street,910 South Main Street,Big Spring,TX,79720,US,<MISSING>,(432) 714-4650,<MISSING>,32.24591037,-101.4736882,<MISSING>,https://locations.steward.org/tx/big-spring/910-south-main-street.html
https://www.steward.org/,Houston Cardiology Associates - Sjmc,2000 Crawford,Houston,TX,77002,US,<MISSING>,(713) 802-1300,<MISSING>,29.7460092,-95.3663571, Monday 8:30 AM - 5:00 PM Tuesday 8:30 AM - 5:00 PM Wednesday 8:30 AM - 5:00 PM Thursday 8:30 AM - 5:00 PM Friday 8:30 AM - 5:00 PM Saturday Closed Sunday Closed,https://locations.steward.org/tx/houston/2000-crawford.html
https://www.steward.org/,Houston Cardiology Associates - Sjmc,427 W. 20th Street,Houston,TX,77008,US,<MISSING>,(713) 802-1300,<MISSING>,29.80416662,-95.40536479, Monday 8:30 AM - 5:00 PM Tuesday 8:30 AM - 5:00 PM Wednesday 8:30 AM - 5:00 PM Thursday 8:30 AM - 5:00 PM Friday 8:30 AM - 5:00 PM Saturday Closed Sunday Closed,https://locations.steward.org/tx/houston/427-w--20th-street.html
https://www.steward.org/,Complete Care Midland,1701 N Loop 250 West,Midland,TX,79707,US,<MISSING>,(432) 522-5033,<MISSING>,31.998782,-102.1551445,<MISSING>,https://locations.steward.org/tx/midland/1701-n-loop-250-west.html
https://www.steward.org/,Perinatal Clinic,4911 Andrews Hwy,Midland,TX,79703,US,<MISSING>,(432) 689-0210,<MISSING>,31.99876724,-102.1481554,<MISSING>,https://locations.steward.org/tx/midland/4911-andrews-hwy.html
https://www.steward.org/,Complete Care West Loop,3001 W. University,Odessa,TX,79764,US,<MISSING>,(432) 580-5966,<MISSING>,31.86081211,-102.4129672,<MISSING>,https://locations.steward.org/tx/odessa/3001-w--university.html
https://www.steward.org/,Odessa General Surgery Texas Vein Institute,408 N. Hancock Ave,Odessa,TX,79761,US,<MISSING>,(432) 580-7373,<MISSING>,31.84982745,-102.365685,<MISSING>,https://locations.steward.org/tx/odessa/408-n--hancock-ave.html
https://www.steward.org/,Perinatal Clinic,420 E. 6th.,Odessa,TX,79761,US,<MISSING>,(432) 582-8757,<MISSING>,31.85133265,-102.3650108,<MISSING>,https://locations.steward.org/tx/odessa/420-e--6th.html
https://www.steward.org/,Complete Care - Urology,421 N. Tom Green Ave,Odessa,TX,79761,US,<MISSING>,(432) 653-0919,<MISSING>,31.85015958,-102.3654646,<MISSING>,https://locations.steward.org/tx/odessa/421-n--tom-green-ave.html
https://www.steward.org/,Complete Care - General Surgery  - Unruh,4222 Wendover Ave.,Odessa,TX,79762,US,<MISSING>,(432) 550-4200,<MISSING>,31.8934463,-102.3446203,<MISSING>,https://locations.steward.org/tx/odessa/4222-wendover-ave.html
https://www.steward.org/,SMG: Obstetrics & Gynecology,605 E. 4th St.,Odessa,TX,79761,US,<MISSING>,(432) 653-1586,<MISSING>,31.85050679,-102.3635285,<MISSING>,https://locations.steward.org/tx/odessa/605-e--4th-st-15682633.html
https://www.steward.org/,Complete Care Cardiology,605 E. 4th.,Odessa,TX,79761,US,<MISSING>,(432) 617-8329,<MISSING>,31.85054027,-102.363454,<MISSING>,https://locations.steward.org/tx/odessa/605-e--4th.html
https://www.steward.org/,Naidu Clinic,605 E. 4th. Street,Odessa,TX,79761,US,<MISSING>,(432) 337-4347,<MISSING>,31.85055464,-102.3634136,<MISSING>,https://locations.steward.org/tx/odessa/605-e--4th--street.html
https://www.steward.org/,Complete Care Eastridge,7101 Eastridge Rd.,Odessa,TX,79765,US,<MISSING>,(432) 550-0048,<MISSING>,31.89989861,-102.2971829,<MISSING>,https://locations.steward.org/tx/odessa/7101-eastridge-rd.html
https://www.steward.org/,SMG Orthopedics,980 E. 87th St.,Odessa,TX,79765,US,<MISSING>,(432) 366-0066,<MISSING>,31.93706987,-102.3847936,<MISSING>,https://locations.steward.org/tx/odessa/980-e--87th-st.html
https://www.steward.org/,Neuroscience & Rehabilitation Specialists,1492 West Antelope Drive,Layton,UT,84041,US,<MISSING>,(801) 505-5370,<MISSING>,41.08982565,-111.9937367, Monday 8:00 AM - 5:00 PM Tuesday 8:00 AM - 5:00 PM Wednesday 8:00 AM - 5:00 PM Thursday 8:00 AM - 5:00 PM Friday 8:00 AM - 2:00 PM Saturday Closed Sunday Closed,https://locations.steward.org/ut/layton/1492-west-antelope-drive.html
https://www.steward.org/,Davis Orthopedics & Sports Medicine - Layton,2132 N 1700 W,Layton,UT,84041,US,<MISSING>,(801) 773-3900,<MISSING>,41.09122933,-111.9967988, Monday 8:00 AM - 5:00 PM Tuesday 8:00 AM - 5:00 PM Wednesday 8:00 AM - 5:00 PM Thursday 8:00 AM - 5:00 PM Friday 8:00 AM - 5:00 PM Saturday Closed Sunday Closed,https://locations.steward.org/ut/layton/2132-n-1700-w.html
https://www.steward.org/,Endurance Orthopedics & Sports Medicine,2645 E Parleys Way,Salt Lake City,UT,84109,US,<MISSING>,(801) 424-5042,<MISSING>,40.72057753,-111.8158399, Monday 8:00 AM - 5:00 PM Tuesday 8:00 AM - 5:00 PM Wednesday 8:00 AM - 5:00 PM Thursday 8:00 AM - 5:00 PM Friday 8:00 AM - 5:00 PM Saturday Closed Sunday Closed,https://locations.steward.org/ut/salt-lake-city/2645-e-parleys-way.html
https://www.steward.org/,Heart & Lung Institute Of Utah - Salt Lake City,82 S 1100 E,Salt Lake City,UT,84102,US,<MISSING>,(801) 263-2370,<MISSING>,40.7677188,-111.8619479, Monday 8:00 AM - 12:00 PM 1:00 PM - 5:00 PM Tuesday 8:00 AM - 12:00 PM 1:00 PM - 5:00 PM Wednesday 8:00 AM - 12:00 PM 1:00 PM - 5:00 PM Thursday 8:00 AM - 12:00 PM 1:00 PM - 5:00 PM Friday 8:00 AM - 12:00 PM 1:00 PM - 5:00 PM Saturday Closed Sunday Closed,https://locations.steward.org/ut/salt-lake-city/82-s-1100-e.html
https://www.steward.org/,Comprehensive Orthopedics & Sports Medicine - Salt Lake City,82 South 1100 East,Salt Lake City,UT,84102,US,<MISSING>,(801) 533-2002,<MISSING>,40.767647,-111.861559, Monday 8:00 AM - 12:00 PM 1:00 PM - 5:00 PM Tuesday 8:00 AM - 12:00 PM 1:00 PM - 5:00 PM Wednesday 8:00 AM - 12:00 PM 1:00 PM - 5:00 PM Thursday 8:00 AM - 12:00 PM 1:00 PM - 5:00 PM Friday 8:00 AM - 12:00 PM 1:00 PM - 5:00 PM Saturday Closed Sunday Closed,https://locations.steward.org/ut/salt-lake-city/82-south-1100-east-9095439.html
https://www.steward.org/,Heart & Lung Institute Of Utah - West Valley City,3336 S 4155 W,West Valley City,UT,84120,US,<MISSING>,(801) 263-2370,<MISSING>,40.69998129,-111.9908496, Monday 8:00 AM - 5:00 PM Tuesday 8:00 AM - 5:00 PM Wednesday 8:00 AM - 5:00 PM Thursday 8:00 AM - 5:00 PM Friday 8:00 AM - 1:00 PM Saturday Closed Sunday Closed,https://locations.steward.org/ut/west-valley-city/3336-s-4155-w.html
https://www.steward.org/,Rocky Mountain Womens Health Center - West Valley,3336 S Pioneer Pkwy,West Valley City,UT,84120,US,<MISSING>,(801) 964-3865,<MISSING>,40.7000047,-111.9908638, Monday 8:30 AM - 5:00 PM Tuesday 8:30 AM - 5:00 PM Wednesday 8:30 AM - 5:00 PM Thursday 8:30 AM - 5:00 PM Friday 8:30 AM - 5:00 PM Saturday Closed Sunday Closed,https://locations.steward.org/ut/west-valley-city/3336-s-pioneer-pkwy.html
https://www.steward.org/,Florence Hospital,4545 N Hunt Hwy,Florence,AZ,85132,US,<MISSING>,(520) 868-3333,HOSPITAL,<MISSING>,<MISSING>,<MISSING>,https://www.mvmedicalcenter.org/florence-hospital-campus-mountain-vista-medical-center
https://www.steward.org/,Mountain Vista Medical Center,1301 S Crismon Rd,Mesa,AZ,85209,US,<MISSING>,(480) 358-6100,HOSPITAL,<MISSING>,<MISSING>,<MISSING>,https://www.mvmedicalcenter.org/
https://www.steward.org/,St. Luke's Behavioral Health Center,1800 E. Van Buren St,Phoenix,AZ,85006,US,<MISSING>,(602) 251-8535,HOSPITAL,<MISSING>,<MISSING>,<MISSING>,https://www.stlukesbehavioralhealth.org/
https://www.steward.org/,Tempe St. Luke's Hospital,1500 S Mill Ave,Tempe,AZ,85281,US,<MISSING>,(480) 784-5500,HOSPITAL,<MISSING>,<MISSING>,<MISSING>,https://www.tempestlukeshospital.org/
https://www.steward.org/,Wadley Regional Medical Center at Hope,2001 South Main St,Hope,AR,71801,US,<MISSING>,(870) 722-3800,HOSPITAL,<MISSING>,<MISSING>,<MISSING>,https://www.wadleyhealthathope.org/
https://www.steward.org/,Melbourne Regional Medical Center,250 N Wickham Rd,Melbourne,FL,32935,US,<MISSING>,(321) 752-1200,HOSPITAL,<MISSING>,<MISSING>,<MISSING>,https://www.melbourneregional.org/
https://www.steward.org/,Rockledge Regional Medical Center,110 Longwood Ave,Rockledge,FL,32955,US,<MISSING>,(321) 636-2211,HOSPITAL,<MISSING>,<MISSING>,<MISSING>,https://www.rockledgeregional.org/
https://www.steward.org/,Sebastian River Medical Center,13695 US Highway 1,Sebastian,FL,32958,US,<MISSING>,(772) 589-3186,HOSPITAL,<MISSING>,<MISSING>,<MISSING>,https://www.sebastianrivermedical.org
https://www.steward.org/,Glenwood Regional Medical Center,503 McMillan Rd,West Monroe,LA,71291,US,<MISSING>,(318) 329-4200,HOSPITAL,<MISSING>,<MISSING>,<MISSING>,https://www.glenwoodregional.org/
https://www.steward.org/,Carney Hospital,2100 Dorchester Ave.,Dorchester,MA,2124,US,<MISSING>,(617) 296-4000,HOSPITAL,<MISSING>,<MISSING>,<MISSING>,https://www.carneyhospital.org
https://www.steward.org/,Good Samaritan Medical Center,235 North Pearl St.,Brockton,MA,2301,US,<MISSING>,(508) 427-3000,HOSPITAL,<MISSING>,<MISSING>,<MISSING>,https://www.goodsamaritanmedical.org
https://www.steward.org/,Holy Family Hospital - Haverhill,140 Lincoln Ave.,Haverhill,MA,1830,US,<MISSING>,(978) 374-2000,HOSPITAL,<MISSING>,<MISSING>,<MISSING>,https://www.holyfamilyhospital.org/
https://www.steward.org/,Holy Family Hospital - Methuen,70 East St.,Methuen,MA,1844,US,<MISSING>,(978) 687-0151,HOSPITAL,<MISSING>,<MISSING>,<MISSING>,https://www.holyfamilyhospital.org/
https://www.steward.org/,Morton Hospital,88 Washington St.,Taunton,MA,2780,US,<MISSING>,(508) 828-7000,HOSPITAL,<MISSING>,<MISSING>,<MISSING>,https://www.mortonhospital.org
https://www.steward.org/,Nashoba Valley Medical Center,200 Groton Road,Ayer,MA,1432,US,<MISSING>,(978) 784-9000,HOSPITAL,<MISSING>,<MISSING>,<MISSING>,https://www.nashobamed.org
https://www.steward.org/,New England Sinai Hospital,150 York St.,Stoughton,MA,2072,US,<MISSING>,(781) 344-0600,HOSPITAL,<MISSING>,<MISSING>,<MISSING>,https://www.newenglandsinai.org
https://www.steward.org/,Norwood Hospital,800 Washington St.,Norwood,MA,2062,US,<MISSING>,(781) 769-4000,HOSPITAL,<MISSING>,<MISSING>,<MISSING>,https://www.norwood-hospital.org/
https://www.steward.org/,Saint Annes Hospital,795 Middle St.,Fall River,MA,2721,US,<MISSING>,(508) 674-5600,HOSPITAL,<MISSING>,<MISSING>,<MISSING>,https://www.saintanneshospital.org
https://www.steward.org/,St. Elizabeths Medical Center,736 Cambridge St.,Brighton,MA,2135,US,<MISSING>,(617) 789-3000,HOSPITAL,<MISSING>,<MISSING>,<MISSING>,https://www.semc.org
https://www.steward.org/,Hillside Rehabilitation Hospital,8747 Squires Ln NE,Warren,OH,44484,US,<MISSING>,(330) 841-3700,HOSPITAL,<MISSING>,<MISSING>,<MISSING>,https://www.hillsiderehabhospital.org/
https://www.steward.org/,Trumbull Regional Medical Center,1350 East Market St,Warren,OH,44482,US,<MISSING>,(330) 841-9011,HOSPITAL,<MISSING>,<MISSING>,<MISSING>,https://www.trumbullregional.org/
https://www.steward.org/,Easton Hospital,250 South 21st St,Easton,PA,18042,US,<MISSING>,(610) 250-4000,HOSPITAL,<MISSING>,<MISSING>,<MISSING>,https://www.easton-hospital.org
https://www.steward.org/,Sharon Regional,740 East State St,Sharon,PA,16146,US,<MISSING>,(724) 983-3911,HOSPITAL,<MISSING>,<MISSING>,<MISSING>,https://www.sharonregionalmedical.org/
https://www.steward.org/,Odessa Regional Medical Center,520 East Sixth St,Odessa,TX,79761,US,<MISSING>,(432) 582-8000,HOSPITAL,<MISSING>,<MISSING>,<MISSING>,https://www.odessaregionalmedicalcenter.org/
https://www.steward.org/,Scenic Mountain Medical Center,1601 W. 11th Place,Big Springs,TX,79720,US,<MISSING>,(432) 263-1211,HOSPITAL,<MISSING>,<MISSING>,<MISSING>,https://scenicmountainmedical.org/
https://www.steward.org/,Southwest General Hospital,7400 Barlite Blvd,San Antonio,TX,78224,US,<MISSING>,(210) 921-2000,HOSPITAL,<MISSING>,<MISSING>,<MISSING>,https://www.southwestgeneralhospital.org/
https://www.steward.org/,St. Joseph's Medical Center,1401 St. Joseph Pkwy,Houston,TX,77002,US,<MISSING>,(713) 757-1000,HOSPITAL,<MISSING>,<MISSING>,<MISSING>,https://www.sjmctx.org/
https://www.steward.org/,The Medical Center of Southeast Texas,2555 Jimmy Johnson Blvd,Port Arthur,TX,77640,US,<MISSING>,(409) 724-7389,HOSPITAL,<MISSING>,<MISSING>,<MISSING>,https://www.medicalcentersetexas.org/
https://www.steward.org/,Wadley Regional Medical Center,1000 Pine St,Texarkana,TX,75501,US,<MISSING>,(903) 798-8000,HOSPITAL,<MISSING>,<MISSING>,<MISSING>,https://www.wadleyhealth.org/
https://www.steward.org/,Davis Hospital,1600 W Antelope Dr,Layton,UT,84041,US,<MISSING>,(801) 807-1000,HOSPITAL,<MISSING>,<MISSING>,<MISSING>,https://www.davishospital.org/
https://www.steward.org/,Jordan Valley Medical Center,3580 W 9000 St,West Jordan,UT,84088,US,<MISSING>,(801) 561-8888,HOSPITAL,<MISSING>,<MISSING>,<MISSING>,https://www.jordanvalleymc.org/
https://www.steward.org/,Jordan Valley Medical Center-West Valley Campus,3460 South 4155 West,West Valley City,UT,84120,US,<MISSING>,(801) 964-3100,HOSPITAL,<MISSING>,<MISSING>,<MISSING>,https://www.jordanwestvalley.org/
https://www.steward.org/,Mountain Point Medical Center,3000 N Triumph Blvd,Lehi,UT,84043,US,<MISSING>,(385) 345-3000,HOSPITAL,<MISSING>,<MISSING>,<MISSING>,https://www.mountainpointmedicalcenter.org/
https://www.steward.org/,Salt Lake Regional Medical Center,1050 East South Temple,Salt Lake City,UT,84102,US,<MISSING>,(801) 350-4111,HOSPITAL,<MISSING>,<MISSING>,<MISSING>,https://www.saltlakeregional.org/
