"locator_domain","page_url","location_name","street_address","city","state","zip","country_code","store_number","phone","location_type","latitude","longitude","hours_of_operation"
"https://gambinospizza.com","https://gambinospizza.com/stores/ks/alma.html","ALMA","308 Missouri St.","ALMA","KS","66401","US","<MISSING>","785-765-3308","<MISSING>","39.012962","-96.28941200000001","Monday11am - 8pm|Tuesday - Sunday 11am - 9pm"
"https://gambinospizza.com","https://gambinospizza.com/stores/ks/andover.html","ANDOVER","626 North Andover Rd","ANDOVER","KS","67002","US","<MISSING>","316-869-1221","<MISSING>","37.69625347977388","-97.13736418468463","Sunday - Thursday 11am  8:30pm|Friday  Saturday 11am - 9pm"
"https://gambinospizza.com","https://gambinospizza.com/stores/ks/atchison.html","ATCHISON","610 Commercial St.","ATCHISON","KS","66002","US","<MISSING>","913-367-4100","<MISSING>","39.56166957268135","-95.12039459870958","Sunday - Thursday 11am - 9pm|Friday  Saturday 11am - 10pm"
"https://gambinospizza.com","https://gambinospizza.com/stores/ks/auburn.html","AUBURN","844 Washington St.","AUBURN","KS","66402","US","<MISSING>","785-256-2061","<MISSING>","38.906992227223085","-95.8171199976763","Monday-Friday 11am - 2pm  4pm - 9pm|Saturday 11am - 9pm|Sunday 12am - 9pm"
"https://gambinospizza.com","https://gambinospizza.com/stores/ks/colby.html","COLBY","1100 West 4th","COLBY","KS","67701","US","<MISSING>","785-462-9977","<MISSING>","39.39756334196978","-101.05625317411523","Monday 4pm - 8pm|Tuesday -Thursday 4pm - 8pm|Friday  Saturday 4pm - 9pm|Closed Sunday"
"https://gambinospizza.com","https://gambinospizza.com/stores/ks/concordia.html","CONCORDIA","130 W. 6th","CONCORDIA","KS","66901","US","<MISSING>","785-243-4600","<MISSING>","39.57143099999994","-97.66051099999997","Sunday -Thursday 11am - 10pm|Friday  Saturday 11am - 11pm"
"https://gambinospizza.com","https://gambinospizza.com/stores/ks/conwaysprings.html","CONWAY SPRINGS","110 N. 5th","CONWAY SPRINGS","KS","67031","US","<MISSING>","620-456-2444","<MISSING>","37.391048","-97.64139100000001","Sunday - Thursday 11am - 9pm |Friday and Saturday 11am - 10pm "
"https://gambinospizza.com","https://gambinospizza.com/stores/ks/eldorado.html","EL DORADO","1321 W. Central","EL DORADO","KS","67042","US","<MISSING>","316-322-8827","<MISSING>","37.817102","-96.86807400000001","Sunday-Thursday 11am - 10pm|Friday  Saturday 11am - 11pm|"
"https://gambinospizza.com","https://gambinospizza.com/stores/ks/ellsworth.html","ELLSWORTH","105 N. Lincoln","ELLSWORTH","KS","67439","US","<MISSING>","785-472-5571","<MISSING>","38.72800600000001","-98.23011299999999","Monday  Tuesday 4pm - 9:30pm"
"https://gambinospizza.com","https://gambinospizza.com/stores/ks/emporia.html","EMPORIA","1003 Industrial Rd.","EMPORIA","KS","66801","US","<MISSING>","620-343-9114","<MISSING>","38.409921","-96.21725400000001","Sunday-Thursday 11am - 9:30pm|Friday  Saturday 11am - 10:30pm"
"https://gambinospizza.com","https://gambinospizza.com/stores/ks/eudora.html","EUDORA","1402 Church","EUDORA","KS","66025","US","<MISSING>","785-542-2121","<MISSING>","38.93527549999995","-95.09494910000004","Sunday-Thursday 11am - 9pm|Friday  Saturday 11am - 10pm"
"https://gambinospizza.com","https://gambinospizza.com/stores/ks/gardner.html","GARDNER","616 E. Main","GARDNER","KS","66030","US","<MISSING>","913-884-4444","<MISSING>","38.81109500000001","-94.91555799999999","Monday-Thursday 11am - 9pm | Friday  Saturday 11am - 10pm| Sunday 4pm - 9pm "
"https://gambinospizza.com","https://gambinospizza.com/stores/ks/goodland.html","GOODLAND","402 E. 17th St.","GOODLAND","KS","67735","US","<MISSING>","785-890-5988","<MISSING>","39.341842","-101.707304","Every Day 11am - 9p"
"https://gambinospizza.com","https://gambinospizza.com/stores/ks/greatbend.html","GREAT BEND","1309 Main St.","GREAT BEND","KS","67530","US","<MISSING>","620-603-6272","<MISSING>","38.3648527","-98.76513560000001","Sun - Thu 10am - 9pm|Fri  Sat 10am - 10pm|"
"https://gambinospizza.com","https://gambinospizza.com/stores/ks/hays.html","HAYS","2102 Vine","HAYS","KS","67601","US","<MISSING>","785-621-4922","<MISSING>","38.88792558070739","-99.33998956896718","Sun - Thu 10am - 9pm|Fri  Sat 10am - 10pm "
"https://gambinospizza.com","https://gambinospizza.com/stores/ks/lenexa.html","LENEXA","8725 Bourgade St.","LENEXA","KS","66219","US","<MISSING>","913-888-1011","<MISSING>","38.97026247352506","-94.76689058035426","Monday - Thursday 11am - 9pm|Friday  Saturday 11am - 10pm|Sunday 11am - 8pm|"
"https://gambinospizza.com","https://gambinospizza.com/stores/ks/marion.html","MARION","114 E. Main","MARION","KS","66861","US","<MISSING>","620-382-3821","<MISSING>","38.348282999999995","-97.02150200000001","11am-8pm Monday-Saturday|Closed Sunday|"
"https://gambinospizza.com","https://gambinospizza.com/stores/ks/meriden.html","MERIDEN","7232 K-4","MERIDEN","KS","66512","US","<MISSING>","785-484-2323","<MISSING>","39.177012","-95.56971699999995","Saturday - Thursday 11am - 9pm|Friday 11am - 10pm|"
"https://gambinospizza.com","https://gambinospizza.com/stores/ks/oskaloosa.html","OSKALOOSA","312 W. Washington St.Ã‚","OSKALOOSA","KS","66066","US","<MISSING>","785-863-3161","<MISSING>","39.216915341902194","-95.31342231468668","Monday-Saturday 11am -9pm|Sunday 11am-8pm|"
"https://gambinospizza.com","https://gambinospizza.com/stores/ks/perry.html","PERRY","510 E. Front","PERRY","KS","66073","US","<MISSING>","785-597-5133","<MISSING>","39.072573","-95.38811000000001","Sunday - Tuesday 11am - 8pm |Wednesday - Saturday 11am - 9pm|"
"https://gambinospizza.com","https://gambinospizza.com/stores/ks/riley.html","RILEY","119 S. Broadway","RILEY","KS","66531","US","<MISSING>","785-485-2834","<MISSING>","39.29810103082926","-96.82762078429293","Sunday-Thursday 11am - 9pm|Friday  Saturday 11am - 10pm"
"https://gambinospizza.com","https://gambinospizza.com/stores/ks/stmarys.html","ST. MARYS","507 Bertrand (Hwy. 24)","ST. MARYS","KS","66536","US","<MISSING>","785-437-2900","<MISSING>","39.188924","-96.057458","Monday-Saturday 11am -9pm|Sunday 11am - 8pm|"
"https://gambinospizza.com","https://gambinospizza.com/stores/ks/silverlake.html","SILVER LAKE","404 Circle Dr.","SILVER LAKE","KS","66539","US","<MISSING>","785-582-4100","<MISSING>","39.094483000000004","-95.85655299999999","Monday-Friday 11am - 2pm  4pm - 9pm|Saturday 11am - 9pm|Sunday 12pm - 9pm"
"https://gambinospizza.com","https://gambinospizza.com/stores/ks/southhutch.html","SOUTH HUTCHINSON","310 South Main South","SOUTH HUTCHINSON","KS","67505","US","<MISSING>","620-663-9200","<MISSING>","38.023866000000005","-97.939652","Mon-Sat 11am - 10pm  CLOSED Sunday"
"https://gambinospizza.com","https://gambinospizza.com/stores/ks/springhill.html","SPRING HILL","103. S. Webster St.","SPRING HILL","KS","66083","US","<MISSING>","913-686-4424","<MISSING>","38.745031000000004","-94.82534650000002","Mon-Fri 11am - 1:30pm Lunch| 4:30pm - 9pm Dinner|Sat-Sun11am - 9pm"
"https://gambinospizza.com","https://gambinospizza.com/stores/ks/sterling.html","STERLING","102 N. Broadway","STERLING","KS","67579","US","<MISSING>","620-278-3400","<MISSING>","38.210238","-98.206446","Monday-Saturday 11am - 10pm"
"https://gambinospizza.com","https://gambinospizza.com/stores/ks/tonganoxie.html","TONGANOXIE","1208 Front St.","TONGANOXIE","KS","66086","US","<MISSING>","913-845-2242","<MISSING>","39.11587600000001","-95.076758","Saturday-Thursday 11am - 9pm|Friday 11am - 10pm"
"https://gambinospizza.com","https://gambinospizza.com/stores/ks/topeka.html","TOPEKA","3613 N.W. 46th","TOPEKA","KS","66618","US","<MISSING>","785-286-0770","<MISSING>","39.13162926058889","-95.72219441502516","Sunday  Monday 11am - 9pm|Tuesday-Saturday 11am - 10pm"
"https://gambinospizza.com","https://gambinospizza.com/stores/ks/towanda.html","TOWANDA","311 Main St.","TOWANDA","KS","67144","US","<MISSING>","316-541-2484","<MISSING>","37.795738","-97.003666","Sunday-Thursday 10am - 9pm|Friday  Saturday 11am - 10p"
"https://gambinospizza.com","https://gambinospizza.com/stores/ks/wamego.html","WAMEGO","1401 W. Hwy. 24","WAMEGO","KS","66547","US","<MISSING>","785-456-7777","<MISSING>","39.21006","-96.313221","Monday - Saturday 11am -10pm|Sunday 11am - 9p"
"https://gambinospizza.com","https://gambinospizza.com/stores/ks/washington.html","WASHINGTON","317 W. 7th St.","WASHINGTON","KS","66968","US","<MISSING>","785-325-3400","<MISSING>","39.813691","-97.05767900000001","Monday - Friday 11am - 2pm  4pm - 9pm|Saturday  Sunday 11am - 9pm|CLOSED2pm - 4pm Monday-Friday"
"https://gambinospizza.com","https://gambinospizza.com/stores/ks/wichita.html","WICHITA","1520 S. Webb Rd.","WICHITA","KS","67207","US","<MISSING>","316-272-9777","<MISSING>","37.666138679779415","-97.2276467846855","Sunday - Thursday 11am - 9pm |Friday  Saturday 11am - 10pm"
"https://gambinospizza.com","https://gambinospizza.com/stores/ks/winfield.html","WINFIELD","1400 Main","WINFIELD","KS","67156","US","<MISSING>","620-229-2278","<MISSING>","37.23500500000001","-96.99687999999999","Sunday-Thursday 11am - 9pm|Friday  Saturday 11am - 10pm|"
"https://gambinospizza.com","https://gambinospizza.com/stores/mo/lathrop.html","LATHROP","505 Oak","LATHROP","MO","64029","US","<MISSING>","816-740-4447","<MISSING>","39.54814400000001","-94.32843799999999","Monday - Thursday 4pm - 9pm|Friday 11am-2pm  4pm -10pm"
"https://gambinospizza.com","https://gambinospizza.com/stores/mo/stjoseph.html","ST. JOSEPH","5428 Frederick Ave.","ST. JOSEPH","MO","64506","US","<MISSING>","816-232-0043","<MISSING>","39.78180999999999","-94.768159","Sunday - Thursday 11am - 9pm|Friday  Saturday 11am - 10pm"
"https://gambinospizza.com","https://gambinospizza.com/stores/mo/stanberry.html","STANBERRY","120 N. Park","STANBERRY","MO","64489","US","<MISSING>","660-783-2222","<MISSING>","40.213907","-94.54135","11am-8pm Sunday - Thursday|11am-9pm Friday  Saturday"
"https://gambinospizza.com","https://gambinospizza.com/stores/ne/fremontw.html","FREMONT (WEST)","1440 W. Military Ave.","FREMONT (WEST)","NE","68025","US","<MISSING>","402-727-1300","<MISSING>","41.44449205609987","-96.47730868711005","Sunday - Thursday 11am - 9pm|Friday  Saturday 11am - 10pm|"
"https://gambinospizza.com","https://gambinospizza.com/stores/ne/louisville.html","LOUISVILLE","105 N. Main St.","LOUISVILLE","NE","68037","US","<MISSING>","402-234-6100","<MISSING>","41.00406099999999","-96.16228500000001","Sunday - Thursday 10:00am - 8:00pm|Friday - Saturday 10:00am - 9:00pm"
"https://gambinospizza.com","https://gambinospizza.com/stores/ne/northbend.html","NORTH BEND","704 Main North Bend","NORTH BEND","NE","68649","US","<MISSING>","402-652-3700","<MISSING>","41.46295","-96.78034099999999","Sunday - Thursday 11am - 8:00pm|Friday  Saturday 11am - 9:00pm|"
"https://gambinospizza.com","https://gambinospizza.com/stores/ok/alva.html","ALVA","720 Oklahoma Blvd.","ALVA","OK","73717","US","<MISSING>","580-327-0444","<MISSING>","36.7794375","-98.4599805","Sunday - Thursday 11am - 9pm|Friday  Saturday 11am - 10pm"
"https://gambinospizza.com","https://gambinospizza.com/stores/ok/checotah.html","CHECOTAH","216 W. Gentry","CHECOTAH","OK","74426","US","<MISSING>","918-926-3626","<MISSING>","35.4697962802442","-95.52495258474698","Open Every Day 11am - 9pm"
"https://gambinospizza.com","https://gambinospizza.com/stores/ok/gore.html","GORE","HWY 100","GORE","OK","74435","US","<MISSING>","918-489-2828","<MISSING>","35.53746799999999","-95.10811599999995","Open Every Day 11am - 9pm"
"https://gambinospizza.com","https://gambinospizza.com/stores/ok/ketchum.html","KETCHUM","366 W Ketchum Ave","KETCHUM","OK","74349","US","<MISSING>","918-782-4471","<MISSING>","36.52468","-95.029357","Sunday 11am - 8pm|Monday - Wednesday CLOSED|Thursday 11am - 8pm|Friday  Saturday 11am - 9pm"
"https://gambinospizza.com","https://gambinospizza.com/stores/tx/cypress.html","CYPRESS","15050 Fairfield Villiage Square","CYPRESS","TX","77433","US","<MISSING>","281-256-3405","<MISSING>","29.9908741","-95.7375665","Monday - Saturday 11am - 10pm|Sunday 11am - 9pm"
