"locator_domain","location_name","street_address","city","state","zip","country_code","store_number","phone","location_type","latitude","longitude","hours_of_operation"
"https://www.topman.com","TOPMAN ABBOTSFORD","7 OAKS SHOPPING CENTRE 32900 SOUTH FRASER WAY","ABBOTSFORD","BC","<Missing>","CA","<MISSING>","<MISSING>","<MISSING>","<MISSING>","<MISSING>","<Missing>"
"https://www.topman.com","TOPMAN BANFF","125 BANFF AVENUE","BANFF","AB","<Missing>","CA","<MISSING>","<MISSING>","<MISSING>","<MISSING>","<MISSING>","<Missing>"
"https://www.topman.com","TOPMAN BARRIE","GEORGIAN MALL 465 BAYFIELD STREET","BARRIE","<Missing>","L4M 4Z9","CA","<MISSING>","<MISSING>","<MISSING>","<MISSING>","<MISSING>","<Missing>"
"https://www.topman.com","TOPMAN BAYSHORE","BAYSHORE SHOPPING CENTRE 100 BAYSHORE DR","OTTAWA","ON","<Missing>","CA","<MISSING>","<MISSING>","<MISSING>","<MISSING>","<MISSING>","<Missing>"
"https://www.topman.com","TOPMAN BLOOR STREET","2 BLOOR ST EAST","TORONTO","ON","M4W 3H7","CA","<MISSING>","<MISSING>","<MISSING>","<MISSING>","<MISSING>","<Missing>"
"https://www.topman.com","TOPMAN BOULEVARD","CENTRE D'ACHATS LE BOULEVARD 4150 RUE JEAN-TALON E","H1S 2V4","QC","<Missing>","CA","<MISSING>","<MISSING>","<MISSING>","<MISSING>","<MISSING>","<Missing>"
"https://www.topman.com","TOPMAN BRAMALEA","25 Peel Centre Drive","Bramalea","<Missing>","L6T 3R5","CA","<MISSING>","<MISSING>","<MISSING>","<MISSING>","<MISSING>","<Missing>"
"https://www.topman.com","TOPMAN BROSSARD","MAIL CHAMPLAIN 2151 BOUL. LAPINIERE","BROSSARD","QC","<Missing>","CA","<MISSING>","<MISSING>","<MISSING>","<MISSING>","<MISSING>","<Missing>"
"https://www.topman.com","TOPMAN BURLINGTON","BURLINGTON MALL 777 GUELPH LINE","BURLINGTON","ON","<Missing>","CA","<MISSING>","<MISSING>","<MISSING>","<MISSING>","<MISSING>","<Missing>"
"https://www.topman.com","TOPMAN CAMBRIDGE","CAMBRIDGE CENTRE UNIT 1 355 HESPELER ROAD","CAMBRIDGE","ON","<Missing>","CA","<MISSING>","<MISSING>","<MISSING>","<MISSING>","<MISSING>","<Missing>"
"https://www.topman.com","TOPMAN CAPITALE","2K 1N4 5401 BOUL. DES GALERIES","QUEBEC","QC","<Missing>","CA","<MISSING>","<MISSING>","<MISSING>","<MISSING>","<MISSING>","<Missing>"
"https://www.topman.com","TOPMAN CENTREPOINT","CENTERPOINT MALL 6500 YONGE STREET","WILLOWDALE","ON","<Missing>","CA","<MISSING>","<MISSING>","<MISSING>","<MISSING>","<MISSING>","<Missing>"
"https://www.topman.com","TOPMAN COQUITLAM","COQUITLAM CENTRE 100 2929 BARNET HIGHWAY","COQUITLAM","BC","<Missing>","CA","<MISSING>","<MISSING>","<MISSING>","<MISSING>","<MISSING>","<Missing>"
"https://www.topman.com","TOPMAN DARTMOUTH","MICMAC MALL 21 MICMAC BLVD","DARTMOUTH","NS","<Missing>","CA","<MISSING>","<MISSING>","<MISSING>","<MISSING>","<MISSING>","<Missing>"
"https://www.topman.com","TOPMAN DORVAL","LES JARDINS DORVAL 386 DORVAL AVE","DORVAL","QC","<Missing>","CA","<MISSING>","<MISSING>","<MISSING>","<MISSING>","<MISSING>","<Missing>"
"https://www.topman.com","TOPMAN EDMONTON CENTRE","EDMONTON CITY CENTRE 1200-10250 102 AVENUE NW","EDMONTON","AB","<Missing>","CA","<MISSING>","<MISSING>","<MISSING>","<MISSING>","<MISSING>","<Missing>"
"https://www.topman.com","TOPMAN EGLINTON","EGLINTON SQUARE 1 EGLINTON SQUARE","TORONTO","ON","<Missing>","CA","<MISSING>","<MISSING>","<MISSING>","<MISSING>","<MISSING>","<Missing>"
"https://www.topman.com","TOPMAN ERIN MILLS","ERIN MILLS TOWN CENTRE 5100 ERIN MILLS PARKWAY","MISSISSAUGA","ON","<Missing>","CA","<MISSING>","<MISSING>","<MISSING>","<MISSING>","<MISSING>","<Missing>"
"https://www.topman.com","TOPMAN FAIRVIEW","FAIRVIEW MALL 1800 SHEPPARD AVE. EAST","WILLOWDALE","ON","<Missing>","CA","<MISSING>","<MISSING>","<MISSING>","<MISSING>","<MISSING>","<Missing>"
"https://www.topman.com","TOPMAN FAIRVIEW KITCHENER","3050 Kingsway Drive","Kitchener","On","N2C 2J7","CA","<MISSING>","<MISSING>","<MISSING>","<MISSING>","<MISSING>","<Missing>"
"https://www.topman.com","TOPMAN GATINEAU","LES PROMENADES GATINEAU 1100 BOUL. MALONEY O","GATINEAU","QC","<Missing>","CA","<MISSING>","<MISSING>","<MISSING>","<MISSING>","<MISSING>","<Missing>"
"https://www.topman.com","TOPMAN GUILDFORD","GUILDFORD TOWN CENTRE 1400 GUILDFORD TOWN CENTRE","SURREY","BC","<Missing>","CA","<MISSING>","<MISSING>","<MISSING>","<MISSING>","<MISSING>","<Missing>"
"https://www.topman.com","TOPMAN KAMLOOPS","PACIFIC CENTRE 674 GRANVILLE STREET","VANCOUVER","BC","<Missing>","CA","<MISSING>","<MISSING>","<MISSING>","<MISSING>","<MISSING>","<Missing>"
"https://www.topman.com","TOPMAN KINGSTON","945 Gardiners Road Kingston","Ontario","<Missing>","K7M 7H4","CA","<MISSING>","<MISSING>","<MISSING>","<MISSING>","<MISSING>","<Missing>"
"https://www.topman.com","TOPMAN KINGSWAY","KINGSWAY GARDEN MALL 109TH ST PRINCESS ELIZ AVE","EDMONTON","AB","<Missing>","CA","<MISSING>","<MISSING>","<MISSING>","<MISSING>","<MISSING>","<Missing>"
"https://www.topman.com","TOPMAN LANGLEY","WILLOWBROOK MALL 320 - 19705 FRASER HWY","LANGLEY","BC","V3A 7E9","CA","<MISSING>","<MISSING>","<MISSING>","<MISSING>","<MISSING>","<Missing>"
"https://www.topman.com","TOPMAN LASALLE","CARREFOUR ANGRIGNON 7091 BOUL.","NEWMAN","<Missing>","<Missing>","CA","<MISSING>","<MISSING>","<MISSING>","<MISSING>","<MISSING>","<Missing>"
"https://www.topman.com","TOPMAN LAURIER","PLACE LAURIER 2740 BOUL LAURIER","SAINT-FOY","QC","<Missing>","CA","<MISSING>","<MISSING>","<MISSING>","<MISSING>","<MISSING>","<Missing>"
"https://www.topman.com","TOPMAN LAVAL","CENTRE LAVAL 1600 BOUL. LE CORBUSIER","DORVAL","QC","<Missing>","CA","<MISSING>","<MISSING>","<MISSING>","<MISSING>","<MISSING>","<Missing>"
"https://www.topman.com","TOPMAN LETHBRIDGE","LETHBRIDGE CENTRE MALL 200 4TH AVENUE SOUTH","LETHBRIDGE","AB","<Missing>","CA","<MISSING>","<MISSING>","<MISSING>","<MISSING>","<MISSING>","<Missing>"
"https://www.topman.com","TOPMAN LIMERIDGE","LIMERIDGE MALL 999 UPPER WENTWORTH ST.","HAMILTON","ON","<Missing>","CA","<MISSING>","<MISSING>","<MISSING>","<MISSING>","<MISSING>","<Missing>"
"https://www.topman.com","TOPMAN LONDON WHITE OAKS","WHITE OAKS MALL 1105 WELLINGTON RD. SOUTH","N6A 1V4","ON","<Missing>","CA","<MISSING>","<MISSING>","<MISSING>","<MISSING>","<MISSING>","<Missing>"
"https://www.topman.com","TOPMAN LOUGHEED","LOUGHEED MALL 9855 AUSTIN ROAD","BURNABY","BC","<Missing>","CA","<MISSING>","<MISSING>","<MISSING>","<MISSING>","<MISSING>","<Missing>"
"https://www.topman.com","TOPMAN MAPLEVIEW","900 Mapleview Avenue","Burlington","On","L7S 2J8","CA","<MISSING>","<MISSING>","<MISSING>","<MISSING>","<MISSING>","<Missing>"
"https://www.topman.com","TOPMAN MARKVILLE","MARKVILLE SHOPPING CENTRE 5000 HWY 7","MARKHAM","ON","<Missing>","CA","<MISSING>","<MISSING>","<MISSING>","<MISSING>","<MISSING>","<Missing>"
"https://www.topman.com","TOPMAN MASONVILLE","1680 Richmond Street","London","On","N6G 3Y9","CA","<MISSING>","<MISSING>","<MISSING>","<MISSING>","<MISSING>","<Missing>"
"https://www.topman.com","TOPMAN MAYFAIR","MAYFAIR SHOPPING CENTRE 221 - 3125 DOUGLAS STREET","VICTORIA","BC","V8Z 6E3","CA","<MISSING>","<MISSING>","<MISSING>","<MISSING>","<MISSING>","<Missing>"
"https://www.topman.com","TOPMAN MEDICINE HAT","T1B 2R4 3292 DUNMORE ROAD SE","MEDICINEHAT","AB","<Missing>","CA","<MISSING>","<MISSING>","<MISSING>","<MISSING>","<MISSING>","<Missing>"
"https://www.topman.com","TOPMAN METROTOWN","4700 Kingsway 604 Burnaby","Bc V5h 4n2","<Missing>","<Missing>","CA","<MISSING>","<MISSING>","<MISSING>","<MISSING>","<MISSING>","<Missing>"
"https://www.topman.com","TOPMAN NANAIMO","WOODGROVE CENTRE 6631 ISLAND HWY.","NANAIMO","BC","V9T 4T7","CA","<MISSING>","<MISSING>","<MISSING>","<MISSING>","<MISSING>","<Missing>"
"https://www.topman.com","TOPMAN OAKRIDGE","OAKRIDGE SHOPPING CENTRE 650 41ST AVENUE","WEST VANCOUVER","BC","V5Z 2M9","CA","<MISSING>","<MISSING>","<MISSING>","<MISSING>","<MISSING>","<Missing>"
"https://www.topman.com","TOPMAN ORCHARD PARKSUITE","1802271 Harvey Avenue Kelowna","British Columbia","<Missing>","V1y 6h2","CA","<MISSING>","<MISSING>","<MISSING>","<MISSING>","<MISSING>","<Missing>"
"https://www.topman.com","TOPMAN ORLEANS","PLACE D'ORLEANS 110 PLACE D'ORLEANS DRIVE","ORLEANS","ON","<Missing>","CA","<MISSING>","<MISSING>","<MISSING>","<MISSING>","<MISSING>","<Missing>"
"https://www.topman.com","TOPMAN OSHAWA","OSHAWA SHOPPING CENTRE 419 KING STREET W","OSHAWA","ON","L1J 2K5","CA","<MISSING>","<MISSING>","<MISSING>","<MISSING>","<MISSING>","<Missing>"
"https://www.topman.com","TOPMAN PARK ROYAL","PARK ROYAL SHOPPING CTR 725 PARK ROYAL NORTH","W VANCOUVER","BC","V7T 1H9","CA","<MISSING>","<MISSING>","<MISSING>","<MISSING>","<MISSING>","<Missing>"
"https://www.topman.com","TOPMAN PEN CENTRE","PEN CENTRE SHOPPING PLAZA 221 GLENDALE AVENUE","ST.CATHERINES","ON","<Missing>","CA","<MISSING>","<MISSING>","<MISSING>","<MISSING>","<MISSING>","<Missing>"
"https://www.topman.com","TOPMAN PENTICTON","CHERRY LANE SHOPPING CTR 2111 MAIN STREET","PENTICTON","BC","V2A 6V1","CA","<MISSING>","<MISSING>","<MISSING>","<MISSING>","<MISSING>","<Missing>"
"https://www.topman.com","TOPMAN PICKERING","PICKERING TOWN CENTRE 1355 KINGSTON ROAD","PICKERING","ON","L1V 1B8","CA","<MISSING>","<MISSING>","<MISSING>","<MISSING>","<MISSING>","<Missing>"
"https://www.topman.com","TOPMAN POINTE CLAIRE","6790 Route TransCanada","Pointe-Claire Quebec","<Missing>","H9R 1C5","CA","<MISSING>","<MISSING>","<MISSING>","<MISSING>","<MISSING>","<Missing>"
"https://www.topman.com","TOPMAN POLO PARK","1485 Portage Avenue","Winnipeg","On","R36 0W4","CA","<MISSING>","<MISSING>","<MISSING>","<MISSING>","<MISSING>","<Missing>"
"https://www.topman.com","TOPMAN PRINCE GEORGE","PARKWOOD SHOPPING CENTRE 140- 1600 15TH AVENUE","PRINCEGEORGE","BC","<Missing>","CA","<MISSING>","<MISSING>","<MISSING>","<MISSING>","<MISSING>","<Missing>"
"https://www.topman.com","TOPMAN RED DEER","BOWER MALL 4900 MOLLY BANNISTER DR.","RED DEER","<Missing>","T4R 1N9","CA","<MISSING>","<MISSING>","<MISSING>","<MISSING>","<MISSING>","<Missing>"
"https://www.topman.com","TOPMAN REGINA","CORNWALL CENTRE REGINA 2150 -11TH AVENUE","REGINA","SK","S4P 0J5","CA","<MISSING>","<MISSING>","<MISSING>","<MISSING>","<MISSING>","<Missing>"
"https://www.topman.com","TOPMAN RICHMOND","<Missing>","6060 Minoru Boulevard Ste. 100","<Missing>","V6Y 1Y2","CA","<MISSING>","<MISSING>","<MISSING>","<MISSING>","<MISSING>","<Missing>"
"https://www.topman.com","TOPMAN ROCKLAND","CENTRE ROCKLAND 2435 ROCKLAND ROAD","TMR","QC","<Missing>","CA","<MISSING>","<MISSING>","<MISSING>","<MISSING>","<MISSING>","<Missing>"
"https://www.topman.com","TOPMAN ROSEMERE","PLACE ROSEMERE 401 BOUL. LABELLE","ROSEMERE","QC","J7A 3T2","CA","<MISSING>","<MISSING>","<MISSING>","<MISSING>","<MISSING>","<Missing>"
"https://www.topman.com","TOPMAN SASKATOON","MIDTOWN PLAZA 201 FIRST AVENUE SOUTH","SASKATOON","SK","S7K 3M1","CA","<MISSING>","<MISSING>","<MISSING>","<MISSING>","<MISSING>","<Missing>"
"https://www.topman.com","TOPMAN SCARBOROUGH","300 Borough Drive","Scarborough","On","M1P 4P5","CA","<MISSING>","<MISSING>","<MISSING>","<MISSING>","<MISSING>","<Missing>"
"https://www.topman.com","TOPMAN SHERBROOKE","CARREFOUR DE L'ESTRIE 3000 BOUL. DE PORTLAND","SHERBROOKE","QC","<Missing>","CA","<MISSING>","<MISSING>","<MISSING>","<MISSING>","<MISSING>","<Missing>"
"https://www.topman.com","TOPMAN SOUTH CENTRE","South Centre Mall 100 Anderson Road Se Calgary","T2J3V1","<Missing>","<Missing>","CA","<MISSING>","<MISSING>","<MISSING>","<MISSING>","<MISSING>","<Missing>"
"https://www.topman.com","TOPMAN ST ALBERT","ST. ALBERT CENTRE 375 ST. ALBERT TRAIL","ST. ALBERT","AB","T8N 3K8","CA","<MISSING>","<MISSING>","<MISSING>","<MISSING>","<MISSING>","<Missing>"
"https://www.topman.com","TOPMAN ST BRUNO","LES PROMENADES SAIN-BRUNO 800 BOUL DES PROMENADES","ST-BRUNO","QC","<Missing>","CA","<MISSING>","<MISSING>","<MISSING>","<MISSING>","<MISSING>","<Missing>"
"https://www.topman.com","TOPMAN ST LAURENT","ST. LAURENT CENTER 1200 ST. LAUREN BOUL","OTTAWA","ON","<Missing>","CA","<MISSING>","<MISSING>","<MISSING>","<MISSING>","<MISSING>","<Missing>"
"https://www.topman.com","TOPMAN ST VITAL","ST. VITAL CENTRE 1225 ST. MARY'S ROAD","WINNIPEG","MB","<Missing>","CA","<MISSING>","<MISSING>","<MISSING>","<MISSING>","<MISSING>","<Missing>"
"https://www.topman.com","TOPMAN SUNRIDGE","SUNRIDGE MALL 2525 36 STREET NE","CALGARY","AB","<Missing>","CA","<MISSING>","<MISSING>","<MISSING>","<MISSING>","<MISSING>","<Missing>"
"https://www.topman.com","TOPMAN SYDNEY","MAYFLOWER SHOPPING MALL 800 GRAND LAKE ROAD","SYDNEY","NS","<Missing>","CA","<MISSING>","<MISSING>","<MISSING>","<MISSING>","<MISSING>","<Missing>"
"https://www.topman.com","TOPMAN THE BAY WEBSITE","100 Metropolitan Rd","Scarborough","<Missing>","M1R 2T6","CA","<MISSING>","<MISSING>","<MISSING>","<MISSING>","<MISSING>","<Missing>"
"https://www.topman.com","TOPMAN UPPER MALL","17600 Yonge St N","Newmarket On","<Missing>","L3Y 4Z1","CA","<MISSING>","<MISSING>","<MISSING>","<MISSING>","<MISSING>","<Missing>"
"https://www.topman.com","TOPMAN VERNON","VILLAGE GREEN MALL STE 104900 27TH STREET VERNON","VERNON","BC","V1T 2C7","CA","<MISSING>","<MISSING>","<MISSING>","<MISSING>","<MISSING>","<Missing>"
"https://www.topman.com","TOPMAN VICTORIA","THE BAY CENTRE 1150 DOUGLAS STREET","VICTORIA","BC","V8Z 2C8","CA","<MISSING>","<MISSING>","<MISSING>","<MISSING>","<MISSING>","<Missing>"
"https://www.topman.com","TOPMAN WATERLOO","CONESTOGA MALL 550 KING STREET NORTH","WATERLOO","ON","<Missing>","CA","<MISSING>","<MISSING>","<MISSING>","<MISSING>","<MISSING>","<Missing>"
"https://www.topman.com","TOPMAN WINDSOR","DEVONSHIRE MALL 3030 HOWARD AVENUE","WINDSOR","ON","<Missing>","CA","<MISSING>","<MISSING>","<MISSING>","<MISSING>","<MISSING>","<Missing>"
"https://www.topman.com","TOPMAN WINNIPEG DTN","450 PORTAGE AVE","WINNIPEG","MB","<Missing>","CA","<MISSING>","<MISSING>","<MISSING>","<MISSING>","<MISSING>","<Missing>"
"https://www.topman.com","TOPMAN WOODBINE","WOODBINE PLAZA 500 REXDALE BLVD","TORONTO","ON","<Missing>","CA","<MISSING>","<MISSING>","<MISSING>","<MISSING>","<MISSING>","<Missing>"
"https://www.topman.com","TOPMAN AIR RS WH NORDS DC 89","299 CENTRAL STATES DC 5050 CHAVELLE DRIVE 0 0","<Missing>","<Missing>","<Missing>","US","<MISSING>","<MISSING>","<MISSING>","<MISSING>","<MISSING>","<Missing>"
"https://www.topman.com","TOPMAN ALA MOANA","Nordstrom 706 1519 Kapiolani Boulevard","Honolulu","<Missing>","96814","US","<MISSING>","<MISSING>","<MISSING>","<MISSING>","<MISSING>","Closing soon at 21:00"
"https://www.topman.com","TOPMAN ALDERWOOD","Nordstrom 10 3200 184th Street SW","Lynnwood","<Missing>","98037","US","<MISSING>","<MISSING>","<MISSING>","<MISSING>","<MISSING>","Closing soon at 21:00"
"https://www.topman.com","TOPMAN ANCHORAGE","Nordstrom 12 603 D Street","Anchorage","<Missing>","99501","US","<MISSING>","<MISSING>","<MISSING>","<MISSING>","<MISSING>","Closed today. Opens tomorrow at 10:00"
"https://www.topman.com","TOPMAN ARDEN FAIR","Nordstrom 429 1651 Arden Way","Sacramento","<Missing>","95815","US","<MISSING>","<MISSING>","<MISSING>","<MISSING>","<MISSING>","Closing soon at 21:00"
"https://www.topman.com","TOPMAN AVENTURA","Nordstrom 774 19507 Biscayne Blvd","Aventura","<Missing>","33180","US","<MISSING>","<MISSING>","<MISSING>","<MISSING>","<MISSING>","Closing soon at 21:30"
"https://www.topman.com","TOPMAN BARTON CRK SQ","Nordstrom 731 2901 Capital Of Texas Highway South","Austin","<Missing>","78746","US","<MISSING>","<MISSING>","<MISSING>","<MISSING>","<MISSING>","Closing soon at 21:00"
"https://www.topman.com","TOPMAN BEACHWOOD","Nordstrom 227 26200 Cedar Rd","Beachwood","<Missing>","44122","US","<MISSING>","<MISSING>","<MISSING>","<MISSING>","<MISSING>","Closing soon at 21:00"
"https://www.topman.com","TOPMAN BELLEVUE","Nordstrom 4 100 Bellevue Square","Bellevue","<Missing>","98004","US","<MISSING>","<MISSING>","<MISSING>","<MISSING>","<MISSING>","Closing soon at 21:00"
"https://www.topman.com","TOPMAN BOCA TOWN CENTER","Nordstrom 762 5820 Glades Road","Boca Raton","<Missing>","33431","US","<MISSING>","<MISSING>","<MISSING>","<MISSING>","<MISSING>","Closing soon at 21:00"
"https://www.topman.com","TOPMAN BREA","Nordstrom 321 500 Brea Mall Way","Brea","<Missing>","92821","US","<MISSING>","<MISSING>","<MISSING>","<MISSING>","<MISSING>","Closing soon at 21:00"
"https://www.topman.com","TOPMAN BURLINGTON","Nordstrom 535 75 Middlesex Turnpike Burlington","1803","<Missing>","<Missing>","US","<MISSING>","<MISSING>","<MISSING>","<MISSING>","<MISSING>","Closing soon at 21:00"
"https://www.topman.com","TOPMAN CERRITOS","Nordstrom 322 300 Los Cerritos Center","Cerritos","<Missing>","90703","US","<MISSING>","<MISSING>","<MISSING>","<MISSING>","<MISSING>","Closing soon at 21:00"
"https://www.topman.com","TOPMAN CHANDLER CTR","Nordstrom 381 3199 West Chandler Boulevard","Chandler","<Missing>","85226","US","<MISSING>","<MISSING>","<MISSING>","<MISSING>","<MISSING>","Closing soon at 21:00"
"https://www.topman.com","TOPMAN CHERRY CREEK","Nordstrom 37 2810 East First Avenue","Denver","<Missing>","80206","US","<MISSING>","<MISSING>","<MISSING>","<MISSING>","<MISSING>","Closing soon at 21:00"
"https://www.topman.com","TOPMAN CITY CREEK","Nordstrom 73 55 South West Temple","Salt Lake City","<Missing>","84101","US","<MISSING>","<MISSING>","<MISSING>","<MISSING>","<MISSING>","Closing soon at 21:00"
"https://www.topman.com","TOPMAN DADELAND","Nordstrom 768 7239 N Kendal Drive","Miami","<Missing>","33156","US","<MISSING>","<MISSING>","<MISSING>","<MISSING>","<MISSING>","Closing soon at 21:30"
"https://www.topman.com","TOPMAN DALLAS GALLERIA","Nordstrom 720 5220 Alpha Road","Dallas","<Missing>","75240","US","<MISSING>","<MISSING>","<MISSING>","<MISSING>","<MISSING>","Closing soon at 21:00"
"https://www.topman.com","TOPMAN DOWNTOWN SEATTLE","Nordstrom 1 500 Pine Street","Seattle","<Missing>","98101","US","<MISSING>","<MISSING>","<MISSING>","<MISSING>","<MISSING>","Closing soon at 21:00"
"https://www.topman.com","TOPMAN DT PORTLAND","Nordstrom 20 701 SW Broadway","?Portland","<Missing>","97205","US","<MISSING>","<MISSING>","<MISSING>","<MISSING>","<MISSING>","Closed today. Opens tomorrow at 10:00"
"https://www.topman.com","TOPMAN EASTON","Nordstrom 234 4000 Worth Ave","Columbus","<Missing>","43219","US","<MISSING>","<MISSING>","<MISSING>","<MISSING>","<MISSING>","Closing soon at 21:00"
"https://www.topman.com","TOPMAN FASHION ISLAND","Nordstrom 333 901 Newport Centre Drive","Newport Beach","<Missing>","92660","US","<MISSING>","<MISSING>","<MISSING>","<MISSING>","<MISSING>","Closing soon at 21:00"
"https://www.topman.com","TOPMAN FASHION VALLEY","Nordstrom 360 6997 Friars Road","San Diego","<Missing>","92108","US","<MISSING>","<MISSING>","<MISSING>","<MISSING>","<MISSING>","Closing soon at 21:00"
"https://www.topman.com","TOPMAN FLATIRON CROSSING","Nordstrom 35 21 West Flatiron Crossing Drive","Broomfield","<Missing>","80021","US","<MISSING>","<MISSING>","<MISSING>","<MISSING>","<MISSING>","Closing soon at 21:00"
"https://www.topman.com","TOPMAN GARDEN STATE","Nordstrom 520 501 Garden State Plaza Paramus","7652","<Missing>","<Missing>","US","<MISSING>","<MISSING>","<MISSING>","<MISSING>","<MISSING>","Closing soon at 21:30"
"https://www.topman.com","TOPMAN GLENDALE","Nordstrom 340 102 Caruso Avenue","Glendale","<Missing>","91210","US","<MISSING>","<MISSING>","<MISSING>","<MISSING>","<MISSING>","Closing soon at 21:00"
"https://www.topman.com","TOPMAN HOUSTON GALLERIA","Nordstrom 730 5192 Hidalgo Street","Houston","<Missing>","77056","US","<MISSING>","<MISSING>","<MISSING>","<MISSING>","<MISSING>","Closing soon at 21:00"
"https://www.topman.com","TOPMAN INTERNATIONAL PLAZA","Nordstrom 765 2223 N Westshore Blvd","Tampa","<Missing>","33607","US","<MISSING>","<MISSING>","<MISSING>","<MISSING>","<MISSING>","Closing soon at 21:00"
"https://www.topman.com","TOPMAN IRVINE SPECTRUM","Nordstrom 330 101 Fortune Drive","Irvine","<Missing>","92618","US","<MISSING>","<MISSING>","<MISSING>","<MISSING>","<MISSING>","Closing soon at 21:00"
"https://www.topman.com","TOPMAN JACKSONVILLE","Nordstrom 789 4835 Town Crossing Drive","Jacksonville","<Missing>","32246","US","<MISSING>","<MISSING>","<MISSING>","<MISSING>","<MISSING>","Closing soon at 21:00"
"https://www.topman.com","TOPMAN KING OF PRUSSIA","Nordstrom 629 190 North Gulph Road","King Of Prussia","<Missing>","19406","US","<MISSING>","<MISSING>","<MISSING>","<MISSING>","<MISSING>","Closing soon at 21:30"
"https://www.topman.com","TOPMAN LA CANTERA","Nordstrom 732 15900 La Cantera Parkway","San Antonio","<Missing>","78256","US","<MISSING>","<MISSING>","<MISSING>","<MISSING>","<MISSING>","Closing soon at 21:00"
"https://www.topman.com","TOPMAN MALL OF AMERICA","Nordstrom 222 1000 NW Court","Bloomington","<Missing>","55425","US","<MISSING>","<MISSING>","<MISSING>","<MISSING>","<MISSING>","Closing soon at 21:30"
"https://www.topman.com","TOPMAN MERRICK PARK","Nordstrom 763 4310 Ponce De Leon Blvd","Coral Gables","<Missing>","33146","US","<MISSING>","<MISSING>","<MISSING>","<MISSING>","<MISSING>","Closing soon at 21:00"
"https://www.topman.com","TOPMAN MICHIGAN AVENUE","Nordstrom 220 55 East Grand Ave","Chicago","<Missing>","60611","US","<MISSING>","<MISSING>","<MISSING>","<MISSING>","<MISSING>","Closing soon at 21:00"
"https://www.topman.com","TOPMAN MISSION VIEJO","Nordstrom 326 100 The Shops at Mission Viejo","Mission Viejo","<Missing>","92691","US","<MISSING>","<MISSING>","<MISSING>","<MISSING>","<MISSING>","Closing soon at 21:00"
"https://www.topman.com","TOPMAN MONTGOMERY MALL","Nordstrom 623 7111 Democracy Boulevard","Bethesda","<Missing>","20817","US","<MISSING>","<MISSING>","<MISSING>","<MISSING>","<MISSING>","Closing soon at 21:30"
"https://www.topman.com","TOPMAN MURRAY","Nordstrom 32 6191 South State Street Suite 200","Murray","<Missing>","84107","US","<MISSING>","<MISSING>","<MISSING>","<MISSING>","<MISSING>","Closing soon at 21:00"
"https://www.topman.com","TOPMAN NATICK","Nordstrom 531 290 Speen Street Natick","1760","<Missing>","<Missing>","US","<MISSING>","<MISSING>","<MISSING>","<MISSING>","<MISSING>","Closing soon at 21:00"
"https://www.topman.com","TOPMAN NORDS WEB CEDAR RAPIDS","Nordstrom 808","<Missing>","<Missing>","<Missing>","US","<MISSING>","<MISSING>","<MISSING>","<MISSING>","<MISSING>","<Missing>"
"https://www.topman.com","TOPMAN NORTH PARK","Nordstrom 723 8687 N Central Expressway","Dallas","<Missing>","75225","US","<MISSING>","<MISSING>","<MISSING>","<MISSING>","<MISSING>","Closing soon at 21:00"
"https://www.topman.com","TOPMAN OAK PARK","Nordstrom 230 11143 West 95th St","Overland Park","<Missing>","66214","US","<MISSING>","<MISSING>","<MISSING>","<MISSING>","<MISSING>","Closing soon at 21:00"
"https://www.topman.com","TOPMAN OAKBROOK","Nordstrom 221 10 Oakbrook Center","Oak Brook","<Missing>","60523","US","<MISSING>","<MISSING>","<MISSING>","<MISSING>","<MISSING>","Closing soon at 21:00"
"https://www.topman.com","TOPMAN OLD ORCHARD","Nordstrom 223 4937 Old Orchard Center","Skokie","<Missing>","60077","US","<MISSING>","<MISSING>","<MISSING>","<MISSING>","<MISSING>","Closing soon at 21:00"
"https://www.topman.com","TOPMAN PALO ALTO","Nordstrom 422 550 Stanford Shopping Center","Palo Alto","<Missing>","94304","US","<MISSING>","<MISSING>","<MISSING>","<MISSING>","<MISSING>","Closing soon at 21:00"
"https://www.topman.com","TOPMAN PARK MEADOWS","Nordstrom 34 8465 Park Meadows Center Drive","Lone Tree","<Missing>","80124","US","<MISSING>","<MISSING>","<MISSING>","<MISSING>","<MISSING>","Closing soon at 21:00"
"https://www.topman.com","TOPMAN PENTAGON","Nordstrom 621 1400 South Hayes Street","Arlington","<Missing>","22202","US","<MISSING>","<MISSING>","<MISSING>","<MISSING>","<MISSING>","Closing soon at 21:00"
"https://www.topman.com","TOPMAN PHIPPS PLAZA","Nordstrom 772 3500 Peachtree Road NE","Atlanta","<Missing>","30326","US","<MISSING>","<MISSING>","<MISSING>","<MISSING>","<MISSING>","Closing soon at 21:00"
"https://www.topman.com","TOPMAN PUERTO RICO","Nordstrom 701 4000 Mall of San Juan Boulevard San Juan","924","<Missing>","<Missing>","US","<MISSING>","<MISSING>","<MISSING>","<MISSING>","<MISSING>","Closed today. Opens tomorrow at 10:00"
"https://www.topman.com","TOPMAN RICHMOND","Nordstrom 635 11812 West Broad Street","Richmond","<Missing>","23233","US","<MISSING>","<MISSING>","<MISSING>","<MISSING>","<MISSING>","Closing soon at 21:00"
"https://www.topman.com","TOPMAN ROOSEVELT","Nordstrom 524 630 Old Country Road","Garden City","<Missing>","11530","US","<MISSING>","<MISSING>","<MISSING>","<MISSING>","<MISSING>","Closing soon at 21:30"
"https://www.topman.com","TOPMAN ROSEVILLE","Nordstrom 434 1131 Galleria Blvd","Roseville","<Missing>","95678","US","<MISSING>","<MISSING>","<MISSING>","<MISSING>","<MISSING>","Closing soon at 21:00"
"https://www.topman.com","TOPMAN ROSS PARK","Nordstrom 237 1000 Ross Park Mall Drive","Pittsburgh","<Missing>","15237","US","<MISSING>","<MISSING>","<MISSING>","<MISSING>","<MISSING>","Closing soon at 21:00"
"https://www.topman.com","TOPMAN SAN FRANCISCO CENTRE","Nordstrom 427 865 Market Street","San Francisco","<Missing>","94103","US","<MISSING>","<MISSING>","<MISSING>","<MISSING>","<MISSING>","Closed today. Opens tomorrow at 10:00"
"https://www.topman.com","TOPMAN SAN JOSE VALLEY FAIR","Nordstrom 425 2400 Forest Avenue","San Jose","<Missing>","95128","US","<MISSING>","<MISSING>","<MISSING>","<MISSING>","<MISSING>","Closing soon at 21:30"
"https://www.topman.com","TOPMAN SANTA ANITA","Nordstrom 345 400 South Baldwin Avenue","Arcadia","<Missing>","91007","US","<MISSING>","<MISSING>","<MISSING>","<MISSING>","<MISSING>","Closing soon at 21:00"
"https://www.topman.com","TOPMAN SANTA MONICA","Nordstrom 353 220 Broadway","Santa Monica","<Missing>","90401","US","<MISSING>","<MISSING>","<MISSING>","<MISSING>","<MISSING>","Closing soon at 21:00"
"https://www.topman.com","TOPMAN SCOTTSDALE","Nordstrom 380 7055 East Camelback Road","Scottsdale","<Missing>","85251","US","<MISSING>","<MISSING>","<MISSING>","<MISSING>","<MISSING>","Closing soon at 21:00"
"https://www.topman.com","TOPMAN SEAFREIGHT RS WH NORDS DC 89","299 CENTRAL STATES DC 5050 CHAVELLE DRIVE 0 0","<Missing>","<Missing>","<Missing>","US","<MISSING>","<MISSING>","<MISSING>","<MISSING>","<MISSING>","<Missing>"
"https://www.topman.com","TOPMAN SEATTLE SOUTH CENTRE","Nordstrom 5 100 Southcenter Mall","Tukwila","<Missing>","98188","US","<MISSING>","<MISSING>","<MISSING>","<MISSING>","<MISSING>","Closing soon at 21:00"
"https://www.topman.com","TOPMAN SHORT HILLS MALL","Nordstrom 527 1200 Morris Turnpike Short Hills","7078","<Missing>","<Missing>","US","<MISSING>","<MISSING>","<MISSING>","<MISSING>","<MISSING>","Closing soon at 21:00"
"https://www.topman.com","TOPMAN SOMERSET NORTH","Nordstrom 228 2850 West Big Beaver Road","Troy","<Missing>","48084","US","<MISSING>","<MISSING>","<MISSING>","<MISSING>","<MISSING>","Closing soon at 21:00"
"https://www.topman.com","TOPMAN SOUTH PARK","Nordstrom 750 4400 Sharon Road","Charlotte","<Missing>","28211","US","<MISSING>","<MISSING>","<MISSING>","<MISSING>","<MISSING>","Closing soon at 21:00"
"https://www.topman.com","TOPMAN SOUTHCOAST","Nordstrom 320 3333 Bristol Street","Costa Mesa","<Missing>","92626","US","<MISSING>","<MISSING>","<MISSING>","<MISSING>","<MISSING>","Closing soon at 21:00"
"https://www.topman.com","TOPMAN SOUTHPOINT","Nordstrom 751 6910 Fayetteville Road Suite 500","Durham","<Missing>","27713","US","<MISSING>","<MISSING>","<MISSING>","<MISSING>","<MISSING>","Closing soon at 21:00"
"https://www.topman.com","TOPMAN ST. LOUIS GALLERIA","Nordstrom 240 1453 St Louis Galleria","St Louis","<Missing>","63117","US","<MISSING>","<MISSING>","<MISSING>","<MISSING>","<MISSING>","Closing soon at 21:00"
"https://www.topman.com","TOPMAN STONERIDGE","Nordstrom 430 1600 Stoneridge Mall Road","Pleasanton","<Missing>","94588","US","<MISSING>","<MISSING>","<MISSING>","<MISSING>","<MISSING>","Closing soon at 21:00"
"https://www.topman.com","TOPMAN STONESTOWN","Nordstrom 426 285 Winston Drive","San Francisco","<Missing>","94132","US","<MISSING>","<MISSING>","<MISSING>","<MISSING>","<MISSING>","Closing soon at 21:00"
"https://www.topman.com","TOPMAN THE OAKS","Nordstrom 348 346 West Hillcrest Drive","Thousand Oaks","<Missing>","91360","US","<MISSING>","<MISSING>","<MISSING>","<MISSING>","<MISSING>","Closing soon at 21:00"
"https://www.topman.com","TOPMAN TOPANGA","Nordstrom 341 21725 Victory Boulevard","Canoga Park","<Missing>","91303","US","<MISSING>","<MISSING>","<MISSING>","<MISSING>","<MISSING>","Closing soon at 21:00"
"https://www.topman.com","TOPMAN TWELVE OAKS","Nordstrom 235 27640 Novi Road","Novi","<Missing>","48377","US","<MISSING>","<MISSING>","<MISSING>","<MISSING>","<MISSING>","Closing soon at 21:00"
"https://www.topman.com","TOPMAN TYSONS CORNER","Nordstrom 600 8075 Tysons Corner Center","McLean","<Missing>","22102","US","<MISSING>","<MISSING>","<MISSING>","<MISSING>","<MISSING>","Closing soon at 21:30"
"https://www.topman.com","TOPMAN WALNUT CREEK","Nordstrom 421 1200 Broadway Plaza","Walnut Creek","<Missing>","94596","US","<MISSING>","<MISSING>","<MISSING>","<MISSING>","<MISSING>","Closing soon at 21:00"
"https://www.topman.com","TOPMAN WASHINGTON SQUARE","Nordstrom 25 9700 SW Washington Square Rd","Tigard","<Missing>","97223","US","<MISSING>","<MISSING>","<MISSING>","<MISSING>","<MISSING>","Closing soon at 21:00"
"https://www.topman.com","TOPMAN WEST COUNTY","Nordstrom 232 47 West County Center","Des Peres","<Missing>","63131","US","<MISSING>","<MISSING>","<MISSING>","<MISSING>","<MISSING>","Closing soon at 21:00"
"https://www.topman.com","TOPMAN WEST FARM","Nordstrom 526 600 Westfarms Mall Farmington","6032","<Missing>","<Missing>","US","<MISSING>","<MISSING>","<MISSING>","<MISSING>","<MISSING>","Closing soon at 21:00"
"https://www.topman.com","TOPMAN WOODFIELD","Nordstrom 225 6 Woodfield Shopping Center","Schaumburg","<Missing>","60173","US","<MISSING>","<MISSING>","<MISSING>","<MISSING>","<MISSING>","Closing soon at 21:00"
"https://www.topman.com","TOPMAN WOODLANDS","Nordstrom 746 1201 Lake Woodlands Drive Suite 1","Woodlands","<Missing>","77380","US","<MISSING>","<MISSING>","<MISSING>","<MISSING>","<MISSING>","Closing soon at 21:00"
