locator_domain,location_name,street_address,city,state,zip,country_code,store_number,phone,location_type,naics_code,latitude,longitude,hours_of_operation
bassett.brickworksoftware.com,,240 Route 17 North,Paramus,NJ,07652,US,3283,(201) 265-4400,Bassett Home Furnishings,,40.92,-74.08,
bassett.brickworksoftware.com,,464 W. Mt. Pleasant Ave.,Livingston,NJ,07039,US,3294,(973) 533-5000,Bassett Home Furnishings,,40.796647,-74.344829,
bassett.brickworksoftware.com,,950 Old Country Road,Garden City,NY,11530,US,5189,(516) 222-0063,Bassett Home Furnishings,,40.7266,-73.6343,
bassett.brickworksoftware.com,,120 South Central Ave,Hartsdale,NY,10530,US,3292,(914) 328-7800,Bassett Home Furnishings,,41.015451,-73.801755,
bassett.brickworksoftware.com,,9 Kanes Lane,Middletown,NJ,07748,US,3214,(732) 671-0400,Bassett Home Furnishings,,40.38581,-74.094501,
bassett.brickworksoftware.com,,292 Route 22,Green Brook,NJ,08812,US,3274,(732) 926-8800,Bassett Home Furnishings,,40.592793,-74.49714,
bassett.brickworksoftware.com,,220 Route 110,Farmingdale,NY,11735,US,3225,(631) 752-2300,Bassett Home Furnishings,,40.7146928,-73.4283053,
bassett.brickworksoftware.com,,10 Route 10 West,Succasunna,NJ,07876,US,27048,(973) 927-7100,HGTV Design Studio,,40.86215,-74.629035,
bassett.brickworksoftware.com,,1100 Post Rd. East,Westport,CT,06880,US,3290,(203) 222-3888,Bassett Home Furnishings,,41.13842,-73.32688,
bassett.brickworksoftware.com,,530 Route 70,Brick,NJ,08723,US,3219,(732) 477-4004,Bassett Home Furnishings,,40.057,-74.153689,
bassett.brickworksoftware.com,,88-1 Dunning Road,Middletown,NY,10940,US,27967,(845) 956-0159,Bassett Home Furnishings,,41.4459,-74.4229,
bassett.brickworksoftware.com,,549 Boston Post Road,Orange,CT,06477,US,3258,(203) 799-2595,Bassett Home Furnishings,,41.252838,-73.019424,
bassett.brickworksoftware.com,,578 Bethlehem Pike,Colmar,PA,18915,US,3268,(215) 996-1550,Bassett Home Furnishings,,40.264166,-75.252748,
bassett.brickworksoftware.com,,1602 West Marlton Pike,Cherry Hill,NJ,08034,US,3267,(856) 795-8680,Bassett Home Furnishings,,39.900999,-74.953335,
bassett.brickworksoftware.com,,611 West DeKalb Pike,King of Prussia,PA,19406,US,7387,(610) 337-1249,Bassett Home Furnishings,,40.087565,-75.382279,
bassett.brickworksoftware.com,,504 State Route 28,Kingston,NY,12401,US,27089,(845) 339-3400,Bassett Independent Retailer,,41.964221,-74.062806,
bassett.brickworksoftware.com,,5938 North Elm Ave.,Millerton,NY,12546,US,27080,(518) 789-3848,Bassett Independent Retailer,,41.952729,-73.512521,
bassett.brickworksoftware.com,,3583 Berlin Turnpike,Newington,CT,06111,US,3257,(860) 666-8666,Bassett Home Furnishings,,41.6979,-72.7237,
bassett.brickworksoftware.com,,6125 East Blackhorse Pike,Egg Harbor Township,NJ,08234,US,27110,(609) 484-2453,HGTV Design Studio,,39.39,-74.56,
bassett.brickworksoftware.com,,5515 Concord Pike,Wilmington,DE,19803,US,3209,(302) 477-3970,Bassett Home Furnishings,,39.832136,-75.5427529,
bassett.brickworksoftware.com,,99 South Main Street,Wilkes-Barre,PA,18701,US,27103,(570) 823-0578,HGTV Design Studio,,41.248021,-75.878038,
bassett.brickworksoftware.com,,4444 New Holland Rd.,Mohnton,PA,19540,US,27927,(610) 777-1326,HGTV Design Studio,,40.264097,-75.951596,
bassett.brickworksoftware.com,,139 Myron Street,West Springfield,MA,01089,US,27164,(413) 739-1101,HGTV Design Studio,,42.133605,-72.631307,
bassett.brickworksoftware.com,,20 East Street,Ludlow,MA,01056,US,27948,(413) 589-9103,HGTV Design Studio,,42.156388,-72.482964,
bassett.brickworksoftware.com,,69 Ceperly Ave,Oneonta,NY,13820,US,27097,(607) 432-7963,HGTV Design Studio,,42.4535,-75.063,
bassett.brickworksoftware.com,,25 Erie Boulevard,Albany,NY,12204,US,27147,(518) 465-3373,HGTV Design Studio,,42.664619,-73.737694,
bassett.brickworksoftware.com,,2230 South Dupont Hwy,Dover,DE,19901,US,26959,(302) 697-7799,HGTV Design Studio,,39.117571,-75.536326,
bassett.brickworksoftware.com,,5078 Jonestown Rd (Rt 22),Harrisburg,PA,17112,US,27925,(717) 233-2955,HGTV Design Studio,,40.310767,-76.804793,
bassett.brickworksoftware.com,,962 Lycoming Mall Drive,Muncy,PA,17756,US,27135,(570) 326-5958,Bassett Independent Retailer,,41.235454,-76.819334,
bassett.brickworksoftware.com,,725 Southbridge St,Worcester,MA,01610,US,26843,(800) 768-6267,Bassett Independent Retailer,,42.239794,-71.816403,
bassett.brickworksoftware.com,,1371 Harwood Hill Rd,Bennington,VT,05201,US,27099,(802) 447-3212,Bassett Independent Retailer,,42.92043,-73.209689,
bassett.brickworksoftware.com,,100 Shawan Rd.,Cockeysville,MD,21030,US,3598,(410) 329-9828,Bassett Home Furnishings,,39.498709,-76.652234,
bassett.brickworksoftware.com,,33 Route 100,West Dover,VT,05356,US,27100,(802) 464-7600,Bassett Independent Retailer,,42.929167,-72.848482,
bassett.brickworksoftware.com,,11151 Trussum Pond Rd,Laurel,DE,19956,US,26958,(888) 875-8955,HGTV Design Studio,,38.550188,-75.555097,
bassett.brickworksoftware.com,,965 Church St,New Bedford,MA,02745,US,26847,(508) 998-3017,Bassett Independent Retailer,,41.69303,-70.942413,
bassett.brickworksoftware.com,,1083 Danby Rd.,Ithaca,NY,14850,US,27090,(607) 272-8811,Bassett Independent Retailer,,42.407547,-76.50259,
bassett.brickworksoftware.com,,1011 Depot St,Manchester,VT,05254,US,27101,(802) 362-3888,Bassett Independent Retailer,,43.1637,-73.0723,
bassett.brickworksoftware.com,,3300 Chambers Road,Horseheads,NY,14845,US,27066,(607) 946-2468,Bassett Independent Retailer,,42.16027,-76.870169,
bassett.brickworksoftware.com,,1906 Town Centre Blvd.,Annapolis,MD,21401,US,3289,(410) 224-0003,Bassett Home Furnishings,,38.981842,-76.5405059,
bassett.brickworksoftware.com,,707 Technology Center Dr,Stoughton,MA,02072,US,3260,(781) 341-6840,Bassett Home Furnishings,,42.148905,-71.065858,
bassett.brickworksoftware.com,,63 Quaker Road,Queensbury,NY,12804,US,27102,(518) 636-0505,HGTV Design Studio,,43.332311,-73.667852,
bassett.brickworksoftware.com,,174 Boylston St,Chestnut Hill,MA,02467,US,3259,(617) 243-9800,Bassett Home Furnishings,,42.320023,-71.174682,
bassett.brickworksoftware.com,,90 Middlesex Turnpike,Burlington,MA,01803,US,3291,(781) 229-2918,Bassett Home Furnishings,,42.478872,-71.218134,
bassett.brickworksoftware.com,,254 Daniel Webster Hwy,Nashua,NH,03060,US,32183,(603) 319-1800,HGTV Design Studio,,42.708542,-71.440803,
bassett.brickworksoftware.com,,2320 Milton Avenue,Solvay,NY,13209,US,27098,(315) 488-2688,HGTV Design Studio,,43.062522,-76.219576,
bassett.brickworksoftware.com,,660 Pleasant View Blvd.,Bellefonte,PA,16823,US,26844,(814) 355-4857,HGTV Design Studio,,40.922806,-77.780611,
bassett.brickworksoftware.com,,154 Nothern Lights Plaza,Syracuse,NY,13212,US,33613,(315) 214-7500,HGTV Design Studio,,43.110107,-76.144175,
bassett.brickworksoftware.com,,1150 Rockville Pike,Rockville,MD,20852,US,3243,(301) 545-5560,Bassett Home Furnishings,,39.0713135,-77.1314707,
bassett.brickworksoftware.com,,100 Routzahns Way,Frederick,MD,21701,US,27002,(301) 698-2450,HGTV Design Studio,,39.4144,-77.4106,
bassett.brickworksoftware.com,,7505 Leesburg Pike,Falls Church,VA,22043,US,3280,(703) 790-0374,Bassett Home Furnishings,,38.902489,-77.2047923,
bassett.brickworksoftware.com,,21315 Windmill Parc Drive,Sterling,VA,20166,US,3295,(703) 444-7283,Bassett Home Furnishings,,39.027738,-77.416091,
bassett.brickworksoftware.com,,3611 Lafayette Rd,Portsmouth,NH,03801,US,27216,(603) 436-9445,HGTV Design Studio,,43.018824,-70.799454,
bassett.brickworksoftware.com,,2134 Plank Road,Duncansville,PA,16635,US,27105,(814) 695-9500,Bassett Independent Retailer,,40.448553,-78.407996,
bassett.brickworksoftware.com,,4 Commerce Drive,Victor,NY,14564,US,3216,(585) 924-8424,Bassett Home Furnishings,,43.020163,-77.440367,
bassett.brickworksoftware.com,,42 North Main Street,Kilamarnock,VA,22482,US,27937,(804) 435-1329,HGTV Design Studio,,37.711779,-76.380432,
bassett.brickworksoftware.com,,1551 Carl D. Silver Parkway,Fredericksburg,VA,22401,US,3244,(540) 785-5080,Bassett Home Furnishings,,38.3033795,-77.5050356,
bassett.brickworksoftware.com,,394 Slab Run Rd.,Falls Creek,PA,15840,US,27021,(814) 371-5920,HGTV Design Studio,,41.143355,-78.790256,
bassett.brickworksoftware.com,,13600 Winchester Road SW,Cumberland,MD,21502,US,27133,(301) 729-3500,HGTV Design Studio,,39.65,-78.76,
bassett.brickworksoftware.com,,802 Railroad Street,St. Johnsbury,VT,05819,US,26994,(802) 748-8725,HGTV Design Studio,,44.424122,-72.014497,
bassett.brickworksoftware.com,,245 Western Avenue,South Portland,ME,04106,US,27943,(207) 775-5150,HGTV Design Studio,,43.638507,-70.322421,
bassett.brickworksoftware.com,,245 Western Ave,South Portland,ME,04106,US,27248,(207) 775-5150,Bassett Independent Retailer,,43.638507,-70.322421,
bassett.brickworksoftware.com,,12090 Jefferson Avenue,Newport News,VA,23606,US,3265,(757) 847-9263,Bassett Home Furnishings,,37.103603,-76.4916669,
bassett.brickworksoftware.com,,3588 US Route 30 East,Latrobe,PA,15650,US,27215,(724) 539-1718,HGTV Design Studio,,40.3212,-79.3795,
bassett.brickworksoftware.com,,424 East Main Street,Malone,NY,12953,US,27038,(518) 483-0114,Bassett Independent Retailer,,44.848552,-74.291906,
bassett.brickworksoftware.com,,11851 West Broad Street,Richmond,VA,23233,US,3266,(804) 364-6038,Bassett Home Furnishings,,37.6527552,-77.6233761,
bassett.brickworksoftware.com,,3755 Sheridan Drive,Amherst,NY,14226,US,3215,(716) 505-2200,Bassett Home Furnishings,,42.9786589,-78.7949869,
bassett.brickworksoftware.com,,83 Lisbon Street,Lisbon,ME,04250,US,27944,(207) 775-5150,HGTV Design Studio,,44.046052,-70.118169,
bassett.brickworksoftware.com,,110 Kegman Rd. West,Chesapeake,VA,23322,US,26840,(757) 482-5175,Bassett Independent Retailer,,36.684466,-76.230609,
bassett.brickworksoftware.com,,148 Front St.,Bath,ME,04530,US,27061,(207) 443-2367,Bassett Independent Retailer,,43.914227,-69.814632,
bassett.brickworksoftware.com,,8003 McKnight Rd,Pittsburgh,PA,15237,US,18187,(412) 366-2000,Bassett Home Furnishings,,40.550938,-80.0196,
bassett.brickworksoftware.com,,406 West Main Street,Waynesboro,VA,22980,US,27020,(888) 997-7663,HGTV Design Studio,,38.068503,-78.88886,
bassett.brickworksoftware.com,,77 Lawless Road,Morgantown,WV,26501,US,27953,(304) 292-7621,HGTV Design Studio,,39.62743,-79.992966,
bassett.brickworksoftware.com,,7200 Peach Street,Erie,PA,16509,US,26975,(814) 868-7125,HGTV Design Studio,,42.050835,-80.093406,
bassett.brickworksoftware.com,,5000 South Croatan Highway #14,Nags Head,NC,27959,US,27175,(252) 480-9200,Bassett Independent Retailer,,35.938632,-75.616936,
bassett.brickworksoftware.com,,Unit #12 - 5205 Harvester Road,Burlington,ON,L7L 6B5,CA,32782,(905) 681-2000,Bassett Independent Retailer,,43.383907,-79.763039,
bassett.brickworksoftware.com,,1052 Independence Blvd.,Bedford,VA,24523,US,27183,(540) 583-5108,Bassett Independent Retailer,,37.3345,-79.5235,
bassett.brickworksoftware.com,,4603 Hwy 301 South,Rocky Mount,NC,27803,US,26853,(252) 977-2325,Bassett Independent Retailer,,35.992415,-77.779905,
bassett.brickworksoftware.com,,689 Wilson Street,Brewer,ME,04412,US,27217,(207) 989-2208,HGTV Design Studio,,44.776054,-68.73288,
bassett.brickworksoftware.com,,1367 Canton Rd.,Akron,OH,44312,US,27156,(330) 733-6221,Bassett Independent Retailer,,41.029255,-81.424536,
bassett.brickworksoftware.com,,432 Talbot Street,St Thomas,ON,N5P 1B9,CA,32783,(519) 631-0410,Bassett Independent Retailer,,42.778668,-81.196432,
bassett.brickworksoftware.com,,4142 Melrose Avenue,Roanoke,VA,24014,US,27936,(540) 266-7420,Bassett Independent Retailer,,37.271,-79.9414,
bassett.brickworksoftware.com,,2115 E. Firetower Rd.,Greenville,NC,27858,US,27210,(252) 758-2513,HGTV Design Studio,,35.568817,-77.348867,
bassett.brickworksoftware.com,,2625 Brick Church Rd,Rocky Mount,VA,24151,US,27182,(540) 334-3876,Bassett Independent Retailer,,37.07643,-79.916681,
bassett.brickworksoftware.com,,101 W. Vance Street,Zebulon,NC,27597,US,27237,(919) 269-7447,HGTV Design Studio,,35.820893,-78.312786,
bassett.brickworksoftware.com,,32730 Walker Road D-1,Avon Lake,OH,44012,US,27197,(440) 930-8800,HGTV Design Studio,,41.5053,-82.0282,
bassett.brickworksoftware.com,,8201 Glenwood Avenue,Raleigh,NC,27612,US,3253,(919) 781-5161,Bassett Home Furnishings,,35.8758931,-78.7318946,
bassett.brickworksoftware.com,,439 Daniels St.,Raleigh,NC,27605,US,3286,(919) 831-4511,Bassett Home Furnishings,,35.7902956,-78.6611649,
bassett.brickworksoftware.com,,901 US Hwy 70,Havelock,NC,28532,US,27113,(252) 447-8101,HGTV Design Studio,,34.911164,-76.93779,
bassett.brickworksoftware.com,,1600 Kanawha Blvd. West,Charleston,WV,25387,US,26868,(304) 345-2001,HGTV Design Studio,,38.366457,-81.665952,
bassett.brickworksoftware.com,,950 East Canal St,Nelsonville,OH,45764,US,26967,(740) 753-3525,HGTV Design Studio,,39.45065,-82.221516,
bassett.brickworksoftware.com,,807 Corbett Avenue Highway 24 West,Swansboro,NC,28584,US,27186,(910) 326-4694,HGTV Design Studio,,34.6877,-77.1191,
bassett.brickworksoftware.com,,1120 Gum Branch Road,Jacksonville,NC,28540,US,32790,(910) 989-0203,Bassett Independent Retailer,,34.77723,-77.41366,
bassett.brickworksoftware.com,,4501 Landover Drive,Greensboro,NC,27407,US,3269,(336) 323-0166,Bassett Home Furnishings,,36.0539861,-79.8957774,
bassett.brickworksoftware.com,,4314 Milan Rd.,Sandusky,OH,44870,US,27196,(419) 626-2512,HGTV Design Studio,,41.417903,-82.670023,
bassett.brickworksoftware.com,,420 East 3rd St,Siler City,NC,27344,US,27087,(919) 742-5515,HGTV Design Studio,,35.726805,-79.458987,
bassett.brickworksoftware.com,,4181 Weaverton Ln.,Columbus,OH,43219,US,32724,(380) 777-6049,Bassett Home Furnishings,,40.055785,-82.907509,
bassett.brickworksoftware.com,,112 Jefferson Avenue,Logan,WV,25601,US,26841,(304) 752-4190,HGTV Design Studio,,37.8488,-81.9932,
bassett.brickworksoftware.com,,5929 Britton Pkwy,Dublin,OH,43016,US,3285,(614) 760-2560,Bassett Home Furnishings,,40.073674,-83.140259,
bassett.brickworksoftware.com,,45490 Utica Park Blvd.,Utica,MI,48315,US,27239,(586) 803-8108,HGTV Design Studio,,42.6261,-83.0335,
bassett.brickworksoftware.com,,14405 Dix Toledo Rd.,Southgate,MI,48195,US,27240,(734) 285-5454,HGTV Design Studio,,42.203277,-83.20552,
bassett.brickworksoftware.com,,3514 South College Rd,Wilmington,NC,28412,US,26957,(910) 799-4010,HGTV Design Studio,,34.179786,-77.89281,
bassett.brickworksoftware.com,,42200 Grand River Ave.,Novi,MI,48375,US,27241,(248) 344-2551,HGTV Design Studio,,42.4806,-83.4755,
bassett.brickworksoftware.com,,3520 North Main,Findlay,OH,45840,US,26837,(419) 424-1757,HGTV Design Studio,,41.08397,-83.650077,
bassett.brickworksoftware.com,,1017 E West Maple,Walled Lake,MI,48390,US,27931,,Bassett Independent Retailer,,42.538551,-83.479335,
bassett.brickworksoftware.com,,199 Hibbard St.,Pikeville,KY,41501,US,27193,(606) 433-0595,Bassett Independent Retailer,,37.473935,-82.526326,
bassett.brickworksoftware.com,,619 West Main St.,Abingdon,VA,24210,US,27155,(276) 628-7341,HGTV Design Studio,,36.710236,-81.975981,
bassett.brickworksoftware.com,,5506 Urbana Rd,Springfield,OH,45502,US,27177,(937) 399-5452,Bassett Independent Retailer,,40.003557,-83.797041,
bassett.brickworksoftware.com,,7830 Lyles Lane,Concord,NC,28027,US,3217,(704) 979-5700,Bassett Home Furnishings,,35.3667798,-80.7135817,
bassett.brickworksoftware.com,,8486 Valley Road,Blowing Rock,NC,28605,US,27107,(828) 295-7755,HGTV Design Studio,,36.135,-81.6778,
bassett.brickworksoftware.com,,7900 Cedar Hill Dr.,Huber Heights,OH,45424,US,27171,(937) 237-2204,Bassett Independent Retailer,,39.866899,-84.099144,
bassett.brickworksoftware.com,,1244 Highway 17 North,Little River,SC,29566,US,27067,(843) 249-1882,HGTV Design Studio,,33.8732,-78.6142,
bassett.brickworksoftware.com,,424 E. Elk Ave,Elizabethton,TN,37643,US,27007,(423) 543-6937,Bassett Independent Retailer,,36.348788,-82.222715,
bassett.brickworksoftware.com,,960 E. Dorothy Lane,Kettering,OH,45419,US,27176,(937) 298-1469,Bassett Independent Retailer,,39.703257,-84.150809,
bassett.brickworksoftware.com,,11700 Carolina Place Parkway,Pineville,NC,28134,US,3270,(704) 540-6353,Bassett Home Furnishings,,35.0747338,-80.8800245,
bassett.brickworksoftware.com,,1740 N. Michigan,Saginaw,MI,48602,US,27185,(989) 754-7428,HGTV Design Studio,,43.431474,-83.949299,
bassett.brickworksoftware.com,,802 36th Avenue S.,N. Myrtle Beach,SC,29582,US,27160,(843) 361-1616,HGTV Design Studio,,33.802724,-78.723827,
bassett.brickworksoftware.com,,909 S Battleground Ave.,Kings Mountain,NC,28086,US,26839,(704) 739-5656,Bassett Independent Retailer,,35.228092,-81.353248,
bassett.brickworksoftware.com,,4775 Marsh Road,Okemos,MI,48864,US,27213,(517) 349-2210,HGTV Design Studio,,42.719536,-84.422081,
bassett.brickworksoftware.com,,12059 Hwy 17 Bypass,Murrell's Inlet,SC,29576,US,27068,(843) 357-9626,HGTV Design Studio,,33.582861,-79.027099,
bassett.brickworksoftware.com,,109 Broadway,Black Mountain,NC,28711,US,27145,(828) 669-5000,HGTV Design Studio,,35.6175856,-82.3221234,
bassett.brickworksoftware.com,,614 E. Coliseum Blvd.,Ft. Wayne,IN,46805,US,26832,(260) 471-4877,HGTV Design Studio,,41.117421,-85.131801,
bassett.brickworksoftware.com,,2950 Richmond Rd. #1,Lexington,KY,40509,US,27140,(859) 269-4393,HGTV Design Studio,,38.0464,-84.497,
bassett.brickworksoftware.com,,1095 Hampton Rd.,Lyman,SC,29365,US,27203,(864) 949-6905,Bassett Independent Retailer,,34.9482,-82.1273,
bassett.brickworksoftware.com,,660 Columbia Ave,Chapin,SC,29036,US,27084,(803) 932-4052,HGTV Design Studio,,34.175882,-81.323631,
bassett.brickworksoftware.com,,1150 Chapin Road,Chapin,SC,29036,US,27046,(803) 932-4022,Bassett Independent Retailer,,34.164467,-81.352187,
bassett.brickworksoftware.com,,5108 Sunset Blvd,Lexington,SC,29072,US,26866,(803) 957-7999,HGTV Design Studio,,34.008556,-81.196373,
bassett.brickworksoftware.com,,773 Haywood Road,Greenville,SC,29607,US,3212,(864) 987-0609,Bassett Home Furnishings,,34.8523568,-82.337031,
bassett.brickworksoftware.com,,1100 East Paris Avenue SE,Grand Rapids,MI,49546,US,27954,(616) 818-4080,HGTV Design Studio,,42.942819,-85.567689,
bassett.brickworksoftware.com,,"1100 East Paris, Suite 1",Grand Rapids,MI,49546,US,26999,(616) 818-4080,HGTV Design Studio,,42.942819,-85.567689,
bassett.brickworksoftware.com,,71  84th Street Southwest,Byron Center,MI,49315,US,27181,(616) 455-3770,HGTV Design Studio,,42.811686,-85.661023,
bassett.brickworksoftware.com,,645 South Highway 27,Somerset,KY,42501,US,27081,(606) 678-2852,HGTV Design Studio,,37.092,-84.6041,
bassett.brickworksoftware.com,,118 West Main Street,Warsaw,IN,45680,US,32173,(574) 267-5940,Bassett Independent Retailer,,41.276067,-85.934816,
bassett.brickworksoftware.com,,204 E. Central Ave,La Follette,TN,37766,US,26987,(423) 562-2293,Bassett Independent Retailer,,36.381389,-84.121227,
bassett.brickworksoftware.com,,1200 E Market St,Nappanee,IN,46550,US,27042,(574) 773-5000,Bassett Independent Retailer,,41.443163,-85.98736,
bassett.brickworksoftware.com,,3620 Chicago Drive,Hudsonville,MI,49426,US,26981,(616) 669-1030,HGTV Design Studio,,42.864011,-85.871616,
bassett.brickworksoftware.com,,217 Goose Creek Blvd S.,Goose Creek,SC,29445,US,27236,(843) 553-4663,HGTV Design Studio,,33.002306,-80.038063,
bassett.brickworksoftware.com,,7591 South US 131,Cadillac,MI,49601,US,27094,(231) 775-8536,HGTV Design Studio,,44.193033,-85.421744,
bassett.brickworksoftware.com,,12941 Shelbyville Road,Louisville,KY,40243,US,3213,(502) 254-7250,Bassett Home Furnishings,,38.244086,-85.513164,
bassett.brickworksoftware.com,,7555 Georgia Highway,Franklin,NC,28734,US,27138,(828) 369-5451,Bassett Independent Retailer,,35.1823,-83.3815,
bassett.brickworksoftware.com,,8600 Allisonville Rd.,Indianapolis,IN,46250,US,26829,(317) 849-5300,HGTV Design Studio,,39.911694,-86.077006,
bassett.brickworksoftware.com,,307 E. Mitchell,Petoskey,MI,49770,US,27928,(231) 347-2942,Bassett Independent Retailer,,45.374243,-84.956848,
bassett.brickworksoftware.com,,9533 Kingston Pike,Knoxville,TN,37922,US,3211,(865) 531-0201,Bassett Home Furnishings,,35.9097691,-84.1016003,
bassett.brickworksoftware.com,,"14299 Clay Terrace Blvd., Suite 100",Carmel,IN,46032,US,32174,(317) 569-0035,Bassett Independent Retailer,,39.995513,-86.128726,
bassett.brickworksoftware.com,,4943 Olive Commerce Drive,Holland,MI,49424,US,26888,(616) 396-2121,HGTV Design Studio,,42.857314,-86.101594,
bassett.brickworksoftware.com,,665 US 31 North,Greenwood,IN,46142,US,26830,(317) 888-1301,HGTV Design Studio,,39.6137,-86.1067,
bassett.brickworksoftware.com,,657 US 31,Traverse City,MI,49685,US,27095,(231) 943-7662,HGTV Design Studio,,44.695984,-85.657388,
bassett.brickworksoftware.com,,10695 US 36,Avon,IN,46123,US,26834,(317) 677-0277,HGTV Design Studio,,39.763762,-86.327687,
bassett.brickworksoftware.com,,7499 Big Bend Road,Martinsville,IN,46151,US,27131,(317) 834-6150,Bassett Independent Retailer,,39.528985,-86.289173,
bassett.brickworksoftware.com,,849 Highway 64 West,Hayesville,NC,28904,US,27130,(828) 389-8472,Bassett Independent Retailer,,35.034597,-83.834937,
bassett.brickworksoftware.com,,3021 River Watch Parkway,Augusta,GA,30907,US,27000,(760) 860-9494,HGTV Design Studio,,33.525624,-82.040219,
bassett.brickworksoftware.com,,24 Holiday Drive,Murphy,NC,28906,US,26850,(828) 837-4608,HGTV Design Studio,,35.0876,-84.0346,
bassett.brickworksoftware.com,,2849 Buick-Cadilac Blvd.,Bloomington,IN,47401,US,26833,(812) 333-1000,HGTV Design Studio,,39.167,-86.5343,
bassett.brickworksoftware.com,,2659 Maple Point Drive,Lafayette,IN,47905,US,26831,(765) 447-7001,HGTV Design Studio,,40.387196,-86.845884,
bassett.brickworksoftware.com,,745 Robert Smalls Parkway Suite 1,Beaufort,SC,29906,US,27229,(843) 524-8695,HGTV Design Studio,,32.401111,-80.760045,
bassett.brickworksoftware.com,,266 Orvin Lance Dr. Suite 104,Blue Ridge,GA,30513,US,26960,(706) 632-8280,HGTV Design Studio,,34.873705,-84.300322,
bassett.brickworksoftware.com,,4220 Atlanta Hwy,Bogart,GA,30622,US,26885,(706) 543-6938,HGTV Design Studio,,33.941168,-83.481525,
bassett.brickworksoftware.com,,12 Archer Road,Hilton Head,SC,29928,US,26977,(843) 785-4400,Bassett Independent Retailer,,32.161504,-80.765715,
bassett.brickworksoftware.com,,208 Matteson Street,Dyer,IN,46311,US,32794,(219) 865-6585,Bassett Independent Retailer,,41.498087,-87.521003,
bassett.brickworksoftware.com,,1010 Commerce Drive,Greensboro,GA,30642,US,27001,(706) 860-9494,Bassett Independent Retailer,,33.457582,-83.24182,
bassett.brickworksoftware.com,,1905 Mall of Georgia Boulevard,Buford,GA,30519,US,3238,(678) 482-5967,Bassett Home Furnishings,,34.0606081,-83.9878683,
bassett.brickworksoftware.com,,1045 Lovers Lane,Bowling Green,KY,42103,US,27008,(270) 780-0376,HGTV Design Studio,,36.9903,-86.4436,
bassett.brickworksoftware.com,,9307 West 178th St.,Tinley Park,IL,60487,US,27165,(708) 444-2655,Bassett Independent Retailer,,41.5734,-87.7845,
bassett.brickworksoftware.com,,15400 La Grange Road,Orland Park,IL,60462,US,27134,(708) 460-4100,HGTV Design Studio,,41.610441,-87.854692,
bassett.brickworksoftware.com,,3222 Glenview Road,Glenview,IL,60025,US,27946,(847) 730-3448,HGTV Design Studio,,42.073552,-87.838219,
bassett.brickworksoftware.com,,2100 Hamilton Place Boulevard,Chattanooga,TN,37421,US,3210,(423) 296-8393,Bassett Home Furnishings,,35.036116,-85.161289,
bassett.brickworksoftware.com,,569 North Milwaukee Avenue,Vernon Hills,IL,60061,US,26862,(847) 281-0050,HGTV Design Studio,,42.236313,-87.939812,
bassett.brickworksoftware.com,,1141 E. Rand Road,Arlington Heights,IL,60004,US,27166,(847) 797-9906,HGTV Design Studio,,42.104832,-87.96978,
bassett.brickworksoftware.com,,7001 118th Avenue,Kenosha,WI,53142,US,26858,(262) 857-3914,HGTV Design Studio,,42.571283,-87.949751,
bassett.brickworksoftware.com,,9191 South 13th Street,Oak Creek,WI,53154,US,26856,(262) 436-8888,HGTV Design Studio,,42.877005,-87.934446,
bassett.brickworksoftware.com,,865 E Belvidere Rd,Grayslake,IL,60030,US,32742,(847) 543-1900,Bassett Independent Retailer,,42.335798,-88.027102,
bassett.brickworksoftware.com,,"120 Perimeter Center West, Suite 400",Atlanta,GA,30346,US,3276,(678) 731-9706,Bassett Home Furnishings,,33.9261302,-84.343039,
bassett.brickworksoftware.com,,"840 Ernest Barrett Parkway, Suite 320",Kennesaw,GA,30144,US,3239,(770) 427-3947,Bassett Home Furnishings,,34.0099008,-84.5748598,
bassett.brickworksoftware.com,,N93 W16677 Richfield Way,Menomonee Falls,WI,53051,US,26861,(262) 436-8888,HGTV Design Studio,,43.1789,-88.1167,
bassett.brickworksoftware.com,,3820 E Morgan Ave,Evansville,IN,47715,US,27040,(812) 476-8787,HGTV Design Studio,,37.99189,-87.502699,
bassett.brickworksoftware.com,,"18 Crystal Lake Plaza, Unit E",Crystal Lake,IL,60014,US,27006,(815) 356-1500,HGTV Design Studio,,42.227311,-88.324887,
bassett.brickworksoftware.com,,W231 N1013 County Road F,Waukesha,WI,53186,US,26857,(262) 436-4659,HGTV Design Studio,,43.0117,-88.2315,
bassett.brickworksoftware.com,,215 North Main Street,Tuscola,IL,61953,US,27942,(217) 253-2142,Bassett Independent Retailer,,39.80052,-88.287412,
bassett.brickworksoftware.com,,2950 Riverside Dr.,Macon,GA,31209,US,26874,(478) 474-1340,HGTV Design Studio,,32.8407,-83.6324,
bassett.brickworksoftware.com,,325 White Bridge Pike,Nashville,TN,37209,US,27137,(615) 352-5912,HGTV Design Studio,,36.146764,-86.859089,
bassett.brickworksoftware.com,,421 West Solomon,Griffin,GA,30224,US,27930,(770) 228-8488,Bassett Independent Retailer,,33.24922,-84.269648,
bassett.brickworksoftware.com,,355 West State Street -  Unit 102,Sycamore,IL,60178,US,27935,(779) 212-0897,HGTV Design Studio,,41.9889,-88.6868,
bassett.brickworksoftware.com,,650 Frazier Drive,Franklin,TN,37067,US,27136,(615) 350-1250,HGTV Design Studio,,35.9252,-86.8689,
bassett.brickworksoftware.com,,315 Allegiance Ct,Appleton,WI,54913,US,27250,(920) 687-6393,Bassett Independent Retailer,,44.2611,-88.4068,
bassett.brickworksoftware.com,,4750 West Grande Market Drive,Appleton,WI,54913,US,26854,(920) 733-1000,HGTV Design Studio,,44.26474,-88.478241,
bassett.brickworksoftware.com,,1891 Ft. Campbell Blvd,Clarksville,TN,37042,US,27062,(931) 645-1340,Bassett Independent Retailer,,36.58935,-87.413678,
bassett.brickworksoftware.com,,3630 Community Road,Brunswick,GA,31520,US,27086,(912) 265-0341,HGTV Design Studio,,31.15,-81.4915,
bassett.brickworksoftware.com,,501 Chancellor Dr,Bloomington,IL,61704,US,27163,(309) 662-7733,HGTV Design Studio,,40.48515,-88.941605,
bassett.brickworksoftware.com,,6651 East State Street,Rockford,IL,61108,US,27005,(815) 636-8608,HGTV Design Studio,,42.267054,-89.056816,
bassett.brickworksoftware.com,,3025 5th Street,Peru,IL,61354,US,27078,(813) 223-6598,HGTV Design Studio,,41.332918,-89.145092,
bassett.brickworksoftware.com,,5215 High Crossing Blvd,Madison,WI,53718,US,26855,(608) 237-1195,HGTV Design Studio,,43.136697,-89.289285,
bassett.brickworksoftware.com,,3002 Memorial Parkway S.W.,Huntsville,AL,35801,US,3222,(256) 880-3000,Bassett Home Furnishings,,34.7018069,-86.5875487,
bassett.brickworksoftware.com,,401 Mary Street,Waycross,GA,31501,US,27955,(912) 283-6350,HGTV Design Studio,,31.210106,-82.359218,
bassett.brickworksoftware.com,,401 Mary Street,Waycross,GA,31501,US,27142,(912) 283-6350,HGTV Design Studio,,31.210106,-82.359218,
bassett.brickworksoftware.com,,2164 West Beltline Highway,Madison,WI,53713,US,26860,(608) 288-5011,HGTV Design Studio,,43.036646,-89.415833,
bassett.brickworksoftware.com,,1112 South 14th Street,Fernandina Beach,FL,32034,US,27209,(904) 261-6333,HGTV Design Studio,,30.684282,-81.449,
bassett.brickworksoftware.com,,200 N Main St,Woodlawn,IL,62898,US,27950,(318) 735-2000,Bassett Independent Retailer,,38.330093,-89.032418,
bassett.brickworksoftware.com,,313 East Main Street,West Frankfort,IL,62896,US,27932,(618) 932-2012,Bassett Independent Retailer,,37.897973,-88.924233,
bassett.brickworksoftware.com,,200 N Main St.,Kewanee,IL,61443,US,27041,(309) 852-5656,HGTV Design Studio,,41.244912,-89.924396,
bassett.brickworksoftware.com,,707 W 2nd St.,Tifton,GA,31794,US,27243,(229) 382-3266,HGTV Design Studio,,31.458235,-83.520448,
bassett.brickworksoftware.com,,2239 KY-121,Mayfield,KY,42066,US,27168,(270) 247-6620,HGTV Design Studio,,36.762046,-88.66266,
bassett.brickworksoftware.com,,217 North Springfield St.,Virden,IL,62690,US,27146,(217) 965-3337,HGTV Design Studio,,39.502846,-89.768561,
bassett.brickworksoftware.com,,2075 Sweets Drive,Carbondale,IL,62902,US,27126,(618) 549-8332,HGTV Design Studio,,37.740354,-89.169393,
bassett.brickworksoftware.com,,1176 Hwy 82 West,Leesburg,GA,31763,US,27244,(229) 432-0766,HGTV Design Studio,,31.7325,-84.1712,
bassett.brickworksoftware.com,,1100 Broadway,Highland,IL,62249,US,32792,(618) 654-7433,HGTV Design Studio,,38.7384,-89.6756,
bassett.brickworksoftware.com,,12575 San Jose Blvd,Jacksonville,FL,32223,US,26964,(904) 880-0090,HGTV Design Studio,,30.139632,-81.632014,
bassett.brickworksoftware.com,,3020 Florence Blvd.,Florence,AL,35634,US,27191,(256) 767-1995,HGTV Design Studio,,34.7998,-87.6773,
bassett.brickworksoftware.com,,3385 N Valdosta Rd.,Valdosta,GA,31602,US,27245,(229) 247-2455,HGTV Design Studio,,30.878181,-83.299281,
bassett.brickworksoftware.com,,6132 Shoger Drive,Edwardsville,IL,62025,US,32791,,HGTV Design Studio,,38.79,-90,
bassett.brickworksoftware.com,,1246 Central Park Drive,O'Fallon,IL,62269,US,27093,(618) 628-2802,HGTV Design Studio,,38.580062,-89.936237,
bassett.brickworksoftware.com,,2970 John Hawkins Parkway,Hoover,AL,35244,US,3287,(205) 988-2180,Bassett Home Furnishings,,33.3704788,-86.8147879,
bassett.brickworksoftware.com,,2310 East Jackson Blvd,Jackson,MO,63755,US,27941,(573) 243-3108,HGTV Design Studio,,37.369172,-89.641505,
bassett.brickworksoftware.com,,1804 West US Highway 90,Lake City,FL,32055,US,27159,(386) 752-9303,Bassett Independent Retailer,,30.18,-82.69,
bassett.brickworksoftware.com,,2845 Highway 45 Bypass,Jackson,TN,38305,US,26978,(731) 664-0900,HGTV Design Studio,,35.690596,-88.858247,
bassett.brickworksoftware.com,,4044 Wetumpka Hwy.,Montgomery,AL,36110,US,27057,(334) 272-3164,HGTV Design Studio,,32.44833,-86.211857,
bassett.brickworksoftware.com,,280 South Yonge St.,Ormond Beach,FL,32174,US,27192,(386) 672-0100,Bassett Independent Retailer,,29.275967,-81.05924,
bassett.brickworksoftware.com,,445 South Yonge Street,Ormond Beach,FL,32174,US,27026,(386) 673-9619,HGTV Design Studio,,29.270998,-81.055332,
bassett.brickworksoftware.com,,2151 US Hwy 319 S,Thomasville,GA,31792,US,27246,(229) 377-1030,HGTV Design Studio,,30.779677,-84.058698,
bassett.brickworksoftware.com,,2676 South Harper Rd,Corinth,MS,38834,US,27044,(662) 696-3000,Bassett Independent Retailer,,34.909037,-88.544122,
bassett.brickworksoftware.com,,111 Highlands Blvd. Dr.,Manchester,MO,63011,US,3227,(636) 527-0011,Bassett Home Furnishings,,38.5940451,-90.5052932,
bassett.brickworksoftware.com,,4850 US Highway 67,Farmington,MO,63640,US,27226,(573) 431-9080,HGTV Design Studio,,37.7809,-90.4218,
bassett.brickworksoftware.com,,3413 SW 47th Avenue,Gainesville,FL,32608,US,26864,(352) 372-1125,HGTV Design Studio,,29.608422,-82.373782,
bassett.brickworksoftware.com,,1109 W. Main St.,Dothan,AL,36301,US,27036,(334) 792-2300,HGTV Design Studio,,31.226077,-85.406256,
bassett.brickworksoftware.com,,11323 Highway 61 South,Hannibal,MO,63401,US,27082,(573) 221-5008,HGTV Design Studio,,39.7086,-91.3587,
bassett.brickworksoftware.com,,2402 SW College Road,Ocala,FL,34471,US,27157,(353) 732-4296,Bassett Independent Retailer,,29.167299,-82.165035,
bassett.brickworksoftware.com,,3402 SW 36th Terrace,Ocala,FL,34474,US,27032,(352) 387-2350,HGTV Design Studio,,29.153782,-82.183905,
bassett.brickworksoftware.com,,3651 CLIFF GOOKIN BLVD,Tupelo,MS,38801,US,26997,(662) 844-5378,HGTV Design Studio,,34.246874,-88.772683,
bassett.brickworksoftware.com,,2600 N. Westwood Blvd,Poplar Bluff,MO,63901,US,27225,(513) 785-1403,HGTV Design Studio,,36.783181,-90.427417,
bassett.brickworksoftware.com,,8880 West Sura Lane,Greenfield,WI,53228,US,26859,(414) 529-6573,HGTV Design Studio,,44.069152,-91.587828,
bassett.brickworksoftware.com,,730 N US HWY 17-92,Longwood,FL,32750,US,27242,(407) 331-0001,HGTV Design Studio,,28.710659,-81.326378,
bassett.brickworksoftware.com,,420 W State Rd 436,Altamonte Springs,FL,32714,US,27023,(407) 331-9619,HGTV Design Studio,,28.6619,-81.3886,
bassett.brickworksoftware.com,,8345 US-441,Leesburg,FL,34788,US,26852,(352) 728-5600,HGTV Design Studio,,28.833313,-81.817618,
bassett.brickworksoftware.com,,11221 East Colonial Dr.,Orlando,FL,32817,US,27035,(407) 210-1848,HGTV Design Studio,,28.568765,-81.219545,
bassett.brickworksoftware.com,,7171 Appling Farms Pkwy,Memphis,TN,38133,US,27076,(901) 260-5900,HGTV Design Studio,,35.18089,-89.826302,
bassett.brickworksoftware.com,,10401 W. Colonial Drive,Ocoee,FL,34761,US,27962,(407) 299-5445,HGTV Design Studio,,28.5525,-81.531934,
bassett.brickworksoftware.com,,1025 Highway 45 Alternate North,Mayhew,MS,39753,US,27091,(662) 492-4382,HGTV Design Studio,,33.48472,-88.63444,
bassett.brickworksoftware.com,,9539 S. Orange Blossom Trail,Orlando,FL,32837,US,27025,(407) 857-3355,HGTV Design Studio,,28.420535,-81.40427,
bassett.brickworksoftware.com,,97 West Gulf to Lake Hwy,Lecanto,FL,34461,US,26992,(352) 527-4406,HGTV Design Studio,,28.857252,-82.436211,
bassett.brickworksoftware.com,,2900 West New Haven Ave.,Melbourne,FL,32904,US,27030,(321) 473-1040,HGTV Design Studio,,28.080032,-80.668411,
bassett.brickworksoftware.com,,5295 Pepperchase Dr.,Southaven,MS,38671,US,27075,(662) 996-1000,HGTV Design Studio,,34.937909,-89.997134,
bassett.brickworksoftware.com,,5036 Hwy 49,Jonesboro,AR,72401,US,26851,(855) 265-2136,HGTV Design Studio,,35.785011,-90.669868,
bassett.brickworksoftware.com,,5141 Mariner Blvd.,Spring Hill,FL,34609,US,26991,(352) 688-4633,HGTV Design Studio,,28.502946,-82.525138,
bassett.brickworksoftware.com,,4725 Horner Road,Jefferson City,MO,65109,US,26968,(573) 893-8361,HGTV Design Studio,,38.579979,-92.276656,
bassett.brickworksoftware.com,,4955 S. Florida Avenue,Lakeland,FL,33813,US,27024,(863) 327-8970,HGTV Design Studio,,27.976174,-81.960351,
bassett.brickworksoftware.com,,11394 US Highway 98 West,Miramar Beach,FL,32550,US,26836,(850) 424-7956,HGTV Design Studio,,30.38489,-86.362438,
bassett.brickworksoftware.com,,3900 NW Federal Highway,Jensen Beach,FL,34957,US,3223,(772) 692-9005,Bassett Home Furnishings,,27.2523052,-80.2778961,
bassett.brickworksoftware.com,,"10150 Hudson Road, Suite 140",Woodbury,MN,55129,US,27051,(651) 202-2900,HGTV Design Studio,,44.944963,-92.90036,
bassett.brickworksoftware.com,,1609 W Brandon Blvd.,Brandon,FL,33511,US,27028,(813) 657-0865,HGTV Design Studio,,27.936789,-82.309756,
bassett.brickworksoftware.com,,8030 North Dale Mabry Hwy,Tampa,FL,33614,US,27031,(813) 314-2033,HGTV Design Studio,,28.021104,-82.507531,
bassett.brickworksoftware.com,,28342 US 19 N,Clearwater,FL,33761,US,27029,(727) 449-0488,HGTV Design Studio,,28.029835,-82.739926,
bassett.brickworksoftware.com,,"1595 Highway 36 W, Space 150",Roseville,MN,55113,US,27050,(651) 636-3800,HGTV Design Studio,,45.012902,-93.170092,
bassett.brickworksoftware.com,,14286 Plymouth Ave. South,Burnsville,MN,55337,US,27054,(952) 435-4050,HGTV Design Studio,,44.743187,-93.273896,
bassett.brickworksoftware.com,,9001 US 19 N,Pinellas Park,FL,33782,US,27033,(727) 329-0088,HGTV Design Studio,,27.854653,-82.693171,
bassett.brickworksoftware.com,,304 Northtown Drive,Blaine,MN,55434,US,27052,(763) 780-4800,HGTV Design Studio,,45.129247,-93.26149,
bassett.brickworksoftware.com,,920 US 82,Greenwood,MS,38930,US,27139,(662) 453-1694,Bassett Independent Retailer,,33.5162,-90.1795,
bassett.brickworksoftware.com,,11668 US Highway 1,Palm Beach Gardens,FL,33408,US,3246,(561) 624-4242,Bassett Home Furnishings,,26.8465083,-80.0592376,
bassett.brickworksoftware.com,,17525 Highway 7,Minnetonka,MN,55345,US,27055,(952) 934-5010,HGTV Design Studio,,44.912734,-93.501703,
bassett.brickworksoftware.com,,10300 Douglas Avenue,Urbandale,IA,50322,US,27115,(515) 633-0777,HGTV Design Studio,,41.628765,-93.759744,
bassett.brickworksoftware.com,,16625 County Road 30,Maple Grove,MN,55311,US,27053,(763) 447-6200,HGTV Design Studio,,45.124569,-93.490354,
bassett.brickworksoftware.com,,210 N. Cattleman Rd. Unit #1,Sarasota,FL,34243,US,32786,(941) 888-6055,Bassett Home Furnishings,,27.39,-82.51,
bassett.brickworksoftware.com,,7745 State Highway 59 South,Foley,AL,36535,US,27170,(251) 955-5151,HGTV Design Studio,,30.4066,-87.6836,
bassett.brickworksoftware.com,,13150 1st Street,Becker,MN,55308,US,27049,(763) 262-9000,HGTV Design Studio,,45.400831,-93.888696,
bassett.brickworksoftware.com,,17701 Murdock Circle,Port Charlotte,FL,33948,US,26846,(941) 625-4493,HGTV Design Studio,,27.01,-82.152277,
bassett.brickworksoftware.com,,3550 North Federal Highway,Fort Lauderdale,FL,33308,US,3277,(954) 565-4488,Bassett Home Furnishings,,26.1714333,-80.1188448,
bassett.brickworksoftware.com,,312 Airport Road,Pearl,MS,39208,US,26973,(601) 936-7910,HGTV Design Studio,,32.2746,-90.132,
bassett.brickworksoftware.com,,11525 Cantrell Rd,Little Rock,AR,72212,US,3221,(501) 217-3860,Bassett Home Furnishings,,34.7919633,-92.4013301,
bassett.brickworksoftware.com,,200 N. 291 Highway,Liberty,MO,64068,US,26881,(816) 781-8002,HGTV Design Studio,,39.246346,-94.445807,
bassett.brickworksoftware.com,,23230 Via Villagio,Estero,FL,33928,US,32766,(239) 221-5271,Bassett Home Furnishings,,26.400105,-81.809681,
bassett.brickworksoftware.com,,1600 NW Chipman Road,Lees Summit,MO,64082,US,26883,(816) 781-8002,HGTV Design Studio,,38.93072,-94.407696,
bassett.brickworksoftware.com,,425 S. Dixie Hwy.,Coral Gables,FL,33146,US,27602,(786) 953-5353,Bassett Home Furnishings,,25.726302,-80.262383,
bassett.brickworksoftware.com,,6801 W 135th St.,Overland Park,KS,66223,US,8920,(913) 839-0200,Bassett Home Furnishings,,38.883667,-94.664287,
bassett.brickworksoftware.com,,6821 W. 135th Street,Overland Park,KS,66223,US,26882,(816) 781-8002,HGTV Design Studio,,38.882057,-94.665252,
bassett.brickworksoftware.com,,1526 East Pass Road,Gulfport,MS,39507,US,3240,(228) 897-9080,Bassett Home Furnishings,,30.4003121,-89.0235039,
bassett.brickworksoftware.com,,3505 North Steele Blvd.,Fayetteville,AR,72703,US,3272,(479) 571-0200,Bassett Home Furnishings,,36.1153186,-94.1578148,
bassett.brickworksoftware.com,,Mile Marker 99,Key Largo,FL,33037,US,26879,(305) 451-5700,Bassett Independent Retailer,,25.1807,-80.3662,
bassett.brickworksoftware.com,,1645 North Hwy 190,Covington,LA,70433,US,32788,(985) 900-2425,HGTV Design Studio,,30.45433,-90.08245,
bassett.brickworksoftware.com,,900 Louisville Avenue,Monroe,LA,71201,US,27149,(318) 325-4520,HGTV Design Studio,,32.512035,-92.114472,
bassett.brickworksoftware.com,,914 Elysian Fields Avenue,New Orleans,LA,70117,US,32787,(504) 947-0606,HGTV Design Studio,,29.96686,-90.05693,
bassett.brickworksoftware.com,,1725 West 41st Street,Sioux Falls,SD,57105,US,26877,(605) 332-4400,HGTV Design Studio,,43.514354,-96.747633,
bassett.brickworksoftware.com,,6001 Overseas Highway,Marathon,FL,33050,US,26878,(305) 743-4397,HGTV Design Studio,,24.71763,-81.07001,
bassett.brickworksoftware.com,,11655 Reiger Road,Baton Rouge,LA,70809,US,3251,(225) 755-0600,Bassett Home Furnishings,,30.3732633,-91.0503909,
bassett.brickworksoftware.com,,3326 N. Roosevelt Blvd,Key West,FL,33040,US,26880,(305) 295-6400,Bassett Independent Retailer,,24.569786,-81.76608,
bassett.brickworksoftware.com,,1101 W. Shawnee,Muskogee,OK,74401,US,27141,(918) 682-9333,Bassett Independent Retailer,,35.769149,-95.376396,
bassett.brickworksoftware.com,,2810 South University Drive South,Fargo,ND,58103,US,27199,(866) 544-6371,Bassett Independent Retailer,,46.836866,-96.798005,
bassett.brickworksoftware.com,,2315 Richmond Rd.,Texarkana,TX,75501,US,27211,(903) 223-4506,HGTV Design Studio,,33.453017,-94.08698,
bassett.brickworksoftware.com,,5003 Masonic Drive,Alexandria,LA,71301,US,27088,(318) 487-8978,Bassett Independent Retailer,,31.269306,-92.469486,
bassett.brickworksoftware.com,,10137 E. 71st Street,Tulsa,OK,74133,US,3220,(918) 254-6618,Bassett Home Furnishings,,36.0640668,-95.8628931,
bassett.brickworksoftware.com,,501 Acadiana Mall Circle,Lafayette,LA,70503,US,3252,(337) 735-1000,Bassett Home Furnishings,,30.166786,-92.077095,
bassett.brickworksoftware.com,,501 Acadiana Mall Circle,Lafayette,LA,70503,US,26983,(337) 735-1234,Bassett Independent Retailer,,30.166791,-92.077101,
bassett.brickworksoftware.com,,10310 E. 13th St. N,Wichita,KS,67206,US,23029,(316) 634-1056,Bassett Home Furnishings,,37.708455,-97.219129,
bassett.brickworksoftware.com,,314 W. Ferguson Rd,Mt. Pleasant,TX,75455,US,27167,(903) 572-9866,HGTV Design Studio,,33.151112,-94.967958,
bassett.brickworksoftware.com,,424 South Main St.,Stillwater,OK,74074,US,27065,(405) 624-3212,HGTV Design Studio,,36.116864,-97.059093,
bassett.brickworksoftware.com,,2000 E. College St.,Lake Charles,LA,70607,US,27951,(337) 562-2000,Bassett Independent Retailer,,30.196473,-93.192568,
bassett.brickworksoftware.com,,"118 2nd Street, SW",Jamestown,ND,58401,US,27200,(866) 307-6442,Bassett Independent Retailer,,46.907793,-98.709705,
bassett.brickworksoftware.com,,106 E. Main St.,Nacogdoches,TX,75961,US,27204,(936) 564-6471,HGTV Design Studio,,31.603464,-94.65586,
bassett.brickworksoftware.com,,530 West Southwest Loop 323,Tyler,TX,75701,US,3237,(903) 561-5719,Bassett Home Furnishings,,32.3030803,-95.306464,
bassett.brickworksoftware.com,,5710 N. Classen Blvd.,Oklahoma City,OK,73118,US,23150,(405) 848-0500,Bassett Home Furnishings,,35.53043,-97.534708,
bassett.brickworksoftware.com,,2018 FM 365,Nederland,TX,77627,US,27952,(409) 772-8100,Bassett Independent Retailer,,29.9744,-93.9924,
bassett.brickworksoftware.com,,6095 Folsom,Beaumont,TX,77706,US,27934,(409) 832-2544,HGTV Design Studio,,30.114274,-94.171262,
bassett.brickworksoftware.com,,8245 Gaylord Pkwy.,Frisco,TX,75034,US,27600,(469) 362-6642,Bassett Home Furnishings,,33.1507,-96.8236,
bassett.brickworksoftware.com,,4528 McKinney Ave.,Dallas,TX,75205,US,3284,(214) 599-8973,Bassett Home Furnishings,,32.8219878,-96.7874792,
bassett.brickworksoftware.com,,2261 East Southlake Blvd.,Southlake,TX,76092,US,3229,(817) 796-8034,Bassett Home Furnishings,,32.9403249,-97.1165759,
bassett.brickworksoftware.com,,180 IH 45 South,Huntsville,TX,77340,US,27010,(936) 295-2514,HGTV Design Studio,,30.713502,-95.565751,
bassett.brickworksoftware.com,,420 East 4th Street,North Platte,NE,69103,US,32804,(308) 532-3550,HGTV Design Studio,,41.13581,-100.75855,
bassett.brickworksoftware.com,,317 East Main Avenue,Bismarck,ND,58501,US,27198,(866) 544-4301,Bassett Independent Retailer,,46.805194,-100.78666,
bassett.brickworksoftware.com,,4630 South Hulen St.,Fort Worth,TX,76132,US,3288,(817) 292-7779,Bassett Home Furnishings,,32.6789042,-97.3951321,
bassett.brickworksoftware.com,,1310 Lake Woodlands Dr.,The Woodlands,TX,77380,US,3231,(281) 465-8176,Bassett Home Furnishings,,30.166068,-95.469706,
bassett.brickworksoftware.com,,4222 Broadway,Galveston,TX,77550,US,27223,(409) 356-4567,HGTV Design Studio,,29.29451,-94.814711,
bassett.brickworksoftware.com,,18734 Gulf Freeway,Friendswood,TX,77546,US,3233,(281) 786-2980,Bassett Home Furnishings,,29.572236,-95.180656,
bassett.brickworksoftware.com,,3625 Southwest Freeway,Houston,TX,77027,US,3230,(281) 840-5352,Bassett Home Furnishings,,29.7285301,-95.4325876,
bassett.brickworksoftware.com,,2515 East Montgomery Pl,Wichita Falls,TX,76308,US,32642,,Bassett Independent Retailer,,33.86279,-98.533858,
bassett.brickworksoftware.com,,15305 Katy Freeway,Houston,TX,77094,US,3232,(281) 616-5479,Bassett Home Furnishings,,29.7835978,-95.6524559,
bassett.brickworksoftware.com,,3920 Bosque Blvd.,Waco,TX,76710,US,26848,(254) 756-0071,HGTV Design Studio,,31.5493,-97.1467,
bassett.brickworksoftware.com,,1052 Canyon Creek Dr,Temple,TX,76502,US,26849,(254) 756-0071,HGTV Design Studio,,31.060172,-97.366453,
bassett.brickworksoftware.com,,1700 West Main Street,Rapid City,SD,57709,US,26998,(605) 343-2000,Bassett Independent Retailer,,44.082166,-103.24655,
bassett.brickworksoftware.com,,7801 Burnet Road,Austin,TX,78757,US,3234,(512) 419-0101,Bassett Home Furnishings,,30.3544286,-97.7303914,
bassett.brickworksoftware.com,,2300 North First,Abilene,TX,79603,US,26867,(325) 673-8354,Bassett Independent Retailer,,32.450586,-99.750993,
bassett.brickworksoftware.com,,5201 N Navarro St,Victoria,TX,77904,US,27945,(361) 703-5290,HGTV Design Studio,,28.84738,-96.9987,
bassett.brickworksoftware.com,,3210 Olton Road,Plainview,TX,79072,US,27111,(806) 293-9401,HGTV Design Studio,,34.1848,-101.7068,
bassett.brickworksoftware.com,,17603 La Cantera Pkwy,San Antonio,TX,78257,US,3235,(210) 641-0101,Bassett Home Furnishings,,29.6093388,-98.5971673,
bassett.brickworksoftware.com,,5858 S. Padre Island Blvd.,Corpus Christi,TX,78412,US,27212,(361) 991-1120,HGTV Design Studio,,27.707342,-97.367489,
bassett.brickworksoftware.com,,1901 W Loop 289 Ste 6,Lubbock,TX,79407,US,27112,(806) 796-3866,Bassett Independent Retailer,,33.576068,-101.94232,
bassett.brickworksoftware.com,,125 SE 14th St,Loveland,CO,80537,US,26825,(970) 461-5790,Bassett Independent Retailer,,40.3978,-105.075,
bassett.brickworksoftware.com,,7854 E County Line Road,LoneTree,CO,80124,US,3263,(303) 592-2525,Bassett Home Furnishings,,39.5650849,-104.8980424,
bassett.brickworksoftware.com,,3212 E. Platte Avenue,Colorado Springs,CO,80909,US,26886,(719) 632-6621,HGTV Design Studio,,38.840377,-104.76887,
bassett.brickworksoftware.com,,901 St. Michael's Dr.,Santa Fe,NM,87505,US,26871,(505) 216-3945,HGTV Design Studio,,35.671892,-105.98095,
bassett.brickworksoftware.com,,3535 Menaul Blvd. NE,Albuquerque,NM,87107,US,26869,(505) 761-3200,HGTV Design Studio,,35.110394,-106.60547,
bassett.brickworksoftware.com,,325 West Gunnison Ave.,Grand Junction,CO,81501,US,3242,(970) 245-4400,Bassett Home Furnishings,,39.072518,-108.573997,
bassett.brickworksoftware.com,,1001 W. Broadway,Farmington,NM,87401,US,26870,(505) 326-3393,HGTV Design Studio,,36.727525,-108.22261,
bassett.brickworksoftware.com,,6801 N. Mesa St. Suite B-11,El Paso,TX,79912,US,25806,(915) 581-2621,Bassett Home Furnishings,,31.83412,-106.54611,
bassett.brickworksoftware.com,,1530 East Lincoln,Idaho Falls,ID,83401,US,27124,(208) 523-1902,HGTV Design Studio,,43.510693,-112.00315,
bassett.brickworksoftware.com,,600 North main Street,Heber City,UT,84032,US,27947,(435) 654-4623,HGTV Design Studio,,40.515884,-111.41232,
bassett.brickworksoftware.com,,2175 N. Main St.,Logan,UT,84341,US,27003,(435) 753-1018,HGTV Design Studio,,41.7313,-111.8349,
bassett.brickworksoftware.com,,1365 Parkway Drive,Blackfoot,ID,83221,US,27123,(208) 785-2030,HGTV Design Studio,,43.19659,-112.36247,
bassett.brickworksoftware.com,,322 West University Parkway,Orem,UT,84058,US,3248,(801) 225-3632,Bassett Home Furnishings,,40.2748221,-111.7028023,
bassett.brickworksoftware.com,,2160 South 300 West,Salt Lake City,UT,84115,US,3262,(801) 994-5241,Bassett Home Furnishings,,40.7235104,-111.900288,
bassett.brickworksoftware.com,,4336 N Oracle Road,Tucson,AZ,85705,US,32699,(520) 989-7137,Bassett Home Furnishings,,32.2848,-110.97614,
bassett.brickworksoftware.com,,390 North Mall Drive,St. George,UT,84790,US,26826,(877) 955-0585,HGTV Design Studio,,37.114909,-113.54159,
bassett.brickworksoftware.com,,15600 North Scottsdale Rd.,Scottsdale,AZ,85254,US,3245,(480) 585-4141,Bassett Home Furnishings,,33.627554,-111.925647,
bassett.brickworksoftware.com,,134 N Cortez,Prescott,AZ,86301,US,33368,,HGTV Design Studio,,34.54321,-112.468932,
bassett.brickworksoftware.com,,7131 W. Ray Rd. Suite #29-30,Chandler,AZ,85226,US,23146,(480) 940-1420,Bassett Home Furnishings,,33.318515,-111.965783,
bassett.brickworksoftware.com,,262 West Hanley Avenue,Coeur D'Alene,ID,83815,US,31725,(208) 772-7553,HGTV Design Studio,,47.729344,-116.7886,
bassett.brickworksoftware.com,,1250 Eagle Rd.,Meridian,ID,83642,US,32175,(208) 893-2053,Bassett Home Furnishings,,43.528487,-116.3543,
bassett.brickworksoftware.com,,815 Main Street,Lewiston,ID,83501,US,26990,(208) 743-8600,HGTV Design Studio,,46.420546,-117.02348,
bassett.brickworksoftware.com,,16023 E Sprague Ave.,Spokane Valley,WA,99037,US,27929,(509) 926-4230,HGTV Design Studio,,47.657834,-117.18844,
bassett.brickworksoftware.com,,2826 N Ruby St.,Spokane,WA,99207,US,27058,(509) 325-1815,Bassett Independent Retailer,,47.684321,-117.41038,
bassett.brickworksoftware.com,,1825 Festival Plaza Dr. #140,Las Vegas,NV,89135,US,3249,(702) 364-2425,Bassett Home Furnishings,,36.151289,-115.3343,
bassett.brickworksoftware.com,,2915 Easy Street,Wenatchee,WA,98801,US,27205,(509) 663-2548,Bassett Independent Retailer,,47.486648,-120.41015,
bassett.brickworksoftware.com,,75-180 Mayfair Drive,Palm Desert,CA,92211,US,27234,(760) 340-0069,Bassett Independent Retailer,,33.743244,-116.3528,
bassett.brickworksoftware.com,,2994 O.B. Riley Road,Bend,OR,97701,US,26970,(541) 382-5900,Bassett Independent Retailer,,44.113352,-121.32277,
bassett.brickworksoftware.com,,2994 O.B. Riley Road,Bend,OR,97701,US,27949,(541) 382-5900,Bassett Independent Retailer,,44.113352,-121.32277,
bassett.brickworksoftware.com,,9025 South Virginia Street,Reno,NV,89511,US,3224,(775) 850-5555,Bassett Home Furnishings,,39.4480911,-119.775733,
bassett.brickworksoftware.com,,303 Front Street,Lynden,WA,98264,US,27043,(360) 354-5554,Bassett Independent Retailer,,48.943263,-122.45052,
bassett.brickworksoftware.com,,5951 South 180th Street,Tukwila,WA,98188,US,3254,(206) 575-8877,Bassett Home Furnishings,,47.4405388,-122.2587243,
bassett.brickworksoftware.com,,32130 Temecula Parkway,Temecula,CA,92592,US,3208,(951) 553-2778,Bassett Home Furnishings,,33.482962,-117.0968369,
bassett.brickworksoftware.com,,1802 62nd Ave E,Tacoma,WA,98424,US,3261,(888) 239-5758,Bassett Home Furnishings,,47.2402229,-122.3484646,
bassett.brickworksoftware.com,,4175 E. Inland Empire Blvd.,Ontario,CA,91764,US,3278,(909) 921-0600,Bassett Home Furnishings,,34.0722112,-117.5610292,
bassett.brickworksoftware.com,,180 Knoll Road,San Marcos,CA,92069,US,3207,(760) 744-2277,Bassett Home Furnishings,,33.1395715,-117.1762285,
bassett.brickworksoftware.com,,"8657 Villa La Jolla Drive, Suite 231",La Jolla,CA,92037,US,26791,(858) 997-1040,Bassett Home Furnishings,,32.864807,-117.23214,
bassett.brickworksoftware.com,,77 Technology W Drive,Irvine,CA,92618,US,3206,(949) 266-5000,Bassett Home Furnishings,,33.6580636,-117.7404508,
bassett.brickworksoftware.com,,11815 NE 113th St. Ste 100,Vancouver,WA,98662,US,27079,(360) 944-1151,Bassett Independent Retailer,,45.703104,-122.5521,
bassett.brickworksoftware.com,,15151 Bangy Rd,Lake Oswego,OR,97035,US,26986,(503) 598-9948,HGTV Design Studio,,45.41646,-122.74331,
bassett.brickworksoftware.com,,1300 Wible Road,Bakersfield,CA,93304,US,27125,(661) 885-8558,HGTV Design Studio,,35.342194,-119.03753,
bassett.brickworksoftware.com,,255 West El Paso,Fresno,CA,93711,US,27214,(559) 440-9601,HGTV Design Studio,,36.845284,-119.79406,
bassett.brickworksoftware.com,,8886 Venice Blvd.,Los Angeles,CA,90034,US,5204,(310) 837-7608,Bassett Home Furnishings,,34.029767,-118.387367,
bassett.brickworksoftware.com,,22850 Hawthorne Blvd,Torrance,CA,90505,US,3282,(310) 378-4001,Bassett Home Furnishings,,33.8196629,-118.3502924,
bassett.brickworksoftware.com,,6344 Topanga Canyon Blvd.,Woodland Hills,CA,91367,US,3293,(818) 593-4101,Bassett Home Furnishings,,34.1858644,-118.6058637,
bassett.brickworksoftware.com,,3850 Hagers Grove Road SE,Salem,OR,97317,US,27108,(503) 378-1793,HGTV Design Studio,,44.911618,-122.98344,
bassett.brickworksoftware.com,,725 Olive St.,Eugene,OR,97401,US,26969,(541) 342-3311,Bassett Independent Retailer,,44.05176,-123.09402,
bassett.brickworksoftware.com,,155 Division Ave.,Eugene,OR,97404,US,27070,(541) 484-1962,Bassett Independent Retailer,,44.099575,-123.12525,
bassett.brickworksoftware.com,,522 Simpson Ave,Hoquiam,WA,98550,US,26996,(360) 532-2434,Bassett Independent Retailer,,46.97675,-123.882568,
bassett.brickworksoftware.com,,9200 Fairway Drive,Roseville,CA,95678,US,3273,(916) 786-5363,Bassett Home Furnishings,,38.78445,-121.2701405,
bassett.brickworksoftware.com,,1701 East Ventura Blvd.,Oxnard,CA,93036,US,27247,(805) 988-0877,HGTV Design Studio,,34.225871,-119.15476,
bassett.brickworksoftware.com,,6435 Crater Lake Hwy,Central Point,OR,97502,US,27073,(541) 830-1110,Bassett Independent Retailer,,42.409521,-122.85686,
bassett.brickworksoftware.com,,3419 Railroad Avenue,Ceres,CA,95307,US,27120,(209) 537-4751,HGTV Design Studio,,37.586889,-120.95368,
bassett.brickworksoftware.com,,1450 W BRANCH ST,ARROYO GRANDE,CA,94320,US,27085,(805) 481-3100,HGTV Design Studio,,35.129677,-120.60246,
bassett.brickworksoftware.com,,7575 Dublin Blvd.,Dublin,CA,94568,US,3250,(925) 560-9800,Bassett Home Furnishings,,37.704767,-121.92926,
bassett.brickworksoftware.com,,3250 Buskirk Avenue,Pleasant Hill,CA,94523,US,3275,(925) 296-0700,Bassett Home Furnishings,,37.9351979,-122.0585963,
bassett.brickworksoftware.com,,1152-20 Blossom Hill Rd,San Jose,CA,95118,US,3281,(408) 978-7330,Bassett Home Furnishings,,37.2490935,-121.87758,
bassett.brickworksoftware.com,,1287 Industrial Road,San Carlos,CA,94070,US,3279,(650) 264-4500,Bassett Home Furnishings,,37.5012484,-122.2452815,
bassett.brickworksoftware.com,,317 Gellert Blvd.,Daly City,CA,94015,US,27922,(650) 608-0220,Bassett Home Furnishings,,37.667575,-122.46709,
bassett.brickworksoftware.com,,700 East Benson Blvd #2,Anchorage,AK,99503,US,27180,(907) 279-3300,HGTV Design Studio,,61.194165,-149.883022,
bassett.brickworksoftware.com,,703 Lower Main St.,"Wailuku, Maui",HI,96793,US,26985,(808) 242-1863,Bassett Independent Retailer,,20.902209,-156.483095,
