locator_domain,location_name,street_address,city,state,zip,country_code,store_number,phone,location_type,naics_code,latitude,longitude,hours_of_operation
www.coach.com,COACH BELLEVUE SQUARE,155 BELLEVUE SQ ,BELLEVUE,WA,98004,,,(425) 453-0141,,,47.6153988,-122.2041461,
www.coach.com,COACH COLUMBIA CENTER,1321 N. COLUMBIA CENTER BLVD. ,KENNEWICK,WA,99336,,,(509) 783-5920,,,46.2260857,-119.2274195,
www.coach.com,COACH PACIFIC PLACE,"600 PINE STREET, SPACE #110 ",SEATTLE,WA,98101,,,(206) 264-0372,,,47.6128349,-122.334921,
www.coach.com,COACH SOUTHCENTER,607 SOUTHCENTER ,SEATTLE,WA,98188,,,(206) 214-0645,,,47.4580872,-122.2591435,
www.coach.com,COACH AUBURN (THE OUTLET COLLECTION/SEATTLE),1101 OUTLET COLLECTION WAY ,AUBURN,WA,98001,,,(253) 288-9960,,,47.29610539999999,-122.2457319,
www.coach.com,COACH CENTRALIA,1310 LUM ROAD ,CENTRALIA,WA,98531,,,(360) 736-2076,,,46.7306585,-122.97729,
www.coach.com,COACH NORTH BEND,661 SOUTH FORK AVENUE SW ,NORTH BEND,WA,98045,,,(425) 888-1188,,,47.4901041,-121.7963622,
www.coach.com,COACH SEATTLE OUTLETS,10600 QUIL CEDA BOULEVARD ,TULALIP,WA,98271,,,(360) 651-0956,,,48.0935599,-122.1877764,
www.coach.com,COACH WASHINGTON,260 FASHION WAY ,BURLINGTON,WA,98233,,,(360) 707-2967,,,48.4570792,-122.3390491,
www.coach.com,AAFES HQ - FT LEWIS,PENDLETON AVE BLDG 5280 ,FORT LEWIS,WA,98433,,,,,,47.0918915,-122.589502,
www.coach.com,AAFES HQ - MCCHORD,BLDG 504 504 BARNES BLVD ,MCCHORD AIR FORCE BASE,WA,98438,,,,,,47.12720179999999,-122.4957805,
www.coach.com,MACY'S INC. - ALDERWOOD,18700 ALDERWOOD MALL BLVD ,LYNNWOOD,WA,98037,,,,,,47.8288339,-122.2715875,
www.coach.com,MACY'S INC. - BELLEVUE SQUARE,400 BELLEVUE SQUARE ,BELLEVUE,WA,98004,,,,,,47.61580240000001,-122.2023689,
www.coach.com,MACY'S INC. - CAPITAL (OLYMPIA),301 CAPITAL MALL ,OLYMPIA,WA,98502,,,,,,47.0398935,-122.9422253,
www.coach.com,MACY'S INC. - COLUMBIA CENTER (WA),400 COLUMBIA CENTER ,KENNEWICK,WA,99336,,,,,,46.2129365,-119.2252405,
www.coach.com,MACY'S INC. - KITSAP (SILVERDALE),10315 SILVERDALE WAY ,SILVERDALE,WA,98383,,,,,,47.6576768,-122.6906121,
www.coach.com,MACY'S INC. - SEATTLE (DOWNTOWN),THIRD AND PINE ,SEATTLE,WA,98101,,,,,,47.610741,-122.338703,
www.coach.com,MACY'S INC. - SOUTH HILL (PUYALLUP),3500 SOUTH MERIDIAN ,PUYALLUP,WA,98373,,,,,,47.1580315,-122.2973003,
www.coach.com,MACY'S INC. - SOUTHCENTER SHOPPING CENTER (WA),500 SOUTHCENTER MALL ,TUKWILA,WA,98188,,,,,,47.459807,-122.259188,
www.coach.com,MACY'S INC. - SPOKANE VALLEY,14740 EAST INDIANA ,SPOKANE,WA,99216,,,,,,47.6724104,-117.204843,
www.coach.com,MACY'S INC. - TACOMA,4502 SOUTH STEELE ,TACOMA,WA,98409,,,,,,47.2160891,-122.4687411,
www.coach.com,MACY'S INC. - VANCOUVER MALL (WA),8208 NE VANCOUVER MALL DRIVE ,VANCOUVER,WA,98662,,,,,,45.657739,-122.5867134,
www.coach.com,MACY'S INC. - YAKIMA VALLEY MALL,2525 MAIN ST ,UNION GAP,WA,98903,,,,,,46.5663923,-120.4798902,
www.coach.com,NAVY EXCHANGE (NEX) - BANGOR MAIN STORE,BLDG 2600-2600 OHIO STREET ,SILVERDALE,WA,98315,,,,,,47.6902628,-122.7057396,
www.coach.com,NAVY EXCHANGE (NEX) - WHIDBEY MAIN SEAPLN,BLDG 17-21110 NO CORAL SEA AVE ,OAK HARBOR,WA,98278,,,,,,48.2867264,-122.6286567,
www.coach.com,NORDSTROM - BELLEVUE SQUARE,100 BELLEVUE SQ. ,BELLEVUE,WA,98004,,,,,,47.6170208,-122.2042894,
www.coach.com,NORDSTROM - SEATTLE (DOWNTOWN),1501 5TH AVE ,SEATTLE,WA,98101,,,,,,47.6107658,-122.335918,
www.coach.com,COACH CHARLOTTESVILLE,1589 RIO RD E ,CHARLOTTESVILLE,VA,22901,,,(434) 964-4693,,,38.0818192,-78.47124869999999,
www.coach.com,COACH FAIR OAKS,11835L FAIR OAKS MALL ,FAIRFAX,VA,22033,,,(703) 591-1771,,,38.862903,-77.3592259,
www.coach.com,COACH PENTAGON - FASHION CENTRE AT PENTAGON CITY,1100 SOUTH HAYES STREET ,ARLINGTON,VA,22202,,,(703) 418-6787,,,38.8632757,-77.0605838,
www.coach.com,COACH TYSONS,8011 TYSONS CORNER CENTER ,MCLEAN,VA,22102,,,(703) 883-1772,,,38.91753629999999,-77.22283449999999,
www.coach.com,COACH TYSONS GALLERIA - TYSON'S GALLERIA,1811G INTERNATIONAL DRIVE ,MCLEAN,VA,22102,,,(571) 633-0197,,,38.923812,-77.2240671,
www.coach.com,COACH BERKELEY COMMONS,5715 RICHMOND ROAD ,WILLIAMSBURG,VA,23188,,,(757) 564-0771,,,37.32192,-76.739468,
www.coach.com,COACH LEESBURG MEN'S,241 FORT EVANS RD. NE ,LEESBURG,VA,20176,,,(703) 737-3705,,,39.1068098,-77.538337,
www.coach.com,COACH LEESBURG OUTLETS,241 FORT EVANS RD. NE ,LEESBURG,VA,20176,,,(703) 771-7881,,,39.1068098,-77.538337,
www.coach.com,COACH NORFOLK,"NORFOLK PREMIUM OUTLETS, UNIT 225 ",NORFOLK,VA,23502,,,(703) 490-6267,,,36.8821008,-76.1993597,
www.coach.com,COACH POTOMAC MILLS,2700 POTOMAC MILLS CIRCLE ,WOODBRIDGE,VA,22192,,,(703) 490-6267,,,38.6433621,-77.29618289999999,
www.coach.com,AAFES HQ - AAFES HQ - DDDC (2502896),231 ENTERPRISE DRIVE ,NEWPORT NEWS,VA,23603,,,,,,37.1796638,-76.57729479999999,
www.coach.com,AAFES HQ - FT BELVOIR,8651 JOHN J KINGMAN BLDG 2321 ,FORT BELVOIR,VA,22060,,,,,,38.72455,-77.1503139,
www.coach.com,AAFES HQ - FT EUSTIS,1386 WASHINGTON BLVD ,FORT EUSTIS,VA,23604,,,,,,37.1584689,-76.5808624,
www.coach.com,AAFES HQ - FT. MYER,BLDG 450 106 MCNAIR STREET ,FORT MYER,VA,22211,,,,,,38.8733487,-77.07925279999999,
www.coach.com,AAFES HQ - LANGLEY,61 SPATZ DR-BLDG 290 ,LANGLEY AIR FORCE BASE,VA,23665,,,,,,37.0747425,-76.36116799999999,
www.coach.com,BELK - CHARLOTTESVILLE FASHION SQUARE,1581 EAST RIO RD ,CHARLOTTESVILLE,VA,22901,,,,,,38.0777868,-78.47525259999999,
www.coach.com,BLOOMINGDALE'S - TYSONS CORNER,RT 7 NEAR CAPITAL BLTWY ,MCLEAN,VA,22101,,,,,,38.90744919999999,-77.2110524,
www.coach.com,DILLARD'S - LYNNHAVEN MALL,701 LYNNHAVEN PARKWAY ,VIRGINIA BEACH,VA,23452,,,,,,36.8162169,-76.0723231,
www.coach.com,DILLARD'S - MACARTHUR CENTER,200 MONTICELLO AVE ,NORFOLK,VA,23510,,,,,,36.848187,-76.2897261,
www.coach.com,DILLARD'S - SHORT PUMP TOWN CENTER,11824 W BROAD STREET ,RICHMOND,VA,23233,,,,,,37.6555998,-77.6167995,
www.coach.com,DILLARD'S - STONY POINT,9208 STONY POINT PARKWAY ,RICHMOND,VA,23235,,,,,,37.5521243,-77.5742779,
www.coach.com,LORD & TAYLOR - FAIR OAKS,11901 FAIR OAKS MALL ,FAIRFAX,VA,22030,,,,,,38.8612828,-77.361988,
www.coach.com,LORD & TAYLOR - TYSONS CORNER CENTER,7950 LEESBURG PIKE ,MCLEAN,VA,22101,,,,,,38.8999149,-77.1984257,
www.coach.com,MACY'S INC. - FAIR OAKS,11901 L FAIR OAKS MALL ,FAIRFAX,VA,22033,,,,,,38.8612828,-77.361988,
www.coach.com,MACY'S INC. - LYNNHAVEN,701 SOUTH LYNNHAVEN PARKWAY ,VIRGINIA BEACH,VA,23452,,,,,,36.8164291,-76.0749742,
www.coach.com,MACY'S INC. - MANASSAS MALL,8270 SUDLEY ROAD ,MANASSAS,VA,20111,,,,,,38.7740283,-77.5042619,
www.coach.com,MACY'S INC. - PENTAGON CITY,1000 SOUTH HAYES STREET ,ARLINGTON,VA,22202,,,,,,38.86448,-77.0598643,
www.coach.com,MACY'S INC. - SHORT PUMP TOWN CENTER,11872 W BROAD STREET ,RICHMOND,VA,23233,,,,,,37.6568947,-77.6220196,
www.coach.com,MACY'S INC. - SPOTSYLVANIA MALL,3102 PLANK ROAD ,FREDERICKSBURG,VA,22407,,,,,,38.2909563,-77.51183089999999,
www.coach.com,MACY'S INC. - SPRINGFIELD MALL (VA),6400 T SPRINGFIELD MALL ,SPRINGFIELD,VA,22150,,,,,,38.773633,-77.172724,
www.coach.com,MACY'S INC. - TYSONS CORNER,1961 CHAIN BRIDGE RD ,MCLEAN,VA,22101,,,,,,38.9186137,-77.2190493,
www.coach.com,MACY'S INC. - TYSONS GALLERIA,1651 INTERNATIONAL DRIVE ,MCLEAN,VA,22102,,,,,,38.925296,-77.225571,
www.coach.com,NAVY EXCHANGE (NEX) - LCREEK MAIN STORE,BLDG 3443-1170 AMPHIBOUS DR ,NORFOLK,VA,23521,,,,,,36.9093656,-76.1552804,
www.coach.com,NAVY EXCHANGE (NEX) - NORF MAIN STORE,BLDG CD13-1560 MALL DRIVE ,NORFOLK,VA,23511,,,,,,36.943089,-76.30871640000001,
www.coach.com,NAVY EXCHANGE (NEX) - OCEANA MAIN STORE,BLDG 292-NAS ,VIRGINIA BEACH,VA,23460,,,,,,36.8015614,-76.0105188,
www.coach.com,NORDSTROM - TYSONS CORNER CENTER,1961 CHAIN BRIDGE ROAD ,MCLEAN,VA,22103,,,,,,38.9170135,-77.22279379999999,
www.coach.com,SAKS FIFTH AVENUE - STONY POINT FASHION PARK,9214 STONYPOINT PARKWAY ,RICHMOND,VA,23235,,,,,,37.549024,-77.57016899999999,
www.coach.com,SAKS FIFTH AVENUE - TYSONS CORNER CENTER,251 INTERNATIONAL DR ,MCLEAN,VA,22102,,,,,,38.9249202,-77.2287588,
www.coach.com,COACH CHRISTIANA MALL,147 CHRISTIANA MALL ,NEWARK,DE,19702,,,(302) 737-4363,,,39.6782774,-75.6527131,
www.coach.com,COACH REHOBOTH - TANGER OUTLET CENTER MIDWAY,34986 MIDWAY OUTLET DRIVE ,REHOBOTH BEACH,DE,19971,,,(302) 644-0155,,,38.7343554,-75.1402394,
www.coach.com,MACY'S INC. - CHRISTIANA MALL,501 CHRISTIANA MALL ,NEWARK,DE,19702,,,,,,39.678007,-75.65354599999999,
www.coach.com,MACY'S INC. - CONCORD MALL,4747 CONCORD PIKE ,WILMINGTON,DE,19803,,,,,,39.822842,-75.544956,
www.coach.com,LORD & TAYLOR - WASHINGTON,5255 WESTERN AVE NW ,WASHINGTON,DC,20015,,,,,,38.9584892,-77.08760339999999,
www.coach.com,MACY'S INC. - METRO CENTER (DC),1201 G ST NW ,WASHINGTON,DC,20005,,,,,,38.8986346,-77.0286872,
www.coach.com,COACH WEST TOWNE MALL,35 WEST TOWNE MALL ,MADISON,WI,53719,,,(608) 824-2207,,,43.0570894,-89.5093181,
www.coach.com,COACH JOHNSON CREEK,622 W. LINMAR LANE ,JOHNSON CREEK,WI,53038,,,(920) 699-4400,,,43.0926521,-88.76317379999999,
www.coach.com,COACH OSHKOSH,3001 S. WASHBURN STREET ,OSHKOSH,WI,54904,,,(920) 231-3106,,,43.9834135,-88.58595,
www.coach.com,COACH PLEASANT PRAIRIE,11601 108TH STREET ,PLEASANT PRAIRIE,WI,53158,,,(262) 857-9391,,,42.5177947,-87.9483377,
www.coach.com,COACH WISCONSIN DELLS,210 GASSER ROAD ,BARABOO,WI,53913,,,(608) 254-7101,,,43.446017,-89.781345,
www.coach.com,BON-TON STORES - BAY PARK MALL,101 BAY PARK SQUARE ,GREEN BAY,WI,54304,,,,,,44.4823673,-88.066914,
www.coach.com,BON-TON STORES - BAY PARK MALL,101 BAY PARK SQUARE ,GREEN BAY,WI,54304,,,,,,44.4823673,-88.066914,
www.coach.com,BON-TON STORES - BAY SHORE,5800 NORTH PORT WAHSINGTON RD ,MILWAUKEE,WI,53217,,,,,,43.1229981,-87.9140461,
www.coach.com,BON-TON STORES - BAY SHORE,5800 NORTH PORT WAHSINGTON RD ,MILWAUKEE,WI,53217,,,,,,43.1229981,-87.9140461,
www.coach.com,BON-TON STORES - BROOKFIELD,15875 WEST BLUEMOUND ,BROOKFIELD,WI,53005,,,,,,43.0342662,-88.109578,
www.coach.com,BON-TON STORES - BROOKFIELD,15875 WEST BLUEMOUND ,BROOKFIELD,WI,53005,,,,,,43.0342662,-88.109578,
www.coach.com,BON-TON STORES - MAYFAIR,2400 N MAYFAIR RD ,MILWAUKEE,WI,53226,,,,,,43.0618925,-88.044586,
www.coach.com,BON-TON STORES - MAYFAIR,2400 N MAYFAIR RD ,MILWAUKEE,WI,53226,,,,,,43.0618925,-88.044586,
www.coach.com,EAST DANE - EAST DANE,4718 HELGESEN DRIVE ,MADISON,WI,53718,,,,,,43.0668441,-89.3005712,
www.coach.com,MACY'S INC. - FOX RIVER (WI),4301 W WISCONSIN AVE ,APPLETON,WI,54915,,,,,,44.2705233,-88.4679402,
www.coach.com,MACY'S INC. - HILLDALE (WI),702 N MIDVALE BLVD ,MADISON,WI,53705,,,,,,43.0733366,-89.4530355,
www.coach.com,MACY'S INC. - MAYFAIR,2500 N MAYFAIR ROAD ,MILWAUKEE,WI,53226,,,,,,43.06383530000001,-88.0445613,
www.coach.com,VON MAUR - THE CORNERS,20005 W BLEMOUND RD ,BROOKFIELD,WI,53045,,,,,,43.034214,-88.162836,
www.coach.com,MACY'S INC. - HUNTINGTON,UNIT # 300 HUNTINGTON MALL ,BARBOURSVILLE,WV,25504,,,,,,38.4214864,-82.2656679,
www.coach.com,COACH ALA MOANA,1450 ALA MOANA BLVD. ,HONOLULU,HI,96814,,,(808) 947-4550,,,21.290491,-157.8448956,
www.coach.com,COACH WAIKIKI,2335 KALAKAUA AVENUE ,HONOLULU,HI,96815,,,(808) 923-0549,,,21.2771844,-157.8275909,
www.coach.com,COACH OUTLETS OF MAUI,900 FRONT STREET ,LAHAINA,HI,96761,,,(808) 661-9202,,,20.8784845,-156.6811092,
www.coach.com,COACH WAIKELE,94-796 LUMIAINA STREET ,WAIPAHU,HI,96797,,,(808) 678-6991,,,21.4002844,-158.0077316,
www.coach.com,COACH WAIKELE MEN'S,94-798 LUMIAINA ST. ,WAIPAHU,HI,96797,,,(808) 677-9888,,,21.4001131,-158.0081142,
www.coach.com,AAFES HQ - HICKAM,BLDG 1235 ,HICKAM AIR FORCE BASE,HI,96853,,,,,,21.3315596,-157.9374589,
www.coach.com,AAFES HQ - SCHOFIELD,BLDG 694 ,SCHOFIELD BARRACKS,HI,96857,,,,,,21.493855,-158.060548,
www.coach.com,BLOOMINGDALE'S - ALA MOANA,1450 ALA MOANA BLVD SUITE 1000 ,HONOLULU,HI,96814,,,,,,21.290491,-157.8448956,
www.coach.com,MACY'S INC. - ALA MOANA (OAHU),1450 ALA MOANA BLVD ,HONOLULU,HI,96814,,,,,,21.290491,-157.8448956,
www.coach.com,MACY'S INC. - KAAHUMANU CENTER (MAUI),275 KAAHUMANU AVENUE ,KAHULUI,HI,96732,,,,,,20.8871323,-156.4749542,
www.coach.com,MACY'S INC. - PEARLRIDGE (OAHU),98-205 KAONOHI STREET ,AIEA,HI,96701,,,,,,21.3851106,-157.9425851,
www.coach.com,MACY'S INC. - WAIKIKI (OAHU),2314 KALAKAUA AVE ,HONOLULU,HI,96815,,,,,,21.2781136,-157.8272348,
www.coach.com,NAVY EXCHANGE (NEX) - PEARL HARBOR MALL,BLDG 631-4725 BOUGAINVILLE DR ,HONOLULU,HI,96818,,,,,,21.3492515,-157.9303655,
www.coach.com,SAKS FIFTH AVENUE - HAWAII,2345 KUHIO AVENUE ,HONOLULU,HI,96815,,,,,,21.2782859,-157.8253554,
www.coach.com,COACH AVENTURA,19501 BISCAYNE BLVD SUITE 139 ,AVENTURA,FL,33180,,,(305) 935-7549,,,25.9572966,-80.14506899999999,
www.coach.com,COACH BOCA RATON,6000 GLADES ROAD ,BOCA RATON,FL,33431,,,(561) 392-7227,,,26.362557,-80.13260869999999,
www.coach.com,COACH BRICKELL CITY CENTRE,701 SOUTH MIAMI AVENUE ,MIAMI,FL,33130,,,(305) 350-7451,,,25.7673386,-80.1932669,
www.coach.com,COACH DADELAND,7535 N KENDALL DRIVE ,MIAMI,FL,33156,,,(305) 668-2946,,,25.6905359,-80.3125034,
www.coach.com,COACH DISNEY SPRINGS,1530 E. BUENA VISTA DRIVE ,ORLANDO,FL,32830,,,(407) 560-0336,,,28.368809,-81.52106859999999,
www.coach.com,COACH FLORIDA MALL,8001 SOUTH ORANGE BLOSSOM #1274A ,ORLANDO,FL,32809,,,(407) 859-6276,,,28.445883,-81.39528349999999,
www.coach.com,COACH INTERNATIONAL PLAZA,2223 N. WEST SHORE BLVD. ,TAMPA,FL,33607,,,(813) 876-5170,,,27.9656353,-82.521205,
www.coach.com,COACH PALM BEACH,3101 PGA BOULEVARD ,PALM BEACH GARDENS,FL,33410,,,(561) 622-1772,,,26.8485218,-80.0853735,
www.coach.com,COACH ST. JOHN'S TOWN CENTER,4813 RIVER CITY DRIVE ,JACKSONVILLE,FL,32246,,,(904) 642-6783,,,30.2538282,-81.52492769999999,
www.coach.com,COACH THE FALLS,"8888 SW 136TH ST, BLDG.S ",MIAMI,FL,33176,,,(305) 232-0901,,,25.6443825,-80.3394789,
www.coach.com,COACH THE MALL AT MILLENIA - MALL AT THE MILLENIA,4200 CONROY ROAD ,ORLANDO,FL,32839,,,(407) 370-3591,,,28.485466,-81.432003,
www.coach.com,COACH DESTIN,10406 W. EMERALD COAST PKWY ,DESTIN,FL,32550,,,(850) 650-2884,,,30.378252,-86.34830649999999,
www.coach.com,COACH DOLPHIN MALL,11401 NW 12TH ST ,MIAMI,FL,33172,,,(305) 351-0189,,,25.7879777,-80.38024,
www.coach.com,COACH FLORIDA CITY,250 EAST PALM DRIVE ,FLORIDA CITY,FL,33034,,,(305) 245-0358,,,25.4517163,-80.47344269999999,
www.coach.com,COACH KEY WEST,517 DUVAL STREET ,KEY WEST,FL,33040,,,(305) 292-2708,,,24.5555316,-81.8023235,
www.coach.com,COACH MIROMAR,10801 CORKSCREW ROAD SPACE #322 ,ESTERO,FL,33928,,,(239) 390-9589,,,26.4364859,-81.77566879999999,
www.coach.com,COACH ORLANDO - PRIME OUTLETS ORLANDO,4965 INTERNATIONAL DR. ,ORLANDO,FL,32819,,,(407) 352-6772,,,28.4741946,-81.45163099999999,
www.coach.com,COACH ORLANDO SOUTH,8200 VINELAND AVENUE ,ORLANDO,FL,32821,,,(407) 465-0555,,,28.3871017,-81.49216009999999,
www.coach.com,COACH ORLANDO SOUTH MEN'S,8200 VINELAND AVENUE ,ORLANDO,FL,32821,,,(407) 239-4673,,,28.3871017,-81.49216009999999,
www.coach.com,COACH PALM BEACH OUTLETS,1751 PALM BEACH LAKES BLVD ,WEST PALM BEACH,FL,33401,,,,,,26.7241295,-80.0880196,
www.coach.com,COACH SANIBEL,20350 SUMMERLINE RD SUITE 2155 ,FORT MYERS,FL,33908,,,(239) 437-1272,,,26.4950577,-81.97425559999999,
www.coach.com,COACH SARASOTA,5601 FACTORY SHOPS BLVD ,ELLENTON,FL,34222,,,(941) 729-7702,,,27.5332474,-82.5066286,
www.coach.com,COACH SAWGRASS MILLS - THE COLONADE,1800 SAWGRASS MILLS CIRCLE ,SUNRISE,FL,33323,,,(954) 837-0298,,,26.1489451,-80.32059749999999,
www.coach.com,COACH ST AUGUSTINE,"2700 STATE RD 16, SUITE 810 ",SAINT AUGUSTINE,FL,32092,,,(904) 823-8881,,,29.9227985,-81.4164156,
www.coach.com,COACH TAMPA,2312 GRAND CYPRESS DRIVE ,LUTZ,FL,33559,,,(813) 279-5926,,,28.1896442,-82.3907809,
www.coach.com,COACH VERO BEACH,1858 94TH DRIVE ,VERO BEACH,FL,32966,,,(772) 567-9805,,,27.6375362,-80.52231379999999,
www.coach.com,AAFES HQ - EGLIN,BLDG 1757 MEMORIAL LAKE TRAIL ,EGLIN AIR FORCE BASE,FL,32542,,,,,,30.4666239,-86.52996010000001,
www.coach.com,AAFES HQ - MACDILL,BLDG926 3108 NBOUNDARY BLVD ,TAMPA,FL,33608,,,,,,27.8623633,-82.4981215,
www.coach.com,AAFES HQ - PATRICK,BLDG 1364 SOUTH PATRICK DR ,PATRICK AIR FORCE BASE,FL,32925,,,,,,28.1737198,-80.60636219999999,
www.coach.com,BLOOMINGDALE'S - AVENTURA,19555 BISCAYNE BLVD ,AVENTURA,FL,33180,,,,,,25.9571093,-80.14432599999999,
www.coach.com,BLOOMINGDALE'S - BOCA RATON,5840 GLADES RD #750 TOWN CTR ,BOCA RATON,FL,33431,,,,,,26.363987,-80.133699,
www.coach.com,BLOOMINGDALE'S - ORLANDO (MILLENIA MALL),MILLENIA BLVD/CONROY ROAD ,ORLANDO,FL,32811,,,,,,28.4899196,-81.42940109999999,
www.coach.com,BLOOMINGDALE'S - PALM BEACH GARDENS,3105 PALM BEACH BLVD ,WEST PALM BEACH,FL,33410,,,,,,26.8492389,-80.0844472,
www.coach.com,BLOOMINGDALE'S - THE FALLS,8778 SW 136TH ST ,MIAMI,FL,33176,,,,,,25.6425808,-80.3363517,
www.coach.com,DILLARD'S - ALTAMONTE MALL,451 E ALTAMONTE DRIVE ,ALTAMONTE SPRINGS,FL,32701,,,,,,28.6666123,-81.3774043,
www.coach.com,DILLARD'S - BRANDON TOWN CENTER,303 BRANDON TOWN CENTER MALL ,BRANDON,FL,33511,,,,,,27.935128,-82.32678899999999,
www.coach.com,DILLARD'S - BROWARD MALL,8000 W BROWARD BLVD SUITE 150 ,PLANTATION,FL,33388,,,,,,26.1181778,-80.2563514,
www.coach.com,DILLARD'S - CITRUS PARK,12950 SHELDONE ROAD ,TAMPA,FL,33625,,,,,,28.066181,-82.5828927,
www.coach.com,DILLARD'S - COCONUT POINT,8017 VIA SARDINIA WAY ,BONITA SPRINGS,FL,34135,,,,,,26.399776,-81.80774199999999,
www.coach.com,DILLARD'S - CORDOVA MALL,5100 NORTH 9TH AVE ,PENSACOLA,FL,32501,,,,,,30.4749009,-87.20896959999999,
www.coach.com,DILLARD'S - COUNTRYSIDE MALL,27001 US HIGHWAY 19 N ,CLEARWATER,FL,33761,,,,,,28.0170827,-82.7341241,
www.coach.com,DILLARD'S - EDISON MALL,4125 CLEVELAND AVE ,FORT MYERS,FL,33901,,,,,,26.6015082,-81.8692164,
www.coach.com,DILLARD'S - GALLERIA (FL),2500 E SUNRISE BLVD ,FORT LAUDERDALE,FL,33304,,,,,,26.1364899,-80.112674,
www.coach.com,DILLARD'S - GOVERNORS SQUARE MALL (FL),1500 APALACHEE PKWY ,TALLAHASSEE,FL,32301,,,,,,30.4366613,-84.25377189999999,
www.coach.com,DILLARD'S - GULF VIEW SQUARE,9409 US HWY 19 ,PORT RICHEY,FL,34668,,,,,,28.2937738,-82.7125162,
www.coach.com,DILLARD'S - INDIAN RIVER,6200  20TH ST ,VERO BEACH,FL,32966,,,,,,27.6421642,-80.4601167,
www.coach.com,DILLARD'S - INTERNATIONAL MALL,2223 NORTH WESTSHORE BOULEVARD ,TAMPA,FL,33607,,,,,,27.9656353,-82.521205,
www.coach.com,DILLARD'S - MALL AT UNIVERSITY TOWN CTR,200 UNIVERSITY TOWN CTR ,SARASOTA,FL,34243,,,,,,27.3822788,-82.4537945,
www.coach.com,DILLARD'S - MARKET PLACE,4414 SW COLLEGE RD SUITE #700 ,OCALA,FL,34474,,,,,,29.13866969999999,-82.19427209999999,
www.coach.com,DILLARD'S - MARKET PLACE,1000 OVIEDO MARKETPLACE BLVD ,OVIEDO,FL,32765,,,,,,28.6617534,-81.2364608,
www.coach.com,DILLARD'S - MELBOURNE SQUARE,1700 WEST NEW HAVEN AVE ,MELBOURNE,FL,32904,,,,,,28.081342,-80.6498598,
www.coach.com,DILLARD'S - MERRITT SQUARE,777 E MERRITT ISLAND CSWY ,MERRITT ISLAND,FL,32952,,,,,,28.3544113,-80.6866119,
www.coach.com,DILLARD'S - NAPLES,1798 TAMIANI TRAIL NORTH ,NAPLES,FL,34102,,,,,,26.1674395,-81.79902799999999,
www.coach.com,DILLARD'S - OAKS MALL,6495 WEST NEWBERRY RD ,GAINESVILLE,FL,32605,,,,,,29.6559536,-82.4116769,
www.coach.com,DILLARD'S - ORANGE PARK MALL,1910 WELLS RD ,ORANGE PARK,FL,32073,,,,,,30.1858012,-81.7354227,
www.coach.com,DILLARD'S - PEMBROKE LAKES MALL,11945 PINES BOULEVARD ,PEMBROKE PINES,FL,33026,,,,,,26.0113322,-80.3058688,
www.coach.com,DILLARD'S - PIER PARK,200 PIER PARK DRIVE ,PANAMA CITY,FL,32405,,,,,,30.2213993,-85.871681,
www.coach.com,DILLARD'S - PORT CHARLOTTE TOWN CENTER,1441 TAMIAMI TRAIL ,PORT CHARLOTTE,FL,33948,,,,,,27.009081,-82.1470547,
www.coach.com,DILLARD'S - SEMINOLE,300 TOWNE CENTER CIRCLE ,SANFORD,FL,32771,,,,,,28.805987,-81.337165,
www.coach.com,DILLARD'S - ST JOHNS TOWN CENTER,4755 TOWN CROSSING DRIVE ,JACKSONVILLE,FL,32246,,,,,,30.2560599,-81.5266202,
www.coach.com,DILLARD'S - THE AVENUES,10300 SOUTHSIDE BLVD ,JACKSONVILLE,FL,32256,,,,,,30.1845197,-81.5540089,
www.coach.com,DILLARD'S - THE FLORIDA MALL,8100 S ORANGE BLOSSOM TRAIL ,ORLANDO,FL,32809,,,,,,28.4479321,-81.40245370000001,
www.coach.com,DILLARD'S - TREASURE COAST SQUARE,3210 NW FEDERAL HWY ,JENSEN BEACH,FL,34957,,,,,,27.241949,-80.276397,
www.coach.com,DILLARD'S - TYRONE SQUARE,6901 22ND AVENUE NORTH ,SAINT PETERSBURG,FL,33710,,,,,,27.7938562,-82.7336004,
www.coach.com,DILLARD'S - VOLUSIA MALL,1700 VOLUSIA AVE ,DAYTONA BEACH,FL,32114,,,,,,29.1969925,-81.064145,
www.coach.com,DILLARD'S - WELLINGTON GREEN,10304 FOREST HILLS BLVD ,WELLINGTON,FL,33414,,,,,,26.648209,-80.210317,
www.coach.com,DILLARD'S - WIREGRASS COMMONS (FL),28335 PASEO DR ,WESLEY CHAPEL,FL,33543,,,,,,28.189374,-82.346808,
www.coach.com,LORD & TAYLOR - BOCA RATON,200 PLAZA REAL ,BOCA RATON,FL,33432,,,,,,26.3528872,-80.0846588,
www.coach.com,MACY'S INC. - ALTAMONTE,451 ALTAMONTE AVE ,ALTAMONTE SPRINGS,FL,32701,,,,,,28.6666123,-81.3774043,
www.coach.com,MACY'S INC. - AVENTURA,19535 BISCAYNE BLVD ,NORTH MIAMI BEACH,FL,33180,,,,,,25.9572316,-80.1466889,
www.coach.com,MACY'S INC. - BOCA RATON TOWN CENTER,5700 W GLADES RD ,BOCA RATON,FL,33431,,,,,,26.3660599,-80.13177100000001,
www.coach.com,MACY'S INC. - BOYNTON BEACH,801 N CONGRESS AVE ,BOYNTON BEACH,FL,33436,,,,,,26.5356804,-80.0957433,
www.coach.com,MACY'S INC. - BRANDON TOWN CENTER,638 BRANDON TOWNCENTER MALL ,BRANDON,FL,33511,,,,,,27.9302839,-82.3260935,
www.coach.com,MACY'S INC. - BROWARD MALL,8000 W BROWARD BLVD ,PLANTATION,FL,33324,,,,,,26.1178886,-80.2547834,
www.coach.com,MACY'S INC. - CITRUS PARK,7801 CITRUS PARK TOWNCENTER ,TAMPA,FL,33625,,,,,,28.0680665,-82.57337629999999,
www.coach.com,MACY'S INC. - CORAL SQUARE,9129 W ATLANTIC BLVD ,CORAL SPRINGS,FL,33071,,,,,,26.2414753,-80.25166709999999,
www.coach.com,MACY'S INC. - COUNTRYSIDE,27001 US 19 N ,CLEARWATER,FL,33761,,,,,,28.0170827,-82.7341241,
www.coach.com,MACY'S INC. - DADELAND,7303 SW 88TH ST ,MIAMI,FL,33143,,,,,,25.6896872,-80.3116529,
www.coach.com,MACY'S INC. - FLORIDA MALL,8001 S ORANGE BLOSSOM TRAIL ,ORLANDO,FL,32809,,,,,,28.445883,-81.39528349999999,
www.coach.com,MACY'S INC. - FORT MYERS EDISON,4125 CLEVELAND AVE ,FORT MYERS,FL,33901,,,,,,26.6015082,-81.8692164,
www.coach.com,MACY'S INC. - GALLERIA (FL),2314 E SUNRISE BLVD ,FORT LAUDERDALE,FL,33304,,,,,,26.1369965,-80.1156864,
www.coach.com,MACY'S INC. - MELBOURNE SQUARE,1700 W NEW HAVEN AVENUE ,MELBOURNE,FL,32904,,,,,,28.081342,-80.6498598,
www.coach.com,MACY'S INC. - MIAMI INTERNATIONAL,1245 NW 107TH AVE ,MIAMI,FL,33172,,,,,,25.781998,-80.36864589999999,
www.coach.com,MACY'S INC. - ORLANDO MILLENIA (FL),4298 MILLENIA BLVDORLANDO ,ORLANDO,FL,32839,,,,,,28.4872029,-81.4332206,
www.coach.com,MACY'S INC. - PEMBROKE LAKES,11605 PINES BLVD ,PEMBROKE PINES,FL,33026,,,,,,26.0107878,-80.3012883,
www.coach.com,MACY'S INC. - THE GARDENS (FL),3107 PGA BLVD ,PALM BEACH GARDENS,FL,33410,,,,,,26.8472104,-80.0854443,
www.coach.com,MACY'S INC. - TYRONE SQUARE,6901 22ND AVE N ,SAINT PETERSBURG,FL,33710,,,,,,27.7938562,-82.7336004,
www.coach.com,MACY'S INC. - UNIVERSITY TOWN CENTER,110 UNIVERSITY TOWN CTR DR ,SARASOTA,FL,34243,,,,,,27.386383,-82.4531037,
www.coach.com,MACY'S INC. - WELLINGTON GREEN,10316 FOREST HILL BLVD ,WEST PALM BEACH,FL,33414,,,,,,26.6510512,-80.20905979999999,
www.coach.com,MACY'S INC. - WEST SHORE PLAZA,298 WESTSHORE PLAZA ,TAMPA,FL,33609,,,,,,27.9479056,-82.5282024,
www.coach.com,MACY'S INC. - WESTLAND (FL),1777 W 49TH STREET ,HIALEAH,FL,33012,,,,,,25.8682931,-80.3204402,
www.coach.com,MACY'S INC. - WIREGRASS COMMONS (FL),28233 PASEO DRIVE ,WESLEY CHAPEL,FL,33543,,,,,,28.1883506,-82.3496466,
www.coach.com,MAJOR LEAGUE BASEBALL - MAJOR LEAGUE BASEBALL,5245 COMMONWEALTH AVE ,JACKSONVILLE,FL,32254,,,,,,30.3366118,-81.7362244,
www.coach.com,NAVY EXCHANGE (NEX) - JAXS MAIN STORE,BLDG 987-NAS BOX 104 ,JACKSONVILLE,FL,32212,,,,,,30.2363958,-81.6808444,
www.coach.com,NAVY EXCHANGE (NEX) - MAYPORT MAIN ST/OPTL,BLDG 1900-2292 MAYPORT RD #50 ,ATLANTIC BEACH,FL,32233,,,,,,30.3503522,-81.41532049999999,
www.coach.com,NAVY EXCHANGE (NEX) - NAVY.COM,CUNNINGHAM ST BLDG # 781B ,PENSACOLA,FL,32508,,,,,,30.364458,-87.274165,
www.coach.com,NAVY EXCHANGE (NEX) - ORLANDO MCCOY ST,BLDG 7151-7151 EARHEART DRIVE ,ORLANDO,FL,32827,,,,,,28.4392469,-81.3362565,
www.coach.com,NAVY EXCHANGE (NEX) - PENSACOLA MAIN ST,BLDG 3725-5600 HIGHWAY 98 WEST ,PENSACOLA,FL,32507,,,,,,30.4021571,-87.2884086,
www.coach.com,NORDSTROM - DADELAND,7239 SW 88TH STREET ,MIAMI,FL,33156,,,,,,25.6897188,-80.31022779999999,
www.coach.com,SAKS FIFTH AVENUE - SARASOTA,120 UNIVERSITY TWN CNTR DR ,SARASOTA,FL,34243,,,,,,27.3845831,-82.4529072,
www.coach.com,COACH PHEASANT LANE,310 DANIEL WEBSTER HWY ,NASHUA,NH,03060,,,(603) 888-2876,,,42.70101700000001,-71.4369865,
www.coach.com,COACH ROCKINGHAM PARK,99 ROCKINGHAM PARK BLVD. ,SALEM,NH,03079,,,(603) 898-3426,,,42.7673046,-71.2308602,
www.coach.com,COACH CONWAY,2 COMMON COURT ,NORTH CONWAY,NH,03860,,,(603) 356-3295,,,44.0233919,-71.1133706,
www.coach.com,COACH MERRIMACK,80 PREMIUM OUTLETS BLVD ,MERRIMACK,NH,03054,,,(603) 424-6543,,,42.8257726,-71.5009441,
www.coach.com,COACH TILTON - TANGER OUTLETS TILTON,120 LACONIA ROAD ,TILTON,NH,03276,,,(603) 286-9401,,,43.458095,-71.5636335,
www.coach.com,MACY'S INC. - FOX RUN,50 FOX RUN ROAD ,NEWINGTON,NH,3801,,,,,,43.098097,-70.8041909,
www.coach.com,MACY'S INC. - NASHUA - PHEASANT NH,324 DANIELLE WEBSTER HWY ,NASHUA,NH,3063,,,,,,42.7030779,-71.4409007,
www.coach.com,MACY'S INC. - SALEM - ROCKINGHAM,99 ROCKINGHAM PARK BLVD ,SALEM,NH,3079,,,,,,42.7673046,-71.2308602,
www.coach.com,COACH CHERRY HILL,2000 ROUTE 38 ,CHERRY HILL,NJ,08002,,,(856) 488-2220,,,39.94086,-75.02570159999999,
www.coach.com,COACH DEPTFORD MALL,1750 DEPTFORD CENTER ROAD ,DEPTFORD,NJ,08096,,,(856) 686-5738,,,39.8314319,-75.09782489999999,
www.coach.com,COACH GARDEN STATE PLAZA,ROUTE 4 & 17 ,PARAMUS,NJ,07652,,,(201) 587-1442,,,40.909474,-74.0369832,
www.coach.com,COACH NEWPORT CENTRE,30 MALL DRIVE WEST ,JERSEY CITY,NJ,07310,,,(201) 798-1391,,,40.7273145,-74.0378613,
www.coach.com,COACH OCEAN COUNTY MALL,1201 HOOPER AVENUE ,TOMS RIVER,NJ,08753,,,(732) 244-1726,,,39.9804225,-74.17923139999999,
www.coach.com,COACH QUAKER BRIDGE MALL,139 QUAKER BRIDGE MALL ,LAWRENCEVILLE,NJ,08648,,,(609) 275-7327,,,40.2913317,-74.6849684,
www.coach.com,COACH RIVERSIDE,1 RIVERSIDE SQUARE SPACE 137 ,HACKENSACK,NJ,07601,,,(201) 487-1772,,,40.9057617,-74.0298057,
www.coach.com,COACH ROCKAWAY,ROUTE 80 & MOUNT HOPE AVENUE ,ROCKAWAY,NJ,07866,,,(973) 361-3486,,,40.9087035,-74.5548405,
www.coach.com,COACH SHORT HILLS - THE MALL AT SHORT HILLS,1200 MORRIS TURNPIKE ,SHORT HILLS,NJ,07078,,,(973) 376-2747,,,40.7408743,-74.3642457,
www.coach.com,COACH THE GROVE,"569 ROUTE 35, SUITE N12 ",SHREWSBURY,NJ,07702,,,(732) 219-7007,,,40.3328527,-74.0610209,
www.coach.com,COACH THE PROMENADE @ SAGEMORE,500 ROUTE 73 SOUTH ,MARLTON,NJ,08053,,,(856) 985-5474,,,39.8788271,-74.919718,
www.coach.com,COACH WAYNE,1400 WILLOWBROOK MALL ,WAYNE,NJ,07470,,,(973) 256-1992,,,40.8887069,-74.2593816,
www.coach.com,COACH ATLANTIC CITY,45 NORTH ARKANSAS AVENUE ,ATLANTIC CITY,NJ,08401,,,(609) 345-1238,,,39.359801,-74.4378551,
www.coach.com,COACH GLOUCESTER,100 PREMIUM OUTLETS DRIVE ,BLACKWOOD,NJ,08012,,,(732) 928-4135,,,39.7848289,-75.0528629,
www.coach.com,COACH JACKSON PREMIUM OUTLETS,537 MONMOUTH ROAD ,JACKSON,NJ,08527,,,(732) 928-4135,,,40.1616983,-74.41735160000002,
www.coach.com,COACH JERSEY GARDENS,651 KAPKOWSKI ROAD ,ELIZABETH,NJ,07201,,,(908) 558-1384,,,40.6601883,-74.1713372,
www.coach.com,COACH JERSEY GARDENS MEN'S,651 KAPKOWSKI ROAD ,ELIZABETH,NJ,07201,,,(908) 820-0184,,,40.6601883,-74.1713372,
www.coach.com,COACH JERSEY SHORE,1 PREMIUM OUTLETS BLVD. ,TINTON FALLS,NJ,07753,,,(732) 918-0761,,,40.2243048,-74.0942116,
www.coach.com,COACH LIBERTY VILLAGE PREMIUM OUTLETS,1 CHURCH STREET ,FLEMINGTON,NJ,08822,,,(908) 788-6984,,,40.505081,-74.861682,
www.coach.com,AAFES HQ - FT. DIX MCGUIRE,BLDG 3452 BROIDY ROAD ,MCGUIRE AIR FORCE BASE,NJ,8641,,,,,,40.0270745,-74.61640729999999,
www.coach.com,ASL INDUSTRIES INC. - SASL C/O AMS LOGISTICS,268 MARTIN LUTHER KING ,MORRISTOWN,NJ,7960,,,,,,40.810742,-74.47326090000001,
www.coach.com,BLOOMINGDALE'S - BERGEN COUNTY,400 HACKENSACK AVE ,HACKENSACK,NJ,7601,,,,,,40.9070556,-74.0311416,
www.coach.com,BLOOMINGDALE'S - SHORT HILLS,THE MALL AT SHORT HILLS ,SHORT HILLS,NJ,7078,,,,,,40.7397714,-74.3641785,
www.coach.com,BLOOMINGDALE'S - WILLOWBROOK MALL,1400 WILLOWBROOK MALL ,WAYNE,NJ,7470,,,,,,40.9257313,-74.2765872,
www.coach.com,BRAND HQ - BRAND HQ,268 MARTIN LUTHER KING ,MORRISTOWN,NJ,7960,,,,,,40.810742,-74.47326090000001,
www.coach.com,LORD & TAYLOR - BRIDGEWATER COMMONS,440 COMMONS WAY ,BRIDGEWATER,NJ,8807,,,,,,40.58486630000001,-74.6132617,
www.coach.com,LORD & TAYLOR - FREEHOLD RACEWAY MALL,3710 HIGHWAY 9 SUITE 1500 ,FREEHOLD,NJ,7728,,,,,,40.2546296,-74.298621,
www.coach.com,LORD & TAYLOR - GARDEN STATE PLAZA,RT 4 AND RT 17 ,PARAMUS,NJ,7652,,,,,,40.909474,-74.0369832,
www.coach.com,LORD & TAYLOR - LIVINGSTON MALL,111 EISENHOWER PKWY ,LIVINGSTON,NJ,7039,,,,,,40.7766589,-74.3533248,
www.coach.com,LORD & TAYLOR - MONMOUTH MALL,RT 35 & 36 ,EATONTOWN,NJ,7724,,,,,,40.29073770000001,-74.0519967,
www.coach.com,LORD & TAYLOR - QUAKERBRIDGE MALL,RT 1 AT QUAKERBRIDGE RD ,TRENTON,NJ,8648,,,,,,40.2635003,-74.718764,
www.coach.com,LORD & TAYLOR - RIDGEWOOD,RIDGEWOOD AVE ,PARAMUS,NJ,7652,,,,,,40.9701214,-74.0846967,
www.coach.com,LORD & TAYLOR - ROCKAWAY TOWN SQUARE,RT 80 & MT HOPE MALL ,ROCKAWAY,NJ,7866,,,,,,40.9071143,-74.5539608,
www.coach.com,LORD & TAYLOR - WESTFIELD (NJ),609 NORTH AVE ,WESTFIELD,NJ,7090,,,,,,40.6524493,-74.3313653,
www.coach.com,LORD & TAYLOR - WILLOWBROOK MALL (NJ),4 WILLOWBROOK MALL ,LYNDHURST,NJ,7071,,,,,,40.8896408,-74.2597545,
www.coach.com,LORD & TAYLOR - WOODBRIDGE,198 WOODBRIDGE CENTER DRIVE ,WOODBRIDGE,NJ,7095,,,,,,40.5535157,-74.29960539999999,
www.coach.com,MACY'S INC. - BRIDGEWATER COMMONS,400 COMMONS WAY ,BRIDGEWATER,NJ,8807,,,,,,40.5863872,-74.6199134,
www.coach.com,MACY'S INC. - CHERRY HILL MALL,RT 38 & HADDONFIELD ROAD ,CHERRY HILL,NJ,8002,,,,,,39.9501682,-75.027687,
www.coach.com,MACY'S INC. - DEPTFORD MALL,1750 ALMONESSON ROAD ,DEPTFORD,NJ,8096,,,,,,39.8314436,-75.0978234,
www.coach.com,MACY'S INC. - FREEHOLD RACEWAY MALL,3710 RT 9 SUITE G214 ,FREEHOLD,NJ,7728,,,,,,40.2546296,-74.298621,
www.coach.com,MACY'S INC. - GARDEN STATE PLAZA,GARDEN STATE PLAZA ,PARAMUS,NJ,7652,,,,,,40.9176808,-74.0768483,
www.coach.com,MACY'S INC. - HAMILTON MALL (NJ),100 BLACK HORSE PIKE ,MAYS LANDING,NJ,8330,,,,,,39.892834,-75.0891608,
www.coach.com,MACY'S INC. - JERSEY CITY - NEWPORT NJ,200 MALL DRIVE EAST ,JERSEY CITY,NJ,7310,,,,,,40.7263782,-74.03705200000002,
www.coach.com,MACY'S INC. - MENLO PARK,275 MENLO PARK ,EDISON,NJ,8837,,,,,,40.5451883,-74.3368967,
www.coach.com,MACY'S INC. - MONMOUTH MALL,MONMOUTH SHOPPING CENTER ,EATONTOWN,NJ,7724,,,,,,40.2876987,-74.05608269999999,
www.coach.com,MACY'S INC. - OCEAN COUNTY MALL,1201 HOOPER AVENUE ,TOMS RIVER,NJ,8753,,,,,,39.9804225,-74.17923139999999,
www.coach.com,MACY'S INC. - PARAMUS PARK,100 PARAMUS PARK ,PARAMUS,NJ,7652,,,,,,40.9566715,-74.0688646,
www.coach.com,MACY'S INC. - QUAKER BRIDGE MALL,STATE HWY 533 & US RT 1 ,LAWRENCEVILLE,NJ,8648,,,,,,36.026137,-78.51379,
www.coach.com,MACY'S INC. - ROCKAWAY TOWN SQUARE,303 MOUNT HOPE AVENUE ,ROCKAWAY,NJ,7866,,,,,,40.9007364,-74.5460866,
www.coach.com,MACY'S INC. - SHORT HILLS,1220 MORRIS TURNPIKE ,SHORT HILLS,NJ,7078,,,,,,40.7380907,-74.3652484,
www.coach.com,MACY'S INC. - WILLOWBROOK MALL (NJ),100 ROUTE 46 ,WAYNE,NJ,7470,,,,,,40.890352,-74.2579145,
www.coach.com,MACY'S INC. - WOODBRIDGE CENTER,ROUTE 1 & 9 ,WOODBRIDGE,NJ,7095,,,,,,40.5725663,-74.2905869,
www.coach.com,RAYJACK LLC - RAYJACK LLC,500 INDUSTRIAL AVENUE ,TETERBORO,NJ,7608,,,,,,40.8522486,-74.0692411,
www.coach.com,RYMAX MARKETING SERVICES - RYMAX,19 CHAPING RD BLDG B ,PINE BROOK,NJ,7058,,,,,,40.8553481,-74.33798039999999,
www.coach.com,COACH SANTA FE,8380 CERRILLOS RD ,SANTA FE,NM,87507,,,(505) 473-1777,,,35.6112561,-106.0321378,
www.coach.com,DILLARD'S - ANIMAS VALLEY MALL,4601 EAST MAIN ST ,FARMINGTON,NM,87402,,,,,,36.7626831,-108.1506494,
www.coach.com,DILLARD'S - COTTONWOOD,10000 COORS BYPASS ,ALBUQUERQUE,NM,87114,,,,,,35.1982569,-106.6569471,
www.coach.com,DILLARD'S - MESILLA VALLEY MALL,700 S. TELSHOR BLVD ,LAS CRUCES,NM,88001,,,,,,32.3106108,-106.7431832,
www.coach.com,DILLARD'S - WINROCK,2100 LOUISIANA BOULEVARD NE ,ALBUQUERQUE,NM,87110,,,,,,35.0997059,-106.5650364,
www.coach.com,COACH BARTON CREEK - BARTON CREEK SQUARE MALL,2901 S. CAPITAL OF TEXAS HIGHWAY #H11A ,AUSTIN,TX,78746,,,(512) 330-9929,,,30.2573622,-97.8072249,
www.coach.com,COACH BROADWAY SQUARE,4601 S BROADWAY AVE ,TYLER,TX,75703,,,(903) 581-5770,,,32.2994491,-95.3020653,
www.coach.com,COACH FIRST COLONY MALL,16535 SOUTHWEST FREEWAY ,SUGARLAND,TX,77479,,,(281) 494-0014,,,29.5904526,-95.6249325,
www.coach.com,COACH HOUSTON GALLERIA,5115 WESTHEIMER ,HOUSTON,TX,77056,,,(713) 622-1705,,,29.7395837,-95.4654882,
www.coach.com,COACH INGRAM PARK MALL,6301 NW LOOP 410 ,SAN ANTONIO,TX,78238,,,(210) 647-2957,,,29.46906539999999,-98.6211222,
www.coach.com,COACH LA CANTERA,15900  LA CANTERA PARKWAY SUITE 2285 ,SAN ANTONIO,TX,78256,,,(210) 641-0600,,,29.5935398,-98.6145043,
www.coach.com,COACH LA PALMERA,5488 S. PADRE ISLAND DRIVE ,CORPUS CHRISTI,TX,78411,,,(361) 985-0045,,,27.7110228,-97.3724543,
www.coach.com,COACH LA PLAZA,2200 S. 10TH STREET ,MCALLEN,TX,78503,,,(956) 631-3123,,,26.1853778,-98.23635569999999,
www.coach.com,COACH LEGACY WEST,7601 WINDROSE AVENUE ,PLANO,TX,75024,,,(972) 312-9344,,,33.0819256,-96.8268579,
www.coach.com,COACH MEMORIAL CITY,740 MEMORIAL CITY MALL ,HOUSTON,TX,77024,,,(713) 468-4160,,,29.7808238,-95.5393946,
www.coach.com,COACH MIDLAND PARK MALL,4511 N MIDKIFF ROAD ,MIDLAND,TX,79705,,,(432) 694-8000,,,32.0301564,-102.1316508,
www.coach.com,COACH NORTH STAR MALL,"7400 SAN PEDRO, SUITE #50 ",SAN ANTONIO,TX,78216,,,(210) 348-7010,,,29.5184168,-98.496275,
www.coach.com,COACH NORTHPARK CENTER,8687 N CENTRAL EXPRESSWAY ,DALLAS,TX,75225,,,(214) 696-1772,,,32.8681893,-96.7735082,
www.coach.com,COACH SOUTHLAKE TOWN SQUARE,400 GRAND AVENUE WEST ,SOUTHLAKE,TX,76092,,,(817) 310-6668,,,32.9449537,-97.1301507,
www.coach.com,COACH STONEBRIAR CENTRE,2601 PRESTON ROAD ,FRISCO,TX,75034,,,(972) 731-7500,,,33.0991992,-96.81132,
www.coach.com,COACH THE DOMAIN,11601 CENTURY OAKS TERRACE ,AUSTIN,TX,78758,,,(512) 339-9994,,,30.4030485,-97.7248085,
www.coach.com,COACH WOODLANDS MALL,1201 LAKE WOODLAND DRIVE ,THE WOODLANDS,TX,77380,,,(281) 298-2579,,,30.1645185,-95.4538295,
www.coach.com,COACH ALLEN,820 WEST STACY ROAD ,ALLEN,TX,75013,,,(972) 678-0800,,,33.1326412,-96.661166,
www.coach.com,COACH EL PASO OUTLETS,7051 S. DESERT BLVD. ,EL PASO,TX,79835,,,(915) 877-5554,,,31.9121419,-106.5854384,
www.coach.com,COACH GRAND PRAIRIE,2950 WEST I-20 ,GRAND PRAIRIE,TX,75052,,,(972) 602-0468,,,32.6786512,-97.0545496,
www.coach.com,COACH GRAPEVINE MILLS,3000 GRAPEVINE MILLS PARKWAY ,GRAPEVINE,TX,76051,,,(972) 355-8984,,,32.9661854,-97.0426334,
www.coach.com,COACH HOUSTON,29300 HEMPSTEAD RD. ,CYPRESS,TX,77433,,,(281) 304-0385,,,29.996689,-95.75733749999999,
www.coach.com,COACH HOUSTON - MEN'S,29300 HEMPSTEAD RD ,CYPRESS,TX,77433,,,(281) 256-9997,,,29.996689,-95.75733749999999,
www.coach.com,COACH KATY MILLS,5000 KATY MILLS CIRCLE ,KATY,TX,77494,,,(281) 574-5673,,,29.7760483,-95.8084296,
www.coach.com,COACH LAREDO,1600 WATER STREET ,LAREDO,TX,78040,,,(956) 825-9200,,,27.5018325,-99.51198889999999,
www.coach.com,COACH RIO GRANDE VALLEY - MERCEDES,5001 EAST EXPRESSWAY 83 ,MERCEDES,TX,78570,,,(956) 825-9200,,,26.158858,-97.95432,
www.coach.com,COACH ROUND ROCK,4401 N IH-35 ,ROUND ROCK,TX,78664,,,(512) 864-1682,,,30.5669991,-97.690339,
www.coach.com,COACH SAN MARCOS,3939 IH 35 ,SAN MARCOS,TX,78666,,,(512) 396-1772,,,29.8296534,-97.98202130000001,
www.coach.com,COACH SOUTH HOUSTON,5885 GULF FREEWAY ,TEXAS CITY,TX,77591,,,(281) 534-3648,,,29.4255911,-95.0560331,
www.coach.com,AAFES HQ - AAFES.COM,10300 SANDEN DR SUITE 100 ,DALLAS,TX,75238,,,,,,32.887728,-96.692217,
www.coach.com,AAFES HQ - CARSWELL,BLDG 1880 NASJRB EXCHANGE ,FORT WORTH,TX,76127,,,,,,32.778121,-97.42410079999999,
www.coach.com,AAFES HQ - FT. BLISS,BLDG 1611 HAAN & MARSHALL RD ,EL PASO,TX,79906,,,,,,31.8166833,-106.4274746,
www.coach.com,AAFES HQ - FT. HOOD,BLDG 4250 CLEAR CREEK BOULEVARD ,KILLEEN,TX,76544,,,,,,31.1392141,-97.8034029,
www.coach.com,AAFES HQ - FT. SAM HOUSTON,2503 FUNSTON RD BLDG#2420 ,FORT SAM HOUSTON,TX,78234,,,,,,29.4507664,-98.44815439999999,
www.coach.com,AAFES HQ - LACKLAND AFB,2180 REESE ST BLDG 1385 ,LACKLAND AIR FORCE BASE,TX,78236,,,,,,29.38293579999999,-98.61340469999999,
www.coach.com,AAFES HQ - RANDOLPH AFB,BLDG 1073 ,RANDOLPH AIR FORCE BASE,TX,78148,,,,,,29.533603,-98.27480299999999,
www.coach.com,DILLARD'S - BARTON CREEK SQUARE MALL,2901 CAPITOL OF TEXAS HWY ,AUSTIN,TX,78746,,,,,,30.2573622,-97.8072249,
www.coach.com,DILLARD'S - BAYBROOK MALL,200 BAYBROOK MALL ,FRIENDSWOOD,TX,77546,,,,,,29.5405431,-95.1472792,
www.coach.com,DILLARD'S - BROADWAY SQUARE,4601 S BROADWAY ,TYLER,TX,75703,,,,,,32.2994491,-95.3020653,
www.coach.com,DILLARD'S - CEDAR HILL,309 WEST FM 1382 ,CEDAR HILL,TX,75104,,,,,,32.6027239,-96.9445654,
www.coach.com,DILLARD'S - CENTRAL MALL (TX),33 CENTRAL MALL ,TEXARKANA,TX,75503,,,,,,33.4562076,-94.0804239,
www.coach.com,DILLARD'S - CIELO VISTA MALL,8401 GATEWAY WEST ,EL PASO,TX,79925,,,,,,31.7753257,-106.3791262,
www.coach.com,DILLARD'S - DOMAIN,3211 FEATHERGRASS ,AUSTIN,TX,78758,,,,,,30.3944622,-97.7276163,
www.coach.com,DILLARD'S - FIREWHEEL TOWN CENTER,HWY 190 & HWY 78 ,GARLAND,TX,75043,,,,,,32.908685,-96.63311949999999,
www.coach.com,DILLARD'S - FIRST COLONY,16517 SW FREEWAY ,SUGAR LAND,TX,77479,,,,,,29.5903106,-95.6241745,
www.coach.com,DILLARD'S - HILL COUNTY GALLERIA,12800 STATE HWY 71 WEST ,AUSTIN,TX,78738,,,,,,30.3082064,-97.9400261,
www.coach.com,DILLARD'S - HOUSTON GALLERIA,4925 WESTHEIMER AT POST OAK ,HOUSTON,TX,77056,,,,,,29.7384477,-95.4597861,
www.coach.com,DILLARD'S - HULEN MALL,4850 OVERTON RIDGE BLVD ,FORT WORTH,TX,76132,,,,,,32.6766098,-97.39885749999999,
www.coach.com,DILLARD'S - INGRAM PARK MALL,6310 NW LOOP 410 ,SAN ANTONIO,TX,78238,,,,,,29.46889049999999,-98.61560759999999,
www.coach.com,DILLARD'S - KILLEEN MALL,2100 S W S YOUNG DR#6000 ,KILLEEN,TX,76541,,,,,,31.0557718,-97.7325355,
www.coach.com,DILLARD'S - LA CANTERA,15900 LA CANTERA PKWY BLDG ,SAN ANTONIO,TX,78256,,,,,,29.5935398,-98.6145043,
www.coach.com,DILLARD'S - LAKE BRAZOS,100 HWY 332 SUITE 1400 ,LAKE JACKSON,TX,77566,,,,,,29.0505355,-95.4591063,
www.coach.com,DILLARD'S - LAKELINE,LAKELINE MALL ,CEDAR PARK,TX,78613,,,,,,30.470627,-97.8075594,
www.coach.com,DILLARD'S - LONGVIEW MALL,3500 MCCANN ROAD ,LONGVIEW,TX,75605,,,,,,32.5393303,-94.7507162,
www.coach.com,DILLARD'S - MALL DEL NORTE,5300 SAN DARIO AVENUE ,LAREDO,TX,78041,,,,,,27.5517466,-99.4998873,
www.coach.com,DILLARD'S - MALL OF ABILENE,4310 BUFFALO GAP RD ,ABILENE,TX,79606,,,,,,32.4005931,-99.76264069999999,
www.coach.com,DILLARD'S - MCALLEN,2200 S 10TH STREET ,MCALLEN,TX,78501,,,,,,26.1876592,-98.2358307,
www.coach.com,DILLARD'S - MEMORIAL CITY MALL,900 MEMORIAL CITY ,HOUSTON,TX,77024,,,,,,29.7823136,-95.5394992,
www.coach.com,DILLARD'S - MIDLAND PARK MALL,4511 N MIDKIFF RD ,MIDLAND,TX,79705,,,,,,32.0301564,-102.1316508,
www.coach.com,DILLARD'S - NORTH EAST MALL,1101 MELBOURNE RD ,HURST,TX,76053,,,,,,32.8300589,-97.2002438,
www.coach.com,DILLARD'S - NORTH STAR MALL,900 NORTH MALL ,SAN ANTONIO,TX,78216,,,,,,29.5183179,-98.4963209,
www.coach.com,DILLARD'S - NORTHPARK CENTER (TX),100 NORTHPARK CENTER ,DALLAS,TX,75225,,,,,,32.868612,-96.7735434,
www.coach.com,DILLARD'S - ODESSA,4101 EAST 42ND ST SUITE 108 ,ODESSA,TX,79762,,,,,,31.8941728,-102.3383341,
www.coach.com,DILLARD'S - PADRE STAPLES MALL,5350 S PADRE ISLAND DRIVE ,CORPUS CHRISTI,TX,78412,,,,,,27.7110966,-97.37432629999999,
www.coach.com,DILLARD'S - PARKDALE MALL,6457 E TEX FRWY ,BEAUMONT,TX,77706,,,,,,30.0988666,-94.16673399999999,
www.coach.com,DILLARD'S - PEARLAND,11200 BROADWAY BLDG 950 ,PEARLAND,TX,77584,,,,,,29.5525903,-95.39084670000001,
www.coach.com,DILLARD'S - POST OAK MALL,1504 HARVEY BLVD ,COLLEGE STATION,TX,77840,,,,,,30.6252361,-96.3049704,
www.coach.com,DILLARD'S - RICHLAND MALL,6001 W WACO DR ,WACO,TX,76710,,,,,,31.5164049,-97.18864800000001,
www.coach.com,DILLARD'S - ROLLING OAKS MALL,6909 LOOP 1604 EAST ,SAN ANTONIO,TX,78247,,,,,,29.5976559,-98.3507851,
www.coach.com,DILLARD'S - SHOPS AT WILLOWBEND,2501 DALLAS PKWY ,DALLAS,TX,75248,,,,,,33.0324007,-96.83099639999999,
www.coach.com,DILLARD'S - SIKES CENTER,3111 MIDWESTERN PKWY ,EULESS,TX,76039,,,,,,33.8689615,-98.53262289999999,
www.coach.com,DILLARD'S - SOUTH PLAINS MALL,6002 SLIDE RD - LOOP 289 ,LUBBOCK,TX,79414,,,,,,33.5392749,-101.9251792,
www.coach.com,DILLARD'S - STONEBRIAR CENTRE,2603 PRESTON ROAD ,FRISCO,TX,75034,,,,,,33.0975271,-96.813836,
www.coach.com,DILLARD'S - SUNLAND PARK MALL,750 SUNLAND PARK DRIVE ,EL PASO,TX,79912,,,,,,31.8144216,-106.5440443,
www.coach.com,DILLARD'S - SUNRISE MALL (TX),2340 N EXPRESSWAY ,BROWNSVILLE,TX,78526,,,,,,25.9556163,-97.5042745,
www.coach.com,DILLARD'S - SUNSET MALL,2000 SUNSET MALL ,SAN ANGELO,TX,76904,,,,,,31.4269592,-100.4987964,
www.coach.com,DILLARD'S - THE PARKS AT ARLINGTON,3821 SOUTH COOPER ,ARLINGTON,TX,76015,,,,,,32.6811409,-97.13106900000001,
www.coach.com,DILLARD'S - THE WOODLANDS,1201 LAKE WOODLANDS DRIVE STE 400 ,SPRING,TX,77380,,,,,,30.1645545,-95.45321020000002,
www.coach.com,DILLARD'S - TOWN EAST MALL (TX),6000 TOWN EAST BLVD ,MESQUITE,TX,75150,,,,,,32.7936749,-96.6554386,
www.coach.com,DILLARD'S - VICTORIA MALL,7800 HALLETTSVILLE HWY ,VICTORIA,TX,77901,,,,,,28.806638,-96.99605009999999,
www.coach.com,DILLARD'S - VILLAGE AT FAIRVIEW,121 E STACY ROAD ,DALLAS,TX,75225,,,,,,33.132168,-96.654833,
www.coach.com,DILLARD'S - VISTA RIDGE MALL,2411 SOUTH STEMMONS ,LEWISVILLE,TX,75067,,,,,,33.0030772,-96.97453349999999,
www.coach.com,DILLARD'S - WESTGATE,7701 I-40 WEST#300 ,AMARILLO,TX,79160,,,,,,35.1843072,-101.927546,
www.coach.com,DILLARD'S - WICHITA EAST,20131 US 59 N ,HUMBLE,TX,77338,,,,,,30.0094843,-95.2702395,
www.coach.com,DILLARD'S - WILLOWBROOK MALL (TX),7925 FM 1960 W ,HOUSTON,TX,77070,,,,,,29.9599668,-95.53896139999999,
www.coach.com,MACY'S INC. - BAYBROOK,100 BAYBROOK MALL ,FRIENDSWOOD,TX,77598,,,,,,29.5415715,-95.1496525,
www.coach.com,MACY'S INC. - CIELO VISTA,8401 GATEWAY WEST & HAWKINS ,EL PASO,TX,79925,,,,,,31.7753039,-106.3806312,
www.coach.com,MACY'S INC. - DEERBROOK (TX),10023 FM 1960 ,HUMBLE,TX,77338,,,,,,30.005602,-95.2699878,
www.coach.com,MACY'S INC. - DEL NORTE,5300 SAN DARIO ,LAREDO,TX,78041,,,,,,27.5517466,-99.4998873,
www.coach.com,MACY'S INC. - FIRST COLONY,16511 SW FREEWAY ,SUGAR LAND,TX,77479,,,,,,29.5934179,-95.6262453,
www.coach.com,MACY'S INC. - GALLERIA (DALLAS),13375 NOEL ROAD ,DALLAS,TX,75240,,,,,,32.9301967,-96.8187279,
www.coach.com,MACY'S INC. - GALLERIA HOUSTON AT HILDAGO,5135 WEST ALABAMA ,HOUSTON,TX,77056,,,,,,29.737703,-95.4644579,
www.coach.com,MACY'S INC. - LA PLAZA,2100 S TENTH ,MCALLEN,TX,78503,,,,,,26.1852663,-98.2348174,
www.coach.com,MACY'S INC. - MEMORIAL CITY,900 GESSNER ROAD ,HOUSTON,TX,77024,,,,,,29.7808564,-95.5440107,
www.coach.com,MACY'S INC. - NORTH EAST (TX),1101 MELBOURNE ROAD ,HURST,TX,76053,,,,,,32.8300589,-97.2002438,
www.coach.com,MACY'S INC. - NORTH STAR (TX),7400 SAN PEDRO AVESTE 200 ,SAN ANTONIO,TX,78216,,,,,,29.5184168,-98.496275,
www.coach.com,MACY'S INC. - NORTHPARK CENTER (TX),8687 NORTH CENTRAL EXPRESSWAY ,DALLAS,TX,75225,,,,,,32.8681893,-96.7735082,
www.coach.com,MACY'S INC. - PARKS AT ARLINGTON,3841 SOUTH COOPER STREET ,ARLINGTON,TX,76017,,,,,,32.6823235,-97.1293759,
www.coach.com,MACY'S INC. - PEARLAND,CORNER OF HWY 288 AND 518 ,PEARLAND,TX,77584,,,,,,29.5565857,-95.386409,
www.coach.com,MACY'S INC. - SOUTH PARK TX,2310 SOUTHWEST MILITARY DRIVE ,SAN ANTONIO,TX,78224,,,,,,29.35481729999999,-98.53074409999999,
www.coach.com,MACY'S INC. - STONEBRIAR CENTRE (TX),2603 PRESTON ROAD ,FRISCO,TX,75034,,,,,,33.0975271,-96.813836,
www.coach.com,MACY'S INC. - THE DOMAIN (TX),3311 ESPERANZA CROSSING ,AUSTIN,TX,78759,,,,,,30.3997611,-97.727002,
www.coach.com,MACY'S INC. - WILLOWBROOK MALL (TX),4000 WILLOWBROOK MALL ,HOUSTON,TX,77070,,,,,,29.957474,-95.538096,
www.coach.com,MACY'S INC. - WOODLANDS (TX),1201 LAKE WOODLANDS DRIVE ,THE WOODLANDS,TX,77386,,,,,,30.1645545,-95.45321020000002,
www.coach.com,NEIMAN MARCUS - AUSTIN,3400 PALM WAY ,AUSTIN,TX,78758,,,,,,30.4040167,-97.7242728,
www.coach.com,NEIMAN MARCUS - EA (ONLINE),113 CUSTOMER WAY ,IRVING,TX,75039,,,,,,32.886058,-96.9398791,
www.coach.com,NEIMAN MARCUS - FORTH WORTH,2100 GREEN OAKS RD ,FORT WORTH,TX,76116,,,,,,32.7388817,-97.4367146,
www.coach.com,NEIMAN MARCUS - NORTHPARK,8687 NORTH CENTRAL EXPRESSWAY STE 400 ,DALLAS,TX,75225,,,,,,32.8681893,-96.7735082,
www.coach.com,NEIMAN MARCUS - WILLOWBEND,2201 DALLAS PARKWAY ,PLANO,TX,75093,,,,,,33.0303552,-96.83158259999999,
www.coach.com,NORDSTROM - BARTON CREEK SQUARE MALL,2901 CAPITAL OF TEXAS HIGHWAY SOUTH ,AUSTIN,TX,78746,,,,,,30.2573622,-97.8072249,
www.coach.com,NORDSTROM - WOODLANDS (TX),TBD ,THE WOODLANDS,TX,77380,,,,,,30.1261952,-95.46729619999999,
www.coach.com,SAKS FIFTH AVENUE - HOUSTON GALLERIA,5175 WESTHEIMER ROAD ,HOUSTON,TX,77056,,,,,,29.7396504,-95.4660414,
www.coach.com,SAKS FIFTH AVENUE - NORTH STAR MALL,7400 SAN PEDRO AVENUE ,SAN ANTONIO,TX,78216,,,,,,29.5184168,-98.496275,
www.coach.com,COACH LAKESIDE - LAKESIDE SHOPPING CENTER,"3301 VETERANS MEMORIAL BLVD., SUITE 51 ",METAIRIE,LA,70002,,,(504) 833-0774,,,30.0053432,-90.156796,
www.coach.com,COACH GONZALES,2300 S. TANGER BLVD. ,GONZALES,LA,70737,,,(225) 647-2600,,,30.2120668,-90.9532052,
www.coach.com,COACH RIVERWALK,500 PORT OF NEW ORLEANS PLACE ,NEW ORLEANS,LA,70130,,,(504) 522-9360,,,29.9484942,-90.0629441,
www.coach.com,AAFES HQ - BARKSDALE,BLDG 4265 455 CURTISS RD ,BARKSDALE AIR FORCE BASE,LA,71110,,,,,,32.4933266,-93.6758491,
www.coach.com,DILLARD'S - ACADIANA MALL,5725 JOHNSTON RD ,LAFAYETTE,LA,70503,,,,,,30.1712239,-92.0758293,
www.coach.com,DILLARD'S - ALEXANDRIA MALL,3437 MASONIC DRIVE ,ALEXANDRIA,LA,71301,,,,,,31.2775323,-92.4615783,
www.coach.com,DILLARD'S - FREEMAUX TOWN CENTER,940 TOWN CENTER PARKWAY ,SLIDELL,LA,70458,,,,,,30.2667431,-89.7624876,
www.coach.com,DILLARD'S - HOUMA  SOUTHLAND MALL,5953 WEST PARK AVE STE 1000 ,TALISHEEK,LA,70464,,,,,,29.6353603,-90.7572172,
www.coach.com,DILLARD'S - LAKE CHARLES/PRIEN LAKE,496 W PRIEN LAKE MALL ,LAKE CHARLES,LA,70601,,,,,,30.2004548,-93.2264806,
www.coach.com,DILLARD'S - LAKESIDE SHOPPING CENTER (LA),LAKESIDE SHOPPING CENTER ,METAIRIE,LA,70002,,,,,,30.005547,-90.15733499999999,
www.coach.com,DILLARD'S - MALL OF LOUISIANA,6601 BLUEBONNET ,BATON ROUGE,LA,70836,,,,,,30.3891949,-91.0899148,
www.coach.com,DILLARD'S - MALL ST. VINCENT,1133 ST VINCENT AVE ,SHREVEPORT,LA,71104,,,,,,32.4763819,-93.7531623,
www.coach.com,DILLARD'S - OAKWOOD MALL,197 WEST BANK EXPRESSWAY ,GRETNA,LA,70053,,,,,,29.9119909,-90.0535475,
www.coach.com,DILLARD'S - PECANLAND MALL,4610 MILHAVEN ROAD ,MONROE,LA,71203,,,,,,32.4983676,-92.06220499999999,
www.coach.com,DILLARD'S - PIERRE BOSSIER MALL,2950 E TEXAS AVE ,BOSSIER CITY,LA,71111,,,,,,32.5280684,-93.70919789999999,
www.coach.com,MACY'S INC. - LAKESIDE SHOPPING CENTER (LA),3301 VETERANS MEMORIAL BLVD ,METAIRIE,LA,70002,,,,,,30.00654579999999,-90.1565521,
www.coach.com,COACH CRABTREE VALLEY,4325 GLENWOOD AVENUE ,RALEIGH,NC,27612,,,(919) 786-9117,,,35.8389991,-78.6793898,
www.coach.com,COACH SOUTHPARK,4400 SHARON ROAD ,CHARLOTTE,NC,28211,,,(704) 365-7778,,,35.1522311,-80.8318968,
www.coach.com,COACH ASHEVILLE OUTLETS,800 BREVARD ROAD ,ASHEVILLE,NC,28806,,,(828) 665-7920,,,35.5297958,-82.6039954,
www.coach.com,COACH CHARLOTTE,5416 NEW FASHION WAY ,CHARLOTTE,NC,28278,,,(704) 588-6598,,,35.168701,-80.97009740000001,
www.coach.com,COACH CONCORD MILLS,8111 CONCORD MILLS BLVD. ,CONCORD,NC,28027,,,(704) 979-0025,,,35.3700689,-80.7239298,
www.coach.com,COACH MEBANE,4000 ARROWHEAD BLVD ,MEBANE,NC,27302,,,(919) 304-1291,,,36.0747645,-79.2663974,
www.coach.com,COACH SMITHFIELD,1250 OUTLET CENTER DRIVE ,SMITHFIELD,NC,27577,,,(919) 934-9089,,,35.5107609,-78.30861999999999,
www.coach.com,AAFES HQ - FT. BRAGG,BLDG 8-5050 2ND BUTNER ROAD ,FORT BRAGG,NC,28307,,,,,,35.159821,-78.99898999999999,
www.coach.com,BELK - ASHEVILLE,5 S TUNNEL ROAD ,ASHEVILLE,NC,28805,,,,,,35.5806853,-82.52589069999999,
www.coach.com,BELK - CRABTREE VALLEY MALL,4325 GLENWOOD AVE ,RALEIGH,NC,27612,,,,,,35.8389991,-78.6793898,
www.coach.com,BELK - FREINDLY SHOPPING CENTER,616 W FRIENDLY AVE ,GREENSBORO,NC,27404,,,,,,36.0739865,-79.7980779,
www.coach.com,BELK - HANES MALL,3320 SILAS CREEK PKWY SUITE 150 ,WINSTON SALEM,NC,27103,,,,,,36.0703319,-80.3000694,
www.coach.com,BELK - INDEPENDENCE MALL,3500 OLEANDER DRIVE ,WILMINGTON,NC,28403,,,,,,34.2120323,-77.906674,
www.coach.com,BELK - SOUTHPARK MALL (NC),4400 SHARON ROAD ,CHARLOTTE,NC,28211,,,,,,35.1522311,-80.8318968,
www.coach.com,DILLARD'S - ASHEVILLE MALL,3 SOUTH TUNNEL ROAD ,ASHEVILLE,NC,28805,,,,,,35.5822695,-82.526029,
www.coach.com,DILLARD'S - CARY TOWN CENTER,1105 WALNUT STREET ,CARY,NC,27511,,,,,,35.7737833,-78.7578434,
www.coach.com,DILLARD'S - FOUR SEASONS,125 FOUR SEASONS  TOWNE CENTER ,GREENSBORO,NC,27407,,,,,,36.040256,-79.83805149999999,
www.coach.com,DILLARD'S - HANES MALL,3320 SILAS CREEK PKWY #3500 ,WINSTON-SALEM,NC,27103,,,,,,36.0682713,-80.3016366,
www.coach.com,DILLARD'S - NORTHLAKE MALL,7535 NORTHLAKE MALL ,CHARLOTTE,NC,28216,,,,,,35.353114,-80.853397,
www.coach.com,DILLARD'S - SOUTHPARK CENTER (NC),4400 SHARON ROAD ,CHARLOTTE,NC,28211,,,,,,35.1522311,-80.8318968,
www.coach.com,DILLARD'S - TRIANGLE TOWN CENTER,3501 SUMNER BLVD ,RALEIGH,NC,27616,,,,,,35.8655821,-78.578052,
www.coach.com,DILLARD'S - VALLEY HILLS MALL,1930 US HIGHWAY 70 SE ,HICKORY,NC,28602,,,,,,35.703109,-81.3064024,
www.coach.com,DILLARD'S - WESTFIELD INDEPENDENCE MALL,3500 OLEANDER DRIVE ,WILMINGTON,NC,28403,,,,,,34.2120323,-77.906674,
www.coach.com,SAKS FIFTH AVENUE - TRIANGLE TOWN CENTER,7700 OLD WAKE FOREST ROAD ,RALEIGH,NC,27616,,,,,,35.8665563,-78.57428910000002,
www.coach.com,MACY'S INC. - WEST ACRES (ND),WEST ACRES ,FARGO,ND,58103,,,,,,46.8559724,-96.8502442,
www.coach.com,COACH VILLAGE POINTE,17255 DAVENPORT STREET ,OMAHA,NE,68118,,,(402) 289-5515,,,41.2606989,-96.184381,
www.coach.com,COACH OMAHA (NEBRASKA CROSSING OUTLETS),21311 NEBRASKA CROSSING DR. ,GRETNA,NE,68028,,,(402) 332-3944,,,41.0991796,-96.249584,
www.coach.com,BON-TON STORES - WESTROADS MALL,707 N 102ND ST ,OMAHA,NE,68114,,,,,,41.265525,-96.06955699999999,
www.coach.com,BON-TON STORES - WESTROADS MALL,707 N 102ND ST ,OMAHA,NE,68114,,,,,,41.265525,-96.06955699999999,
www.coach.com,DILLARD'S - LINCOLN,6100 O STREET #60 ,LINCOLN,NE,68510,,,,,,40.8156596,-96.6350068,
www.coach.com,DILLARD'S - OAK VIEW MALL,3030 OAKVIEW DRIVE ,OMAHA,NE,68144,,,,,,41.2293424,-96.13463,
www.coach.com,VON MAUR - SOUTH POINT PAVILLIONS #18,2900 PINE LAKE ROAD ,LINCOLN,NE,68516,,,,,,40.7416303,-96.6790573,
www.coach.com,VON MAUR - WEST ROADS MALL #15,10010 CALIFORINA STREET ,OMAHA,NE,68114,,,,,,41.265605,-96.067431,
www.coach.com,COACH GREEN HILLS - THE MALL AT GREEN HILLS,"2126 ABBOT MARTIN RD., SPACE 153 ",NASHVILLE,TN,37215,,,(615) 269-0206,,,36.107216,-86.8155743,
www.coach.com,COACH WEST TOWN MALL,7600 KINGSTON PIKE ,KNOXVILLE,TN,37919,,,(865) 531-2997,,,35.9244853,-84.03839719999999,
www.coach.com,COACH OPRY MILLS,236 OPRY MILLS DR. ,NASHVILLE,TN,37214,,,(615) 678-0312,,,36.2035141,-86.69480039999999,
www.coach.com,COACH SEVIERVILLE - TANGER OUTLET CENTER @ FIVE OAKS,1645 PARKWAY ,SEVIERVILLE,TN,37862,,,(865) 453-6349,,,35.83404180000001,-83.5699135,
www.coach.com,BELK - WEST TOWN MALL (TN),7600 KINGSTON PIKE ,KINGSTON HILLS,TN,37919,,,,,,35.9232323,-84.0372699,
www.coach.com,DILLARD'S - COOLSPRINGS GALLERIA,1796 GALLERIA BLVD ,FRANKLIN,TN,37064,,,,,,35.9565501,-86.8126552,
www.coach.com,DILLARD'S - GOVERNORS SQUARE MALL (TN),2801 WILMA RUDOLF BLVD ,CLARKSVILLE,TN,37040,,,,,,36.5865981,-87.2889723,
www.coach.com,DILLARD'S - HAMILTON PLACE (TN),2100 HAMILTON PLACE ,CHATTANOOGA,TN,37421,,,,,,35.034416,-85.1584652,
www.coach.com,DILLARD'S - INTERNET,444 BRICK CHURCH PARK DRIVE ,NASHVILLE,TN,37207,,,,,,36.226247,-86.7850472,
www.coach.com,DILLARD'S - MALL AT STONES RIVER,1720 OLD FORT PARKWAY ,MURFREESBORO,TN,37129,,,,,,35.8496389,-86.4201156,
www.coach.com,DILLARD'S - OAK COURT MALL,3486 POPLAR AVE ,MEMPHIS,TN,38117,,,,,,35.1284789,-89.9460522,
www.coach.com,DILLARD'S - THE AVENUE CARRIAGE CROSSING,4620 MERCHANTS PARK CR BLDG C ,COLLIERVILLE,TN,38017,,,,,,35.0218072,-89.7199658,
www.coach.com,DILLARD'S - THE MALL AT GREEN HILLS,3855 GREEN HILLS VILLAGE DRIVE ,NASHVILLE,TN,37215,,,,,,36.1086252,-86.816214,
www.coach.com,DILLARD'S - WEST TOWN MALL (TN),7600 KINGSTON PIKE ,KNOXVILLE,TN,37919,,,,,,35.9244853,-84.03839719999999,
www.coach.com,DILLARD'S - WOLFCHASE GALLERIA,2700 NGERMANTOWN RD ,MEMPHIS,TN,38133,,,,,,35.2046134,-89.791916,
www.coach.com,MACY'S INC. - GREEN HILLS (TN),3813 HILLSBORO PIKE ,NASHVILLE,TN,37215,,,,,,36.1068387,-86.8142388,
www.coach.com,MACY'S INC. - INTERNET,1155 VAUGHN PARKWAY ,PORTLAND,TN,37148,,,,,,36.6434973,-86.5823393,
www.coach.com,MACY'S INC. - WOLFCHASE GALLERIA,2840 N GERMANTOWN PARKWAY ,MEMPHIS,TN,38133,,,,,,35.2026631,-89.7885972,
www.coach.com,NAVY EXCHANGE (NEX) - MEMPHIS MAIN STORE,BLDG S752 5722 INTEGRITY DR ,MILLINGTON,TN,38054,,,,,,35.3282104,-89.87311919999999,
www.coach.com,SAKS.COM - INTERNET,ONE WALDEN BOOKS DRIVE ,LA VERGNE,TN,37086,,,,,,35.9943923,-86.58952819999999,
www.coach.com,COACH 342 MADISON,342 MADISON AVENUE (AT 44TH ST) ,NEW YORK,NY,10173,,,(212) 599-4777,,,40.7539706,-73.9788707,
www.coach.com,COACH 595 MADISON,595 MADISON AVENUE ,NEW YORK,NY,10022,,,(212) 754-0041,,,40.7623864,-73.97187190000001,
www.coach.com,COACH 685 FIFTH AVE.,685 FIFTH AVE ,NEW YORK,NY,10022,,,(212) 758-2450,,,40.7607194,-73.9751351,
www.coach.com,COACH 79 5TH AVENUE,79 5TH AVENUE ,NEW YORK,NY,10003,,,(212) 675-6403,,,40.73703039999999,-73.99250669999999,
www.coach.com,COACH AMERICANA MANHASSET,2118 NORTHERN BLVD. ,MANHASSET,NY,11030,,,(516) 365-2777,,,40.7962077,-73.6698546,
www.coach.com,COACH HERALD SQUARE,151 WEST 34TH STREET ,NEW YORK,NY,10001,,,(212) 643-9727,,,40.7508025,-73.98948349999999,
www.coach.com,COACH HUDSON YARDS,20 HUDSON YARDS ,NEW YORK,NY,10001,,,(212) 564-8704,,,40.7534613,-74.0008205,
www.coach.com,COACH ROOSEVELT FIELD,ROOSEVELT FIELD MALL ,GARDEN CITY,NY,11530,,,(516) 877-1772,,,40.7382052,-73.612927,
www.coach.com,COACH SHOPS AT NANUET,9127 FASHION DRIVE ,NANUET,NY,10954,,,(845) 627-0580,,,41.096303,-74.01555239999999,
www.coach.com,COACH SOHO,143 PRINCE STREET ,NEW YORK,NY,10012,,,(212) 473-6925,,,40.7257568,-74.0006196,
www.coach.com,COACH TIME WARNER BUILDING (COLUMBUS CIRCLE),10 COLUMBUS CIRCLE ,NEW YORK,NY,10019,,,(212) 581-4115,,,40.7685526,-73.9831866,
www.coach.com,COACH WALDEN GALLERIA,1 WALDEN GALLERIA ,BUFFALO,NY,14225,,,(716) 684-8035,,,42.91417329999999,-78.7640917,
www.coach.com,COACH WALT WHITMAN,"160 WALT WHITMAN ROAD, SPACE 1061-A ",HUNTINGTON STATION,NY,11746,,,(631) 692-5482,,,40.8228988,-73.4104241,
www.coach.com,COACH WHITE PLAINS,125 WESTCHESTER AVE ,WHITE PLAINS,NY,10601,,,(914) 644-8244,,,41.0315014,-73.75858149999999,
www.coach.com,COACH DEER PARK,152 THE ARCHES CIRCLE ,DEER PARK,NY,11729,,,(631) 242-0764,,,40.7650069,-73.3042497,
www.coach.com,COACH DESTINY USA,1 DESTINY USA DRIVE ,SYRACUSE,NY,13204,,,(315) 426-7960,,,43.067769,-76.1729922,
www.coach.com,COACH GENEVA,655 ROUTE 318 SUITE B-081 ,WATERLOO,NY,13165,,,(315) 539-8202,,,42.9558136,-76.9242879,
www.coach.com,COACH LAKE GEORGE,1424 STATE RTE 9 ,LAKE GEORGE,NY,12845,,,(518) 793-9015,,,43.3643872,-73.6989219,
www.coach.com,COACH NIAGARA FALLS,1704 MILITARY DRIVE ,NIAGARA FALLS,NY,14304,,,(716) 298-1771,,,43.0977251,-78.9754355,
www.coach.com,COACH NIAGARA FALLS MEN'S,1708 MILITARY ROAD ,NIAGARA FALLS,NY,14304,,,(716) 297-2410,,,43.0977251,-78.9754355,
www.coach.com,COACH RIVERHEAD,410 TANGER MALL DRIVE ,RIVERHEAD,NY,11901,,,(631) 369-4670,,,40.9190855,-72.7178094,
www.coach.com,COACH WOODBURY COMMON - WOODBURY COMMON PREMIUM,303 RED APPLE COURT ,CENTRAL VALLEY,NY,10917,,,(845) 928-4465,,,41.3156732,-74.12640770000002,
www.coach.com,COACH WOODBURY COMMON MEN'S,254 RED APPLE COURT ,CENTRAL VALLEY,NY,10917,,,(845) 928-1366,,,41.3148495,-74.12674,
www.coach.com,AAFES HQ - FT. DRUM,BLDG P-10730A ENDURING FREEDOM DR ,FORT DRUM,NY,13602,,,,,,44.0427067,-75.8050868,
www.coach.com,BLOOMINGDALE'S - HUNTINGTON,270 WALT WHITMAN ROAD ,HUNTINGTON STATION,NY,11746,,,,,,40.8216212,-73.40971480000002,
www.coach.com,BLOOMINGDALE'S - INTERNET,1000 THIRD AVE ,NEW YORK,NY,10022,,,,,,40.7625491,-73.9673955,
www.coach.com,BLOOMINGDALE'S - NEW YORK,160 E 60TH ST ,NEW YORK,NY,10022,,,,,,40.7622962,-73.9673918,
www.coach.com,BLOOMINGDALE'S - ROOSEVELT FIELD,630 OLD COUNTRY ROAD ,GARDEN CITY,NY,11530,,,,,,40.7377313,-73.61312319999999,
www.coach.com,BLOOMINGDALE'S - SOHO,504 BROADWAY ,NEW YORK,NY,10012,,,,,,40.7221565,-73.9992178,
www.coach.com,BLOOMINGDALE'S - WHITE PLAINS,175 BLOOMINGDALES RD ,WHITE PLAINS,NY,10605,,,,,,41.0248365,-73.7560598,
www.coach.com,LORD & TAYLOR - BAYSHORE,1701 SUNRISE HIGHWAY ,BAYSHORE,NY,11706,,,,,,40.7396345,-73.24668,
www.coach.com,LORD & TAYLOR - GARDEN CITY,1200 FRANKLIN AVE ,GARDEN CITY,NY,11530,,,,,,40.7334425,-73.637616,
www.coach.com,LORD & TAYLOR - MANHASSET,1440 NORTHERN BLVD ,MANHASSET,NY,11030,,,,,,40.7927507,-73.6930761,
www.coach.com,LORD & TAYLOR - NEW YORK CITY,16 W 39TH ST ,NEW YORK,NY,10018,,,,,,40.75183699999999,-73.98346500000001,
www.coach.com,LORD & TAYLOR - PALISADES CENTER,RTE 59 WEST OF RTE 303 ,WEST NYACK,NY,10960,,,,,,41.0930928,-73.947002,
www.coach.com,LORD & TAYLOR - RIDGE HILLS,135 MARKET STREET ,YONKERS,NY,10710,,,,,,40.9641049,-73.8569813,
www.coach.com,LORD & TAYLOR - ROCHESTER,7979 VICTOR PITTSFORD RD ,VICTOR,NY,14564,,,,,,43.0299441,-77.4437118,
www.coach.com,LORD & TAYLOR - WALT WHITMAN MALL,ROUTE 110 & JERICHO TPK ,HUNTINGTON STATION,NY,11746,,,,,,40.8284194,-73.41152919999999,
www.coach.com,LORD & TAYLOR - WESTCHESTER,7500 WHITE PLAINS RD ,SCARSDALE,NY,10583,,,,,,40.9689133,-73.80780090000002,
www.coach.com,MACY'S INC. - BROOKLYN,422 FULTON STREET ,BROOKLYN,NY,11201,,,,,,40.6906271,-73.9860836,
www.coach.com,MACY'S INC. - COLONIE SHOPPING CENTER,WOLF RD & ROUTE 5 ,ALBANY,NY,12205,,,,,,42.70859309999999,-73.82243509999999,
www.coach.com,MACY'S INC. - CROSS COUNTY CENTRE,800 CENTRAL PARK AVENUE ,YONKERS,NY,10704,,,,,,40.9285007,-73.8556898,
www.coach.com,MACY'S INC. - EASTVIEW MALL,7979 VICTOR PITTSFORD ,VICTOR,NY,14564,,,,,,43.0299441,-77.4437118,
www.coach.com,MACY'S INC. - FLUSHING CENTRE,136-50 ROOSEVELT AVENUE ,FLUSHING,NY,11354,,,,,,40.7598412,-73.8283762,
www.coach.com,MACY'S INC. - HERALD SQUARE,W 35TH ST PLATFORM ,NEW YORK,NY,10001,,,,,,40.7497853,-73.9862034,
www.coach.com,MACY'S INC. - KINGS PLAZA SHOPPING CENTER,5400 AVENUE U ,BROOKLYN,NY,11234,,,,,,40.6107822,-73.9195668,
www.coach.com,MACY'S INC. - MANHASSET,1100 NORTHERN BLVD ,MANHASSET,NY,11030,,,,,,40.7884682,-73.702364,
www.coach.com,MACY'S INC. - MIDDLETOWN - CRYSTAL RUN,1 GALLERIA DRIVE/RFD #2 ,MIDDLETOWN,NY,10940,,,,,,41.4522163,-74.3693251,
www.coach.com,MACY'S INC. - NANUET MALL,RTE 59 ,NANUET,NY,10954,,,,,,41.0985614,-74.01718799999999,
www.coach.com,MACY'S INC. - PARKCHESTER,1441 METROPOLITAN AVE ,BRONX,NY,10462,,,,,,40.8364825,-73.8612062,
www.coach.com,MACY'S INC. - POUGHKEEPSIE GALLERIA,790 SOUTH ROAD ,POUGHKEEPSIE,NY,12601,,,,,,41.6272216,-73.9203646,
www.coach.com,MACY'S INC. - QUEENS CENTER,90-01 QUEENS BLVD ,ELMHURST,NY,11373,,,,,,40.7343519,-73.87158769999999,
www.coach.com,MACY'S INC. - ROOSEVELT FIELD MALL,630 OLD COUNTRY ROAD ,GARDEN CITY,NY,11530,,,,,,40.7377313,-73.61312319999999,
www.coach.com,MACY'S INC. - SMITH HAVEN MALL,2 SMITH HAVEN MALL ,LAKE GROVE,NY,11755,,,,,,40.8630147,-73.1293902,
www.coach.com,MACY'S INC. - STATEN ISLAND MALL,100 RICHMOND HILL ROAD ,STATEN ISLAND,NY,10314,,,,,,40.5832984,-74.1653785,
www.coach.com,MACY'S INC. - SUNRISE MALL (NY),400 SUNRISE MALL ,MASSAPEQUA,NY,11758,,,,,,40.6808927,-73.4349386,
www.coach.com,MACY'S INC. - VALLEY STREAM - GREEN ACRES,1000 GREEN ACRES MALL ,VALLEY STREAM,NY,11580,,,,,,40.6629452,-73.7221443,
www.coach.com,MACY'S INC. - WALDEN GALLERIA,4 WALDEN GALLERIA ,BUFFALO,NY,14225,,,,,,42.9109675,-78.7633515,
www.coach.com,MERIDIAN ENTERPRISES - MERIDIAN,TBD ,TBD,NY,52404,,,,,,42.0276156,-87.9753769,
www.coach.com,NORDSTROM.COM - INTERNET,7700 18TH STREET SW ,CEDAR RAPIDS,NY,52404,,,,,,41.9040289,-91.69854749999999,
www.coach.com,SAKS FIFTH AVENUE - NEW YORK CITY,7 EAST 49TH STREET ,NEW YORK,NY,10022,,,,,,40.7578296,-73.9771968,
www.coach.com,SAKS FIFTH AVENUE - SAKS 5TH AVE #0655,225 LIBERTY STREET ,NEW YORK,NY,10281,,,,,,40.7120622,-74.01516079999999,
www.coach.com,VON MAUR - EASTVIEW,7979 PITTSFORD VICTOR ROAD ,VICTOR,NY,14564,,,,,,43.0299441,-77.4437118,
www.coach.com,COACH KOP I - KING OF PRUSSIA I,690 WEST DEKALB PIKE ,KING OF PRUSSIA,PA,19406,,,(610) 265-1772,,,40.0890849,-75.3855588,
www.coach.com,COACH KOP II - KING OF PRUSSIA II,160 NORTH GULPH ROAD ,KING OF PRUSSIA,PA,19406,,,(610) 265-5814,,,40.0877763,-75.39078239999999,
www.coach.com,COACH LEHIGH VALLEY MALL,933 LEHIGH VALLEY MALL ,WHITEHALL,PA,18052,,,(610) 266-8647,,,40.6299166,-75.4837916,
www.coach.com,COACH ROSS PARK MALL,1000 ROSS PARK MALL DR. ,PITTSBURGH,PA,15237,,,(412) 366-3050,,,40.5445685,-80.0087509,
www.coach.com,COACH GETTYSBURG,1863 GETTYSBURG VILLAGE DR. ,GETTYSBURG,PA,17325,,,(717) 334-2332,,,39.79526200000001,-77.20097369999999,
www.coach.com,COACH HERSHEY - THE OUTLETS AT HERSHEY,51 OUTLET SQUARE ,HERSHEY,PA,17033,,,(717) 533-3982,,,40.2947838,-76.6490798,
www.coach.com,COACH LAHASKA - PENNS PURCHASE FACTORY OUTLET,5861 YORK ROAD ,LAHASKA,PA,18931,,,(215) 794-8777,,,40.3458603,-75.0316637,
www.coach.com,COACH LANCASTER,1001 A STANLEY TANGER BLVD. ,LANCASTER,PA,17602,,,(717) 293-1707,,,40.0234957,-76.2203002,
www.coach.com,COACH OUTLETS AT SANDS BETHLEHEM,77 SANDS BOULEVARD ,BETHLEHEM,PA,18015,,,(610) 625-2347,,,40.6141389,-75.3569619,
www.coach.com,COACH PHILADELPHIA MEN'S,18 W. LIGHTCAP RD. ,LIMERICK,PA,19464,,,(610) 327-2354,,,40.2366156,-75.57058049999999,
www.coach.com,COACH PHILADELPHIA PREMIUM OUTLETS,18 LIGHTCAP ROAD ,POTTSTOWN,PA,19464,,,(610) 326-4860,,,40.2366156,-75.57058049999999,
www.coach.com,COACH PITTSBURGH,2200 TANGER BLVD. ,WASHINGTON,PA,15301,,,(724) 223-7840,,,40.2164085,-80.2116242,
www.coach.com,COACH PREMIUM OUTLETS AT GROVE CITY,1911 LEESBURG ROAD- GROVE CITY ROAD ,GROVE CITY,PA,16127,,,(724) 748-5151,,,41.1392659,-80.1573667,
www.coach.com,COACH TANNERSVILLE,1000 PREMIUM OUTLETS DRIVE ,TANNERSVILLE,PA,18372,,,(570) 688-9155,,,41.0479573,-75.3125459,
www.coach.com,BLOOMINGDALE'S - KING OF PRUSSIA,660 W DE KALB PIKE ,KING OF PRUSSIA,PA,19406,,,,,,40.0892378,-75.3859646,
www.coach.com,BLOOMINGDALE'S - WILLOW GROVE,2400 MORELAND RD ,WILLOW GROVE,PA,19090,,,,,,40.1398114,-75.12169750000001,
www.coach.com,BON-TON STORES - PARK CITY CENTER,600 PARK CITY CENTER ,LANCASTER,PA,17601,,,,,,40.0656132,-76.33966869999999,
www.coach.com,BON-TON STORES - PARK CITY CENTER,600 PARK CITY CENTER ,LANCASTER,PA,17601,,,,,,40.0656132,-76.33966869999999,
www.coach.com,LORD & TAYLOR - BALA CYNWYD SHOPPING CEN,CITY LINE & BELMONT AVENUE ,BALA CYNWYD,PA,19004,,,,,,40.005043,-75.220013,
www.coach.com,LORD & TAYLOR - INTERNET,250 HIGHLAND PARK BLVD ,WILKES-BARRE,PA,18702,,,,,,41.238615,-75.854044,
www.coach.com,LORD & TAYLOR - KING OF PRUSSIA MALL,160 NORTH GULPH ROAD ,KING OF PRUSSIA,PA,19406,,,,,,40.0877763,-75.39078239999999,
www.coach.com,MACY'S INC. - CITY CENTER,1300 MARKET STREET ,PHILADELPHIA,PA,19107,,,,,,39.9518066,-75.1621016,
www.coach.com,MACY'S INC. - COURT AT KING OF PRUSSIA,680 DE KALB PIKE ,KING OF PRUSSIA,PA,19406,,,,,,40.0986027,-75.3545426,
www.coach.com,MACY'S INC. - LEHIGH VALLEY,300 LEHIGH VALLEY MALL ,WHITEHALL,PA,18052,,,,,,40.6298678,-75.4791851,
www.coach.com,MACY'S INC. - MILL CREEK-PA,850 MILL CREEK MALL ,ERIE,PA,16509,,,,,,42.069559,-80.0976738,
www.coach.com,MACY'S INC. - MONROEVILLE,400 MONROEVILLE MALL ,MONROEVILLE,PA,15146,,,,,,40.428685,-79.7936381,
www.coach.com,MACY'S INC. - MONTGOMERY MALL (PA),RTS 202 & 309 ,NORTH WALES,PA,19454,,,,,,40.8001936,-75.9687871,
www.coach.com,MACY'S INC. - NORTHEAST (ROOSEVELT),2399 COTTMAN AVENUE ,PHILADELPHIA,PA,19149,,,,,,40.0468052,-75.0547263,
www.coach.com,MACY'S INC. - OXFORD VALLEY MALL,2300 E LINCOLN HWY ,LANGHORNE,PA,19047,,,,,,40.1836378,-74.8810481,
www.coach.com,MACY'S INC. - ROSS PARK,1004 ROSS PARK MALL ,PITTSBURGH,PA,15237,,,,,,40.541375,-80.008507,
www.coach.com,MACY'S INC. - SOUTH HILLS VILLAGE,100 SOUTH HILLS VILLAGE ,PITTSBURGH,PA,15241,,,,,,40.34134170000001,-80.05498709999999,
www.coach.com,MACY'S INC. - SPRINGFIELD MALL (PA),& ROUTE 320 ,SPRINGFIELD,PA,19064,,,,,,39.9320337,-75.3522464,
www.coach.com,MACY'S INC. - THE MALL AT ROBINSON,3000 ROBINSONS CENTRE DRIVE ,PITTSBURGH,PA,15205,,,,,,40.4562148,-80.15803340000001,
www.coach.com,MACY'S INC. - WESTMORELAND,994 EAST PITTSBURGH STREET ,GREENSBURG,PA,15601,,,,,,40.3015806,-79.50789449999999,
www.coach.com,MACY'S INC. - WILLOW GROVE PARK,EASTON MORELAND & OLD WELSH ROADS ,WILLOW GROVE,PA,19090,,,,,,40.1417283,-75.1170231,
www.coach.com,COACH 190 POST ST,190 POST STREET ,SAN FRANCISCO,CA,94108,,,(415) 392-1772,,,37.7888505,-122.40508,
www.coach.com,COACH BEVERLY CENTER,"8500 BEVERLY BLVD., SPACE 718 ",LOS ANGELES,CA,90048,,,(310) 659-1772,,,34.0748442,-118.3769196,
www.coach.com,COACH BREA,1052 BREA MALL ,BREA,CA,92821,,,(714) 257-0772,,,33.915299,-117.8886278,
www.coach.com,COACH DEL AMO FASHION CENTER,21540 HAWTHORNE BLVD ,TORRANCE,CA,90503,,,(310)371-2484,,,33.834714,-118.3507605,
www.coach.com,COACH FASHION VALLEY,7007 FRIARS ROAD - SUITE 371 ,SAN DIEGO,CA,92108,,,(619) 260-0772,,,32.7682239,-117.1668349,
www.coach.com,COACH GLENDALE,2110 GLENDALE GALLERIA ,GLENDALE,CA,91210,,,(818) 551-0772,,,34.1459242,-118.258304,
www.coach.com,COACH LOS CERRITOS,251 LOS CERRITOS CENTER ,CERRITOS,CA,90703,,,(562) 809-2953,,,33.8633811,-118.0931236,
www.coach.com,COACH MAIN PLACE,2800 N. MAIN STREET ,SANTA ANA,CA,92705,,,(714) 571-4956,,,33.7765868,-117.8698556,
www.coach.com,COACH MONTEBELLO TOWN CENTER,1772 MONTEBELLO TOWN CENTER DR. ,MONTEBELLO,CA,90640,,,(323) 726-2791,,,34.0374987,-118.0837458,
www.coach.com,COACH NORTH COUNTY,200 EAST VIA RANCHO PARKWAY ,ESCONDIDO,CA,92025,,,(760) 480-7350,,,33.071935,-117.0671111,
www.coach.com,COACH PALO ALTO - THE MALL AT PALO ALTO,361 STANFORD SHOPPING CENTER ,PALO ALTO,CA,94304,,,(650) 327-1772,,,37.4420465,-122.1726605,
www.coach.com,COACH PROMENADE IN TEMECULA,40764 WINCHESTER ROAD ,TEMECULA,CA,92591,,,(951) 296-0121,,,33.5238259,-117.15363,
www.coach.com,COACH RODEO DRIVE,327 N. RODEO DRIVE ,BEVERLY HILLS,CA,90210,,,(310) 247-1309,,,34.0682178,-118.4021765,
www.coach.com,COACH ROSEVILLE - THE GALLERIA AT ROSEVILLE,"1151 GALLERIA BLVD., SPACE 155 ",ROSEVILLE,CA,95678,,,(916) 786-3639,,,38.7733229,-121.2698568,
www.coach.com,COACH SACRAMENTO,1689 ARDEN WAY ,SACRAMENTO,CA,95815,,,(916) 641-1772,,,38.6015626,-121.4274586,
www.coach.com,COACH SAN FRANCISCO CENTRE - SAN FRANCISCO CENTRE,"865 MARKET STREET, SPACE #222 ",SAN FRANCISCO,CA,94103,,,(415) 543-7152,,,37.7837523,-122.407371,
www.coach.com,COACH SANTA ANITA,400 S. BALDWIN AVENUE ,ARCADIA,CA,91007,,,(626) 821-0735,,,34.1347001,-118.0515879,
www.coach.com,COACH SANTA MONICA PLACE,395 SANTA MONICA PLACE ,SANTA MONICA,CA,90401,,,(310) 394-5925,,,34.0138617,-118.4939796,
www.coach.com,COACH SHERMAN OAKS,"14006 RIVERSIDE DRIVE, SUITE 34 ",SHERMAN OAKS,CA,91423,,,(818) 995-4573,,,34.1568421,-118.437143,
www.coach.com,COACH SOUTH COAST PLAZA - SOUTH COAST PLAZA,3333 BRISTOL STREET ,COSTA MESA,CA,92626,,,(714) 979-1771,,,33.6917591,-117.8893807,
www.coach.com,COACH STONERIDGE,2037 STONERIDGE MALL ROAD SPACE A- 216 ,PLEASANTON,CA,94588,,,(925) 734-0198,,,37.6957758,-121.9288448,
www.coach.com,COACH THE GROVE - LOS ANGELES,189 THE GROVE DRIVE ,LOS ANGELES,CA,90036,,,(323) 934-7436,,,34.07351999999999,-118.3595218,
www.coach.com,COACH VALLEY FAIR,2855 STEVENS CREEK BLVD. ,SANTA CLARA,CA,95050,,,(408) 249-1772,,,37.3255657,-121.9450002,
www.coach.com,COACH VINTAGE FAIRE MALL,3401 DALE RD. ,MODESTO,CA,95356,,,(209) 523-7410,,,37.6888109,-121.0541136,
www.coach.com,COACH BARSTOW,2796 TANGER WAY ,BARSTOW,CA,92311,,,(760) 253-2772,,,34.8471756,-117.0844289,
www.coach.com,COACH BARSTOW MEN'S,2796 TANGER WAY ,BARSTOW,CA,92311,,,(760) 253-9845,,,34.8471756,-117.0844289,
www.coach.com,COACH CABAZON,48650 SEMINOLE ROAD ,CABAZON,CA,92230,,,(951) 849-0277,,,33.9279419,-116.8129428,
www.coach.com,COACH CAMARILLO,690 VENTURA BLVD ,CAMARILLO,CA,93010,,,(805) 388-2677,,,34.2169906,-119.0616637,
www.coach.com,COACH CAMARILLO MEN'S,740 EAST VENTURA BLVD. ,CAMARILLO,CA,93010,,,(805) 383-0471,,,34.21750670000001,-119.0615389,
www.coach.com,COACH CARLSBAD - CARLSBAD COMPANY STORES,5630 PASEO DEL NORTE ,CARLSBAD,CA,92008,,,(760) 476-0565,,,33.1262516,-117.3211879,
www.coach.com,COACH CARLSBAD MEN'S,560 PASEO DEL NORTE ,CARLSBAD,CA,92008,,,(760) 931-1909,,,33.119016,-117.3188567,
www.coach.com,COACH CARMEL,PO BOX 572 ,CARMEL,CA,93921,,,(831) 626-1777,,,36.5569,-121.92269,
www.coach.com,COACH CITADEL OUTLETS,100 CITADEL DRIVE ,COMMERCE,CA,90040,,,(323) 725-6792,,,34.0063385,-118.1529537,
www.coach.com,COACH FOLSOM,13000 FOLSOM BLVD. ,FOLSOM,CA,95630,,,(916) 351-9458,,,38.6440882,-121.1877071,
www.coach.com,COACH GILROY,8325 ARROYO CIRCLE SPACE B043 ,GILROY,CA,95020,,,(408) 846-8255,,,37.0227627,-121.5639817,
www.coach.com,COACH GILROY MEN'S,8375 ARROYO CIRCLE ,GILROY,CA,95020,,,(408) 846-4819,,,37.0221891,-121.5629745,
www.coach.com,COACH GRAN PLAZA,888 W. 2ND STREET ,CALEXICO,CA,92231,,,(760) 768-9245,,,32.6651379,-115.5075792,
www.coach.com,COACH LAKE ARROWHEAD - LAKE ARROWHEAD VILLAGE,28200 HIGHWAY 189 ,LAKE ARROWHEAD,CA,92352,,,(909) 336-6747,,,34.2511413,-117.1884165,
www.coach.com,COACH LAS AMERICAS OUTLETS,4155 CAMINO DE LA PLAZA ,SAN DIEGO,CA,92173,,,(619) 428-4390,,,32.5435142,-117.0438143,
www.coach.com,COACH MILPITAS,234 GREAT MALL DRIVE ,MILPITAS,CA,95035,,,(408) 263-7993,,,37.4181642,-121.8993721,
www.coach.com,COACH NAPA VALLEY,885 FACTORY STORES DRIVE ,NAPA,CA,94558,,,(707) 224-2489,,,38.2975048,-122.3032103,
www.coach.com,COACH ONTARIO MILLS,1 EAST MILLS CIRCLE ,ONTARIO,CA,91764,,,(909) 948-1362,,,34.073005,-117.5516905,
www.coach.com,COACH PETALUMA,"2200 PETALUMA BLVD. NORTH, SPACE 935 ",PETALUMA,CA,94952,,,(707) 763-7201,,,38.2569667,-122.6509249,
www.coach.com,COACH PISMO BEACH,333 FIVE CITIES DRIVE ,PISMO BEACH,CA,93449,,,(805) 773-4966,,,35.1353853,-120.6279894,
www.coach.com,COACH SAN FRANCISCO PREMIUM OUTLETS,3098 LIVERMORE OUTLETS DRIVE ,PLEASANTON,CA,94551,,,(925) 443-3543,,,37.69931589999999,-121.8435883,
www.coach.com,COACH SANTA BARBARA,"808A STATE STREET, 1ST FLOOR ",SANTA BARBARA,CA,93101,,,(805) 884-1161,,,34.420153,-119.6995738,
www.coach.com,COACH TEJON RANCH,5701 OUTLETS AT TEJON PARKWAY ,ARVIN,CA,93203,,,(661) 858-2715,,,34.9852107,-118.9416659,
www.coach.com,COACH TULARE,1469 RETHERFORD STREET ,TULARE,CA,93274,,,(559) 688-0283,,,36.2286037,-119.3338632,
www.coach.com,COACH VACAVILLE,354 NUT TREE ROAD ,VACAVILLE,CA,95687,,,(707) 447-2067,,,38.3666408,-121.9529485,
www.coach.com,COACH VIEJAS,5003 WILLOWS ROAD ,ALPINE,CA,91901,,,(619) 659-8450,,,32.8407945,-116.7049986,
www.coach.com,AAFES HQ - MCCLELLAN,BLDG 911 5443 DUDLEY BLVD ,MCCLELLAN,CA,95652,,,,,,38.6665317,-121.3886458,
www.coach.com,AAFES HQ - TRAVIS,461 SKYMASTER BDLG 648 ,TRAVIS AIR FORCE BASE,CA,94535,,,,,,38.2694628,-121.9494043,
www.coach.com,BLOOMINGDALE'S - BEVERLY CENTER,8500 BEVERLY BLVD ,LOS ANGELES,CA,90048,,,,,,34.0753309,-118.3774933,
www.coach.com,BLOOMINGDALE'S - CENTURY CITY,12050 SANTA MONICA ,LOS ANGELES,CA,90067,,,,,,34.0592786,-118.4189231,
www.coach.com,BLOOMINGDALE'S - FASHION VALLEY,7057 FRIARS ROAD ,SAN DIEGO,CA,92108,,,,,,32.7686363,-117.1645256,
www.coach.com,BLOOMINGDALE'S - GLENDALE GALLERIA,103 S BRAND AVE ,GLENDALE,CA,91204,,,,,,34.145966,-118.2555648,
www.coach.com,BLOOMINGDALE'S - NEWPORT BEACH FASHION,701 NEWPORT CTR DR ,NEWPORT BEACH,CA,92660,,,,,,33.6174657,-117.8758661,
www.coach.com,BLOOMINGDALE'S - SAN FRANCISCO,845 MARKET STREET ,SAN FRANCISCO,CA,94103,,,,,,37.784219,-122.406176,
www.coach.com,BLOOMINGDALE'S - SANTA MONICA,TBD ,SANTA MONICA,CA,90402,,,,,,34.029038,-118.5177311,
www.coach.com,BLOOMINGDALE'S - SHERMAN OAKS,14506 RIVERSIDE DR ,SHERMAN OAKS,CA,91423,,,,,,34.1580279,-118.4487212,
www.coach.com,BLOOMINGDALE'S - SOUTH COAST PLAZA,3333 BRISTOL STREET ,COSTA MESA,CA,92626,,,,,,33.6917591,-117.8893807,
www.coach.com,BLOOMINGDALE'S - STANFORD CENTER (CA),ONE STANFORD SHOPPING CTR ,PALO ALTO,CA,94304,,,,,,37.4439141,-122.1695955,
www.coach.com,DILLARD'S - ANTELOPE MALL,1255 WEST AVENUE P ,PALMDALE,CA,93551,,,,,,34.6020192,-118.1536364,
www.coach.com,DILLARD'S - IMPERIAL VALLEY MALL,3451 SOUTH DOGWOOD AVE ,EL CENTRO,CA,92243,,,,,,32.7622302,-115.5307291,
www.coach.com,DILLARD'S - WEBERSTOWN,4950 PACIFIC AVENUE ,STOCKTON,CA,95207,,,,,,37.9947989,-121.3121613,
www.coach.com,KENCO COMPANY - KENCO,18451 COLLIER AVE SUITE B ,LAKE ELSINORE,CA,92530,,,,,,33.6879137,-117.3374541,
www.coach.com,MACY'S INC. - ANTELOPE VALLEY,1123 W RANCHO VISTA BLVD ,PALMDALE,CA,93551,,,,,,34.6019556,-118.149987,
www.coach.com,MACY'S INC. - ARDEN FAIR,1701 ARDEN WAY ,SACRAMENTO,CA,95815,,,,,,38.5995253,-121.4225079,
www.coach.com,MACY'S INC. - BAKERSFIELD VALLEY PLAZA,2601 MING AVE ,BAKERSFIELD,CA,93309,,,,,,35.3377134,-119.0324553,
www.coach.com,MACY'S INC. - BEVERLY CENTER,8500 BEVERLY BLVD ,LOS ANGELES,CA,90048,,,,,,34.0753309,-118.3774933,
www.coach.com,MACY'S INC. - BREA (CA),200 BREA MALL ,BREA,CA,92821,,,,,,33.9148529,-117.8851691,
www.coach.com,MACY'S INC. - BURBANK TOWN CENTER,200 EAST CYPRESS AVE ,BURBANK,CA,91502,,,,,,34.1840619,-118.3135008,
www.coach.com,MACY'S INC. - CENTURY CITY (CA),10250 SANTA MONICA BLVD. ,LOS ANGELES,CA,90067,,,,,,34.0590031,-118.418866,
www.coach.com,MACY'S INC. - CONCORD SUNVALLEY,341 SUN VALLEY MALL ,CONCORD,CA,94520,,,,,,37.96768429999999,-122.0615259,
www.coach.com,MACY'S INC. - CORTE MADERA VILLAGE,1400 REDWOOD HIGHWAY ,CORTE MADERA,CA,94925,,,,,,37.9288674,-122.5119827,
www.coach.com,MACY'S INC. - DEL AMO FASHION CENTER,21600 HAWTHORNE BLVD ,TORRANCE,CA,90503,,,,,,33.8320557,-118.3510037,
www.coach.com,MACY'S INC. - DOWNEY STONEWOOD CENTER,251 STONEWOOD STREET ,DOWNEY,CA,90241,,,,,,33.935768,-118.119984,
www.coach.com,MACY'S INC. - FASHION CENTER (CA),9301 TAMPA AVE ,NORTHRIDGE,CA,91324,,,,,,34.2384139,-118.5560878,
www.coach.com,MACY'S INC. - FASHION VALLEY (CA),7017 FRIARS RD ,SAN DIEGO,CA,92108,,,,,,32.7673248,-117.1674142,
www.coach.com,MACY'S INC. - FOX HILLS (CA),6200 SLAUSON AVE ,CULVER CITY,CA,90230,,,,,,33.98808,-118.393974,
www.coach.com,MACY'S INC. - FRESNO FASHION FAIR,4888 NORTH FRESNO ST ,FRESNO,CA,93726,,,,,,36.8063256,-119.7796677,
www.coach.com,MACY'S INC. - GALLERIA AT TYLER-RIVERSIDE,3500 TYLER MALL ,RIVERSIDE,CA,92503,,,,,,33.908711,-117.456183,
www.coach.com,MACY'S INC. - GLENDALE GALLERIA,2100 GLENDALE GALLERIA ,GLENDALE,CA,91204,,,,,,34.1446891,-118.2594115,
www.coach.com,MACY'S INC. - LAKEWOOD CENTER (CA),5100 LAKEWOOD BLVD ,LAKEWOOD,CA,90712,,,,,,33.8506892,-118.14098,
www.coach.com,MACY'S INC. - LOS ANGELES DOWNTOWN PLAZA,750 W 7TH ST ,LOS ANGELES,CA,90017,,,,,,34.0477529,-118.2586667,
www.coach.com,MACY'S INC. - LOS CERRITOS CENTER,500 LOS CERRITOS CENTER ,CERRITOS,CA,90701,,,,,,33.8600229,-118.0923238,
www.coach.com,MACY'S INC. - MANHATTAN BEACH,3400 SEPULVEDA BLVD ,MANHATTAN BEACH,CA,90266,,,,,,33.9000128,-118.3934894,
www.coach.com,MACY'S INC. - MODESTO VINTAGE FAIR,500 VINTAGE FAIRE ,MODESTO,CA,95356,,,,,,37.6892431,-121.0531939,
www.coach.com,MACY'S INC. - MONTCLAIR PLAZA,5000 MONTCLAIR PLAZA LANE ,MONTCLAIR,CA,91763,,,,,,34.086954,-117.696209,
www.coach.com,MACY'S INC. - MONTEBELLO TOWN CENTER,2000 MONTEBELLO TOWN CENTER ,MONTEBELLO,CA,90640,,,,,,34.0355454,-118.0838555,
www.coach.com,MACY'S INC. - MONTEREY DEL MONTE CENTER,100 DEL MONTE CENTER ,MONTEREY,CA,93940,,,,,,36.5842918,-121.8969939,
www.coach.com,MACY'S INC. - NEWPARK,200 NEWPARK MALL ,NEWARK,CA,94560,,,,,,37.5255592,-122.0011027,
www.coach.com,MACY'S INC. - NEWPORT FASHION ISLAND,101 NEWPORT CENTER DRIVE ,NEWPORT BEACH,CA,92660,,,,,,33.6144814,-117.8754033,
www.coach.com,MACY'S INC. - PALM DESERT,72-780 HIGHWAY 111 ,PALM DESERT,CA,92260,,,,,,33.7236222,-116.3967034,
www.coach.com,MACY'S INC. - PASADENA,401 SOUTHLAKE AVE ,PASADENA,CA,91101,,,,,,34.1387713,-118.1331213,
www.coach.com,MACY'S INC. - PLAZA BONITA,3000 PLAZA BONITA ROAD ,NATIONAL CITY,CA,91950,,,,,,32.657967,-117.0663789,
www.coach.com,MACY'S INC. - PLEASANTON STONERIDGE,1300 STONERIDGE MALL RD ,PLEASANTON,CA,94588,,,,,,37.6935797,-121.9282172,
www.coach.com,MACY'S INC. - ROSEVILLE GALLERIA,1197 GALLERIA BLVD ,ROSEVILLE,CA,95678,,,,,,38.7753003,-121.2683993,
www.coach.com,MACY'S INC. - SACRAMENTO DOWNTOWN PLAZA,414 K ST ,SACRAMENTO,CA,95814,,,,,,38.5806452,-121.5018481,
www.coach.com,MACY'S INC. - SALINAS NORTHRIDGE,200 NORTHRIDGE CENTER ,SALINAS,CA,93901,,,,,,36.71926699999999,-121.658304,
www.coach.com,MACY'S INC. - SAN BERNARDINO INLAND CENTER,400 INLAND CENTER DRIVE ,SAN BERNARDINO,CA,92408,,,,,,34.0849505,-117.2984261,
www.coach.com,MACY'S INC. - SAN FRANCISCO UNION SQUARE,170 O'FARRELL ST ,SAN FRANCISCO,CA,94108,,,,,,37.7867986,-122.4073963,
www.coach.com,MACY'S INC. - SANTA ANITA,400 S BALDWIN AVE ,ARCADIA,CA,91007,,,,,,34.1347001,-118.0515879,
www.coach.com,MACY'S INC. - SANTA ROSA PLAZA,800 SANTA ROSE PLAZA ,SANTA ROSA,CA,95401,,,,,,38.4392665,-122.7165117,
www.coach.com,MACY'S INC. - SERRAMONTE,#1 SERRAMONTE CENTER ,DALY CITY,CA,94015,,,,,,37.67351,-122.470751,
www.coach.com,MACY'S INC. - SHERMAN OAKS FASHION SQUARE,14000 RIVERSIDE DR ,SHERMAN OAKS,CA,91423,,,,,,34.1571138,-118.4354635,
www.coach.com,MACY'S INC. - SHOPS AT RIVER PARK,7890 N BLACKSTONE AVE ,FRESNO,CA,93720,,,,,,36.8507701,-119.7899199,
www.coach.com,MACY'S INC. - SOUTH COAST PLAZA,3333 S BRISTOL ST ,COSTA MESA,CA,92626,,,,,,33.701083,-117.8843646,
www.coach.com,MACY'S INC. - SOUTHLAND MALL (CA),800 SOUTHLAND MALL ,HAYWARD,CA,94545,,,,,,37.6502098,-122.1041946,
www.coach.com,MACY'S INC. - STANFORD CENTER (CA),300 STANFORD MALL ,PALO ALTO,CA,94304,,,,,,37.4421977,-122.1715143,
www.coach.com,MACY'S INC. - TEMECULA PROMENADE,40782 WINCHESTER RD ,TEMECULA,CA,92591,,,,,,33.525535,-117.1578675,
www.coach.com,MACY'S INC. - THOUSAND OAKS,220 W HILLCREST ,THOUSAND OAKS,CA,91360,,,,,,34.183887,-118.8868127,
www.coach.com,MACY'S INC. - TOPANGA,21900 VANOWEN STREET ,CANOGA PARK,CA,91303,,,,,,34.19197,-118.60386,
www.coach.com,MACY'S INC. - UNIVERSITY TOWN CENTER (CA),4333 LA JOLLA VILLAGE DR ,SAN DIEGO,CA,92122,,,,,,32.8690838,-117.2124,
www.coach.com,MACY'S INC. - VALENCIA TOWN CENTER,26450 MCBEAN PARKWAY ,SANTA CLARITA,CA,91355,,,,,,34.4156004,-118.5591626,
www.coach.com,MACY'S INC. - VALLEY FAIR (CA),2801 STEVENS CREEK BLVD ,SANTA CLARA,CA,95050,,,,,,37.325693,-121.9428171,
www.coach.com,MACY'S INC. - VENTURA PACIFIC VIEW,477 S MILLS RD ,VENTURA,CA,93003,,,,,,34.26728790000001,-119.2478009,
www.coach.com,MACY'S INC. - VICTOR VALLEY,14580 BEAR VALLEY ROAD ,VICTORVILLE,CA,92392,,,,,,34.4743075,-117.3455773,
www.coach.com,MACY'S INC. - VICTORIA GARDENS (CA),7855 KEW AVE ,RANCHO CUCAMONGA,CA,91739,,,,,,34.1108553,-117.5303221,
www.coach.com,MACY'S INC. - VISALIA,2211 S MOONEY BLVD ,VISALIA,CA,93277,,,,,,36.3105713,-119.3144909,
www.coach.com,MACY'S INC. - WALNUT CREEK BROADWAY PLAZA,1320 BROADWAY PLAZA ,WALNUT CREEK,CA,94596,,,,,,37.8948798,-122.057638,
www.coach.com,MACY'S INC. - WEST COVINA,1200 WEST COVINA PKWY ,WEST COVINA,CA,91790,,,,,,34.0707875,-117.9318176,
www.coach.com,MACY'S INC. - WESTMINSTER (CA),300 WESTMINSTER MALL ,WESTMINSTER,CA,92683,,,,,,33.747182,-118.012349,
www.coach.com,MOMENTUM NA.INC - MOMENTUM,909 PALOU AVE ,SAN FRANCISCO,CA,94124,,,,,,37.7264282,-122.3783613,
www.coach.com,NAVY EXCHANGE (NEX) - LEMOORE MAIN COMPLX,BLDG 796-NAS PO BOX 1369 ,LEMOORE,CA,93245,,,,,,36.2605985,-119.9108761,
www.coach.com,NAVY EXCHANGE (NEX) - NO ISLAND MAIN ST,BLDG 2017- NAS NORTH ISLAND ,SAN DIEGO,CA,92135,,,,,,32.70224230000001,-117.1841025,
www.coach.com,NAVY EXCHANGE (NEX) - PT HUENEME MAIN ST,BLDG 1512-NBVC 130 23RD AVE ST 2 ,PORT HUENEME,CA,93043,,,,,,34.167217,-119.1970018,
www.coach.com,NAVY EXCHANGE (NEX) - SAN DIEGO MAIN ST,BLDG 3187A-2260 CALLAGAN HWY ,SAN DIEGO,CA,92136,,,,,,32.6898861,-117.1285145,
www.coach.com,NORDSTROM - BREA MALL,500 BREA MALL WAY ,BREA,CA,92821,,,,,,33.9158494,-117.8881709,
www.coach.com,NORDSTROM - FASHION VALLEY CENTER,270 FASHION VALLEY ROAD ,SAN DIEGO,CA,92108,,,,,,32.7654493,-117.1705557,
www.coach.com,NORDSTROM - GALLERIA @ ROSEVILLE,1131 HARDING BLVD ,ROSEVILLE,CA,95678,,,,,,38.7568497,-121.2669724,
www.coach.com,NORDSTROM - GLENDALE GALLERIA,200 W BROADWAY ,GLENDALE,CA,91204,,,,,,34.146414,-118.2573587,
www.coach.com,NORDSTROM - SAN FRANCISCO SHOPPING CENTRE,865 MARKET ST ,SAN FRANCISCO,CA,94103,,,,,,37.7839663,-122.4075291,
www.coach.com,NORDSTROM - SANTA ANITA FASHION PARK,400 S BALDWIN AVE ,ARCADIA,CA,91007,,,,,,34.1347001,-118.0515879,
www.coach.com,NORDSTROM - SOUTH COAST PLAZA/CRYSTAL CT,3333 BRISTOL ,COSTA MESA,CA,92626,,,,,,33.6917591,-117.8893807,
www.coach.com,NORDSTROM - THE GALLERIA AT SOUTH BAY,1835 HAWTHORNE BLVD. ,REDONDO BEACH,CA,90278,,,,,,33.8596106,-118.3536368,
www.coach.com,NORDSTROM - VALLEY FAIR,2901 STEVENS CREEK BLVD ,SANTA CLARA,CA,95050,,,,,,37.326293,-121.945493,
www.coach.com,COACH FASHION SHOW,3200 LAS VEGAS BLVD ,LAS VEGAS,NV,89109,,,(702) 759-3451,,,36.1275236,-115.1715003,
www.coach.com,COACH FORUM,3500 LAS VEGAS BLVD. SO. SPACE A-01 ,LAS VEGAS,NV,89109,,,(702) 651-0363,,,36.1189113,-115.1737617,
www.coach.com,COACH FORUM II,"3500 LAS VEGAS BLVD. SO., ",LAS VEGAS,NV,89109,,,(702) 796-1772,,,36.1174528,-115.1766881,
www.coach.com,COACH MEADOWOOD MALL,5425 MEADOWOOD MALL CIRCLE ,RENO,NV,89502,,,(775) 825-6459,,,39.473847,-119.7829334,
www.coach.com,COACH PALAZZO - THE SHOPPES AT THE PALAZZO,3327 LAS VEGAS BLVD. SOUTH ,LAS VEGAS,NV,89109,,,(702) 547-1772,,,36.1238664,-115.1688631,
www.coach.com,COACH LAS VEGAS OUTLET CENTER - LAS VEGAS OUTLETS SOUTH,7400 LAS VEGAS BLVD. SOUTH ,LAS VEGAS,NV,89123,,,(702) 386-1067,,,36.0549772,-115.1691065,
www.coach.com,COACH LAS VEGAS PREMIUM,785 S. GRAND CENTRAL PARKWAY ,LAS VEGAS,NV,89106,,,(702) 386-9990,,,36.1648985,-115.1583204,
www.coach.com,COACH LAS VEGAS PREMIUM OUTLET - NORTH MEN'S,795 SOUTH GRAND CENTRAL PARKWAY ,LAS VEGAS,NV,89106,,,(702) 385-0602,,,36.1644456,-115.1590634,
www.coach.com,COACH PRIMM - FASHION OUTLET OF LAS VEGAS,32100 LAS VEGAS BLVD. SO. ,PRIMM,NV,89019,,,(702) 874-1711,,,35.6074927,-115.3878294,
www.coach.com,AAFES HQ - NELLIS AIR FORCE BASE,BLDG431 5691 RICKENBACKER RD ,NELLIS AIR FORCE BASE,NV,89191,,,,,,36.2338891,-115.0507298,
www.coach.com,DILLARD'S - FASHION SHOW MALL,3200 LAS VEGAS BLVD ,LAS VEGAS,NV,89109,,,,,,36.1275236,-115.1715003,
www.coach.com,DILLARD'S - GALLERIA (NV),1320 W SUNSET ROAD ,HENDERSON,NV,89014,,,,,,36.0669264,-115.0441896,
www.coach.com,DILLARD'S - SHOPS AT SUMMERLIN,11011 SAGE PARK DRIVE ,LAS VEGAS,NV,89135,,,,,,36.1477395,-115.3339305,
www.coach.com,DILLARD'S - SUMMIT SIERRA,MT ROSE HWY & SVIRGINIA ST ,RENO,NV,89511,,,,,,39.4028504,-119.7463138,
www.coach.com,MACY'S INC. - LAS VEGAS FASHION SHOW,3200 LAS VEGAS BLVD S ,LAS VEGAS,NV,89109,,,,,,36.1275236,-115.1715003,
www.coach.com,MACY'S INC. - LAS VEGAS MEADOWS,4100 MEADOWS LN ,LAS VEGAS,NV,89107,,,,,,36.1733546,-115.1958206,
www.coach.com,MACY'S INC. - RENO MEADOWWOOD,5100 MEADOWBROOK MALL ,RENO,NV,89502,,,,,,39.474393,-119.7837793,
www.coach.com,MACY'S INC. - SUMMERLIN,2075 FESTIVAL PLAZA DRIVE ,LAS VEGAS,NV,89135,,,,,,36.1488994,-115.3346873,
www.coach.com,SAKS FIFTH AVENUE - FASHION SHOW,3200 LAS VEGAS BLVD ,LAS VEGAS,NV,89109,,,,,,36.1275236,-115.1715003,
www.coach.com,COACH CHERRY CREEK,3000 EAST FIRST AVENUE ,DENVER,CO,80206,,,(303) 393-1772,,,39.7169025,-104.9566822,
www.coach.com,COACH FLATIRON,"1 WEST FLATIRON CIRCLE,SPACE 1012 ",BROOMFIELD,CO,80021,,,(303) 460-7634,,,,,
www.coach.com,COACH PARK MEADOWS,8405 PARK MEADOWS CENTER DRIVE ,LONE TREE,CO,80124,,,(303) 792-0600,,,39.5632726,-104.8777911,
www.coach.com,COACH CASTLE ROCK - THE OUTLETS AT CASTLE ROCK,5050 FACTORY SHOPS BLVD #460 ,CASTLE ROCK,CO,80108,,,(303) 814-0750,,,39.4156345,-104.8732477,
www.coach.com,COACH COLORADO MILLS,14500 W. COLFAX AVE. ,LAKEWOOD,CO,80401,,,(303) 279-4133,,,39.730932,-105.161597,
www.coach.com,COACH DENVER PREMIUM,13801 GRANT STREET ,THORNTON,CO,80023,,,(303) 252-3190,,,39.947938,-104.9854157,
www.coach.com,COACH SILVERTHORNE,227P BLUE RIVER PARKWAY ,SILVERTHORNE,CO,80498,,,(970) 513-1400,,,39.6286797,-106.0731111,
www.coach.com,AAFES HQ - BUCKLEY,BLDG 1 N TELLURIDE STREET ,AURORA,CO,80011,,,,,,39.7203335,-104.7815459,
www.coach.com,AAFES HQ - FT. CARSON,6110 MARTINEZ ST ,FORT CARSON,CO,80913,,,,,,38.73747890000001,-104.7954885,
www.coach.com,AAFES HQ - PETERSON BX,1030 E STEWART AVE BLDG 2017 ,PETERSON AIR FORCE BASE,CO,80914,,,,,,38.8131026,-104.676456,
www.coach.com,DILLARD'S - CHAPEL HILLS (CO),1790 BRIARGATE BLVD ,COLORADO SPRINGS,CO,80920,,,,,,38.9487994,-104.793451,
www.coach.com,DILLARD'S - FLAT IRON,41 WEST FLAT IRON CIRCLE ,BROOMFIELD,CO,80021,,,,,,39.9313419,-105.1354861,
www.coach.com,DILLARD'S - PARK MEADOWS,8415 PARK MEADOW CTRDR ,LITTLETON,CO,80124,,,,,,39.5638365,-104.8783945,
www.coach.com,DILLARD'S - PUEBLO MALL,3601 DILLON DR ,PUEBLO,CO,81008,,,,,,38.3048469,-104.6085665,
www.coach.com,DILLARD'S - SOUTHWEST PLAZA,8501 W BOWLES ,AURORA,CO,80011,,,,,,39.612231,-105.0967299,
www.coach.com,MACY'S INC. - CHERRY CREEK SC,15 SOUTH STEELE STREET ,DENVER,CO,80206,,,,,,39.716214,-104.951293,
www.coach.com,NORDSTROM - PARK MEADOWS,8465 PARK MEADOWS DRIVE ,LITTLETON,CO,80124,,,,,,39.5546489,-104.8810837,
www.coach.com,COACH ANCHORAGE FIFTH AVENUE,320 W 5TH AVENUE ,ANCHORAGE,AK,99501,,,(907) 743-8091,,,61.21708869999999,-149.8897908,
www.coach.com,AAFES HQ - ELMENDORF,5800 WESTOVER AVE BLDG 5800B ,ELMENDORF AIR FORCE BASE,AK,99506,,,,,,61.23484800000001,-149.766561,
www.coach.com,COACH FOLEY,"2601 S. MCKENZIE, SUITE #220 ",FOLEY,AL,36535,,,(251) 943-1772,,,30.3772577,-87.68195879999999,
www.coach.com,COACH GRAND RIVER,6200 GRAND RIVER BLVD EAST ,LEEDS,AL,35094,,,(205) 699-6579,,,33.5483197,-86.59601769999999,
www.coach.com,AAFES HQ - MAXWELL,BLDG 1090 355 KELLY ST ,MONTGOMERY,AL,36112,,,,,,32.3745175,-86.3545528,
www.coach.com,AAFES HQ - REDSTONE ARSENAL,ACTON DRIVE BLDG 3220 ,REDSTONE ARSENAL,AL,35898,,,,,,34.6959667,-86.6313861,
www.coach.com,BELK - BEL AIR MALL,3100 BEL AIR MALL ,MOBILE,AL,36606,,,,,,30.6733446,-88.124366,
www.coach.com,BELK - HUNTSVILLE,365 BRIDGE STREET ,HUNTSVILLE,AL,35806,,,,,,34.718601,-86.67398399999999,
www.coach.com,BELK - RIVERCHASE,2100 RIVERCHASE GALLERIA ,BIRMINGHAM,AL,35244,,,,,,33.380121,-86.80872889999999,
www.coach.com,BELK - SUMMIT (AL),221 SUMMIT BOULEVARD ,BIRMINGHAM,AL,35243,,,,,,33.4479276,-86.728197,
www.coach.com,BELK - UNIVERSITY MALL (AL),169 UNIVERSITY MALL ,TUSCALOOSA,AL,35404,,,,,,33.1948058,-87.5221224,
www.coach.com,DILLARD'S - BEL AIR,3300 AIRPORT BLVD/HIGHWAY 90 ,MOBILE,AL,36606,,,,,,30.6762485,-88.12466979999999,
www.coach.com,DILLARD'S - EASTDALE MALL,3000 EASTDALE MALL ,MONTGOMERY,AL,36117,,,,,,32.3851069,-86.2043138,
www.coach.com,DILLARD'S - PARKWAY PLACE,2801 MEMORIAL PARKWAY SOUTH ,HUNTSVILLE,AL,35801,,,,,,34.7076087,-86.5868883,
www.coach.com,DILLARD'S - THE SHOPPES AT EASTCHASE,7310 EASTCHASE PARKWAY ,MONTGOMERY,AL,36117,,,,,,32.35799,-86.16420749999999,
www.coach.com,DILLARD'S - WIREGRASS COMMONS (AL),900 COMMONS DRIVE ,DOTHAN,AL,36303,,,,,,31.2540367,-85.4243382,
www.coach.com,SAKS FIFTH AVENUE - BIRMINGHAM,129 SUMMIT BLVD ,BIRMINGHAM,AL,35243,,,,,,33.4457213,-86.7316546,
www.coach.com,VON MAUR - RIVERCHASE GALLERIA,3000 RIVERCHASE GALLERIA ,HOOVER,AL,35244,,,,,,33.3794513,-86.8085509,
www.coach.com,DILLARD'S - CENTRAL MALL (AR),5111 ROGERS AVENUE ,FORT SMITH,AR,72913,,,,,,35.3644041,-94.37577519999999,
www.coach.com,DILLARD'S - MCCAIN MALL,3929 MC CAIN BLVD ,NORTH LITTLE ROCK,AR,72116,,,,,,34.792947,-92.2266192,
www.coach.com,DILLARD'S - NW ARKANSAS PLAZA,4210 HIGHWAY 71 NORTH ,FAYETTEVILLE,AR,72703,,,,,,36.0168729,-94.17263249999999,
www.coach.com,DILLARD'S - PARK PLAZA,6000 W MARKHAM ,LITTLE ROCK,AR,72205,,,,,,34.75336240000001,-92.34281179999999,
www.coach.com,DILLARD'S - PINNACLE HILLS,3951 PERRY ROAD ,ROGERS,AR,72756,,,,,,36.3025063,-94.1715222,
www.coach.com,DILLARD'S - TURTLE CREEK MALL (AR),3000 E HIGHLAND ,JONESBORO,AR,72401,,,,,,35.823099,-90.6645571,
www.coach.com,COACH 625 N. MICHIGAN,625 NORTH MICHIGAN AVENUE ,CHICAGO,IL,60611,,,(312) 587-3167,,,41.8930858,-87.6237216,
www.coach.com,COACH NORTHBROOK,2158 NORTHBROOK COURT ,NORTHBROOK,IL,60062,,,(847) 272-7195,,,42.1503513,-87.8149401,
www.coach.com,COACH OAKBROOK,154 OAKBROOK CENTER ,OAKBROOK,IL,60523,,,(630) 572-1772,,,41.8499302,-87.9501105,
www.coach.com,COACH OLD ORCHARD,4999 OLD ORCHARD CENTER ,SKOKIE,IL,60077,,,(847) 329-1772,,,42.0594632,-87.7492413,
www.coach.com,COACH ORLAND SQUARE,432 ORLAND SQUARE DRIVE ,ORLAND PARK,IL,60462,,,(708) 349-1053,,,41.618981,-87.8477569,
www.coach.com,COACH WOODFIELD,F-340 WOODFIELD MALL ,SCHAUMBURG,IL,60173,,,(847) 330-1772,,,42.0468992,-88.0369703,
www.coach.com,COACH CHICAGO PREMIUM OUTLETS,1650 PREMIUM OUTLETS BLVD. ,AURORA,IL,60504,,,(630) 851-1440,,,41.8003339,-88.27393250000002,
www.coach.com,COACH ROSEMONT,5220 FASHION OUTLETS WAY ,ROSEMONT,IL,60018,,,(847) 671-1771,,,41.9749855,-87.8671165,
www.coach.com,COACH TUSCOLA - FACTORY STORES @ TUSCOLA,"A1000 TUSCOLA BLVD, BOX 4011 ",TUSCOLA,IL,61953,,,(217) 253-3030,,,39.7901434,-88.2688743,
www.coach.com,AAFES HQ - SCOTT,BLDG 1981 207 WEST WINTERS ST ,SCOTT AIR FORCE BASE,IL,62225,,,,,,38.5356552,-89.8678846,
www.coach.com,BLOOMINGDALE'S - NORTH MICHIGAN AVENUE,900 NORTH MICHIGAN AVE ,CHICAGO,IL,60611,,,,,,41.8996105,-87.6248808,
www.coach.com,BLOOMINGDALE'S - OLD ORCHARD SHOPPING CENTER,376 OLD ORCHARD ,SKOKIE,IL,60077,,,,,,42.0611246,-87.7508612,
www.coach.com,BON-TON STORES - CHERRYVALE,NUMBER 3 MALL AT CHERRYVALE ,ROCKFORD,IL,61112,,,,,,42.2458684,-88.97561069999999,
www.coach.com,BON-TON STORES - CHERRYVALE,NUMBER 3 MALL AT CHERRYVALE ,ROCKFORD,IL,61112,,,,,,42.2458684,-88.97561069999999,
www.coach.com,BON-TON STORES - CHICAGO RIDGE,9800 S RIDGELAND AVE ,CHICAGO RIDGE,IL,60415,,,,,,41.7135048,-87.7803686,
www.coach.com,BON-TON STORES - CHICAGO RIDGE,9800 S RIDGELAND AVE ,CHICAGO RIDGE,IL,60415,,,,,,41.7135048,-87.7803686,
www.coach.com,BON-TON STORES - EVERGREEN,9700 SOUTH WESTERN AVE ,EVERGREEN PARK,IL,60805,,,,,,41.717011,-87.6828839,
www.coach.com,BON-TON STORES - EVERGREEN,9700 SOUTH WESTERN AVE ,EVERGREEN PARK,IL,60805,,,,,,41.717011,-87.6828839,
www.coach.com,BON-TON STORES - FORD CITY,7601 S CICERO ,CHICAGO,IL,60652,,,,,,41.75581589999999,-87.7370785,
www.coach.com,BON-TON STORES - FORD CITY,7601 S CICERO ,CHICAGO,IL,60652,,,,,,41.75581589999999,-87.7370785,
www.coach.com,BON-TON STORES - HARLEM-IRVING,4200 N HARLEM ,CHICAGO,IL,60634,,,,,,41.9559076,-87.8074702,
www.coach.com,BON-TON STORES - HARLEM-IRVING,4200 N HARLEM ,CHICAGO,IL,60634,,,,,,41.9559076,-87.8074702,
www.coach.com,BON-TON STORES - LINCOLNWOOD,333 WEST TAUHY ,CHICAGO,IL,60645,,,,,,42.0112867,-87.82764670000002,
www.coach.com,BON-TON STORES - LINCOLNWOOD,333 WEST TAUHY ,CHICAGO,IL,60645,,,,,,42.0112867,-87.82764670000002,
www.coach.com,BON-TON STORES - NORTH RIVERSIDE,7505 WEST CERMAK ROAD ,NORTH RIVERSIDE,IL,60546,,,,,,41.8496264,-87.80816639999999,
www.coach.com,BON-TON STORES - NORTH RIVERSIDE,7505 WEST CERMAK ROAD ,NORTH RIVERSIDE,IL,60546,,,,,,41.8496264,-87.80816639999999,
www.coach.com,BON-TON STORES - ORLAND SQUARE,4 ORLAND SQUARE ,ORLAND PARK,IL,60462,,,,,,41.6190408,-87.849481,
www.coach.com,BON-TON STORES - ORLAND SQUARE,4 ORLAND SQUARE ,ORLAND PARK,IL,60462,,,,,,41.6190408,-87.849481,
www.coach.com,BON-TON STORES - RANDHURST,999 ELMHURST RD ,MOUNT PROSPECT,IL,60056,,,,,,42.0476937,-87.94037750000001,
www.coach.com,BON-TON STORES - RANDHURST,999 ELMHURST RD ,MOUNT PROSPECT,IL,60056,,,,,,42.0476937,-87.94037750000001,
www.coach.com,BON-TON STORES - SHOPPES @ GRAND PRAIRE,5203 W WAR MEMORIAL DR ,PEORIA,IL,61615,,,,,,40.7794224,-89.6724203,
www.coach.com,BON-TON STORES - SHOPPES @ GRAND PRAIRE,5203 W WAR MEMORIAL DR ,PEORIA,IL,61615,,,,,,40.7794224,-89.6724203,
www.coach.com,BON-TON STORES - YORKTOWN,BUTTERFIELD RD & HIGHLAND AVE ,LOMBARD,IL,60148,,,,,,41.83726799999999,-88.011755,
www.coach.com,BON-TON STORES - YORKTOWN,BUTTERFIELD RD & HIGHLAND AVE ,LOMBARD,IL,60148,,,,,,41.83726799999999,-88.011755,
www.coach.com,DILLARD'S - ST. CLAIR SQUARE,275 ST CLAIR SQUARE ,FAIRVIEW HEIGHTS,IL,62208,,,,,,38.5965029,-89.9786136,
www.coach.com,HINDA INCENTIVES - HINDA INCENTIVES,2440 W 34TH STREET ,CHICAGO,IL,60608,,,,,,41.8326785,-87.68692449999999,
www.coach.com,LORD & TAYLOR - OAKBROOK SHOPPING CENTER,180 OAKBROOK CTR MALL ,HINSDALE,IL,60521,,,,,,41.849319,-87.95085499999999,
www.coach.com,LORD & TAYLOR - WOODFIELD MALL,4 WOODFIELD MALL ,SCHAUMBURG,IL,60173,,,,,,42.0469113,-88.03741029999999,
www.coach.com,MACY'S INC. - CHERRYVALE,1 MALL AT CHERRYVALE ,ROCKFORD,IL,61112,,,,,,42.2458684,-88.97561069999999,
www.coach.com,MACY'S INC. - FOX VALLEY CENTER (IL),1 FOX VALLEY CENTER ,AURORA,IL,60504,,,,,,41.7591934,-88.2126522,
www.coach.com,MACY'S INC. - HAWTHORN CENTER,1 HAWTHORN CENTER ,VERNON HILLS,IL,60061,,,,,,42.2424249,-87.95189169999999,
www.coach.com,MACY'S INC. - LOUIS JOLIET,3340 MALL LOOP DRIVE ,JOLIET,IL,60435,,,,,,41.576161,-88.16453709999999,
www.coach.com,MACY'S INC. - OAKBROOK CENTER,1 OAKBROOK CENTER MALL ,HINSDALE,IL,60521,,,,,,41.8475774,-87.9541864,
www.coach.com,MACY'S INC. - OLD ORCHARD,1 OLD ORCHARD SHOPPING CENTER ,SKOKIE,IL,60077,,,,,,42.0587645,-87.7498796,
www.coach.com,MACY'S INC. - ORLAND SQUARE,1 ORLAND SQUARE ,ORLAND PARK,IL,60462,,,,,,41.62081500000001,-87.84973,
www.coach.com,MACY'S INC. - RIVER OAKS,1 RIVER OAKS DRIVE ,CALUMET CITY,IL,60409,,,,,,41.5956273,-87.52525159999999,
www.coach.com,MACY'S INC. - SPRING HILL,1000 SPRING HILL ,WEST DUNDEE,IL,60118,,,,,,42.101682,-88.295029,
www.coach.com,MACY'S INC. - ST. CLAIR SQUARE,200 ST CLAIR SQUARE ,FAIRVIEW HEIGHTS,IL,62208,,,,,,38.5965867,-89.9815086,
www.coach.com,MACY'S INC. - STATE STREET,111 NORTH STATE STREET ,CHICAGO,IL,60602,,,,,,41.8838936,-87.6273976,
www.coach.com,MACY'S INC. - WATER TOWER PLACE,835 N MICHIGAN AVE ,CHICAGO,IL,60611,,,,,,41.8979875,-87.6232418,
www.coach.com,MACY'S INC. - WHITE OAKS,101 WHITE OAKS MALL ,SPRINGFIELD,IL,62704,,,,,,39.767332,-89.702253,
www.coach.com,MACY'S INC. - WOODFIELD,1 WOODFIELD DRIVE ,SCHAUMBURG,IL,60173,,,,,,42.0431626,-88.0448536,
www.coach.com,NAVY EXCHANGE (NEX) - GREAT LKS (BURKY) MA,BLDG 3452-GREENBAY RD ,GREAT LAKES,IL,60088,,,,,,42.29610840000001,-87.85884879999999,
www.coach.com,NEIMAN MARCUS - OAKBROOK,6 OAKBROOK CENTER ,OAK BROOK,IL,60523,,,,,,41.8486773,-87.95050309999999,
www.coach.com,NORDSTROM - MICHIGAN AVE.,444 NORTH WABASH AVENUE ,CHICAGO,IL,60611,,,,,,41.8906462,-87.62684159999999,
www.coach.com,NORDSTROM - OLD ORCHARD SHOPPING CENTER,77 OLD ORCHARD SHOPPING CTR ,SKOKIE,IL,60077,,,,,,42.0614891,-87.74759139999999,
www.coach.com,VON MAUR - CHARLESTOWNE MALL,3800 E MAIN STREET ,SAINT CHARLES,IL,60174,,,,,,41.9237184,-88.2691212,
www.coach.com,VON MAUR - COLLEGE HILLS MALL,301 VERTERANS PARKWAY ,NORMAL,IL,61761,,,,,,40.508333,-88.95818709999999,
www.coach.com,VON MAUR - GLENVIEW,1960 TOWER DRIVE ,GLENVIEW,IL,60025,,,,,,42.0900951,-87.8255628,
www.coach.com,VON MAUR - HICKORY POINT MALL,US ROUTE 51 NORTH ,DECATUR,IL,62526,,,,,,39.9001816,-88.9991167,
www.coach.com,VON MAUR - SOUTHPARK (IL),4700 16TH STREET ,MOLINE,IL,61265,,,,,,41.4656899,-90.5068869,
www.coach.com,VON MAUR - YORKTOWN SHOPPING CENTER #14,230 YORKTOWN ROAD ,LOMBARD,IL,60148,,,,,,41.840271,-88.0060207,
www.coach.com,COACH LENOX SQUARE,3393 PEACHTREE RD. NE ,ATLANTA,GA,30326,,,(404) 237-6297,,,33.846335,-84.3635778,
www.coach.com,COACH MALL OF GEORGIA,3333 BUFORD DRIVE ,BUFORD,GA,30519,,,(770) 614-6543,,,34.0647052,-83.98411469999999,
www.coach.com,COACH ATLANTA,915 RIDGEWALK PARKWAY ,WOODSTOCK,GA,30188,,,(770) 517-5790,,,34.1202777,-84.5265338,
www.coach.com,COACH CALHOUN,455 BELWOOD ROAD ,CALHOUN,GA,30701,,,(706) 602-4301,,,34.4610972,-84.91799669999999,
www.coach.com,COACH COMMERCE,800 STEVEN B TANGER BLVD. ,COMMERCE,GA,30529,,,(706) 335-3003,,,34.2508559,-83.4735809,
www.coach.com,COACH DAWSONVILLE,800 HIGHWAY 400 ,DAWSONVILLE,GA,30534,,,(706) 216-6157,,,34.3578094,-84.0478658,
www.coach.com,COACH LOCUST GROVE,1000 TANGER DRIVE ,LOCUST GROVE,GA,30248,,,(770) 898-0526,,,33.3482674,-84.12246909999999,
www.coach.com,COACH SAVANNAH,200 TANGER OUTLET BLVD ,POOLER,GA,31322,,,(912) 450-9393,,,32.1346946,-81.2432171,
www.coach.com,AAFES HQ - FT BENNING,BLDG 9230 ,FORT BENNING,GA,31905,,,,,,32.37224150000001,-84.9226829,
www.coach.com,AAFES HQ - FT. GORDON MS,BLDG 38200 3RD AVE ,FORT GORDON,GA,30905,,,,,,33.409708,-82.13294049999999,
www.coach.com,BELK - PHIPPS PLAZA (GA),3500 PEACHTREE ROAD NE ,ATLANTA,GA,30326,,,,,,33.85280350000001,-84.36225560000001,
www.coach.com,BLOOMINGDALE'S - LENOX MALL,3393 PEACHTREE ROAD NE ,ATLANTA,GA,30326,,,,,,33.846335,-84.3635778,
www.coach.com,DILLARD'S - ALBANY MALL,2601 DAWSON RD ,ALBANY,GA,31707,,,,,,31.6184484,-84.217011,
www.coach.com,DILLARD'S - ATLANTIC STATION,1371 MARKET STREET ,ATLANTA,GA,30363,,,,,,33.79223959999999,-84.39440259999999,
www.coach.com,DILLARD'S - AUGUSTA MALL,3450 WRIGHTSBORO RD ,AUGUSTA,GA,30909,,,,,,33.4635984,-82.0788391,
www.coach.com,DILLARD'S - DOUGLASVILLE,6720 DOUGLAS BLVD ,DOUGLASVILLE,GA,30135,,,,,,33.72740280000001,-84.7479889,
www.coach.com,DILLARD'S - MALL OF GEORGIA,3333 BUFORD DRIVE ,BUFORD,GA,30519,,,,,,34.0647052,-83.98411469999999,
www.coach.com,DILLARD'S - NORTH POINT MALL,7000 NORTHPOINT CIRCLE ,ALPHARETTA,GA,30022,,,,,,34.0472671,-84.2952701,
www.coach.com,DILLARD'S - PEACHTREE MALL,3247 MANCHESTER EXPRESSWAY ,COLUMBUS,GA,31909,,,,,,32.5091169,-84.9418389,
www.coach.com,DILLARD'S - PERIMETER MALL,4500 ASHFORD DUNWOODY RD ,ATLANTA,GA,30346,,,,,,33.9258176,-84.3372636,
www.coach.com,DILLARD'S - RIVER CROSSING,5080 RIVERSIDE DRIVE SUITE #800 ,MACON,GA,31210,,,,,,32.9272301,-83.7147365,
www.coach.com,DILLARD'S - THE FORUM AT ASHLEY PARK,370 NEWMAN CROSSING BYPASS ,NEWNAN,GA,30265,,,,,,33.3882072,-84.76516389999999,
www.coach.com,MACY'S INC. - AUGUSTA (GA),3450 WRIGHTSBORO ROAD ,AUGUSTA,GA,30909,,,,,,33.4635984,-82.0788391,
www.coach.com,MACY'S INC. - CUMBERLAND,1300 CUMBERLAND MALL ,ATLANTA,GA,30339,,,,,,33.8798209,-84.468504,
www.coach.com,MACY'S INC. - GWINNETT PLACE,2100 PLEASANT HILL ROAD ,DULUTH,GA,30096,,,,,,33.9606036,-84.1258675,
www.coach.com,MACY'S INC. - LENOX SQUARE,3393 PEACHTREE ROAD NE ,ATLANTA,GA,30326,,,,,,33.846335,-84.3635778,
www.coach.com,MACY'S INC. - MALL OF GEORGIA,3333 BUFORD DRIVE ,BUFORD,GA,30519,,,,,,34.0647052,-83.98411469999999,
www.coach.com,MACY'S INC. - NORTHPOINT (GA),5000 NORTH POINT CIRCLE ,ALPHARETTA,GA,30022,,,,,,34.0493234,-84.29538330000001,
www.coach.com,MACY'S INC. - PERIMETER,4300 ASHFORD-DUNWOODY ROAD ,ATLANTA,GA,30346,,,,,,33.923943,-84.34071089999999,
www.coach.com,MACY'S INC. - SOUTHLAKE MALL (GA),1500 SOUTHLAKE PKWY ,MORROW,GA,30260,,,,,,33.573497,-84.341213,
www.coach.com,MACY'S INC. - STONECREST (GA),8000 MALL PARKWAY ,LITHONIA,GA,30038,,,,,,33.6981153,-84.09491229999999,
www.coach.com,MACY'S INC. - TOWN CENTER AT COBB,400 ERNEST BARRETT PARKWAY ,KENNESAW,GA,30144,,,,,,34.0180253,-84.5637886,
www.coach.com,NORDSTROM - PERIMETER MALL,4390 ASHFORD DUNWOODY ROAD ,ATLANTA,GA,30346,,,,,,33.9222258,-84.3388165,
www.coach.com,VON MAUR - MALL OF GEORGIA,3379 BUFORD DRIVE ,BUFORD,GA,30519,,,,,,34.065883,-83.981595,
www.coach.com,VON MAUR - NORTH POINT MALL,1000 NORTH POINT CIRCLE ,ALPHARETTA,GA,30022,,,,,,34.0484137,-84.2938403,
www.coach.com,VON MAUR - PERIMETER MALL,4400 ASHFORD DUNWOODY RD NE ,ATLANTA,GA,30346,,,,,,33.9238128,-84.34097980000001,
www.coach.com,COACH GREENWOOD PARK,1251 US HIGHWAY 31 N ,GREENWOOD,IN,46142,,,(317) 888-7711,,,39.632718,-86.1204958,
www.coach.com,COACH INDIANAPOLIS - THE FASHION MALL,8701 KEYSTONE AT THE CROSSING ,INDIANAPOLIS,IN,46240,,,(317) 575-8007,,,39.9141723,-86.1086244,
www.coach.com,COACH UNIVERSITY PARK MALL,6501 NORTH GRAPE ROAD ,MISHAWAKA,IN,46545,,,(574) 247-1343,,,41.719128,-86.1901146,
www.coach.com,COACH EDINBURGH CENTER - EDINBURGH  PREMIUM OUTLETS,11811 N. EXECUTIVE DR. ,EDINBURGH,IN,46124,,,(812) 526-9474,,,39.30962,-85.9618374,
www.coach.com,COACH FREMONT - THE OUTLET SHOPPES AT FREMONT,6245 NORTH OLD 27 SPACE A-30 ,FREMONT,IN,46737,,,(260) 833-1327,,,41.551257,-85.0053875,
www.coach.com,COACH MICHIGAN CITY - LIGHTHOUSE PLACE PREMIUM OUTLETS,1670 LIGHTHOUSE PLACE SPACE P150 ,MICHIGAN CITY,IN,46360,,,(219) 872-7773,,,,,
www.coach.com,DILLARD'S - EASTLAND MALL (IN),800 N GREEN RIVER ROAD ,EVANSVILLE,IN,47715,,,,,,37.9852189,-87.49485680000001,
www.coach.com,DILLARD'S - GREENTREE MALL,757 HIGHWAY 131 @ GREENTREE BLVD ,CLARKSVILLE,IN,47129,,,,,,38.3160401,-85.7637147,
www.coach.com,MACY'S INC. - CASTLETON SQUARE,6020 E 82ND STREET ,INDIANAPOLIS,IN,46250,,,,,,39.9092285,-86.06538619999999,
www.coach.com,MACY'S INC. - EASTLAND MALL (IN),800 N GREEN RIVER ROAD ,EVANSVILLE,IN,47715,,,,,,37.9852189,-87.49485680000001,
www.coach.com,MACY'S INC. - GLENBROOK SQUARE,4201 COLDWATER ROAD ,FORT WAYNE,IN,46805,,,,,,41.1151686,-85.1395094,
www.coach.com,MACY'S INC. - GREENWOOD (IN),1251 US 31 NORTH ,GREENWOOD,IN,46142,,,,,,39.6329743,-86.1209358,
www.coach.com,MACY'S INC. - SOUTHLAKE (MERRILVILLE),2210 SOUTHLAKE MALL ,MERRILLVILLE,IN,46410,,,,,,41.4694776,-87.3110092,
www.coach.com,MACY'S INC. - TIPPECANOE,2415 SAGAMORE PARKWAY ,LAFAYETTE,IN,47905,,,,,,40.3936266,-86.85189129999999,
www.coach.com,MACY'S INC. - UNIVERSITY PARK (IN),6501 NORTH GRAPE ROAD ,MISHAWAKA,IN,46545,,,,,,41.719128,-86.1901146,
www.coach.com,SAKS FIFTH AVENUE - INDIANAPOLIS,8701 KEYSTONE CROSSING ,INDIANAPOLIS,IN,46250,,,,,,39.9144604,-86.1097192,
www.coach.com,VON MAUR - CASTLETON SQUARE,6020 EAST 82ND STREET ,INDIANAPOLIS,IN,46250,,,,,,39.9092285,-86.06538619999999,
www.coach.com,VON MAUR - GREENWOOD (IN),1251 US 31 NORTH ,GREENWOOD,IN,46142,,,,,,39.6329743,-86.1209358,
www.coach.com,VON MAUR - JEFFERSON POINTE,4202 WJEFFERSON BLVD ,FORT WAYNE,IN,46804,,,,,,41.07218779999999,-85.19634649999999,
www.coach.com,COACH JORDAN CREEK,101 JORDAN CREEK PARKWAY ,WEST DES MOINES,IA,50266,,,(515) 224-4501,,,41.5696973,-93.80408589999999,
www.coach.com,COACH WILLIAMSBURG,1991 ODONNELL ROAD ,WILLIAMSBURG,IA,52361,,,(319) 668-9077,,,41.6888054,-92.00384110000002,
www.coach.com,BON-TON STORES - JORDON CREEK SC,101 JORDAN CREEK PARK ,WEST DES MOINES,IA,50266,,,,,,41.5698453,-93.8030635,
www.coach.com,BON-TON STORES - JORDON CREEK SC,101 JORDAN CREEK PARK ,WEST DES MOINES,IA,50266,,,,,,41.5698453,-93.8030635,
www.coach.com,BON-TON STORES - VALLEY WEST MALL,1551 VALLEY WSET DRIVE SUITE 200 ,WEST DES MOINES,IA,50266,,,,,,41.5961727,-93.74969829999999,
www.coach.com,BON-TON STORES - VALLEY WEST MALL,1551 VALLEY WSET DRIVE SUITE 200 ,WEST DES MOINES,IA,50266,,,,,,41.5961727,-93.74969829999999,
www.coach.com,DILLARD'S - CORAL RIDGE MALL,1-80 NORTH HIGHWAY 965 ,CORALVILLE,IA,52241,,,,,,41.6917071,-91.608683,
www.coach.com,DILLARD'S - JORDAN CREEK,101 JORDAN CREEK PARKWAY ,DES MOINES,IA,50265,,,,,,41.5700781,-93.8031724,
www.coach.com,DILLARD'S - NORTHPARK (IA),320 W KIMBERLY RD ,DAVENPORT,IA,52806,,,,,,41.5608892,-90.5776554,
www.coach.com,NORDSTROM - N.COM,7700 18TH STREET SW ,CEDAR RAPIDS,IA,52404,,,,,,41.9040289,-91.69854749999999,
www.coach.com,VON MAUR - COLLEGE SQUARE MALL,6301 UNIVERSITY STREET ,CEDAR FALLS,IA,50613,,,,,,42.50906750000001,-92.468491,
www.coach.com,VON MAUR - LINDALE MALL #12,4444 1ST AVENUE NE ,CEDAR RAPIDS,IA,52404,,,,,,42.0257279,-91.6278471,
www.coach.com,VON MAUR - NORTHPARK (IA),320 KIMBERLY ROAD ,DAVENPORT,IA,52806,,,,,,41.5608892,-90.5776554,
www.coach.com,VON MAUR - SYCAMORE MALL #11,1668 SYCAMORE ,IOWA CITY,IA,52240,,,,,,41.642227,-91.50914,
www.coach.com,VON MAUR - VALLEY WEST MALL #6,300 VALLEY WEST MALL ,WEST DES MOINES,IA,50265,,,,,,41.5976674,-93.7496792,
www.coach.com,VON MAUR - VON MAUR.COM,6565 BRADY ST ,DAVENPORT,IA,52806,,,,,,41.5874666,-90.5670093,
www.coach.com,COACH PENN SQUARE,1901 NW EXPRESSWAY ,OKLAHOMA CITY,OK,73118,,,(405) 842-4247,,,35.5250031,-97.544552,
www.coach.com,COACH UTICA SQUARE,1846 UTICA SQUARE ,TULSA,OK,74114,,,(918) 742-7533,,,36.1322139,-95.96495660000001,
www.coach.com,COACH WOODLAND- TULSA,7021 S MEMORIAL DR. ,TULSA,OK,74133,,,(918) 307-0155,,,36.0628023,-95.880112,
www.coach.com,COACH OKLAHOMA CITY,7634 W. RENO AVENUE ,OKLAHOMA CITY,OK,73127,,,(405) 787-8662,,,35.4624406,-97.6502462,
www.coach.com,AAFES HQ - TINKER,BLDG 685 3360 N AVE ,TINKER AIR FORCE BASE,OK,73145,,,,,,35.4317574,-97.40428759999999,
www.coach.com,DILLARD'S - CENTRAL MALL (OK),200 SOUTHWEST C AVENUE ,LAWTON,OK,73501,,,,,,34.6036719,-98.3923097,
www.coach.com,DILLARD'S - PENN SQUARE MALL,1901 NW EXPRESSWAY SUITE 1001 ,OKLAHOMA CITY,OK,73118,,,,,,35.5250031,-97.544552,
www.coach.com,DILLARD'S - PROMENADE,4169 SOUTH YALE ,TULSA,OK,74135,,,,,,36.102446,-95.91793799999999,
www.coach.com,DILLARD'S - QUAIL SPRINGS MALL,2501 WEST MEMORIAL ,OKLAHOMA CITY,OK,73120,,,,,,35.6103281,-97.5588739,
www.coach.com,DILLARD'S - SOONER MALL,3499 WEST MAIN ,NORMAN,OK,73069,,,,,,35.219212,-97.491514,
www.coach.com,DILLARD'S - WOODLAND HILLS MALL,6919 SOUTH MEMORIAL ,TULSA,OK,74133,,,,,,36.0638892,-95.8857551,
www.coach.com,SAKS FIFTH AVENUE - UTICA SQUARE,1780 UTICA SQ ,TULSA,OK,74112,,,,,,36.1315455,-95.9664416,
www.coach.com,VON MAUR - OKLAHOMACITY,2501 W MEMORIAL ROAD ,OKLAHOMA CITY,OK,73134,,,,,,35.6124114,-97.5604692,
www.coach.com,COACH ARROWHEAD TOWNE CENTER,7700 W. ARROWHEAD TOWNE CENTER ,GLENDALE,AZ,85308,,,(623) 334-4740,,,33.6420995,-112.225533,
www.coach.com,COACH CHANDLER,3111 WEST CHANDLER BLVD. ,CHANDLER,AZ,85226,,,(480) 792-9464,,,33.3015863,-111.8985934,
www.coach.com,COACH KIERLAND COMMONS,15215 N. KIERLAND BLVD. ,SCOTTSDALE,AZ,85254,,,(480) 596-0755,,,33.6251008,-111.9284949,
www.coach.com,COACH LA ENCANTADA,2905 E. SKYLINE DRIVE ,TUCSON,AZ,85718,,,(520) 529-2925,,,32.3247425,-110.9299968,
www.coach.com,COACH SAN TAN VILLAGE,2206 E. WILLIAMS FIELD RD. ,GILBERT,AZ,85296,,,(480) 722-2635,,,33.3068649,-111.7526507,
www.coach.com,COACH SCOTTSDALE,7014 E CAMELBACK RD ,SCOTTSDALE,AZ,85251,,,(480) 949-1772,,,33.5036822,-111.9293812,
www.coach.com,COACH ANTHEM,4250 WEST ANTHEM WAY ,PHOENIX,AZ,85086,,,(623) 551-0704,,,33.8739885,-112.1506049,
www.coach.com,COACH PHOENIX,4976 PREMIUM OUTLETS WAY ,CHANDLER,AZ,85226,,,(480) 639-1724,,,33.2872923,-111.9733833,
www.coach.com,COACH TUCSON PREMIUM OUTLETS,6401 W. MARANA CENTER BLVD. ,TUCSON,AZ,85742,,,(520) 579-9891,,,32.37557830000001,-111.1015508,
www.coach.com,COACH WESTGATE,6800 N. 95TH AVE. ,GLENDALE,AZ,85305,,,(623) 772-9815,,,33.5339643,-112.2657155,
www.coach.com,AAFES HQ - DAVIS MONTHAN,BLDG 2527 5405 E GRANITE ST ,DAVIS-MONTHAN AIR FORCE BA,AZ,85707,,,,,,32.1827029,-110.8771832,
www.coach.com,AAFES HQ - FT.  HUACHUCA,BLDG 52030 ARIZONA ST ,FORT HUACHUCA,AZ,85613,,,,,,31.55683399999999,-110.352988,
www.coach.com,AAFES HQ - LUKE,BLDG1540 7071 NORTH 138TH AVE ,LUKE AIR FORCE BASE,AZ,85309,,,,,,33.5388555,-112.3551983,
www.coach.com,DILLARD'S - ARROWHEAD TOWNE CENTER,7800 ARROWHEAD TOWN CENTER ,GLENDALE,AZ,85318,,,,,,33.6421369,-112.2278761,
www.coach.com,DILLARD'S - CHANDLER FASHION MALL,3101 WEST CHANDLER BOULEVARD ,CHANDLER,AZ,85244,,,,,,33.3028328,-111.8965833,
www.coach.com,DILLARD'S - DESERT SKY MALL,7621 WEST THOMAS ROAD ,PHOENIX,AZ,85033,,,,,,33.478264,-112.223854,
www.coach.com,DILLARD'S - FLAGSTAFF MALL,4700 US HIGHWAY 89 NORTH ,FLAGSTAFF,AZ,86004,,,,,,35.2227605,-111.5805517,
www.coach.com,DILLARD'S - LAKE HAVASU,5601 HIGHWAY 95 NORTH ,LAKE HAVASU CITY,AZ,86404,,,,,,34.5692128,-114.3661997,
www.coach.com,DILLARD'S - PARADISE VALLEY MALL,4610 E CACTUS RD ,GILBERT,AZ,85234,,,,,,33.603506,-111.981616,
www.coach.com,DILLARD'S - PARK MALL,5880 EAST BROADWAY BLVD ,TUCSON,AZ,85711,,,,,,32.2214884,-110.867132,
www.coach.com,DILLARD'S - PRESCOTT GATE,3100 GATEWAY BOULEVARD ,PRESCOTT,AZ,86303,,,,,,34.5491669,-112.4102485,
www.coach.com,DILLARD'S - SAN TAN VILLAGE,2151 S SAN TAN VILLAGE PKWY ,GILBERT,AZ,85296,,,,,,33.3109797,-111.7448841,
www.coach.com,DILLARD'S - SCOTTSDALE FASHION SQUARE,7014 E CAMELBACK RD ,GILBERT,AZ,85234,,,,,,33.5036822,-111.9293812,
www.coach.com,DILLARD'S - SIERRA VISTA-TOWNE CENTER,3800 MERCADO LOOP ,SIERRA VISTA,AZ,85635,,,,,,31.53064779999999,-110.2597776,
www.coach.com,DILLARD'S - SUPERSTITION SPRINGS CENTER,6545 E SOUTHERN AVE ,MESA,AZ,85206,,,,,,33.389891,-111.6881698,
www.coach.com,DILLARD'S - THE TUSCON MALL,4550 N ORACLE ,TUCSON,AZ,85705,,,,,,32.2899017,-110.9749137,
www.coach.com,DILLARD'S - YUMA PALMS,1461  YUMA PALMS ,YUMA,AZ,85364,,,,,,32.7013486,-114.6016783,
www.coach.com,MACY'S INC. - ARROWHEAD TOWNE CENTER,7600 WEST ARROWHEAD TOWNE CENTER ,GLENDALE,AZ,85308,,,,,,33.6419322,-112.2228292,
www.coach.com,MACY'S INC. - BILTMORE FASHION PARK,2410 E CAMELBACK RD ,PHOENIX,AZ,85016,,,,,,33.5110565,-112.0293437,
www.coach.com,MACY'S INC. - CHANDLER FASHION CENTER,3107 W CHANDLER BLVD ,CHANDLER,AZ,85226,,,,,,33.3012856,-111.8985108,
www.coach.com,MACY'S INC. - SCOTTSDALE FASHION SQUARE,7014 EAST CAMELBACK RD ,SCOTTSDALE,AZ,85251,,,,,,33.5036822,-111.9293812,
www.coach.com,MACY'S INC. - TUCSON MALL,4470 NORTH ORACLE ROAD ,TUCSON,AZ,85705,,,,,,32.2887942,-110.9779115,
www.coach.com,NORDSTROM - FASHION SQUARE,7055 EAST CAMELBACK ROAD ,SCOTTSDALE,AZ,85251,,,,,,33.5017764,-111.9291509,
www.coach.com,COACH BOISE TOWN SQUARE,350 NORTH MILWAUKEE ,BOISE,ID,83704,,,(208) 376-6146,,,43.6086039,-116.2782517,
www.coach.com,DILLARD'S - BOISE TOWN SQUARE,350 N MILWAUKEE ,BOISE,ID,83788,,,,,,43.6086039,-116.2782517,
www.coach.com,DILLARD'S - GRAND TETON MALL,2420 E17TH STREET ,IDAHO FALLS,ID,83404,,,,,,43.4792204,-111.9862349,
www.coach.com,MACY'S INC. - BOISE TOWN SQUARE,370 NORTH MILWAUKEE ,BOISE,ID,83704,,,,,,43.6082508,-116.2801432,
www.coach.com,COACH DANBURY,7 BACKUS AVE ,DANBURY,CT,06810,,,(203) 778-1772,,,41.3800517,-73.4817327,
www.coach.com,COACH MOHEGAN SUN,1 MOHEGAN SUN BLVD. ,UNCASVILLE,CT,06382,,,(860) 889-1771,,,41.4917983,-72.0903993,
www.coach.com,COACH WESTFARMS,1500 NEW BRITAIN AVE ,WEST HARTFORD,CT,06110,,,(860) 561-3509,,,41.7230856,-72.7621242,
www.coach.com,COACH CLINTON CROSSING,20 KILLINGWORTH TURNPIKE ,CLINTON,CT,06413,,,(860) 664-0036,,,41.2915193,-72.53289029999999,
www.coach.com,COACH FOXWOODS,455 TROLLEY LINE BOULEVARD SPACE 430 ,MASHANTUCKET,CT,06338,,,(860) 383-2178,,,41.4761512,-71.961439,
www.coach.com,LORD & TAYLOR - STAMFORD TOWN CENTER (CT),110 HIGHRIDGE ROAD ,STAMFORD,CT,6905,,,,,,41.0749576,-73.5503025,
www.coach.com,LORD & TAYLOR - TRUMBULL SHOPPING PARK,5065 MAIN STREET ,TRUMBULL,CT,6611,,,,,,41.2295415,-73.22696839999999,
www.coach.com,MACY'S INC. - BRASS MILL CENTER,575 UNION ST ,WATERBURY,CT,6702,,,,,,41.5474821,-73.0239673,
www.coach.com,MACY'S INC. - CONNECTICUT POST MALL,1201 POST ROAD ,MILFORD,CT,6460,,,,,,41.2359938,-73.0355424,
www.coach.com,MACY'S INC. - DANBURY FAIR,7 BACKUS AVENUE ,DANBURY,CT,6810,,,,,,41.3800517,-73.4817327,
www.coach.com,MACY'S INC. - PAVILIONS AT BUCKLAND HILLS,183 PAVILIONS DRIVE ,MANCHESTER,CT,6040,,,,,,41.8060479,-72.54296699999999,
www.coach.com,MACY'S INC. - STAMFORD TOWN CENTER (CT),151 BROAD STREET ,STAMFORD,CT,6901,,,,,,41.0545544,-73.5367503,
www.coach.com,MACY'S INC. - WESTFARMS MALL,100 WESTFARMS MALL ,FARMINGTON,CT,6032,,,,,,41.724483,-72.7622251,
www.coach.com,NAVY EXCHANGE (NEX) - NEW LONDON MAIN ST,BLDG 484-NAVAL SUB BASE ,GROTON,CT,6349,,,,,,41.391382,-72.08581339999999,
www.coach.com,COACH FREEPORT,ONE FREEPORT VILLAGE STATION ,FREEPORT,ME,04032,,,(207) 865-1772,,,43.855816,-70.102187,
www.coach.com,COACH KITTERY,"375 U.S. ROUTE 1, SPACE 170 ",KITTERY,ME,03904,,,(207) 439-5915,,,43.1176683,-70.7280911,
www.coach.com,COACH COLUMBIA - THE MALL AT COLUMBIA,10300 LITTLE PATUXENT PARKWAY ,COLUMBIA,MD,21044,,,(410) 740-9428,,,39.2155908,-76.8611782,
www.coach.com,COACH MONTGOMERY MALL - WESTFIELD SHOPPING MALL - MONTGOMERY MALL,7101 DEMOCRACY BLVD ,BETHESDA,MD,20817,,,(301) 469-6602,,,39.0241378,-77.1459998,
www.coach.com,COACH TOWSON,825 DULANEY VALLEY RD SUITE 422 ,TOWSON,MD,21204,,,(410) 494-1772,,,39.4040258,-76.5991858,
www.coach.com,COACH ARUNDEL MILLS,7000 ARUNDEL MILLS CIRCLE ,HANOVER,MD,21076,,,(410) 540-9013,,,39.1563099,-76.72629959999999,
www.coach.com,COACH CLARKSBURG PREMIUM OUTLET,22705 CLARKSBURG ROAD ,CLARKSBURG,MD,20871,,,(301) 515-8351,,,39.2281865,-77.2857697,
www.coach.com,COACH HAGERSTOWN,400 PREMIUM OUTLETS BLVD ,HAGERSTOWN,MD,21740,,,(301) 733-8110,,,39.608131,-77.73368099999999,
www.coach.com,COACH NATIONAL HARBOR,6800 OXON HILL RD. ,OXON HILL,MD,20745,,,(301) 686-0468,,,38.7948488,-77.0014573,
www.coach.com,COACH OCEAN CITY,12741 OCEAN GATEWAY ,OCEAN CITY,MD,21842,,,(410) 213-1460,,,38.337998,-75.10647449999999,
www.coach.com,COACH QUEENSTOWN,417 OUTLET CENTER DRIVE ,QUEENSTOWN,MD,21658,,,(410) 827-4930,,,38.983504,-76.1588407,
www.coach.com,AAFES HQ - AAFES HQ - MEADES MS (1040712),2799 ROSE STREET ,FORT GEORGE G MEADE,MD,20755,,,,,,39.107461,-76.737742,
www.coach.com,AAFES HQ - ANDREWS AFB,BLDG 1811 G STREET ,ANDREWS AIR FORCE BASE,MD,20762,,,,,,38.81704999999999,-76.8820188,
www.coach.com,AAFES HQ - FT GEORGE,BLDG 2790 MACARTHUR & REECE ROAD ,FORT GEORGE G MEADE,MD,20755,,,,,,39.1073256,-76.7379693,
www.coach.com,BLOOMINGDALE'S - CHEVY CHASE,5400 WISCONSIN AVE ,CHEVY CHASE,MD,20815,,,,,,38.96107,-77.0873019,
www.coach.com,LORD & TAYLOR - ANNAPOLIS,2002 ANNAPOLIS MALL ,ANNAPOLIS,MD,21401,,,,,,38.990906,-76.54575899999999,
www.coach.com,MACY'S INC. - ANNAPOLIS MALL,1295 ANNAPOLIS MALL ,ANNAPOLIS,MD,21401,,,,,,38.9896624,-76.54738379999999,
www.coach.com,MACY'S INC. - BEL AIR (HARFORD MALL),US ROUTE 1 & TOLLGATE ROAD ,BEL AIR,MD,21014,,,,,,39.5336315,-76.36777409999999,
www.coach.com,MACY'S INC. - BOWIE TOWNE CENTER,15300 EMERALD WAY ,BOWIE,MD,20716,,,,,,38.9437416,-76.7381612,
www.coach.com,MACY'S INC. - COLUMBIA MALL (MD),10300 LITTLE PATUXENT PKWY ,COLUMBIA,MD,21044,,,,,,39.2155908,-76.8611782,
www.coach.com,MACY'S INC. - MONTGOMERY MALL (MD),7125 DEMOCRACY BLVD ,BETHESDA,MD,20817,,,,,,39.0240582,-77.1455742,
www.coach.com,MACY'S INC. - ST. CHARLES TOWN CENTER,1200 MALL CIRCLE PO BOX 6190 ,WALDORF,MD,20601,,,,,,38.6192341,-76.9246786,
www.coach.com,MACY'S INC. - TOWSON TOWN CENTER,813 DULANEY VALLEY RD ,TOWSON,MD,21204,,,,,,39.4037025,-76.60101399999999,
www.coach.com,MACY'S INC. - WHITE MARSH,8200 PERRY HALL BLVD ,PERRY HALL,MD,21128,,,,,,39.3749157,-76.4669729,
www.coach.com,NAVY EXCHANGE (NEX) - ANNAPOLIS MAIN STORE,BLDG 693 693 KINKAID ROAD ,ANNAPOLIS,MD,21402,,,,,,38.9957171,-76.4682854,
www.coach.com,NAVY EXCHANGE (NEX) - BETHESDA MAIN STORE,BLDG 81-T ,BETHESDA,MD,20889,,,,,,39.0083306,-77.09637599999999,
www.coach.com,NAVY EXCHANGE (NEX) - PAX RIVER MAIN STORE,BLDG 2369-22099 CUDDIY RD ,PATUXENT RIVER,MD,20670,,,,,,38.2722226,-76.4571162,
www.coach.com,NORDSTROM - MONTGOMERY MALL,7111 DEMOCRACY BLVD ,BETHESDA,MD,20817,,,,,,39.02288679999999,-77.1457204,
www.coach.com,COACH BURLINGTON,BURLINGTON MALL ,BURLINGTON,MA,01803,,,(781) 272-7278,,,42.4824802,-71.21370080000001,
www.coach.com,COACH CHESTNUT HILL - THE MALL AT CHESTNUT HILL,199 BOYLSTON ST ,NEWTON,MA,02467,,,(617) 964-9474,,,42.3215125,-71.1756718,
www.coach.com,COACH COPLEY,100 HUNTINGTON AVENUE ,BOSTON,MA,02116,,,(617) 262-2063,,,42.347334,-71.0788745,
www.coach.com,COACH FANEUIL HALL,106 SOUTH MARKET BUILDING ,BOSTON,MA,02109,,,(617) 723-1777,,,42.35966440000001,-71.0554731,
www.coach.com,COACH SOLOMON POND,601 DONALD LYNCH BOULEVARD ,MARLBOROUGH,MA,01752,,,(508) 303-2456,,,42.3559974,-71.6130076,
www.coach.com,COACH SOUTH SHORE,250 GRANITE ST ,BRAINTREE,MA,02184,,,(781) 843-3285,,,42.2220664,-71.02371939999999,
www.coach.com,COACH ASSEMBLY ROW,NA ,NA,MA,0,,,(413) 243-4897,,,,,
www.coach.com,COACH LEE,145 PREMIUM OUTLET BLVD ,LEE,MA,01238,,,(413) 243-4897,,,42.2956732,-73.2333653,
www.coach.com,COACH WRENTHAM,1 PREMIUM OUTLETS BLVD. ,WRENTHAM,MA,02093,,,(508) 384-9877,,,42.0401525,-71.3532389,
www.coach.com,BLOOMINGDALE'S - CHESTNUT HILL MALL,55 BOYSTON ST ,NEWTON,MA,2467,,,,,,42.3227561,-71.16898809999999,
www.coach.com,LORD & TAYLOR - BOSTON,760 BOYLSTON STREET ,BOSTON,MA,2199,,,,,,42.3487698,-71.0800472,
www.coach.com,LORD & TAYLOR - BURLINGTON MALL,1320 BURLINGTON MALL RD ,BURLINGTON,MA,1803,,,,,,42.4822425,-71.2119378,
www.coach.com,LORD & TAYLOR - SOUTH SHORE PLAZA,250 GRANITE ST ,BRAINTREE,MA,2184,,,,,,42.2220664,-71.02371939999999,
www.coach.com,MACY'S INC. - BOSTON,450 WASHINGTON STREET ,BOSTON,MA,2111,,,,,,42.3548371,-71.0607577,
www.coach.com,MACY'S INC. - BURLINGTON MALL,1300 MIDDLESEX TURNPIKE ,BURLINGTON,MA,1803,,,,,,42.48097360000001,-71.2125737,
www.coach.com,MACY'S INC. - CAMBRIDGESIDE GALLERIA,100 CAMBRIDGE SIDE PLACE ,CAMBRIDGE,MA,2141,,,,,,42.3681321,-71.0763644,
www.coach.com,MACY'S INC. - EMERALD SQUARE (N. ATTLEBORO),1029 SO WASHINGTON STREET ,NORTH ATTLEBORO,MA,2760,,,,,,41.94485,-71.348922,
www.coach.com,MACY'S INC. - HANOVER MALL,1775 WASHINGTON STREET ,HANOVER,MA,2339,,,,,,42.122497,-70.83161419999999,
www.coach.com,MACY'S INC. - HOLYOKE MALL,400 WHITNEY AVENUE ,HOLYOKE,MA,1040,,,,,,42.1678417,-72.6416539,
www.coach.com,MACY'S INC. - HYANNIS - CAPE COD,CAPE COD MALL RT 132 ,HYANNIS,MA,2601,,,,,,41.6678394,-70.296734,
www.coach.com,MACY'S INC. - INDEPENDENCE MALL,171 SMITH LANE ,KINGSTON,MA,2364,,,,,,41.9774945,-70.70957659999999,
www.coach.com,MACY'S INC. - NATICK MALL,1245 WORCESTER STREET ,NATICK,MA,1760,,,,,,42.3008016,-71.3841391,
www.coach.com,MACY'S INC. - NORTHSHORE MA,N SHORE SHPG CTR RT 128 & 114 ,PEABODY,MA,1960,,,,,,42.5386735,-70.9398357,
www.coach.com,MACY'S INC. - SOLOMON POND MALL (MARLBOROUGH),627 DONALD LYNCH BLVD ,MARLBOROUGH,MA,1752,,,,,,42.354614,-71.61479109999999,
www.coach.com,MACY'S INC. - SOUTH SHORE MA,SOUTH SHORE PL RT 128 ,BRAINTREE,MA,2184,,,,,,42.22199519999999,-71.0237679,
www.coach.com,MACY'S INC. - SQUARE ONE MALL,1185R BROADWAY ,SAUGUS,MA,1906,,,,,,42.4677915,-71.025632,
www.coach.com,COACH BEACHWOOD - BEACHWOOD PLACE,26300 CEDAR ROAD ,BEACHWOOD,OH,44122,,,(216) 591-1772,,,41.49848799999999,-81.4941423,
www.coach.com,COACH BELDEN VILLAGE,4205 BELDEN VILLAGE MALL ,CANTON,OH,44718,,,(330) 491-8658,,,40.8552855,-81.4276926,
www.coach.com,COACH CINCINNATI - KENWOOD TOWNE CENTER,"7875 MONTGOMERY ROAD, ",CINCINNATI,OH,45236,,,(513) 745-0235,,,39.2023243,-84.377147,
www.coach.com,COACH CROCKER PARK,183 MAIN STREET ,WESTLAKE,OH,44145,,,(440) 871-0103,,,41.4578874,-81.9516359,
www.coach.com,COACH EASTON TOWN CENTER,4200 THE STRAND ,COLUMBUS,OH,43219,,,(614) 476-6076,,,40.05386420000001,-82.9147524,
www.coach.com,COACH POLARIS - POLARIS FASHION PLACE,"1500 POLARIS PARKWAY, SPACE 1198 ",COLUMBUS,OH,43240,,,(614) 885-6184,,,40.1450944,-82.9823911,
www.coach.com,COACH SUMMIT MALL - AKRON,3265 W MARKET STREET ,AKRON,OH,44333,,,(330) 867-1822,,,41.1346818,-81.61965049999999,
www.coach.com,COACH AURORA FARMS PREMIUM OUTLETS,549 S. CHILLICOTHE ROAD ,AURORA,OH,44202,,,(330) 562-1309,,,41.3017237,-81.3431276,
www.coach.com,COACH CINCINNATI,849 PREMIUM OUTLET DRIVE ,MONROE,OH,45050,,,(513) 539-8087,,,39.4335445,-84.337181,
www.coach.com,COACH COLUMBUS,400 SOUTH WILSON ROAD ,SUNBURY,OH,43074,,,(740) 965-3497,,,40.2599083,-82.9241966,
www.coach.com,COACH JEFFERSONVILLE - PRIME OUTLETS AT JEFFERSONVILLE,8175 FACTORY SHOPS BLVD. ,JEFFERSONVILLE,OH,43128,,,(740) 948-2345,,,39.6190045,-83.6024345,
www.coach.com,AAFES HQ - WRIGHT PATTERSON,KITTYHAWK BLDG 1250 BIRCH ST ,WRIGHT PATTERSON AIR FORCE,OH,45433,,,,,,39.8157112,-84.02844449999999,
www.coach.com,BON-TON STORES - INTERNET,INTENET ,INTERNET,OH,00000,,,,,,36.0766841,-95.8631607,
www.coach.com,BON-TON STORES - INTERNET,BULK ,BULK,OH,00000,,,,,,,,
www.coach.com,BON-TON STORES - INTERNET,1340 DAYTON-YELLOW SPRINGS RD ,FAIRBORN,OH,45324,,,,,,39.7814267,-83.9906374,
www.coach.com,DILLARD'S - BEACHWOOD PLACE,26500 CEDAR RD ,BEACHWOOD,OH,44122,,,,,,41.4981802,-81.4923548,
www.coach.com,DILLARD'S - BELDEN VILLAGE,4400 BELDEN VILLAGE MALL ,CANTON,OH,44718,,,,,,40.8549189,-81.4306883,
www.coach.com,DILLARD'S - FALLEN TIMBERS MALL,3100 MAIN STREET SUITE 600 ,MAUMEE,OH,43537,,,,,,41.54746720000001,-83.7064588,
www.coach.com,DILLARD'S - FRANKLIN PARK MALL (TOLEDO),5001 MONROE ,TOLEDO,OH,43623,,,,,,41.69407289999999,-83.6394451,
www.coach.com,DILLARD'S - GREAT LAKES MALL,7850 MENTOR AVENUE ,MENTOR,OH,44060,,,,,,41.6596057,-81.36121399999999,
www.coach.com,DILLARD'S - GREAT NORTHERN,25188 COUNTRY CLUB BLVD ,NORTH OLMSTED,OH,44070,,,,,,41.4151376,-81.906926,
www.coach.com,DILLARD'S - KENWOOD MALL,7913 MONTGOMERY RD ,CINCINNATI,OH,45236,,,,,,39.2030351,-84.3760374,
www.coach.com,DILLARD'S - LIBERTY SQUARE,LIBERTY PLACE ,LIBERTY TOWNSHIP,OH,45069,,,,,,39.371298,-84.3913,
www.coach.com,DILLARD'S - SOUTH PARK MALL,7401 MARKET STREET ,YOUNGSTOWN,OH,44512,,,,,,41.02115879999999,-80.6587026,
www.coach.com,DILLARD'S - SOUTHPARK CENTER (OH),16996 SOUTH PARK CENTER ,STRONGSVILLE,OH,44136,,,,,,41.31237,-81.819822,
www.coach.com,DILLARD'S - SUMMIT MALL (OH),32655 W MARKET STREET ,AKRON,OH,44313,,,,,,41.110419,-81.5710696,
www.coach.com,MACY'S INC. - BELDEN,4300 BELDEN VILLAGE AVENUE ,CANTON,OH,44709,,,,,,40.8565389,-81.4275948,
www.coach.com,MACY'S INC. - DAYTON,2700 MIAMISBURG CENTERVILLE RD ,CENTERVILLE,OH,45458,,,,,,39.6336819,-84.2209634,
www.coach.com,MACY'S INC. - EASTON TOWN CENTER,4141 EASTON LOOP EAST ,COLUMBUS,OH,43219,,,,,,40.0530097,-82.9128399,
www.coach.com,MACY'S INC. - GREAT LAKES,7850 MENTOR AVENUE ,MENTOR,OH,44060,,,,,,41.6596057,-81.36121399999999,
www.coach.com,MACY'S INC. - GREAT NORTHERN (OH),25801 BROOKPARK ROAD ,NORTH OLMSTED,OH,44070,,,,,,41.4169801,-81.9081248,
www.coach.com,MACY'S INC. - KENWOOD TOWNE CENTRE,7875 MONTGOMERY ROAD ,CINCINNATI,OH,45236,,,,,,39.2023243,-84.377147,
www.coach.com,MACY'S INC. - POLARIS FASHION PLACE (OH),1300 POLARIS PKWY ,COLUMBUS,OH,43240,,,,,,40.14427209999999,-82.9839499,
www.coach.com,MACY'S INC. - SOUTHPARK CENTER (OH),17447 ROYALTON ROAD ,STRONGSVILLE,OH,44136,,,,,,41.3093603,-81.8222282,
www.coach.com,MACY'S INC. - SUMMIT MALL (OH),3265 WEST MARKET STREET ,AKRON,OH,44333,,,,,,41.13395329999999,-81.61755079999999,
www.coach.com,MACY'S INC. - TUTTLE CROSSING,5033 TUTTLE CROSSING BLVD ,DUBLIN,OH,43017,,,,,,40.0717868,-83.12877639999999,
www.coach.com,MAS INC - MAS INC,3965 MURIEL DRIVE ,RICHFIELD,OH,44286,,,,,,41.2105255,-81.6358012,
www.coach.com,SAKS FIFTH AVENUE - BEACHWOOD PLACE,26100 CEDAR RD ,BEACHWOOD,OH,44122,,,,,,41.4994577,-81.4939581,
www.coach.com,SAKS FIFTH AVENUE - CINCINNATI,101 WEST 5TH STREET ,CINCINNATI,OH,45202,,,,,,39.1005681,-84.5149354,
www.coach.com,SAKS FIFTH AVENUE - POLARIS FASHION PLACE (OH),1500 POLARIS PARKWAY ,COLUMBUS,OH,43240,,,,,,40.14562420000001,-82.98205759999999,
www.coach.com,SCHAEFFER PARTNERS - SCHAEFFER PARTNERS,6545 CARNEGIE AVE ,CLEVELAND,OH,44103,,,,,,41.5024765,-81.6443481,
www.coach.com,VON MAUR - POLARIS FASHION PLACE (OH),1530 PLARIS PARKWAY ,COLUMBUS,OH,43240,,,,,,40.1452493,-82.98010790000001,
www.coach.com,VON MAUR - THE GREENE TOWN CENTER,51 PLUM STREET ,BEAVERCREEK,OH,45440,,,,,,39.69466480000001,-84.1016259,
www.coach.com,COACH CITY CREEK CENTER,50 SOUTH MAIN STREET ,SALT LAKE CITY,UT,84101,,,(801) 532-3836,,,40.76835699999999,-111.8917453,
www.coach.com,COACH PARK CITY,6699 N LANDMARK DR ,PARK CITY,UT,84098,,,(435) 645-9890,,,40.7283947,-111.5513447,
www.coach.com,COACH TRAVERSE MOUNTAIN,3700 N. CABELA'S BLVD ,LEHI,UT,84043,,,(801) 901-1320,,,40.434971,-111.8845254,
www.coach.com,AAFES HQ - HILL,5845 E AVE BLDG 412 ,HILL AIR FORCE BASE,UT,84056,,,,,,41.11256909999999,-111.9844801,
www.coach.com,DILLARD'S - FASHION PLACE MALL,6191 S STATE ST #100 ,SALT LAKE CITY,UT,84107,,,,,,40.6363585,-111.8881147,
www.coach.com,DILLARD'S - LAYTON HILLS,"1201 NORTH HILL FIELD ROAD, SUIT 1000 ",LAYTON,UT,84041,,,,,,41.0784332,-111.9775455,
www.coach.com,DILLARD'S - PROVO TOWNE SQUARE,1200 S TOWNE CENTER BLVD ,PROVO,UT,84601,,,,,,40.2179051,-111.6604635,
www.coach.com,NORDSTROM - FASHION PLACE MALL,6191 S. STATE #200 ,MURRAY,UT,84107,,,,,,40.6363585,-111.8881147,
www.coach.com,OC TANNER - OC TANNER,1825 SOUTH MAIN STREET ,SALT LAKE CITY,UT,84115,,,,,,40.7302825,-111.8898382,
www.coach.com,COACH BATTLEFIELD MALL,2825 S. GLENSTONE AVE ,SPRINGFIELD,MO,65804,,,(417) 889-2045,,,37.1627417,-93.2656737,
www.coach.com,COACH KANSAS CITY,336 WEST 47TH STREET ,KANSAS CITY,MO,64112,,,(816) 561-1771,,,39.0424762,-94.591296,
www.coach.com,COACH PLAZA FRONTENAC,"1701 S LINDBERGH BLVD., LEVEL 1 ",SAINT LOUIS,MO,63131,,,(314) 991-2772,,,38.6311384,-90.40736400000002,
www.coach.com,COACH WEST COUNTY,"48 WEST COUNTY CENTER, SPACE 1170 ",DES PERES,MO,63131,,,(314) 984-9400,,,38.6006873,-90.44690179999999,
www.coach.com,COACH BRANSON - TANGER OUTLET CENTER,300 TANGER BLVD. ,BRANSON,MO,65616,,,(417) 339-1041,,,36.6443532,-93.2639536,
www.coach.com,COACH OSAGE BEACH - OSAGE VILLAGE,4540 OSAGE BEACH PARKWAY ,OSAGE BEACH,MO,65065,,,(573) 348-1771,,,38.1438849,-92.6272767,
www.coach.com,COACH PRESTIGE OUTLETS CHESTERFIELD,17017 NORTH OUTER 40 ROAD ,CHESTERFIELD,MO,63005,,,(636) 489-3841,,,38.6711434,-90.5906325,
www.coach.com,COACH ST. LOUIS PREMIUM,18505 OUTLET BLVD. ,CHESTERFIELD,MO,63005,,,(636) 778-2240,,,38.6764518,-90.6614603,
www.coach.com,AAFES HQ - LEONARDWOOD MAIN STORE,143 REPLACEMENT AVE BLDG 487 ,FORT LEONARD WOOD,MO,65473,,,,,,37.7581553,-92.11572249999999,
www.coach.com,BAYADA HOME HEATHCARE - BAYADA HOME HEATHCARE,1400 UNIVERSAL AVENUE ,KANSAS CITY,MO,64120,,,,,,39.1334031,-94.506947,
www.coach.com,DILLARD'S - BATTLEFIELD MALL,2825 S GLENSTONE AVE ,SPRINGFIELD,MO,65804,,,,,,37.1627417,-93.2656737,
www.coach.com,DILLARD'S - COLUMBIA (MO),2300 BERNADETTE DRIVE ,COLUMBIA,MO,65203,,,,,,38.9639133,-92.3755003,
www.coach.com,DILLARD'S - SAINT LOUIS GALLERIA,1105 ST LOUIS GALLERIA ,SAINT LOUIS,MO,63117,,,,,,38.6373369,-90.3468712,
www.coach.com,DILLARD'S - ZONA ROSA,7350 NW 87TH TERRACE ,KANSAS CITY,MO,64153,,,,,,39.2537661,-94.6649078,
www.coach.com,"INCENTIVE CONCEPTS. LLC - INCENTIVE CONCEPTS, LLC",2645 METRO BOULEVARD ,MARYLAND HEIGHTS,MO,63043,,,,,,38.7175675,-90.44046360000002,
www.coach.com,MACY'S INC. - INDEPENDENCE CENTER (MO),18809 EAST 39TH STREET ,INDEPENDENCE,MO,64057,,,,,,39.0459545,-94.35598449999999,
www.coach.com,MACY'S INC. - METRO NORTH,400 NW BARRY ROAD ,KANSAS CITY,MO,64155,,,,,,39.2497059,-94.5859815,
www.coach.com,MACY'S INC. - MID RIVERS,#1 MID-RIVERS MALL ,SAINT PETERS,MO,63376,,,,,,38.7970799,-90.6170222,
www.coach.com,MACY'S INC. - SOUTH COUNTY MO,10 SOUTH COUNTY CENTERWAY ,SAINT LOUIS,MO,63129,,,,,,38.507105,-90.332359,
www.coach.com,MACY'S INC. - ST. LOUIS GALLERIA,1150 ST LOUIS GALLERIA ,SAINT LOUIS,MO,63117,,,,,,38.6364322,-90.3484888,
www.coach.com,MACY'S INC. - WEST COUNTY,#2 WEST COUNTY CENTER ,SAINT LOUIS,MO,63131,,,,,,38.602429,-90.445785,
www.coach.com,MARITZ REWARDS - MARITZ,1301 NORTH HIGHWAY DRIVE ,FENTON,MO,63099,,,,,,38.542696,-90.477199,
www.coach.com,SAKS FIFTH AVENUE - ST. LOUIS (FRONTENAC),1 PLAZA FRONTENAC ST ,SAINT LOUIS,MO,63131,,,,,,38.6300706,-90.4073318,
www.coach.com,VON MAUR - THE MEADOWS AT LAKE ST. LOUIS,2 FOUNTAIN GRASS DRIVE ,LAKE SAINT LOUIS,MO,63367,,,,,,38.7821898,-90.78833809999999,
www.coach.com,COACH EDINA,3510 GALLERIA ,EDINA,MN,55435,,,(952) 925-5225,,,44.8770975,-93.3261886,
www.coach.com,COACH MALL OF AMERICA - MALL OF AMERICA,274 WEST MARKET BLVD ,BLOOMINGTON,MN,55425,,,(952) 858-8600,,,44.8551761,-93.24333899999999,
www.coach.com,COACH MILLER HILL MALL,1600 MILLER TRUNK HWY ,DULUTH,MN,55811,,,(218) 722-2154,,,46.8038875,-92.16050190000001,
www.coach.com,COACH RIDGEDALE,12679 WAYZATA BLVD. ,MINNETONKA,MN,55305,,,(952) 593-1718,,,44.9712656,-93.4397487,
www.coach.com,COACH SOUTHDALE CENTER,1870 SOUTHDALE CENTER ,EDINA,MN,55435,,,(952) 920-8734,,,44.8806577,-93.3247802,
www.coach.com,COACH ALBERTVILLE,6415 LABEAUX AVENUE NE ,ALBERTVILLE,MN,55301,,,(763) 497-3951,,,45.2461348,-93.6684786,
www.coach.com,COACH MINNEAPOLIS,3965 EAGAN OUTLETS PARKWAY ,EAGAN,MN,55122,,,(651) 452-3222,,,44.8154013,-93.21519479999999,
www.coach.com,BI - BUSINESS INCENTIVES,7630 BUSH LAKE ROAD ,EDINA,MN,55439,,,,,,44.86483,-93.360638,
www.coach.com,BON-TON STORES - MILLER HILL MALL,1600 MILLER TRUNK HIGHWAY ,DULUTH,MN,55811,,,,,,46.8038875,-92.16050190000001,
www.coach.com,BON-TON STORES - MILLER HILL MALL,1600 MILLER TRUNK HIGHWAY ,DULUTH,MN,55811,,,,,,46.8038875,-92.16050190000001,
www.coach.com,BON-TON STORES - NORTHTOWN,NORTHTOWN MALL ,BLAINE,MN,55434,,,,,,45.1259372,-93.2617427,
www.coach.com,BON-TON STORES - NORTHTOWN,NORTHTOWN MALL ,BLAINE,MN,55434,,,,,,45.1259372,-93.2617427,
www.coach.com,BON-TON STORES - ROSEDALE,600 ROSEDALE SHOPPING CENTER ,ROSEVILLE,MN,55113,,,,,,45.0137366,-93.16911669999999,
www.coach.com,BON-TON STORES - ROSEDALE,600 ROSEDALE SHOPPING CENTER ,ROSEVILLE,MN,55113,,,,,,45.0137366,-93.16911669999999,
www.coach.com,BON-TON STORES - STILLWATER,14781 59TH STREET N ,OAK PARK HEIGHTS,MN,55082,,,,,,45.03343599999999,-92.80892,
www.coach.com,BON-TON STORES - STILLWATER,14781 59TH STREET N ,OAK PARK HEIGHTS,MN,55082,,,,,,45.03343599999999,-92.80892,
www.coach.com,MACY'S INC. - APACHE,901 APACHE MALL ,ROCHESTER,MN,55902,,,,,,44.0026277,-92.4797352,
www.coach.com,MACY'S INC. - BURNSVILLE CENTER,14251 BURNHAVEN DRIVE ,BURNSVILLE,MN,55337,,,,,,44.7439989,-93.2911877,
www.coach.com,MACY'S INC. - MALL OF AMERICA,4000 SOUTHWEST COURT ,BLOOMINGTON,MN,55425,,,,,,44.85341469999999,-93.2438897,
www.coach.com,MACY'S INC. - MAPLEWOOD,3001 WHITE BEAR AVE N ,SAINT PAUL,MN,55109,,,,,,45.0316031,-93.0181525,
www.coach.com,MACY'S INC. - RIDGEDALE,12411 WAYZATA BOULEVARD ,MINNETONKA,MN,55305,,,,,,44.9690558,-93.4382354,
www.coach.com,MACY'S INC. - ROSEDALE CENTER,900 ROSEDALE CENTER ,ROSEVILLE,MN,55113,,,,,,45.0126777,-93.1721735,
www.coach.com,MACY'S INC. - SOUTHDALE CENTER,100 SOUTHDALE CENTER ,MINNEAPOLIS,MN,55435,,,,,,44.8808868,-93.32517899999999,
www.coach.com,NORDSTROM - MALL OF AMERICA,1000 NORTHWEST COURT ,MINNEAPOLIS,MN,55425,,,,,,44.8560554,-93.2442962,
www.coach.com,VON MAUR - EDEN PRAIRIE,1018 EDEN PRAIRIE CENTER ,EDEN PRAIRIE,MN,55344,,,,,,44.8540416,-93.4246759,
www.coach.com,COACH BRIARWOOD,812 BRIARWOOD CIRCLE ,ANN ARBOR,MI,48108,,,(734) 663-0777,,,42.24253239999999,-83.74470509999999,
www.coach.com,COACH PARTRIDGE CREEK,17360 HALL RD ,CLINTON TOWNSHIP,MI,48038,,,(586) 228-7981,,,42.6252023,-82.94707489999999,
www.coach.com,COACH RIVERTOWN CROSSING - RIVERTOWN CROSSING MALL,3700 RIVERTOWN PARKWAY SW ,GRANDVILLE,MI,49418,,,(616) 538-5802,,,42.8794491,-85.7558882,
www.coach.com,COACH SOMERSET,2801 W BIG BEAVER RD ,TROY,MI,48084,,,(248) 649-4877,,,42.5600991,-83.1834191,
www.coach.com,COACH TWELVE OAKS,27930 NOVI RD ,NOVI,MI,48377,,,(248) 348-7439,,,42.4972612,-83.47629250000001,
www.coach.com,COACH BIRCH RUN - PREMIUM OUTLETS AT BIRCH RUN,12150 BEYER ROAD ,BIRCH RUN,MI,48415,,,(989) 624-5606,,,43.24746349999999,-83.77976699999999,
www.coach.com,COACH GRAND RAPIDS,350 84TH STREET SW ,BYRON CENTER,MI,49315,,,(248) 334-6675,,,42.8096661,-85.6712027,
www.coach.com,COACH GREAT LAKES CROSSING,4054 BALDWIN ROAD ,AUBURN HILLS,MI,48326,,,(248) 334-6675,,,42.7000588,-83.30649629999999,
www.coach.com,COACH HOWELL,1475 N. BURKHART RD. ,HOWELL,MI,48855,,,(517) 552-4949,,,42.6219949,-83.9968825,
www.coach.com,COACH WEST BRANCH - TANGER OUTLET CENTER,2990 COOK RD. ,WEST BRANCH,MI,48661,,,(989) 345-1702,,,44.2486706,-84.22894989999999,
www.coach.com,BON-TON STORES - LAUREL PARK PLACE,17625 NEWBURGH RD ,LIVONIA,MI,48152,,,,,,42.4135438,-83.4164361,
www.coach.com,BON-TON STORES - LAUREL PARK PLACE,17625 NEWBURGH RD ,LIVONIA,MI,48152,,,,,,42.4135438,-83.4164361,
www.coach.com,BON-TON STORES - MALL AT PATRIDGE CREEK,17480 HALL ROAD ,CLINTON TOWNSHIP,MI,48038,,,,,,42.6251701,-82.9433665,
www.coach.com,BON-TON STORES - MALL AT PATRIDGE CREEK,17480 HALL ROAD ,CLINTON TOWNSHIP,MI,48038,,,,,,42.6251701,-82.9433665,
www.coach.com,BON-TON STORES - MUSKEGON,5580 HARVEY STREET ,MUSKEGON,MI,49444,,,,,,43.1508243,-86.20365439999999,
www.coach.com,BON-TON STORES - MUSKEGON,5580 HARVEY STREET ,MUSKEGON,MI,49444,,,,,,43.1508243,-86.20365439999999,
www.coach.com,LORD & TAYLOR - LAKESIDE,LAKESIDE CIRCLE ,LAKESIDE,MI,49116,,,,,,41.8413979,-86.6678787,
www.coach.com,LORD & TAYLOR - TWELVE OAKS (NOVI),27650 NOVI RD ,NEW HAVEN,MI,48050,,,,,,42.48059,-83.4754913,
www.coach.com,MACY'S INC. - BRIARWOOD,700 BRIARWOOD CIRCLE ,ANN ARBOR,MI,48104,,,,,,42.2428044,-83.7461424,
www.coach.com,MACY'S INC. - FAIRLANE TWN CTR,19800 MICHIGAN AVE SUITE 1003 ,DEARBORN,MI,48126,,,,,,42.30894199999999,-83.2227625,
www.coach.com,MACY'S INC. - FASHION SQ (SAGINAW),4750 FASHION SQ MALL ,SAGINAW,MI,48603,,,,,,43.476364,-83.97253359999999,
www.coach.com,MACY'S INC. - GENESEE VALLEY CTR,4600 MILLER RD ,FLINT,MI,48507,,,,,,42.97918139999999,-83.76920799999999,
www.coach.com,MACY'S INC. - GRAND TRAVERSE,3400 SOUTH AIRPORT ROAD W ,TRAVERSE CITY,MI,49684,,,,,,44.7241315,-85.64242139999999,
www.coach.com,MACY'S INC. - LAKESIDE (MI),14200 LAKESIDE CIR ,STERLING HEIGHTS,MI,48313,,,,,,42.6235805,-82.98562609999999,
www.coach.com,MACY'S INC. - MERIDIAN (MI),1982 EAST GRAND RIVER ,OKEMOS,MI,48864,,,,,,42.7276955,-84.45597649999999,
www.coach.com,MACY'S INC. - OAKLAND (MI),500 W14 MILE RD ,TROY,MI,48083,,,,,,42.5375257,-83.1134864,
www.coach.com,MACY'S INC. - SOMERSET COLLECTION,2752 W BIG BEAVER ,TROY,MI,48084,,,,,,42.5628015,-83.18399169999999,
www.coach.com,MACY'S INC. - SOUTHLAND (MI),23000 EUREKA RD ,TAYLOR,MI,48180,,,,,,42.2003192,-83.2542806,
www.coach.com,MACY'S INC. - TWELVE OAKS (NOVI),27550 NOVI RD ,NOVI,MI,48377,,,,,,42.4915134,-83.47185689999999,
www.coach.com,MACY'S INC. - WOODLAND (MI),8165 28TH ST SE ,GRAND RAPIDS,MI,49508,,,,,,42.91255659999999,-85.55881819999999,
www.coach.com,VON MAUR - BRIARWOOD,300 BRIARWOOD CIRCLE ,ANN ARBOR,MI,48103,,,,,,42.23884,-83.74734699999999,
www.coach.com,VON MAUR - LAUREL PARK,37500 SIX MILE ROAD ,LIVONIA,MI,48150,,,,,,42.4134976,-83.4166187,
www.coach.com,MACY'S INC. - WARWICK MALL,400 BALD HILL ROAD ,WARWICK,RI,2886,,,,,,41.7220186,-71.4731681,
www.coach.com,COACH OAK PARK,11471 WEST 95TH STREET ,OVERLAND PARK,KS,66214,,,(913) 438-1771,,,38.9534597,-94.718576,
www.coach.com,COACH TOWNE EAST SQUARE,7700 E KELLOGG DR. ,WICHITA,KS,67207,,,(316) 686-0670,,,37.6826997,-97.24741829999999,
www.coach.com,COACH LEGENDS OUTLETS KANSAS CITY,1855 VILLAGE WEST PARKWAY ,KANSAS CITY,KS,66111,,,(913) 299-8672,,,39.1259993,-94.8295643,
www.coach.com,AAFES HQ - FT LEAVENWORTH,330 KANSAS AVENUE BLDG 700 ,FORT LEAVENWORTH,KS,66027,,,,,,39.3403426,-94.92455629999999,
www.coach.com,AAFES HQ - FT RILEY,BLDG 2210 TROPPER DRIVE ,FORT RILEY,KS,66442,,,,,,39.044362,-96.82969899999999,
www.coach.com,DILLARD'S - OAK PARK,11501 WEST 95TH STREET ,SHAWNEE MISSION,KS,66214,,,,,,38.955149,-94.71929399999999,
www.coach.com,DILLARD'S - TOWN EAST (KS),7700 KELLOGG EAST ,WICHITA,KS,67207,,,,,,37.6826997,-97.24741829999999,
www.coach.com,DILLARD'S - WEST RIDGE MALL,1791 SW WANAMAKER ,TOPEKA,KS,66604,,,,,,39.033974,-95.763947,
www.coach.com,MACY'S INC. - TOWN CENTER PLAZA (KS),5000 W 119TH STREET ,LEAWOOD,KS,66211,,,,,,38.9148371,-94.6443259,
www.coach.com,VON MAUR - CORBIN PARK,135TH ST & METCALF AVENUE ,OVERLAND PARK,KS,66223,,,,,,38.8836735,-94.66772,
www.coach.com,VON MAUR - TOWN EAST (KS),770 E KELLOGG DRIVE ,WICHITA,KS,67207,,,,,,37.6791712,-97.27546149999999,
www.coach.com,DILLARD'S - RIMROCK MALL,140 SOUTH 24TH STREET WEST ,BILLINGS,MT,59102,,,,,,45.7672915,-108.5763119,
www.coach.com,DILLARD'S - SOUTHGATE MALL (MT),2901 BROOKS STREET ,MISSOULA,MT,59801,,,,,,46.8450655,-114.0285964,
www.coach.com,COACH GULFPORT,10000 FACTORY SHOPS BLVD. ,GULFPORT,MS,39503,,,(228) 868-6372,,,30.4290315,-89.099261,
www.coach.com,COACH OUTLETS OF MISSISSIPPI,"200 BASS PRO DRIVE, SUITE 588 ",PEARL,MS,39208,,,(601) 936-5806,,,32.2751259,-90.1529279,
www.coach.com,COACH SOUTHAVEN OUTLET,5205 AIRWAYS BLVD. ,SOUTHAVEN,MS,38671,,,(662) 349-0196,,,34.93623360000001,-89.9916046,
www.coach.com,DILLARD'S - EDGEWATER MALL,2600 BEACH BLVD SUITE # 1 ,BILOXI,MS,39531,,,,,,30.3919044,-88.99014160000002,
www.coach.com,DILLARD'S - NORTHPARK (MS),1200 COUNTY LINE RD ,RIDGELAND,MS,39157,,,,,,32.4031233,-90.12931760000001,
www.coach.com,DILLARD'S - SOUTHAVEN TOWNE CENTER,230 TOWN CENTER LOOP ,SOUTHAVEN,MS,38671,,,,,,34.9539353,-89.9937339,
www.coach.com,COACH MALL OF SAN JUAN,1000 MALL OF SAN JUAN BLVD ,SAN JUAN,PR,00924,,,(787) 759-2660,,,18.4123507,-66.0260881,
www.coach.com,COACH SAN JUAN,158 CRISTO STREET ,SAN JUAN,PR,00927,,,(787) 722-6830,,,18.4652408,-66.11817289999999,
www.coach.com,AAFES HQ - FT BUCHANAN,218 BROOK STREET BLGD 689 ,FORT BUCHANAN,PR,934,,,,,,,,
www.coach.com,MACY'S INC. - PLAZA LAS AMERICAS,525 F D ROOSEVELT AVE ,SAN JUAN,PR,918,,,,,,18.4215524,-66.07383829999999,
www.coach.com,MACY'S INC. - PONCE,2050 PONCE BY PASS ,PONCE,PR,717,,,,,,17.9933911,-66.6113195,
www.coach.com,SAKS FIFTH AVENUE - SAN JUAN,2000 MALL OF SJ BLVD ,SAN JUAN,PR,924,,,,,,18.412181,-66.025471,
www.coach.com,COACH COLUMBIANA CENTRE,100 COLUMBIANA CIRCLE ,COLUMBIA,SC,29212,,,(803) 407-0838,,,34.077884,-81.15648829999999,
www.coach.com,COACH CHARLESTON OUTLETS,4840 TANGER OUTLET BLVD ,NORTH CHARLESTON,SC,29418,,,(843) 744-7729,,,32.8741204,-80.0181733,
www.coach.com,COACH GAFFNEY,1 FACTORY SHOPS BLVD ,GAFFNEY,SC,29341,,,(864) 902-9965,,,35.0819782,-81.71211149999999,
www.coach.com,COACH HILTON HEAD,1414 FORDING ISLAND ROAD ,BLUFFTON,SC,29910,,,(843) 837-2772,,,32.2397004,-80.8192375,
www.coach.com,COACH MYRTLE BEACH NORTH,10843 KINGS ROAD ,MYRTLE BEACH,SC,29572,,,(843) 449-2022,,,33.784494,-78.77426009999999,
www.coach.com,COACH MYRTLE BEACH SOUTH,4635 FACTORY STORES BLVD. ,MYRTLE BEACH,SC,29579,,,(843) 236-5792,,,33.7508435,-78.9580127,
www.coach.com,AAFES HQ - FT JACKSON SHOPPING CTR COMPLE,BLDG 4110 MOSEBY STREET ,FORT JACKSON,SC,29207,,,,,,34.0222374,-80.9439046,
www.coach.com,BELK - COLUMBIANA CENTRE,100 COLUMBIANA CENTRE ,COLUMBIA,SC,29221,,,,,,34.0786359,-81.15743909999999,
www.coach.com,BELK - HAYWOOD MALL,700 HAYWOOD RD SUITE 108 ,GREENVILLE,SC,29607,,,,,,34.84993,-82.3335819,
www.coach.com,BELK - INTERNET,120 BELK COURT ,BLYTHEWOOD,SC,29016,,,,,,34.171799,-80.963403,
www.coach.com,DILLARD'S - ANDERSON MALL,3101 NMAIN SUITE D ,ANDERSON,SC,29621,,,,,,34.5387306,-82.6700192,
www.coach.com,DILLARD'S - COASTAL GRANDE,100 COASTAL GRAND CIRCLE ,MYRTLE BEACH,SC,29577,,,,,,33.7012415,-78.926783,
www.coach.com,DILLARD'S - COLUMBIANA CENTER (SC),100 COLUMBIANA CIRCLE ,COLUMBIA,SC,29212,,,,,,34.077884,-81.15648829999999,
www.coach.com,DILLARD'S - HAYWOOD MALL,700 HAYWOOD ROAD STE 508 ,GREENVILLE,SC,29607,,,,,,34.84993,-82.3335819,
www.coach.com,COACH FAYETTE MALL - FAYETTE MALL,"3401 NICHOLASVILLE ROAD, SPACE #D412 ",LEXINGTON,KY,40503,,,(859) 245-8700,,,37.9893646,-84.5278302,
www.coach.com,COACH OUTLET SHOPPES OF THE BLUEGRASS,1155 BUCK CREEK ROAD ,SIMPSONVILLE,KY,40067,,,(502) 722-8621,,,38.2062338,-85.3520379,
www.coach.com,AAFES HQ - FT. BUCHANAN MS,BLDG 2840 BASTOGNE AVE ,FORT CAMPBELL,KY,42223,,,,,,36.6460123,-87.4526458,
www.coach.com,AAFES HQ - FT. KNOX,BLDG 127 GOLD VAULT ROAD ,FORT KNOX,KY,40121,,,,,,37.8853595,-85.9503469,
www.coach.com,DILLARD'S - CRESTVIEW HILLS MALL,2900 TOWN CENTER BLVD ,CRESTVIEW HILLS,KY,41017,,,,,,39.0239652,-84.57937439999999,
www.coach.com,DILLARD'S - FAYETTE MALL,3625 NICHOLASVILLE ,LEXINGTON,KY,40503,,,,,,37.986113,-84.52859199999999,
www.coach.com,DILLARD'S - GREENWOOD MALL,2625 SCOTTSDALE RD ,BOWLING GREEN,KY,42101,,,,,,36.9478587,-86.42695780000001,
www.coach.com,DILLARD'S - JEFFERSON MALL,4801 OUTER LOOP ,LOUISVILLE,KY,40219,,,,,,38.141353,-85.6704925,
www.coach.com,DILLARD'S - KENTUCKY OAKS MALL,5101 HINKLEVILLE ROAD ,PADUCAH,KY,42001,,,,,,37.0799515,-88.6891843,
www.coach.com,DILLARD'S - ST  MATTHEWS MALL,SHELBYVILLE ROAD MALL ,LOUISVILLE,KY,40207,,,,,,38.2467204,-85.6232509,
www.coach.com,MACY'S INC. - FAYETTE (KY),3301 NICHOLASVILLE ROAD ,LEXINGTON,KY,40503,,,,,,37.9909565,-84.52707319999999,
www.coach.com,MACY'S INC. - OXMOOR CENTER,7900 SHELBYVILLE ROAD ,LOUISVILLE,KY,40222,,,,,,38.2470462,-85.60991659999999,
www.coach.com,VON MAUR - OXMOOR,7900 SHELBYVILLE ROAD ,LOUISVILLE,KY,40222,,,,,,38.2470462,-85.60991659999999,
www.coach.com,ZAPPOS.COM - WHCW 28026 ZAPPOS.COM,376 ZAPPOSCOM BLVDFTZ#029 SITE6 ,SHEPHERDSVILLE,KY,40165,,,,,,37.9822049,-85.68393619999999,
www.coach.com,COACH CLACKAMAS TOWN CENTER,12000 SE 82ND AVENUE ,PORTLAND,OR,97086,,,(503) 353-0088,,,45.4342338,-122.5723687,
www.coach.com,COACH PORTLAND,700 SOUTHWEST FIFTH AVENUE ,PORTLAND,OR,97204,,,(503) 294-0772,,,45.5184023,-122.6772628,
www.coach.com,COACH WASHINGTON SQUARE,9689 SW WASHINGTON SQ RD ,TIGARD,OR,97223,,,(503) 968-1772,,,45.4479552,-122.7827764,
www.coach.com,COACH LINCOLN CITY - FACTORY STORES AT LINCOLN CITY,1500 SE EAST DEVILS LAKE RD. ,LINCOLN CITY,OR,97367,,,(541) 996-6772,,,44.9587207,-124.0105628,
www.coach.com,COACH TROUTDALE (COLUMBIA GORGE),450 NW 257TH AVE ,TROUTDALE,OR,97060,,,(503) 491-9336,,,45.54317380000001,-122.3889759,
www.coach.com,COACH WOODBURN,1001 ARNEY RD. ,WOODBURN,OR,97071,,,(503) 981-4030,,,45.1561405,-122.878519,
www.coach.com,MACY'S INC. - CLACKAMAS TOWN CENTER,12100 SE 82ND AVENUE ,PORTLAND,OR,97266,,,,,,45.4365909,-122.5722573,
www.coach.com,MACY'S INC. - EUGENE VALLEY RIVER CTR (OR),100 VALLEY RIVER CENTER ,EUGENE,OR,97401,,,,,,44.0669776,-123.1047062,
www.coach.com,MACY'S INC. - LLOYD CENTER (OR),1100 LLOYD CENTER ,PORTLAND,OR,97232,,,,,,45.5319966,-122.6546118,
www.coach.com,MACY'S INC. - WASHINGTON SQ (OR),9300 SW WASHINGTON SQUARE RD ,PORTLAND,OR,97223,,,,,,45.4504776,-122.7812439,
www.coach.com,COACH EMPIRE MALL,870 EMPIRE MALL ,SIOUX FALLS,SD,57106,,,(605) 361-3677,,,43.5115906,-96.7749952,
www.coach.com,MACY'S INC. - EMPIRE MALL,4001 WEST 41ST STREET ,SIOUX FALLS,SD,57106,,,,,,43.5111419,-96.7758084,