locator_domain,location_name,street_address,city,state,zip,country_code,store_number,phone,location_type,naics_code,latitude,longitude,hours_of_operation
redroof.com,HomeTowne Studios & Suites Bentonville,200 SW Suburban Drive,Bentonville,AR,72712,US,hts1072,(479) 268-4400,Red Roof Inn,,36.33777300000001,-94.2125535,
redroof.com,HomeTowne Studios Phoenix - West,4861 W. McDowell Road,Phoenix,AZ,85035,US,hts1029,(602) 272-8571,Red Roof Inn,,33.4652075,-112.1650506,
redroof.com,HomeTowne Studios Phoenix - Dunlap Ave,2102 W. Dunlap Ave,Phoenix,AZ,85021,US,hts1055,(602) 944-7828,Red Roof Inn,,33.56833659999999,-112.1043024,
redroof.com,HomeTowne Studios Phoenix - Black Canyon Highway,11211 N Black Canyon Highway,Phoenix,AZ,85029,US,hts1059,602-870-2999,Red Roof Inn,,33.588293,-112.115869,
redroof.com,HomeTowne Studios Fresno - West,3460 West Shaw Avenue,Fresno,CA,93711,US,hts1054,(559) 277-8700,Red Roof Inn,,36.810354,-119.8547156,
redroof.com,HomeTowne Studios Rancho Cordova,11299 Point East Drive,Rancho Cordova,CA,95742,US,hts1020,(916) 859-0280,Red Roof Inn,,38.60997589999999,-121.2658108,
redroof.com,HomeTowne Studios Denver - Airport/ Aurora,3705 N Chambers Road,Aurora,CO,80011,US,hts1053,(303) 307-1088,Red Roof Inn,,39.7673615,-104.8107615,
redroof.com,HomeTowne Studios Colorado Springs - Airport,3490 Afternoon Circle,Colorado Springs,CO,80910,US,hts1051,(719) 638-9233,Red Roof Inn,,38.815481,-104.7617108,
redroof.com,HomeTowne Studios Denver - Glendale/ Cherry Creek,4850 Leetsdale Drive,Glendale,CO,80246,US,hts1030,(303) 333-2545,Red Roof Inn,,39.7081095,-104.9309002,
redroof.com,HomeTowne Studios Denver - Lakewood West,715 Kipling St,Lakewood,CO,80215,US,hts1092,(303) 275-0840,Red Roof Inn,,39.7283671,-105.1105924,
redroof.com,HomeTowne Studios Denver - Thornton,8750 Grant St,Thornton,CO,80229,US,hts1052,(303) 430-4474,Red Roof Inn,,39.85552620000001,-104.9831072,
redroof.com,HomeTowne Studios Orlando - Casselberry,210 North Oxford Rd,Casselberry,FL,32707,US,hts1067,(407) 265-7699,Red Roof Inn,,28.6599447,-81.337492,
redroof.com,HomeTowne Studios Fort Lauderdale,3031 W Commercial Blvd,Fort Lauderdale,FL,33309,US,hts1036,(954) 484-5115,Red Roof Inn,,26.1874422,-80.18606799999999,
redroof.com,HomeTowne Studios Orlando - UCF Area,12350 E Colonial Drive,Orlando,FL,32826,US,hts1038,(407) 282-7112,Red Roof Inn,,28.564527,-81.1959778,
redroof.com,HomeTowne Studios Orlando South,9435 Delegates Dr,Orlando,FL,32837,US,hts1085,(407) 251-1110,Red Roof Inn,,28.4290047,-81.4085377,
redroof.com,HomeTowne Studios Atlanta - Chamblee,2050 Peachtree Industrial Court,Chamblee,GA,30341,US,hts1068,(770) 234-9005,Red Roof Inn,,33.9000501,-84.2982717,
redroof.com,"HomeTowne Studios Covington, GA",9161 City Pond Road,Covington,GA,30014,US,hts1064,(678) 625-1000,Red Roof Inn,,33.6168884,-83.8462658,
redroof.com,"HomeTowne Studios Gainesville, GA",1115 Jesse Jewell Pkwy SW,Gainesville,GA,30501,US,hts1063,(770) 533-9433,Red Roof Inn,,34.2880925,-83.8353286,
redroof.com,HomeTowne Studios Atlanta - Lawrenceville,474 W  Pike St,Lawrenceville,GA,30045,US,hts1034,(770) 962-5660,Red Roof Inn,,33.960572,-84.00670699999999,
redroof.com,HomeTowne Studios Atlanta NE - Norcross South,6295 Jimmy Carter Blvd,Norcross,GA,30071,US,hts1032,(770) 446-9245,Red Roof Inn,,33.9303166,-84.2197894,
redroof.com,HomeTowne Studios Atlanta NE - Downtown Norcross,200 Lawrenceville Street NW,Norcross,GA,30071,US,hts1033,(770) 729-8100,Red Roof Inn,,33.9428462,-84.20925410000001,
redroof.com,HomeTowne Studios Atlanta NE - Peachtree Corners,7049 Jimmy Carter Blvd,Norcross,GA,30092,US,hts1056,(770) 449-9966,Red Roof Inn,,33.9470478,-84.23870509999999,
redroof.com,"HomeTowne Studios & Suites St Louis - O Fallon, IL",148 Regency Park,OFallon,IL,62269,US,hts1071,(618) 589-3696,Red Roof Inn,,38.5876427,-89.9386804,
redroof.com,HomeTowne Studios Chicago - Waukegan,1177 S. Northpoint Blvd,Waukegan,IL,60085,US,hts1026,(847) 688-0402,Red Roof Inn,,42.3382118,-87.88715409999999,
redroof.com,HomeTowne Studios Louisville,4540 Taylorsville Road,Louisville,KY,40220,US,hts1062,(502) 499-9100,Red Roof Inn,,38.2179039,-85.5995456,
redroof.com,HomeTowne Studios Baton Rouge  Sherwood Forest,11140 Boardwalk Drive,Baton Rouge,LA,70816,US,hts1039,(225) 274-8997,Red Roof Inn,,30.4308513,-91.0598855,
redroof.com,HomeTowne Studios Lake Charles - Sulphur,104 Mallard Road,Sulphur,LA,70665,US,hts1031,(337) 625-5923,Red Roof Inn,,30.2149102,-93.3285429,
redroof.com,HomeTowne Studios Detroit - Livonia,11808 Middlebelt Rd,Livonia,MI,48150,US,hts1022,(734) 458-8180,Red Roof Inn,,42.37207129999999,-83.3315521,
redroof.com,HomeTowne Studios St. Louis - Airport/ N Lindbergh,6065 N. Lindbergh Boulevard,Hazelwood,MO,63042,US,hts1025,(314) 731-2991,Red Roof Inn,,38.7704786,-90.3662662,
redroof.com,"HomeTowne Studios Kansas City - Independence, MO",14800 E. 42nd Street,Independence,MO,64055,US,hts1024,(816) 350-2151,Red Roof Inn,,39.0448388,-94.405872,
redroof.com,HomeTowne Studios Kansas City - Worlds of Fun,4301 N Corrington  Ave,Kansas City,MO,64117,US,hts1045,(816)-413-0060,Red Roof Inn,,39.1720179,-94.49434219999999,
redroof.com,HomeTowne Studios & Suites Charlotte - Concord,7725 Sossaman Lane,Concord,NC,28027,US,hts1066,(704) 979-5555,Red Roof Inn,,35.3640715,-80.71000889999999,
redroof.com,HomeTowne Studios Raleigh  Durham,5008 NC Highway 55,Durham,NC,27713,US,hts1037,(919) 484-1878,Red Roof Inn,,35.8965474,-78.8981901,
redroof.com,HomeTowne Studios Winston-Salem - University Pkwy,7910 N. Point Blvd,Winston-Salem,NC,27106,US,hts1035,(336) 759-7780,Red Roof Inn,,36.1515622,-80.274316,
redroof.com,"HomeTowne Studios Philadelphia - Maple Shade, NJ",2868 NJ 73 North,Maple Shade,NJ,08052,US,hts1021,(856) 787-1161,Red Roof Inn,,39.9447673,-74.97809219999999,
redroof.com,HomeTowne Studios Columbus,6275 Quarter Horse Drive,Columbus,OH,43229,US,hts1060,(614) 841-0002,Red Roof Inn,,40.0944586,-82.9875347,
redroof.com,HomeTowne Studios Cincinnati - Sharonville,11457 Chester Road,Sharonville,OH,45246,US,hts1023,(513) 771-7829,Red Roof Inn,,39.2817684,-84.44466589999999,
redroof.com,"HomeTowne Studios Salem, OR",3535 Fisher Road NE,Salem,OR,97305,US,hts1047,(503) 363-7557,Red Roof Inn,,44.9707059,-122.9890594,
redroof.com,HomeTowne Studios Eugene - Springfield,520 Harlow Rd,Springfield,OR,97477,US,hts1028,(541) 741-3908,Red Roof Inn,,44.0715632,-123.0339968,
redroof.com,HomeTowne Studios & Suites Columbia,350 Columbiana Drive,Columbia,SC,29212,US,hts1070,(803) 781-9391,Red Roof Inn,,34.0841032,-81.1603318,
redroof.com,HomeTowne Studios Spartanburg - Asheville Highway,130 Mobile Drive,Spartanburg,SC,29303,US,hts1018,(864) 573-5949,Red Roof Inn,,34.9847751,-81.9698882,
redroof.com,HomeTowne Studios Nashville - Airport/ Briley Pkwy,1210 Murfreesboro Rd,Nashville,TN,37217,US,hts1019,(615) 366-0559,Red Roof Inn,,36.0149584,-86.5560692,
redroof.com,HomeTowne Studios Austin,12621 Hymeadow Drive,Austin,TX,78729,US,hts1043,(512) 331-4747,Red Roof Inn,,30.45774239999999,-97.79036339999999,
redroof.com,HomeTowne Studios Dallas - North Addison/ Tollway,17425 Dallas Parkway,Dallas,TX,75287,US,hts1057,(972) 447-1800,Red Roof Inn,,32.9875436,-96.829444,
redroof.com,HomeTowne Studios Dallas - Fort Worth,3804 Tanacross Dr,Fort Worth,TX,76137,US,hts1046,(817) 838-3500,Red Roof Inn,,32.836356,-97.29205379999999,
redroof.com,HomeTowne Studios Houston - Northwest,5959 Guhn Road,Houston,TX,77040,US,hts1040,(713) 934-7600,Red Roof Inn,,29.85319969999999,-95.5158455,
redroof.com,HomeTowne Studios Houston - West Oaks,2130 Highway 6,Houston,TX,77077,US,hts1041,(281) 759-2000,Red Roof Inn,,29.7432805,-95.64465720000001,
redroof.com,HomeTowne Studios Dallas - Irving,3440 W Walnut Hill Lane,Irving,TX,75038,US,hts1044,(972) 257-9696,Red Roof Inn,,32.8648497,-96.99420359999999,
redroof.com,HomeTowne Studios Dallas - Mesquite,2544 US Highway 67,Mesquite,TX,75150,US,hts1042,(972) 270-3630,Red Roof Inn,,32.8177679,-96.63629619999999,
redroof.com,HomeTowne Studios Salt Lake City - Mid Valley,5683 S Redwood Road,Salt Lake City,UT,84123,US,hts1058,(801) 269-9292,Red Roof Inn,,40.6469562,-111.9370185,
redroof.com,HomeTowne Studios Seattle - Kent/ Des Moines,25104 Pacific Highway S,Kent,WA,98032,US,hts1048,(253) 946-1744,Red Roof Inn,,47.376363,-122.2977043,
redroof.com,HomeTowne Studios Tacoma - Puyallup,2101 N Meridian,Puyallup,WA,98371,US,hts1049,(253) 445-5945,Red Roof Inn,,47.2090811,-122.2927328,
redroof.com,HomeTowne Studios Spokane - Valley,12803 E. Sprague Ave,Spokane,WA,99216,US,hts1027,(509) 928-5948,Red Roof Inn,,47.6581043,-117.2334061,
redroof.com,HomeTowne Studios Tacoma - Hosmer,8801 S Hosmer St,Tacoma,WA,98444,US,hts1050,(253) 538-9448,Red Roof Inn,,47.1768788,-122.4625886,
redroof.com,Red Roof,2750 Sunridge Boulevard NE,Calgary,AB,T1Y 3C2,CA,rri786,1-403-291-1260,Red Roof Inn Plus,,51.0774875,-113.9974775,
redroof.com,Red Roof Inn Birmingham South,1466 Montgomery Highway,Birmingham,AL,35216,US,rri404,1-937-328-1863,Red Roof Inn,,33.4179461,-86.80308529999999,
redroof.com,Red Roof Inn & Suites Dothan,3285 Montgomery Hwy,Dothan,AL,36303,US,rri1095,1-937-327-6567,Red Roof Inn,,31.25321689999999,-85.4300201,
redroof.com,Red Roof Inn Gadsden,1600 Rainbow Drive,Gadsden,AL,35901,US,rri1116,1-937-327-6512,Red Roof Inn,,33.9827425,-86.00454300000001,
redroof.com,Red Roof Inn Gulf Shores,3049 West 1st Street,Gulf Shores,AL,36542,US,rri946,1-937-505-5901,Red Roof Inn,,30.2849795,-87.6878895,
redroof.com,Red Roof Inn Hartselle,1800 Dixie Lane SE,Hartselle,AL,35640,US,rri473,1-937-328-4218,Red Roof Inn,,34.4474532,-86.9036881,
redroof.com,Red Roof,1813 Crestwood Blvd,Birmingham,AL,35210,US,rri361,1-937-328-4207,Red Roof Inn Plus,,33.5322843,-86.7033098,
redroof.com,Red Roof,8781 Madison Blvd,Madison,AL,35758,US,rri418,1-937-328-1861,Red Roof Inn Plus,,34.678203,-86.74630789999999,
redroof.com,Red Roof Inn & Suites Mobile - Tillmans Corner,5635 Tillmans Corner Parkway,Mobile,AL,36619,US,rri390,1-937-328-1826,Red Roof Inn,,30.5863956,-88.17172769999999,
redroof.com,Red Roof Inn Mobile - Midtown,1 East I-65 Service Road South,Mobile,AL,36606,US,rri399,1-937-328-1725,Red Roof Inn,,30.6877064,-88.12456449999999,
redroof.com,Red Roof Inn Montgomery - Midtown,2625 Zelda Road,Montgomery,AL,36107,US,rri346,1-937-328-1754,Red Roof Inn,,32.36448,-86.269661,
redroof.com,Red Roof Inn Muscle Shoals,2807 Woodward Ave,Muscle Shoals,AL,35661,US,rri970,1-937-505-5997,Red Roof Inn,,34.7351189,-87.6670436,
redroof.com,Red Roof,1520 Columbus Parkway,Opelika,AL,36804,US,rri879,1-937-327-6586,Red Roof Inn Plus,,32.6444767,-85.3446725,
redroof.com,Red Roof Inn & Suites Oxford,138 Elm Street,Oxford,AL,36203,US,rri819,1-937-328-4236,Red Roof Inn,,33.6018603,-85.83018589999999,
redroof.com,Red Roof Inn Prattville,2585 Cobbs Ford Road,Prattville,AL,36066,US,rri1003,1-937-328-1862,Red Roof Inn,,32.4618494,-86.3900916,
redroof.com,Red Roof Inn Mobile North - Saraland,1210 Industrial Parkway,Saraland,AL,36571,US,rri293,1-937-328-1770,Red Roof Inn,,30.8037773,-88.10026479999999,
redroof.com,Red Roof Inn & Suites Scottsboro,23518 John T Reid Pkwy,Scottsboro,AL,35768,US,rri496,1-937-328-4224,Red Roof Inn,,34.6549554,-86.0242342,
redroof.com,Red Roof Inn Sylacauga,40770 US Highway 280,Sylacauga,AL,35150,US,rri419,1-937-328-4235,Red Roof Inn,,33.175523,-86.292886,
redroof.com,Red Roof,4810 Skyland Blvd  E,Tuscaloosa,AL,35405,US,rri907,1-205-614-9646,Red Roof Inn Plus,,33.1767691,-87.47304989999999,
redroof.com,Red Roof,215 Southeast Walton Blvd,Bentonville,AR,72712,US,rri934,1-937-327-6589,Red Roof Inn Plus,,36.3364347,-94.20734929999999,
redroof.com,Red Roof Inn Forrest City,2333 N. Washington St.,Forrest City,AR,72335,US,rri905,1-937-505-5967,Red Roof Inn,,35.0323781,-90.79095099999999,
redroof.com,Red Roof Inn Fort Smith Downtown,1021 Garrison Avenue,Fort Smith,AR,72901,US,rri1010,1-937-328-1857,Red Roof Inn,,35.3847256,-94.4205678,
redroof.com,Red Roof Inn Hot Springs,1125 East Grand Avenue,Hot Springs National Park,AR,71901,US,rri736,1-937-328-1730,Red Roof Inn,,34.5171819,-93.03860829999999,
redroof.com,Red Roof Inn & Suites Little Rock,8115 Frenchmans Lane,Little Rock,AR,72209,US,rri468,1-937-328-4221,Red Roof Inn,,34.6770248,-92.3466591,
redroof.com,Red Roof Inn North Little Rock - JFK/ City Center,120 West Pershing Blvd.,North Little Rock,AR,72114,US,rri459,1-937-328-4215,Red Roof Inn,,34.7807096,-92.26910529999999,
redroof.com,Red Roof Inn North Little Rock,5711 Pritchard Road,North Little Rock,AR,72117,US,rri552,1-937-328-1632,Red Roof Inn,,34.7778849,-92.2048769,
redroof.com,Red Roof Inn & Suites Texarkana,5300 N State Line  Ave,Texarkana,AR,71854,US,rri461,1-937-328-4240,Red Roof Inn,,33.4745406,-94.0421405,
redroof.com,"Red Roof Inn West Memphis, AR",1401 North Ingram Boulevard,West Memphis,AR,72301,US,rri553,1-937-328-1633,Red Roof Inn,,35.1605057,-90.1575084,
redroof.com,Red Roof Inn Kingman,3275 E. Andy Devine Ave,Kingman,AZ,86401,US,rri893,1-937-328-1560,Red Roof Inn,,35.2200144,-114.0089619,
redroof.com,Red Roof Inn Mesa,1625 East Main Street,Mesa,AZ,85203,US,rri317,1-937-328-1708,Red Roof Inn,,33.4145233,-111.7953287,
redroof.com,Red Roof Inn Phoenix - Midtown,4130 N Black Canyon Hwy,Phoenix,AZ,85017,US,rri1167,602-277-5501,Red Roof Inn,,33.4959304,-112.1143548,
redroof.com,Red Roof Inn Phoenix North - Bell Road,17222 N Black Canyon Hwy,Phoenix,AZ,85053,US,rri250,1-937-328-1593,Red Roof Inn,,33.6429596,-112.1164279,
redroof.com,Red Roof,5215 West Willetta Street,Phoenix,AZ,85043,US,rri261,1-937-328-1601,Red Roof Inn Plus,,33.464384,-112.171664,
redroof.com,Red Roof,2135 West 15TH Street,Tempe,AZ,85281,US,rri265,1-937-328-1605,Red Roof Inn Plus,,33.411131,-111.9715319,
redroof.com,Red Roof Inn Tucson South - Airport,3704 East Irvington Road,Tucson,AZ,85714,US,rri225,1-937-328-1575,Red Roof Inn,,32.1619102,-110.913704,
redroof.com,Red Roof Inn Tucson North - Marana,4940 West Ina Road,Tucson,AZ,85743,US,rri244,1-937-328-1587,Red Roof Inn,,32.3396869,-111.0703049,
redroof.com,Red Roof,642 East Route 66,Williams,AZ,86046,US,rri288,1-937-328-1673,Red Roof Inn Plus,,35.2522996,-112.1817699,
redroof.com,Red Roof Inn Arcata,4975 Valley West Boulevard,Arcata,CA,95521,US,rri792,1-937-505-5972,Red Roof Inn,,40.9037267,-124.0841045,
redroof.com,Red Roof Inn Bakersfield,889 Oak Street,Bakersfield,CA,93304,US,rri813,1-937-328-4200,Red Roof Inn,,35.3657745,-119.0394237,
redroof.com,Red Roof Inn Bishop,150 E Elm Street,Bishop,CA,93514,US,rri900,1-937-327-6517,Red Roof Inn,,37.3655775,-118.3940828,
redroof.com,Red Roof Inn Blythe,850 West Hobsonway,Blythe,CA,92225,US,rri488,1-937-328-1816,Red Roof Inn,,33.6094621,-114.6062838,
redroof.com,Red Roof,777 Airport Boulevard,Burlingame,CA,94010,US,rri228,1-937-328-1578,Red Roof Inn Plus,,37.5895603,-122.3504127,
redroof.com,Red Roof Inn Hayward,2286 Industrial Parkway West,Hayward,CA,94545,US,rri862,1-937-327-6582,Red Roof Inn,,37.6171966,-122.0770423,
redroof.com,Red Roof Inn Lompoc,1020 East Ocean Avenue,Lompoc,CA,93436,US,rri774,1-937-328-1872,Red Roof Inn,,34.6386049,-120.4455748,
redroof.com,Red Roof Inn Mojave,2145 State Highway 58,Mojave,CA,93501,US,rri458,1-937-328-4226,Red Roof Inn,,35.4551952,-120.412037,
redroof.com,Red Roof Inn & Suites Monterey,2227 North Fremont Street,Monterey,CA,93940,US,rri773,1-937-328-1873,Red Roof Inn,,36.5971727,-121.8577157,
redroof.com,Red Roof Inn Needles,2306 West Broadway,Needles,CA,92363,US,rri426,1-937-327-6572,Red Roof Inn,,34.8492012,-114.6216328,
redroof.com,Red Roof Inn Palmdale - Lancaster,200 W Palmdale  Boulevard,Palmdale,CA,93551,US,rri760,1-937-505-5904,Red Roof Inn,,34.5793001,-118.1312405,
redroof.com,Red Roof Inn & Suites Rancho Cordova - Sacramento,10800 Olson Drive,Rancho Cordova,CA,95670,US,rri665,1-937-328-1682,Red Roof Inn,,38.59329750000001,-121.2861285,
redroof.com,Red Roof Inn & Suites Sacramento North,4325 Watt Ave.,Sacramento,CA,95821,US,rri342,1-937-328-1800,Red Roof Inn,,38.6429908,-121.3837777,
redroof.com,Red Roof Inn Sacramento - Elk Grove,7780 Stockton Boulevard,Sacramento,CA,95823,US,rri756,1-937-328-1592,Red Roof Inn,,38.4749687,-121.4197977,
redroof.com,Red Roof Inn San Diego-Pacific Beach/SeaWorld Area,4545 Mission Bay Drive,San Diego,CA,92109,US,rri755,1-937-328-1745,Red Roof Inn,,32.8037543,-117.2168561,
redroof.com,Red Roof Inn San Dimas - Fairplex,204 North Village Court,San Dimas,CA,91773,US,rri213,1-937-328-1568,Red Roof Inn,,34.1097874,-117.8221674,
redroof.com,Red Roof Inn Santa Ana,2600 North Main Street,Santa Ana,CA,92705,US,rri226,1-937-328-1576,Red Roof Inn,,33.7714106,-117.8676581,
redroof.com,Red Roof Inn Stockton,1707 West Fremont Street,Stockton,CA,95203,US,rri689,1-937-328-1695,Red Roof Inn,,37.9551843,-121.3158334,
redroof.com,Red Roof Inn Tulare - Downtown/ Fairgrounds,1183 North Blackstone,Tulare,CA,93274,US,rri765,1-937-505-5914,Red Roof Inn,,36.2246754,-119.335691,
redroof.com,Red Roof Inn & Suites Vallejo,458 Fairgrounds Dr,Vallejo,CA,94589,US,rri1152,1-937-505-5966,Red Roof Inn,,38.1271919,-122.228916,
redroof.com,Red Roof Inn Victorville,13409 Mariposa Road,Victorville,CA,92395,US,rri218,1-937-328-1570,Red Roof Inn,,34.4938718,-117.3289146,
redroof.com,Red Roof Inn & Suites Osaka  Namba/ Nippombashi,2-7-9 Nippombashi,OSAKA,CHOU-KU,5420073,JP,rri621,81 6-6585-7030,Red Roof Inn,,34.663367,135.505636,
redroof.com,Red Roof,1-9-7 Sen-nichimae,Osaka Prefecture,CHUO-KU,542-0074,JP,rri841,81 6-6484-0339,Red Roof Inn Plus,,34.667341,135.504012,
redroof.com,Red Roof Inn Grand Junction,2210 Highway 6 & 50,Grand Junction,CO,81505,US,rri919,1-937-328-1484,Red Roof Inn,,39.110507,-108.6420234,
redroof.com,Red Roof Inn Enfield,5 Hazard Avenue,Enfield,CT,06082,US,rri105,1-937-328-1476,Red Roof Inn,,41.9911113,-72.58457709999999,
redroof.com,Red Roof,2300 Boston Post Road,Guilford,CT,06437,US,rri810,1-937-328-1798,Red Roof Inn Plus,,41.3071115,-72.7186663,
redroof.com,Red Roof Inn Meriden,10 Bee Street,Meriden,CT,06450,US,rri973,937-328-1723,Red Roof Inn,,41.5280774,-72.7686841,
redroof.com,Red Roof Inn Milford - New Haven,10 Rowe Avenue,Milford,CT,06460,US,rri197,1-937-328-1553,Red Roof Inn,,41.2127627,-73.0904652,
redroof.com,Red Roof Inn Hartford - New Britain,65 Columbus Boulevard,New Britain,CT,06051,US,rri857,1-937-328-4250,Red Roof Inn,,41.6675034,-72.7796766,
redroof.com,Red Roof Inn Mystic - New London,707 Colman Street,New London,CT,06320,US,rri145,1-937-328-1510,Red Roof Inn,,41.3696194,-72.1129922,
redroof.com,Red Roof Inn Hartford - Vernon,425 Hartford Turnpike,Vernon-Rockville,CT,06066,US,rri486,1-937-328-4216,Red Roof Inn,,41.8296163,-72.4834861,
redroof.com,Red Roof Inn & Suites Dover Downtown,652 North Dupont Highway,Dover,DE,19901,US,rri628,1-937-328-1659,Red Roof Inn,,39.1778468,-75.52671459999999,
redroof.com,Red Roof,415 Stanton Christiana Road,Newark,DE,19713,US,rri190,1-937-328-1546,Red Roof Inn Plus,,39.6909112,-75.65603879999999,
redroof.com,Red Roof Inn & Suites Newark - University,1119 South College Ave,Newark,DE,19713,US,rri812,1-937-328-1778,Red Roof Inn,,39.65114270000001,-75.74759689999999,
redroof.com,Red Roof Inn Vitoria,Av. Dante Michelini 1.057 Jardim Da Penha,Vitoria,ES,29060-260,BR,rri497,55 27-3041-9500,Red Roof Inn,,-20.284449,-40.2908737,
redroof.com,Red Roof Inn Baldwin,1088 Highway 301 South,Jacksonville,FL,32234,US,rri397,1-937-328-1767,Red Roof Inn,,30.2828623,-81.9844593,
redroof.com,Red Roof Inn Chipley,1593 Main Street,Chipley,FL,32428,US,rri863,1-937-328-4258,Red Roof Inn,,30.75507989999999,-85.5490264,
redroof.com,Red Roof Inn St Petersburg - Clearwater/Airport,3580 Ulmerton Road,Clearwater,FL,33762,US,rri470,1-937-328-4244,Red Roof Inn,,27.8930971,-82.6825238,
redroof.com,Red Roof Inn Defuniak Springs,326 Green Acres Dr,Defuniak Springs,FL,32435,US,rri1086,1-937-328-4214,Red Roof Inn,,30.7315345,-86.3584073,
redroof.com,Red Roof Inn Ellenton,4915 17th Street East,Ellenton,FL,34222,US,rri479,1-937-328-4217,Red Roof Inn,,27.5283687,-82.5140596,
redroof.com,Red Roof Inn Ft Pierce,3236 South US-1,Fort Pierce,FL,34982,US,rri493,1-937-328-4242,Red Roof Inn,,27.4060879,-80.32448049999999,
redroof.com,Red Roof,3500 Southwest 42nd Street,Gainesville,FL,32608,US,rri257,1-937-328-1598,Red Roof Inn Plus,,29.6210947,-82.38734989999999,
redroof.com,Red Roof Inn Jacksonville - Orange Park,6099 Youngerman Circle,Jacksonville,FL,32244,US,rri076,1-937-328-1454,Red Roof Inn,,30.195827,-81.74184,
redroof.com,Red Roof Inn Jacksonville Airport,1063 Airport Road,Jacksonville,FL,32218,US,rri081,1-937-328-1458,Red Roof Inn,,30.4827231,-81.6446516,
redroof.com,Red Roof,6969 Lenoir Avenue East,Jacksonville,FL,32216,US,rri251,1-937-328-1594,Red Roof Inn Plus,,30.2497243,-81.5966131,
redroof.com,Red Roof Inn Jacksonville - Cruise Port,10901 Harts Road,Jacksonville,FL,32218,US,rri463,1-937-328-4261,Red Roof Inn,,30.4328449,-81.6573152,
redroof.com,Red Roof Inn MacClenny,151 Woodlawn Road,Macclenny,FL,32063,US,rri307,1-937-328-1665,Red Roof Inn,,30.2582344,-82.1243961,
redroof.com,Red Roof,3401 Northwest Lejeune Road (42nd Avenue),Miami,FL,33142,US,rri255,1-937-328-1596,Red Roof Inn Plus,,25.8052975,-80.263364,
redroof.com,Red Roof Inn & Suites Pensacola East - Milton,2672 Avalon Boulevard,Milton,FL,32583,US,rri589,1-937-328-1648,Red Roof Inn,,30.53230379999999,-87.0865786,
redroof.com,Red Roof,1925 Davis Boulevard,Naples,FL,34104,US,rri237,1-937-328-1582,Red Roof Inn Plus,,26.1390203,-81.7812703,
redroof.com,Red Roof,1401 Atlantic Blvd,Neptune Beach,FL,32266,US,rri966,1-937-505-5945,Red Roof Inn Plus,,30.3234349,-81.4123157,
redroof.com,Red Roof Inn Ft Myers,13000 North Cleveland Avenue,North Fort Myers,FL,33903,US,rri723,1-937-328-1720,Red Roof Inn,,26.66007,-81.8824123,
redroof.com,Red Roof Inn Ocala,120 NW  40th Avenue,Ocala,FL,34482,US,rri638,1-937-328-1664,Red Roof Inn,,29.1869877,-82.1895493,
redroof.com,Red Roof Inn Orlando West - Ocoee,11241 West Colonial Drive,Ocoee,FL,34761,US,rri590,1-937-328-1649,Red Roof Inn,,28.5527265,-81.5461443,
redroof.com,Red Roof Inn Orlando-Convention Center/ Int'l Dr,8342 Jamaican Court,Orlando,FL,32819,US,rri1151,1-614-695-3499,Red Roof Inn,,28.4446646,-81.47308269999999,
redroof.com,Red Roof Inn Orlando South - Florida Mall,8296 South Orange Blossom Trail,Orlando,FL,32809,US,rri766,1-937-505-5915,Red Roof Inn,,28.4447712,-81.40332099999999,
redroof.com,Red Roof Inn Ormond Beach,1608 N Highway 1,Ormond Beach,FL,32174,US,rri842,1-937-505-5923,Red Roof Inn,,29.33507,-81.13231999999999,
redroof.com,Red Roof,10 Kingswood Drive,Palm Coast,FL,32137,US,rri788,1-937-328-1759,Red Roof Inn Plus,,29.552778,-81.2142802,
redroof.com,Red Roof Inn Panama City,217 North US Highway 231,Panama City,FL,32405,US,rri672,1-937-328-1686,Red Roof Inn,,30.1783556,-85.65813729999999,
redroof.com,Red Roof Inn Pensacola - West Florida Hospital,7340 Plantation Road,Pensacola,FL,32504,US,rri083,1-937-328-1459,Red Roof Inn,,30.502492,-87.223148,
redroof.com,Red Roof Inn Pensacola Fairgrounds,2591 Wilde Lake Boulevard,Pensacola,FL,32526,US,rri734,1-937-328-1728,Red Roof Inn,,30.5192297,-87.3146782,
redroof.com,Red Roof Inn & Suites Pensacola - NAS Corry,4 North New Warrington Road,Pensacola,FL,32506,US,rri868,1-937-328-4253,Red Roof Inn,,30.4074255,-87.2756277,
redroof.com,Red Roof Inn Tampa Bay - St Petersburg,4999 34th Street North,Saint Petersburg,FL,33714,US,rri866,1-937-328-4252,Red Roof Inn,,27.817074,-82.67903919999999,
redroof.com,Red Roof,2445 State Road 16,Saint Augustine,FL,32092,US,rri926,1-937-328-4288,Red Roof Inn Plus,,29.9165842,-81.4142906,
redroof.com,Red Roof Inn Tallahassee - University,2930 Hospitality Street,Tallahassee,FL,32303,US,rri120,1-937-328-1490,Red Roof Inn,,30.47992259999999,-84.30685799999999,
redroof.com,Red Roof Inn Tampa Fairgrounds - Casino,5001 North US Route 301,Tampa,FL,33610,US,rri092,1-937-328-1466,Red Roof Inn,,27.9924943,-82.3570108,
redroof.com,Red Roof Inn Tampa - Brandon,10121 Horace Avenue,Tampa,FL,33619,US,rri173,1-937-328-1533,Red Roof Inn,,27.9444372,-82.3321973,
redroof.com,Red Roof,2421 Metrocentre Boulevard East,West Palm Beach,FL,33407,US,rri227,1-937-328-1577,Red Roof Inn Plus,,26.7580993,-80.09360509999999,
redroof.com,Red Roof Inn Acworth,5320 Cherokee Street,Acworth,GA,30101,US,rri471,1-937-328-4223,Red Roof Inn,,34.0789677,-84.674677,
redroof.com,"Red Roof Inn & Suites Albany, GA",1400 Dawson Road,Albany,GA,31707,US,rri388,1-937-328-1696,Red Roof Inn,,31.5866685,-84.1852583,
redroof.com,Red Roof,1960 North Druid Hills Road NE,Atlanta,GA,30329,US,rri130,1-937-328-1496,Red Roof Inn Plus,,33.8345413,-84.34027789999999,
redroof.com,Red Roof Inn Atlanta - Six Flags,4430 Frederick Drive SW,Atlanta,GA,30336,US,rri793,1-937-328-1775,Red Roof Inn,,33.7641165,-84.53417019999999,
redroof.com,Red Roof Inn & Suites Augusta South,2176 Gordon Highway,Augusta,GA,30909,US,rri324,1-937-328-1795,Red Roof Inn,,33.4478769,-82.0826309,
redroof.com,Red Roof Inn Augusta - Washington Road,3030 Washington Road,Augusta,GA,30907,US,rri450,1-937-328-1828,Red Roof Inn,,33.5115822,-82.047737,
redroof.com,Red Roof Inn & Suites Augusta West,4328 Frontage Road,Augusta,GA,30909,US,rri585,1-937-328-1645,Red Roof Inn,,33.4922434,-82.09249229999999,
redroof.com,Red Roof Inn & Suites Brunswick I-95,25 Tourist Drive,Brunswick,GA,31520,US,rri511,1-937-328-1619,Red Roof Inn,,31.2188525,-81.522227,
redroof.com,Red Roof Inn & Suites Calhoun,189 Jameson St,Calhoun,GA,30701,US,rri940,1-937-328-1818,Red Roof Inn,,34.4710226,-84.9221546,
redroof.com,Red Roof Inn Cartersville,28 Highway 20 Spur,Cartersville,GA,30121,US,rri721,1-937-328-1718,Red Roof Inn,,34.206656,-84.7581965,
redroof.com,Red Roof,2450 Old National Parkway,College Park,GA,30349,US,rri1082,1-937-328-4290,Red Roof Inn Plus,,33.6175697,-84.4702172,
redroof.com,Red Roof Inn & Suites Commerce - Athens,30747 Highway 441 South,Commerce,GA,30529,US,rri387,1-937-328-1859,Red Roof Inn,,34.2541837,-83.4608531,
redroof.com,Red Roof Inn Dalton,1529 West Walnut Ave,Dalton,GA,30720,US,rri778,1-937-505-5951,Red Roof Inn,,34.75984130000001,-85.00064479999999,
redroof.com,Red Roof Inn Forsyth,480 Holiday Circle,Forsyth,GA,31029,US,rri859,1-937-328-4251,Red Roof Inn,,33.033444,-83.92247069999999,
redroof.com,Red Roof Inn Helen,8171 South Main Street,Helen,GA,30545,US,rri354,1-937-328-1449,Red Roof Inn,,34.6987766,-83.72292300000001,
redroof.com,Red Roof Inn & Suites Hinesville,70 Wallace Martin Drive,Hinesville,GA,31313,US,rri875,1-937-328-1445,Red Roof Inn,,31.8556314,-81.5761373,
redroof.com,Red Roof Inn Atlanta - Kennesaw,520 Roberts Court Northwest,Kennesaw,GA,30144,US,rri179,1-937-328-1536,Red Roof Inn,,34.009278,-84.5651703,
redroof.com,Red Roof Inn Atlanta - Kennesaw State University,1460 George Busbee Parkway,Kennesaw,GA,30144,US,rri947,1-937-505-5979,Red Roof Inn,,34.0556101,-84.59258679999999,
redroof.com,Red Roof Inn Kingsland,1363 Highway 40 East,Kingsland,GA,31548,US,rri710,1-937-328-1710,Red Roof Inn,,30.7905219,-81.65277909999999,
redroof.com,Red Roof Inn Atlanta East - Lithonia,5400 Fairington Road,Lithonia,GA,30038,US,rri667,1-937-328-1684,Red Roof Inn,,33.7023168,-84.17017919999999,
redroof.com,Red Roof Inn Locust Grove,4840 Bill Gardner Parkway,Locust Grove,GA,30248,US,rri622,1-937-328-1658,Red Roof Inn,,33.3522766,-84.12236229999999,
redroof.com,Red Roof Inn & Suites Macon,2720 Riverside Drive,Macon,GA,31204,US,rri679,1-937-328-1777,Red Roof Inn,,32.8760604,-83.66637639999999,
redroof.com,"Red Roof Inn & Suites Madison, GA",1972 Eatonton Rd,Madison,GA,30650,US,rri935,1-937-327-6533,Red Roof Inn,,33.558841,-83.4746491,
redroof.com,Red Roof Inn & Suites Newnan,590 Bullsboro Drive,Newnan,GA,30265,US,rri474,1-937-328-4232,Red Roof Inn,,33.3973012,-84.7588157,
redroof.com,Red Roof Inn Atlanta - Norcross,5171 Brook Hollow Parkway,Norcross,GA,30071,US,rri166,1-937-328-1527,Red Roof Inn,,33.9300491,-84.17998519999999,
redroof.com,Red Roof Inn & Suites Savannah Airport,20 Mill Creek Circle,Pooler,GA,31322,US,rri583,1-937-328-1643,Red Roof Inn,,32.1383925,-81.242547,
redroof.com,Red Roof Inn & Suites Rome,217 HWY 411 SE,ROME,GA,30161,US,rri606,1-937-328-1613,Red Roof Inn,,34.2229,-85.1465185,
redroof.com,Red Roof Inn & Suites Savannah Gateway,405 Al Henderson Boulevard,Savannah,GA,31419,US,rri541,1-937-328-1628,Red Roof Inn,,32.0039903,-81.274767,
redroof.com,Red Roof Inn Atlanta - Smyrna/ Ballpark,2200 Corporate Plaza,Smyrna,GA,30080,US,rri088,1-937-328-1464,Red Roof Inn,,33.8992575,-84.47792989999999,
redroof.com,Red Roof,1200 Winchester Parkway SE,Smyrna,GA,30080,US,rri832,1-937-328-4285,Red Roof Inn Plus,,33.8453632,-84.48821199999999,
redroof.com,Red Roof Inn & Suites Statesboro - University,316 S. Main Street,Statesboro,GA,30458,US,rri881,1-937-328-4263,Red Roof Inn,,32.441199,-81.7837431,
redroof.com,Red Roof Inn Atlanta Southeast,637 Highway 138 West,Stockbridge,GA,30281,US,rri595,1-937-328-1650,Red Roof Inn,,33.5473762,-84.2759823,
redroof.com,Red Roof Inn Atlanta - Suwanee/ Mall of Georgia,3103 Lawrenceville - Suwanee Road,Suwanee,GA,30024,US,rri784,1-937-328-1762,Red Roof Inn,,34.0326321,-84.0498405,
redroof.com,Red Roof Inn Valdosta - University,2811 North Ashley Street,Valdosta,GA,31602,US,rri985,1-937-328-1702,Red Roof Inn,,30.8687765,-83.2865336,
redroof.com,Red Roof Inn West Point,1870 State Route 18,West Point,GA,31833,US,rri1108,1-614-695-3496,Red Roof Inn,,32.8765311,-85.1496784,
redroof.com,Red Roof Inn Ames,1400 S Dayton Place,Ames,IA,50010,US,rri852,1-937-328-4248,Red Roof Inn,,42.0100765,-93.57992469999999,
redroof.com,Red Roof Inn Cedar Rapids,3243 Southridge Drive Southwest,Cedar Rapids,IA,52404,US,rri717,1-937-328-1715,Red Roof Inn,,41.94615870000001,-91.6723921,
redroof.com,Red Roof Inn & Suites Omaha - Council Bluffs,500 30th Avenue,Council Bluffs,IA,51501,US,rri329,1-937-328-1846,Red Roof Inn,,41.2310314,-95.8473767,
redroof.com,Red Roof Inn Des Moines,5020 NE 14th St,Des Moines,IA,50313,US,rri962,515-265-7511,Red Roof Inn,,41.6517382,-93.60128329999999,
redroof.com,Red Roof Inn Chicago - Alsip,12340 South Cicero Avenue,Alsip,IL,60803,US,rri952,1-937-328-1652,Red Roof Inn,,41.6675816,-87.7396148,
redroof.com,Red Roof Inn Chicago-O'Hare Airport/ Arlington Hts,22 West Algonquin Road,Arlington Heights,IL,60005,US,rri102,1-937-328-1473,Red Roof Inn,,42.04534760000001,-87.9841208,
redroof.com,Red Roof Inn Bloomington - Normal/ University,1905 W Market Street,Bloomington,IL,61701,US,rri750,1-937-328-1746,Red Roof Inn,,40.4849138,-89.0237581,
redroof.com,Red Roof Inn Champaign - University,212 West Anthony Drive,Champaign,IL,61820,US,rri170,1-937-328-1531,Red Roof Inn,,40.1359601,-88.2460857,
redroof.com,The St. Clair Hotel - Magnificent Mile,162 East Ontario Street,Chicago,IL,60611,US,rri281,1-937-328-1609,Red Roof Inn,,41.8936154,-87.62291839999999,
redroof.com,"Red Roof Inn & Suites Danville, IL",389 Lynch Drive,Danville,IL,61834,US,rri336,1-937-328-1817,Red Roof Inn,,40.1211137,-87.5395039,
redroof.com,Red Roof Inn & Suites DeKalb,1212 West Lincoln Highway,DeKalb,IL,60115,US,rri318,1-937-328-1807,Red Roof Inn,,41.9304373,-88.7765264,
redroof.com,Red Roof Inn Chicago - Downers Grove,1113 Butterfield Road,Downers Grove,IL,60515,US,rri087,1-937-328-1463,Red Roof Inn,,41.8333306,-88.0154889,
redroof.com,Red Roof,2500 Hassell Road,Hoffman Estates,IL,60169,US,rri199,1-937-328-1555,Red Roof Inn Plus,,42.0631502,-88.141758,
redroof.com,Red Roof Inn Chicago - Joliet,1750 McDonough Street,Joliet,IL,60436,US,rri071,1-937-328-1451,Red Roof Inn,,41.5142575,-88.123457,
redroof.com,Red Roof Inn Chicago - Lansing,2450 East 173rd Street,Lansing,IL,60438,US,rri078,1-937-328-1455,Red Roof Inn,,41.5808752,-87.56869770000002,
redroof.com,Red Roof Inn & Suites Monee,25640 South Friendship Drive,Monee,IL,60449,US,rri748,1-937-328-1737,Red Roof Inn,,41.4245294,-87.7581508,
redroof.com,Red Roof Inn Morton Grove,9424 Waukegan Road,Morton Grove,IL,60053,US,rri937,1-937-328-4293,Red Roof Inn,,42.0527988,-87.7999634,
redroof.com,Red Roof,1698 West Diehl Road,Naperville,IL,60563,US,rri195,1-937-328-1551,Red Roof Inn Plus,,41.7984516,-88.20384829999999,
redroof.com,Red Roof Inn Chicago - Northbrook/ Deerfield,340 South Waukegan Road,Deerfield,IL,60015,US,rri188,1-937-328-1544,Red Roof Inn,,42.1468985,-87.8335171,
redroof.com,Red Roof Inn Peoria,1822 West War Memorial Drive,Peoria,IL,61614,US,rri057,1-937-328-1439,Red Roof Inn,,40.7364694,-89.6231047,
redroof.com,Red Roof Inn Rockford,7434 East State Street,Rockford,IL,61108,US,rri035,1-937-328-1422,Red Roof Inn,,42.2708216,-88.97149139999999,
redroof.com,"Red Roof Inn Springfield, IL",3200 Singer Ave,Springfield,IL,62703,US,rri040,1-937-328-1425,Red Roof Inn,,39.788064,-89.603005,
redroof.com,State House Inn - a Red Collection Hotel,101 East Adams Street,Springfield,IL,62701,US,rri592,1-937-328-1681,Red Roof Inn,,39.801034,-89.6545055,
redroof.com,"Red Roof Inn St Louis - Troy, IL",2030 Formosa Road,Troy,IL,62294,US,rri565,1-937-328-1635,Red Roof Inn,,38.7346844,-89.9129648,
redroof.com,Red Roof Inn Gurnee - Waukegan,3031 Belvidere Road,Waukegan,IL,60085,US,rri759,1-937-328-1868,Red Roof Inn,,42.34777330000001,-87.8769538,
redroof.com,Red Roof,7535 Kingery Highway/State Route 83,Willowbrook,IL,60527,US,rri167,1-937-328-1528,Red Roof Inn Plus,,41.7515977,-87.9434751,
redroof.com,"Red Roof Inn Anderson, IN",6325 S Scatterfield Road,Anderson,IN,46013,US,rri375,1-937-328-1853,Red Roof Inn,,40.0509911,-85.6540437,
redroof.com,Red Roof Inn Auburn,503 Ley Drive,Auburn,IN,46706,US,rri1000,1-937-328-1878,Red Roof Inn,,41.36450840000001,-85.0817419,
redroof.com,Red Roof Inn Elkhart,2902 Cassopolis Street,Elkhart,IN,46514,US,rri018,1-937-328-1407,Red Roof Inn,,41.7263362,-85.9716013,
redroof.com,Red Roof Inn Fort Wayne,3017 W Coliseum Blvd,Fort Wayne,IN,46808,US,rri339,1-937-328-1845,Red Roof Inn,,41.116798,-85.18397980000002,
redroof.com,Red Roof Inn Georgetown,1079 North Luther Road,Georgetown,IN,47122,US,rri447,1-937-328-4204,Red Roof Inn,,38.2907281,-85.9148415,
redroof.com,Red Roof Inn South Bend - Mishawaka,1325 East University Drive Court,Granger,IN,46530,US,rri629,1-937-328-1660,Red Roof Inn,,41.7194513,-86.16657839999999,
redroof.com,Red Roof Inn Indianapolis - Greenwood,110 Sheek Road,Greenwood,IN,46143,US,rri650,1-937-328-1671,Red Roof Inn,,39.6130235,-86.07669419999999,
redroof.com,Red Roof Inn Indianapolis South,5221 Victory Drive,Indianapolis,IN,46203,US,rri013,1-937-328-1403,Red Roof Inn,,39.7014882,-86.0799851,
redroof.com,Red Roof Inn Indianapolis North - College Park,9520 Valparaiso Court,Indianapolis,IN,46268,US,rri041,1-937-328-1426,Red Roof Inn,,39.9250087,-86.22724769999999,
redroof.com,Red Roof Inn Indianapolis East,7314 East 21st Street,Indianapolis,IN,46219,US,rri602,1-937-327-6504,Red Roof Inn,,39.7970051,-86.0385395,
redroof.com,Red Roof Inn Indianapolis - Castleton,8110 North Shadeland Ave,Indianapolis,IN,46250,US,rri827,1-937-328-4245,Red Roof Inn,,39.9028562,-86.04654719999999,
redroof.com,Red Roof Inn & Suites Indianapolis Airport,2631 South Lynhurst Drive,Indianapolis,IN,46241,US,rri840,1-937-328-4255,Red Roof Inn,,39.7270953,-86.24913839999999,
redroof.com,Red Roof Inn Kentland,205 South 7th Street,Kentland,IN,47951,US,rri737,1-937-328-1740,Red Roof Inn,,40.76548409999999,-87.4377135,
redroof.com,Red Roof Inn Lafayette - Purdue University,4201 South Street,Lafayette,IN,47905,US,rri062,1-937-328-1444,Red Roof Inn,,40.4167328,-86.82779959999999,
redroof.com,Red Roof Inn Marion,1615 North Baldwin Avenue,Marion,IN,46952,US,rri995,937-328-1721,Red Roof Inn,,40.5830905,-85.6645581,
redroof.com,Red Roof Inn Merrillville,8290 Georgia Street,Merrillville,IN,46410,US,rri015,1-937-328-1404,Red Roof Inn,,41.4677059,-87.3251392,
redroof.com,Red Roof Inn Michigan City,110 West Kieffer Road,Michigan City,IN,46360,US,rri007,1-937-328-1397,Red Roof Inn,,41.6670051,-86.8953664,
redroof.com,"Red Roof Inn Richmond, IN",2525 Chester Blvd,Richmond,IN,47374,US,rri938,1-937-328-1622,Red Roof Inn,,39.8702823,-84.88696039999999,
redroof.com,Red Roof Inn Scottsburg,1522 West McClain Avenue,Scottsburg,IN,47170,US,rri481,1-937-327-6570,Red Roof Inn,,38.6864074,-85.79201019999999,
redroof.com,Red Roof Inn Columbus - Taylorsville,10330 N US Hwy 31,Taylorsville,IN,47280,US,rri651,1-937-328-1672,Red Roof Inn,,39.2981515,-85.96016250000001,
redroof.com,Red Roof Inn Vincennes,1800 S Old Decker Road,Vincennes,IN,47591,US,rri398,1-937-328-1785,Red Roof Inn,,38.6506686,-87.5277236,
redroof.com,Red Roof Inn Holton,115 US Highway 75,Holton,KS,66436,US,rri549,1-937-328-1630,Red Roof Inn,,39.4582516,-95.7483536,
redroof.com,Red Roof Inn Wichita - Park City,990 North Connolly Court,Wichita,KS,67219,US,rri466,1-937-328-4212,Red Roof Inn,,37.7985797,-97.32722659999999,
redroof.com,Red Roof,7335 E. Kellogg Dr,Wichita,KS,67207,US,rri588,1-937-328-1614,Red Roof Inn Plus,,37.6782788,-97.250457,
redroof.com,Red Roof Inn & Conference Center Wichita Airport,6815 W. Kellogg Dr,Wichita,KS,67209,US,rri965,1-937-505-5969,Red Roof Inn,,37.6715901,-97.4226537,
redroof.com,Red Roof Inn Bowling Green,3140 Scottsville Road,Bowling Green,KY,42104,US,rri658,1-937-328-1676,Red Roof Inn,,36.9416514,-86.4201033,
redroof.com,Red Roof Inn Cadiz,154 Hospitality Lane,Cadiz,KY,42211,US,rri1100,1-937-328-4297,Red Roof Inn,,36.8792936,-87.73392179999999,
redroof.com,Red Roof Inn Carrollton,10 Slumber Lane,Carrollton,KY,41008,US,rri400,1-937-328-1854,Red Roof Inn,,38.6514905,-85.12435090000001,
redroof.com,Red Roof Inn & Suites Cave City,807 Mammoth Cave St.,Cave City,KY,42127,US,rri825,1-937-328-4238,Red Roof Inn,,37.1365377,-85.9729306,
redroof.com,Red Roof Inn & Suites Corbin,1888 Cumberland Falls Hwy,Corbin,KY,40701,US,rri901,1-937-327-6593,Red Roof Inn,,36.9200454,-84.12743440000001,
redroof.com,Red Roof,210 Brenda Ave,Danville,KY,40422,US,rri368,1-937-328-1829,Red Roof Inn Plus,,37.6163894,-84.767913,
redroof.com,Red Roof Inn Dry Ridge,88 Blackburn Lane,Dry Ridge,KY,41035,US,rri928,1-937-505-5940,Red Roof Inn,,38.6842801,-84.600523,
redroof.com,Red Roof Inn Cincinnati AirportFlorence/ Erlanger,599 Donaldson Highway,Erlanger,KY,41018,US,rri782,1-937-328-1761,Red Roof Inn,,39.0270067,-84.6161018,
redroof.com,"Red Roof Inn Franklin, KY",2805 Scottsville Road,Franklin,KY,42134,US,rri902,1-937-328-4281,Red Roof Inn,,36.7168934,-86.5281916,
redroof.com,Red Roof Inn Lexington,1980 Haggard Court,Lexington,KY,40505,US,rri044,1-937-328-1429,Red Roof Inn,,38.077539,-84.45988539999999,
redroof.com,Red Roof Inn Lexington South,2651 Wilhite Drive,Lexington,KY,40503,US,rri184,1-937-328-1541,Red Roof Inn,,37.997112,-84.5188191,
redroof.com,Red Roof Inn London I-75,110 Melcon Lane,London,KY,40741,US,rri513,1-937-328-1620,Red Roof Inn,,37.1431598,-84.1095701,
redroof.com,Red Roof Inn Louisville East - Hurstbourne,9330 Blairwood Road,Louisville,KY,40222,US,rri034,1-937-328-1421,Red Roof Inn,,38.225822,-85.5826249,
redroof.com,Red Roof Inn Louisville Expo Airport,4704 Preston Highway,Louisville,KY,40213,US,rri118,1-937-328-1488,Red Roof Inn,,38.1789885,-85.71848639999999,
redroof.com,Red Roof Inn Louisville Fair And Expo,3322 Red Roof Inn Place,Louisville,KY,40218,US,rri134,1-937-328-1500,Red Roof Inn,,38.200469,-85.687316,
redroof.com,Red Roof Inn Morehead,175 Toms Drive,Morehead,KY,40351,US,rri369,1-937-328-1398,Red Roof Inn,,38.18769,-83.4788162,
redroof.com,Red Roof Inn Murray,1202 South 12th Street,Murray,KY,42071,US,rri1078,1-937-328-1866,Red Roof Inn,,36.5947322,-88.31554299999999,
redroof.com,Red Roof Inn Paducah,5106 Cairo Road,Paducah,KY,42001,US,rri808,1-937-328-1787,Red Roof Inn,,37.09709530000001,-88.68368970000002,
redroof.com,"Red Roof Inn Richmond, KY",111 Bahama Court,Richmond,KY,40475,US,rri551,1-937-328-1631,Red Roof Inn,,37.7678673,-84.3158259,
redroof.com,Red Roof Inn Shelbyville,101 Howard Drive,Shelbyville,KY,40065,US,rri340,1-937-328-1823,Red Roof Inn,,38.2013711,-85.2650115,
redroof.com,Red Roof Inn Somerset,1201 Highway 27 South,Somerset,KY,42501,US,rri702,1-937-328-1703,Red Roof Inn,,37.0766793,-84.6188906,
redroof.com,Red Roof Inn Lexington - Winchester,1100 Interstate Drive,Winchester,KY,40391,US,rri322,1-937-328-1794,Red Roof Inn,,38.0112074,-84.17112689999999,
redroof.com,"Red Roof Inn Alexandria, LA",546 MacArthur Drive,Alexandria,LA,71301,US,rri972,1-937-328-1809,Red Roof Inn,,31.2978097,-92.4817836,
redroof.com,Red Roof Inn Baton Rouge - LSU Conference Center,2445 South Acadian Thruway,Baton Rouge,LA,70808,US,rri1155,1-937-328-4411,Red Roof Inn,,30.4248774,-91.149322,
redroof.com,Red Roof Inn Baton Rouge,11314 Boardwalk Drive,Baton Rouge,LA,70816,US,rri141,1-937-328-1506,Red Roof Inn,,30.4309972,-91.0586039,
redroof.com,Red Roof Inn & Suites Bossier City,1836 Old Minden Road,Bossier City,LA,71111,US,rri872,1-937-327-6583,Red Roof Inn,,32.51549260000001,-93.7144182,
redroof.com,Red Roof Inn Donaldsonville,2179 LA-70,Donaldsonville,LA,70346,US,rri913,1-937-327-6506,Red Roof Inn,,30.0940147,-90.93828839999999,
redroof.com,Red Roof Inn Hammond,46053 North Puma Drive,Hammond,LA,70401,US,rri1131,1-614-695-3498,Red Roof Inn,,30.5206866,-90.50170759999999,
redroof.com,Red Roof Inn New Orleans - Westbank,3750 Westbank Expressway,Harvey,LA,70058,US,rri1087,1-937-328-4299,Red Roof Inn,,29.8954337,-90.0881654,
redroof.com,Red Roof Inn Houma,1254 Grand Caillou Road,Houma,LA,70363,US,rri1130,1-937-328-4202,Red Roof Inn,,29.5761831,-90.6886845,
redroof.com,Red Roof Inn New Orleans Airport,2830 Loyola  Drive,Kenner,LA,70062,US,rri478,1-937-328-4219,Red Roof Inn,,30.00688999999999,-90.2656353,
redroof.com,"Red Roof Inn Lafayette, LA",1718 North University Avenue,Lafayette,LA,70507,US,rri140,1-937-328-1505,Red Roof Inn,,30.253314,-92.035387,
redroof.com,Red Roof Inn & Suites Lake Charles,269 Highway 397,Lake Charles,LA,70615,US,rri704,1-937-328-1705,Red Roof Inn,,30.23572789999999,-93.12861889999999,
redroof.com,Red Roof Inn Morgan City,7408 Highway 182 East,Morgan City,LA,70380,US,rri350,1-937-328-1443,Red Roof Inn,,29.6930756,-91.1829997,
redroof.com,Red Roof Inn Port Allen - LSU,3051 LA Hwy 1 S,Port Allen,LA,70767,US,rri873,1-937-328-1831,Red Roof Inn,,30.4238042,-91.2171942,
redroof.com,Red Roof Inn Shreveport,7296 Greenwood Road,Shreveport,LA,71119,US,rri904,1-937-327-6591,Red Roof Inn,,32.4488085,-93.9020776,
redroof.com,Red Roof Inn Slidell,1662 Gause Boulevard,Slidell,LA,70458,US,rri285,1-937-328-1760,Red Roof Inn,,30.2862365,-89.7518935,
redroof.com,Red Roof Inn Sulphur,2619 Ruth Street,Sulphur,LA,70665,US,rri455,1-937-328-4231,Red Roof Inn,,30.2138972,-93.3753855,
redroof.com,Red Roof Inn West Monroe,102 Constitution Drive,West Monroe,LA,71292,US,rri158,1-937-328-1521,Red Roof Inn,,32.5034203,-92.1582627,
redroof.com,Red Roof,650 Cochituate Road,Framingham,MA,01701,US,rri068,1-937-328-1448,Red Roof Inn Plus,,42.30866229999999,-71.3859484,
redroof.com,Red Roof Inn Boston - Mansfield/ Foxboro,60 Forbes Boulevard,Mansfield,MA,02048,US,rri274,1-937-328-1608,Red Roof Inn,,42.0340837,-71.2367016,
redroof.com,Red Roof,920 Broadway,Saugus,MA,01906,US,rri305,1-937-328-1612,Red Roof Inn Plus,,42.4686577,-71.0245652,
redroof.com,Red Roof,9 Greenfield Road,South Deerfield,MA,01373,US,rri289,1-937-328-1610,Red Roof Inn Plus,,42.472739,-72.615607,
redroof.com,Red Roof Inn Boston - Southborough/ Worcester,367 Turnpike Road,Southborough,MA,01772,US,rri075,1-937-328-1453,Red Roof Inn,,42.290188,-71.5603915,
redroof.com,Red Roof,1254 Riverdale Street,West Springfield,MA,01089,US,rri193,1-937-328-1549,Red Roof Inn Plus,,42.1383058,-72.6274774,
redroof.com,Red Roof,19 Commerce Way,Woburn,MA,01801,US,rri238,1-937-328-1583,Red Roof Inn Plus,,42.5066819,-71.130369,
redroof.com,Red Roof Inn Aberdeen,988 Hospitality Way,Aberdeen,MD,21001,US,rri136,1-937-328-1502,Red Roof Inn,,39.5246312,-76.18590569999999,
redroof.com,Red Roof Inn Annapolis,2520C Riva Road,Annapolis,MD,21401,US,rri615,1-937-328-1741,Red Roof Inn,,38.9811801,-76.5477528,
redroof.com,Red Roof Inn Baltimore Northwest,5810 Reisterstown Rd,Baltimore,MD,21215,US,rri391,1-937-328-1797,Red Roof Inn,,39.3502878,-76.69543139999999,
redroof.com,"Red Roof Inn & Suites California, MD - NAVAIR",23428 Three Notch Road,California,MD,20619,US,rri372,1-937-328-1836,Red Roof Inn,,38.3118738,-76.5327248,
redroof.com,Red Roof Inn Washington DC - College Park,9137 Baltimore Avenue,College Park,MD,20740,US,rri454,1-937-328-4211,Red Roof Inn,,39.0053659,-76.9296237,
redroof.com,Red Roof Inn Edgewood,2116 Emmorton Park Road,Edgewood,MD,21040,US,rri385,1-937-328-1470,Red Roof Inn,,39.4531094,-76.3091958,
redroof.com,Red Roof,7306 Parkway Drive South,Hanover,MD,21076,US,rri107,1-937-328-1477,Red Roof Inn Plus,,39.171267,-76.736458,
redroof.com,Red Roof Inn Washington DC - Columbia/ Fort Meade,8000 Washington Boulevard,Jessup,MD,20794,US,rri187,1-937-328-1543,Red Roof Inn,,39.1685526,-76.7890572,
redroof.com,Red Roof Inn Washington DC - Lanham,9050 Lanham Severn Road,Lanham,MD,20706,US,rri132,1-937-328-1498,Red Roof Inn,,38.9648334,-76.8595289,
redroof.com,Red Roof Inn Washington DC - Laurel,12525 Laurel Bowie Road,Laurel,MD,20708,US,rri160,1-937-328-1522,Red Roof Inn,,39.0630549,-76.83745449999999,
redroof.com,Red Roof,827 Elkridge Landing Road,Linthicum Heights,MD,21090,US,rri149,1-937-328-1513,Red Roof Inn Plus,,39.1969888,-76.6860718,
redroof.com,Red Roof,111 West Timonium Road,Lutherville-Timonium,MD,21093,US,rri209,1-937-328-1565,Red Roof Inn Plus,,39.438158,-76.632009,
redroof.com,Red Roof,6170 Oxon Hill Road,Oxon Hill,MD,20745,US,rri181,1-937-328-1538,Red Roof Inn Plus,,38.8031363,-76.9799226,
redroof.com,Red Roof,16001 Shady Grove Road,Rockville,MD,20850,US,rri263,1-937-328-1603,Red Roof Inn Plus,,39.1190274,-77.18154179999999,
redroof.com,"Red Roof Inn Hagerstown - Williamsport, MD",310 East Potomac Street,Williamsport,MD,21795,US,rri570,1-937-328-1638,Red Roof Inn,,39.6026247,-77.8086278,
redroof.com,Red Roof,3621 Plymouth Road,Ann Arbor,MI,48105,US,rri045,1-937-328-1430,Red Roof Inn Plus,,42.3069755,-83.6903099,
redroof.com,Red Roof Inn Ann Arbor - U of Michigan South,3505 South State Street,Ann Arbor,MI,48108,US,rri693,1-937-328-1699,Red Roof Inn,,42.2389717,-83.73659839999999,
redroof.com,Red Roof Inn & Suites Battle Creek,5050 Beckley Rd,Battle Creek,MI,49015,US,rri335,1-937-328-1821,Red Roof Inn,,42.2600631,-85.1967715,
redroof.com,Red Roof Inn Detroit Metro Airport - Belleville,45501 North I-94 Service Drive,Belleville,MI,48111,US,rri183,1-937-328-1540,Red Roof Inn,,42.221654,-83.486655,
redroof.com,Red Roof Inn Benton Harbor - St Joseph,1630 Mall Drive,Benton Harbor,MI,49022,US,rri043,1-937-328-1428,Red Roof Inn,,42.07883169999999,-86.419017,
redroof.com,Red Roof Inn Coldwater,348 South Willowbrook Road,Coldwater,MI,49036,US,rri597,1-937-328-1651,Red Roof Inn,,41.9335754,-84.9717982,
redroof.com,Red Roof Inn Detroit - Dearborn/Greenfield Village,24130 Michigan Avenue,Dearborn,MI,48124,US,rri182,1-937-328-1539,Red Roof Inn,,42.3001556,-83.2738895,
redroof.com,Red Roof Inn Detroit - Farmington Hills,24300 Sinacola Court Northeast,Farmington,MI,48335,US,rri038,1-937-328-1424,Red Roof Inn,,42.4695769,-83.41971210000001,
redroof.com,Red Roof Inn Flint - Bishop Airport,G-3219 Miller Road,Flint,MI,48507,US,rri004,1-937-328-1413,Red Roof Inn,,42.9881502,-83.7389903,
redroof.com,Red Roof Inn Grand Rapids Airport,5131 28th Street SE,Grand Rapids,MI,49512,US,rri011,1-937-328-1401,Red Roof Inn,,42.9142478,-85.54100299999999,
redroof.com,Red Roof Inn Kalamazoo East  Expo Center,3701 East Cork Street,Kalamazoo,MI,49001,US,rri003,1-937-328-1739,Red Roof Inn,,42.2628997,-85.53378300000001,
redroof.com,Red Roof Inn Kalamazoo West - Western Michigan U,5425 West Michigan Avenue,Kalamazoo,MI,49009,US,rri025,1-937-328-1414,Red Roof Inn,,42.2699746,-85.65666019999999,
redroof.com,Red Roof Inn & Suites Lake Orion/ Auburn Hills,2755 S Lapeer Rd,Lake Orion,MI,48360,US,rri337,1-937-328-1756,Red Roof Inn,,42.74155289999999,-83.2448295,
redroof.com,Red Roof Inn Lansing West - MSU,7412 West Saginaw Highway,Lansing,MI,48917,US,rri020,1-937-328-1409,Red Roof Inn,,42.7426759,-84.66009079999999,
redroof.com,Red Roof Inn Lansing East - Michigan State U,3615 Dunckel Road,Lansing,MI,48910,US,rri029,1-937-328-1417,Red Roof Inn,,42.6898241,-84.4997274,
redroof.com,Red Roof Inn Detroit - Royal Oak/ Madison Heights,32511 Concord Drive,Madison Heights,MI,48071,US,rri084,1-937-328-1460,Red Roof Inn,,42.5311177,-83.1123832,
redroof.com,Red Roof Inn & Suites Detroit-Melvindale/ Dearborn,17600 Dix Road,Melvindale,MI,48122,US,rri439,1-937-327-6594,Red Roof Inn,,42.2817741,-83.17047339999999,
redroof.com,Red Roof Inn Detroit - Plymouth/ Canton,39700 Ann Arbor Road,Plymouth,MI,48170,US,rri016,1-937-328-1405,Red Roof Inn,,42.360785,-83.432744,
redroof.com,Red Roof Inn Detroit-Rochester Hills/ Auburn Hills,2580 Crooks Road,Rochester,MI,48309,US,rri191,1-937-328-1547,Red Roof Inn,,42.6419361,-83.1723426,
redroof.com,Red Roof Inn Detroit - St Clair Shores,31800 Little Mack Road,Roseville,MI,48066,US,rri012,1-937-328-1402,Red Roof Inn,,42.530097,-82.90855200000001,
redroof.com,Red Roof Inn Saginaw - Frankenmuth,966 S Outer Dr,Saginaw,MI,48601,US,rri960,1-937-328-1487,Red Roof Inn,,43.4176576,-83.8942495,
redroof.com,Red Roof Inn Detroit - Southfield,27660 Northwestern Highway,Southfield,MI,48034,US,rri133,1-937-328-1499,Red Roof Inn,,42.494261,-83.28885319999999,
redroof.com,Red Roof Inn Detroit Metro Airport  Taylor,21230 Eureka Road,Taylor,MI,48180,US,rri189,1-937-328-1545,Red Roof Inn,,42.1998729,-83.24269199999999,
redroof.com,Red Roof Inn Detroit - Troy,2350 Rochester Court,Troy,MI,48083,US,rri021,1-937-328-1410,Red Roof Inn,,42.555944,-83.129758,
redroof.com,Red Roof Inn Detroit - Warren,26300 Dequindre Road,Warren,MI,48091,US,rri070,1-937-328-1450,Red Roof Inn,,42.4864926,-83.08415049999999,
redroof.com,Red Roof Inn Minneapolis - Plymouth,2600 Annapolis Lane North,Minneapolis,MN,55441,US,rri202,1-763-553-1751,Red Roof Inn,,45.0080918,-93.4541076,
redroof.com,Red Roof Inn Bridgeton,3470 Hollenberg Drive,Bridgeton,MO,63044,US,rri1017,1-937-328-4264,Red Roof Inn,,38.75880799999999,-90.437974,
redroof.com,Red Roof Inn Cameron,501 Northland Drive,Cameron,MO,64429,US,rri296,1-937-328-1624,Red Roof Inn,,39.7511733,-94.2327885,
redroof.com,"Red Roof Inn Columbia, MO",201 East Texas Avenue,Columbia,MO,65202,US,rri116,1-937-328-1486,Red Roof Inn,,38.9705093,-92.33518269999999,
redroof.com,Red Roof Inn St Louis - Florissant,307 Dunn Road,Florissant,MO,63031,US,rri024,1-937-328-4275,Red Roof Inn,,38.776477,-90.33196199999999,
redroof.com,Red Roof Inn Maryville,2817 S. Main Street,Maryville,MO,64468,US,rri445,1-937-328-1849,Red Roof Inn,,40.3189061,-94.8733766,
redroof.com,Red Roof Inn Osage Beach - Lake of the Ozarks,5927 Osage Beach Parkway,Osage Beach,MO,65065,US,rri406,1-937-328-1848,Red Roof Inn,,38.1151233,-92.68561299999999,
redroof.com,Red Roof Inn St Louis - St Charles,2010 Zumbehl Road,Saint Charles,MO,63303,US,rri143,1-937-328-1508,Red Roof Inn,,38.7844608,-90.53150149999999,
redroof.com,Red Roof Inn St Louis - Westport,11837 Lackland Road,Saint Louis,MO,63146,US,rri126,1-937-328-1492,Red Roof Inn,,38.6992945,-90.431787,
redroof.com,Red Roof,5823 Wilson Avenue,Saint Louis,MO,63110,US,rri135,1-937-328-1501,Red Roof Inn Plus,,38.617764,-90.2850675,
redroof.com,Red Roof Inn St Robert - Ft Leonard Wood,129 Saint Robert Boulevard,Saint Robert,MO,65584,US,rri566,1-937-328-1636,Red Roof Inn,,37.8257165,-92.1459405,
redroof.com,"Red Roof Inn Springfield, MO",3125 North Kentwood Avenue,Springfield,MO,65803,US,rri976,1-937-328-1808,Red Roof Inn,,37.2538512,-93.26649599999999,
redroof.com,Red Roof Inn & Suites Biloxi,14201 Cook Road,Biloxi,MS,39532,US,rri867,1-937-327-6548,Red Roof Inn,,30.4570997,-88.84569119999999,
redroof.com,Red Roof Inn & Suites Jackson - Brandon,280 Old Highway 80,Brandon,MS,39042,US,rri787,1-937-328-1758,Red Roof Inn,,32.2785955,-89.99843249999999,
redroof.com,"Red Roof Inn Columbus, MS",510 Highway 45 North,Columbus,MS,39701,US,rri996,1-937-328-1757,Red Roof Inn,,33.5007525,-88.4284586,
redroof.com,Red Roof Inn Gulfport - Biloxi Airport,9435 Highway 49,Gulfport,MS,39503,US,rri986,1-937-505-5946,Red Roof Inn,,30.42462269999999,-89.093965,
redroof.com,Red Roof Inn Hattiesburg,6508 US HWY 49,Hattiesburg,MS,39401,US,rri301,1-937-328-1772,Red Roof Inn,,31.3497285,-89.33599869999999,
redroof.com,Red Roof Inn Jackson Downtown - Fairgrounds,700 Larson Street,Jackson,MS,39202,US,rri131,1-937-328-1497,Red Roof Inn,,32.3043964,-90.1671661,
redroof.com,Red Roof Inn Meridian,2219 S. Frontage Rd,Meridian,MS,39301,US,rri891,1-937-327-6524,Red Roof Inn,,32.350883,-88.694053,
redroof.com,Red Roof Inn Moss Point,6824 Highway 613,Moss Point,MS,39563,US,rri1101,999-999-9999,Red Roof Inn,,30.441298,-88.54221919999999,
redroof.com,Red Roof Inn Jackson North - Ridgeland,810 Adcock St,Ridgeland,MS,39157,US,rri128,1-937-328-1494,Red Roof Inn,,32.402179,-90.1433191,
redroof.com,Red Roof Inn Starkville - University,410 MLK Jr. Drive,Starkville,MS,39759,US,rri436,1-937-328-4220,Red Roof Inn,,33.4656236,-88.808177,
redroof.com,Red Roof Inn Tupelo,1516 McCullough Blvd,Tupelo,MS,38804,US,rri431,1-937-505-5925,Red Roof Inn,,34.2762097,-88.7187955,
redroof.com,Red Roof Inn Asheville West,16 Crowell Road,Asheville,NC,28806,US,rri146,1-937-328-1511,Red Roof Inn,,35.5608255,-82.6380583,
redroof.com,Red Roof Inn Burlington,2444 Maple Avenue,Burlington,NC,27215,US,rri834,1-937-328-4237,Red Roof Inn,,36.0647036,-79.4284552,
redroof.com,Red Roof Inn Raleigh Southwest - Cary,1800 Walnut Street,Cary,NC,27518,US,rri247,1-937-328-1590,Red Roof Inn,,35.7601836,-78.7442968,
redroof.com,Red Roof Inn Charlotte  University,5111 Equipment Drive,Charlotte,NC,28269,US,rri728,1-937-328-1724,Red Roof Inn,,35.279551,-80.795373,
redroof.com,Red Roof Inn Durham - Triangle Park,4405 Highway 55 East,Durham,NC,27713,US,rri155,1-937-328-1518,Red Roof Inn,,35.9109619,-78.89225189999999,
redroof.com,Red Roof Inn Durham - Duke Univ Medical Center,1915 North Pointe Drive,Durham,NC,27705,US,rri164,1-937-328-1525,Red Roof Inn,,36.0299858,-78.92354379999999,
redroof.com,Red Roof Inn Chapel Hill - UNC,5623 Durham-Chapel Hill Boulevard,Durham,NC,27707,US,rri201,1-937-328-1557,Red Roof Inn,,35.9493961,-79.0002463,
redroof.com,Red Roof Inn Fayetteville I-95,1902 Cedar Creek Road,Fayetteville,NC,28312,US,rri341,1-937-328-1839,Red Roof Inn,,35.0084471,-78.82786759999999,
redroof.com,Red Roof Inn & Suites Fayetteville - Fort Bragg,3136 Bordeaux Park Drive,Fayetteville,NC,28306,US,rri452,1-937-328-4222,Red Roof Inn,,35.0236201,-78.92488879999999,
redroof.com,Red Roof Inn Greensboro Coliseum,2101 West Meadowview Road,Greensboro,NC,27403,US,rri099,1-937-328-1471,Red Roof Inn,,36.044444,-79.83661099999999,
redroof.com,Red Roof Inn Greensboro Airport,615 Regional Road South,Greensboro,NC,27409,US,rri156,1-937-328-1519,Red Roof Inn,,36.1132323,-79.9540277,
redroof.com,Red Roof,200 Simmons St,Henderson,NC,27536,US,rri343,1-937-328-1825,Red Roof Inn Plus,,36.3336447,-78.4399322,
redroof.com,Red Roof Inn Hendersonville,240 Mitchelle Drive,Hendersonville,NC,28792,US,rri620,1-937-328-1657,Red Roof Inn,,35.3374655,-82.4392637,
redroof.com,Red Roof Inn Hickory,1184 Lenoir Rhyne Boulevard,Hickory,NC,28602,US,rri152,1-937-328-1516,Red Roof Inn,,35.715376,-81.3154,
redroof.com,Red Roof Inn High Point - University,1202 Liberty Road,High Point,NC,27263,US,rri275,336-861-3000,Red Roof Inn,,35.9223548,-79.9392506,
redroof.com,"Red Roof Inn & Suites Jacksonville, NC",1723 Lejeune Blvd,Jacksonville,NC,28546,US,rri494,1-937-505-5916,Red Roof Inn,,34.7438093,-77.3804869,
redroof.com,Red Roof Inn Kenly,1139 Johnston Parkway,Kenly,NC,27542,US,rri869,1-937-328-4262,Red Roof Inn,,35.5821342,-78.1430874,
redroof.com,"Red Roof Inn Lexington, NC",1631 Cotton Grove Rd,Lexington,NC,27292,US,rri963,1-937-328-1811,Red Roof Inn,,35.7788979,-80.26031480000002,
redroof.com,Red Roof Inn Lumberton,3530 Capuano Street,Lumberton,NC,28358,US,rri485,1-937-328-4227,Red Roof Inn,,34.6438004,-79.0134075,
redroof.com,Red Roof Inn Raleigh - Crabtree Valley,3921 Arrow Dr,Raleigh,NC,27612,US,rri1090,937-328-1880,Red Roof Inn,,35.8357809,-78.6743971,
redroof.com,Red Roof,1813 South Saunders Street,Raleigh,NC,27603,US,rri256,1-937-328-1597,Red Roof Inn Plus,,35.7549304,-78.64797829999999,
redroof.com,Red Roof Inn Roanoke Rapids,1911 Julian R Allsbrook Hwy,Roanoke Rapids,NC,27870,US,rri634,1-937-328-1751,Red Roof Inn,,36.4301837,-77.6325366,
redroof.com,Red Roof,1508 East Broad Street,Statesville,NC,28625,US,rri113,1-937-328-1483,Red Roof Inn Plus,,35.7891942,-80.8612596,
redroof.com,"Red Roof Inn Wilmington, NC",5107 Market Street,Wilmington,NC,28405,US,rri653,1-937-328-1674,Red Roof Inn,,34.24516880000001,-77.8808583,
redroof.com,Red Roof Inn & Suites Wilson,5016 Hayes Place,Wilson,NC,27896,US,rri1096,1-937-328-4298,Red Roof Inn,,35.765369,-78.0058476,
redroof.com,Red Roof Inn & Suites Dickinson,165 26th Street West,Dickinson,ND,58601,US,rri319,1-937-328-1805,Red Roof Inn,,46.9099866,-102.7871794,
redroof.com,Red Roof Inn Fargo  I-94/ Medical Center,1921 44TH Street Southwest,Fargo,ND,58103,US,rri781,1-937-505-5968,Red Roof Inn,,46.8502399,-96.8602178,
redroof.com,Red Roof Inn & Suites Lincoln,3939 N. 26th Street,Lincoln,NE,68521,US,rri347,1-937-328-1819,Red Roof Inn,,40.85111500000001,-96.68419089999999,
redroof.com,Red Roof Inn Salem,15 Red Roof Lane,Salem,NH,03079,US,rri151,1-937-328-1515,Red Roof Inn,,42.779332,-71.241038,
redroof.com,Red Roof Inn & Suites Philadelphia - Bellmawr,217 South Black Horse Pike,Bellmawr,NJ,08031,US,rri332,1-937-328-1810,Red Roof Inn,,39.8643586,-75.0781339,
redroof.com,Red Roof Inn Bordentown,1073 US 206,Bordentown,NJ,08505,US,rri1118,1-937-327-6551,Red Roof Inn,,40.1293756,-74.7041682,
redroof.com,Red Roof Inn Edison,860 New Durham Road,Edison,NJ,08817,US,rri194,1-937-328-1550,Red Roof Inn,,40.5424573,-74.39343,
redroof.com,Red Roof Inn Freehold,4089 Route 9,Freehold,NJ,07728,US,rri969,1-937-328-1830,Red Roof Inn,,40.2657553,-74.2931665,
redroof.com,Red Roof Inn Princeton - Ewing,3203 Brunswick Pike,Trenton,NJ,08648,US,rri111,1-937-328-1481,Red Roof Inn,,40.2889774,-74.6903947,
redroof.com,Red Roof Inn Mt Laurel,603 Fellowship Road,Mount Laurel,NJ,08054,US,rri066,1-937-328-1447,Red Roof Inn,,39.9302585,-74.96214719999999,
redroof.com,Red Roof Inn Neptune,3310 NJ-33,Neptune,NJ,07753,US,rri415,1-937-505-5975,Red Roof Inn,,40.2078743,-74.069721,
redroof.com,Red Roof Inn Parsippany,855 US Highway 46,Parsippany,NJ,07054,US,rri072,1-937-328-1452,Red Roof Inn,,40.8612638,-74.377945,
redroof.com,Red Roof Inn Wildwood  Cape May/ Rio Grande,1801 Route 47 South,Rio Grande,NJ,08242,US,rri477,1-937-328-4257,Red Roof Inn,,39.0098987,-74.86894219999999,
redroof.com,Red Roof,15 Meadowlands Parkway,Secaucus,NJ,07094,US,rri150,1-937-328-1514,Red Roof Inn Plus,,40.798912,-74.0662713,
redroof.com,Red Roof Inn Tinton Falls - Jersey Shore,11 Centre Plaza,Eatontown,NJ,07724,US,rri211,1-937-328-1567,Red Roof Inn,,40.2838657,-74.0810942,
redroof.com,Red Roof Inn & Suites Mt Holly - McGuire AFB,2015 Burlington Mt. Holly Rd.,Mount Holly,NJ,08060,US,rri306,1-937-328-1604,Red Roof Inn,,40.026933,-74.8195549,
redroof.com,Red Roof Inn Albuquerque - Midtown,2015 Menaul Boulevard NE,Albuquerque,NM,87107,US,rri298,1-937-328-1589,Red Roof Inn,,35.1101796,-106.6230056,
redroof.com,Red Roof Inn Gallup,3304 West Highway 66,Gallup,NM,87301,US,rri530,1-937-328-1626,Red Roof Inn,,35.5067568,-108.8267714,
redroof.com,Red Roof Inn Las Vegas,4350 Paradise Road,Las Vegas,NV,89169,US,rri797,1-937-328-1766,Red Roof Inn,,36.1101706,-115.1514434,
redroof.com,Red Roof Inn Albany Airport,188 Wolf Road,Albany,NY,12205,US,rri112,1-937-328-1482,Red Roof Inn,,42.7238069,-73.801791,
redroof.com,Red Roof,42 Flint Road,Buffalo,NY,14226,US,rri104,1-937-328-1475,Red Roof Inn Plus,,42.9898105,-78.7931677,
redroof.com,Red Roof Inn Batavia,8204 Park Road,Batavia,NY,14020,US,rri796,1-937-328-1765,Red Roof Inn,,43.01708199999999,-78.19377530000001,
redroof.com,Red Roof Inn Binghamton North,650 Old Front Street,Binghamton,NY,13905,US,rri416,1-937-328-1852,Red Roof Inn,,42.1244303,-75.90916899999999,
redroof.com,Red Roof Inn Buffalo - Niagara Airport,146 Maple Drive,Bowmansville,NY,14026,US,rri137,1-937-328-1503,Red Roof Inn,,42.9486336,-78.6943781,
redroof.com,Red Roof Inn Clifton Park,41 Old Route 146,Clifton Park,NY,12065,US,rri360,1-937-328-1850,Red Roof Inn,,42.8663665,-73.7742157,
redroof.com,Red Roof Inn Cortland,2B River Street,Cortland,NY,13045,US,rri865,1-937-327-6543,Red Roof Inn,,42.6072235,-76.1652981,
redroof.com,Red Roof Inn Fulton,930 South 1st Street,Fulton,NY,13069,US,rri476,1-937-328-4225,Red Roof Inn,,43.3070752,-76.3980016,
redroof.com,Red Roof Inn Buffalo - Hamburg/ I-90,5370 Camp Road,Hamburg,NY,14075,US,rri055,1-937-328-1437,Red Roof Inn,,42.7407265,-78.84803,
redroof.com,Red Roof Inn Rochester - Henrietta,4820 West Henrietta Road,Henrietta,NY,14467,US,rri042,1-937-328-1427,Red Roof Inn,,43.0575809,-77.65177709999999,
redroof.com,Red Roof Inn & Suites Herkimer,100 Marginal Rd,Herkimer,NY,13350,US,rri338,1-937-328-1840,Red Roof Inn,,43.0188202,-74.99133069999999,
redroof.com,Red Roof Inn Binghamton - Johnson City,590 Fairview Street,Johnson City,NY,13790,US,rri203,1-937-328-1559,Red Roof Inn,,42.127631,-75.96981099999999,
redroof.com,Red Roof,42 Finney Boulevard,Malone,NY,12953,US,rri805,1-937-328-1804,Red Roof Inn Plus,,44.8476474,-74.3002339,
redroof.com,Lord & Moris - Times Square Hotel,305 West 39th Street,New York,NY,10018,US,rri1145,1-937-328-1783,Red Roof Inn,,40.7557146,-73.9915655,
redroof.com,Red Roof,2349 South Rd,Poughkeepsie,NY,12601,US,rri394,1-937-328-1855,Red Roof Inn Plus,,41.6493036,-73.928037,
redroof.com,Red Roof Inn Glens Falls - Lake George,931 US Route 9,Queensbury,NY,12804,US,rri670,1-937-328-1685,Red Roof Inn,,43.3376811,-73.6802012,
redroof.com,Red Roof Inn Rochester,155 Buell Road,Rochester,NY,14624,US,rri1110,1-937-328-4408,Red Roof Inn,,43.1368863,-77.6669897,
redroof.com,Red Roof Inn Syracuse,6614 North Thompson Road,Syracuse,NY,13206,US,rri157,1-937-328-1520,Red Roof Inn,,43.0915354,-76.0923296,
redroof.com,Red Roof Inn Utica,20 Weaver Street,Utica,NY,13502,US,rri180,1-937-328-1537,Red Roof Inn,,43.11378149999999,-75.21695679999999,
redroof.com,Red Roof,699 Dibblee Drive,Westbury,NY,11590,US,rri266,1-937-328-1606,Red Roof Inn Plus,,40.7382663,-73.6023239,
redroof.com,Red Roof Inn Akron,2939 South Arlington Road,Akron,OH,44312,US,rri207,1-937-328-1563,Red Roof Inn,,40.99131089999999,-81.4901539,
redroof.com,Red Roof Inn Ashtabula - Austinburg,1860 Austinburg Rd,Austinburg,OH,44010,US,rri1080,1-937-328-4410,Red Roof Inn,,41.7898332,-80.8524438,
redroof.com,Red Roof Inn Cincinnati Northeast - Blue Ash,5900 Pfeiffer Road,Cincinnati,OH,45242,US,rri103,1-937-328-1474,Red Roof Inn,,39.250439,-84.367847,
redroof.com,Red Roof Inn Canton,5353 Inn Circle Court Northwest,Canton,OH,44720,US,rri019,1-937-328-1408,Red Roof Inn,,40.8590192,-81.4341219,
redroof.com,Red Roof Inn Cincinnati East - Beechmont,4035 Mount Carmel Tobasco Road,Cincinnati,OH,45255,US,rri080,1-937-328-1457,Red Roof Inn,,39.0714837,-84.30255849999999,
redroof.com,Red Roof Inn & Suites Cincinnati North - Mason,8870 Governor's Hill Drive,Cincinnati,OH,45249,US,rri770,1-937-328-1433,Red Roof Inn,,39.2908046,-84.31686770000002,
redroof.com,Red Roof Inn Cleveland Airport-Middleburg Heights,17555 Bagley Road,Cleveland,OH,44130,US,rri060,1-937-328-1442,Red Roof Inn,,41.3710001,-81.82272180000001,
redroof.com,Red Roof Inn Clyde,1363 West McPherson Highway,Clyde,OH,43410,US,rri578,1-937-328-1640,Red Roof Inn,,41.316759,-83.00530599999999,
redroof.com,REDROOF CORPORATE ACCOUNTS RECEIVABLE,605 SOUTH FRONT STREET,COLUMBUS,OH,43215,US,redcorp,614.744.2697,Red Roof Inn,,39.94909639999999,-83.0002974,
redroof.com,Red Roof Inn Columbus West - Hilliard,5001 Renner Road,Columbus,OH,43228,US,rri009,1-937-328-1399,Red Roof Inn,,39.9798806,-83.151918,
redroof.com,Red Roof,441 Ackerman Road,Columbus,OH,43202,US,rri121,1-937-328-1491,Red Roof Inn Plus,,40.0176293,-83.0244938,
redroof.com,Red Roof,111 East Nationwide Boulevard,Columbus,OH,43215,US,rri262,1-937-328-1602,Red Roof Inn Plus,,39.9683463,-82.9984084,
redroof.com,Red Roof,7480 North High Street,Columbus,OH,43235,US,rri310,1-937-328-4246,Red Roof Inn Plus,,40.1163404,-83.0154501,
redroof.com,Red Roof Inn Columbus - Ohio State Fairgrounds,1221 East Dublin Granville Road,Columbus,OH,43229,US,rri720,1-937-328-1717,Red Roof Inn,,40.0863299,-82.9844128,
redroof.com,Red Roof Inn & Suites Columbus - West Broad,4530 West Broad Street,Columbus,OH,43228,US,rri735,1-937-328-1729,Red Roof Inn,,39.9529409,-83.12246830000001,
redroof.com,Red Roof Inn Dayton North Airport,7370 Miller Lane,Dayton,OH,45414,US,rri023,1-937-328-1412,Red Roof Inn,,39.854265,-84.191266,
redroof.com,Red Roof Inn Dayton - Huber Heights,7911 Brandt Pike,Dayton,OH,45424,US,rri490,1-937-327-6585,Red Roof Inn,,39.8668782,-84.1022264,
redroof.com,Red Roof,5125 Post Road,Dublin,OH,43017,US,rri127,1-937-328-1493,Red Roof Inn Plus,,40.100107,-83.128296,
redroof.com,Red Roof Inn & Suites Cleveland - Elyria,621 Midway Boulevard,Elyria,OH,44035,US,rri659,1-937-328-1677,Red Roof Inn,,41.3989838,-82.1184007,
redroof.com,Red Roof Inn Dayton - Fairborn/ Nutter Center,2580 Colonel Glenn Highway,Fairborn,OH,45324,US,rri205,1-937-328-1561,Red Roof Inn,,39.778699,-84.052086,
redroof.com,Red Roof Inn & Suites Middletown - Franklin,3510 Commerce Drive,Franklin,OH,45005,US,rri800,1-937-328-1773,Red Roof Inn,,39.4950263,-84.320735,
redroof.com,Red Roof Inn Columbus - Grove City,4055 Jackpot Road,Grove City,OH,43123,US,rri660,1-937-328-1678,Red Roof Inn,,39.88000520000001,-83.047297,
redroof.com,Red Roof Inn Columbus - Hebron,10668 Lancaster Road Southwest,Hebron,OH,43025,US,rri587,1-937-328-1647,Red Roof Inn,,39.9392593,-82.5366348,
redroof.com,Red Roof Inn Toledo - Holland,1214 Corporate Drive,Holland,OH,43528,US,rri058,1-937-328-1440,Red Roof Inn,,41.618234,-83.690562,
redroof.com,Red Roof Inn Cleveland - Independence,6020 Quarry Lane,Independence,OH,44131,US,rri028,1-937-328-1416,Red Roof Inn,,41.3947247,-81.6498459,
redroof.com,"Red Roof Inn Jackson, OH",1000 Acy Avenue,Jackson,OH,45640,US,rri635,1-937-328-1663,Red Roof Inn,,39.0370614,-82.60406239999999,
redroof.com,Red Roof Inn Marietta,702 Pike St,Marietta,OH,45750,US,rri809,1-937-328-1822,Red Roof Inn,,39.40735950000001,-81.42115919999999,
redroof.com,Red Roof Inn Toledo - Maumee,1570 Reynolds Road,Maumee,OH,43537,US,rri046,1-937-328-1431,Red Roof Inn,,41.5883041,-83.6636005,
redroof.com,Red Roof Inn Cleveland - Medina,5021 Eastpointe Drive,Medina,OH,44256,US,rri656,1-937-328-1675,Red Roof Inn,,41.1380017,-81.7963408,
redroof.com,Red Roof Inn Dayton South  Miamisburg,222 Byers Road,Miamisburg,OH,45342,US,rri006,1-937-328-1396,Red Roof Inn,,39.637707,-84.2334422,
redroof.com,Red Roof Inn Sandusky - Milan,11303 US Route 250 North,Milan,OH,44846,US,rri643,1-937-328-1667,Red Roof Inn,,41.3304492,-82.6235397,
redroof.com,Red Roof Inn Perrysburg,3555 Hanley Road,Perrysburg,OH,43551,US,rri1084,419-714-7160,Red Roof Inn,,41.5292142,-83.4644177,
redroof.com,Red Roof Inn & Suites Piqua  I-75,902 Scott Drive,Piqua,OH,45356,US,rri457,1-937-328-1617,Red Roof Inn,,40.1520028,-84.2221522,
redroof.com,Red Roof Inn Boardman,1051 Tiffany South,Poland,OH,44514,US,rri253,1-937-328-1595,Red Roof Inn,,41.0193286,-80.6310006,
redroof.com,Red Roof Inn Columbus East - Reynoldsburg,2449 Brice Road,Reynoldsburg,OH,43068,US,rri033,1-937-328-1420,Red Roof Inn,,39.9355423,-82.8318549,
redroof.com,Red Roof Inn St Clairsville - Wheeling West,68301 Red Roof Lane,Saint Clairsville,OH,43950,US,rri101,1-937-328-1472,Red Roof Inn,,40.074818,-80.86774199999999,
redroof.com,Red Roof Inn Cincinnati - Sharonville,2301 Sharon Road,Cincinnati,OH,45241,US,rri171,1-937-328-1532,Red Roof Inn,,39.269065,-84.4368037,
redroof.com,"Red Roof Inn Springfield, OH",155 West Leffel Lane,Springfield,OH,45506,US,rri607,1-937-328-1655,Red Roof Inn,,39.8943762,-83.8153751,
redroof.com,Red Roof Inn Toledo - University,3530 Executive Parkway,Toledo,OH,43606,US,rri196,1-937-328-1552,Red Roof Inn,,41.681905,-83.6254482,
redroof.com,Red Roof Inn Uhrichsville,111 McCauley Drive,Uhrichsville,OH,44683,US,rri491,1-937-328-4228,Red Roof Inn,,40.41135999999999,-81.35150019999999,
redroof.com,Red Roof Inn & Suites Wapakoneta,1659 Bellefontaine Street,Wapakoneta,OH,45895,US,rri822,1-937-328-1876,Red Roof Inn,,40.5589862,-84.16820129999999,
redroof.com,Red Roof Inn Columbus Northeast - Westerville,909 South State Street,Westerville,OH,43081,US,rri769,1-937-505-5920,Red Roof Inn,,40.1035521,-82.925575,
redroof.com,Red Roof Inn Cleveland - Westlake,29595 Clemens Road,Westlake,OH,44145,US,rri094,1-937-328-1468,Red Roof Inn,,41.47003309999999,-81.9491915,
redroof.com,Red Roof Inn Portsmouth - Wheelersburg,8340 Ohio River Road,Wheelersburg,OH,45694,US,rri943,1-937-328-1644,Red Roof Inn,,38.7241355,-82.85914059999999,
redroof.com,Red Roof Inn Cleveland - Mentor/ Willoughby,4166 State Route 306,Willoughby,OH,44094,US,rri053,1-937-328-1435,Red Roof Inn,,41.6386288,-81.373927,
redroof.com,Red Roof Inn Ardmore,2432 Veterans Blvd,Ardmore,OK,73401,US,rri433,1-937-327-6592,Red Roof Inn,,34.2012012,-97.15893539999999,
redroof.com,Red Roof Inn Oklahoma City Airport,309 South Meridian Avenue,Oklahoma City,OK,73108,US,rri503,1-937-328-1616,Red Roof Inn,,35.4633092,-97.60166609999999,
redroof.com,Red Roof Inn & Suites Oklahoma City Southwest,7800 C A Henderson Boulevard,Oklahoma City,OK,73139,US,rri882,1-937-328-1509,Red Roof Inn,,35.3889063,-97.5324062,
redroof.com,Red Roof Inn Tulsa,4717 South Yale Avenue,Tulsa,OK,74135,US,rri648,1-937-328-1670,Red Roof Inn,,36.0942961,-95.9213766,
redroof.com,Red Roof Inn Tulsa  Airport,35 N Sheridan Rd,Tulsa,OK,74115,US,rri861,1-937-327-6590,Red Roof Inn,,36.1621475,-95.90306439999999,
redroof.com,Red Roof Inn & Suites Medford - Airport,2111 Biddle Rd,Medford,OR,97504,US,rri1162,1-614-695-3481,Red Roof Inn,,42.3485129,-122.8745791,
redroof.com,Red Roof Inn Kamata,7-24-7 Nishi-Kamata,Tokyo,OTA-KU,1440051,JP,rri931,81 3-6428-7490,Red Roof Inn,,35.5635702,139.7122202,
redroof.com,Red Roof Inn Allentown Airport,1846 Catasauqua Road,Allentown,PA,18109,US,rri110,1-937-328-1480,Red Roof Inn,,40.6393466,-75.4320588,
redroof.com,Red Roof Inn Allentown South,2650 Moravian Avenue,Allentown,PA,18103,US,rri845,1-937-327-6584,Red Roof Inn,,40.5656111,-75.4850845,
redroof.com,Red Roof Inn Carlisle,1450 Harrisburg Pike,Carlisle,PA,17015,US,rri754,1-937-505-5970,Red Roof Inn,,40.23231029999999,-77.1254156,
redroof.com,Red Roof Inn Chambersburg,1110 Sheller Avenue,Chambersburg,PA,17201,US,rri333,1-937-328-1554,Red Roof Inn,,39.91188289999999,-77.6498987,
redroof.com,Red Roof Inn Clearfield,14451 Clearfield-Shawville Highway,Clearfield,PA,16830,US,rri467,1-937-328-1790,Red Roof Inn,,41.0364313,-78.400975,
redroof.com,Red Roof Inn Pittsburgh North - Cranberry Township,20009 US Route 19 & Marguerite Road,Cranberry Township,PA,16066,US,rri079,1-937-328-1456,Red Roof Inn,,40.6749236,-80.1013287,
redroof.com,"Red Roof Inn Danville, PA",31 Red Roof Road,Danville,PA,17821,US,rri010,1-937-328-1400,Red Roof Inn,,40.99410049999999,-76.6381068,
redroof.com,Red Roof Inn Denver,2017 North Reading Road,Denver,PA,17517,US,rri753,1-937-328-1744,Red Roof Inn,,40.2204403,-76.0977525,
redroof.com,Red Roof Inn Erie - I-90,7865 Perry Highway,Erie,PA,16509,US,rri054,1-937-328-1436,Red Roof Inn,,42.071451,-80.0388595,
redroof.com,Red Roof,49 Industrial Highway,Essington,PA,19029,US,rri119,1-937-328-1489,Red Roof Inn Plus,,39.8681695,-75.3060503,
redroof.com,Red Roof Inn Philadelphia - Trevose,3100 Lincoln Highway/US 1,Feasterville-Trevose,PA,19053,US,rri185,1-937-328-1542,Red Roof Inn,,40.1301493,-74.96961759999999,
redroof.com,Red Roof Inn Greensburg,111 Sheraton Drive,Greensburg,PA,15601,US,rri1104,1-937-328-1782,Red Roof Inn,,40.3044891,-79.51068529999999,
redroof.com,Red Roof Inn Harrisburg - Hershey,950 Eisenhower Boulevard,Harrisburg,PA,17111,US,rri027,1-937-328-1415,Red Roof Inn,,40.2398217,-76.8042377,
redroof.com,Red Roof Inn Harrisburg North,400 Corporate Circle,Harrisburg,PA,17110,US,rri037,1-937-328-1423,Red Roof Inn,,40.3062764,-76.8489196,
redroof.com,Red Roof Inn & Suites Hazleton,1341 North Church Street,Hazleton,PA,18202,US,rri929,1-937-327-6580,Red Roof Inn,,40.9841146,-75.9798795,
redroof.com,Red Roof Inn & Suites Hermitage,2700 Wilson Road,Hermitage,PA,16148,US,rri739,1-937-328-1731,Red Roof Inn,,41.1892584,-80.4568579,
redroof.com,Red Roof Inn Hershey,1806 East Chocolate Ave,Hershey,PA,17033,US,rri401,1-937-327-6588,Red Roof Inn,,40.3003484,-76.6107184,
redroof.com,Red Roof Inn Lancaster - Strasburg,2390 Lincoln Highway,Lancaster,PA,17602,US,rri413,1-937-327-6522,Red Roof Inn,,40.0238192,-76.2037758,
redroof.com,Red Roof Inn Lancaster,2307 Lincoln Highway East,Lancaster,PA,17602,US,rri662,1-937-328-1679,Red Roof Inn,,40.0269063,-76.211744,
redroof.com,Red Roof Inn Philadelphia - Oxford Valley,3100 Cabot Boulevard West,Langhorne,PA,19047,US,rri165,1-937-328-1526,Red Roof Inn,,40.1912812,-74.8665666,
redroof.com,Red Roof,2729 Mosside Boulevard,Monroeville,PA,15146,US,rri174,1-937-328-1534,Red Roof Inn Plus,,40.435229,-79.75757399999999,
redroof.com,Red Roof,6404 Steubenville Pike,Pittsburgh,PA,15205,US,rri030,1-937-328-1418,Red Roof Inn Plus,,40.4495601,-80.15722769999999,
redroof.com,"Red Roof Inn Washington, PA",1399 West Chestnut Street,Washington,PA,15301,US,rri048,1-937-328-1432,Red Roof Inn,,40.1648927,-80.2744902,
redroof.com,Red Roof Inn Wilkes-Barre Arena,1035 Highway 315,Wilkes-Barre,PA,18702,US,rri139,1-937-328-1504,Red Roof Inn,,41.2517704,-75.8282316,
redroof.com,"Red Roof Inn Williamsport, PA",234 Montgomery Pike US Highway 15,Williamsport,PA,17702,US,rri472,1-937-328-1709,Red Roof Inn,,41.2273723,-76.9835812,
redroof.com,Red Roof Inn York Downtown,132 North George Street,York,PA,17401,US,rri687,1-937-328-4284,Red Roof Inn,,39.9645117,-76.72952620000001,
redroof.com,Red Roof Inn Dutra Aeroporto,Senador Nereu Ramos 238,Sao Joao de Meriti,RJ,25555440,BR,rri974,55 21-3512-1946,Red Roof Inn,,-22.7919153,-43.3670988,
redroof.com,Red Roof Inn Natal,AV. Engenheiro Roberto Freire 4220,Natal,RN,59090-000,BR,rri914,55 84-3311-3111,Red Roof Inn,,-5.8744084,-35.179357,
redroof.com,"Red Roof Inn & Suites Anderson, SC",3025 N Main Street,Anderson,SC,29621,US,rri933,1-937-505-5932,Red Roof Inn,,34.5357794,-82.66756099999999,
redroof.com,Red Roof Inn Bishopville,1135 Sumter Highway,Bishopville,SC,29010,US,rri971,1-937-328-1704,Red Roof Inn,,34.1961372,-80.2775601,
redroof.com,"Red Roof Inn Columbia West, SC",10 Berryhill Road,Columbia,SC,29210,US,rri085,1-937-328-1461,Red Roof Inn,,34.0433415,-81.1183878,
redroof.com,Red Roof Inn Columbia East - Ft Jackson,7431 Nates Road,Columbia,SC,29223,US,rri090,1-937-328-1465,Red Roof Inn,,34.075872,-80.94302069999999,
redroof.com,"Red Roof Inn Columbia, SC Airport",2204 Airport Blvd,West Columbia,SC,29170,US,rri623,1-937-327-4241,Red Roof Inn,,33.9554625,-81.0955967,
redroof.com,"Red Roof Inn Dillon, SC",810 Radford Boulevard,Dillon,SC,29536,US,rri795,1-937-328-1793,Red Roof Inn,,34.4395151,-79.369875,
redroof.com,Red Roof Inn Florence - Civic Center,2690 David McLeod Boulevard,Florence,SC,29501,US,rri178,1-937-328-1535,Red Roof Inn,,34.18834,-79.835375,
redroof.com,Red Roof Inn Gaffney,132 New Painter Drive,Gaffney,SC,29341,US,rri546,1-937-328-1629,Red Roof Inn,,35.0819115,-81.70271939999999,
redroof.com,Red Roof Inn Greenville,91 Vision Court,Greenville,SC,29607,US,rri095,1-937-328-1469,Red Roof Inn,,34.8135733,-82.33314709999999,
redroof.com,"Red Roof Inn & Suites Greenwood, SC",919 Montague Ave,Greenwood,SC,29649,US,rri469,1-937-328-4247,Red Roof Inn,,34.20901550000001,-82.17699789999999,
redroof.com,Red Roof Inn Hardeeville,1122 Hummingbird Lane,Hardeeville,SC,29927,US,rri715,1-937-328-1713,Red Roof Inn,,32.2758711,-81.08221739999999,
redroof.com,Red Roof Inn Hilton Head Island,5 Regency Parkway,Hilton Head Island,SC,29928,US,rri148,1-937-328-1512,Red Roof Inn,,32.1742503,-80.7345471,
redroof.com,Red Roof,301 Johnnie Dodds Boulevard,Mount Pleasant,SC,29464,US,rri242,1-937-328-1585,Red Roof Inn Plus,,32.80241030000001,-79.8927247,
redroof.com,Red Roof Inn Myrtle Beach Hotel - Market Common,2801 South Kings Highway,Myrtle Beach,SC,29577,US,rri232,1-937-328-1581,Red Roof Inn,,33.6649469,-78.91737619999999,
redroof.com,Red Roof Inn North Charleston Coliseum,7480 Northwoods Boulevard,Charleston,SC,29406,US,rri142,1-937-328-1507,Red Roof Inn,,32.9372249,-80.0450004,
redroof.com,Red Roof Inn Rock Hill,1037 Riverview Road,Rock Hill,SC,29732,US,rri816,1-937-328-1834,Red Roof Inn,,34.9729291,-80.99017219999999,
redroof.com,Red Roof Inn Santee,9091 Old Number Six Highway,Santee,SC,29142,US,rri382,1-937-328-1856,Red Roof Inn,,33.4835053,-80.4658084,
redroof.com,Red Roof Inn & Suites Spartanburg - I-85,105 Jones Road,Spartanburg,SC,29303,US,rri309,1-937-505-5959,Red Roof Inn,,35.0160152,-81.8970739,
redroof.com,Red Roof Inn Spartanburg,6765 Pottery Road,Spartanburg,SC,29303,US,rri405,1-937-328-1874,Red Roof Inn,,34.98982600000001,-82.02304579999999,
redroof.com,Red Roof Inn Sumter,1211 Camden Highway,Sumter,SC,29153,US,rri860,1-937-505-5983,Red Roof Inn,,33.9561543,-80.37928320000002,
redroof.com,Red Roof Inn Walterboro,1288 Snider Highway,Walterboro,SC,29488,US,rri370,1-937-328-1842,Red Roof Inn,,32.8810839,-80.7125624,
redroof.com,Red Roof Inn Yemassee,138 Frampton Drive,Yemassee,SC,29945,US,rri429,1-937-328-4203,Red Roof Inn,,32.6342088,-80.87673439999999,
redroof.com,Red Roof Inn Sioux Falls,3500 Gateway Boulevard,Sioux Falls,SD,57106,US,rri647,1-937-328-1669,Red Roof Inn,,43.5132741,-96.7821513,
redroof.com,Red Roof Inn Vermillion - U of South Dakota,1208 E. Cherry Street,Vermillion,SD,57069,US,rri492,1-937-328-1870,Red Roof Inn,,42.7871936,-96.91349249999999,
redroof.com,Red Roof Inn Jundiai,Rua Professora Maria De Lourdes Franca Da Silveira,Jundiai,SP,13214-410,BR,rri1012,55 11-2448-3900,Red Roof Inn,,-23.1673561,-46.9133102,
redroof.com,Red Roof Inn Caryville,276 John McGhee Blvd,Caryville,TN,37714,US,rri888,1-937-327-6595,Red Roof Inn,,36.2935742,-84.2137994,
redroof.com,Red Roof Inn Chattanooga Airport,7014 Shallowford Road,Chattanooga,TN,37421,US,rri162,1-937-328-1524,Red Roof Inn,,35.043117,-85.15929799999999,
redroof.com,Red Roof Inn Chattanooga - Lookout Mountain,30 Birmingham Hwy,Chattanooga,TN,37419,US,rri422,1-937-328-1860,Red Roof Inn,,35.0167265,-85.3823476,
redroof.com,Red Roof,2431 Williams St,Chattanooga,TN,37408,US,rri806,1-937-328-1784,Red Roof Inn Plus,,35.0282938,-85.3143891,
redroof.com,Red Roof Inn Clarksville,197 Holiday Drive,Clarksville,TN,37040,US,rri529,1-937-328-1625,Red Roof Inn,,36.5969584,-87.2824653,
redroof.com,"Red Roof Inn & Suites Cleveland, TN",156 James Asbury Drive NW,Cleveland,TN,37312,US,rri844,1-937-328-4254,Red Roof Inn,,35.2119316,-84.8698635,
redroof.com,Red Roof Inn & Suites Clinton,141 Buffalo Road,Clinton,TN,37716,US,rri713,1-937-328-1712,Red Roof Inn,,36.16399760000001,-84.08210079999999,
redroof.com,"Red Roof Inn Columbia, TN",1548 Bear Creek Pike,Columbia,TN,38401,US,rri1135,1-614-695-3497,Red Roof Inn,,35.6424897,-86.8984211,
redroof.com,Red Roof Inn Cookeville - Tennessee Tech,1292 South Walnut  Avenue,Cookeville,TN,38501,US,rri751,1-937-328-1742,Red Roof Inn,,36.1371964,-85.5044705,
redroof.com,Red Roof Inn Crossville,105 Executive Drive,Crossville,TN,38555,US,rri803,1-937-328-1774,Red Roof Inn,,35.9987038,-85.0431969,
redroof.com,Red Roof Inn Dandridge,531 Patriot Drive,Dandridge,TN,37725,US,rri1076,1-937-328-4283,Red Roof Inn,,36.0379671,-83.4463889,
redroof.com,"Red Roof Inn Etowah  Athens, TN",600 North Tennessee Avenue,Etowah,TN,37331,US,rri722,1-937-328-1719,Red Roof Inn,,35.3382905,-84.5208262,
redroof.com,Red Roof,110 Northgate Drive,Goodlettsville,TN,37072,US,rri115,1-937-328-1485,Red Roof Inn Plus,,36.323448,-86.702834,
redroof.com,"Red Roof Inn & Suites Jackson, TN",2262 North Highland Avenue,Jackson,TN,38305,US,rri353,1-937-328-1864,Red Roof Inn,,35.6657891,-88.827426,
redroof.com,Red Roof Inn Johnson City,210 Broyles Drive,Johnson City,TN,37601,US,rri208,1-937-328-1564,Red Roof Inn,,36.34355610000001,-82.3717597,
redroof.com,Red Roof Inn Kingsport,100 Indian Center Court,Kingsport,TN,37660,US,rri725,1-937-328-1722,Red Roof Inn,,36.5464206,-82.51152259999999,
redroof.com,Red Roof,208 Market Pl Blvd,Knoxville,TN,37922,US,rri168,1-937-328-1529,Red Roof Inn Plus,,35.9160635,-84.0928809,
redroof.com,Red Roof Inn Knoxville North - Merchants Drive,5334 Central Ave Pike,Knoxville,TN,37912,US,rri367,1-937-328-1833,Red Roof Inn,,36.0126873,-83.9712191,
redroof.com,Red Roof Inn Knoxville Central -Papermill Road,1315 Kirby Road,Knoxville,TN,37909,US,rri743,1-937-328-1735,Red Roof Inn,,35.9460176,-84.0002382,
redroof.com,Red Roof Inn & Suites Knoxville East,7525 Crosswood Boulevard,Knoxville,TN,37924,US,rri747,1-937-328-1736,Red Roof Inn,,36.0041594,-83.7781249,
redroof.com,"Red Roof Inn & Suites Manchester, TN",126 Expressway Drive,Manchester,TN,37355,US,rri425,1-937-328-1877,Red Roof Inn,,35.4610729,-86.05463329999999,
redroof.com,Red Roof Inn Memphis East,6055 Shelby Oaks Drive,Memphis,TN,38134,US,rri056,1-937-328-1438,Red Roof Inn,,35.1674276,-89.8623465,
redroof.com,Red Roof Inn Memphis - Airport,3265 Elvis Presley Blvd,Memphis,TN,38116,US,rri308,937-328-1727,Red Roof Inn,,35.05949100000001,-90.0245116,
redroof.com,Red Roof Inn Monteagle,742 Dixie Lee Avenue,Monteagle,TN,37356,US,rri1158,1-614-695-3649,Red Roof Inn,,35.2284309,-85.8252254,
redroof.com,Red Roof Inn Murfreesboro,2282 Armory Drive,Murfreesboro,TN,37129,US,rri535,1-937-328-1627,Red Roof Inn,,35.8497666,-86.434507,
redroof.com,Red Roof,4271 Sidco Drive,Nashville,TN,37204,US,rri161,1-937-328-1523,Red Roof Inn Plus,,36.0861384,-86.7624212,
redroof.com,Red Roof,510 Claridge Drive,Nashville,TN,37214,US,rri206,1-937-328-1562,Red Roof Inn Plus,,36.1452357,-86.6686242,
redroof.com,Red Roof Inn Nashville - Music City,2407 Brick Church Pike,Nashville,TN,37207,US,rri777,1-937-328-1869,Red Roof Inn,,36.2104794,-86.77702359999999,
redroof.com,Red Roof Inn & Suites Pigeon Forge - Parkway,2826 Parkway,Pigeon Forge,TN,37863,US,rri804,1-937-328-1780,Red Roof Inn,,35.7988662,-83.5703161,
redroof.com,Red Roof Inn & Suites Dallas  Addison,4103 Belt Line Rd,Addison,TX,75001,US,rri378,1-937-328-1654,Red Roof Inn,,32.9551911,-96.8432239,
redroof.com,Red Roof Inn Amarillo West,6800 I-40 West,Amarillo,TX,79106,US,rri351,1-937-328-1615,Red Roof Inn,,35.1920287,-101.7632004,
redroof.com,Red Roof Inn Arlington - Entertainment District,820 N. Watson Road,Arlington,TX,76011,US,rri820,1-937-327-6528,Red Roof Inn,,32.7554929,-97.06106199999999,
redroof.com,Red Roof Inn Austin North,8210 North Interstate 35,Austin,TX,78753,US,rri210,1-937-328-1566,Red Roof Inn,,30.3454841,-97.6976758,
redroof.com,Red Roof,4701 South I-35,Austin,TX,78744,US,rri258,1-937-328-1599,Red Roof Inn Plus,,30.4896118,-97.6769575,
redroof.com,Red Roof Inn & Suites Beaumont,2310 I-10 South,Beaumont,TX,77707,US,rri691,1-937-328-1697,Red Roof Inn,,30.0542788,-94.14233829999999,
redroof.com,"Red Roof Inn Buffalo, TX",2736 West Commerce Street,Buffalo,TX,75831,US,rri608,1-937-328-1812,Red Roof Inn,,31.4470185,-96.0781976,
redroof.com,Red Roof Inn Channelview,16939 East Freeway,Channelview,TX,77530,US,rri290,1-937-328-4287,Red Roof Inn,,29.7887166,-95.09713789999999,
redroof.com,Red Roof Inn Childress,1801 Ave F NW,Childress,TX,79201,US,rri489,1-937-328-4234,Red Roof Inn,,34.4329608,-100.2242074,
redroof.com,Red Roof Inn Corpus Christi South,6805 South Padre Island Drive,Corpus Christi,TX,78412,US,rri519,1-937-328-1621,Red Roof Inn,,27.6958598,-97.3489129,
redroof.com,Red Roof Inn & Suites Corpus Christi,3030 Buffalo Street,Corpus Christi,TX,78408,US,rri674,1-937-328-1688,Red Roof Inn,,27.7994039,-97.4245736,
redroof.com,Red Roof Inn Corsicana,2023 Regal Dr,Corsicana,TX,75109,US,rri613,1-937-328-1843,Red Roof Inn,,32.0998106,-96.4385966,
redroof.com,Red Roof Inn Dallas - Richardson,13685 North Central Expressway,Dallas,TX,75243,US,rri673,1-937-328-1687,Red Roof Inn,,32.9352073,-96.75395759999999,
redroof.com,Red Roof Inn & Suites Denton,3116 Bandera Street,Denton,TX,76207,US,rri1094,1-937-328-4296,Red Roof Inn,,33.23153430000001,-97.17607799999999,
redroof.com,Red Roof Inn Dumas,1525 S Dumas Ave.,Dumas,TX,79429,US,rri432,1-937-328-4229,Red Roof Inn,,35.8486627,-101.9729252,
redroof.com,Red Roof Inn El Paso East,11400 Chito Samaniego Drive,El Paso,TX,79936,US,rri221,1-937-328-1571,Red Roof Inn,,31.7314539,-106.3132233,
redroof.com,Red Roof Inn El Paso West,7530 Remcon Circle,El Paso,TX,79912,US,rri245,1-937-328-1588,Red Roof Inn,,31.8360526,-106.5676606,
redroof.com,Red Roof,200 Pace Alsbury Court,Burleson,TX,76028,US,rri950,1-937-328-1763,Red Roof Inn Plus,,32.5660972,-97.3165126,
redroof.com,Red Roof Inn Houston North - FM1960 & I-45,17111 North Freeway,Houston,TX,77090,US,rri1109,1-937-505-5965,Red Roof Inn,,30.0153947,-95.4297546,
redroof.com,Red Roof,15701 Park Ten Place,Houston,TX,77084,US,rri222,1-937-328-1572,Red Roof Inn Plus,,29.7861127,-95.657339,
redroof.com,Red Roof Inn Houston - Westchase,2960 West Sam Houston Parkway South,Houston,TX,77042,US,rri229,1-937-328-1579,Red Roof Inn,,29.7322966,-95.5588156,
redroof.com,Red Roof Inn Houston - Brookhollow,12929 Northwest Freeway,Houston,TX,77040,US,rri231,1-937-328-1580,Red Roof Inn,,29.8439846,-95.4990433,
redroof.com,Red Roof Inn Houston - IAH Airport/JFK BLVD,15675 John F Kennedy Boulevard,Houston,TX,77032,US,rri758,1-937-505-5996,Red Roof Inn,,29.9448817,-95.33251349999999,
redroof.com,Red Roof Inn Houston - I-10 East,11999 East Freeway,Houston,TX,77029,US,rri811,1-937-328-1776,Red Roof Inn,,29.7723982,-95.2253403,
redroof.com,Red Roof Inn Houston - Willowbrook,19319 Tomball Parkway,Houston,TX,77070,US,rri911,346-314-4797,Red Roof Inn,,29.97563329999999,-95.5656181,
redroof.com,Red Roof Inn & Suites Houston - Hobby Airport,9902 Gulf Freeway,Houston,TX,77034,US,rri975,1-937-328-1788,Red Roof Inn,,29.6500258,-95.2517749,
redroof.com,Red Roof,502 North Sam Houston Pkwy E,Houston,TX,77060,US,rri999,1-937-328-4243,Red Roof Inn Plus,,29.9374274,-95.3918692,
redroof.com,Red Roof Inn & Suites Houston - Humble/IAH Airport,9821 FM 1960 RD. W.,Humble,TX,77338,US,rri909,1-937-505-9547,Red Roof Inn,,30.0021834,-95.2737904,
redroof.com,Red Roof,606 Interstate 45 S,Huntsville,TX,77340,US,rri403,1-937-328-4239,Red Roof Inn Plus,,30.6954523,-95.5524173,
redroof.com,Red Roof Inn Dallas - DFW Airport North,8150 Esters Boulevard,Irving,TX,75063,US,rri129,1-937-328-1495,Red Roof Inn,,32.9184282,-97.0069797,
redroof.com,Red Roof Inn Laredo,1006 West Calton Road,Laredo,TX,78041,US,rri224,1-937-328-1574,Red Roof Inn,,27.5449027,-99.5061299,
redroof.com,Red Roof Inn Laredo  I-83 South,2010 Lomas Del Sur,Laredo,TX,78046,US,rri682,1-937-328-1692,Red Roof Inn,,27.4639023,-99.4755751,
redroof.com,Red Roof Inn & Conference Center Lubbock,6624 Interstate 27,Lubbock,TX,79404,US,rri707,1-937-328-1707,Red Roof Inn,,33.5323763,-101.8459618,
redroof.com,Red Roof Inn & Suites Austin East - Manor,11301 US 290 East,Manor,TX,78653,US,rri1134,1-614-695-3501,Red Roof Inn,,30.3482326,-97.5539641,
redroof.com,Red Roof Inn McAllen Airport,1301 S. 9th Street,McAllen,TX,78501,US,rri898,1-937-505-5987,Red Roof Inn,,26.1913435,-98.2300564,
redroof.com,Red Roof Inn Dallas - Mesquite,3447 Interstate 30,Mesquite,TX,75150,US,rri609,1-937-328-1733,Red Roof Inn,,32.8125873,-96.65124259999999,
redroof.com,Red Roof Inn New Braunfels,815 I-35 South,New Braunfels,TX,78130,US,rri644,1-937-328-1668,Red Roof Inn,,29.6861338,-98.12106469999999,
redroof.com,Red Roof Inn Pharr - McAllen,4401 North Cage Boulevard,Pharr,TX,78577,US,rri371,1-937-328-1683,Red Roof Inn,,26.2325437,-98.1793144,
redroof.com,Red Roof Inn Plano,1820 North Central Expressway,Plano,TX,75074,US,rri1016,1-937-328-1865,Red Roof Inn,,33.0254284,-96.7085556,
redroof.com,Red Roof Inn Port  Aransas,300 West Avenue G,Port Aransas,TX,78373,US,rri480,1-937-328-1732,Red Roof Inn,,27.8299343,-97.06817869999999,
redroof.com,Red Roof Inn Austin - Round Rock,1990 North I-35,Round Rock,TX,78681,US,rri302,1-937-328-1611,Red Roof Inn,,30.5279179,-97.69139919999999,
redroof.com,Red Roof Inn & Suites San Angelo,4205 South Bryant Boulevard,San Angelo,TX,76903,US,rri1077,1-937-328-4295,Red Roof Inn,,31.4165231,-100.4408414,
redroof.com,Red Roof Inn San Antonio - Airport,333 Wolfe Road,San Antonio,TX,78216,US,rri223,1-937-328-1573,Red Roof Inn,,29.5294481,-98.4864331,
redroof.com,Red Roof Inn San Antonio - Seaworld/ Northwest,6880 Northwest Loop 410,San Antonio,TX,78238,US,rri240,1-937-328-1584,Red Roof Inn,,29.4588995,-98.62358359999999,
redroof.com,Red Roof,1011 East Houston Street,San Antonio,TX,78205,US,rri248,1-937-328-1591,Red Roof Inn Plus,,29.4261968,-98.4809025,
redroof.com,Red Roof Inn & Suites San Antonio  Fiesta Park,13279 W Interstate10,San Antonio,TX,78249,US,rri883,1-937-327-6578,Red Roof Inn,,29.4248184,-98.50119839999999,
redroof.com,Red Roof Inn San Antonio  I-35 North,11591 I-35,San Antonio,TX,78233,US,rri948,1-937-328-1716,Red Roof Inn,,29.5460646,-98.37029899999999,
redroof.com,Red Roof Inn San Antonio Northeast - Rittiman Rd,4621 Rittiman Rd,San Antonio,TX,78218,US,rri949,1-937-328-1634,Red Roof Inn,,29.4844953,-98.40116169999999,
redroof.com,Red Roof Inn San Marcos,817 I-35 North,San Marcos,TX,78666,US,rri632,1-937-328-1662,Red Roof Inn,,29.8792643,-97.9271547,
redroof.com,Red Roof Inn Houston - Spring North,20543 Interstate 45,Spring,TX,77388,US,rri1014,1-937-328-4404,Red Roof Inn,,30.0646723,-95.4353209,
redroof.com,Red Roof Inn Temple,400 SW H K Dodgen Loop,Temple,TX,76504,US,rri619,1-254-773-1515,Red Roof Inn,,31.0725413,-97.3590411,
redroof.com,Red Roof Inn Van Horn,200 Golf Course Drive,Van Horn,TX,79855,US,rri334,1-937-328-1814,Red Roof Inn,,31.03672539999999,-104.8567469,
redroof.com,Red Roof Inn Waco,720 South Martin Luther King Jr. Blvd.,Waco,TX,76704,US,rri798,1-937-328-1771,Red Roof Inn,,31.5611308,-97.11833580000001,
redroof.com,Red Roof Inn Wichita Falls,1032 Central Freeway,Wichita Falls,TX,76306,US,rri742,1-937-328-1734,Red Roof Inn,,33.9333881,-98.51812389999999,
redroof.com,Red Roof Inn Conroe North - Willis,12323 Interstate 45 N,Willis,TX,77318,US,rri968,1-937-505-5984,Red Roof Inn,,30.4174953,-95.491996,
redroof.com,Red Roof Inn Abingdon,887 Empire Drive,Abingdon,VA,24210,US,rri939,1-937-505-5942,Red Roof Inn,,36.7151942,-81.9365596,
redroof.com,Red Roof,5975 Richmond Highway,Alexandria,VA,22303,US,rri169,1-937-328-1530,Red Roof Inn Plus,,38.7878744,-77.0657555,
redroof.com,Red Roof Inn Ashland,103 North Carter Road,Ashland,VA,23005,US,rri984,1-937-328-4265,Red Roof Inn,,37.7612865,-77.4610407,
redroof.com,Red Roof Inn Bristol,2139 Lee Highway,Bristol,VA,24201,US,rri983,1-937-328-1750,Red Roof Inn,,36.6252508,-82.1569576,
redroof.com,Red Roof Inn Charlottesville,2011 Holiday Drive,Charlottesville,VA,22901,US,rri389,1-937-328-1714,Red Roof Inn,,38.057786,-78.49255339999999,
redroof.com,Red Roof Inn Chesapeake Conference Center,724 Woodlake Drive,Chesapeake,VA,23320,US,rri154,1-937-328-1517,Red Roof Inn,,36.791375,-76.2343132,
redroof.com,Red Roof Inn Culpeper,889 Willis Lane,Culpeper,VA,22701,US,rri330,1-937-328-1837,Red Roof Inn,,38.454107,-78.021074,
redroof.com,Red Roof Inn Dumfries  Quantico,17113 Dumfries Rd,Dumfries,VA,22025,US,rri836,1-937-327-6540,Red Roof Inn,,38.58239,-77.3231543,
redroof.com,Red Roof Inn Emporia,1207 W Atlantic Street,Emporia,VA,23847,US,rri417,1-937-328-4210,Red Roof Inn,,36.7038057,-77.5554487,
redroof.com,Red Roof Inn Fredericksburg South,5324 Jefferson Davis Highway,Fredericksburg,VA,22408,US,rri890,1-937-328-4260,Red Roof Inn,,38.2448347,-77.4979793,
redroof.com,Red Roof Inn Fredericksburg North,386 Warrenton Road,Fredericksburg,VA,22405,US,rri951,1-937-505-5917,Red Roof Inn,,38.3394529,-77.4883459,
redroof.com,Red Roof Inn Hampton Coliseum & Convention Center,1925 Coliseum Drive,Hampton,VA,23666,US,rri108,1-937-328-1478,Red Roof Inn,,37.0397232,-76.38819079999999,
redroof.com,Red Roof Inn Hillsville,2666 Old Galax Pike,Hillsville,VA,24343,US,rri464,1-937-328-1646,Red Roof Inn,,36.7469009,-80.7706718,
redroof.com,Red Roof Inn Leesburg,721 East Market Street,Leesburg,VA,20176,US,rri637,1-937-328-1711,Red Roof Inn,,39.1055663,-77.54774599999999,
redroof.com,Red Roof,10610 Automotive Drive,Manassas,VA,20109,US,rri192,1-937-328-1548,Red Roof Inn Plus,,38.7999873,-77.5154068,
redroof.com,"Red Roof Inn Marion, VA",1424 N Main Street,Marion,VA,24354,US,rri1098,1-937-328-4289,Red Roof Inn,,36.8456264,-81.49307019999999,
redroof.com,"Red Roof Inn Portsmouth, VA",925 London Boulevard,Portsmouth,VA,23704,US,rri1143,1-614-695-3515,Red Roof Inn,,36.83637909999999,-76.30976869999999,
redroof.com,Red Roof Inn Richmond South,4350 Commerce Road,Richmond,VA,23234,US,rri086,1-937-328-1462,Red Roof Inn,,37.4650348,-77.4269834,
redroof.com,Red Roof Inn & Suites Stafford,153 Garrisonville Road,Stafford,VA,22554,US,rri395,1-937-328-1847,Red Roof Inn,,38.4697048,-77.41498539999999,
redroof.com,Red Roof Inn Roanoke - Troutville,3231 Lee Highway South,Troutville,VA,24175,US,rri610,1-937-328-1656,Red Roof Inn,,37.393315,-79.90020960000001,
redroof.com,Red Roof Inn Virginia Beach,196 Ballard Court,Virginia Beach,VA,23462,US,rri093,1-937-328-1467,Red Roof Inn,,36.843172,-76.181617,
redroof.com,Red Roof Inn Virginia Beach - Norfolk Airport,5745 Northampton Boulevard,Virginia Beach,VA,23455,US,rri567,1-937-328-1637,Red Roof Inn,,36.883288,-76.1817641,
redroof.com,Red Roof Inn Warrenton,6 Broadview Avenue,Warrenton,VA,20186,US,rri1009,1-937-328-4280,Red Roof Inn,,38.71874,-77.8085384,
redroof.com,Red Roof Inn Williamsburg,824 Capitol Landing Road,Williamsburg,VA,23185,US,rri799,1-937-328-1769,Red Roof Inn,,37.2807385,-76.6882174,
redroof.com,"Red Roof Inn Winchester, VA",991 Millwood Pike,Winchester,VA,22602,US,rri630,1-937-328-1661,Red Roof Inn,,39.1616166,-78.154095,
redroof.com,Red Roof Inn & Suites Wytheville,1900 East Main Street,Wytheville,VA,24382,US,rri680,1-937-328-1691,Red Roof Inn,,36.9489524,-81.0585179,
redroof.com,Red Roof Inn Newport News - Yorktown,4531 George Washington Memorial Highway,Yorktown,VA,23692,US,rri826,1-937-328-4230,Red Roof Inn,,37.1484513,-76.4599525,
redroof.com,Red Roof Inn Seattle Airport - SEATAC,16838 International Boulevard,Seattle,WA,98188,US,rri304,1-937-328-1639,Red Roof Inn,,47.45144699999999,-122.2948796,
redroof.com,Red Roof Inn Yakima,1001 Staff Sgt. Pendleton Way,Yakima,WA,98901,US,rri923,1-937-328-4274,Red Roof Inn,,46.6070736,-120.492707,
redroof.com,"Red Roof Inn Madison, WI",4830 Hayes Road,Madison,WI,53704,US,rri052,1-937-328-1434,Red Roof Inn,,43.136461,-89.300793,
redroof.com,Red Roof Inn Milwaukee Airport,6360 South 13TH Street,Oak Creek,WI,53154,US,rri031,1-937-328-1419,Red Roof Inn,,42.92903099999999,-87.928868,
redroof.com,"Red Roof Inn Charleston - Kanawha City, WV",6305 MacCorkle Avenue SE,Charleston,WV,25304,US,rri059,1-937-328-1441,Red Roof Inn,,38.3077152,-81.5645067,
redroof.com,Red Roof Inn Huntington,5190 US Route 60 East,Huntington,WV,25705,US,rri109,1-937-328-1479,Red Roof Inn,,38.414136,-82.34243099999999,
redroof.com,"Red Roof Inn Charleston West - Hurricane, WV",500 Putnam Village Drive,Hurricane,WV,25526,US,rri017,1-937-328-1406,Red Roof Inn,,38.4581159,-81.9300796,
redroof.com,Red Roof Inn Parkersburg,3714 East 7th Street,Parkersburg,WV,26104,US,rri022,1-937-328-1411,Red Roof Inn,,39.265953,-81.50384799999999,
redroof.com,Red Roof Inn Fairmont,42 Spencer Drive,Fairmont,WV,26554,US,rri064,1-937-328-1446,Red Roof Inn,,39.4301368,-80.1891602,
