locator_domain,location_name,street_address,city,state,zip,country_code,store_number,phone,location_type,naics_code,latitude,longitude,hours_of_operation
valuevillage.com,Thrift Stores Abbotsford BC Savers,31970 S Fraserway,Abbotsford,BC,V2T 1V6,CA,696595,(604) 850-3712,,,49.0479365,-122.3378808,
valuevillage.com,Thrift Stores Mission BC Savers,7178 Horne Street,Mission,BC,V2V 3X8,CA,696691,(604) 826-1133,,,49.1316105,-122.2999283,
valuevillage.com,Thrift Stores Chilliwack BC Savers,45150 Luckakuck Way,Chilliwack,BC,V2R 3C7,CA,696629,(604) 847-0667,,,49.1434124,-121.975483,
valuevillage.com,Thrift Stores Langley BC Savers,20501 56th Ave,Langley,BC,V3A 4H8,CA,696675,(604) 533-1663,,,49.104979,-122.653015,
valuevillage.com,Thrift Stores Maple Ridge BC Savers,"11998 207th St, Unit #4",Maple Ridge,BC,V2X 1X7,CA,696685,(604) 463-6053,,,49.219613,-122.647885,
valuevillage.com,Thrift Stores Bellingham WA Savers,150 East Bellis Fair Parkway,Bellingham,WA,98226,US,692711,(360) 733-2333,,,48.787394,-122.483762,
valuevillage.com,Thrift Stores Surrey BC Savers,6925 King George Blvd,Surrey,BC,V3W 5A1,CA,696771,(604) 635-1341,,,49.12921,-122.845678,
valuevillage.com,Thrift Stores Coquitlam BC Savers,2739 Barnett Highway,Coquitlam,BC,V3E 1K9,CA,696635,(604) 464-9179,,,49.278083,-122.8099,
valuevillage.com,Thrift Stores Coquitlam BC Savers,1301 United Boulevard,Coquitlam,BC,V3K 6V3,CA,696631,(604) 549-9310,,,49.2308106,-122.8588113,
valuevillage.com,Thrift Stores Coquitlam BC Savers,"Unit 301, 552 Clarke Rd",Coquitlam,BC,V3J 3X5,CA,696633,(604) 937-7087,,,49.263391,-122.887865,
valuevillage.com,Thrift Stores New Westminster BC Savers,"1135 Tanaka Court, Suite 110",New Westminster,BC,V3M 0A6,CA,696701,(604) 540-0400,,,49.186789,-122.952968,
valuevillage.com,Thrift Stores Vancouver BC Savers,6415 Victoria Dr,Vancouver,BC,V5P 3X5,CA,696799,(604) 327-4434,,,49.226397,-123.065747,
valuevillage.com,Thrift Stores Vancouver BC Savers,1820 E Hastings St,Vancouver,BC,V5L 1T2,CA,696797,(604) 254-4282,,,49.281017,-123.0673299,
valuevillage.com,Thrift Stores Richmond BC Savers,8240 Granville Ave,Richmond,BC,V6Y 1P3,CA,696739,(604) 248-2285,,,49.162838,-123.133592,
valuevillage.com,Thrift Stores Mt. Vernon WA Savers,525 E College Way,Mt. Vernon,WA,98273,US,692731,(360) 416-0104,,,48.4370026,-122.3328704,
valuevillage.com,Thrift Stores Victoria BC Savers,1810 Store St,Victoria,BC,V8T 4R4,CA,696805,(250) 380-9422,,,48.430578,-123.370811,
valuevillage.com,Thrift Stores Marysville WA Savers,1334 State Ave,Marysville,WA,98270,US,692729,(360) 659-0098,,,48.0654061,-122.1753951,
valuevillage.com,Thrift Stores Nanaimo BC Savers,"530-5th St, Ste 101",Nanaimo,BC,V9R 1P2,CA,696697,(250) 741-0803,,,49.155775,-123.952141,
valuevillage.com,Thrift Stores Everett WA Savers,6220 Evergreen Way,Everett,WA,98203,US,692717,(425) 355-8320,,,47.9412677,-122.2187097,
valuevillage.com,Thrift Stores Lynnwood WA Savers,17216 Hwy 99,Lynnwood,WA,98037,US,692727,(425) 745-6603,,,47.8423251,-122.2985864,
valuevillage.com,Thrift Stores Edmonds WA Savers,21558 Highway 99,Edmonds,WA,98020,US,692715,(425) 771-8323,,,47.803892,-122.329649,
valuevillage.com,Thrift Stores Woodinville WA Savers,14160 NE Woodinville Duvall Road,Woodinville,WA,98072,US,692755,(425) 415-0837,,,47.755849,-122.1506115,
valuevillage.com,Thrift Stores Kirkland WA Savers,12515 116th Ave NE,Kirkland,WA,98034,US,692723,(425) 821-7186,,,47.712413,-122.188554,
valuevillage.com,Thrift Stores Seattle WA Savers,8532 15th Ave NW,Seattle,WA,98117,US,692741,(206) 783-4648,,,47.6909192,-122.3767919,
valuevillage.com,Thrift Stores Redmond WA Savers,16771 Redmond Way,Redmond,WA,98052,US,692735,(425) 883-2049,,,47.671624,-122.115836,
valuevillage.com,Thrift Stores Silver Spring MD Savers,10121 New Hampshire Avenue,Silver Spring,MD,20903,US,680077,(301) 431-9670,,,39.020782,-76.9757798,
valuevillage.com,Thrift Stores Silver Spring MD Savers,10141 New Hampshire Ave NE,Silver Spring,MD,20903,US,574285,(301) 431-7450,,,39.0210351,-76.9767489,
valuevillage.com,Thrift Stores Adelphi MD Savers,2277 University Blvd.,Adelphi,MD,20783,US,680071,(301) 422-2406,,,38.983784,-76.971886,
valuevillage.com,Thrift Stores Landover Hills MD Savers,6611 Annapolis Road,Landover Hills,MD,20784,US,680075,(301) 341-0001,,,38.942101,-76.901861,
valuevillage.com,Thrift Stores Silver Spring MD Savers,12345 Georgia Ave,Silver Spring,MD,20906,US,697155,(425) 919-6858,,,39.0608291,-77.0492821,
valuevillage.com,Thrift Stores Wheaton MD Savers,12211 Veirs Mill Road,Wheaton,MD,20906,US,574289,(301) 962-0600,,,39.057978,-77.083100,
valuevillage.com,Thrift Stores Rockville MD Savers,5520 Randolph Rd,Rockville,MD,20852,US,697165,(425) 919-6858,,,39.0520518,-77.1109627,
valuevillage.com,Thrift Stores Rockville MD Savers,12202 Rockville Pike,Rockville,MD,20852,US,697157,(425) 919-6858,,,39.055353,-77.119017,
valuevillage.com,Thrift Stores Upper Marlboro MD Savers,950 Largo Centre Drive,Upper Marlboro,MD,20774,US,696899,(844) 799-2050,,,38.9010539,-76.8339889,
valuevillage.com,Thrift Stores Suitland MD Savers,4917 Allentown Road,Suitland,MD,20746,US,680069,(301) 967-0700,,,38.8188497,-76.8926399,
valuevillage.com,Thrift Stores Falls Church VA Savers,2956 Gallows Road,Falls Church,VA,22042,US,574275,(703) 992-6569,,,38.870878,-77.227399,
valuevillage.com,Thrift Stores Glen Burnie MD Savers,7740 Ritchie Highway,Glen Burnie,MD,21061,US,696897,(844) 799-2050,,,39.1506213,-76.6152577,
valuevillage.com,Thrift Stores Arbutus MD Savers,1052 Maiden Choice Lane,Arbutus,MD,21227,US,697163,(425) 919-6858,,,39.2616119,-76.6970676,
valuevillage.com,Thrift Stores Brooklyn Park MD Savers,"5604 Richie Hwy, #3",Brooklyn Park,MD,21225,US,680073,(410) 789-8621,,,39.219456,-76.615212,
valuevillage.com,Thrift Stores Pasadena MD Savers,8573 Fort Smallwood Rd,Pasadena,MD,21122,US,697161,(425) 919-6858,,,39.152032,-76.519092,
valuevillage.com,Thrift Stores Randallstown MD Savers,8700 Liberty Road,Randallstown,MD,21133,US,696901,(844) 799-2050,,,39.3639917,-76.7829021,
valuevillage.com,Thrift Stores Pikesville MD Savers,1636 Reisterstown Rd,Pikesville,MD,21208,US,697159,(425) 919-6858,,,39.3795538,-76.7284655,
valuevillage.com,Thrift Stores Woodbridge VA Savers,14427 Potomac Mills Rd,Woodbridge,VA,22192,US,550275,(703) 499-9170,,,38.6356289,-77.2972769,
valuevillage.com,Thrift Stores Manassas VA Savers,14811 Dumfries Road,Manassas,VA,20112,US,697137,(425) 919-6858,,,38.6351899,-77.4264605,
valuevillage.com,Thrift Stores Parkville MD Savers,1925 E Joppa Rd,Parkville,MD,21234,US,550097,(410) 663-7481,,,39.399464,-76.547868,
valuevillage.com,Thrift Stores Nottingham MD Savers,8675 Belair Road,Nottingham,MD,21236,US,696895,(844) 799-2050,,,39.3914819,-76.4889494,
valuevillage.com,Thrift Stores Ajax ON Savers,"155 Harwood Ave N, #D",Ajax,ON,L1Z 0A1,CA,696597,(905) 427-9338,,,43.866856,-79.025494,
valuevillage.com,Thrift Stores Pickering ON Savers,645 Kingston Road,Pickering,ON,L1V 3N7,CA,697035,(905) 420-1445,,,43.8153411,-79.1188078,
valuevillage.com,Thrift Stores Whitby ON Savers,1801 Dundas St E,Whitby,ON,L1N 7C5,CA,696809,(905) 571-4977,,,43.8885538,-78.9036335,
valuevillage.com,Thrift Stores Oshawa ON Savers,1199 Ritson Road North,Oshawa,ON,L1G 8B9,CA,696715,(905) 443-0264,,,43.9320883,-78.8657278,
valuevillage.com,Thrift Stores Toronto ON Savers,"3701 Lawrence Ave E, #1",Toronto,ON,M1G 1P7,CA,696781,(416) 439-4464,,,43.761525,-79.218415,
valuevillage.com,Thrift Stores Markham ON Savers,"7655 Markham Road, Units C-1 & C-2",Markham,ON,L3S 4S1,CA,696687,(905) 201-6164,,,43.852566,-79.254368,
valuevillage.com,Thrift Stores North York ON Savers,2776 Victoria Park Ave,North York,ON,M2J 4A8,CA,696707,(416) 499-6177,,,43.7880443,-79.3290417,
valuevillage.com,Thrift Stores Toronto ON Savers,1525 Victoria Park Ave,Toronto,ON,M1L 2T3,CA,696793,(416) 752-0060,,,43.7260093,-79.302359,
valuevillage.com,Thrift Stores Toronto ON Savers,2119 Danforth Ave,Toronto,ON,M4C 1J9,CA,696785,(416) 698-0621,,,43.686108,-79.311762,
valuevillage.com,Thrift Stores Toronto ON Savers,924 Queen St E,Toronto,ON,M4M 1J5,CA,696789,(416) 778-4818,,,43.660703,-79.3417348,
valuevillage.com,Thrift Stores Richmond Hill ON Savers,10620 Yonge St,Richmond Hill,ON,L4C 3C8,CA,696741,(905) 737-7444,,,43.8863279,-79.4408126,
valuevillage.com,Thrift Stores Concord ON Savers,1520 Steeles Ave W,Concord,ON,L4K 3B9,CA,550025,(905) 761-7990,,,43.7882942,-79.4716469,
valuevillage.com,Thrift Stores Toronto ON Savers,1030 Wilson Ave,Toronto,ON,M3K 1G6,CA,696795,(416) 633-2623,,,43.7280081,-79.4786641,
valuevillage.com,Thrift Stores Toronto ON Savers,1319 Bloor St W,Toronto,ON,M6H 1P3,CA,696783,(416) 539-0585,,,43.65826,-79.444131,
valuevillage.com,Thrift Stores Toronto ON Savers,"605 Rogers Rd, #C1",Toronto,ON,M6M 1B9,CA,696791,(416) 247-7372,,,43.681946,-79.473407,
valuevillage.com,Thrift Stores Vaughan ON Savers,101 Northview Blvd,Vaughan,ON,L4L 8X9,CA,696801,(905) 850-8535,,,43.792272,-79.543231,
valuevillage.com,Thrift Stores Newmarket ON Savers,130 Davis Dr,Newmarket,ON,L3Y 2N1,CA,696699,(905) 953-1344,,,44.05507,-79.474825,
valuevillage.com,Thrift Stores Toronto ON Savers,1020 Islington Avenue,Toronto,ON,M8Z 6A4,CA,697073,(416) 309-0425,,,43.6311529,-79.5186173,
valuevillage.com,Thrift Stores Toronto ON Savers,45 Woodbine Downs Blvd,Toronto,ON,M9W 6N5,CA,696787,(416) 675-7450,,,43.7370799,-79.6059129,
valuevillage.com,Thrift Stores Mississauga ON Savers,1475 Dundas St E,Mississauga,ON,L4X 1L3,CA,696693,(905) 949-4440,,,43.6118051,-79.5834335,
valuevillage.com,Thrift Stores Brampton ON Savers,2975 Bovaird Drive  East,Brampton,ON,L6S 0C6,CA,550029,(905) 799-3618,,,43.7608265,-79.7251453,
valuevillage.com,Thrift Stores Mississauga ON Savers,70 Bristol Road East,Mississauga,ON,L4Z 3K8,CA,550027,(905) 361-1190,,,43.6157667,-79.661316,
valuevillage.com,Thrift Stores Brampton ON Savers,"150 West Dr, #12",Brampton,ON,L6T 4P9,CA,696607,(905) 451-7975,,,43.706539,-79.734249,
valuevillage.com,Thrift Stores Oakville ON Savers,2506 Hampshire Gate,Oakville,ON,L6H 6A2,CA,696709,(905) 829-1213,,,43.5194666,-79.6829711,
valuevillage.com,Thrift Stores Peterborough ON Savers,1101 Lansdowne St W,Peterborough,ON,K9J 7M2,CA,696729,(705) 741-2644,,,44.28164,-78.347268,
valuevillage.com,Thrift Stores St Catharines ON Savers,360 Ontario St E,St Catharines,ON,L2R 5L8,CA,696761,(905) 688-7764,,,43.172122,-79.265059,
valuevillage.com,Thrift Stores Burlington ON Savers,2030 Appleby Line,Burlington,ON,L7L 6M6,CA,697133,(289) 812-0247,,,43.3943762,-79.7949272,
valuevillage.com,Thrift Stores Barrie ON Savers,165 Wellington W,Barrie,ON,L4N 1L7,CA,696603,(705) 733-9224,,,44.388683,-79.70542,
valuevillage.com,Thrift Stores Burlington ON Savers,2340 Fairview St,Burlington,ON,L7R 2E3,CA,696613,(905) 631-6990,,,43.3439513,-79.801708,
valuevillage.com,Thrift Stores Niagara Falls ON Savers,6278 Lundy's Lane,Niagara Falls,ON,L2E 5E9,CA,696703,(905) 354-6336,,,43.089679,-79.099027,
valuevillage.com,Thrift Stores Stoney Creek ON Savers,840 Queenston Rd,Stoney Creek,ON,L8G 4A8,CA,696767,(905) 664-8884,,,43.22772,-79.763483,
valuevillage.com,Thrift Stores Orillia ON Savers,8000 Highway 12 Unit #15-A,Orillia,ON,L3V 7W7,CA,696711,(705) 327-8288,,,44.612783,-79.46314,
valuevillage.com,Thrift Stores Hamilton ON Savers,50 Horseshoe Crescent,Hamilton,ON,L0R 2H2,CA,696661,(905) 689-0565,,,43.316895,-79.91861,
valuevillage.com,Thrift Stores Welland ON Savers,21 Seaway Drive,Welland,ON,L3C7J5,CA,697169,289-273-5180,,,43.0134759,-79.247758,
valuevillage.com,Thrift Stores Hamilton ON Savers,530 Fennell Ave,Hamilton,ON,L8V 1S9,CA,696663,(905) 318-0409,,,43.232545,-79.856796,
valuevillage.com,Thrift Stores Tonawanda NY Savers,2309 Eggert Road,Tonawanda,NY,14150,US,550089,(716) 833-2391,,,42.9816571,-78.8254188,
valuevillage.com,Thrift Stores Buffalo NY Savers,2658 Delaware Ave,Buffalo,NY,14216,US,696937,(844) 799-2050,,,42.9564714,-78.871461,
valuevillage.com,Thrift Stores Cheektowaga NY Savers,2195 Harlem Road,Cheektowaga,NY,14225,US,696939,(844) 799-2050,,,42.9050622,-78.7821948,
valuevillage.com,Thrift Stores Guelph ON Savers,214 Silvercreek Pkwy N,Guelph,ON,N1H 7P8,CA,696657,(519) 821-9994,,,43.54328,-80.284678,
valuevillage.com,Thrift Stores Ancaster ON Savers,120 Portia Drive,Ancaster,ON,L9G 0G1,CA,697051,(289) 204-1135,,,43.1988639,-80.0209247,
valuevillage.com,Thrift Stores Cambridge ON Savers,480 Hespeler Rd,Cambridge,ON,N1R 7R9,CA,696623,(519) 624-1812,,,43.3989727,-80.3258056,
valuevillage.com,Thrift Stores Hamburg NY Savers,3701 McKinley Parkway,Hamburg,NY,14219,US,550091,(716) 827-6550,,,42.788527,-78.809887,
valuevillage.com,Thrift Stores Kitchener ON Savers,50 Gateway Park Drive,Kitchener,ON,N2P 2J4,CA,696671,(519) 653-3900,,,43.4083986,-80.3921972,
valuevillage.com,Thrift Stores Brantford ON Savers,595 West St,Brantford,ON,N3S 7P2,CA,696611,(519) 751-4424,,,43.169826,-80.246411,
valuevillage.com,Thrift Stores Kitchener ON Savers,120 Ottawa St N,Kitchener,ON,N2H 3K5,CA,696673,(519) 576-4403,,,43.4440781,-80.4689925,
valuevillage.com,Thrift Stores Waterloo ON Savers,330 Farmer's Market Road,Waterloo,ON,N2V 0A5,CA,550031,(519) 885-4436,,,43.511093,-80.54976,
valuevillage.com,Thrift Stores Belleville ON Savers,151 Bell Blvd,Belleville,ON,K8P 5K6,CA,696605,(613) 968-9188,,,44.187403,-77.400405,
valuevillage.com,Thrift Stores Webster NY Savers,980 Ridge Road,Webster,NY,14580,US,550093,(585) 872-4536,,,43.2091763,-77.4603462,
valuevillage.com,Thrift Stores Albuquerque NM Savers,2620 Carlisle Blvd. N.E.,Albuquerque,NM,87110,US,550205,(505) 888-0116,,,35.1101175,-106.6025404,
valuevillage.com,Thrift Stores Albuquerque NM Savers,3400 Calle Cuervo NW #2,Albuquerque,NM,87114,US,550207,(505) 890-2680,,,35.206839,-106.648831,
valuevillage.com,Thrift Stores Santa Fe NM Savers,3294 Cerrillos Road,Santa Fe,NM,87507,US,697037,(505) 919-7185,,,35.6496558,-106.0006948,
valuevillage.com,Thrift Stores Allen Park MI Savers,3100 Fairlane Drive,Allen Park,MI,48101,US,696907,(844) 799-2050,,,42.2850436,-83.2073615,
valuevillage.com,Thrift Stores Windsor ON Savers,"4322 Walker Road, Bldg 1",Windsor,ON,N8W 3T6,CA,696811,(519) 250-0199,,,42.256737,-82.965185,
valuevillage.com,Thrift Stores Windsor ON Savers,6711 Tecumseh Rd,Windsor,ON,N8T 3K7,CA,696813,(519) 944-1372,,,42.312243,-82.897556,
valuevillage.com,Thrift Stores Leamington ON Savers,16 Seacliff Drive East,Leamington,ON,N8H 2L2,CA,696677,(519) 322-0226,,,42.033125,-82.5979391,
valuevillage.com,Thrift Stores Toledo OH Savers,4925 Jackman Road,Toledo,OH,43613,US,696979,(844) 799-2050,,,41.7057212,-83.5865989,
valuevillage.com,Thrift Stores Toledo OH Savers,5929 W Sylvania Ave,Toledo,OH,43623,US,697173,(844) 799-2050,,,41.6905058,-83.6849938,
valuevillage.com,Thrift Stores Toledo OH Savers,1339 S Byrne Road,Toledo,OH,43614,US,696981,(844) 799-2050,,,41.613126,-83.6257818,
valuevillage.com,Thrift Stores Toledo OH Savers,1120 S Holland Sylvania Rd,Toledo,OH,43528,US,696971,(844) 799-2050,,,41.614708,-83.686112,
valuevillage.com,Thrift Stores Chatham ON Savers,80 Keil Dr S,Chatham,ON,N7M 3H1,CA,696627,(519) 354-9325,,,42.3917815,-82.207203,
valuevillage.com,Thrift Stores Waterville OH Savers,1075 Pray Road,Waterville,OH,43566,US,697171,(844) 799-2050,,,41.509349,-83.747504,
valuevillage.com,Thrift Stores Sarnia ON Savers,1379 London Rd,Sarnia,ON,N7S 1P6,CA,696747,(519) 541-0153,,,42.979187,-82.353372,
valuevillage.com,Thrift Stores Rocky River OH Savers,21201 Center Ridge Road,Rocky River,OH,44116,US,636565,(440) 356-1186,,,41.4601619,-81.855151,
valuevillage.com,Thrift Stores Cleveland OH Savers,7100 Brookpark Road,Cleveland,OH,44129,US,679307,(216) 741-2905,,,41.4186654,-81.7330499,
valuevillage.com,Thrift Stores Parma OH Savers,8911 W Ridgewood Dr,Parma,OH,44130,US,696965,(844) 799-2050,,,41.3789259,-81.7447782,
valuevillage.com,Thrift Stores Willowick OH Savers,30604 Lake Shore Blvd,Willowick,OH,44095,US,574291,(440) 347-0200,,,41.640306,-81.472271,
valuevillage.com,Thrift Stores Allen TX Savers,1212 E Bethany Dr,Allen,TX,75002,US,697141,(425) 902-8279,,,33.0827804,-96.6443224,
valuevillage.com,Thrift Stores Plano TX Savers,3945 Legacy Drive,Plano,TX,75023,US,697025,(844) 799-2050,,,33.0740162,-96.770666,
valuevillage.com,Thrift Stores Wylie TX Savers,3460 W. FM 544,Wylie,TX,75094,US,697031,(844) 799-2050,,,33.0111402,-96.5878065,
valuevillage.com,Thrift Stores Garland TX Savers,6850 N Shiloh Road,Garland,TX,75044,US,697195,,,,32.9774097,-96.6639791,
valuevillage.com,Thrift Stores Dallas TX Savers,6333 E Mockingbird Ln,Dallas,TX,75214,US,697145,(425) 902-8149,,,32.8374421,-96.7540785,
valuevillage.com,Thrift Stores Irving TX Savers,8000 Walton Blvd,Irving,TX,75063,US,697019,(844) 799-2050,,,32.9224141,-96.9669626,
valuevillage.com,Thrift Stores Highland Village TX Savers,3060 Justin Rd,Highland Village,TX,75077,US,697065,(425) 970-5435,,,33.0763549,-97.0779604,
valuevillage.com,Thrift Stores Fort Worth TX Savers,1540 Eastchase Pkwy,Fort Worth,TX,76120,US,697139,(425) 615-2321,,,32.7567455,-97.1685539,
valuevillage.com,Thrift Stores Stratford ON Savers,925 Ontario Street,Stratford,ON,N5A 6W5,CA,697079,(226) 779-2706,,,43.3694434,-80.9493146,
valuevillage.com,Thrift Stores London ON Savers,1553 Dundas St,London,ON,N5W 5Y5,CA,696683,(519) 659-0605,,,42.999134,-81.194503,
valuevillage.com,Thrift Stores London ON Savers,4465 Wellington Rd,London,ON,N6E 2Z8,CA,696681,(519) 680-3711,,,42.915508,-81.208113,
valuevillage.com,Thrift Stores Anchorage AK Savers,5437 E Northern Lights Blvd,Anchorage,AK,99508,US,696599,(907) 337-2184,,,61.1961682,-149.7803847,
valuevillage.com,Thrift Stores Anchorage AK Savers,501 E Dimond Blvd,Anchorage,AK,99515,US,696601,(907) 522-9090,,,61.145502,-149.872169,
valuevillage.com,Thrift Stores Wasilla AK Savers,503 West Parks Highway,Wasilla,AK,99654-6922,US,696807,(907) 376-0111,,,61.5824622,-149.4631537,
valuevillage.com,Thrift Stores Antioch CA Savers,3190 Contra Loma Blvd.,Antioch,CA,94509,US,696845,(425) 902-8561,,,37.9911313,-121.8260029,
valuevillage.com,Thrift Stores Pleasanton CA Savers,4200 Rosewood Drive,Pleasanton,CA,94588,US,696837,(425) 919-5343,,,37.6995043,-121.875015,
valuevillage.com,Thrift Stores Dublin CA Savers,7117 Regional St,Dublin,CA,94568,US,550243,(925) 551-0943,,,37.7043897,-121.9327289,
valuevillage.com,Thrift Stores Vallejo CA Savers,904 Admiral Callaghan Ln,Vallejo,CA,94591,US,696835,(425) 919-5530,,,38.1332643,-122.2183706,
valuevillage.com,Thrift Stores Vacaville CA Savers,154 Browns Valley Pkwy,Vacaville,CA,95688,US,550309,(707) 448-8760,,,38.365953,-121.968691,
valuevillage.com,Thrift Stores Richmond CA Savers,4100 Klose Way,Richmond,CA,94806,US,696841,(425) 919-5537,,,37.9843671,-122.3194435,
valuevillage.com,Thrift Stores Napa CA Savers,205 Soscol Ave,Napa,CA,94559,US,697191,(425) 902-8846,,,38.2822477,-122.2776174,
valuevillage.com,Thrift Stores Redwood City CA Savers,875 Main St,Redwood City,CA,94063,US,548419,(650) 364-5545,,,37.485265,-122.225608,
valuevillage.com,Thrift Stores Modesto CA Savers,3848 McHenry Blvd.,Modesto,CA,95356,US,696851,(425) 529-8316,,,37.6946246,-120.9926539,
valuevillage.com,Thrift Stores San Jose CA Savers,4950 Almaden Expy #20,San Jose,CA,95118,US,550249,(408) 448-4380,,,37.260209,-121.874651,
valuevillage.com,Thrift Stores Modesto CA Savers,3020 Floyd Avenue,Modesto,CA,95355,US,696853,(425) 902-8449,,,37.6773343,-120.9376367,
valuevillage.com,Thrift Stores Apple Valley MN Savers,7608 150th St W,Apple Valley,MN,55124,US,550109,(952) 432-7263,,,44.7308949,-93.2212453,
valuevillage.com,Thrift Stores Burnsville MN Savers,14308 Burnhaven Drive,Burnsville,MN,55306,US,574251,(952) 898-0988,,,44.742428,-93.295893,
valuevillage.com,Thrift Stores Woodbury MN Savers,8401 Tamarack Road,Woodbury,MN,55125,US,550279,(651) 294-0880,,,44.936532,-92.93659,
valuevillage.com,Thrift Stores Columbia Heights MN Savers,4849 Central Ave NE,Columbia Heights,MN,55421,US,550113,(763) 571-1319,,,45.0564109,-93.2464174,
valuevillage.com,Thrift Stores New Hope MN Savers,4471 Winnetka Avenue,New Hope,MN,55428,US,574283,(763) 535-0200,,,45.035934,-93.382395,
valuevillage.com,Thrift Stores Coon Rapids MN Savers,50 Coon Rapids Blvd NW,Coon Rapids,MN,55448,US,550281,(763) 786-9398,,,45.136773,-93.271277,
valuevillage.com,Thrift Stores Rochester MN Savers,"1201 S Broadway, Suite B",Rochester,MN,55904,US,550119,(507) 536-2564,,,44.004089,-92.464591,
valuevillage.com,Thrift Stores St Cloud MN Savers,3326 W Division Street,St Cloud,MN,56301,US,550121,(320) 203-0558,,,45.551227,-94.2001031,
valuevillage.com,Thrift Stores Eau Claire WI Savers,2833 Mall Dr,Eau Claire,WI,54701,US,550105,(715) 835-8500,,,44.7899731,-91.4604974,
valuevillage.com,Thrift Stores Arcadia CA Savers,16 East Live Oak Avenue,Arcadia,CA,91006,US,550233,(626) 461-0140,,,34.106784,-118.0297837,
valuevillage.com,Thrift Stores West Covina CA Savers,2753 E Eastland Center Dr,West Covina,CA,91791,US,696833,(844) 799-2050,,,34.073718,-117.885899,
valuevillage.com,Thrift Stores Whittier CA Savers,15466 Whittier Blvd,Whittier,CA,90603,US,696831,(844) 799-2050,,,33.9453681,-117.9970789,
valuevillage.com,Thrift Stores La Mirada CA Savers,15825 Imperial Hwy,La Mirada,CA,90638,US,550229,(562) 943-1182,,,33.9180536,-117.9937081,
valuevillage.com,Thrift Stores Yorba Linda CA Savers,4852 Valley View Avenue,Yorba Linda,CA,92886,US,679305,(714) 854-9961,,,33.8895098,-117.8286356,
valuevillage.com,Thrift Stores Pacoima CA Savers,9727 Laurel Canyon Blvd,Pacoima,CA,91331,US,696829,(844) 799-2050,,,34.2456799,-118.4195897,
valuevillage.com,Thrift Stores Lomita CA Savers,24911 Western Avenue,Lomita,CA,90717,US,550231,(310) 326-2187,,,33.7984621,-118.3084516,
valuevillage.com,Thrift Stores Fountain Valley CA Savers,9091 Garfield Ave,Fountain Valley,CA,92708,US,550237,(714) 963-0425,,,33.6869221,-117.96982,
valuevillage.com,Thrift Stores Fontana CA Savers,15320 Summit Avenue,Fontana,CA,92336,US,696839,(844) 799-2050,,,34.1508055,-117.4691952,
valuevillage.com,Thrift Stores Riverside CA Savers,3900 Tyler St,Riverside,CA,92503,US,550307,(951) 509-0817,,,33.914286,-117.464887,
valuevillage.com,Thrift Stores Murrieta CA Savers,25125 Madison Ave #102,Murrieta,CA,92562,US,550235,(951) 461-8624,,,33.556387,-117.201365,
valuevillage.com,Thrift Stores Arlington Heights IL Savers,115 West Rand,Arlington Heights,IL,60004,US,696869,(844) 799-2050,,,42.1141897,-87.9857596,
valuevillage.com,Thrift Stores Hoffman Estates IL Savers,26 Golf Center,Hoffman Estates,IL,60195,US,550129,(847) 310-0329,,,42.047535,-88.081505,
valuevillage.com,Thrift Stores Carol Stream IL Savers,1231 N Gary Ave.,Carol Stream,IL,60188,US,550289,(630) 588-3090,,,41.935637,-88.1179402,
valuevillage.com,Thrift Stores Crystal Lake IL Savers,"230 W Virginia St, Suite 50",Crystal Lake,IL,60014,US,550285,(815) 444-0276,,,42.229840,-88.328982,
valuevillage.com,Thrift Stores Chicago IL Savers,6560 W. Fullerton Avenue,Chicago,IL,60707,US,574265,(773) 622-6654,,,41.92509,-87.789999,
valuevillage.com,Thrift Stores Chicago IL Savers,3748 N Elston Ave,Chicago,IL,60618,US,574259,(773) 279-0850,,,41.9494788,-87.7134433,
valuevillage.com,Thrift Stores Chicago IL Savers,3000 S Halsted St,Chicago,IL,60608,US,574261,(312) 842-0942,,,41.8394944,-87.6471293,
valuevillage.com,Thrift Stores Crestwood IL Savers,13200 Cicero Ave,Crestwood,IL,60445,US,696871,(844) 799-2050,,,41.6513117,-87.741497,
valuevillage.com,Thrift Stores Orland Park IL Savers,15625 94th Avenue,Orland Park,IL,60462,US,550131,(708) 460-3655,,,41.6068907,-87.8480523,
valuevillage.com,Thrift Stores Midlothian IL Savers,4740 West 147th St,Midlothian,IL,60445,US,697063,(425) 449-0292,,,41.6254885,-87.7358866,
valuevillage.com,Thrift Stores Tinley Park IL Savers,16199 Harlem Ave,Tinley Park,IL,60477,US,697067,(425) 615-0347,,,41.598622,-87.7950644,
valuevillage.com,Thrift Stores Markham IL Savers,16640 Kedzie Ave,Markham,IL,60428,US,697061,(425) 970-5371,,,41.5866984,-87.6949353,
valuevillage.com,Thrift Stores Tinley Park IL Savers,7212 W 191st Street,Tinley Park,IL,60487,US,696873,(844) 799-2050,,,41.5474209,-87.7936877,
valuevillage.com,Thrift Stores Richton Park IL Savers,4455 Sauk Trail,Richton Park,IL,60471,US,697149,(425) 728-9506,,,41.48349,-87.724405,
valuevillage.com,Thrift Stores Austin TX Savers,11101 Pecan Park Blvd.,Austin,TX,78613,US,550149,(512) 257-0359,,,30.4723262,-97.8030954,
valuevillage.com,Thrift Stores Austin TX Savers,5222 Burnet Rd #600,Austin,TX,78756,US,550153,(512) 323-0707,,,30.324287,-97.740687,
valuevillage.com,Thrift Stores Owen Sound ON Savers,"2125 16th Street E, Unit B",Owen Sound,ON,N4K 0E2,CA,696723,(519) 370-0174,,,44.575323,-80.912929,
valuevillage.com,Thrift Stores Kingston ON Savers,"1300 Bath Rd, Unit A1C",Kingston,ON,K7M 2E9,CA,696669,(613) 536-5051,,,44.239857,-76.547133,
valuevillage.com,Thrift Stores Issaquah WA Savers,5530 East Lake Sammamish Parkway SE,Issaquah,WA,98029,US,550261,(425) 392-2249,,,47.5524695,-122.0425407,
valuevillage.com,Thrift Stores Burien WA Savers,131 SW 157th,Burien,WA,98166,US,692713,(206) 246-6237,,,47.461906,-122.335165,
valuevillage.com,Thrift Stores Tukwila WA Savers,16700 Southcenter Parkway,Tukwila,WA,98188,US,692747,(206) 575-7435,,,47.4531505,-122.2607104,
valuevillage.com,Thrift Stores Kent WA Savers,24034 104th Ave SE,Kent,WA,98030,US,692721,(253) 850-8760,,,47.3860409,-122.2003807,
valuevillage.com,Thrift Stores Boise ID Savers,10475 W Fairview Ave,Boise,ID,83704,US,550165,(208) 377-2001,,,43.618036,-116.311563,
valuevillage.com,Thrift Stores Nampa ID Savers,1560 Caldwell Blvd,Nampa,ID,83651,US,550163,(208) 463-0576,,,43.6044979,-116.6005906,
valuevillage.com,Thrift Stores Brandon MB Savers,1408 1st St N,Brandon,MB,R7C 1A4,CA,696609,(204) 727-8050,,,49.8751384,-99.9390561,
valuevillage.com,Thrift Stores Bristol CT Savers,657 Farmington Ave,Bristol,CT,06010,US,550267,(860) 583-1398,,,41.6903696,-72.9242612,
valuevillage.com,Thrift Stores Plainville CT Savers,282 New Britain Avenue,Plainville,CT,06062,US,696857,(844) 799-2050,,,41.6732276,-72.8395576,
valuevillage.com,Thrift Stores Waterbury CT Savers,152 Chase Avenue,Waterbury,CT,06704,US,696867,(844) 799-2050,,,41.5822047,-73.0321718,
valuevillage.com,Thrift Stores Meriden CT Savers,495 Chamberlain Highway,Meriden,CT,06451,US,550269,(203) 630-7014,,,41.5522819,-72.8117354,
valuevillage.com,Thrift Stores Newington CT Savers,3137 Berlin Turnpike,Newington,CT,06111,US,550079,(860) 665-0893,,,41.6639747,-72.7223133,
valuevillage.com,Thrift Stores Newington CT Savers,2985 Berlin Turnpike,Newington,CT,06111,US,696865,(844) 799-2050,,,41.6687678,-72.72154,
valuevillage.com,Thrift Stores Windsor CT Savers,1095 Kennedy Road,Windsor,CT,06095,US,696859,(844) 799-2050,,,41.8933302,-72.6525501,
valuevillage.com,Thrift Stores North Haven CT Savers,410 Universal Drive N,North Haven,CT,06473,US,696863,(844) 799-2050,,,41.356007,-72.873103,
valuevillage.com,Thrift Stores Manchester CT Savers,432 Buckland Hills Dr,Manchester,CT,06042,US,550077,(860) 648-9436,,,41.8052626,-72.5404983,
valuevillage.com,Thrift Stores Orange CT Savers,130 Boston Post Rd,Orange,CT,06477,US,550081,(203) 891-0789,,,41.2740815,-72.9911639,
valuevillage.com,Thrift Stores Brookfield CT Savers,99 Federal Road,Brookfield,CT,06804,US,550271,(203) 775-5910,,,41.435597,-73.408305,
valuevillage.com,Thrift Stores Westfield MA Savers,261 east Main Street,Westfield,MA,01085,US,696887,(844) 799-2050,,,42.113152,-72.7302133,
valuevillage.com,Thrift Stores Stratford CT Savers,411 Barnum Avenue,Stratford,CT,06614,US,696861,(844) 799-2050,,,41.197285,-73.124572,
valuevillage.com,Thrift Stores West Springfield MA Savers,135 Memorial Avenue,West Springfield,MA,01089,US,550035,(413) 732-1077,,,42.0964994,-72.5984691,
valuevillage.com,Thrift Stores Chicopee MA Savers,591 Memorial Drive,Chicopee,MA,01020,US,696881,(844) 799-2050,,,42.1742397,-72.5738602,
valuevillage.com,Thrift Stores Medford NY Savers,700 Patchogue Yaphank Rd,Medford,NY,11763,US,550087,(631) 924-3082,,,40.8068883,-72.9544196,
valuevillage.com,Thrift Stores Commack NY Savers,755 Larkfield Rd,Commack,NY,11725,US,550085,(631) 462-1268,,,40.838403,-73.312113,
valuevillage.com,Thrift Stores Hartsdale NY Savers,353 N Central Avenue,Hartsdale,NY,10530,US,696957,(844) 799-2050,,,41.0281337,-73.7905991,
valuevillage.com,Thrift Stores Holbrook NY Savers,7001 W Sunrise Hwy,Holbrook,NY,11741,US,550273,(631) 589-4257,,,40.771845,-73.0508959,
valuevillage.com,Thrift Stores Mamaroneck NY Savers,1261 Boston Post Road,Mamaroneck,NY,10538,US,696947,(844) 799-2050,,,40.938226,-73.74541,
valuevillage.com,Thrift Stores New Rochelle NY Savers,77 Quaker Ridge Road,New Rochelle,NY,10804,US,696943,(844) 799-2050,,,40.9484656,-73.7923913,
valuevillage.com,Thrift Stores Yonkers NY Savers,1789 Central park Ave,Yonkers,NY,10710,US,696941,(844) 799-2050,,,40.9615993,-73.8411843,
valuevillage.com,Thrift Stores Worcester MA Savers,490 Lincoln Street,Worcester,MA,01605,US,550265,(508) 853-3653,,,42.2956659,-71.7772415,
valuevillage.com,Thrift Stores Warwick RI Savers,24 Universal Blvd,Warwick,RI,02886,US,550063,(401) 821-3923,,,41.701429,-71.496527,
valuevillage.com,Thrift Stores West Hempstead NY Savers,188 Hempstead Turnpike,West Hempstead,NY,11552,US,550083,(516) 489-1661,,,40.7053436,-73.6454587,
valuevillage.com,Thrift Stores N Kingstown RI Savers,90 Frenchtown Road,N Kingstown,RI,02852,US,697017,(844) 799-2050,,,41.6294216,-71.4680423,
valuevillage.com,Thrift Stores Woonsocket RI Savers,1500 Diamond Hill Rd,Woonsocket,RI,02895,US,550065,(401) 762-5789,,,42.0171624,-71.479095,
valuevillage.com,Thrift Stores Providence RI Savers,201 Branch Avenue,Providence,RI,02904,US,550067,(401) 273-1085,,,41.847374,-71.412374,
valuevillage.com,Thrift Stores East Providence RI Savers,1925 Pawtucket Ave,East Providence,RI,02914,US,550069,(401) 438-1955,,,41.8222534,-71.3569237,
valuevillage.com,Thrift Stores North Attleborough MA Savers,1385 South Washington Street,North Attleborough,MA,02760,US,550061,(508) 695-1068,,,41.9368803,-71.3515789,
valuevillage.com,Thrift Stores Leominster MA Savers,25 Water Tower Plaza,Leominster,MA,01453,US,696885,(844) 799-2050,,,42.5492958,-71.7620159,
valuevillage.com,Thrift Stores Marlborough MA Savers,222A East Main Street,Marlborough,MA,01752,US,550043,(508) 485-5191,,,42.351359,-71.535476,
valuevillage.com,Thrift Stores Framingham MA Savers,500 Cochituate Road,Framingham,MA,01701,US,550041,(508) 875-0225,,,42.3063948,-71.3940006,
valuevillage.com,Thrift Stores Fall River MA Savers,109 Mariano Bishop Blvd,Fall River,MA,02721,US,550057,(508) 675-6592,,,41.6771764,-71.1644865,
valuevillage.com,Thrift Stores Norwood MA Savers,560 Boston Providence Highway,Norwood,MA,02062,US,550049,(781) 255-0740,,,42.1922415,-71.1828971,
valuevillage.com,Thrift Stores University Place WA Savers,6802 19th St W,University Place,WA,98466,US,692751,(253) 460-7828,,,47.2419718,-122.528273,
valuevillage.com,Thrift Stores Puyallup WA Savers,1124 River Rd,Puyallup,WA,98371,US,692733,(253) 848-1582,,,47.202011,-122.309696,
valuevillage.com,Thrift Stores Lacey WA Savers,604 Sleater-Kinney Rd SE,Lacey,WA,98503,US,692725,(360) 923-2410,,,47.0424891,-122.8315486,
valuevillage.com,Thrift Stores Calgary AB Savers,104-58th Ave SE,Calgary,AB,T2H 0N7,CA,696617,(403) 255-5501,,,51.0014041,-114.0638427,
valuevillage.com,Thrift Stores Calgary AB Savers,3405-34th St NE,Calgary,AB,T1Y 6J6,CA,696619,(403) 291-3323,,,51.08213,-113.98557,
valuevillage.com,Thrift Stores Calgary AB Savers,5720 Silver Springs Blvd NW Suite #28,Calgary,AB,T3B 4N7,CA,696615,(403) 247-6912,,,51.105068,-114.187903,
valuevillage.com,Thrift Stores Calgary AB Savers,"Unit #1, 240 Midpark Way SE",Calgary,AB,T2X 1N4,CA,696621,(403) 201-5350,,,50.91382,-114.064178,
valuevillage.com,Thrift Stores Red Deer AB Savers,2235-50th Ave,Red Deer,AB,T4R 1L2,CA,696735,(403) 343-3000,,,52.239303,-113.813858,
valuevillage.com,Thrift Stores Chandler AZ Savers,1106 N Arizona Ave,Chandler,AZ,85225,US,550193,(480) 899-7776,,,33.3230779,-111.8429046,
valuevillage.com,Thrift Stores Mesa AZ Savers,2110 S Power Rd,Mesa,AZ,85209,US,550191,(480) 396-1713,,,33.37742,-111.6880012,
valuevillage.com,Thrift Stores Phoenix AZ Savers,2625 W. Bethany Home Rd,Phoenix,AZ,85017,US,550183,(602) 242-4288,,,33.5233568,-112.1158151,
valuevillage.com,Thrift Stores Scottsdale AZ Savers,15020 North Northsight Blvd.,Scottsdale,AZ,85260,US,550305,(480) 991-0265,,,33.6215679,-111.8971547,
valuevillage.com,Thrift Stores Phoenix AZ Savers,3517 W Bell Rd,Phoenix,AZ,85053,US,550189,(602) 938-1616,,,33.6382297,-112.1347447,
valuevillage.com,Thrift Stores Phoenix AZ Savers,10720 W Indian School Rd,Phoenix,AZ,85037,US,550187,(623) 872-9436,,,33.4947065,-112.2919195,
valuevillage.com,Thrift Stores Peoria AZ Savers,7759 West Bell Rd,Peoria,AZ,85382,US,550197,(623) 878-2175,,,33.6356764,-112.2253923,
valuevillage.com,Thrift Stores Tucson AZ Savers,5845 E Broadway Blvd,Tucson,AZ,85711,US,550201,(520) 571-2001,,,32.2222453,-110.8675292,
valuevillage.com,Thrift Stores Charlottetown PE Savers,"339 University Ave, Unit 5",Charlottetown,PE,C1A 4M8,CA,696625,(902) 566-4084,,,46.242717,-63.132848,
valuevillage.com,Thrift Stores New Glasgow NS Savers,610 East River Road,New Glasgow,NS,B2H 3S2,CA,697075,(902) 600-0016,,,45.578059,-62.640214,
valuevillage.com,Thrift Stores Moncton NB Savers,15 Plaza Blvd,Moncton,NB,E1C 0E8,CA,696695,(506) 382-3003,,,46.1138214,-64.8266404,
valuevillage.com,Thrift Stores Streetsboro OH Savers,1280 State Route 303,Streetsboro,OH,44241,US,696983,(844) 799-2050,,,41.237235,-81.348538,
valuevillage.com,Thrift Stores Stow OH Savers,4332 Kent Road,Stow,OH,44224,US,696967,(844) 799-2050,,,41.1548142,-81.405972,
valuevillage.com,Thrift Stores Wadsworth OH Savers,1183 Williams Reserve Blvd,Wadsworth,OH,44281,US,696987,(844) 799-2050,,,41.0401463,-81.6913429,
valuevillage.com,Thrift Stores Nashua NH Savers,292 Daniel Webster Hwy.,Nashua,NH,03060,US,696929,(844) 799-2050,,,42.7045002,-71.4365431,
valuevillage.com,Thrift Stores Nashua NH Savers,224 Daniel Webster Highway,Nashua,NH,03060,US,550071,(603) 888-0409,,,42.7124092,-71.4411603,
valuevillage.com,Thrift Stores West Roxbury MA Savers,1230 VFW Parkway,West Roxbury,MA,02132,US,550051,(617) 323-9213,,,42.2780898,-71.1695884,
valuevillage.com,Thrift Stores Wilmington MA Savers,235 Main St,Wilmington,MA,01887,US,694547,(978) 658-4930,,,42.5559518,-71.1820631,
valuevillage.com,Thrift Stores Everett MA Savers,One Mystic View Road,Everett,MA,02149,US,696879,(844) 799-2050,,,42.3987663,-71.0723247,
valuevillage.com,Thrift Stores Manchester NH Savers,93 South Maple Street,Manchester,NH,03103,US,550073,(603) 695-9915,,,42.9709959,-71.4539655,
valuevillage.com,Thrift Stores Saugus MA Savers,1160 Broadway,Saugus,MA,01906,US,550045,(781) 231-1232,,,42.4597441,-71.0228228,
valuevillage.com,Thrift Stores Plaistow NH Savers,9 Plaistow Road  Unit 9-A,Plaistow,NH,03865,US,636563,(603) 378-0368,,,42.817477,-71.101867,
valuevillage.com,Thrift Stores Danvers MA Savers,139 Endicott Street,Danvers,MA,01923,US,550047,(978) 777-8631,,,42.5513234,-70.9327544,
valuevillage.com,Thrift Stores Hanover MA Savers,2035 Washington Street,Hanover,MA,02339,US,550053,(781) 878-0750,,,42.1562403,-70.8489939,
valuevillage.com,Thrift Stores Salem MA Savers,17 Paradise Road,Salem,MA,01970,US,696893,(844) 799-2050,,,42.4857378,-70.8992219,
valuevillage.com,Thrift Stores New Bedford MA Savers,1014 Kings Hwy,New Bedford,MA,02745,US,550059,(508) 998-3899,,,41.6759895,-70.9410156,
valuevillage.com,Thrift Stores Plymouth MA Savers,10 Pilgrim Hill Rd,Plymouth,MA,02360,US,550055,(508) 746-1602,,,41.9514636,-70.6845524,
valuevillage.com,Thrift Stores Cornwall ON Savers,1400 Vincent Massey Dr,Cornwall,ON,K6J 5N4,CA,696637,(613) 938-0226,,,45.0297304,-74.7553754,
valuevillage.com,Thrift Stores Orleans ON Savers,"4220 Innes Road, Unit 3",Orleans,ON,K4A 5E6,CA,696713,(613) 837-9080,,,45.455906,-75.4974,
valuevillage.com,Thrift Stores Ottawa ON Savers,1824 Bank St,Ottawa,ON,K1Z 7Y6,CA,696719,(613) 526-5551,,,45.371286,-75.66501,
valuevillage.com,Thrift Stores Ottawa ON Savers,1221 Cyrville Road,Ottawa,ON,K1J 7S8,CA,696717,(613) 749-4977,,,45.423661,-75.630198,
valuevillage.com,Thrift Stores Ottawa ON Savers,1651 Merivale Rd,Ottawa,ON,K2G 3K2,CA,696721,(613) 288-1390,,,45.349560,-75.731056,
valuevillage.com,Thrift Stores Ottawa ON Savers,4345 Strandherd Drive,Ottawa,ON,K2J 6E5,CA,697081,(613) 518-2801,,,45.2717585,-75.783984900000,
valuevillage.com,Thrift Stores Stittsville ON Savers,"5487 Hazeldean Road, Unit 1",Stittsville,ON,K2S0P5,CA,696765,(613) 836-1549,,,45.290574,-75.904068,
valuevillage.com,Thrift Stores Courtenay BC Savers,350 Old Island Highway,Courtenay,BC,V9N 3P3,CA,696639,(250) 334-3085,,,49.695033,-124.992509,
valuevillage.com,Thrift Stores Crestwood MO Savers,9618 Watson Road,Crestwood,MO,63126,US,550293,(314) 849-1179,,,38.556488,-90.3823905,
valuevillage.com,Thrift Stores Ellisville MO Savers,15892 Clayton Rd,Ellisville,MO,63011,US,550291,(636) 527-0994,,,38.6038,-90.5847938,
valuevillage.com,Thrift Stores Fairview Heights IL Savers,10899 Lincoln Trail,Fairview Heights,IL,62208,US,550137,(618) 293-6516,,,38.5938914,-89.9887339,
valuevillage.com,Thrift Stores Newington NH Savers,2064 Woodbury Avenue,Newington,NH,03801,US,550075,(603) 427-0814,,,43.0954994,-70.8025035,
valuevillage.com,Thrift Stores Dartmouth NS Savers,"375 Pleasant Street, Unit 101",Dartmouth,NS,B2Y 4N4,CA,696641,(902) 463-4054,,,44.64947,-63.54392,
valuevillage.com,Thrift Stores Halifax NS Savers,165 Chain Lake Drive,Halifax,NS,B3S 1B3,CA,696659,(902) 450-5134,,,44.645262,-63.668949,
valuevillage.com,Thrift Stores New Minas NS Savers,9256 Commercial Street,New Minas,NS,B4N 4A9,CA,697049,(902) 680-3662,,,45.066636,-64.442834,
valuevillage.com,Thrift Stores Draper UT Savers,1166 Draper Pkwy,Draper,UT,84020,US,550169,(801) 572-2417,,,40.5273756,-111.8569816,
valuevillage.com,Thrift Stores South Jordan UT Savers,10551 S Redwood Rd #1,South Jordan,UT,84095,US,550177,(801) 253-5324,,,40.559722,-111.938628,
valuevillage.com,Thrift Stores Midvale UT Savers,39 W 7200 S,Midvale,UT,84047,US,550173,(801) 561-4199,,,40.6197558,-111.8912993,
valuevillage.com,Thrift Stores Taylorsville UT Savers,4145 S Redwood Rd,Taylorsville,UT,84123,US,550179,(801) 262-2150,,,40.6809234,-111.9373108,
valuevillage.com,Thrift Stores Salt Lake City UT Savers,3171 E 3300 S,Salt Lake City,UT,84109,US,550303,(801) 467-8395,,,40.7018864,-111.7946003,
valuevillage.com,Thrift Stores Orem UT Savers,81 N State St,Orem,UT,84057,US,550175,(801) 225-9445,,,40.298958,-111.6959337,
valuevillage.com,Thrift Stores Layton UT Savers,"957 N Main St, Suite A",Layton,UT,84041,US,550171,(801) 546-1813,,,41.0733401,-111.980796,
valuevillage.com,Thrift Stores Ogden UT Savers,3833 Washington Blvd,Ogden,UT,84403,US,550181,(801) 399-3919,,,41.1929305,-111.9728075,
valuevillage.com,Thrift Stores Duluth MN Savers,1740 Mall Drive,Duluth,MN,55811,US,550117,(218) 722-1894,,,46.8061426,-92.1652496,
valuevillage.com,Thrift Stores Edmonton AB Savers,204 Mayfield Common NW,Edmonton,AB,T5P 4B3,CA,696647,(780) 484-4177,,,53.549036,-113.610296,
valuevillage.com,Thrift Stores Edmonton AB Savers,11850-103rd,Edmonton,AB,T5G 2J2,CA,696649,(780) 477-0025,,,53.571992,-113.497393,
valuevillage.com,Thrift Stores Edmonton AB Savers,8930-82nd Ave NW,Edmonton,AB,T6C 0Z3,CA,696645,(780) 468-1259,,,53.518204,-113.465658,
valuevillage.com,Thrift Stores St Albert AB Savers,18 Inglewood Drive,St Albert,AB,T8N 5E2,CA,696759,(780) 470-8022,,,53.649753,-113.626178,
valuevillage.com,Thrift Stores Edmonton AB Savers,10127 - 34th Ave NW,Edmonton,AB,T6E 6J8,CA,696651,(780) 414-5859,,,53.4676187,-113.4885557,
valuevillage.com,Thrift Stores Edmonton AB Savers,13530 Fort Road NW,Edmonton,AB,T5A 1C5,CA,696643,(780) 478-7360,,,53.595641,-113.426532,
valuevillage.com,Thrift Stores Sherwood Park AB Savers,"270 Baseline Rd, Unit 280",Sherwood Park,AB,T8H 1R4,CA,696755,(780) 449-0024,,,53.542379,-113.3122,
valuevillage.com,Thrift Stores Spruce Grove AB Savers,70 McLeod Avenue,Spruce Grove,AB,T7X 3C7,CA,697053,(587) 319-0396,,,53.5422558,-113.9159044,
valuevillage.com,Thrift Stores El Paso TX Savers,6600 N Mesa St #101,El Paso,TX,79912,US,550157,(915) 832-0862,,,31.834784,-106.541199,
valuevillage.com,Thrift Stores El Paso TX Savers,1700 N Zaragoza Rd #161,El Paso,TX,79936,US,550159,(915) 849-1936,,,31.731723,-106.333755,
valuevillage.com,Thrift Stores Las Cruces NM Savers,2340 N Main St,Las Cruces,NM,88001,US,550209,(575) 526-3200,,,32.3295249,-106.782251,
valuevillage.com,Thrift Stores Fairbanks AK Savers,3023 Airport Way,Fairbanks,AK,99701,US,696653,(907) 474-4828,,,64.8352019,-147.7923143,
valuevillage.com,Thrift Stores Fargo ND Savers,1623 38th St SW,Fargo,ND,58103,US,550125,(701) 277-1447,,,46.8553557,-96.8416942,
valuevillage.com,Thrift Stores Flagstaff AZ Savers,5060 U.S. 89,Flagstaff,AZ,86004,US,550203,(928) 526-1066,,,35.227587,-111.578759,
valuevillage.com,Thrift Stores Fort Smith AR Savers,7751 Rogers Avenue,Fort Smith,AR,72903,US,550299,(479) 452-1984,,,35.353252,-94.346536,
valuevillage.com,Thrift Stores Fredericton NB Savers,371 Bishop Dr,Fredericton,NB,E3C 2M6,CA,550023,(506) 455-7676,,,45.944942,-66.681849,
valuevillage.com,Thrift Stores Saint John NB Savers,212 McAllister Dr,Saint John,NB,E2L 3S2,CA,696743,(506) 696-5301,,,45.312507,-66.020394,
valuevillage.com,Thrift Stores Grande Prairie AB Savers,11505 - 99th St,Grande Prairie,AB,T8V 2H6,CA,696655,(780) 402-6700,,,55.184257,-118.789748,
valuevillage.com,Thrift Stores Henderson NV Savers,"1231 W Warm Springs Rd, Bldg F",Henderson,NV,89014,US,550211,(702) 434-0656,,,36.053681,-115.038958,
valuevillage.com,Thrift Stores Las Vegas NV Savers,2300 East Tropicana Ave,Las Vegas,NV,89119,US,550217,(702) 433-1402,,,36.1004766,-115.1228122,
valuevillage.com,Thrift Stores Las Vegas NV Savers,1100 E. Charleston Blvd,Las Vegas,NV,89104,US,550215,(702) 474-4773,,,36.158873,-115.1381442,
valuevillage.com,Thrift Stores Las Vegas NV Savers,201 N. Nellis Blvd,Las Vegas,NV,89110,US,697187,(425) 919-5346,,,36.1651712,-115.0634654,
valuevillage.com,Thrift Stores Las Vegas NV Savers,2620 S Decatur Blvd,Las Vegas,NV,89102,US,550213,(702) 220-7350,,,36.1423107,-115.2063126,
valuevillage.com,Thrift Stores Las Vegas NV Savers,850 S. Rancho Drive,Las Vegas,NV,89106,US,697189,(425) 919-5539,,,36.1614309,-115.1743624,
valuevillage.com,Thrift Stores Las Vegas NV Savers,5050 S. Fort Apache Rd,Las Vegas,NV,89148,US,697185,(425) 902-3540,,,36.0969094,-115.2937597,
valuevillage.com,Thrift Stores Las Vegas NV Savers,3121 N Rancho Dr,Las Vegas,NV,89130,US,550223,(702) 658-0083,,,36.2154671,-115.2125046,
valuevillage.com,Thrift Stores Las Vegas NV Savers,8530 West Lake Mead Blvd,Las Vegas,NV,89128,US,550221,(702) 658-2880,,,36.1995019,-115.2796281,
valuevillage.com,Thrift Stores Las Vegas NV Savers,10420 West Cheyenne Ave,Las Vegas,NV,89129,US,697183,(425) 919-5345,,,36.2194092,-115.3247337,
valuevillage.com,Thrift Stores Honolulu HI Savers,1505 Dillingham Blvd,Honolulu,HI,96817,US,550257,(808) 842-0061,,,21.3240621,-157.8782617,
valuevillage.com,Thrift Stores Waipahu HI Savers,94-300 Farrington Hwy,Waipahu,HI,96797,US,550255,(808) 671-0071,,,21.3815332,-158.0192748,
valuevillage.com,Thrift Stores Kamloops BC Savers,945 West Columbia Street,Kamloops,BC,V2C 1L5,CA,696665,(250) 374-6609,,,50.6750539,-120.330525,
valuevillage.com,Thrift Stores Vernon BC Savers,5608 - 24th St,Vernon,BC,V1T 9T3,CA,696803,(250) 558-2900,,,50.287181,-119.263047,
valuevillage.com,Thrift Stores Westbank BC Savers,3021 Louie Drive,Westbank,BC,V4T 3E2,CA,697055,778-769-0704,,,49.835805,-119.617398,
valuevillage.com,Thrift Stores Kelowna BC Savers,190 Aurora Crescent,Kelowna,BC,V1X 7M3,CA,696667,(250) 491-1356,,,49.890226,-119.395899,
valuevillage.com,Thrift Stores Penticton BC Savers,101 Rosetown Avenue,Penticton,BC,V2A 3J3,CA,696727,(250) 490-9701,,,49.4791357,-119.5806621,
valuevillage.com,Thrift Stores Kansas City MO Savers,2251 NW Barry Road,Kansas City,MO,64154,US,668161,(816) 436-0411,,,39.245769,-94.606414,
valuevillage.com,Thrift Stores Liberty MO Savers,300 S State Route 291,Liberty,MO,64068,US,550295,(816) 792-4477,,,39.2465553,-94.4451671,
valuevillage.com,Thrift Stores Shawnee KS Savers,13233 Shawnee Mission Pkwy,Shawnee,KS,66216,US,550297,(913) 248-1938,,,39.0146946,-94.7382662,
valuevillage.com,Thrift Stores Overland Park KS Savers,5441 W 95th St,Overland Park,KS,66207,US,550143,(913) 649-4381,,,38.956102,-94.647594,
valuevillage.com,Thrift Stores Olathe KS Savers,13509 S Mur-Len Rd #125a,Olathe,KS,66062,US,550141,(913) 782-8939,,,38.883100,-94.776891,
valuevillage.com,Thrift Stores Lethbridge AB Savers,1708 Mayor Magrath Drive South,Lethbridge,AB,T1K 2R5,CA,696679,(403) 320-5358,,,49.674479,-112.800981,
valuevillage.com,Thrift Stores Medicine Hat AB Savers,1368 Trans Canada Way SE,Medicine Hat,AB,T1B 3Z9,CA,696689,(403) 580-4410,,,50.0046833,-110.6588427,
valuevillage.com,Thrift Stores North Bay ON Savers,390 Lakeshore Dr,North Bay,ON,P1A 2C7,CA,696705,(705) 476-1888,,,46.278812,-79.446132,
valuevillage.com,Thrift Stores Sudbury ON Savers,799 Notre Dame Ave,Sudbury,ON,P3A 2T2,CA,696769,(705) 525-2339,,,46.510503,-80.986748,
valuevillage.com,Thrift Stores Pembroke ON Savers,1215 Pembroke St W,Pembroke,ON,K8A5R3,CA,696725,(613) 735-2560,,,45.8325837,-77.1467733,
valuevillage.com,Thrift Stores Prince Albert SK Savers,"#380 - 800 15th St. E, Cornerstone Mall",Prince Albert,SK,S6V 8E3,CA,696731,(306) 922-5870,,,53.200322,-105.7324,
valuevillage.com,Thrift Stores Saskatoon SK Savers,2115 Faithfull Ave,Saskatoon,SK,S7K 1T8,CA,696751,(306) 668-6161,,,52.1586176,-106.6648708,
valuevillage.com,Thrift Stores Saskatoon SK Savers,302 Cope Lane,Saskatoon,SK,S7T 0G3,CA,696749,(306) 955-8702,,,52.0844267,-106.642509,
valuevillage.com,Thrift Stores Prince George BC Savers,1666 Spruce St,Prince George,BC,V2L 2R2,CA,696733,(250) 561-0311,,,53.9090958,-122.7570302,
valuevillage.com,Thrift Stores Regina SK Savers,1230 Broad St,Regina,SK,S4R 1Y3,CA,696737,(306) 522-1228,,,50.459934,-104.606576,
valuevillage.com,Thrift Stores Reno NV Savers,"3800 S Kietzke Lane, Suite 250",Reno,NV,89502,US,550227,(775) 284-4350,,,39.487033,-119.786839,
valuevillage.com,Thrift Stores Reno NV Savers,6139 S Virginia Street,Reno,NV,89502,US,696935,(844) 799-2050,,,39.4690739,-119.7868638,
valuevillage.com,Thrift Stores Sparks NV Savers,2350 Oddie Blvd,Sparks,NV,89431,US,550225,(775) 359-4244,,,39.546096,-119.7778957,
valuevillage.com,Thrift Stores Salem OR Savers,2460 Mission SE,Salem,OR,97302,US,696745,(503) 362-8858,,,44.9212563,-123.0125457,
valuevillage.com,Thrift Stores Tigard OR Savers,12060 SW Main,Tigard,OR,97223,US,696777,(503) 684-1982,,,45.4320189,-122.766235,
valuevillage.com,Thrift Stores Sault Ste Marie ON Savers,248 Northern Ave E,Sault Ste Marie,ON,P6B 4H1,CA,696753,(705) 256-1801,,,46.534269,-84.323169,
valuevillage.com,Thrift Stores Sioux Falls SD Savers,4008 S Shirley Ave,Sioux Falls,SD,57106,US,550123,(605) 362-4790,,,43.5167897,-96.7754176,
valuevillage.com,Thrift Stores Spokane Valley WA Savers,12205 E. Sprague Avenue,Spokane Valley,WA,99206,US,692745,(509) 921-7889,,,47.657882,-117.2405773,
valuevillage.com,Thrift Stores Spokane WA Savers,W 708 Boone,Spokane,WA,99201,US,692743,(509) 325-2569,,,47.6688055,-117.4220821,
valuevillage.com,Thrift Stores St Johns NL Savers,161 Kenmount Rd,St Johns,NL,A1B 3P9,CA,696763,(709) 726-5200,,,47.55688,-52.761787,
valuevillage.com,Thrift Stores Sydney NS Savers,370 Welton Street,Sydney,NS,B1P 5S4,CA,696773,(902) 562-6205,,,46.142805,-60.161491,
valuevillage.com,Thrift Stores Thunder Bay ON Savers,915 Memorial Ave,Thunder Bay,ON,P7B 4A1,CA,696775,(807) 345-3232,,,48.4100007,-89.2447262,
valuevillage.com,Thrift Stores Timmins ON Savers,77 Waterloo Rd,Timmins,ON,P4N 8M4,CA,696779,(705) 268-7701,,,48.4780739,-81.339664,
valuevillage.com,Thrift Stores Winnipeg MB Savers,970 Nairn Ave,Winnipeg,MB,R2L 0Y2,CA,696817,(204) 661-9045,,,49.9009864,-97.0839164,
valuevillage.com,Thrift Stores Winnipeg MB Savers,1695 Ellice Ave,Winnipeg,MB,R3H 0A9,CA,696823,(204) 774-1315,,,49.894379,-97.200785,
valuevillage.com,Thrift Stores Winnipeg MB Savers,942 Jefferson Ave,Winnipeg,MB,R2P 1W1,CA,696819,(204) 694-6844,,,49.9460945,-97.158023,
valuevillage.com,Thrift Stores Winnipeg MB Savers,1729 Pembina Hwy,Winnipeg,MB,R3T 2G6,CA,696821,(204) 261-8719,,,49.8274047,-97.1523898,
valuevillage.com,Thrift Stores Winnipeg MB Savers,3629 Portage Avenue,Winnipeg,MB,R3K 2G6,CA,696815,(204) 831-7561,,,49.8823591,-97.3115015,
valuevillage.com,Thrift Stores Yorkton SK Savers,"277 Broadway Street East, Suite 33A",Yorkton,SK,S3N 3G7,CA,696825,(306) 783-0740,,,51.211685,-102.444817,
