locator_domain,location_name,street_address,city,state,zip,country_code,store_number,phone,location_type,latitude,longitude,hours_of_operation
http://www.rnrtires.com/rnr-locations/,"Daytona Beach, FL",955 W International Speedway Blvd,Daytona Beach,Florida,32114,US,2517,3863235888,<MISSING>,29.203727,-81.038127,Monday 9:00 AM - 6:00 PM; Tuesday 9:00 AM - 6:00 PM; Wednesday 9:00 AM - 6:00 PM; Thursday 9:00 AM - 6:00 PM; Friday 9:00 AM - 6:00 PM; Saturday 9:00 AM - 6:00 PM; Sunday Closed
http://www.rnrtires.com/rnr-locations/,"Orlando (Lee Rd.), FL",1021 Lee Road,Orlando,Florida,32810,US,2527,4074471800,<MISSING>,28.606366,-81.395693,Monday 9:00 AM - 6:00 PM; Tuesday 9:00 AM - 6:00 PM; Wednesday 9:00 AM - 6:00 PM; Thursday 9:00 AM - 6:00 PM; Friday 9:00 AM - 6:00 PM; Saturday 9:00 AM - 6:00 PM; Sunday Closed
http://www.rnrtires.com/rnr-locations/,"Leesburg, FL",10742 US Hwy 441,Leesburg,Florida,34788,US,5360,3525086434,<MISSING>,28.820199,-81.778595,Monday 9:00 AM - 6:00 PM; Tuesday 9:00 AM - 6:00 PM; Wednesday 9:00 AM - 6:00 PM; Thursday 9:00 AM - 6:00 PM; Friday 9:00 AM - 6:00 PM; Saturday 9:00 AM - 6:00 PM; Sunday Closed
http://www.rnrtires.com/rnr-locations/,"Orlando (OBT), FL",6000 S. Orange Blossom Trail,Orlando,Florida,32809,US,2525,4072517655,<MISSING>,28.47024,-81.397156,Monday 9:00 AM - 7:00 PM; Tuesday 9:00 AM - 7:00 PM; Wednesday 9:00 AM - 7:00 PM; Thursday 9:00 AM - 7:00 PM; Friday 9:00 AM - 7:00 PM; Saturday 9:00 AM - 5:00 PM; Sunday Closed
http://www.rnrtires.com/rnr-locations/,"Ocala, FL",2547 SW College Rd.,Ocala,Florida,34471,US,2523,3526202211,<MISSING>,29.168397,-82.166797,Monday 9:00 AM - 6:00 PM; Tuesday 9:00 AM - 6:00 PM; Wednesday 9:00 AM - 6:00 PM; Thursday 9:00 AM - 6:00 PM; Friday 9:00 AM - 6:00 PM; Saturday 9:00 AM - 6:00 PM; Sunday Closed
http://www.rnrtires.com/rnr-locations/,"Jacksonville (Atlantic), FL",10140 Atlantic Blvd.,Jacksonville,Florida,32225,US,2521,9047220975,<MISSING>,30.322739,-81.53659,Monday 9:00 AM - 6:00 PM; Tuesday 9:00 AM - 6:00 PM; Wednesday 9:00 AM - 6:00 PM; Thursday 9:00 AM - 6:00 PM; Friday 9:00 AM - 6:00 PM; Saturday 9:00 AM - 6:00 PM; Sunday Closed
http://www.rnrtires.com/rnr-locations/,"Jacksonville (103rd St.), FL",6733 103rd St. Suite 35,Jacksonville,Florida,32210,US,2519,9043179888,<MISSING>,30.249806,-81.755405,Monday 9:00 AM - 6:00 PM; Tuesday 9:00 AM - 6:00 PM; Wednesday 9:00 AM - 6:00 PM; Thursday 9:00 AM - 6:00 PM; Friday 9:00 AM - 6:00 PM; Saturday 9:00 AM - 6:00 PM; Sunday Closed
http://www.rnrtires.com/rnr-locations/,"Tampa (USF Area), FL",1255 E. Fletcher Avenue,Tampa,Florida,33612,US,2442,8133417655,<MISSING>,28.068954,-82.445782,Monday 9:00 AM - 6:00 PM; Tuesday 9:00 AM - 6:00 PM; Wednesday 9:00 AM - 6:00 PM; Thursday 9:00 AM - 6:00 PM; Friday 9:00 AM - 6:00 PM; Saturday 9:00 AM - 6:00 PM; Sunday Closed
http://www.rnrtires.com/rnr-locations/,"Brandon, FL",1208 W. Brandon Blvd.,Brandon,Florida,33511,US,2515,8138007655,<MISSING>,27.93819,-82.301181,Monday 9:00 AM - 6:00 PM; Tuesday 9:00 AM - 6:00 PM; Wednesday 9:00 AM - 6:00 PM; Thursday 9:00 AM - 6:00 PM; Friday 9:00 AM - 6:00 PM; Saturday 9:00 AM - 6:00 PM; Sunday Closed
http://www.rnrtires.com/rnr-locations/,"Port Richey, FL",9218-9226 Us Hwy 19,Port Richey,florida,34668,US,9020,<MISSING>,<MISSING>,28.291464,-82.709958,Monday 9:00 AM - 6:00 PM; Tuesday 9:00 AM - 6:00 PM; Wednesday 9:00 AM - 6:00 PM; Thursday 9:00 AM - 6:00 PM; Friday 9:00 AM - 6:00 PM; Saturday 9:00 AM - 6:00 PM; Sunday Closed
http://www.rnrtires.com/rnr-locations/,"Sebring, FL",585 US Hwy 27N,Sebring,Florida,33870,US,2534,8637034444,<MISSING>,27.47674,-81.474108,Monday 9:00 AM - 6:00 PM; Tuesday 9:00 AM - 6:00 PM; Wednesday 9:00 AM - 6:00 PM; Thursday 9:00 AM - 6:00 PM; Friday 9:00 AM - 6:00 PM; Saturday 9:00 AM - 5:00 PM; Sunday Closed
http://www.rnrtires.com/rnr-locations/,"Tampa (Town N Country), FL",8211 W. Hillsborough Ave.,Tampa,Florida,33615,US,2538,8138497655,<MISSING>,27.997218,-82.573913,Monday 9:00 AM - 6:00 PM; Tuesday 9:00 AM - 6:00 PM; Wednesday 9:00 AM - 6:00 PM; Thursday 9:00 AM - 6:00 PM; Friday 9:00 AM - 6:00 PM; Saturday 9:00 AM - 6:00 PM; Sunday Closed
http://www.rnrtires.com/rnr-locations/,"Clearwater, FL",1315 S. Missouri Ave.,Clearwater,Florida,33756,US,2511,7274697655,<MISSING>,27.94899,-82.78717,Monday 9:00 AM - 6:00 PM; Tuesday 9:00 AM - 6:00 PM; Wednesday 9:00 AM - 6:00 PM; Thursday 9:00 AM - 6:00 PM; Friday 9:00 AM - 6:00 PM; Saturday 9:00 AM - 6:00 PM; Sunday Closed
http://www.rnrtires.com/rnr-locations/,"St. Petersburg, FL",5804 34th St. North,St. Petersburg,Florida,33714,US,2536,7273987655,<MISSING>,27.825539,-82.679994,Monday 9:00 AM - 6:00 PM; Tuesday 9:00 AM - 6:00 PM; Wednesday 9:00 AM - 6:00 PM; Thursday 9:00 AM - 6:00 PM; Friday 9:00 AM - 6:00 PM; Saturday 9:00 AM - 6:00 PM; Sunday Closed
http://www.rnrtires.com/rnr-locations/,"Bradenton, FL",403 Cortez Rd,Bradenton,Florida,34207,US,2446,9417557655,<MISSING>,27.461842,-82.565728,Monday 9:00 AM - 6:00 PM; Tuesday 9:00 AM - 6:00 PM; Wednesday 9:00 AM - 6:00 PM; Thursday 9:00 AM - 6:00 PM; Friday 9:00 AM - 6:00 PM; Saturday 9:00 AM - 6:00 PM; Sunday Closed
http://www.rnrtires.com/rnr-locations/,"Sarasota, FL",1505 N Washington Blvd.,Sarasota,FL,34236,US,6201,9417029970,<MISSING>,27.350662,-82.530917,Monday 9:00 AM - 6:00 PM; Tuesday 9:00 AM - 6:00 PM; Wednesday 9:00 AM - 6:00 PM; Thursday 9:00 AM - 6:00 PM; Friday 9:00 AM - 6:00 PM; Saturday 9:00 AM - 6:00 PM; Sunday Closed
http://www.rnrtires.com/rnr-locations/,"West Palm Beach, FL","2360 N Military Trail, suite 101",West Palm Beach,,33409,US,9556,5615008473,<MISSING>,26.712497,-80.110105,Monday 9:00 AM - 7:00 PM; Tuesday 9:00 AM - 7:00 PM; Wednesday 9:00 AM - 7:00 PM; Thursday 9:00 AM - 7:00 PM; Friday 9:00 AM - 7:00 PM; Saturday 9:00 AM - 5:00 PM; Sunday Closed
http://www.rnrtires.com/rnr-locations/,"Savannah, GA",125 W. De Renne Ave.,Savannah,Georgia,31405,US,2542,9126912274,<MISSING>,32.029411,-81.114665,Monday 10:00 AM - 6:00 PM; Tuesday 10:00 AM - 6:00 PM; Wednesday 10:00 AM - 6:00 PM; Thursday 10:00 AM - 6:00 PM; Friday 10:00 AM - 6:00 PM; Saturday 10:00 AM - 3:00 PM; Sunday Closed
http://www.rnrtires.com/rnr-locations/,"Beaufort, SC",599 Robert Smalls Parkway,Beaufort,SC,29906,US,12385,8433219988,<MISSING>,32.41157,-80.750845,Monday 9:00 AM - 7:00 PM; Tuesday 9:00 AM - 7:00 PM; Wednesday 9:00 AM - 7:00 PM; Thursday 9:00 AM - 7:00 PM; Friday 9:00 AM - 7:00 PM; Saturday 9:00 AM - 5:00 PM; Sunday Closed
http://www.rnrtires.com/rnr-locations/,"N. Charleston, SC",7001 Rivers Ave.,N. Charleston,South Carolina,29406,US,2618,8435693727,<MISSING>,32.924953,-80.033029,Monday 9:00 AM - 6:00 PM; Tuesday 9:00 AM - 6:00 PM; Wednesday 9:00 AM - 6:00 PM; Thursday 9:00 AM - 6:00 PM; Friday 9:00 AM - 6:00 PM; Saturday 9:00 AM - 3:00 PM; Sunday Closed
http://www.rnrtires.com/rnr-locations/,"Panama City, FL",746 W. 15th St.,Panama City,Florida,32401,US,2530,8505228445,<MISSING>,30.175648,-85.672636,Monday 9:00 AM - 6:00 PM; Tuesday 9:00 AM - 6:00 PM; Wednesday 9:00 AM - 6:00 PM; Thursday 9:00 AM - 6:00 PM; Friday 9:00 AM - 6:00 PM; Saturday 9:00 AM - 5:00 PM; Sunday Closed
http://www.rnrtires.com/rnr-locations/,"Dothan, AL",2301 S. Oates,Dothan,Alabama,36301,US,7030,3342139121,<MISSING>,31.193542,-85.399753,Monday 9:00 AM - 6:00 PM; Tuesday 9:00 AM - 6:00 PM; Wednesday 9:00 AM - 6:00 PM; Thursday 9:00 AM - 6:00 PM; Friday 9:00 AM - 6:00 PM; Saturday 9:00 AM - 5:00 PM; Sunday Closed
http://www.rnrtires.com/rnr-locations/,"Augusta, GA",3740 Washington Rd.,Augusta,Georgia,30907,US,2540,7068606811,<MISSING>,33.512678,-82.085617,Monday 10:00 AM - 6:00 PM; Tuesday 10:00 AM - 6:00 PM; Wednesday 10:00 AM - 6:00 PM; Thursday 10:00 AM - 6:00 PM; Friday 10:00 AM - 6:00 PM; Saturday 10:00 AM - 3:00 PM; Sunday Closed
http://www.rnrtires.com/rnr-locations/,"Georgia Columbus, GA",5300 Veterans Parkway,Columbus,Georgia,31904,US,10828,7068876614,<MISSING>,32.516802,-84.969615,Monday 9:00 AM - 6:00 PM; Tuesday 9:00 AM - 6:00 PM; Wednesday 9:00 AM - 6:00 PM; Thursday 9:00 AM - 6:00 PM; Friday 9:00 AM - 6:00 PM; Saturday 9:00 AM - 6:00 PM; Sunday Closed
http://www.rnrtires.com/rnr-locations/,"Sumter, SC",717 Broad St,"Sumter,",SC,29150,US,9548,8038285840,<MISSING>,33.941117,-80.365561,Monday 10:00 AM - 6:00 PM; Tuesday 10:00 AM - 6:00 PM; Wednesday 10:00 AM - 6:00 PM; Thursday 10:00 AM - 6:00 PM; Friday 10:00 AM - 6:00 PM; Saturday 9:00 AM - 3:00 PM; Sunday Closed
http://www.rnrtires.com/rnr-locations/,"Columbia, SC",2951 Broad River Rd.,Columbia,South Carolina,29210,US,2614,8037319009,<MISSING>,34.047754,-81.104093,Monday 10:00 AM - 6:00 PM; Tuesday 10:00 AM - 6:00 PM; Wednesday 10:00 AM - 6:00 PM; Thursday 10:00 AM - 6:00 PM; Friday 10:00 AM - 6:00 PM; Saturday 10:00 AM - 3:00 PM; Sunday Closed
http://www.rnrtires.com/rnr-locations/,"Florence, SC",1415 S Irby Street,Florence,South Carolina,29505,US,6170,8439723740,<MISSING>,34.167235,-79.764704,Monday 10:00 AM - 6:00 PM; Tuesday 10:00 AM - 6:00 PM; Wednesday 10:00 AM - 6:00 PM; Thursday 10:00 AM - 6:00 PM; Friday 10:00 AM - 6:00 PM; Saturday 10:00 AM - 3:00 PM; Sunday Closed
http://www.rnrtires.com/rnr-locations/,"Opelika, AL",3501 Pepperell Pkwy,Opelika,Alabama,36801,US,11907,3343199080,<MISSING>,32.633306,-85.429961,Monday 9:00 AM - 6:00 PM; Tuesday 9:00 AM - 6:00 PM; Wednesday 9:00 AM - 6:00 PM; Thursday 9:00 AM - 6:00 PM; Friday 9:00 AM - 6:00 PM; Saturday 9:00 AM - 6:00 PM; Sunday Closed
http://www.rnrtires.com/rnr-locations/,"Montgomery, AL",1059 N. Eastern Blvd.,Montgomery,Alabama,36116,US,2484,3342790059,<MISSING>,32.408144,-86.216972,Monday 9:00 AM - 6:00 PM; Tuesday 9:00 AM - 6:00 PM; Wednesday 9:00 AM - 6:00 PM; Thursday 9:00 AM - 6:00 PM; Friday 9:00 AM - 6:00 PM; Saturday 9:00 AM - 5:00 PM; Sunday Closed
http://www.rnrtires.com/rnr-locations/,"Anderson, SC",3322 N. Main St.,Anderson,South Carolina,29621,US,2612,8645598550,<MISSING>,34.544606,-82.668675,Monday 10:00 AM - 6:00 PM; Tuesday 10:00 AM - 6:00 PM; Wednesday 10:00 AM - 6:00 PM; Thursday 10:00 AM - 6:00 PM; Friday 10:00 AM - 6:00 PM; Saturday 9:00 AM - 3:00 PM; Sunday Closed
http://www.rnrtires.com/rnr-locations/,"Pensacola, FL",7152 N. Davis Highway,Pensacola,Florida,32504,US,2532,8504943178,<MISSING>,30.498939,-87.221054,Monday 9:00 AM - 6:00 PM; Tuesday 9:00 AM - 6:00 PM; Wednesday 9:00 AM - 6:00 PM; Thursday 9:00 AM - 6:00 PM; Friday 9:00 AM - 6:00 PM; Saturday 9:00 AM - 5:00 PM; Sunday Closed
http://www.rnrtires.com/rnr-locations/,"Rock Hill, SC",1257 Cherry Rd.,Rock Hill,South Carolina,29732,US,2620,8033252350,<MISSING>,34.953344,-81.015865,Monday 10:00 AM - 6:00 PM; Tuesday 10:00 AM - 6:00 PM; Wednesday 10:00 AM - 6:00 PM; Thursday 10:00 AM - 6:00 PM; Friday 10:00 AM - 6:00 PM; Saturday 10:00 AM - 3:00 PM; Sunday Closed
http://www.rnrtires.com/rnr-locations/,"Greenville, SC",3141 North Pleasantburg Dr.,Greenville,South Carolina,29609,US,2616,8646727655,<MISSING>,34.888193,-82.398473,Monday 10:00 AM - 6:00 PM; Tuesday 10:00 AM - 6:00 PM; Wednesday 10:00 AM - 6:00 PM; Thursday 10:00 AM - 6:00 PM; Friday 10:00 AM - 6:00 PM; Saturday 10:00 AM - 3:00 PM; Sunday Closed
http://www.rnrtires.com/rnr-locations/,"Spartanburg, SC",1280 Asheville Hwy,Spartanburg,South Carolina,29303,US,2622,8645823837,<MISSING>,34.975405,-81.960315,Monday 10:00 AM - 6:00 PM; Tuesday 10:00 AM - 6:00 PM; Wednesday 10:00 AM - 6:00 PM; Thursday 10:00 AM - 6:00 PM; Friday 10:00 AM - 6:00 PM; Saturday 10:00 AM - 3:00 PM; Sunday Closed
http://www.rnrtires.com/rnr-locations/,"Charlotte, NC",4400-B South Blvd.,Charlotte,North Carolina,28209,US,2594,7046797655,<MISSING>,35.183661,-80.876326,Monday 10:00 AM - 6:00 PM; Tuesday 10:00 AM - 6:00 PM; Wednesday 10:00 AM - 6:00 PM; Thursday 10:00 AM - 6:00 PM; Friday 10:00 AM - 6:00 PM; Saturday 10:00 AM - 3:00 PM; Sunday Closed
http://www.rnrtires.com/rnr-locations/,"Gastonia, NC",735 E. Franklin Blvd.,Gastonia,North Carolina,28053,US,2598,7048654048,<MISSING>,35.261971,-81.17055,Monday 10:00 AM - 6:00 PM; Tuesday 10:00 AM - 6:00 PM; Wednesday 10:00 AM - 6:00 PM; Thursday 10:00 AM - 6:00 PM; Friday 10:00 AM - 6:00 PM; Saturday 10:00 AM - 3:00 PM; Sunday Closed
http://www.rnrtires.com/rnr-locations/,"Fayetteville, NC",1101 Pamalee Drive,Fayetteville,North Carolina,28303,US,2596,9104804846,<MISSING>,35.088368,-78.944324,Monday 10:00 AM - 6:00 PM; Tuesday 10:00 AM - 6:00 PM; Wednesday 10:00 AM - 6:00 PM; Thursday 10:00 AM - 6:00 PM; Friday 10:00 AM - 6:00 PM; Saturday 10:00 AM - 3:00 PM; Sunday Closed
http://www.rnrtires.com/rnr-locations/,"Mobile, AL",3819 Airport Blvd.,Mobile,Alabama,36608,US,2482,2513453347,<MISSING>,30.675324,-88.141471,Monday 9:00 AM - 6:00 PM; Tuesday 9:00 AM - 6:00 PM; Wednesday 9:00 AM - 6:00 PM; Thursday 9:00 AM - 6:00 PM; Friday 9:00 AM - 6:00 PM; Saturday 9:00 AM - 5:00 PM; Sunday Closed
http://www.rnrtires.com/rnr-locations/,"Moss Point, MS",3500 Main St. Suite D,Moss Point,Mississippi,39563,US,2588,2284754055,<MISSING>,30.391714,-88.536,Monday 9:00 AM - 6:00 PM; Tuesday 9:00 AM - 6:00 PM; Wednesday 9:00 AM - 6:00 PM; Thursday 9:00 AM - 6:00 PM; Friday 9:00 AM - 6:00 PM; Saturday 9:00 AM - 5:00 PM; Sunday Closed
http://www.rnrtires.com/rnr-locations/,"Chattanooga, TN",3511 Ringgold Rd,Chattanooga,Tennessee,37412,US,3755,4239332360,<MISSING>,35.004053,-85.259549,Monday 10:00 AM - 6:00 PM; Tuesday 10:00 AM - 6:00 PM; Wednesday 10:00 AM - 6:00 PM; Thursday 10:00 AM - 6:00 PM; Friday 10:00 AM - 6:00 PM; Saturday 10:00 AM - 3:00 PM; Sunday Closed
http://www.rnrtires.com/rnr-locations/,"Ocean Springs, MS",3827 Bienville Blvd. Suite 15,Ocean Springs,Mississippi,39564,US,2590,2288188647,<MISSING>,30.410324,-88.762671,Monday 9:00 AM - 6:00 PM; Tuesday 9:00 AM - 6:00 PM; Wednesday 9:00 AM - 6:00 PM; Thursday 9:00 AM - 6:00 PM; Friday 9:00 AM - 6:00 PM; Saturday 9:00 AM - 5:00 PM; Sunday Closed
http://www.rnrtires.com/rnr-locations/,"Greensboro, NC",3738 High Point Rd.,Greensboro,North Carolina,27407,US,2600,3362994898,<MISSING>,36.038654,-79.854098,Monday 10:00 AM - 6:00 PM; Tuesday 10:00 AM - 6:00 PM; Wednesday 10:00 AM - 6:00 PM; Thursday 10:00 AM - 6:00 PM; Friday 10:00 AM - 6:00 PM; Saturday 10:00 AM - 3:00 PM; Sunday Closed
http://www.rnrtires.com/rnr-locations/,"Raleigh, NC",4101 New Bern Ave.,Raleigh,North Carolina,27610,US,2602,9192559788,<MISSING>,35.79944,-78.566528,Monday 10:00 AM - 6:00 PM; Tuesday 10:00 AM - 6:00 PM; Wednesday 10:00 AM - 6:00 PM; Thursday 10:00 AM - 6:00 PM; Friday 10:00 AM - 6:00 PM; Saturday 10:00 AM - 3:00 PM; Sunday Closed
http://www.rnrtires.com/rnr-locations/,"Gulfport, MS",12407-4 Hwy 49 N,Gulfport,Mississippi,39503,US,2586,2288327467,<MISSING>,30.468017,-89.10303,Monday 9:00 AM - 6:00 PM; Tuesday 9:00 AM - 6:00 PM; Wednesday 9:00 AM - 6:00 PM; Thursday 9:00 AM - 6:00 PM; Friday 9:00 AM - 6:00 PM; Saturday 9:00 AM - 5:00 PM; Sunday Closed
http://www.rnrtires.com/rnr-locations/,"Knoxville, TN",4114 Chapman Hwy,Knoxville,TN,37920,US,5599,8653334446,<MISSING>,35.936573,-83.906588,Monday 10:00 AM - 6:00 PM; Tuesday 10:00 AM - 6:00 PM; Wednesday 10:00 AM - 6:00 PM; Thursday 10:00 AM - 6:00 PM; Friday 10:00 AM - 6:00 PM; Saturday 10:00 AM - 3:00 PM; Sunday Closed
http://www.rnrtires.com/rnr-locations/,"Hattiesburg, MS",1815 Hardy Street,Hattiesburg,MS,39401,US,7032,6014029186,<MISSING>,31.324941,-89.317518,Monday 9:00 AM - 6:00 PM; Tuesday 9:00 AM - 6:00 PM; Wednesday 9:00 AM - 6:00 PM; Thursday 9:00 AM - 6:00 PM; Friday 9:00 AM - 6:00 PM; Saturday 9:00 AM - 5:00 PM; Sunday Closed
http://www.rnrtires.com/rnr-locations/,"Tupelo, MS",1401 W. Main St,Tupelo,Mississippi,38801,US,2592,6627910409,<MISSING>,34.25591,-88.729892,Monday 9:00 AM - 6:00 PM; Tuesday 9:00 AM - 6:00 PM; Wednesday 9:00 AM - 6:00 PM; Thursday 9:00 AM - 6:00 PM; Friday 9:00 AM - 6:00 PM; Saturday 9:00 AM - 5:00 PM; Sunday Closed
http://www.rnrtires.com/rnr-locations/,"Suffolk, VA",1100 N. Main St.,Suffolk,Virginia,23434,US,2657,7577667655,<MISSING>,36.747866,-76.583199,Monday 9:00 AM - 6:00 PM; Tuesday 9:00 AM - 6:00 PM; Wednesday 9:00 AM - 6:00 PM; Thursday 9:00 AM - 6:00 PM; Friday 9:00 AM - 6:00 PM; Saturday 9:00 AM - 5:00 PM; Sunday Closed
http://www.rnrtires.com/rnr-locations/,"Chesapeake, VA",1420-L Battlefield Blvd.,Chesapeake,Virginia,23320,US,2645,7573827655,<MISSING>,36.767056,-76.25249,Monday 9:00 AM - 6:00 PM; Tuesday 9:00 AM - 6:00 PM; Wednesday 9:00 AM - 6:00 PM; Thursday 9:00 AM - 6:00 PM; Friday 9:00 AM - 6:00 PM; Saturday 9:00 AM - 5:00 PM; Sunday Closed
http://www.rnrtires.com/rnr-locations/,"Norfolk, VA",818 B East Little Creek Rd.,Norfolk,Virginia,23518,US,2653,7575887655,<MISSING>,36.915946,-76.25058,Monday 9:00 AM - 6:00 PM; Tuesday 9:00 AM - 6:00 PM; Wednesday 9:00 AM - 6:00 PM; Thursday 9:00 AM - 6:00 PM; Friday 9:00 AM - 6:00 PM; Saturday 9:00 AM - 5:00 PM; Sunday Closed
http://www.rnrtires.com/rnr-locations/,"Virginia Beach, VA",623 First Colonial Rd.,Virginia Beach,Virginia,23421,US,2659,7575317655,<MISSING>,36.849765,-76.022532,Monday 9:00 AM - 6:00 PM; Tuesday 9:00 AM - 6:00 PM; Wednesday 9:00 AM - 6:00 PM; Thursday 9:00 AM - 6:00 PM; Friday 9:00 AM - 6:00 PM; Saturday 9:00 AM - 5:00 PM; Sunday Closed
http://www.rnrtires.com/rnr-locations/,"Hampton, VA",3418 W. Mercury Blvd.,Hampton,Virginia,23666,US,2649,7578267655,<MISSING>,37.030747,-76.422938,Monday 9:00 AM - 6:00 PM; Tuesday 9:00 AM - 6:00 PM; Wednesday 9:00 AM - 6:00 PM; Thursday 9:00 AM - 6:00 PM; Friday 9:00 AM - 6:00 PM; Saturday 9:00 AM - 5:00 PM; Sunday Closed
http://www.rnrtires.com/rnr-locations/,"N. Chesterfield, VA",8321 Midlothian Turnpike,N. Chesterfield,Virginia,23235,US,2651,8042727655,<MISSING>,37.495491,-77.552044,Monday 9:00 AM - 6:00 PM; Tuesday 9:00 AM - 6:00 PM; Wednesday 9:00 AM - 6:00 PM; Thursday 9:00 AM - 6:00 PM; Friday 9:00 AM - 6:00 PM; Saturday 9:00 AM - 5:00 PM; Sunday Closed
http://www.rnrtires.com/rnr-locations/,"Baton Rouge, LA",8030 Florida Blvd.,Baton Rouge,Louisiana,70806,US,2566,2259267466,<MISSING>,30.45128,-91.105114,Monday 9:00 AM - 6:00 PM; Tuesday 9:00 AM - 6:00 PM; Wednesday 9:00 AM - 6:00 PM; Thursday 9:00 AM - 6:00 PM; Friday 9:00 AM - 6:00 PM; Saturday 9:00 AM - 5:00 PM; Sunday Closed
http://www.rnrtires.com/rnr-locations/,"Richmond, VA",7601 W. Broad St.,Richmond,Virginia,23294,US,2655,8047407655,<MISSING>,37.618424,-77.524242,Monday 9:00 AM - 6:00 PM; Tuesday 9:00 AM - 6:00 PM; Wednesday 9:00 AM - 6:00 PM; Thursday 9:00 AM - 6:00 PM; Friday 9:00 AM - 6:00 PM; Saturday 9:00 AM - 5:00 PM; Sunday Closed
http://www.rnrtires.com/rnr-locations/,"Jackson, TN",2089 N. Highland Suite D,Jackson,Tennessee,38305,US,2626,7319847391,<MISSING>,35.659084,-88.828595,Monday 9:00 AM - 6:00 PM; Tuesday 9:00 AM - 6:00 PM; Wednesday 9:00 AM - 6:00 PM; Thursday 9:00 AM - 6:00 PM; Friday 9:00 AM - 6:00 PM; Saturday 9:00 AM - 5:00 PM; Sunday Closed
http://www.rnrtires.com/rnr-locations/,"Fredericksburg, VA",2042 Plank Rd,Fredericksburg,Virginia,22401,US,2647,5403717655,<MISSING>,38.295715,-77.49498,Monday 9:00 AM - 6:00 PM; Tuesday 9:00 AM - 6:00 PM; Wednesday 9:00 AM - 6:00 PM; Thursday 9:00 AM - 6:00 PM; Friday 9:00 AM - 6:00 PM; Saturday 9:00 AM - 5:00 PM; Sunday Closed
http://www.rnrtires.com/rnr-locations/,"Memphis, TN",2919 Covington Pike Road,Memphis,Tennessee,38128,US,2628,9013819020,<MISSING>,35.205332,-89.895482,Monday 9:00 AM - 6:00 PM; Tuesday 9:00 AM - 6:00 PM; Wednesday 9:00 AM - 6:00 PM; Thursday 9:00 AM - 6:00 PM; Friday 9:00 AM - 6:00 PM; Saturday 9:00 AM - 5:00 PM; Sunday Closed
http://www.rnrtires.com/rnr-locations/,"Louisville, KY",5201 Elzie Lane,Louisville,Kentucky,40258,US,2564,5029337979,<MISSING>,38.126652,-85.854457,Monday 9:00 AM - 7:00 PM; Tuesday 9:00 AM - 6:00 PM; Wednesday 10:00 AM - 5:00 PM; Thursday 9:00 AM - 7:00 PM; Friday 9:00 AM - 7:00 PM; Saturday 9:00 AM - 6:00 PM; Sunday Closed
http://www.rnrtires.com/rnr-locations/,"Clarksville, IN",1207 Eastern Blvd.,Clarksville,Indiana,47129,US,5252,8129134519,<MISSING>,38.306309,-85.768029,Monday 9:00 AM - 7:00 PM; Tuesday 9:00 AM - 6:00 PM; Wednesday 9:00 AM - 5:00 PM; Thursday 9:00 AM - 6:00 PM; Friday 9:00 AM - 7:00 PM; Saturday 9:00 AM - 6:00 PM; Sunday Closed
http://www.rnrtires.com/rnr-locations/,"Blytheville, AR",338 N. 6th St.,Blytheville,Arkansas,72315,US,2486,8707765344,<MISSING>,35.931175,-89.908869,Monday 9:00 AM - 6:00 PM; Tuesday 9:00 AM - 6:00 PM; Wednesday 9:00 AM - 6:00 PM; Thursday 9:00 AM - 6:00 PM; Friday 9:00 AM - 6:00 PM; Saturday 9:00 AM - 5:00 PM; Sunday Closed
http://www.rnrtires.com/rnr-locations/,"W. Monroe, LA",703 Thomas Rd.,W. Monroe,Louisiana,71292,US,2570,3188553992,<MISSING>,32.49759,-92.156882,Monday 9:00 AM - 6:00 PM; Tuesday 9:00 AM - 6:00 PM; Wednesday 9:00 AM - 6:00 PM; Thursday 9:00 AM - 6:00 PM; Friday 9:00 AM - 6:00 PM; Saturday 9:00 AM - 5:00 PM; Sunday Closed
http://www.rnrtires.com/rnr-locations/,"Alexandria, LA",3904 Coliseum Blvd.,Alexandria,Louisiana,71303,US,2560,3187046018,<MISSING>,31.298795,-92.486479,Monday 9:00 AM - 6:00 PM; Tuesday 9:00 AM - 6:00 PM; Wednesday 9:00 AM - 6:00 PM; Thursday 9:00 AM - 6:00 PM; Friday 9:00 AM - 6:00 PM; Saturday 9:00 AM - 5:00 PM; Sunday Closed
http://www.rnrtires.com/rnr-locations/,"Paducah, KY",5320 Hinkleville Road,Paducah,KY,42001,US,6391,2704155635,<MISSING>,37.070757,-88.704291,Monday 9:00 AM - 6:00 PM; Tuesday 9:00 AM - 6:00 PM; Wednesday 9:00 AM - 6:00 PM; Thursday 9:00 AM - 6:00 PM; Friday 9:00 AM - 6:00 PM; Saturday 9:00 AM - 5:00 PM; Sunday Closed
http://www.rnrtires.com/rnr-locations/,"Erlanger, KY",4512 Dixie Hwy,Erlanger,Kentucky,41018,US,2873,8594317777,<MISSING>,39.006406,-84.615111,Monday 10:00 AM - 7:00 PM; Tuesday 10:00 AM - 7:00 PM; Wednesday 10:00 AM - 7:00 PM; Thursday 10:00 AM - 7:00 PM; Friday 10:00 AM - 7:00 PM; Saturday 9:00 AM - 6:00 PM; Sunday Closed
http://www.rnrtires.com/rnr-locations/,"Cincinnati, OH",4394 Eastgate Sq. Suite 1040,Cincinnati,Ohio,45245,US,2604,5139439005,<MISSING>,39.092586,-84.268402,Monday 10:00 AM - 7:00 PM; Tuesday 10:00 AM - 7:00 PM; Wednesday 10:00 AM - 7:00 PM; Thursday 10:00 AM - 7:00 PM; Friday 10:00 AM - 7:00 PM; Saturday 9:00 AM - 6:00 PM; Sunday Closed
http://www.rnrtires.com/rnr-locations/,"Evansville, IN",2909 Covert Ave Suite C,Evansville,Indiana,47714,US,2548,8124777467,<MISSING>,37.954842,-87.513793,Monday 9:00 AM - 6:00 PM; Tuesday 9:00 AM - 6:00 PM; Wednesday 9:00 AM - 6:00 PM; Thursday 9:00 AM - 6:00 PM; Friday 9:00 AM - 6:00 PM; Saturday 9:00 AM - 5:00 PM; Sunday Closed
http://www.rnrtires.com/rnr-locations/,"Jonesboro, AR",1848 E Highland Dr,Jonesboro,Arkansas,72401,US,2500,8709728802,<MISSING>,35.821589,-90.683156,Monday 9:00 AM - 6:00 PM; Tuesday 9:00 AM - 6:00 PM; Wednesday 9:00 AM - 6:00 PM; Thursday 9:00 AM - 6:00 PM; Friday 9:00 AM - 6:00 PM; Saturday 9:00 AM - 5:00 PM; Sunday Closed
http://www.rnrtires.com/rnr-locations/,"Ruston, LA",501 S. Vienna,Ruston,Louisiana,71270,US,2568,3182247036,<MISSING>,32.524435,-92.637989,Monday 9:00 AM - 6:00 PM; Tuesday 9:00 AM - 6:00 PM; Wednesday 9:00 AM - 6:00 PM; Thursday 9:00 AM - 6:00 PM; Friday 9:00 AM - 6:00 PM; Saturday 9:00 AM - 5:00 PM; Sunday Closed
http://www.rnrtires.com/rnr-locations/,"Paragould, AR",1601 W Kingshighway,Paragould,Arkansas,72450,US,2507,8702365705,<MISSING>,36.053523,-90.50716,Monday 9:00 AM - 6:00 PM; Tuesday 9:00 AM - 6:00 PM; Wednesday 9:00 AM - 6:00 PM; Thursday 9:00 AM - 6:00 PM; Friday 9:00 AM - 6:00 PM; Saturday 9:00 AM - 5:00 PM; Sunday Closed
http://www.rnrtires.com/rnr-locations/,"Lake Charles, LA",2870 Derek Dr,Lake Charles,Louisiana,70607,US,6441,3376026191,<MISSING>,30.193721,-93.177229,Monday 9:00 AM - 6:00 PM; Tuesday 9:00 AM - 6:00 PM; Wednesday 9:00 AM - 6:00 PM; Thursday 9:00 AM - 6:00 PM; Friday 9:00 AM - 6:00 PM; Saturday 9:00 AM - 5:00 PM; Sunday Closed
http://www.rnrtires.com/rnr-locations/,"Cape Girardeau, MO",402 S. Kingshighway St.,Cape Girardeau,Missouri,63703,US,2572,5732715038,<MISSING>,37.298127,-89.553682,Monday 9:00 AM - 6:00 PM; Tuesday 9:00 AM - 6:00 PM; Wednesday 9:00 AM - 6:00 PM; Thursday 9:00 AM - 6:00 PM; Friday 9:00 AM - 6:00 PM; Saturday 9:00 AM - 5:00 PM; Sunday Closed
http://www.rnrtires.com/rnr-locations/,"Marion, IL",2402 Williamson County Pkwy Suite A,Marion,Illinois,62959,US,2546,6189930600,<MISSING>,37.746339,-88.969068,Monday 9:00 AM - 6:00 PM; Tuesday 9:00 AM - 6:00 PM; Wednesday 9:00 AM - 6:00 PM; Thursday 9:00 AM - 6:00 PM; Friday 9:00 AM - 6:00 PM; Saturday 9:00 AM - 5:00 PM; Sunday Closed
http://www.rnrtires.com/rnr-locations/,"Poplar Bluff, MO",1880 N Westwood Blvd.,Poplar Bluff,Missouri,63901,US,5324,5736092699,<MISSING>,36.774131,-90.419754,Monday 9:00 AM - 6:00 PM; Tuesday 9:00 AM - 6:00 PM; Wednesday 9:00 AM - 6:00 PM; Thursday 9:00 AM - 6:00 PM; Friday 9:00 AM - 6:00 PM; Saturday 9:00 AM - 5:00 PM; Sunday Closed
http://www.rnrtires.com/rnr-locations/,"Jacksonville, AR",601 N JP Wright Loop Rd,Jacksonville,Arkansas,72076,US,2498,5019827655,<MISSING>,34.883234,-92.105406,Monday 9:00 AM - 6:00 PM; Tuesday 9:00 AM - 6:00 PM; Wednesday 9:00 AM - 6:00 PM; Thursday 9:00 AM - 6:00 PM; Friday 9:00 AM - 6:00 PM; Saturday 9:00 AM - 5:00 PM; Sunday Closed
http://www.rnrtires.com/rnr-locations/,"Little Rock (Mabelvale), AR",10215 Mabelvale Plaza Dr. Ste 103,Little Rock,Arkansas,72209,US,2502,5015700698,<MISSING>,34.666904,-92.379047,Monday 9:00 AM - 6:00 PM; Tuesday 9:00 AM - 6:00 PM; Wednesday 9:00 AM - 6:00 PM; Thursday 9:00 AM - 6:00 PM; Friday 9:00 AM - 6:00 PM; Saturday 9:00 AM - 5:00 PM; Sunday Closed
http://www.rnrtires.com/rnr-locations/,"Franklin, IN",55 S. Morton Street,Franklin,Indiana,46131,US,2550,3178688400,<MISSING>,39.469882,-86.058441,Monday 9:00 AM - 6:00 PM; Tuesday 9:00 AM - 6:00 PM; Wednesday 9:00 AM - 6:00 PM; Thursday 9:00 AM - 6:00 PM; Friday 9:00 AM - 6:00 PM; Saturday 9:00 AM - 5:00 PM; Sunday Closed
http://www.rnrtires.com/rnr-locations/,"Little Rock (Markham), AR",11324 W. Markham,Little Rock,Arkansas,72211,US,2505,5012239993,<MISSING>,34.754354,-92.399563,Monday 9:00 AM - 6:00 PM; Tuesday 9:00 AM - 6:00 PM; Wednesday 9:00 AM - 6:00 PM; Thursday 9:00 AM - 6:00 PM; Friday 9:00 AM - 6:00 PM; Saturday 9:00 AM - 5:00 PM; Sunday Closed
http://www.rnrtires.com/rnr-locations/,"Monroeville, PA",3944 William Penn Hwy,Monroeville,Pennsylvania,15146,US,2610,4123496900,<MISSING>,40.437583,-79.775506,Monday 10:00 AM - 6:00 PM; Tuesday 10:00 AM - 6:00 PM; Wednesday 10:00 AM - 6:00 PM; Thursday 10:00 AM - 6:00 PM; Friday 10:00 AM - 6:00 PM; Saturday 10:00 AM - 5:00 PM; Sunday Closed
http://www.rnrtires.com/rnr-locations/,"Conway, AR",1080 Fendley Drive,Conway,Arkansas,72032,US,2488,5013277655,<MISSING>,35.107485,-92.43954,Monday 9:00 AM - 6:00 PM; Tuesday 9:00 AM - 6:00 PM; Wednesday 9:00 AM - 6:00 PM; Thursday 9:00 AM - 6:00 PM; Friday 9:00 AM - 6:00 PM; Saturday 9:00 AM - 5:00 PM; Sunday Closed
http://www.rnrtires.com/rnr-locations/,Bossier City,2744 Barksdale Blvd.,Bossier City,Louisiana,71112,US,4877,3185847310,<MISSING>,32.500873,-93.694032,Monday 9:00 AM - 6:00 PM; Tuesday 9:00 AM - 6:00 PM; Wednesday 9:00 AM - 6:00 PM; Thursday 9:00 AM - 6:00 PM; Friday 9:00 AM - 6:00 PM; Saturday 9:00 AM - 5:00 PM; Sunday Closed
http://www.rnrtires.com/rnr-locations/,"Beaumont, TX",4710 College St.,Beaumont,Texas,77707,US,2735,4092395615,<MISSING>,30.068033,-94.144658,Monday 9:00 AM - 6:00 PM; Tuesday 9:00 AM - 6:00 PM; Wednesday 9:00 AM - 6:00 PM; Thursday 9:00 AM - 6:00 PM; Friday 9:00 AM - 6:00 PM; Saturday 9:00 AM - 5:00 PM; Sunday Closed
http://www.rnrtires.com/rnr-locations/,"Marion, OH",1379 Harding Highway East,Marion,OH,43302,US,7028,7403098473,<MISSING>,40.589231,-83.093391,Monday 9:00 AM - 7:00 PM; Tuesday 9:00 AM - 7:00 PM; Wednesday 9:00 AM - 7:00 PM; Thursday 9:00 AM - 7:00 PM; Friday 9:00 AM - 7:00 PM; Saturday 9:00 AM - 5:00 PM; Sunday Closed
http://www.rnrtires.com/rnr-locations/,"Hot Springs, AR",2282 Albert Pike Rd.,Hot Springs,Arkansas,71913,US,2496,5017604074,<MISSING>,34.492534,-93.105146,Monday 9:00 AM - 6:00 PM; Tuesday 9:00 AM - 6:00 PM; Wednesday 9:00 AM - 6:00 PM; Thursday 9:00 AM - 6:00 PM; Friday 9:00 AM - 6:00 PM; Saturday 9:00 AM - 5:00 PM; Sunday Closed
http://www.rnrtires.com/rnr-locations/,"West Plains, MO",1709 Porter Wagoner Blvd.,West Plains,Missouri,65775,US,2584,4172558473,<MISSING>,36.746641,-91.872692,Monday 9:00 AM - 6:00 PM; Tuesday 9:00 AM - 6:00 PM; Wednesday 9:00 AM - 6:00 PM; Thursday 9:00 AM - 6:00 PM; Friday 9:00 AM - 6:00 PM; Saturday 9:00 AM - 5:00 PM; Sunday Closed
http://www.rnrtires.com/rnr-locations/,"Texarkana, TX",3905 New Boston Rd,Texarkana,TX,75501,US,6926,9032557882,<MISSING>,33.442893,-94.099344,Monday 9:00 AM - 6:00 PM; Tuesday 9:00 AM - 6:00 PM; Wednesday 9:00 AM - 6:00 PM; Thursday 9:00 AM - 6:00 PM; Friday 9:00 AM - 6:00 PM; Saturday 9:00 AM - 5:00 PM; Sunday Closed
http://www.rnrtires.com/rnr-locations/,"Fairview Heights, IL",328 Lincoln Highway,Fairview Heights,Illinois,62208,US,2544,6182063200,<MISSING>,38.592285,-89.979612,Monday 9:00 AM - 6:00 PM; Tuesday 9:00 AM - 6:00 PM; Wednesday 9:00 AM - 6:00 PM; Thursday 9:00 AM - 6:00 PM; Friday 9:00 AM - 6:00 PM; Saturday 9:00 AM - 5:00 PM; Sunday Closed
http://www.rnrtires.com/rnr-locations/,"Lufkin, TX",3110 S. John Redditt Drive,Lufkin,TX,75904,US,7024,9366321989,<MISSING>,31.307811,-94.728791,Monday 9:00 AM - 7:00 PM; Tuesday 9:00 AM - 7:00 PM; Wednesday 9:00 AM - 7:00 PM; Thursday 9:00 AM - 7:00 PM; Friday 9:00 AM - 7:00 PM; Saturday 9:00 AM - 5:00 PM; Sunday Closed
http://www.rnrtires.com/rnr-locations/,"St. Louis, MO",9025 Page Ave.,St. Louis,Missouri,63114,US,2582,3147433500,<MISSING>,38.687085,-90.358397,Monday 9:00 AM - 6:00 PM; Tuesday 9:00 AM - 6:00 PM; Wednesday 9:00 AM - 6:00 PM; Thursday 9:00 AM - 6:00 PM; Friday 9:00 AM - 6:00 PM; Saturday 9:00 AM - 5:00 PM; Sunday Closed
http://www.rnrtires.com/rnr-locations/,"Alton, IL",2833 Homer Adams Parkway,Alton,Illinois,62002,US,6393,6184338600,<MISSING>,38.915305,-90.143582,Monday 9:00 AM - 6:00 PM; Tuesday 9:00 AM - 6:00 PM; Wednesday 9:00 AM - 6:00 PM; Thursday 9:00 AM - 6:00 PM; Friday 9:00 AM - 6:00 PM; Saturday 9:00 AM - 5:00 PM; Sunday Closed
http://www.rnrtires.com/rnr-locations/,"Tyler, TX",2110 West SW Loop #323,Tyler,Texas,75701,US,5740,9037072012,<MISSING>,32.303004,-95.327746,Monday 9:00 AM - 7:00 PM; Tuesday 9:00 AM - 7:00 PM; Wednesday 9:00 AM - 7:00 PM; Thursday 9:00 AM - 7:00 PM; Friday 9:00 AM - 7:00 PM; Saturday 9:00 AM - 5:00 PM; Sunday Closed
http://www.rnrtires.com/rnr-locations/,"Ft. Smith, AR",6612 Phoenix Ave,Ft. Smith,Arkansas,72903,US,2492,4794521717,<MISSING>,35.347469,-94.358974,Monday 9:00 AM - 6:00 PM; Tuesday 9:00 AM - 6:00 PM; Wednesday 9:00 AM - 6:00 PM; Thursday 9:00 AM - 6:00 PM; Friday 9:00 AM - 6:00 PM; Saturday 9:00 AM - 5:00 PM; Sunday Closed
http://www.rnrtires.com/rnr-locations/,"Van Buren, AR",2421 Fayetteville Rd.,Van Buren,Arkansas,72956,US,4874,4792622679,<MISSING>,35.472676,-94.356179,Monday 9:00 AM - 6:00 PM; Tuesday 9:00 AM - 6:00 PM; Wednesday 9:00 AM - 6:00 PM; Thursday 9:00 AM - 6:00 PM; Friday 9:00 AM - 6:00 PM; Saturday 9:00 AM - 5:00 PM; Sunday Closed
http://www.rnrtires.com/rnr-locations/,"Springfield, MO",5640 S. Campbell,Spring Field,Missouri,65803,US,6438,4178890427,<MISSING>,37.113508,-93.296639,Monday 9:00 AM - 7:00 PM; Tuesday 9:00 AM - 7:00 PM; Wednesday 9:00 AM - 7:00 PM; Thursday 9:00 AM - 7:00 PM; Friday 9:00 AM - 7:00 PM; Saturday 9:00 AM - 5:00 PM; Sunday Closed
http://www.rnrtires.com/rnr-locations/,"Springfield, MO",2545 N. Glenstone,Springfield,Missouri,65803,US,2580,4178691225,<MISSING>,37.243199,-93.261517,Monday 9:00 AM - 6:00 PM; Tuesday 9:00 AM - 6:00 PM; Wednesday 9:00 AM - 6:00 PM; Thursday 9:00 AM - 6:00 PM; Friday 9:00 AM - 6:00 PM; Saturday 9:00 AM - 5:00 PM; Sunday Closed
http://www.rnrtires.com/rnr-locations/,"Fayetteville, AR",2870 N. College,Fayetteville,Arkansas,72703,US,2490,4797180500,<MISSING>,36.103303,-94.147544,Monday 9:00 AM - 6:00 PM; Tuesday 9:00 AM - 6:00 PM; Wednesday 9:00 AM - 6:00 PM; Thursday 9:00 AM - 6:00 PM; Friday 9:00 AM - 6:00 PM; Saturday 9:00 AM - 5:00 PM; Sunday Closed
http://www.rnrtires.com/rnr-locations/,"Springdale, AR",767 S 48th St,Springdale,Arkansas,72762,US,8840,4793213395,<MISSING>,36.179203,-94.182796,Monday 9:00 AM - 6:00 PM; Tuesday 9:00 AM - 6:00 PM; Wednesday 9:00 AM - 6:00 PM; Thursday 9:00 AM - 6:00 PM; Friday 9:00 AM - 6:00 PM; Saturday 9:00 AM - 5:00 PM; Sunday Closed
http://www.rnrtires.com/rnr-locations/,"Rogers, AR",817 W. Walnut,Rogers,Arkansas,72756,US,2509,4796361441,<MISSING>,36.333934,-94.126726,Monday 9:00 AM - 6:00 PM; Tuesday 9:00 AM - 6:00 PM; Wednesday 9:00 AM - 6:00 PM; Thursday 9:00 AM - 6:00 PM; Friday 9:00 AM - 6:00 PM; Saturday 9:00 AM - 5:00 PM; Sunday Closed
http://www.rnrtires.com/rnr-locations/,"Bryan, TX",1111 S. Texas Ave.,Bryan,Texas,77803,US,2632,9793612200,<MISSING>,30.661272,-96.371445,Monday 9:00 AM - 7:00 PM; Tuesday 10:00 AM - 7:00 PM; Wednesday 10:00 AM - 6:00 PM; Thursday 10:00 AM - 7:00 PM; Friday 9:00 AM - 7:00 PM; Saturday 9:00 AM - 5:00 PM; Sunday Closed
http://www.rnrtires.com/rnr-locations/,"Joplin, MO",2301 N. Rangeline Rd.,Joplin,Missouri,64801,US,2576,4175533440,<MISSING>,37.109665,-94.476172,Monday 9:00 AM - 6:00 PM; Tuesday 9:00 AM - 6:00 PM; Wednesday 9:00 AM - 6:00 PM; Thursday 9:00 AM - 6:00 PM; Friday 9:00 AM - 6:00 PM; Saturday 9:00 AM - 5:00 PM; Sunday Closed
http://www.rnrtires.com/rnr-locations/,"Muskogee, OK",1906 N. Main St.,Muskogee,Oklahoma,74401,US,2606,9186814002,<MISSING>,35.769927,-95.35816,Monday 9:00 AM - 6:00 PM; Tuesday 9:00 AM - 6:00 PM; Wednesday 9:00 AM - 6:00 PM; Thursday 9:00 AM - 6:00 PM; Friday 9:00 AM - 6:00 PM; Saturday 9:00 AM - 5:00 PM; Sunday Closed
http://www.rnrtires.com/rnr-locations/,"Broken Arrow, OK",1289 E. Kenosha St.,Broken Arrow,Oklahoma,74012,US,2877,9189402929,<MISSING>,36.060441,-95.77591,Monday 9:00 AM - 6:00 PM; Tuesday 9:00 AM - 6:00 PM; Wednesday 9:00 AM - 6:00 PM; Thursday 9:00 AM - 6:00 PM; Friday 9:00 AM - 6:00 PM; Saturday 9:00 AM - 5:00 PM; Sunday Closed
http://www.rnrtires.com/rnr-locations/,"Tulsa, OK",7405 E. Admiral Pl.,Tulsa,Oklahoma,74115,US,2879,9189869889,<MISSING>,36.16076,-95.893577,Monday 9:00 AM - 6:00 PM; Tuesday 9:00 AM - 6:00 PM; Wednesday 9:00 AM - 6:00 PM; Thursday 9:00 AM - 6:00 PM; Friday 9:00 AM - 6:00 PM; Saturday 9:00 AM - 5:00 PM; Sunday Closed
http://www.rnrtires.com/rnr-locations/,"Tulsa, OK",5301 S Peoria Ave,tulsa,oklahoma,74105,US,8850,9183924488,<MISSING>,36.085824,-95.975244,Monday 9:00 AM - 7:00 PM; Tuesday 9:00 AM - 7:00 PM; Wednesday 9:00 AM - 7:00 PM; Thursday 9:00 AM - 7:00 PM; Friday 9:00 AM - 7:00 PM; Saturday 9:00 AM - 5:00 PM; Sunday Closed
http://www.rnrtires.com/rnr-locations/,"Corpus Christi, TX",1660 S Padre Island Drive,Corpus Christi,Texas,,US,9295,3614207085,<MISSING>,27.742003,-97.438516,Monday 9:00 AM - 6:00 PM; Tuesday 9:00 AM - 6:00 PM; Wednesday 9:00 AM - 6:00 PM; Thursday 9:00 AM - 6:00 PM; Friday 9:00 AM - 7:00 PM; Saturday 9:00 AM - 6:00 PM; Sunday Closed
http://www.rnrtires.com/rnr-locations/,"Austin, TX",8120 Research Blvd. #114,Austin,Texas,78758,US,2630,5123749933,<MISSING>,30.353204,-97.715664,Monday 10:00 AM - 7:00 PM; Tuesday 10:00 AM - 7:00 PM; Wednesday 10:00 AM - 7:00 PM; Thursday 10:00 AM - 7:00 PM; Friday 10:00 AM - 7:00 PM; Saturday 9:00 AM - 6:00 PM; Sunday Closed
http://www.rnrtires.com/rnr-locations/,"Killeen, TX",1509 S. Fort Hood Street,Killeen,Texas,76542,US,11037,2545262200,<MISSING>,31.103548,-97.750201,Monday 9:00 AM - 7:00 PM; Tuesday 10:00 AM - 7:00 PM; Wednesday 10:00 AM - 6:00 PM; Thursday 10:00 AM - 7:00 PM; Friday 9:00 AM - 7:00 PM; Saturday 9:00 AM - 5:00 PM; Sunday Closed
http://www.rnrtires.com/rnr-locations/,"Raytown, MO",8910 E. 350 Highway,Raytown,Missouri,64133,US,2578,8163406688,<MISSING>,38.998178,-94.478362,Monday 9:00 AM - 6:00 PM; Tuesday 9:00 AM - 6:00 PM; Wednesday 9:00 AM - 6:00 PM; Thursday 9:00 AM - 6:00 PM; Friday 9:00 AM - 6:00 PM; Saturday 9:00 AM - 5:00 PM; Sunday Closed
http://www.rnrtires.com/rnr-locations/,"Gladstone, MO",5828 N. Oak Trafficway,Gladstone,Missouri,64118,US,2574,8163185400,<MISSING>,39.200891,-94.576932,Monday 9:00 AM - 6:00 PM; Tuesday 9:00 AM - 6:00 PM; Wednesday 9:00 AM - 6:00 PM; Thursday 9:00 AM - 6:00 PM; Friday 9:00 AM - 6:00 PM; Saturday 9:00 AM - 5:00 PM; Sunday Closed
http://www.rnrtires.com/rnr-locations/,"Moore, OK",1308 N. Eastern,Moore,OK,73160,US,6220,4057900877,<MISSING>,35.349506,-97.476449,Monday 9:00 AM - 6:00 PM; Tuesday 9:00 AM - 6:00 PM; Wednesday 9:00 AM - 6:00 PM; Thursday 9:00 AM - 6:00 PM; Friday 9:00 AM - 6:00 PM; Saturday 9:00 AM - 5:00 PM; Sunday Closed
http://www.rnrtires.com/rnr-locations/,"Oklahoma City, OK",6301 S. Western Ave.,Oklahoma City,Oklahoma,73139,US,2608,4056019850,<MISSING>,35.403078,-97.530729,Monday 9:00 AM - 6:00 PM; Tuesday 9:00 AM - 6:00 PM; Wednesday 9:00 AM - 6:00 PM; Thursday 9:00 AM - 6:00 PM; Friday 9:00 AM - 6:00 PM; Saturday 9:00 AM - 5:00 PM; Sunday Closed
http://www.rnrtires.com/rnr-locations/,"Oklahoma City, OK",3207 NW 23rd Street,Oklahoma City,,73107,US,10936,4057039330,<MISSING>,35.493462,-97.572859,Monday 9:00 AM - 6:00 PM; Tuesday 9:00 AM - 6:00 PM; Wednesday 9:00 AM - 6:00 PM; Thursday 9:00 AM - 6:00 PM; Friday 9:00 AM - 6:00 PM; Saturday 9:00 AM - 5:00 PM; Sunday Closed
http://www.rnrtires.com/rnr-locations/,"Saint joseph, Mo",519 S. Belt Hwy,"St, Joseph",missouri,,US,10842,8165962006,<MISSING>,39.763023,-94.803433,Monday 9:00 AM - 6:00 PM; Tuesday 9:00 AM - 6:00 PM; Wednesday 9:00 AM - 6:00 PM; Thursday 9:00 AM - 6:00 PM; Friday 9:00 AM - 6:00 PM; Saturday 9:00 AM - 5:00 PM; Sunday Closed
http://www.rnrtires.com/rnr-locations/,"Topeka, KS",2040 SW Topeka Blvd,Topeka,Kansas,66612,US,4044,7852156060,<MISSING>,39.031308,-95.682523,Monday 9:00 AM - 6:00 PM; Tuesday 9:00 AM - 6:00 PM; Wednesday 9:00 AM - 6:00 PM; Thursday 9:00 AM - 6:00 PM; Friday 9:00 AM - 6:00 PM; Saturday 9:00 AM - 5:00 PM; Sunday Closed
http://www.rnrtires.com/rnr-locations/,"Wichita (Broadway), KS",5010 S. Broadway,Wichita,Kansas,67216,US,2738,3164403335,<MISSING>,37.604198,-97.333415,Monday 9:00 AM - 6:00 PM; Tuesday 9:00 AM - 6:00 PM; Wednesday 9:00 AM - 6:00 PM; Thursday 9:00 AM - 6:00 PM; Friday 9:00 AM - 6:00 PM; Saturday 9:00 AM - 5:00 PM; Sunday Closed
http://www.rnrtires.com/rnr-locations/,"Wichita, KS",101 S. West St.,Wichita,Kansas,67213,US,2558,3162952323,<MISSING>,37.683723,-97.389788,Monday 9:00 AM - 6:00 PM; Tuesday 9:00 AM - 6:00 PM; Wednesday 9:00 AM - 6:00 PM; Thursday 9:00 AM - 6:00 PM; Friday 9:00 AM - 6:00 PM; Saturday 9:00 AM - 5:00 PM; Sunday Closed
http://www.rnrtires.com/rnr-locations/,"Laredo, TX",2203 Pine Street,Laredo,TX,78046,US,10020,9565397550,<MISSING>,27.480158,-99.472909,Monday 9:00 AM - 6:00 PM; Tuesday 9:00 AM - 6:00 PM; Wednesday 9:00 AM - 6:00 PM; Thursday 9:00 AM - 6:00 PM; Friday 9:00 AM - 6:00 PM; Saturday 9:00 AM - 5:00 PM; Sunday Closed
http://www.rnrtires.com/rnr-locations/,"Abilene, TX",1357 S Danville,Abilene,texas,79605,US,8898,3252328280,<MISSING>,32.433748,-99.786409,Monday 9:00 AM - 6:00 PM; Tuesday 9:00 AM - 6:00 PM; Wednesday 9:00 AM - 6:00 PM; Thursday 9:00 AM - 6:00 PM; Friday 9:00 AM - 6:00 PM; Saturday 9:00 AM - 5:00 PM; Sunday Closed
http://www.rnrtires.com/rnr-locations/,"Hutchinson, KS",1418 E. 30th Ave.,Hutchinson,Kansas,67502,US,2552,6202598285,<MISSING>,38.087039,-97.900294,Monday 9:00 AM - 6:00 PM; Tuesday 9:00 AM - 6:00 PM; Wednesday 9:00 AM - 6:00 PM; Thursday 9:00 AM - 6:00 PM; Friday 9:00 AM - 6:00 PM; Saturday 9:00 AM - 5:00 PM; Sunday Closed
http://www.rnrtires.com/rnr-locations/,"Lincoln, NE",4300 North 27th Street,Lincoln,Nebraska,68521,US,7168,4029758133,<MISSING>,40.856116,-96.681488,Monday 9:00 AM - 6:00 PM; Tuesday 9:00 AM - 6:00 PM; Wednesday 9:00 AM - 6:00 PM; Thursday 9:00 AM - 6:00 PM; Friday 9:00 AM - 6:00 PM; Saturday 9:00 AM - 5:00 PM; Sunday Closed
http://www.rnrtires.com/rnr-locations/,"Lubbock, TX",8603 S University Ave,Lubbock,Texas,79423,US,6222,8067120640,<MISSING>,33.51644,-101.869561,Monday 9:00 AM - 6:00 PM; Tuesday 9:00 AM - 6:00 PM; Wednesday 9:00 AM - 6:00 PM; Thursday 9:00 AM - 6:00 PM; Friday 9:00 AM - 6:00 PM; Saturday 9:00 AM - 5:00 PM; Sunday Closed
http://www.rnrtires.com/rnr-locations/,"Lubbock, TX",309 N. University,Lubbock,Texas,79415,US,2741,8067713430,<MISSING>,33.602028,-101.870789,Monday 9:00 AM - 6:00 PM; Tuesday 9:00 AM - 6:00 PM; Wednesday 9:00 AM - 6:00 PM; Thursday 9:00 AM - 6:00 PM; Friday 9:00 AM - 6:00 PM; Saturday 9:00 AM - 5:00 PM; Sunday Closed
http://www.rnrtires.com/rnr-locations/,"Clovis, NM",1101 N. Main,Clovis,NM,88101,US,7026,5752183505,<MISSING>,34.409009,-103.204892,Monday 9:00 AM - 6:00 PM; Tuesday 9:00 AM - 6:00 PM; Wednesday 9:00 AM - 6:00 PM; Thursday 9:00 AM - 6:00 PM; Friday 9:00 AM - 6:00 PM; Saturday 9:00 AM - 5:00 PM; Sunday Closed
http://www.rnrtires.com/rnr-locations/,"Colorado Springs, CO",3240 East Platte Ave,Colorado Springs,Colorado,80909,US,9193,7196024767,<MISSING>,38.840336,-104.77019,Monday 9:00 AM - 7:00 PM; Tuesday 9:00 AM - 7:00 PM; Wednesday 9:00 AM - 7:00 PM; Thursday 9:00 AM - 7:00 PM; Friday 9:00 AM - 7:00 PM; Saturday 9:00 AM - 5:00 PM; Sunday Closed
http://www.rnrtires.com/rnr-locations/,"Grand Junction, CO",2865 North Avenue,Grand Junction,Colorado,81501,US,11912,<MISSING>,<MISSING>,39.076919,-108.521504,Monday 9:00 AM - 7:00 PM; Tuesday 9:00 AM - 7:00 PM; Wednesday 9:00 AM - 7:00 PM; Thursday 9:00 AM - 7:00 PM; Friday 9:00 AM - 7:00 PM; Saturday 9:00 AM - 5:00 PM; Sunday Closed
http://www.rnrtires.com/rnr-locations/,"Reno, NV",590 Kietzke Lane,Reno,Nevada,89502,US,11909,7757868473,<MISSING>,39.522227,-119.788761,Monday 9:00 AM - 6:00 PM; Tuesday 9:00 AM - 6:00 PM; Wednesday 9:00 AM - 6:00 PM; Thursday 9:00 AM - 6:00 PM; Friday 9:00 AM - 6:00 PM; Saturday 9:00 AM - 6:00 PM; Sunday Closed
http://www.rnrtires.com/rnr-locations/,"Puyallup, WA",15011 Meridian East Suite A,Puyallup,Washington,98375,US,2661,2538487655,<MISSING>,47.119847,-122.292528,Monday 9:00 AM - 6:00 PM; Tuesday 9:00 AM - 6:00 PM; Wednesday 9:00 AM - 6:00 PM; Thursday 9:00 AM - 6:00 PM; Friday 9:00 AM - 6:00 PM; Saturday 9:00 AM - 5:00 PM; Sunday Closed
