locator_domain,location_name,street_address,city,state,zip,country_code,store_number,phone,location_type,naics_code,latitude,longitude,hours_of_operation
brusters.com,Bridgewater,1525 Riverside Dr.,Beaver,PA,15009,US,1,,,,34.8966314,-117.0003033,
brusters.com,Hermitage,1688 East State St.,Hermitage,PA,16148,US,3,,,,41.2328887,-80.4786458,
brusters.com,Hopewell,2291 Brodhead Rd.,Aliquippa,PA,15001,US,4,,,,40.5860951,-80.259744,
brusters.com,Calcutta,49094 Calcutta Smithferry Rd,East Liverpool,OH,43920,US,6,,,,40.6766613,-80.57392039999999,
brusters.com,Marietta,3735 Trickum Rd.,Marietta,GA,30066,US,10,,,,34.0424023,-84.48212559999999,
brusters.com,Webster,1041 Ridge Road SR404,Webster,NY,14580,US,11,,,,43.2092628,-77.4536368,
brusters.com,Snellville,2324 Scenic Highway,Snellville,GA,30078,US,12,,,,33.8551992,-84.021183,
brusters.com,Conyers,"1172 Dogwood Drive, SE",Conyers,GA,30012,US,14,,,,33.6550026,-84.0076328,
brusters.com,Newnan,138 Newnan Station Drive,Newnan,GA,30265,US,16,,,,33.3977279,-84.7334132,
brusters.com,Beaufort,304 Robert Smalls Prky.,Beaufort,SC,29906,US,17,,,,32.4255878,-80.7295189,
brusters.com,Peters Twp.,444 Valley Brook Rd,McMurray,PA,15317,US,18,,,,40.4217485,-79.06815139999999,
brusters.com,Bloomington,4531 E 3rd St,Bloomington,IN,47401,US,27,,,,39.1646855,-86.4724471,
brusters.com,Woodstock,2905 Eagle Drive,Woodstock,GA,30189,US,31,,,,46.8724067,-96.73435409999999,
brusters.com,Ross Twp.,493 Lowries Run Road,Pittsburgh,PA,15237,US,34,,,,40.5340206,-80.05159979999999,
brusters.com,Suwanee,555 Peachtree Industrial Blvd.,Suwanee,GA,30024,US,39,,,,34.062028,-84.07675669999999,
brusters.com,Indian River Road,5317 Indian River Road,Virginia Beach,VA,23464,US,41,,,,36.7976856,-76.17633649999999,
brusters.com,Mall of Georgia,3256 Buford Drive,Buford,GA,30519,US,42,,,,34.0663816,-83.9886657,
brusters.com,New Stanton,South Center Ave & Painterville Road,New Stanton,PA,15672,US,45,,,,40.2093061,-79.6055198,
brusters.com,Richmond,9101 W. Staples Mill Road,Richmond,VA,23228,US,46,,,,37.6406704,-77.5148451,
brusters.com,Indian Trail,1590 Indian Trail Rd.,Norcross,GA,30093,US,47,,,,33.9222563,-84.1708179,
brusters.com,Dacula,2720 Braselton Hwy.,Dacula,GA,30019,US,49,,,,34.0510385,-83.92866769999999,
brusters.com,Glen Mills,1118 Smithbridge Rd.,Glen Mills,PA,19342,US,50,,,,39.8551316,-75.5398386,
brusters.com,Augusta,1115 Agerton Ln.,Augusta,GA,30909,US,53,,,,33.4864449,-82.07788719999999,
brusters.com,Roswell,675 W. Crossville Road Suite 144,Roswell,GA,30075,US,58,,,,34.0590112,-84.3812016,
brusters.com,Cartersville,183 Cherokee Place,Cartersville,GA,30121,US,59,,,,34.1712243,-84.7845261,
brusters.com,Lawrenceville-Suwanee,1702 Lawrenceville-Suwanee Rd.,Lawrenceville,GA,30043,US,60,,,,33.9915007,-84.0333673,
brusters.com,Albany,2822 Old Dawson Road,Albany,GA,31707,US,66,,,,31.6131534,-84.22123100000002,
brusters.com,Jodeco Road-McDonough,4244 Jodeco Road,McDonough,GA,30253,US,67,,,,33.4874664,-84.1762669,
brusters.com,Canton,101 Riverwalk Court,Canton,GA,30114,US,69,,,,34.0989523,-81.1484436,
brusters.com,Spartanburg,100 Peachshed Rd.,Spartanburg,SC,29307,US,71,,,,34.965682,-81.8938323,
brusters.com,Jonesboro,7181 Mount Zion Blvd,Jonesboro,GA,30236,US,72,,,,33.5587242,-84.32568719999999,
brusters.com,Decatur,2550 Lawrenceville Hwy.,Decatur,GA,30033,US,74,,,,33.821243,-84.26452599999999,
brusters.com,Sugarloaf,3380 Sugarloaf PKWY ,Lawrenceville,GA,30044,US,79,,,,33.92268,-84.01778900000001,
brusters.com,Roanoke,6498 Williamson Road,Roanoke,VA,24019,US,80,,,,37.3351251,-79.95553319999999,
brusters.com,Girard,1300 N. State Street,Girard,OH,44420,US,84,,,,41.9059886,-87.6290089,
brusters.com,Richmond 2,11221 Hull Street,Midlothian,VA,23112,US,86,,,,37.4360692,-77.6014974,
brusters.com,Ingomar,9600 Perry Hwy.,Pittsburgh,PA,15237,US,89,,,,40.5818827,-80.0371985,
brusters.com,Holcomb Bridge,8420 Holcomb Bridge Rd.,Alpharetta,GA,30022,US,90,,,,33.9853402,-84.2705527,
brusters.com,Rome,"1911 Shorter Ave., SW",Rome,GA,30165,US,92,,,,34.2694222,-85.2178351,
brusters.com,Easley,5152 Calhoun Memorial Hwy.,Easley,SC,29640,US,93,,,,34.824935,-82.5580828,
brusters.com,Lakeland,955 East CR540A,Lakeland,FL,33813,US,94,,,,27.9525681,-81.94881459999999,
brusters.com,Evans,516 N. Belair Rd.,Evans,GA,30809,US,95,,,,33.5354348,-82.13002949999999,
brusters.com,Cornelius,17029 Kenton Drive,Cornelius,NC,28031,US,97,,,,35.448294,-80.8909358,
brusters.com,Dillsburg  ,1 Tristan Drive,Dillsburg,PA,17019,US,101,,,,40.1341245,-77.0189092,
brusters.com,Due West-Marietta,3795 Due West Rd.,Marietta,GA,30064,US,102,,,,33.9650919,-84.66321669999999,
brusters.com,Cumming,878 Buford Road,Cumming,GA,30041,US,103,,,,37.5093982,-77.552548,
brusters.com,Knoxville,1043 Old Cedar Bluff Road,Knoxville,TN,37923,US,104,,,,35.94101819999999,-84.09302369999999,
brusters.com,Cobb Parkway - Smyrna,"2420 Cobb Parkway, SE",Smyrna,GA,30080,US,105,,,,33.8921318,-84.4780676,
brusters.com,Williamsburg,5289 John Tyler Highway,Williamsburg,VA,23185,US,106,,,,37.258164,-76.7378681,
brusters.com,Gainesville,165 John W Morrow Jr Pkwy,Gainesville,GA,30501,US,108,,,,34.2970484,-83.84193669999999,
brusters.com,Nashua,621 Amherst Street (Route 101A),Nashua,NH,03063,US,111,,,,42.8025586,-71.53922039999999,
brusters.com,Toco Hill,2095 Lavista Road,Atlanta,GA,30329,US,112,,,,33.8157181,-84.3162937,
brusters.com,Richmond 3,11501 Robious Road,North Chesterfield,VA,23235,US,114,,,,37.5207839,-77.6093428,
brusters.com,Greenville,6412 White Horse Rd.,Greenville,SC,29611,US,117,,,,34.8658027,-82.4631497,
brusters.com,Old Milton Parkway,3855 Old Milton Parkway,Alpharetta,GA,30005,US,119,,,,34.0617853,-84.24723449999999,
brusters.com,Sharon Rd,1540 Sharon Rd.,Cumming,GA,30041,US,120,,,,36.0683567,-80.28237229999999,
brusters.com,Woodruff Rd,1850 Woodruff Rd.,Greenville,SC,29607,US,121,,,,34.8195675,-82.26747449999999,
brusters.com,Columbus I,1654 Whittlesey Road,Columbus,GA,31904,US,128,,,,32.5362715,-84.96877049999999,
brusters.com,Glen Burnie,801 Aquahart Rd.,Glen Burnie,MD,21061,US,129,,,,39.15194260000001,-76.6177367,
brusters.com,Birmingham,5212 Caldwell Mill Rd.,Birmingham,AL,35242,US,130,,,,33.382527,-86.73768869999999,
brusters.com,Tucker,4535 Hugh Howell Rd.,Tucker,GA,30084,US,133,,,,33.8485718,-84.202968,
brusters.com,Austell,1845 Anderson Mill Rd,Austell,GA,30106,US,134,,,,33.84866,-84.60868289999999,
brusters.com,Old Alabama Road,3000 Old Alabama Road Suite 100,Alpharetta,GA,30022,US,139,,,,34.0226995,-84.2713053,
brusters.com,Jacksonville,12224 Atlantic Blvd.,Jacksonville,FL,32225,US,141,,,,30.318583,-81.48764129999999,
brusters.com,Montgomery,6835 Vaughn Road,Montgomery,AL,36117,US,144,,,,32.3402401,-86.1979984,
brusters.com,Mooresville,252 Williamson Road,Mooresville,NC,28117,US,146,,,,35.5877293,-80.8747806,
brusters.com,Pelham Road,207 Pelham Rd.,Greenville,SC,29615,US,148,,,,34.8666176,-82.3479546,
brusters.com,Auburn,2172 E. University Drive,Auburn,AL,36830,US,149,,,,32.6291718,-85.45329129999999,
brusters.com,Boiling Springs,2099 Boiling Springs Rd.,Boiling Springs,SC,29316,US,150,,,,35.0201048,-81.9632621,
brusters.com,Harrisonburg,221 University Blvd.,Harrisonburg,VA,22801,US,153,,,,38.4299365,-78.8493014,
brusters.com,Lower Roswell,2044 Lower Roswell Road,Marietta,GA,30060,US,154,,,,33.9491859,-84.4925971,
brusters.com,Anderson,3201 Martin Luther King Jr Blvd,Anderson,SC,29625,US,155,,,,38.5456825,-121.4645206,
brusters.com,Aston,3630 Concord Rd.,Aston,PA,19014,US,156,,,,39.991265,-76.654887,
brusters.com,Powhatan,2602 Anderson Hwy,Powhatan,VA,23139,US,158,,,,37.5237884,-77.8229246,
brusters.com,Matthews,545 West John Street,Matthews,NC,28105,US,160,,,,40.7651405,-73.5491498,
brusters.com,Virginia Beach Blvd,4921 Virginia Beach Blvd,Virginia Beach,VA,23462,US,162,,,,36.8433272,-76.14692459999999,
brusters.com,Titusville,855 Cheney Highway,Titusville,FL,32780,US,167,,,,28.5573019,-80.8121931,
brusters.com,Columbus II,3465-G Macon Road,Columbus,GA,31907,US,172,,,,32.4846331,-84.9384187,
brusters.com,Raleigh,10450 Durant Rd. Suite 100,Raleigh,NC,27614,US,174,,,,35.905027,-78.5886365,
brusters.com,Florence,116 N. Dunbarton Dr.,Florence,SC,29501,US,175,,,,34.1914406,-79.8375307,
brusters.com,Fayetteville,120 Hwy. 314,Fayetteville,GA,30214,US,177,,,,33.4649806,-84.450515,
brusters.com,Douglasville,6920 Douglas Blvd. Suite A,Douglasville,GA,30135,US,181,,,,33.7256908,-84.7566501,
brusters.com,Glasgow,2394 Pulaski Highway,Newark,DE,19702,US,185,,,,39.6048234,-75.74439450000001,
brusters.com,Camp Hill,3519 Hartzdale Dr.,Camp Hill,PA,17011,US,189,,,,40.2203509,-76.93277429999999,
brusters.com,Redan Road,4844 Redan Rd,Stone Mountain,GA,30088,US,190,,,,33.7619272,-84.1945751,
brusters.com,Seven Fields,510 N. Pointe Circle,Seven Fields,PA,16046,US,192,,,,39.2516116,-119.557224,
brusters.com,Chester,11731 Sherbert lane,Chester,VA,23831,US,199,,,,37.3548926,-77.4944664,
brusters.com,Wilmington,4414 S. 17th Street,Wilmington,NC,28412,US,200,,,,34.1752508,-77.8932868,
brusters.com,Hanover,1035 George Street,Hanover,PA,17331,US,202,,,,40.122549,-75.081249,
brusters.com,Tega Cay,2603 West Highway 160,Fort Mill,SC,29708,US,205,,,,35.0528026,-80.9923521,
brusters.com,Monroe,2166 Commerce Road,Monroe,NC,28110,US,206,,,,,,
brusters.com,Middletown,465 West Main St.,Middletown,DE,19709,US,211,,,,41.0485732,-73.55719520000001,
brusters.com,Huntsville,2100 Cecil Ashburn Drive,Huntsville,AL,35802,US,216,,,,34.67192259999999,-86.5359842,
brusters.com,Madison,12143 County Line Road,Madison,Al,35758,US,218,,,,34.732969,-86.7857564,
brusters.com,Greenwood,1204 Mathis Road,Greenwood,SC,29649,US,221,,,,34.2091259,-82.1881236,
brusters.com,Etters,560 Financial Way,Etters,PA,17319,US,222,,,,40.1764692,-76.83463859999999,
brusters.com,North Knoxville,906 East Emory Road,Knoxville,TN,37938,US,223,,,,36.0559039,-83.9862686,
brusters.com,Carolina Forest,3784 Renee Drive,Myrtle Beach,SC,29579,US,226,,,,33.759181,-78.96441930000002,
brusters.com,Jimmy Carter,6359 Jimmy Carter Blvd.,Norcross,GA,30071,US,227,,,,33.9315449,-84.22147799999999,
brusters.com,Prattville,1710 E. Main Street,Prattville,AL,36066,US,229,,,,35.8406742,-86.3636927,
brusters.com,Bell Creek,8309 Bell Creek Road,Mechanicsville,VA,23116,US,230,,,,37.6352187,-77.357209,
brusters.com,Greer,405 S. Buncombe Road,Greer,SC,29650,US,232,,,,34.9347559,-82.25240939999999,
brusters.com,Georgetown,104 N. Bradford Ln.,Georgetown,KY,40324,US,236,,,,38.1938279,-84.56232560000001,
brusters.com,Vestavia Hills,1008 Vestavia Parkway,Vestavia Hills,AL,35216,US,241,,,,33.4193093,-86.79965070000002,
brusters.com,Winter Springs,295 East State Road 434,Winter Springs,FL,32708,US,242,,,,28.6985973,-81.3020088,
brusters.com,Spring,7939 Louetta Road,Spring,TX,77379,US,247,,,,30.015116,-95.5336468,
brusters.com,Dothan,4388 Montgomery Highway,Dothan,AL,36303,US,255,,,,31.2654231,-85.4406973,
brusters.com,Grayson,1993 Rosebud Road,Grayson,GA,30017,US,258,,,,33.8956205,-83.9602247,
brusters.com,Stone Mountain,2688 Rockbridge Road,Stone Mountain,GA,30087,US,261,,,,33.8094686,-84.0967688,
brusters.com,Chattanooga,1406 Jenkins Road,Chattanooga,TN,37421,US,263,,,,35.0080638,-85.15257480000001,
brusters.com,New Tampa,20303 Bruce B Downs Blvd,Tampa,FL,33647,US,266,,,,28.1617444,-82.352712,
brusters.com,Nicholasville,111 North Plaza Drive,Nicholasville,KY,40356,US,267,,,,37.9035628,-84.56588649999999,
brusters.com,Frederick,6960 Crestwood Blvd.,Frederick,MD,21703,US,269,,,,39.3911641,-77.4230643,
brusters.com,Bowling Green,2712 Scottsville Rd.,Bowling Green,KY,42104,US,270,,,,36.9481704,-86.42341669999999,
brusters.com,Limerick,241 West Ridge Pike,Limerick,PA,19468,US,275,,,,40.2253025,-75.5158642,
brusters.com,Gaithersburg,18519 N. Frederick Ave.,Gaithersburg,MD,20879,US,278,,,,39.1612673,-77.2211767,
brusters.com,Camp Creek Parkway,3730 Car Mia Drive/#340,Atlanta,GA,30331,US,281,,,,33.6564551,-84.5108308,
brusters.com,Tallahassee,1709 West Tharpe St,Tallahassee,FL,32303,US,283,,,,30.4632189,-84.3144497,
brusters.com,Chambersburg,500 Gateway Avenue,Chambersburg,PA,17201,US,285,,,,39.9372105,-77.6336465,
brusters.com,Ocala,2707 East Silver Springs Blvd.,Ocala,FL,34480,US,286,,,,29.1889981,-82.1009986,
brusters.com,Altamonte Springs,901 N State Road 434,Altamonte Springs,FL,32714,US,289,,,,28.67934919999999,-81.4187147,
brusters.com,Mandarin,11701-60 San Jose Blvd.,Jacksonville,FL,32223,US,290,,,,30.1595795,-81.6317207,
brusters.com,Monroe,1431 Hwy 11 North,Monroe,GA,30656,US,292,,,,44.8413308,-79.3182899,
brusters.com,Spartanburg II,1644 John B White Sr Blvd,Spartanburg,SC,29301,US,294,,,,34.9234951,-81.9810298,
brusters.com,Hollywood,23825 Mervell Dean Road,Hollywood,MD,20636,US,298,,,,38.3227517,-76.54586309999999,
brusters.com,Trevose,1520 Brownsville Road,Trevose,PA,19053,US,299,,,,33.8115128,-84.73736149999999,
brusters.com,Hickory Flat,6870 Hickory Road,Woodstock,GA,30188,US,300,,,,34.1688266,-84.41531739999999,
brusters.com,Washington Twp.,305 Greentree Road,Sewell,NJ,08080,US,301,,,,39.7505911,-75.0775566,
brusters.com,Palm Coast,50 Plaza Drive,Palm Coast,FL,32137,US,302,,,,29.5547826,-81.2256596,
brusters.com,Audubon,2814 Egypt Rd.,Audubon,PA,19403,US,303,,,,40.1282491,-75.433403,
brusters.com,Williamsport,1600 E 3rd Street,Williamsport,PA,17701,US,308,,,,37.5737794,-122.3098149,
brusters.com,Panama City Beach,7101 Coastal Palms Blvd.,Panama City Beach,FL,32408,US,311,,,,30.1745126,-85.7604764,
brusters.com,Annapolis,1409 Forest Drive,Annapolis,MD,21403,US,313,,,,38.1662367,-85.69033379999999,
brusters.com,Carlisle,220 Penrose Place,Carlisle,PA,17013,US,314,,,,40.1922405,-77.1954007,
brusters.com,Henrietta,2755 East Henrietta Road,Henrietta,NY,14467,US,316,,,,43.066115,-77.6096,
brusters.com,Palm Bay,329 Malabar Road  NE,Palm Bay,FL,32907,US,319,,,,27.9992531,-80.66453229999999,
brusters.com,Destin,4655 Gulf Starr Drive,Destin,FL,32541,US,320,,,,30.3873899,-86.41060350000001,
brusters.com,Bethel Park,4940 Library Road,Bethel Park,PA,15102,US,324,,,,40.3438227,-80.027402,
brusters.com,Oakleaf-Jacksonville,9590 Applecross Rd. Suite 108,Jacksonville,FL,32222,US,325,,,,30.1964363,-81.8265646,
brusters.com,Town Center,2960 George Busbee Parkway,Kennesaw,GA,30144,US,329,,,,34.025923,-84.56719629999999,
brusters.com,Rocky Hill,7670 South Northshore Drive,Knoxville,TN,37919,US,333,,,,35.9032538,-84.0205781,
brusters.com,Culpeper,16170 Rogers Rd,Culpeper,VA,22701,US,336,,,,38.4749951,-77.9549029,
brusters.com,Indian Trail,531 Indian Trail Road South,Indian Trail,NC,28079,US,339,,,,35.0689154,-80.6774471,
brusters.com,Brentwood,10646 Concord Road,Brentwood,TN,37027,US,341,,,,35.9974582,-86.691332,
brusters.com,Peachtree City,103 Lexington Circle,Peachtree City,GA,30269,US,343,,,,40.4136729,-74.24830949999999,
brusters.com,Lilburn,5314 Five Forks Trickum Rd,Lilburn,GA,30047,US,345,,,,33.8435908,-84.1278261,
brusters.com,Dalton,1307 Dug Gap Road,Dalton,GA,30720,US,349,,,,34.7577435,-84.9901744,
brusters.com,Flat Shoals,4790 Flat Shoals Pkwy,Decatur,GA,30034,US,350,,,,33.6828093,-84.2318107,
brusters.com,Statesboro,995 Lovett Rd,Statesboro,GA,30458,US,351,,,,32.4353711,-81.76483759999999,
brusters.com,St. Augustine,3501-G Ponce De Leon Blvd.,St. Augustine,FL,32084,US,353,,,,25.7396974,-80.2584159,
brusters.com,Cypress,9963 Walker Street,Cypress,CA,90630,US,354,,,,33.8173934,-118.0378431,
brusters.com,Midtown,931 Monroe Drive,Atlanta,GA,30318,US,355,,,,33.7794269,-84.3675836,
brusters.com,Sandy Springs,226 Johnson Ferry Road NE,Sandy Springs,GA,30328,US,356,,,,33.9258826,-84.38036559999999,
brusters.com,Erie,3100 West 12th Street,Erie,PA,16505,US,357,,,,42.0976545,-80.1522208,
brusters.com,Cerritos,12246 East Artesia Blvd.,Artesia,CA,90701,US,358,,,,33.8747357,-118.1510549,
brusters.com,Apex,952 US 64 Hwy W,Apex,NC,27523,US,359,,,,35.745912,-78.8224918,
brusters.com,Vienna,2672D Avenir Place,Vienna,VA,22180,US,360,,,,38.881926,-77.228873,
brusters.com,Carter Hill,3011 Carter Hill Road,Montgomery,AL,36111,US,361,,,,32.3516737,-86.26282450000001,
brusters.com,Clermont,2450 E HWY 50 Building H,Clermont,FL,34711,US,362,,,,28.5480067,-81.7096955,
brusters.com,Durham,8200 Renaissance Parkway Suite 1002,Durham,NC,27713,US,363,,,,35.9042035,-78.9529534,
brusters.com,Waldorf,1276 Smallwood Drive W,Waldorf,MD,20603,US,364,,,,38.6127125,-76.929692,
brusters.com,Cypress TX,14131 Mueschke Road #201,Cypress,TX,77429,US,365,,,,29.9805344,-95.7173341,
brusters.com,Maryville,1400 W. Broadway,Maryville,TN,37801,US,366,,,,38.2477584,-85.7755293,
brusters.com,Duluth GA,2628 Pleasant Hill Road Suite 500,Duluth,GA,30096,US,367,,,,33.9716705,-84.14775949999999,
brusters.com,Cascade,"3695 Cascade Road, Suite F",Atlanta,GA,30331,US,368,,,,33.724976,-84.5083727,
brusters.com,Huntington Beach,7451 Warner Avenue Unit H,Huntington Beach,CA,92647,US,369,,,,33.7161097,-117.9984344,
brusters.com,Gilbert,709 West Ray Road,Gilbert,AZ,85233,US,370,,,,33.3203547,-111.8046444,
brusters.com,Robinson Township,5888 Unit #2 Steubenville Pike,McKees Rocks,PA,15136,US,371,,,,40.4492372,-80.141986,
brusters.com,Garden Grove,12879 Harbor Blvd.,Garden Grove,CA,92840,US,372,,,,33.7762577,-117.9171652,
brusters.com,Gibsonia,4937 William Flynn Hwy Route 8,Gibsonia,PA,15044,US,373,,,,40.604133,-79.947589,
brusters.com,Orange,510 North Tustin Street,Orange,CA,92867,US,374,,,,33.7953602,-117.8360201,
brusters.com, Torrance,2390 Crenshaw Blvd. Unit F,Torrance,CA,90501,US,375,,,,33.8222679,-118.3281591,
brusters.com,Highland,571 S. Highland Street,Memphis,TN,38111,US,376,,,,35.1159726,-89.9459092,
brusters.com,Hagerstown,100 Railway Lane,Hagerstown,MD,21740,US,377,,,,39.6298044,-77.7643853,
brusters.com,McKinney,7650 Stacy Road Suite 210,McKinney,TX,75070,US,378,,,,33.1528106,-96.71716529999999,
brusters.com,Arrowhead,17115 N 51st Ave,Glendale,AZ,85308,US,380,,,,33.6399825,-112.1685902,
brusters.com,Haverhill,130 Main Street,Haverhill,MA,01830,US,381,,,,40.7254607,-74.1448927,
brusters.com,Windermere,5855 Winter Garden  Vineland Road,Windermere,FL,34786,US,382,,,,28.4775013,-81.5730501,
brusters.com,Bruster's Frisco/Little Elm,"1648 FM 423, Suite 100",Frisco,TX,75033,US,383,,,,33.1552644,-96.890973,
brusters.com,Provo,2255 University Drive,Provo,UT,84604,US,384,,,,42.3097208,-83.0645025,
brusters.com,Guyana,32-33 Regent & Hinck St. Robbstown,Georgetown,Guyana,05924,US,555,,,,6.8115855,-58.16615569999999,
brusters.com,Tallahassee Satellite,2475 Apalachee Parkway,Tallahassee,FL,32301,US,805,,,,30.4274212,-84.2391578,
brusters.com,Korea 1,"18, Meokgeori 10-gil, Dongnam-gu		",Cheonan City,Chungceongnam do,Korea,US,806,,,,36.8177797,127.1556629,
brusters.com,Korea 2,"Bong Chun Dong, 729-22",Seoul,Korea,Korea,US,807,,,,,,
brusters.com,Korea 3 (Daedong Department),"44-1 Sangnam-dong, Seongsan-gu",Changwon-si,Gyeongsangnam-do,51498,US,808,,,,35.2189019,128.6895637,
brusters.com,Korea #4,"50-6, Ewhayeodae-gil, Seodaemun-gu",Seoul,Korea,,US,809,,,,37.5589875,126.9460446,
brusters.com,Nathan's Oceanside,3131 Long Beach Road,Oceanside,NY,11572,US,811,,,,40.6354885,-73.6400536,
brusters.com,Ft. Benning Satellite,1710 Ingersoll Street,Columbus,GA,31905,US,814,,,,39.9745025,-75.1643236,
brusters.com,Simpsonville Satellite,3841 Grandview Drive,Simpsonville,SC,29680,US,815,,,,41.193669,-111.958281,
brusters.com,Montgomery Satellite,10684 Chantilly Parkway                     ,Montgomery,AL,36117,US,818,,,,32.3563296,-86.1331096,
brusters.com,Severna Park Satellite,"160 Ritchie Hwy., Suite A-12",Severna,MD,21146,US,820,,,,39.098557,-76.566194,
brusters.com,Dunwoody Bruster's,5503 Chamblee Dunwoody Road,Dunwoody,GA,30338,US,823,,,,33.9490542,-84.3339743,
brusters.com,Guyana 2,Lot 203 Camp Street,Georgetown,Guyana,5925,US,901,,,,31.6058899,-89.2041517,
