locator_domain,location_name,street_address,city,state,zip,country_code,store_number,phone,location_type,naics_code,latitude,longitude,hours_of_operation
striderite.com,1 . DILLARDS S030301,"1105 ST LOUIS GALLERIA
GALLERIA",ST LOUIS,MO,63117,United States,7948,,,,38.63702,-90.346992,
striderite.com,2 . LAURIE'S GREAT FEET,1455 ST LOUIS GALLERIA,ST LOUIS,MO,63117,United States,7957,,,,38.6329957,-90.3487945,
striderite.com,3 . LAURIES SHOES,9916 MANCHESTER RD,ST LOUIS,MO,63122,United States,7568,314-961-1642,,,38.604664,-90.378938,
striderite.com,4 . DILLARDS S030305,220 S COUNTY CENTERWAY,ST LOUIS,MO,63129,United States,7950,,,,38.5051439,-90.3294269,
striderite.com,5 . DILLARDS S030306,275 ST CLAIR SQUARE,FAIRVIEW HTS,IL,62208,United States,7821,,,,38.5946207,-89.9825426,
striderite.com,6 . LAURIES ETC,281 CHESTERFIELD MALL,CHESTERFIELD,MO,63017,United States,7567,636-532-0017,,,38.651655,-90.565647,
striderite.com,7 . DILLARDS S030309,"2 MID RIVERS MALL DRIVE
MID RIVERS MALL",ST PETERS,MO,63376,United States,7951,,,,38.8000641,-90.6201041,
striderite.com,8 . VON MAUR,2 FOUNTAIN GRASS DRIVE,LAKE ST LOUIS,MO,63367,United States,67539,(636)561-7040,,,38.78227,-90.7882854,
striderite.com,9 . LUERS JUNIOR SHOES,1520 S MACARTHUR BLVD,SPRINGFIELD,IL,62704,United States,7547,217-528-1012,,,39.7846048,-89.6683133,
striderite.com,10 . DILLARDS S030310,"3000 W. DE YOUNG STREET
ILLINOIS CENTER",MARION,IL,62959,United States,7822,,,,37.730605,-88.933126,
striderite.com,11 . MARCYS PLANET SHOES,3050 WILLIAM,CAPE GIRARDEAU,MO,63703,United States,67562,573-335-2066,,,37.3007725,-89.5695001,
striderite.com,12 . VON MAUR,1350 HICKORY POINT MALL,FORSYTH,IL,62535,United States,67520,(217) 877-2499,,,39.9177908,-88.95874,
striderite.com,13 . DILLARDS S030312,"2300 BERNADETTE DRIVE
COLUMBIA MALL",COLUMBIA,MO,65203,United States,7952,,,,38.963839,-92.375518,
striderite.com,14 . DILLARDS S030384,"5101 HINKLEVILLE ROAD
KENTUCKY OAKS",PADUCAH,KY,42001,United States,7864,,,,37.0773598,-88.6847699,
striderite.com,15 . SARAH'S STRIDE RITE & FAMILY FOOTWEAR,1702 HART STREET,VINCENNES,IN,47591,United States,7845,812-886-4803,,,38.669672,-87.515714,
striderite.com,16 . VON MAUR,301 VETERANS PARKWAY,NORMAL,IL,61761,United States,67523,(309) 454-2048,,,40.5053365,-88.9556389,
striderite.com,17 . RUNNING CENTRAL,4450 N. PROSPECT ROAD,PEORIA HEIGHTS,IL,61616,United States,7548,(309) 676-6378,,,40.742194,-89.572757,
striderite.com,18 . WILKERSONS SHOES,116 NORTH MAIN STREET,HENDERSON,KY,42420,United States,7875,270-827-3442,,,37.8396797,-87.5923473,
striderite.com,19 . DILLARDS S030394,"800 N GREEN RIVER RD
EASTLAND MALL",EVANSVILLE,IN,47715,United States,7854,,,,37.981338,-87.495694,
striderite.com,20 . RIECKEN'S FOOT COMFORT WORLD,5115 OAK GROVE RD,EVANSVILLE,IN,47715,United States,7853,812-476-8006,,,37.991142,-87.488398,
striderite.com,21 . KIDSTOP,"2660 FREDERICA ST STE A
UNIT 1 FOUNTAIN SQUARE",OWENSBORO,KY,42301,United States,7872,270-926-6433,,,37.7410295,-87.1174983,
striderite.com,22 . DILLARDS S040406,"3000 E HIGHLAND
TURTLE CREEK",JONESBORO,AR,72401,United States,7628,,,,35.8230508,-90.6670128,
striderite.com,23 . KIDDLY TOES,2810 E HIGHLAND DR,JONESBORO,AR,72401,United States,7631,870-932-2370,,,35.822093,-90.670751,
striderite.com,24 . DILLARDS S030314,"2825 S GLENSTONE AVE
BATTLEFIELD MALL STE 400",SPRINGFIELD,MO,65804,United States,7953,,,,37.151886,-93.2578831,
striderite.com,25 . VON MAUR,4500 16TH STREET,MOLINE,IL,61265,United States,67522,(309) 797-0575,,,41.466283,-90.5036538,
striderite.com,26 . SMITH'S SHOE CENTER,1917 S WALNUT,BLOOMINGTON,IN,47401,United States,7852,812-336-4060,,,39.1456386,-86.532282,
striderite.com,27 . DILLARDS S030348,"320 WEST KIMBERLY ROAD
NORTH PARK MALL",DAVENPORT,IA,52806,United States,7817,,,,41.5625698,-90.5754197,
striderite.com,28 . VON MAUR,320 WEST KIMBERLY ROAD,DAVENPORT,IA,52806,United States,67531,(563) 386-0880,,,41.5633732,-90.5756053,
striderite.com,29 . DILLARDS S040426,"2801 WILMA RUDOLPH BLVD
GOVERNORS SQUARE",CLARKSVILLE,TN,37040,United States,8150,,,,36.588383,-87.287718,
striderite.com,30 . ENGLINS FINE FOOTWEAR S1,"2415 SAGAMORE PARKWAY S
TIPPECANOE MALL",LAFAYETTE,IN,47905,United States,7846,765-447-0733,,,40.389618,-86.847154,
striderite.com,31 . VON MAUR,115 IOWA RIVER LANDING PLACE,CORALVILLE,IA,52241,United States,67530,(319) 351-7220,,,41.6839591,-91.5618318,
striderite.com,32 . DILLARDS S030346,"1411 CORAL RIDGE AVENUE
CORAL RIDGE MALL",CORALVILLE,IA,52241,United States,7815,,,,41.6907142,-91.6083773,
striderite.com,33 . DILLARDS S030323,"18805 EAST 39TH STREET
INDEPENDENCE PLAZA",INDEPENDENCE,MO,64057,United States,7954,,,,39.043831,-94.357859,
striderite.com,34 . VON MAUR,1251 US HIGHWAY 31 NORTH,GREENWOOD,IN,46142,United States,67526,(317) 885-9936,,,39.4339663,-86.0079776,
striderite.com,35 . HEART STRINGS LLC,"840 31 W BY PASS
DBA CHATTERS",BOWLING GREEN,KY,42101,United States,7869,270-782-5030,,,36.9851038,-86.4323514,
striderite.com,36 . DILLARDS S030385,"2625 SCOTTSVILLE ROAD
BOWLING GREEN CSTNER KNOT",BOWLING GREEN,KY,42104,United States,7865,,,,36.9503148,-86.4251127,
striderite.com,37 . VON MAUR,6020 EAST 82ND STREET,INDIANAPOLIS,IN,46250,United States,67527,(317) 594-1870,,,39.9089327,-86.0648858,
striderite.com,38 . DILLARDS S040411,"2700 NORTH GERMANTOWN RD
WOLFCHASE GALLERIA",MEMPHIS,TN,38133,United States,8146,,,,35.198966,-89.788764,
striderite.com,39 . DILLARDS S030395,"757 LEWIS AND CLARK PARKWAY
GREEN TREE MALL",CLARKSVILLE,IN,47129,United States,7844,,,,38.314504,-85.766157,
striderite.com,40 . VON MAUR,6701 WEST 135TH STREET,OVERLAND PARK,KS,66223,United States,67533,(913) 681-1031,,,38.882193,-94.663201,
striderite.com,41 . GOTSKINDS SHOES,115 WEST JEFFERSON,NAPERVILLE,IL,60540,United States,67560,(630) 355-1811,,,41.7732869,-88.1500203,
striderite.com,42 . COTTON TAILS,"389 PERKINS EXT
LAURELWOOD SHOPPING CTR",MEMPHIS,TN,,United States,67467,901-685-8417,,,35.1202136,-89.9094432,
striderite.com,43 . BIG 'N LITTLE SHOES,"1058 JOLIET ST
SAND RIDGE PLAZA",DYER,IN,46311,United States,65707,219-836-5533,,,41.4908985,-87.5097592,
striderite.com,44 . DILLARDS S040410,"4433 POPLAR AVENUE
OAK COURT",MEMPHIS,TN,38117,United States,8145,,,,35.117894,-89.914489,
striderite.com,45 . BARNEYS HUB BOOTERY,108 N MAIN ST,CROWN POINT,IN,46307,United States,7841,219-663-0463,,,41.4182015,-87.3643234,
striderite.com,46 . DILLARDS S030324,"7350 NW 87TH TERRACE
ZONA ROSA",KANSAS CITY,MO,64153,United States,7956,,,,39.2515829,-94.6638345,
striderite.com,47 . DILLARDS S030322,"11601 WEST 95TH STREET
OAK PARK SOUTH",OVERLAND PARK,KS,66214,United States,7856,,,,38.95201,-94.7198,
striderite.com,48 . GOLDEN SHOES,12212 S HARLEN AVENUE,PALOS HEIGHTS,IL,60463,United States,7826,708-448-3580,,,41.6697995,-87.7967065,
striderite.com,49 . VON MAUR,4444 1ST AVENUE NE,CEDAR RAPIDS,IA,52402,United States,67529,(319) 395-9770,,,42.0255179,-91.6272126,
striderite.com,50 . DILLARDS S030396,"4801 OUTER LOOP
JEFFERSON MALL",LOUISVILLE,KY,40219,United States,7868,,,,38.1378754,-85.6695889,
striderite.com,51 . DILLARDS S030391,"5000 SHELBYVILLE ROAD
THE MALL IN ST MATTHEWS",LOUISVILLE,KY,40207,United States,7867,,,,38.2502631,-85.6247211,
striderite.com,52 . VON MAUR,3810 EAST MAIN STREET,ST CHARLES,IL,60174,United States,67524,(630) 377-9987,,,41.922799,-88.269172,
striderite.com,53 . BIG N LITTLE 2,3142 W 111TH ST,CHICAGO,IL,60655,United States,7819,773-239-6066,,,41.69184,-87.7000769,
striderite.com,54 . JACKSON SHOES,"942 WEST POPLAR
SUITE 2",COLLIERVILLE,TN,38017,United States,8154,901-854-9080,,,35.0462512,-89.693738,
striderite.com,55 . VON MAUR,7900 SHELBYVILLE ROAD,LOUISVILLE,KY,40222,United States,67535,(502) 425-7100,,,38.2465422,-85.6103634,
striderite.com,56 . VON MAUR S0014,"145 YORKTOWN
YORKTOWN MALL",LOMBARD,IL,60148,United States,7835,,,,41.8437136,-88.012876,
striderite.com,57 . DILLARDS S040422,"1000 RIVERGATE PARKWAY
RIVERGATE MALL",GOODLETTSVILLE,TN,37072,United States,8148,,,,36.304948,-86.697022,
striderite.com,58 . DILLARDS S040409,"4620 MERCHANTS PARK CR
THE AVENUE CARRIAGE",COLLIERVILLE,TN,38017,United States,8158,,,,35.0255647,-89.7161894,
striderite.com,59 . ENGLINS FINE FOOTWEAR S2,"1215 SOUTH REED ROAD
MARKLAND MALL",KOKOMO,IN,46902,United States,7847,765-457-7944,,,40.4714687,-86.1079847,
striderite.com,60 . DILLARDS S040412,"230 TOWN CENTER LOOP
SOUTHAVEN TOWNE CENTER",SOUTHAVEN,MS,38671,United States,7963,,,,34.9577764,-90.0261637,
striderite.com,61 . DILLARDS 420,"2140 ABBOT MARTIN RD
GREEN HILLS MALL",NASHVILLE,TN,,United States,67471,,,,36.1061844,-86.8164791,
striderite.com,62 . LONNIE YOUNG SHOES,2203 BANDYWOOD DRIVE,NASHVILLE,TN,37215,United States,8155,615-297-3984,,,36.104338,-86.8167,
striderite.com,63 . BIEHL'S STRIDE RITE,13210 SHELBYVILLE RD STE 104,LOUISVILLE,KY,40223,United States,7551,502-425-3168,,,38.242156,-85.511127,
striderite.com,64 . LIVELY ATHLETICS,109 N OAK PARK AVE,OAK PARK,IL,60301,United States,67561,(708) 358-0605,,,41.8876476,-87.7946693,
striderite.com,65 . DILLARDS S040425,"1796 GALLERIA BOULEVARD
COOL SPRINGS GALLERIA",FRANKLIN,TN,37067,United States,8149,,,,35.9563572,-86.8118033,
striderite.com,66 . CARRARA CHILDRENS SHOES,2121 N CLYBOURN,CHICAGO,IL,60614,United States,7839,773-935-9398,,,41.919962,-87.662026,
striderite.com,67 . TOOTSIES SHOES,"40 SOUTH DUNTON
DUNTON COURT",ARLINGTON HEIGHTS,IL,60005,United States,67567,224-347-2699,,,42.0813575,-87.9834293,
striderite.com,68 . TOOTSIES SHOES,150 S. Cook St,BARRINGTON,IL,60010,United States,67566,847-277-1381,,,42.153666,-88.134937,
striderite.com,69 . VON MAUR,1960 TOWER DRIVE,GLENVIEW,IL,60026,United States,67521,(847) 724-4199,,,42.0900951,-87.8255628,
striderite.com,70 . DILLARDS S040408,"2101 PROMENADE BLVD
PINNACLE HILLS PROMENADE",ROGERS,AR,72758,United States,7632,,,,36.3068,-94.1772,
striderite.com,71 . SHOE CHOO TRAIN,201 SKYLINE DR,CONWAY,AR,,United States,67496,501-205-0604,,,35.1097865,-92.4291535,
striderite.com,72 . AUSTIN'S SHOES,1792 HWY 72 EAST,CORINTH,MS,,United States,67498,662-286-0195,,,34.9156011,-88.5056165,
striderite.com,73 . DILLARDS S040403,"4201 N SHILOH
NORTHWEST ARKANSAS MALL",FAYETTEVILLE,AR,72703,United States,7625,,,,36.129726,-94.145898,
striderite.com,74 . FIT TO BE TIED STRIDE RITE,"1551 VALLEY WEST DRIVE
174 VALLEY WEST MALL",WEST DES MOINES,IA,50266,United States,7546,515-225-2596,,,41.597501,-93.749512,
striderite.com,75 . VON MAUR,1551 VALLEY WEST DRIVE,WEST DES MOINES,IA,52066,United States,67532,(515) 223-1311,,,41.5995333,-93.7489766,
striderite.com,76 . DILLARDS S030340,"101 JORDAN CREEK PARKWAY
JORDAN CREEK",WEST DES MOINES,IA,50266,United States,7814,,,,41.568357,-93.805196,
striderite.com,77 . BRINKMANS,720 W MCGALLIARD RD,MUNCIE,IN,47303,United States,7843,765-288-1561,,,40.2190232,-85.3787081,
striderite.com,78 . CHILDREN'S SHOE CO.,803 A-102 N THOMPSON LANE,MURFREESBORO,TN,37128,United States,8156,615-890-4706,,,35.8419,-86.440007,
striderite.com,79 . DILLARDS S040427,"1720 OLD FORT PARKWAY
STONES RIVER MALL",MURFREESBORO,TN,37129,United States,8151,,,,35.848232,-86.4185,
striderite.com,80 . DILLARDS S030347,"2060 CROSSROADS BLVD
SUITE 300",WATERLOO,IA,50702,United States,7816,,,,42.462283,-92.322621,
striderite.com,81 . DILLARDS S040407,"3929 MCCAIN BLVD
MCCAIN MALL",N LITTLE ROCK,AR,72116,United States,7629,,,,34.792122,-92.225114,
striderite.com,82 . THE TOGGERY,11525 CANTRELL RD.,LITTLE ROCK,AR,,United States,67497,501-227-8492,,,34.793532,-92.399502,
striderite.com,83 . VON MAUR,6301 UNIVERSITY AVENUE,CEDAR FALLS,IA,50613,United States,67528,(319) 277-7490,,,42.5113631,-92.4346943,
striderite.com,84 . DILLARDS S040405,"6000 W MARKHAM
PARK PLAZA",LITTLE ROCK,AR,72205,United States,7627,,,,34.753108,-92.342877,
striderite.com,85 . AUSTIN'S SHOES,380 COX CREEK PARKWAY,FLORENCE,AL,35630,United States,67500,256-765-0303,,,34.8424241,-87.6362211,
striderite.com,86 . BIEHL'S STRIDE RITE,2138 Florence Mall Road,Florence,KY,41042,United States,7552,859-371-9455,,,38.996004,-84.650794,
striderite.com,87 . DILLARDS S030336,"1791 SOUTHWEST WANAMAKER
WESTRIDGE MALL",TOPEKA,KS,66604,United States,7861,,,,39.033974,-95.763947,
striderite.com,88 . AUSTIN'S SHOES,2206 WOODWARD AVE,MUSCLE SHOALS,AL,35661,United States,67499,256-386-8720,,,34.7406851,-87.668088,
striderite.com,89 . DILLARDS S030355,"2901 DIXIE HIGHWAY
CRESTVIEW HILLS MALL",CRESTVIEW HILLS,KY,41017,United States,7863,,,,39.0257044,-84.5820277,
striderite.com,90 . MORGANS STRIDE RITE,"702 NORTH MIDVALE BLVD
HILLSDALE MALL",MADISON,WI,53705,United States,7610,608-238-3194,,,43.073935,-89.450684,
striderite.com,91 . DILLARDS S030387,"3625 NICHOLASVILLE ROAD
FAYETTE MALL MCALPINS",LEXINGTON,KY,40503,United States,7866,,,,37.986142,-84.526186,
striderite.com,92 . HOWARD CURRY SHOES,2535 NICHOLASVILLE RD,LEXINGTON,KY,40503,United States,7870,859-278-7411,,,38.001302,-84.5201816,
striderite.com,93 . THE SHOE BOX LTD STORE 1,HIGHWAY 14,BLACK EARTH,WI,53515,United States,8266,608-767-3447,,,43.1345587,-89.7318093,
striderite.com,94 . VON MAUR,4202 WEST JEFFERSON BLVD,FORT WAYNE,IN,46804,United States,67525,(260) 432-3244,,,41.0708634,-85.1939877,
striderite.com,95 . DILLARDS S030351,"7913 MONTGOMERY ROAD
KENWOOD MCALPINS",CINCINNATI,OH,45236,United States,8079,,,,39.2002583,-84.3767945,
striderite.com,96 . DILLARDS 353,"7660 BLAKE ROAD
LIBERTY PLACE",LIBERTY TOWNSHIP,OH,,United States,67470,,,,39.3706198,-84.3712775,
striderite.com,97 . FRED TOENGES SHOES,2415 HOBSON ROAD,FORT WAYNE,IN,46805,United States,7848,260-484-4742,,,41.098419,-85.0986646,
striderite.com,98 . DILLARDS S040404,"2901 PINE MALL DR
THE PINES MALL",PINE BLUFF,AR,71601,United States,7626,,,,34.209708,-91.968849,
striderite.com,99 . DILLARDS S040413,"5111 ROGERS AVE
CENTRAL MALL",FORT SMITH,AR,72903,United States,7630,,,,35.3644014,-94.3757723,
striderite.com,100 . VON MAUR,20111 LORD ST,BROOKFIELD,WI,53045,United States,67546,(262) 599-7090,,,43.053406,-88.145057,
striderite.com,"101 . SOFT SHOE, INC.",805 EASTERN BYPASS,RICHMOND,KY,40475,United States,8375,859-623-8561,,,37.731487,-84.2869123,
striderite.com,102 . RODERER SHOES INC,5500 NORTH MAIN STREET,DAYTON,OH,45415,United States,8095,937-275-4911,,,39.818183,-84.232503,
striderite.com,103 . DILLARDS S040402,"4501 CENTRAL AVE
HOT SPRINGS MALL",HOT SPRINGS,AR,71913,United States,7624,,,,34.4490334,-93.0801464,
striderite.com,104 . RODERER STRIDE RITE,300 EAST STROOP ROAD,KETTERING,OH,45429,United States,8076,937-298-1801,,,39.6894824,-84.1677913,
striderite.com,105 . VON MAUR,100 MAGNOLIA LANE,BEAVERCREEK,OH,45440,United States,67543,(937) 431-8880,,,39.6932506,-84.0994932,
striderite.com,106 . DILLARDS S040460,"2801 MEMORIAL PARKWAY SO
PARKWAY PLACE",HUNTSVILLE,AL,35801,United States,7622,,,,34.7076636,-86.5895406,
striderite.com,107 . DILLARDS S030335,102 MANHATTAN TOWN CENTER,MANHATTAN,KS,66502,United States,7860,,,,39.1793173,-96.5583456,
striderite.com,108 . LITTLE CHICK SHOE SHOP,449 WEST KILGORE ROAD,PORTAGE,MI,49002,United States,7934,269-342-2024,,,42.2451057,-85.5771355,
striderite.com,109 . DILLARDS S070792,6919 SOUTH MEMORIAL,TULSA,OK,74135,United States,16820,,,,36.064604,-95.881561,
striderite.com,110 . DILLARDS S070791,4169 SOUTH YALE,TULSA,OK,74135,United States,16819,,,,36.102446,-95.917938,
striderite.com,111 . VON MAUR,10010 CALIFORNIA STREET,OMAHA,NE,68114,United States,67541,(402) 390-0381,,,41.265605,-96.067431,
striderite.com,112 . T2B BABY,13459 W CENTER RD,OMAHA,NE,68144,United States,65512,402-590-2955,,,41.2339623,-96.1225859,
striderite.com,113 . DILLARDS S030343,"3030 OAKVIEW DRIVE
OAKVIEW",OMAHA,NE,68144,United States,7993,,,,41.231252,-96.1369639,
striderite.com,114 . KATHLEENS KIDS,8212 S HARVARD AVE,TULSA,OK,74137,United States,67550,918-742-2697,,,36.044459,-95.941016,
striderite.com,115 . DILLARDS S040430,"2100 HAMILTON PLACE BLVD
HAMILTON PLACE",CHATTANOOGA,TN,37421,United States,8153,,,,35.033004,-85.157315,
striderite.com,116 . DILLARDS 344,6100 O ST,LINCOLN,NE,68505,United States,68150,,,,40.8147373,-96.6369929,
striderite.com,117 . DILLARDS 344,"6100 O ST
GATEWAY MALL",LINCOLN,NE,68505,United States,68620,,,,40.8147373,-96.6369929,
striderite.com,118 . VON MAUR,2900 PINE LAKE ROAD,LINCOLN,NE,68516,United States,67540,(402) 420-9100,,,40.7416397,-96.6797177,
striderite.com,119 . MIERAS FAMILY SHOES,841 WEST LEONARD STREET,GRAND RAPIDS,MI,49504,United States,7937,616-458-7600,,,42.9853624,-85.6898028,
striderite.com,120 . DILLARDS S040428,"7600 KINGSTON PIKE
WEST TOWN MALL",KNOXVILLE,TN,37919,United States,8152,,,,35.9262295,-84.0373844,
striderite.com,121 . VON MAUR,7700 EAST KELLOGG DRIVE,WICHITA,KS,67207,United States,67534,(316) 685-6100,,,37.6834039,-97.2470994,
striderite.com,122 . DILLARDS S030330,"7700 EAST KELLOGG
TOWNE EAST MALL",WICHITA,KS,67207,United States,7857,,,,37.6795031,-97.2477915,
striderite.com,123 . SCIOTO SHOE MART STORE 2,780 WESTERN AVENUE,CHILLICOTHE,OH,45601,United States,8097,740-773-2933,,,39.3335743,-83.0062993,
striderite.com,124 . SCHMITTS STRIDE RITE BTY,"1300 SALEM ROAD SW
SUITE 400",ROCHESTER,MN,55902,United States,7565,507-282-8262,,,44.004592,-92.484161,
striderite.com,125 . SCIOTO SHOE MART STORE 1,615 HARDING AVENUE,PORTSMOUTH,OH,45662,United States,8096,740-776-7512,,,38.7627246,-82.8926559,
striderite.com,126 . DILLARDS S030378,"3100 MAIN ST
SHOPS AT FALLEN TIMBER",MAUMEE,OH,43537,United States,8101,,,,41.5485594,-83.7067097,
striderite.com,127 . VON MAUR,1530 POLARIS PARKWAY,COLUMBUS,OH,43240,United States,67544,(614) 781-7855,,,40.1452493,-82.9801079,
striderite.com,128 . LUCKY SHOES EASTON TOWN CENTER,3870 TOWNSFAIR WAY,COLUMBUS,OH,43219,United States,65708,614-475-4744,,,40.049124,-82.917579,
striderite.com,129 . WAGNER'S SHOES FOR KIDS,1825 MCFARLAND BLVD,TUSCALOOSA,AL,35406,United States,67491,205-344-6543,,,33.2365867,-87.5499563,
striderite.com,130 . SCIOTO SHOE MART STORE 3,206 JAMESWAY DRIVE,MARION,OH,43302,United States,8098,740-389-5775,,,40.5751732,-83.0777544,
striderite.com,131 . TILTON AND SONS SHOES,134 EAST CHICAGO BLVD,TECUMSEH,MI,49286,United States,7940,517-423-2150,,,42.0039069,-83.9443203,
striderite.com,132 . SIKES SHOE STORE,2920 S 18TH ST,HOMEWOOD,AL,35209,United States,7623,,,,33.4781857,-86.7917457,
striderite.com,133 . STRIDE RITE BOOTERY ST 1,"5333 MONROE STREET
MONROE STREET MARKET SQUARE",TOLEDO,OH,43623,United States,7594,419-843-6050,,,41.703384,-83.657077,
striderite.com,134 . DILLARDS S030376,"5001 MONROE
FRANKLIN PARK LION",TOLEDO,OH,43623,United States,8091,,,,41.697339,-83.641339,
striderite.com,135 . OWATONNA SHOE,121 N CEDAR ST,OWANTONNA,MN,55060,United States,67563,507-451-4640,,,44.0853987,-93.225994,
striderite.com,136 . KUEBLER SHOES,440 WEST MARKET STREET,TIFFIN,OH,44883,United States,8092,419-447-2737,,,41.1127647,-83.1957298,
striderite.com,137 . VON MAUR,2400 RIVERCHASE GALLERIA,HOOVER,AL,35244,United States,67516,(205) 982-4337,,,33.3787839,-86.8102621,
striderite.com,138 . KICK'S SHOES FOR KIDS,"181 MAIN ST
PATTON CREEK SHOPPING CENTER",HOOVER,AL,35244,United States,67490,205-982-6888,,,33.3749741,-86.8151373,
striderite.com,139 . WALKERS SHOE CENTER,737 EAST MAIN STREET,LANCASTER,OH,43130,United States,8099,740-654-3166,,,39.713861,-82.586975,
striderite.com,140 . DILLARDS S040437,"2400 RICHMOND RD
33 CENTRAL MALL",TEXARKANA,TX,75503,United States,8159,903-838-6591,,,33.4552706,-94.0855411,
striderite.com,141 . VON MAUR,300 BRIARWOOD CIRCLE,ANN ARBOR,MI,48108,United States,67536,(734) 622-0233,,,42.23884,-83.747347,
striderite.com,142 . BURKHARTZMEYER SHOES INC,128 CENTRAL AVE N,FARIBAULT,MN,55021,United States,67559,507-334-7774,,,44.2923286,-93.2687154,
striderite.com,143 . KIDS STUFF,300 CEDAR CREEK RD,PIKEVILLE,KY,41501,United States,7871,606-432-8197,,,37.4764564,-82.5504199,
striderite.com,144 . DILLARDS S040416,700 QUINTARD DR,OXFORD,AL,36203,United States,16805,,,,33.613126,-85.8238914,
striderite.com,145 . BIPPITY BOPPITY SHOE,119 COLONY CROSSING,MADISON,MS,39110,United States,67547,601-896-6070,,,32.4753502,-90.1411255,
striderite.com,146 . SHOE CHOO TRAIN,860 AVERY BLVD N,RIDGELAND,MS,,United States,67495,601-977-1100,,,32.4073871,-90.1149742,
striderite.com,147 . DILLARDS S040419,"1200 COUNTY LINE ROAD
NORTH PARK MALL",RIDGELAND,MS,39157,United States,7961,,,,32.3995322,-90.133601,
striderite.com,148 . THE SHOE STORE,5757 WHITMORE LAKE RD,BRIGHTON,MI,48116,United States,7939,810-225-6244,,,42.522558,-83.766418,
striderite.com,149 . ULMERS STRIDE RITE STORE1,4500 I 55 NORTH,JACKSON,MS,39211,United States,7962,601-981-4276,,,32.3712779,-90.14779,
striderite.com,150 . DILLARDS S040435,"4610 MILLHAVEN ROAD
PECANLAND MALL",MONROE,LA,71203,United States,7888,,,,32.5006899,-92.0652848,
striderite.com,151 . GOODY 2 SHOES,43041 7 MILE ROAD,NORTHVILLE,MI,,United States,67468,248-465-0900,,,42.4230061,-83.4708538,
striderite.com,152 . VON MAUR,37500 6 MILE ROAD,LIVONIA,MI,48152,United States,67537,(734) 432-6949,,,42.4134976,-83.4166187,
striderite.com,153 . HERSHEY SHOE INC,29522 FORD ROAD,GARDEN CITY,MI,48135,United States,7931,734-422-1771,,,42.3255702,-83.3325876,
striderite.com,154 . DILLARDS S040415,1078 BONITA LAKES CIRCLE,MERIDIAN,MS,39301,United States,16804,,,,32.3594298,-88.6736638,
striderite.com,155 . SPROUTY PEA CHILDRENS CLOTHING,234 E MARKET ST,KINGSPORT,TN,,United States,67484,423-390-1069,,,36.5453765,-82.5590161,
striderite.com,156 . MCLINDEN SHOES,13672 FORT STREET,SOUTHGATE,MI,48195,United States,7935,734-284-6434,,,42.208338,-83.181201,
striderite.com,157 . COGGINS SHOES FOR KIDS,2207 ROSWELL ROAD,MARIETTA,GA,30062,United States,7794,770-973-5335,,,33.9694169,-84.4890874,
striderite.com,158 . DILLARDS S020262,"6720 DOUGLAS BOULEVARD
ARBOR PLACE",DOUGLASVILLE,GA,30135,United States,7797,,,,33.727835,-84.748492,
striderite.com,159 . KAREN'S SHOES LTD.,1647 OTTAWA STREET,WINDSOR,ON,,Canada,65597,,,,42.3111235,-83.008529,
striderite.com,160 . MODERN NATUAL BABY,200 W 9 MILE RD,FERNDALE,MI,48220,United States,68561,,,,42.4608615,-83.1363606,
striderite.com,161 . DILLARDS S020260,"7000 NORTH POINT CIRCLE
NORTH POINT MALL",ALPHARETTA,GA,30022,United States,7795,,,,34.0512033,-84.2920131,
striderite.com,162 . VON MAUR,4000 NORTH POINT CIRCLE,ALPHARETTA,GA,30022,United States,67517,(678) 339-9988,,,34.0468655,-84.2966508,
striderite.com,163 . DILLARDS S070795,2501 WEST MEMORIAL,OKLAHOMA CITY,OK,73134,United States,16821,,,,35.613129,-97.558239,
striderite.com,164 . VON MAUR,2501 W MEMORIAL RD,OKLAHOMA CITY,OK,73134,United States,67545,(405) 751-1424,,,35.6124114,-97.5604692,
striderite.com,165 . DILLARDS S070796,1901 NW EXPRESSWAY,OKLAHOMA CITY,OK,73118,United States,16822,,,,35.5247365,-97.5439664,
striderite.com,166 . CHARLESTON STRIDE RITE,"224 RHL BLVD
DUDLEY FARMS PLAZA",CHARLESTON,WV,25309,United States,7611,304-345-8734,,,38.327486,-81.71462,
striderite.com,167 . DILLARDS S020264,"4500 ASHFORD DUNWOODY ROAD
PERIMETER MALL",ATLANTA,GA,30346,United States,7799,,,,33.9253209,-84.33999,
striderite.com,168 . VON MAUR,4400 ASHFORD-DUNWOODY ROAD,ATLANTA,GA,30346,United States,67518,(770) 522-0468,,,33.9234708,-84.3413135,
striderite.com,169 . VON MAUR,400 PRAIRIE CENTER DRIVE,EDEN PRAIRIE,MN,55344,United States,67538,(952) 829-0200,,,44.854324,-93.422458,
striderite.com,170 . VON MAUR S0019,400 PRAIRIE CENTER DRIVE,EDEN PRAIRIE,MN,55344,United States,7945,,,,44.854324,-93.422458,
striderite.com,171 . SPRONG CHILDREN'S SHOES,3716 ROSWELL RD,ATLANTA,GA,,United States,67489,404-846-8506,,,33.8557682,-84.3826552,
striderite.com,172 . BUSTER BROWN SHS STORE 1,"3393 PEACHTREE ROAD
LENOX SQUARE MALL",ATLANTA,GA,30326,United States,7791,404-237-4967,,,33.8476502,-84.3634254,
striderite.com,173 . DILLARDS S020265,"1371 MARKET ST
ATLANTIC STATION",ATLANTA,GA,30363,United States,7810,,,,33.792725,-84.394557,
striderite.com,174 . CONNIES CHILDRENS SHOP,23200 GREATER MACK,ST CLAIR SHORES,MI,48080,United States,7930,586-777-8020,,,42.4646887,-82.8983327,
striderite.com,175 . DILLARDS S040433,"2950 EAST TEXAS AVENUE
PIERRE BOSSIER MALL",BOSSIER CITY,LA,71111,United States,7887,,,,32.526673,-93.703178,
striderite.com,176 . BUSTER BROWN SHS STORE 2,"2841 GREENBRIAR PARKWAY
GREENBRIAR MALL",ATLANTA,GA,30331,United States,7792,404-349-4252,,,33.688194,-84.491604,
striderite.com,177 . STRIDE RITE ROSEDALE,"1595 HWY 36 WEST SPACE 602
HWY 36 AND SNELLING AVE",ROSEVILLE,MN,55113,United States,7566,651-633-6821,,,45.012849,-93.169048,
striderite.com,178 . DILLARDS S070798,3499 WEST MAIN,NORMAN,OK,73072,United States,16823,,,,35.219023,-97.492538,
striderite.com,179 . DILLARDS S020261,"3333 BUFORD DRIVE
MALL OF GEORGIA",BUFORD,GA,30519,United States,7796,,,,34.064225,-83.984145,
striderite.com,180 . VON MAUR,3379 BUFORD DRIVE,BUFORD,GA,30519,United States,67519,(470) 777-3036,,,34.065883,-83.981595,
striderite.com,181 . SHOE STRINGS,55112 VAN DYKE,SHELBY TOWNSHIP,MI,48317,United States,7941,586-677-1212,,,42.7002122,-83.0347747,
striderite.com,182 . LITTLE FEET CHILDRENS SHOES,12981 RIDGEDALE DR,MINNETONKA,MN,55305,United States,7947,952-546-3188,,,44.9684697,-93.4443327,
striderite.com,183 . DILLARDS S040432,"1133 ST VINCENT AVE 28
MALL ST VINCENT",SHREVEPORT,LA,71104,United States,7886,,,,32.477468,-93.752939,
striderite.com,184 . TOPS FOR SHOES,27 NORTH LEXINGTON AVENUE,ASHEVILLE,NC,28801,United States,7985,828-254-6721,,,35.595637,-82.55305,
striderite.com,185 . TOY FAIR,"4801 LINE ROAD
NUMBER 7 PIERREMONT MALL",SHREVEPORT,LA,71106,United States,7895,318-865-3558,,,32.457447,-93.744938,
striderite.com,186 . DILLARDS S020148,3 SOUTH TUNNEL ROAD,ASHEVILLE,NC,28805,United States,16781,,,,35.5841909,-82.5266724,
striderite.com,187 . DILLARDS S020266,"370 NEWNAN CROSSING BYPASS
THE FORUM AT ASHLEY",NEWNAN,GA,30265,United States,7811,,,,33.3889307,-84.7626717,
striderite.com,188 . BUSTER BROWN SHS STORE 5,"2801 CANDLER ROAD
SOUTH DEKALB MALL",DECATUR,GA,30034,United States,7793,404-243-7121,,,33.705907,-84.274575,
striderite.com,189 . DILLARDS S030367,"25188 COUNTRY CLUB BLVD
GREAT NORTHERN MALL",NORTH OLMSTED,OH,44070,United States,8086,,,,41.413998,-81.9099429,
striderite.com,190 . ARTHURS SHOE TREE,27235 WOLF RD,BAY VILLAGE,OH,44140,United States,8078,440-871-2340,,,41.4849717,-81.9217461,
striderite.com,191 . STRIDE RITE SOUTHPARK MALL,"600 SOUTH PARK CENTER
LOWER LEVEL",STRONGSVILLE,OH,44136,United States,7596,440-572-5111,,,41.3065832,-81.8232811,
striderite.com,192 . DILLARDS S030364,16996 SOUTHPARK CENTER,STRONGSVILLE,OH,44136,United States,8084,,,,41.3109098,-81.8185122,
striderite.com,193 . STRIDE RITE,"2425 S SHIRLEY AVE
SUITE 108",SIOUX FALLS,SD,57106,United States,7606,605-362-7728,,,43.524354,-96.777224,
striderite.com,194 . DILLARDS S020263,"8000 MALL PARKWAY
STONECREST MALL",LITHONIA,GA,30038,United States,7798,,,,33.6922739,-84.0916729,
striderite.com,195 . DILLARDS S030371,"32655 WEST MARKET STREET
SUMMIT MALL",AKRON,OH,44333,United States,8087,,,,41.1255784,-81.604532,
striderite.com,196 . STRIDE RITE,2685 WEST MARKET ST,FAIRLAWN,OH,44333,United States,7595,330-836-5577,,,41.123491,-81.600159,
striderite.com,197 . DILLARDS S040418,7310 EASTCHASE PARKWAY,MONTGOMERY,AL,36117,United States,16807,,,,32.358158,-86.164124,
striderite.com,198 . LUCKY SHOES,"4828 EVERHARD RD NW
CANTON BELDEN COMMONS",CANTON,OH,44718,United States,7599,330-494-7575,,,40.8537,-81.435322,
striderite.com,199 . DILLARDS S030373,"4400 BELDEN VILLAGE MALL
BELDEN VILLAGE",CANTON,OH,44718,United States,8088,,,,40.858099,-81.427508,
striderite.com,200 . DILLARDS S070748,"3500 MCCANN ROAD
LONGVIEW MALL",LONGVIEW,TX,75605,United States,8192,,,,32.541085,-94.752322,
striderite.com,201 . DILLARDS S040417,1627 OPELIKA RD,AUBURN,AL,36830,United States,16806,,,,32.6251847,-85.4463143,
striderite.com,202 . DILLARDS S070713,"4800 TEXOMA PARKWAY
MIDWAY MALL",SHERMAN,TX,75090,United States,8166,,,,33.6869765,-96.581895,
striderite.com,203 . MINETTES,100 DEVEREAUX DRIVE,NATCHEZ,MS,39120,United States,67552,601-446-7960,,,31.5550882,-91.3833639,
striderite.com,204 . DILLARDS S030365,"26500 CEDAR ROAD
BEACHWOOD PLACE",BEACHWOOD,OH,44122,United States,8085,,,,41.498375,-81.492107,
striderite.com,205 . DILLARDS S020168,"3101 N.MAIN
SUITE D",ANDERSON,SC,29621,United States,16794,,,,34.5381813,-82.6675006,
striderite.com,"206 . TOOTSIES, INC.",1803 AUGUSTA STREET,GREENVILLE,SC,,United States,67476,864-603-3803,,,34.827607,-82.397763,
striderite.com,207 . DILLARDS S070759,1000 TURTLE CREEK DRIVE,HATTIESBURG,MS,39402,United States,16809,,,,31.326184,-89.37731,
striderite.com,208 . THE SHOE BOX,580 MURPHY RD.,SARNIA,ON,,Canada,8336,,,,42.9773873,-82.3666614,
striderite.com,209 . DILLARDS S020166,"700 HAYWOOD ROAD
BOX 508",GREENVILLE,SC,29607,United States,16792,,,,34.849043,-82.331639,
striderite.com,210 . DILLARDS S030362,"7850 MENTOR AVENUE
GREAT LAKES",MENTOR,OH,44060,United States,8083,,,,41.662092,-81.359116,
striderite.com,211 . THE KIDDIE SHOPPE,"1640 ROLLINS WAY
THE SHOPPES AT BRADLEY PARK",COLUMBUS,GA,31904,United States,7808,706-327-0334,,,32.536085,-84.968992,
striderite.com,212 . DILLARDS S020275,"3247 MANCHESTER EXPY
PEACHTREE MALL",COLUMBUS,GA,31909,United States,7800,,,,32.5076074,-84.9392597,
striderite.com,213 . NABORS SHOES,117 W MAIN ST,WEATHERFORD,OK,73096,United States,67553,580-772-6224,,,35.5260385,-98.7086997,
striderite.com,214 . DILLARDS S020167,205 W. BLACKSTOCK ROAD,SPARTANBURG,SC,29301,United States,16793,,,,34.9404244,-81.9949254,
striderite.com,215 . DILLARDS S070749,"4601 SOUTH BROADWAY
BROADWAY SQUARE",TYLER,TX,75703,United States,8193,,,,32.299477,-95.302717,
striderite.com,216 . DILLARDS S040436,"3437 MASONIC DRIVE
ALEXANDRIA MALL",ALEXANDRIA,LA,71301,United States,7889,,,,31.278216,-92.4643975,
striderite.com,217 . DILLARDS S070717,"121 E STACY RD
VILLAGE AT FAIRVIEW",FAIRVIEW,TX,75069,United States,8219,,,,33.1321791,-96.6547483,
striderite.com,218 . DILLARDS S020146,1930 US HIGHWAY 70 SE,HICKORY,NC,28602,United States,16780,,,,35.703109,-81.3064024,
striderite.com,219 . DILLARDS S030374,"7401 MARKET STREET
SOUTH PARK MALL",BOARDMAN,OH,44512,United States,8089,,,,41.021169,-80.659529,
striderite.com,220 . DILLARDS S070719,"2603 PRESTON RD
STONEBRIAR CENTRE",FRISCO,TX,75034,United States,8220,,,,33.1000279,-96.805858,
striderite.com,221 . DILLARDS S070708,"301 HORSESHOE DR
FIREWHEEL TOWN CENTER",GARLAND,TX,75040,United States,8217,972-496-4070,,,32.9523606,-96.6099187,
striderite.com,222 . DILLARDS S070799,200 SOUTHWEST C AVENUE,LAWTON,OK,73501,United States,16824,,,,34.603923,-98.3921539,
striderite.com,223 . THE SHOE STORY ST2,112 EMILY DRIVE,CLARKSBURG,WV,26301,United States,8269,304-622-4434,,,39.2801322,-80.2783693,
striderite.com,224 . DILLARDS S020268,"5080 RIVERSIDE DR
RIVER CROSSING",MACON,GA,31210,United States,7812,,,,32.924861,-83.712258,
striderite.com,225 . DILLARDS S070718,"2501 DALLAS PARKWAY
SHOPS AT WILLOW BEND",PLANO,TX,75093,United States,8169,,,,33.033046,-96.830646,
striderite.com,226 . A STAR IS BORN CHILDREN'S OUTFITTER,8 FRONT ST W,STRATHROY,ON,,Canada,62489,,,,42.9582228,-81.6241801,
striderite.com,227 . DILLARDS S070709,"2201 SOUTH I 35 EAST B
GOLDEN TRIANGLE",DENTON,TX,76205,United States,8162,,,,33.1889462,-97.1080115,
striderite.com,228 . DILLARDS S070712,"5000 TOWN EAST BOULEVARD
TOWN EAST MALL",MESQUITE,TX,75150,United States,8165,,,,32.7936325,-96.6553312,
striderite.com,229 . DILLARDS S070716,"100 NORTH PARK SPNG CTR
NORTH PARK CENTER",DALLAS,TX,75225,United States,8168,,,,32.8567707,-96.7526233,
striderite.com,230 . DILLARDS S070711,"2401 SOUTH STEMMONS FWY
VISTA RIDGE MALL",LEWISVILLE,TX,75067,United States,8164,,,,33.003298,-96.968603,
striderite.com,231 . STRIDE RITE LEWISVILLE,2585 MACARTHUR BLVD,LEWISVILLE,TX,75067,United States,7609,972-459-9163,,,32.99695,-96.976036,
striderite.com,232 . STRIDE RITE DALLAS,6129 LUTHER LANE,DALLAS,TX,75225,United States,7608,214-373-1182,,,32.863638,-96.805389,
striderite.com,233 . DILLARDS S020152,250 N. NEW HOPE ROAD,GASTONIA,NC,28054,United States,16784,,,,35.2648555,-81.1512888,
striderite.com,234 . CHEEKY MONKEY,1061 WONDERLAND RD S,LONDON,ON,,Canada,67641,,,,42.9393863,-81.2824441,
striderite.com,235 . THE SHOE STORY ST1,751 CHESTNUT RIDGE ROAD,MORGANTOWN,WV,26505,United States,8268,304-599-7443,,,39.6579248,-79.9593452,
striderite.com,236 . CHEEKY MONKEY,1215 FANSHAWE PARK RD W,LONDON,ON,,Canada,65625,,,,43.0133374,-81.3281413,
striderite.com,237 . STENS STRIDE RITE 2,"4000 OXFORD DRIVE
VILLAGE SQUARE MALL",BETHEL PARK,PA,15102,United States,7601,412-854-4322,,,40.345778,-80.0481,
striderite.com,238 . PERFECTLY FIT BY ELLEN,1225 WONDERLAND RD N,LONDON,ON,,Canada,8347,519-204-1149,,,43.0044431,-81.3056946,
striderite.com,239 . STEN'S STRIDE RITE,910 ADAMS SHOPPES,MARS,PA,16046,United States,65360,724-772-4664,,,40.68805,-80.054153,
striderite.com,240 . DILLARDS S070701,"1101 MELBOURNE ROAD
NORTHEAST MALL",HURST,TX,76053,United States,8160,,,,32.830764,-97.199433,
striderite.com,241 . J-RAYS SHOES,121 S UNIVERSITY BLVD,MOBILE,AL,,United States,67488,251-342-6322,,,30.6835175,-88.1694523,
striderite.com,242 . LITTLES OF PITTSBURGH INC,5850 FORBES AVENUE,PITTSBURGH,PA,,United States,67478,412-521-3848,,,40.4377534,-79.9210135,
striderite.com,243 . DILLARDS S020241,"3300 AIRPORT BLVD
BEL AIR MALL",MOBILE,AL,36606,United States,7613,,,,30.6762768,-88.1225524,
striderite.com,244 . PERRONES SHOE SERVICE,343 S MORRISON BLVD,HAMMOND,LA,70403,United States,67554,985-345-5111,,,30.4981038,-90.4826782,
striderite.com,245 . DILLARDS S020153,7535 NORTHLAKE MALL DR,CHARLOTTE,NC,28216,United States,16785,,,,35.353114,-80.853397,
striderite.com,246 . DILLARDS S070764,1990 HAMMOND SQUARE DRIVE,HAMMOND,LA,70403,United States,16813,,,,30.4816515,-90.4628682,
striderite.com,247 . DILLARDS S070715,"309 W FM 1382
UPTOWN VILLAGE",CEDAR HILL,TX,75104,United States,8218,,,,32.590937,-96.936493,
striderite.com,248 . THE COBBLERS WIFE,5207 BERNARD DRIVE,ROANOKE,VA,24018,United States,8249,540-400-6589,,,37.22313,-79.986805,
striderite.com,249 . DILLARDS S020239,"10101 EASTERN SHORE BLVD
EASTERN SHORE CENTER",SPANISH FORT,AL,36527,United States,7612,,,,30.6714213,-87.848462,
striderite.com,250 . DILLARDS S070714,"3821 SOUTH COOPER
THE PARKS MALL",ARLINGTON,TX,76015,United States,8167,,,,32.6811409,-97.131069,
striderite.com,251 . BROWNS SHOE FIT,303 NORRIS AVENUE,MCCOOK,NE,69001,United States,67558,308-345-2380,,,40.1997601,-100.6256489,
striderite.com,252 . KIXX SHOES,1730 E WOODLAWN RD,CHARLOTTE,NC,28209,United States,7987,704-676-1517,,,35.1716819,-80.846982,
striderite.com,253 . DILLARDS S070742,"3111 MIDWESTERN PARKWAY
SIKES CENTER",WICHITA FALLS,TX,76308,United States,8186,,,,33.8685509,-98.532434,
striderite.com,254 . JOES FAMILY SHOES STORE 1,"1814 NORTH CAUSEWAY
NORTHLAKE SHOPPING CTR SUITE 4",MANDEVILLE,LA,70471,United States,7893,985-626-5633,,,30.3860513,-90.0902577,
striderite.com,255 . OH PAIR,8733 JEFFERSON HIGHWAY,BATON ROUGE,LA,70809,United States,67548,225-454-7158,,,30.418725,-91.0927724,
striderite.com,256 . DILLARDS S020150,4400 SHARON ROAD,CHARLOTTE,NC,28211,United States,16782,,,,35.153939,-80.8317551,
striderite.com,257 . BOBS LITTLE FEET,4601 S SHERWOOD FOREST BLVD,BATON ROUGE,LA,70816,United States,7553,(225)-291-4850,,,30.4119654,-91.0514196,
striderite.com,258 . TOOTSIES TOO LLC,4732 SHARON ROAD,CHARTLOTTE,NC,,United States,67479,704-379-1992,,,35.1480241,-80.8333234,
striderite.com,259 . DILLARDS S020151,11041 CAROLINA PLACE PKWY,PINEVILLE,NC,28134,United States,16783,,,,35.080712,-80.875811,
striderite.com,260 . DILLARDS S020145,"3320 SILAS CREEK PKWY
#3500",WINSTON-SALEM,NC,27103,United States,16779,,,,36.0701622,-80.3005484,
striderite.com,261 . DILLARDS S070768,6601 BLUEBONNET,BATON ROUGE,LA,70836,United States,16817,,,,30.3906039,-91.0915168,
striderite.com,262 . DILLARDS S070758,"2600 BEACH BLVD
STE 1",BILOXI,MS,39531,United States,16808,,,,30.392667,-88.9897247,
striderite.com,263 . DILLARDS S020267,3450 WRIGHTSBORO RD,AUGUSTA,GA,30909,United States,16803,,,,33.4654142,-82.0805568,
striderite.com,264 . DILLARDS S020274,"900 COMMONS DRIVE
WIRE GRASS COMMONS",DOTHAN,AL,36303,United States,7617,,,,31.2548,-85.4232,
striderite.com,265 . DILLARDS S070704,"4850 OVERTON RIDGE BLVD
HULEN MALL",FT WORTH,TX,76132,United States,8225,,,,32.6760743,-97.3990182,
striderite.com,266 . DILLARDS 761,"940 TOWN CENTER PARKWAY
FREMAUX TOWN CENTER",SLIDELL,LA,,United States,67472,,,,30.2666179,-89.7633376,
striderite.com,267 . WHITE BALMER SHOES,123 ONTARIO STREET,STRATFORD,ON,,Canada,8338,,,,43.3712844,-80.9808952,
striderite.com,268 . MEEKER MARSHALL SHOE FLY,7520 PEACH ST,ERIE,PA,16509,United States,8130,814-868-2918,,,42.051946,-80.084624,
striderite.com,269 . ADEN FOOTWEAR (SHARAD),669 DUNDAS ST,WOODSTOCK,ON,,Canada,65606,519-537-2336,,,43.1314436,-80.7484556,
striderite.com,270 . GREENWOOD SHOES STORE 2,105 ARNOLD BOULEVARD,LAFAYETTE,LA,70506,United States,7892,337-235-3746,,,30.2648744,-91.8526972,
striderite.com,271 . DILLARDS S020242,"5100 NORTH 9TH AVENUE
CORDOVA MALL",PENSACOLA,FL,32504,United States,7756,,,,30.473695,-87.206432,
striderite.com,272 . GREENWOOD SHOES STORE 1,434 JEFFERSON STREET,LAFAYETTE,LA,70501,United States,7891,337-984-7001,,,30.226123,-92.018191,
striderite.com,273 . DILLARDS S020276,"2601 DAWSON ROAD
ALBANY MALL",ALBANY,GA,31707,United States,7801,,,,31.616185,-84.218123,
striderite.com,274 . SHARP'S SHOES,2516 DAWSON RD,ALBANY,GA,,United States,67494,229-435-4271,,,31.6103249,-84.2126637,
striderite.com,275 . DILLARDS S020164,100 COLUMBIANA CIRCLE,COLUMBIA,SC,29212,United States,16790,,,,34.0771623,-81.1554905,
striderite.com,276 . AL'S SHOE FACTORY SIMCOE,65 DONLY DR N,SIMCOE,ON,,Canada,65610,,,,42.8484378,-80.2912165,
striderite.com,277 . DILLARDS S070766,5725 JOHNSTON ROAD,LAFAYETTE,LA,70503,United States,16815,,,,30.1711805,-92.075558,
striderite.com,278 . DILLARDS 144,125 FOUR SEASONS TOWNE CENTER,GREENSBORO,NC,27407,United States,68146,,,,36.0403189,-79.83806,
striderite.com,279 . DILLARDS 144,"125 FOUR SEASONS TOWNE CENTER
FOUR SEASONS TOWNE CENTER",GREENSBORO,NC,27407,United States,68616,,,,36.0403189,-79.83806,
striderite.com,280 . DILLARDS S070760,3301 VETERANS MEMORIAL BLVD,METAIRIE,LA,70002,United States,16810,,,,30.0061124,-90.1573759,
striderite.com,281 . PONSETI'S SHOES,4460 VETERANS MEMORIAL BLVD,METAIRIE,LA,,United States,67486,504-885-0028,,,30.0052765,-90.1831199,
striderite.com,282 . STRADER SHOES,"1601 S SCALES STREET
PENN ROSE MALL",REIDSVILLE,NC,27320,United States,7992,336-349-5659,,,36.340823,-79.661536,
striderite.com,283 . HAASE SHOE STORE INC,8119 OAK ST,NEW ORLEANS,LA,70118,United States,67549,504-866-9944,,,29.9479137,-90.130129,
striderite.com,284 . DILLARDS S070762,197 WEST BANK EXPRESSWAY,GRETNA,LA,70053,United States,16811,,,,29.92243,-90.0403939,
striderite.com,"285 . TOOTSIES, INC.",4517 FOREST DRIVE,COLUMBIA,SC,,United States,67475,803-738-1873,,,34.021173,-80.9722063,
striderite.com,286 . AL'S SHOE FACTORY,135 KING GEORGE RD,BRANTFORD,ON,,Canada,65556,,,,43.1705433,-80.2770039,
striderite.com,287 . SHOE PER KITCHENER,"589 FAIRWAY RD S
UNIT 18",KITCHENER,ON,,Canada,65571,,,,43.4191656,-80.4474485,
striderite.com,288 . DILLARDS S070767,684 WEST PRIEN LAKE RD.,LAKE CHARLES,LA,70601,United States,16816,,,,30.19925,-93.229725,
striderite.com,289 . GOODY 2 SHOES,213 MAIN STREET,DAYTON,VA,22821,United States,8243,540-879-2200,,,38.4145064,-78.9389262,
striderite.com,290 . THYSSEN OF GALT,75 MAIN STREET,CAMBRIDGE,ON,,Canada,8337,,,,43.3588635,-80.3131172,
striderite.com,291 . SHOE PER GUELPH,130 SILVERCREEK PKWY N,GUELPH,ON,,Canada,65570,,,,43.5397195,-80.2809861,
striderite.com,292 . BENDERS,409 1ST AVE NW,GRAND RAPIDS,MN,55744,United States,67556,218-326-8055,,,47.236379,-93.530359,
striderite.com,293 . THE SHOE FITS,293 BAY ST,SAULT STE MARIE,ON,,Canada,65573,,,,46.512778,-84.3393461,
striderite.com,294 . DILLARDS S070765,"5953 WEST PARK AVE
SUITE #1000",HOUMA,LA,70364,United States,16814,,,,29.6341644,-90.7558827,
striderite.com,295 . MILLER'S SHOES,"1289 UPPER JAMES ST
UNIT 3",HAMILTON,ON,,Canada,65582,,,,43.2129933,-79.8873853,
striderite.com,296 . THE BOOT SHOP,1050 UPPER JAMES STREET,HAMILTON,ON,,Canada,65551,905-667-1939,,,43.2211965,-79.8853364,
striderite.com,297 . FELGERS FOOTWEAR,"1539 MARTIN LUTHER KING BLVD
WAL MART CENTER",HOUMA,LA,70360,United States,7890,985-851-1559,,,29.6077057,-90.7472725,
striderite.com,298 . BEST SHOOZ 4 KIDZ INC.,999 UPPER WENTWORTH,HAMILTON,ON,,Canada,65575,,,,43.2173505,-79.8619199,
striderite.com,299 . CAROUSEL KIDS,3-115 HAMILTON,WATERDOWN,ON,,Canada,65660,,,,43.3357231,-79.9033802,
striderite.com,300 . DILLARDS S070786,"6457 EASTEX FREEWAY
PARKDALE MALL",BEAUMONT,TX,77706,United States,8203,,,,30.1286418,-94.1617463,
striderite.com,301 . BROWNS SHOES STORE 51,"900 MAPLE AVE
MAPLEVIEW SHOPPING CENTRE",BURLINGTON,ON,,Canada,8351,905-333-1041,,,43.3253178,-79.8208885,
striderite.com,302 . DILLARDS S070730,"6001 WEST WACO DRIVE
RICHLAND FASHION",WACO,TX,76710,United States,8177,,,,31.514039,-97.187333,
striderite.com,303 . DILLARDS S020247,"200 PIER PARK DR
PIER PARK",PANAMA CITY BEACH,FL,32413,United States,7789,,,,30.223956,-85.8713342,
striderite.com,304 . FACTORY SHOE OUTLET-EMILLE SHOES LTD,2394 FAIRVIEW ST,BURLINGTON,ON,,Canada,65564,,,,43.3450945,-79.7993657,
striderite.com,305 . OLLYS SHOES,"4521 DUNDAS STREET EAST
UNIT F1",BURLINGTON,ON,,Canada,67469,,,,43.404426,-79.810231,
striderite.com,306 . DILLARDS S070787,"3100 HIGHWAY 365
CENTRAL MALL",PORT ARTHUR,TX,77642,United States,8204,,,,29.945653,-93.988862,
striderite.com,307 . DILLARDS S020248,"2298 MARTIN LUTHER KG DR
PANAMA CITY MALL",PANAMA CITY,FL,32405,United States,7759,,,,30.1892403,-85.6499562,
striderite.com,308 . SHOE PER ORANGEVILLE,78 1ST ST,ORANGEVILLE,ON,,Canada,65569,,,,43.9273778,-80.1000772,
striderite.com,309 . LASSERS SHOE FLY,3015 PLEASANT VALLEY SHPG CTR,ALTOONA,PA,16602,United States,8129,814-941-2132,,,40.48781,-78.3989831,
striderite.com,310 . BROWN SHOES STORE 32,"100 CITY CENTRE DR
SQUARE ONE SHOPPING CENTRE",MISSISSAUGA,ON,,Canada,8353,905-566-0842,,,43.5930411,-79.642797,
striderite.com,311 . BROWNS SHOES STORE 53,"25 PEEL CENTER DR
BRAMALEA SHOPPING CENTRE",BRAMPTON,ON,,Canada,8352,905-791-2257,,,43.7152636,-79.7237811,
striderite.com,312 . WILKINS SHOE CENTER,7 SOUTH LOUDOUN STREET,WINCHESTER,VA,22601,United States,8252,540-667-5600,,,39.183947,-78.166099,
striderite.com,313 . THE BOOT SHOP (1975) LTD,46 JAMES STREET,ST CATHARINES,ON,,Canada,65566,,,,43.158754,-79.2450904,
striderite.com,314 . BOOT SHOP (ST. PAUL ST.),211 ST. PAUL STREET,ST. CATHARINES,ON,,Canada,8312,,,,43.1580894,-79.2439159,
striderite.com,315 . THE BOOT SHOP,221 PEN CENTRE,ST CATHARINES,ON,,Canada,65550,905-685-4031,,,43.134869,-79.223701,
striderite.com,316 . OLLY SHOES,"SMART! CENTRE AT ETOBICOKE
149 N QUEEN ST UNIT 3/4",ETOBICOKE,ON,,Canada,65580,,,,43.6193483,-79.5564805,
striderite.com,317 . DILLARDS S070783,1504 HARVEY BLVD.,COLLEGE STATION,TX,77840,United States,16818,,,,30.627741,-96.3045483,
striderite.com,318 . STRIDE RITE OF FLORENCE,1988 WEST PALMETTO ST,FLORENCE,SC,29501,United States,7604,843-667-9944,,,34.1714447,-79.8177193,
striderite.com,319 . BROWNS,"300 TAYLOR ROAD
THE OUTLET COLLECTION AT NIAGARA",NIAGARA-ON-THE-LAKE,ON,,Canada,65664,905.682.8212,,,43.1574956,-79.1720112,
striderite.com,320 . WALKING TOTS,"3091 COLLEGE PARK DR
#195",THE WOODLANDS,TX,77384,United States,67487,936-231-8911,,,30.2050585,-95.4632962,
striderite.com,321 . DILLARDS S070770,1201 LAKE WOODLANDS DRIVE,WOODLANDS,TX,77380,United States,8194,,,,30.1666188,-95.4522491,
striderite.com,322 . SOLE KIDS SHOE COMPANY INC,2238 DUNDAS ST W 106,TORONTO,ON,,Canada,65658,,,,43.6543115,-79.4516145,
striderite.com,323 . DILLARDS S020243,"1500 APALACHEE PARKWAY
GOVERNORS SQUARE",TALLAHASSEE,FL,32301,United States,7757,,,,30.43723,-84.255908,
striderite.com,324 . PANDA VAUGHAN MILLS,1 BASS PRO MILLS RD,VAUGHAN,ON,,Canada,65609,,,,43.8254765,-79.5386,
striderite.com,325 . DILLARDS S020141,1105 WALNUT STREET,CARY,NC,27511,United States,16777,,,,35.7737048,-78.7574406,
striderite.com,326 . BROWNS SHOES STORE 31,"1 BASS PRO MILLS DR
VAUGHAN MILLS",VAUGHAN,ON,,Canada,8350,905-760-0307,,,43.8226981,-79.5334393,
striderite.com,327 . HOP SKIP JUMP KIDS,579 ST CLAIR AVE W,TORONTO,ON,,Canada,65623,,,,43.6823628,-79.4214891,
striderite.com,328 . BROWNS SHOES STORE 24,"3404 DUFFERIN HWY 401 UNIT E13
YORKDALE SHOPPING CENTRE",TORONTO,ON,,Canada,8348,416-787-0313,,,43.7251083,-79.4528087,
striderite.com,329 . LITTLE SHOE PALACE LTD,3189 BATHURST ST,TORONTO,ON,,Canada,65577,,,,43.722972,-79.430437,
striderite.com,330 . KIDS CLUB,3377 BATHURST ST.,TORONTO,ON,,Canada,8327,,,,43.7261283,-79.4310908,
striderite.com,331 . MOBLEY MCLEAN COMPANY,"7416 CREEDMOOR ROAD
STONEHENGE MKT SPNG CTR",RALEIGH,NC,27613,United States,7979,919-518-1640,,,35.8858077,-78.6793582,
striderite.com,332 . ITTY BITTY SHOE SHOP,9222 KEELE ST,CONCORD,ON,,Canada,65659,,,,43.8355085,-79.5079776,
striderite.com,333 . FISCHER STRIDE RITE,"3902 13TH AVE S
WEST ACRES S/C #4409",FARGO,ND,58103,United States,7569,701-282-7986,,,46.859181,-96.84652,
striderite.com,334 . OLLY SHOES,2600 YONGE ST,TORONTO,ON,,Canada,65579,,,,43.7148408,-79.4002692,
striderite.com,335 . DILLARDS S070731,"3100 S 31ST ST
TEMPLE MALL",TEMPLE,TX,76502,United States,8178,,,,31.0712799,-97.368854,
striderite.com,336 . DILLARDS S070780,"20131 HWY 59 SPACE 2000
DEERBROOK MALL",HUMBLE,TX,77338,United States,8201,,,,30.011527,-95.268579,
striderite.com,337 . BROWN SHOES STORE 26,"1 PROMENADE CIRCLE
PROMENADE SHOPPING CENTRE",THORNHILL,ON,,Canada,8349,905-764-1444,,,43.8090933,-79.4532924,
striderite.com,338 . TAJO CHILDREN'S SHOES,1723 BAYVIEW AVE.,TORONTO,ON,,Canada,8335,,,,43.7083519,-79.3761336,
striderite.com,339 . TOADS & TEACUPS CHILDRENS SHOP,1601 BAYTREE RD,VALDOSTA,GA,31602,United States,7809,229-244-7220,,,30.8463,-83.3211,
striderite.com,340 . CORSO II,1942 QUEEN STREET EAST,TORONTO,ON,,Canada,8314,,,,43.6694077,-79.3029822,
striderite.com,341 . BROWNS SHOES STORE 50,"20 KARL FRASER RD
SHOPS AT DON MILLS",TORONTO,ON,,Canada,8354,416-384-0971,,,43.7355866,-79.3447967,
striderite.com,342 . KIDDIE KOBBLER HILLCREST,"9350 YONGE STREET
HILLCREST MALL",RICHMOND HILL,ON,,Canada,8340,,,,43.8537569,-79.4333014,
striderite.com,343 . KIDDIE KOBBLER FAIRVIEW,"1800 SHEPPARD AVE. EAST
FAIRVIEW MALL",NORTH YORK,ON,,Canada,8320,,,,43.7711449,-79.367481,
striderite.com,344 . THE FITTING PLACE,"982 UNION ROAD
SOUTHGATE PLAZA",WEST SENECA,NY,14224,United States,8055,716-677-4636,,,42.8274284,-78.7534316,
striderite.com,345 . ADVANCED PEDORTHIC,95 TIMES AVENUE UNIT C3-C4,THORNHILL,ON,,Canada,65620,,,,43.841595,-79.390754,
striderite.com,346 . DILLARDS S020140,3501 SUMNER BLVD,RALEIGH,NC,27616,United States,16776,,,,35.865222,-78.578134,
striderite.com,347 . OMAR'S SHOES,14800 YONGE ST 118,AURORA,ON,,Canada,65581,,,,43.9873224,-79.4659815,
striderite.com,348 . ZONAS II - NEWMARKET,"16925 YONGE ST
QUAKER HILL MARKET PLACE",NEWMARKET,ON,,Canada,46239,905-830-9737,,,44.040426,-79.476923,
striderite.com,349 . KIDDIE KOBBLER NEWMARKET,17600 YONGE ST UNIT,NEWMARKET,ON,,Canada,65657,,,,44.0562891,-79.4856451,
striderite.com,350 . BROWNS,"17600 YONGE STREET
UPPER CANADA MALL",NEWMARKET,ON,,Canada,65663,905.868.8646,,,44.0562891,-79.4856451,
striderite.com,351 . JOHN ALLEN SHOES,214 OWEN DRIVE,FAYETTEVILLE,NC,28304,United States,7977,910-484-3161,,,35.041432,-78.9347669,
striderite.com,352 . KIDDIE KOBBLER MARKVILLE,"5000 HIGHWAY 7
MARKVILLE SHOPPING CENTRE",MARKHAM,ON,,Canada,8322,,,,43.8590616,-79.3146819,
striderite.com,353 . ZONAS II - BARRIE,"555 ESSA RD UNIT
A20",BARRIE,ON,,Canada,46238,705-730-1960,,,44.3390241,-79.7103679,
striderite.com,354 . OLLY SHOES,"AURORA GATEWAY CENTRE
650 WELLINGTON STREET EAST",AURORA,ON,,Canada,65578,,,,44.0123418,-79.4074374,
striderite.com,355 . SHOES 4 ME,"531 BAYFIELD ST
PRIORITY PLAZA",BARRIE,ON,,Canada,8319,,,,44.4139958,-79.7114879,
striderite.com,356 . DILLARDS S070732,"2100 S WS YOUNG DR 6000
KILLEEN MALL",KILLEEN,TX,76543,United States,8179,,,,31.0668773,-97.7281851,
striderite.com,357 . LITTLE MONKEY'S TREE HOUSE,309 KING ST,MIDLAND,ON,,Canada,65645,,,,44.7489331,-79.884447,
striderite.com,358 . DILLARDS S070774,"900 MEMORIAL CITY
MEMORIAL",HOUSTON,TX,77024,United States,8197,,,,29.7817613,-95.5360031,
striderite.com,359 . DILLARDS S070775,"4925 WESTHEIMER
POST OAK",HOUSTON,TX,77056,United States,8198,,,,29.739835,-95.459092,
striderite.com,360 . DILLARDS S020277,"14025 ABERCORN STREET
SAVANNAH MALL",SAVANNAH,GA,31419,United States,7802,,,,31.9821226,-81.1735749,
striderite.com,361 . PETITE FEET,5521 ABERCORN ST.,SAVANNAH,GA,,United States,67492,912-349-4292,,,32.0246312,-81.1100686,
striderite.com,362 . PETITE FEET,5521 ABERCORN ST.,SAVANNAH,GA,31405,United States,67551,912-349-4292,,,32.0246312,-81.1100686,
striderite.com,363 . SAXON SHOES INC,"11800 WEST BROAD STREET
#2750 SHORT PUMP TOWN CENTER",RICHMOND,VA,23233,United States,8250,804-285-3473,,,37.6559299,-77.6198665,
striderite.com,364 . DILLARDS S020176,11824 W BROAD STREET,RICHMOND,VA,23233,United States,16799,,,,37.6555998,-77.6167995,
striderite.com,365 . KID'S KICKS,UNIT K3 304 TAUNTON RD.EST,WHITBY,ON,,Canada,65615,,,,43.9181633,-78.946458,
striderite.com,366 . DILLARDS S070744,"4310 BUFFALO GAP ROAD
MALL OF ABILENE",ABILENE,TX,79606,United States,8188,,,,32.40299,-99.7628749,
striderite.com,367 . DILLARDS S070779,"600 BAYBROOK MALL
BAYBROOK MALL",FRIENDSWOOD,TX,77546,United States,8200,,,,29.543526,-95.150273,
striderite.com,368 . BUTTONS AND BOWS,1517 N PARHAM ROAD,RICHMOND,VA,,United States,67480,804-285-0482,,,37.603329,-77.5633554,
striderite.com,369 . DILLARDS S020179,9208 STONY POINT PARKWAY,RICHMOND,VA,23235,United States,16800,,,,37.551937,-77.573431,
striderite.com,370 . DILLARDS S070740,"7701 W INTERSTATE 40 STE300
WESTGATE MALL",AMARILLO,TX,79121,United States,8185,,,,35.181567,-101.928172,
striderite.com,371 . DILLARDS S020162,2150 NORTHWOOD BLVD NORTH,CHARLESTON,SC,29406,United States,16788,,,,32.9458243,-80.0413185,
striderite.com,372 . DILLARDS S070778,"11200 BROADWAY
PEARLAND TOWN CENTER",PEARLAND,TX,77584,United States,8224,,,,29.552516,-95.3909369,
striderite.com,373 . A.W. BROCK DEPT. STORE,168 QUEEN STREET,PORT PERRY,ON,,Canada,8308,,,,44.1050736,-78.9430647,
striderite.com,374 . DILLARDS S020161,2066 SAM RITTENBURG BLVD,CHARLESTON,SC,29407,United States,16787,,,,32.7924812,-80.0306484,
striderite.com,375 . DILLARDS S070777,"16517 SOUTHWEST FREEWAY
FIRST COLONY",SUGARLAND,TX,77479,United States,8199,,,,29.5765925,-95.6551222,
striderite.com,376 . SHOE TRAIN,11325 SEVEN LOCKS ROAD,POTOMAC,MD,20854,United States,7918,301-299-9662,,,39.042346,-77.1584,
striderite.com,377 . STRIDE RITE MOUNT PLEASANT,"210 COLEMAN BLVD
THE COMMON SHOPPING CENTER",MT PLEASANT,SC,29464,United States,7605,843.881.1202,,,32.791382,-79.878686,
striderite.com,378 . RAMERS SHOES,3810 N HAMPTON ST NW,WASHINGTON,DC,20015,United States,7730,202-244-2288,,,38.8391549,-77.1052496,
striderite.com,379 . RAMER'S SHOES,3810 N HAMPTON STREET,WASHINGTON,DC,,United States,67474,202-244-2288,,,38.9658149,-77.076794,
striderite.com,380 . J AND S SHOES INC,"STRIDE RITE WHEATON
WESTFIELD WHEATON MALL",WHEATON,MD,20902,United States,7556,301-946-4747,,,39.036557,-77.053967,
striderite.com,381 . DILLARDS S070735,"11200 LAKELINE MALL DRIVE
LAKELINE MALL",CEDAR PARK,TX,78613,United States,8181,,,,30.4698334,-97.8080177,
striderite.com,382 . DILLARDS S070734,3211 FEATHERGRASS COURT,AUSTIN,TX,78758,United States,8222,,,,30.3959468,-97.7283549,
striderite.com,383 . DILLARDS S020163,100 COASTAL GRAND CIRCLE,MYRTLE BEACH,SC,29577,United States,16789,,,,33.7012415,-78.926783,
striderite.com,384 . IRVING'S SHOE FLY,212 CAMP HILL MALL,CAMP HILL,PA,17011,United States,8127,717-737-8693,,,40.2354406,-76.9346599,
striderite.com,385 . DILLARDS S070733,"2901 CAPITAL TEXAS HWY
BARTON CREEK MALL",AUSTIN,TX,78746,United States,8180,,,,30.3276492,-97.8108939,
striderite.com,386 . IRVING'S SHOE FLY & KIDS,"COLONIAL PARK MALL
4600 JONESTOWN RD",HARRISBURG,PA,17109,United States,8131,717-671-0970,,,40.3009887,-76.8158099,
striderite.com,387 . BEEBE BOOT SHOP,33 KING STREET WEST,COBOURG,ON,,Canada,8311,,,,43.9597354,-78.1666117,
striderite.com,388 . DILLARDS S070736,"12800 STATE HWY 71 W
HILL COUNTRY GALLERIA",BEE CAVE,TX,78738,United States,8223,,,,30.30724,-97.9412765,
striderite.com,389 . IRVING'S SHOE FLY,"THE CROSSROADS ON RT 30
351 LOUCKS RD",YORK,PA,17404,United States,8128,717-845-4200,,,39.984222,-76.741802,
striderite.com,390 . LEESERS SHOE STORE,18 BROADWAY,MILTON,PA,17847,United States,8120,570-742-8241,,,41.0202102,-76.8545527,
striderite.com,391 . BIGLEY SHOES,35-45 BOLTON ST,BOBCAYGEON,ON,,Canada,65557,,,,44.537456,-78.5446034,
striderite.com,392 . DILLARDS S070784,"100 HWY 332 WEST
BRAZOS MALL",LAKE JACKSON,TX,77566,United States,8202,,,,29.052633,-95.462764,
striderite.com,393 . REINEBERG'S SHOES,"1031 HAINES ROAD
SHOPPING CENTER",YORK,PA,17402,United States,8123,717-757-5659,,,39.9611741,-76.6812832,
striderite.com,394 . TOWSON BOOTERY INC,"810 KENILWORTH DRIVE
THE SHOPS AT KENILWORTH",TOWSON,MD,21204,United States,7920,410-296-0640,,,39.4099356,-76.616441,
striderite.com,395 . VAN DYKE AND BACON SHOES,5919 YORK ROAD,BALTIMORE,MD,,United States,67481,410-433-1100,,,39.3647486,-76.6095894,
striderite.com,396 . VON MAUR,300 EASTVIEW MALL,VICTOR,NY,14564,United States,67542,(585) 223-3417,,,43.027789,-77.444888,
striderite.com,397 . DILLARDS S070743,"6002 SLIDE ROAD LOOP 289
SOUTH PLAINS MALL",LUBBOCK,TX,79414,United States,8187,,,,33.545629,-101.934921,
striderite.com,398 . PANOSIANS INC,"303 NORTH MAIN STREET
DISTRIBUTION CENTER",ELMIRA,NY,14901,United States,8051,607-734-8133,,,42.090047,-76.809288,
striderite.com,399 . DILLARDS S020156,3500 OLEANDER DRIVE,WILMINGTON,NC,28403,United States,16786,,,,34.2121692,-77.9061001,
striderite.com,400 . DILLARDS S020174,"12300 JEFFERSON AVENUE
STE 300",NEWPORT NEWS,VA,23602,United States,16798,,,,37.11249,-76.4958795,
striderite.com,401 . DILLARDS S020232,"1910 WELLS ROAD
ORANGE PARK MALL",ORANGE PARK,FL,32073,United States,7751,,,,30.186029,-81.733423,
striderite.com,402 . DILLARDS S020230,"4755 TOWN CROSSING DRIVE
ST JOHNS TOWN CENTER",JACKSONVILLE,FL,32246,United States,7750,,,,30.2567826,-81.5272372,
striderite.com,403 . JUNIOR WORLD,193 MAIN ST W,NORTH BAY,ON,,Canada,65634,,,,46.311922,-79.465437,
striderite.com,404 . DILLARDS S020233,"10300 SOUTHSIDE BOULEVARD
THE AVENUES",JACKSONVILLE,FL,32256,United States,7752,,,,30.186051,-81.554019,
striderite.com,405 . DILLARDS S070745,"2000 SUNSET DRIVE
SUNSET MALL",SAN ANGELO,TX,76904,United States,8189,,,,31.4165104,-100.4648852,
striderite.com,406 . DILLARDS S020170,200 MONTICELLO AVE,NORFOLK,VA,23510,United States,16795,,,,36.848363,-76.2895829,
striderite.com,407 . CROWE'S FOOTWEAR & AMOUR FINE LING.,151 MAIN,PICTON,ON,,Canada,65565,,,,44.006483,-77.143524,
striderite.com,408 . DILLARDS 172,"1401 GREENBRIER PARKWAY
GREENBRIER MALL",CHESAPEAKE,VA,23320,United States,68618,,,,36.7796122,-76.227374,
striderite.com,409 . GINOS SHOE STORE,ROUTE 309,DALLAS,PA,18612,United States,8117,570-675-2029,,,41.3624312,-75.9642405,
striderite.com,410 . GINOS FAIRVIEW SHOE STORE,109 SOUTH MAIN STREET,MOUNTAINTOP,PA,18707,United States,8116,570-474-6051,,,41.1565675,-75.8917475,
striderite.com,411 . DILLARDS S070741,"2609 NORTH PRINCE
NORTH PLAINS MALL",CLOVIS,NM,88101,United States,8025,,,,34.4244385,-103.1964788,
striderite.com,412 . DILLARDS S070722,"6909 LOOP 1604 EAST
ROLLING OAKS MALL",SAN ANTONIO,TX,78247,United States,8171,,,,29.595511,-98.350375,
striderite.com,413 . DILLARDS S070737,"7800 NAVARRO
VICTORIA MALL",VICTORIA,TX,77904,United States,8183,,,,28.8675681,-96.9973722,
striderite.com,414 . DILLARDS 171,"701 LYNNHAVEN PARKWAY
LYNNHAVEN MALL",VIRGINIA BEACH,VA,23452,United States,68617,,,,36.8165136,-76.0708276,
striderite.com,415 . DILLARDS 171,"701 LYNNHAVEN PARKWAY
LYNNHAVEN MALL",VIRGINIA BEACH,VA,23452,United States,68147,,,,36.8165135,-76.0708276,
striderite.com,416 . THE PERFECT FIT-CHILDRENS FOOTWEAR,"10350 S PROGRESS WAY, STE. 101",PARKER,CO,80134,United States,68559,720-758-6108,,,39.5275856,-104.769181,
striderite.com,417 . DILLARDS S090994,"1790 BRIARGATE BOULEVARD
CHAPEL HILLS MALL",COLORADO SPRINGS,CO,80920,United States,7716,,,,38.949374,-104.793025,
striderite.com,418 . BABY COTTON BOTTOMS,330 S NEVADA AVE,COLORADO SPRINGS,CO,80903,United States,67555,719-328-0741,,,38.8284425,-104.8225349,
striderite.com,419 . DILLARDS S070721,"15900 LA CANTERA PKWY
THE SHOPS AT LA CANTERA",SAN ANTONIO,TX,78256,United States,8221,,,,29.592901,-98.618066,
striderite.com,420 . DILLARDS S070720,"7400 SAN PEDRO
NORTH STAR MALL",SAN ANTONIO,TX,78216,United States,8170,,,,29.519365,-98.497952,
striderite.com,421 . DILLARDS S090981,"8415 PARK MEADOWS CENTER
PARK MEADOWS",LITTLETON,CO,80124,United States,7710,,,,39.5642179,-104.878792,
striderite.com,422 . VERNON POWELL SHOES,2401 E NAYLOR MILL ROAD,SALISBURY,MD,21804,United States,7921,410-749-4561,,,38.401501,-75.56072,
striderite.com,423 . SMITHS DRUGS,301 MAIN AVE,LEMMON,SD,57638,United States,67565,605-374-3897,,,45.9419102,-102.1593863,
striderite.com,424 . LITTLE FEET & MORE,201 UNIVERSITY BLVD,DENVER,CO,80206,United States,7719,,,,39.7207572,-104.9598784,
striderite.com,425 . DILLARDS S070723,"6301 NW 410 LOOP STE D
INGRAM PARK MALL",SAN ANTONIO,TX,78238,United States,8172,,,,29.4663043,-98.6193946,
striderite.com,426 . STRIDE RITE,160 N GULPH RD,KING OF PRUSSIA,PA,19406,United States,61912,610-265-6712,,,40.087905,-75.389763,
striderite.com,427 . THE BEARHEART KIDS BOUTIQUE,243 2ND ST S,KENORA,ON,,Canada,65624,,,,49.7659678,-94.4896803,
striderite.com,428 . DILLARDS S020229,"4414 SW COLLEGE RD
MARKET STREET",OCALA,FL,34474,United States,7788,,,,29.1417017,-82.1907538,
striderite.com,429 . DILLARDS S090984,"8501 WEST BOWLES
SOUTHWEST PLAZA",LITTLETON,CO,80123,United States,7712,,,,39.609986,-105.098627,
striderite.com,430 . KIDZ SHOOZ,3 WEST LANCASTER AVENUE,ARDMORE,PA,19003,United States,8119,610-645-9445,,,40.008355,-75.2911589,
striderite.com,431 . BROWNS SHOE FIT,373 MAIN STREET,LONGMONT,CO,80501,United States,67557,303-776-2920,,,40.1653448,-105.102694,
striderite.com,432 . DILLARDS S090987,41 WEST FLATIRON CIRCLE,BROOMFIELD,CO,80021,United States,7713,,,,39.9289372,-105.133047,
striderite.com,433 . A ONE CLOTHING,358 KING ST. EAST,KINGSTON,ON,,Canada,8307,,,,44.2312893,-76.4809887,
striderite.com,434 . STRIDE RITE,2500 W MORELAND RD,WILLOW GROVE,PA,19090,United States,61911,215-657-7577,,,40.140196,-75.123504,
striderite.com,435 . DILLARDS S070746,"4511 NORTH MIDKIFF
MIDLAND PARK MALL",MIDLAND,TX,79705,United States,8190,,,,32.0187723,-102.10473,
striderite.com,436 . CATO'S KICKS,"250 NORTH FRONTAGE ROAD
WEST LOOP",MIDLAND,TX,,United States,67485,432-528-9973,,,32.0337266,-102.1264625,
striderite.com,437 . ALS SHOES INC,639 LANDIS AVE,VINELAND,NJ,08360,United States,67446,856-691-1180,,,39.485643,-75.021719,
striderite.com,438 . CARLS SHOES,27 WEST MAIN STREET,MOORESTOWN,NJ,08057,United States,8000,856-235-6223,,,39.9634016,-74.9479765,
striderite.com,439 . PLUM CREEK SHOES,135 MORAINE AVE,ESTES PARK,CO,80517,United States,7720,,,,40.3753645,-105.5237791,
striderite.com,440 . AVON SHOES AND ORTHOPEDIC,67 PUBLIC SQUARE,WATERTOWN,NY,13601,United States,8038,315-788-4291,,,43.974744,-75.9094895,
striderite.com,441 . DILLARDS S070747,"4101 E EAST 42ND ST
MUSIC CITY MALL",ODESSA,TX,79762,United States,8191,,,,31.893154,-102.340951,
striderite.com,442 . CARELLAS SHOES,2431 NOTTINGHAM WAY,MERCERVILLE,NJ,08619,United States,7999,609-587-5823,,,40.233778,-74.696243,
striderite.com,443 . DILLARDS S020235,"1700 W INTERNATIONAL SPWY
VOLUSIA MALL",DAYTONA BEACH,FL,32114,United States,7753,,,,29.195698,-81.063029,
striderite.com,444 . SNEAKER BARN SHOE TREE,151 U.S. 206,CHESTER,NJ,07930,United States,8015,908-879-7116,,,40.7804582,-74.6978651,
striderite.com,445 . DILLARDS S020256,"10304 FOREST HILLS
WELLINGTON GREEN",WELLINGTON,FL,33414,United States,7764,,,,28.1748393,-82.7584464,
striderite.com,446 . FISCHERS SHOES,13 CENTRAL SQUARE,LINWOOD,NJ,08221,United States,8003,609-927-1717,,,39.3604465,-74.5685524,
striderite.com,447 . MASTRO MARTIN SHOES LLC,20 MINE BROOK RD,BERNARDSVILLE,NJ,07924,United States,62669,908-766-4311,,,40.7178188,-74.5701337,
striderite.com,448 . DILLARDS S020224,"300 TOWNE CENTER CIRCLE
SEMINOLE TOWN CENTER",SANFORD,FL,32771,United States,7747,,,,28.805987,-81.337165,
striderite.com,449 . SNEAKER BARN INC.,11 BROADWAY,DENVILLE,NJ,07834,United States,65462,973-627-2330,,,40.8924359,-74.4782967,
striderite.com,450 . JAYS SHOE BOX,31 BROADWAY AVE,DENVILLE,NJ,07834,United States,65286,973-664-1024,,,40.891933,-74.477349,
striderite.com,451 . TOTO N DOT - WINNIPEG,112-2025 CORYDON AVE,WINNIPEG,MB,,Canada,65649,,,,49.8670336,-97.2119845,
striderite.com,452 . DILLARDS S020206,27001 US HIGHWAY 19 N,CLEARWATER,FL,33761,United States,16802,,,,28.0180364,-82.734328,
striderite.com,453 . LITTLE FEET,27607 SR 56,WESLEY CHAPEL,FL,33544,United States,7733,813-991-1785,,,28.186325,-82.3597,
striderite.com,454 . DILLARDS S020208,28335 PASEO DR,WESLEY CHAPEL,FL,33543,United States,7786,,,,28.189273,-82.347071,
striderite.com,455 . DILLARDS S020203,"8161 CITRUS PARK TWN CTR
CITRUS PARK MALL",TAMPA,FL,33625,United States,7734,,,,28.067992,-82.579978,
striderite.com,456 . CASTLE BOOTERY,52 ELM STREET,WESTFIELD,NJ,07090,United States,8002,908-233-7172,,,40.6512571,-74.3479067,
striderite.com,457 . DILLARDS S020226,"451 E ALTAMONTE DRIVE
SUITE 1101 ALTAMONTE MALL",ALTAMONTE SPRGS,FL,32701,United States,7749,,,,28.666445,-81.375722,
striderite.com,458 . JAYS SHOE BOX,20 EAST MT PLEASANT AVE,LIVINGSTON,NJ,07039,United States,8006,973-992-0338,,,40.795641,-74.314285,
striderite.com,459 . DILLARDS S020222,1000 OVIEDO MARKETPLACE BLVD,OVIEDO,FL,32765,United States,7746,,,,28.661108,-81.236453,
striderite.com,460 . DILLARDS S020201,2223 N WESTSHORE BLVD,TAMPA,FL,33607,United States,16801,,,,27.9634228,-82.5206719,
striderite.com,461 . SLOBODIEN STRIDE RITE,1390 WILLOWBROOK MALL,WAYNE,NJ,07470,United States,68573,973.785.4283,,,40.890558,-74.260861,
striderite.com,462 . SLOBODIEN STRIDE RITE,1390 WILLOWBROOK MALL,WAYNE,NJ,07470,United States,68622,973-785-4283,,,40.890558,-74.260861,
striderite.com,463 . DILLARDS S070738,"5488 S PADRE ISLAND DRIVE
PADRE STAPLES MALL",CORPUS CHRISTI,TX,78411,United States,8184,,,,27.7079437,-97.3758532,
striderite.com,464 . GIBLINGS FOOTWEAR,382 RAMAPO VALLEY RD,OAKLAND,NJ,07436,United States,68609,201-337-7971,,,41.0252809,-74.2409656,
striderite.com,465 . DILLARDS S020205,6901 22ND AVE NORTH,ST PETERSBURG,FL,33710,United States,7736,,,,27.792965,-82.735868,
striderite.com,466 . KIDDIE KOBBLER KANATA,"5685 HAZELDEAN RD
UNIT 2",KANATA,ON,,Canada,65631,,,,45.2844195,-75.9110931,
striderite.com,467 . KANATA KIDZ FOOTWEAR,300 EAGLESON RD,KANATA,ON,,Canada,8346,613-270-8637,,,45.3013111,-75.8772403,
striderite.com,468 . DILLARDS S020221,"8001 S ORANGE BLOSSOM TRL
FLORIDA MALL",ORLANDO,FL,32809,United States,7745,,,,28.443489,-81.399096,
striderite.com,469 . PELTZ SHOES,328 BRANDON TOWN CTR DR,BRANDON,FL,33511,United States,7732,813-571-0777,,,27.936655,-82.327701,
striderite.com,470 . DILLARDS S020204,"303 BRANDON TOWN CENTER
TOWN CENTER MALL",BRANDON,FL,33511,United States,7735,,,,27.935128,-82.326789,
striderite.com,471 . BELLIA STRIDE RITE,"555 SHREWSBURY AVE
555 SHREWSBURY AVENUE",SHREWSBURY,NJ,07702,United States,7581,732-219-5000,,,40.334059,-74.06307,
striderite.com,472 . RIDGEWOOD BOOTERY,200 E RIDGEWOOD AVE,RIDGEWOOD,NJ,07450,United States,68584,2014450102,,,40.9787435,-74.1152048,
striderite.com,473 . KIDDIE KOBBLER BARHAVEN,"80 MARKET PLACE
CHAPMAN MILLS",NEPEAN,ON,,Canada,8318,,,,45.2699209,-75.74305,
striderite.com,474 . CAROUSEL SHOES,6027 BERGENLINE AVENUE,WEST NEW YORK,NJ,07093,United States,8001,201-854-6803,,,40.789797,-74.015993,
striderite.com,475 . RUNNIN' WILD,276 COURT ST,BROOKLYN,NY,11231,United States,8075,347-529-4609,,,40.6847341,-73.9948953,
striderite.com,476 . LA ELEGANTE SHOES,4216 13TH AVENUE,BROOKLYN,NY,11219,United States,8046,718-871-4519,,,40.638745,-73.988647,
striderite.com,477 . SCHWARTZ SHOES,4902 16TH AVENUE,BROOKLYN,NY,11204,United States,8053,718-851-8500,,,40.6309586,-73.9856218,
striderite.com,478 . WINDSOR SHOES,227 PROSPECT PARK WEST,BROOKLYN,NY,11215,United States,8058,718-369-2192,,,40.659896,-73.980445,
striderite.com,479 . IBIZA KIDS,340 First Avenue ( btw.19th & 20th Street),NEW YORK,NY,10009,United States,8061,,,,40.72632,-73.980106,
striderite.com,480 . TIP TOP KIDS,149 W 72ND ST,NEW YORK,NY,10023,United States,8056,212-874-1003,,,40.7782803,-73.9804182,
striderite.com,481 . HARRYS SHOES,2299 BROADWAY,NEW YORK,NY,10024,United States,8044,212-874-2035,,,40.7864503,-73.9782018,
striderite.com,482 . KIDDIE KOBBLER WESTBORO,395 RICHMOND RD,OTTAWA,ON,,Canada,65611,,,,45.3910113,-75.7564714,
striderite.com,483 . LESTERS OF NEW YORK,1534 SECOND AVE.,NEW YORK,NY,10075,United States,68151,718-375-7337,,,40.7736808,-73.9544931,
striderite.com,484 . LESTERS OF NEW YORK,1534 SECOND AVE.,NEW YORK,NY,10021,United States,68621,718-375-7337,,,40.7736808,-73.9544931,
striderite.com,485 . HOUSE OF KIDS,307 W 125TH ST,NEW YORK,NY,10027,United States,8064,212-222-7330,,,40.8105836,-73.9516948,
striderite.com,486 . CLOSTER BOOTERY,226 CLOSTER DOCK RD,CLOSTER,NJ,07624,United States,68583,2017680822,,,40.972776,-73.961879,
striderite.com,487 . DA BAR TOO,70 05 GRAND AVENUE,MASPETH,NY,11378,United States,8040,718-779-1544,,,40.727703,-73.892968,
striderite.com,488 . KIDDIE KOBBLER ST. LAURENT,"1177 ST. LAURENT BLVD.
ST. LAURENT SHOPPING CTR.",OTTAWA,ON,,Canada,8326,,,,45.4225281,-75.6362164,
striderite.com,489 . EPSTEINS,21 COLUMBUS AVENUE,TUCKAHOE,NY,10707,United States,8041,914-961-2833,,,40.950574,-73.827555,
striderite.com,490 . QUACKLES,44 RAYMOND AVENUE,POUGHKEEPSIE,NY,12603,United States,8060,845-471-2250,,,41.69281,-73.90036,
striderite.com,491 . L MONTANO AND SONS INC,77 PARTITION STREET,SAUGERTIES,NY,12477,United States,8045,845-246-4381,,,42.077387,-73.951915,
striderite.com,492 . LUMART SHOES INC,"ROUTE 30 NORTH
POLAR PLAZA",AMSTERDAM,NY,12010,United States,8047,518-842-7120,,,42.938893,-74.1944377,
striderite.com,493 . FEET FIRST,1305 A BROADWAY,HEWLETT,NY,11557,United States,8042,516-374-7822,,,40.6389274,-73.7008941,
striderite.com,494 . KIDDIE KOBBLER ORLEANS,110 PLACE D'ORLEANS,ORLEANS,ON,,Canada,8324,,,,45.479522,-75.517493,
striderite.com,495 . PROP R FIT,229 MERRICK RD,ROCKVILLE CENTRE,NY,11570,United States,33753,516-594-7094,,,40.6566126,-73.6474061,
striderite.com,496 . FEET FIRST,31-61 LONG BEACH ROAD,OCEANSIDE,NY,11572,United States,8043,516-536-3372,,,40.6321332,-73.6407824,
striderite.com,497 . DILLARDS S090922,"4250 CERRILLOS ROAD
VILLA LINDA MALL",SANTA FE,NM,87505,United States,8028,,,,35.6365005,-106.0146949,
striderite.com,498 . PROP R FIT,2025 MERRICK RD,MERRICK,NY,11566,United States,33752,516-377-7214,,,40.6568906,-73.5489943,
striderite.com,499 . DILLARDS 213,200 UNIVERSITY TOWN CENTER DR,SARASOTA,FL,34243,United States,68148,,,,27.3820766,-82.4539568,
striderite.com,500 . DILLARDS 213,200 UNIVERSITY TOWN CENTER DR,SARASOTA,FL,34243,United States,68149,,,,27.3820766,-82.4539568,
striderite.com,501 . DILLARDS 213,"200 UNIVERSITY TOWN CENTER DR
UNIVERSITY TOWN CENTER",SARASOTA,FL,34243,United States,68619,,,,27.3820766,-82.4539568,
striderite.com,502 . HAWLEY LANE SHOES,73 HIGH RIDGE ROAD,STAMFORD,CT,06905,United States,61889,203-327-7664,,,41.0734091,-73.5488624,
striderite.com,503 . THE ATLETES SOURCE LLC,1097 HIGH RIDGE RD,STAMFORD,CT,06905,United States,68613,203-817-0777,,,41.1081833,-73.5468647,
striderite.com,504 . FOOTBEATS - ALBANY,"1475 WESTERN AVE
SUITE 47",ALBANY,NY,12203,United States,7592,518-438-3668,,,42.684094,-73.839612,
striderite.com,505 . LOBELS STRIDE RITE,1155 SUNRISE MALL,MASSAPEQUA,NY,11758,United States,7591,516-795-3838,,,40.6848827,-73.4320502,
striderite.com,506 . DELSONS SHOES,"14 DANBURY RD
GATEWAY SHOPPING CENTER",WILTON,CT,06897,United States,7728,203-762-9495,,,41.1627287,-73.4188835,
striderite.com,507 . FOOTBEATS - CLIFTON PARK,22 CLIFTON COUNTRY DR,CLIFTON PARK,NY,12065,United States,7593,518-373-3338,,,42.859588,-73.780689,
striderite.com,508 . HAWLEY LANE SHOES,499 WESTPORT AVE,NORWALK,CT,06851,United States,7727,203-847-9400,,,41.1268794,-73.387592,
striderite.com,509 . DILLARDS S020237,"1700 W NEW HAVEN AVENUE
MELBOURNE SQUARE",MELBOURNE,FL,32904,United States,7754,,,,28.080137,-80.6509899,
striderite.com,510 . RICHARDS STRIDE RITE - SAYVILLE,70 MAIN ST,SAYVILLE,NY,11782,United States,7585,631-589-2288,,,40.73624,-73.082104,
striderite.com,511 . HAWLEY LANE SHOES,862 BRIDGEPORT AVE,SHELTON,CT,06484,United States,7726,203-712-1300,,,41.2657679,-73.1321252,
striderite.com,512 . JOSEPH'S SHOES,5507-11 NESCONSET HWY,MOUNT SINAI,NY,11766,United States,8059,631-331-7183,,,40.9319854,-73.0329657,
striderite.com,513 . RICHARDS STRIDE RITE - SELDEN,243 MIDDLE COUNTRY RD,SELDEN,NY,11784,United States,7590,631-736-4555,,,40.867875,-73.025026,
striderite.com,514 . WEINER SHOES,"DAVID'S SHOE EMPORIUM
66 E MAIN ST",PATCHOGUE,NY,11772,United States,8057,631-475-0447,,,40.7656719,-73.0134453,
striderite.com,515 . ARCIUOLOS SHOE STORE,74 BROAD ST,MILFORD,CT,06460,United States,7721,203-877-7463,,,41.220794,-73.058158,
striderite.com,516 . HAWLEY LANE SHOES,500 BOSTON POST RD,ORANGE,CT,06477,United States,61890,203-891-9999,,,41.2549632,-73.0150691,
striderite.com,517 . DILLARDS S020214,"1441 TAMIAMI TRAIL
PORT CHARLOTTE",PORT CHARLOTTE,FL,33948,United States,7741,,,,27.0075772,-82.1316256,
striderite.com,518 . DILLARDS S070726,"5300 SAN DARIO AVENUE
LAREDO MALL DEL NOTRE",LAREDO,TX,78041,United States,8173,,,,27.553525,-99.501096,
striderite.com,519 . SHOES ON A SHOESTRING,7200 MONTGOMERY BLVD NE,ALBUQUERQUE,NM,87109,United States,8031,,,,35.130141,-106.56546,
striderite.com,520 . SHOETIQUE,1060 W MAIN ST,BRANFORD,CT,06405,United States,67482,203-488-0021,,,41.2737635,-72.8313234,
striderite.com,521 . DILLARDS S090921,"2100 LOUISIANA BLVD NE
WINROCK CENTER SUITE 155",ALBUQUERQUE,NM,87110,United States,8027,,,,35.097357,-106.565939,
striderite.com,522 . THE SHOE BOX,4580 LINCOLN RD NE,ALBUQUERQUE,NM,87109,United States,7583,,,,35.1425057,-106.5926387,
striderite.com,523 . FOOTBEATS STRIDE RITE STORE 2,"110 ALBANY TPKE
SUITE 603",CANTON,CT,06019,United States,7537,860-693-8522,,,41.823253,-72.88581,
striderite.com,524 . DILLARDS S090920,"10000 COORS BYPASS
COTTONWOOD",ALBUQUERQUE,NM,87114,United States,8026,,,,35.1997209,-106.659116,
striderite.com,525 . SHOES ON A SHOESTRING,10030 COOR BYPASS NW,ALBUQUERQUE,NM,87114,United States,8032,,,,35.1976851,-106.6599351,
striderite.com,526 . STRIDE RITE,470 LEWIS AVENUE,MERIDEN,CT,06451,United States,68571,203.238.3367,,,41.55089,-72.807858,
striderite.com,527 . STRIDE RITE,470 LEWIS AVENUE,MERIDEN,CT,06451,United States,68623,203.238.3367,,,41.55089,-72.807858,
striderite.com,528 . BARBOTTINE CHAUSSURES ENFANTS,"241, STREET VICTORIA",SALABERRY DE VALLEYFIELD,QC,,Canada,65605,,,,45.2563207,-74.131564,
striderite.com,529 . FOOTPRINTS SHOES & ACCESSORIES,79 COSTELLO ROAD,NEWINGTON,CT,06111,United States,7722,860-666-3100,,,41.6562064,-72.7204701,
striderite.com,530 . PANDA VAUDREUIL,585 AVE ST CHARLES,VAUDREUIL-DORION,QC,,Canada,8361,,,,45.4070201,-74.0324032,
striderite.com,531 . FOOTBEATS HOLYOKE MALL,"50 HOLYOKE ST
HOLYOKE MALL",HOLYOKE,MA,01040,United States,7554,413-536-2768,,,42.167247,-72.641327,
striderite.com,532 . FOOTBEATS STRIDE RITE,420 ENFIELD ST,ENFIELD,CT,06082,United States,7539,860-745-5676,,,42.0136,-72.593239,
striderite.com,533 . BOOTLEGGER'S FOOTWEAR CENTER,"261 MOHAWK TRAIL
STAPLES PLAZA",GREENFIELD,MA,01301,United States,7555,431/772-1941,,,42.588504,-72.629159,
striderite.com,534 . CHAUSSURES PANDA FAIRVIEW,6815 ROUTE TRANS-CANADIENNE L-K17,PTE CLAIRE,QC,,Canada,65591,,,,45.4642822,-73.833396,
striderite.com,535 . BROWNS SHOES STORE 02,"6801 TRANS CANADA HWY
FAIRVIEW POINTE CLAIRE",POINTE-CLAIRE,QC,,Canada,8364,514-695-4931,,,45.4629055,-73.8306755,
striderite.com,536 . DILLARDS S020215,"4125 CLEVELAND AVENUE
EDISON MALL",FORT MYERS,FL,33901,United States,7742,,,,26.599288,-81.868501,
striderite.com,537 . PANDA ST JEROME,900 BOUL GRIGNON,ST JEROME,QC,,Canada,65600,,,,45.7939258,-74.0181148,
striderite.com,538 . BROWNS,"19001 CH NOTRE DAME
PREMIUM OUTLETS MONTREAL",MIRABEL,QC,,Canada,65662,450.430.1930,,,45.6738412,-73.9194422,
striderite.com,539 . SNYDERMANS SHOES STORE 2,1900 TRAILWINDS DRIVE,FORT MYERS,FL,33907,United States,7777,239-939-2239,,,26.568063,-81.870431,
striderite.com,540 . KIDS CITY,10 FARRELL STREET,SOUTH BURLINGTON,VT,05403,United States,8254,802-859-9130,,,44.446007,-73.2039549,
striderite.com,541 . DILLARDS S070728,"2004 SOUTH EXPRESSWAY 83
VALLEY VISTA MALL",HARLINGEN,TX,78552,United States,8175,,,,26.1662779,-97.6925119,
striderite.com,542 . PANDA ROSEMERE LTD.,401 BOUL LABELLE,ROSEMERE,QC,,Canada,65604,,,,45.6306724,-73.8192093,
striderite.com,543 . BROWNS SHOES STORE 14,"401 BOUL. LABELLE, UNIT TI-11,
PLACE ROSEMERE",ROSEMERE,QC,,Canada,8368,450-430-2748,,,45.6313291,-73.8165363,
striderite.com,544 . LAURA - JO INC,3260 BOUL ST MARTIN O,CHOMEDEY,QC,,Canada,65599,,,,45.556074,-73.747609,
striderite.com,545 . CHAUSSURES PANDA LAVAL,3035 BOUL LE CARREFOUR LOCAL,LAVAL,QC,,Canada,65589,,,,45.5701927,-73.7519672,
striderite.com,546 . BROWNS SHOES STORE 05,"3035 BOUL CARREFOUR
CARREFOUR LAVAL",LAVAL,QC,,Canada,8365,450-681-4924,,,45.5684798,-73.7497517,
striderite.com,547 . JUNIOR BOOTY,7137 COTE ST-LUC S/C,MONTREAL,QC,,Canada,8357,,,,45.4655205,-73.6538541,
striderite.com,548 . CHAUSSURES PANDA LASALLE,7077 BOUL NEWMAN,LASALLE,QC,,Canada,65590,,,,45.4479126,-73.6127113,
striderite.com,549 . CHAUSSURES TONY INC,1346 AVENUE GREENE,MONTREAL,QC,,Canada,65560,,,,45.487332,-73.5907831,
striderite.com,550 . PANDA ST-HUBERT 1017,PLAZA ST-HUBERT,MONTREAL,QC,,Canada,65588,,,,45.5363602,-73.6036097,
striderite.com,551 . DILLARDS S070729,"2340 N EXPRESSWAY
SUNRISE MALL",BROWNSVILLE,TX,78526,United States,8176,,,,25.972256,-97.51382,
striderite.com,552 . DILLARDS S020238,"3210 NW FEDERAL HIGHWAY
TREASURE COAST SQUARE",JENSEN BEACH,FL,34957,United States,7755,,,,27.241949,-80.276397,
striderite.com,553 . TONY PAPPAS INC,1822 EST MONT-ROYAL,MONTREAL,QC,,Canada,65572,,,,45.5331532,-73.5742098,
striderite.com,554 . DILLARDS S020218,"8017 VIA SARDINIA WAY
COCONUT POINT",ESTERO,FL,33928,United States,7787,,,,26.40018,-81.8075282,
striderite.com,555 . PANDA TERREBONNE,1185 BOUL MOODY,TERREBONNE,QC,,Canada,65602,,,,45.702913,-73.6466848,
striderite.com,556 . CHAUSSURES MIRACLE INC,564 BOUL DES SEIGNEURS,TERREBONNE,QC,,Canada,65583,,,,45.703493,-73.6346941,
striderite.com,557 . CHAUSSURES PANDA ANJOU,7999 BOUL GALERIES D'ANJOU,VILLE D'ANJOU,QC,,Canada,65587,,,,45.5993313,-73.5677066,
striderite.com,558 . BROWNS SHOES STORE 07,"7999 BOUL. GALERIE ANJOU
GALERIES D'ANJOU",ANJOU,QC,,Canada,8366,514-353-6980,,,45.602179,-73.564625,
striderite.com,559 . BROWNS SHOES STORE 13,"2151 BOUL. LAPINIERE, UNIT H28
MAIL CHAMPLAIN",BROSSARD,QC,,Canada,8367,450-671-3531,,,45.4747024,-73.4718966,
striderite.com,560 . CHAUSSURES PANDA BROSSARD,2151 BOUL LAPINIERE,BROSSARD,QC,,Canada,65595,,,,45.47412,-73.470639,
striderite.com,561 . BROWN SHOES STORE 12,"9405 LEDUC
QUARTIER DIX 30",BROSSARD,QC,,Canada,8370,450-462-7717,,,45.4431895,-73.4359726,
striderite.com,562 . DILLARDS S070727,"2200 SOUTH TENTH STREET
LA PLAZA MALL",MCALLEN,TX,78501,United States,8174,,,,26.187544,-98.2358239,
striderite.com,563 . BOOTLEGGER'S FOOTWEAR CENTER,425 WEST STREET PLAZA,KEENE,NH,03431,United States,7574,603/352-5201,,,42.933692,-72.2781409,
striderite.com,564 . PANDA ST-JEAN,600 BOUL. PIERRE CAISSE,ST-JEAN-SUR-RICHELIEU,QC,,Canada,65608,,,,45.3295313,-73.2808181,
striderite.com,565 . PANDA - BOUCHERVILLE,1001 BOUL. MONTARVILLE,BOUCHERVILLE,QC,,Canada,65585,,,,45.5908345,-73.4334252,
striderite.com,566 . CHAUSSURES PANDA - ST BRUNO,243 BLVD DES PROMONADE,SAINT BRUNO,QC,,Canada,65594,,,,45.5055542,-73.3778753,
striderite.com,567 . CHAUSSURES PANDA REPENTIGNY,100 BOUL BRIEN,REPENTIGNY,QC,,Canada,65596,,,,45.7425868,-73.4585954,
striderite.com,"568 . SNYDERMAN SHOES OF NAPLES, INC",4910 TAMIANI TRAIL NORTH #300,NAPLES,FL,34103,United States,7776,239-263-6844,,,26.207054,-81.799198,
striderite.com,569 . DILLARDS S090923,"4601 EAST MAIN
ANIMAS VALLEY MALL",FARMINGTON,NM,87402,United States,8029,,,,36.766012,-108.149008,
striderite.com,570 . BROWNS SHOES STORE 11,"301 DES PROMENADES
PROMENADES ST BRUNO",SAINT BRUNO,QC,,Canada,8372,450-441-9010,,,45.6613889,-73.3096655,
striderite.com,571 . DILLARDS S020216,"1798 NORTH TAMIAMI TRAIL
COASTLAND CENTER",NAPLES,FL,34102,United States,7743,,,,26.1675255,-81.7989741,
striderite.com,572 . PANDA JOLIETTE,1075 FIRESTONE,JOLIETTE,QC,,Canada,65584,,,,46.0327605,-73.4246143,
striderite.com,573 . CHAUSSURES PANDA ST HYACINTHE,3200 BOUL LAFRAMBOISE,ST HYACINTHE,QC,,Canada,65593,,,,45.6385298,-72.9648864,
striderite.com,574 . CHAUSSURES DESTREMPES,821 AVE GILLES VILLENEUVE,BERTHIERVILLE,QC,,Canada,65559,,,,46.0852442,-73.188525,
striderite.com,575 . YORKERS SHOES INC,1503 HARTFORD AVENUE RT 6,JOHNSTON,RI,02919,United States,8134,401-274-2211,,,41.8205199,-71.512617,
striderite.com,576 . BACH ET SES BOTTINES,303 BOIVIN,GRANBY,QC,,Canada,65612,,,,45.4047062,-72.7281005,
striderite.com,577 . ALEC SHOE STORE INC,1617 SOUTHWOOD DR,NASHUA,NH,03063,United States,7995,603-882-6811,,,42.7872679,-71.5027376,
striderite.com,578 . FIT2BETIED,8794 BOYNTON BEACH BLVD,BOYNTON BEACH,FL,33472,United States,7780,561-742-2212,,,26.5277552,-80.1824745,
striderite.com,579 . IRVINGS SHOE STORE,3001 EAST MAIN STREET,PORTSMOUTH,RI,02871,United States,8132,401-683-4444,,,41.609996,-71.245661,
striderite.com,580 . JOE KINGS SHOE SHOP,45 N MAIN ST,CONCORD,NH,03301,United States,7998,,,,43.2055187,-71.5361163,
striderite.com,581 . MICHELSONS SHOES STORE 2,1082 GREAT PLAIN AVENUE,NEEDHAM,MA,02492,United States,7902,781-449-2753,,,42.2800684,-71.2387096,
striderite.com,582 . DILLARDS S090925,"700 SOUTH TELSHOR BOULEVARD
MESILLA VALLEY MALL",LAS CRUCES,NM,88011,United States,8030,,,,32.3090274,-106.7422991,
striderite.com,583 . THE KIDS BARN,25 KEMPTON PLACE,WEST NEWTON,MA,02465,United States,7906,617-332-6300,,,42.349505,-71.221232,
striderite.com,584 . DILLARDS S090924,"8401 GATEWAY WEST
CIELO VISTA MALL",EL PASO,TX,79925,United States,8205,,,,31.776365,-106.379239,
striderite.com,585 . MICHELSONS SHOES STORE 1,1780 MASSACHUSETTS AVENUE,LEXINGTON,MA,02420,United States,7901,781-862-1034,,,42.4476841,-71.2278417,
striderite.com,586 . BOOTLEGGER'S FOOTWEAR CENTER,574 MAIN ST,LACONIA,NH,03246,United States,7577,603/524-1276,,,43.5275569,-71.4699729,
striderite.com,587 . ST PIERRE SHOES,77 MAIN STREET,TAUNTON,MA,02780,United States,7896,508-824-5163,,,41.9013,-71.0905,
striderite.com,588 . BOOTLEGGER'S FOOTWEAR CENTER,314 DANIEL WEBSTER HWY,MEREDITH,NH,03253,United States,65482,6032797463,,,43.658289,-71.500278,
striderite.com,589 . CHAUSSURES PANDA DRUMMONDVILLE,400 BOUL ST JOSEPH,DRUMMONDVILLE,QC,,Canada,65592,,,,45.8962894,-72.5177112,
striderite.com,590 . DILLARDS S090926,"750 SUNLAND PARK DRIVE
SUNLAND PARK MALL",EL PASO,TX,79912,United States,8206,,,,31.81324,-106.544611,
striderite.com,591 . HARVES SHOE BOX,98 STATE RD,NORTH DARTMOUTH,MA,02747,United States,7910,,,,41.6382059,-70.968302,
striderite.com,592 . ABBOTT FACTORY SHOES,254 MAIN ST,N READING,MA,01864,United States,7908,978-664-3814,,,42.5903806,-71.1170292,
striderite.com,593 . RED SHOE BARN INC ST 2,22 PLAISTOW,PLAISTOW,NH,03865,United States,7997,603-382-7688,,,42.8187506,-71.1037129,
striderite.com,594 . DILLARDS S020252,"8000 W BROWARD BLVD
SUITE 150 BROWARD MALL",PLANTATION,FL,33388,United States,7761,,,,26.118221,-80.255342,
striderite.com,595 . CHAUSSURES PANDA TROIS-RIVIERES,4125 BOUL DES FORGES,TROIS RIVIERES,QC,,Canada,65586,,,,46.3557781,-72.5883859,
striderite.com,596 . BOOTLEGGER'S FOOTWEAR CENTER,2 NORTH MAIN STREET,WOLFEBORO,NH,03894,United States,65480,603-569-3560,,,43.584318,-71.213527,
striderite.com,597 . DILLARDS S020251,"2500 EAST SUNRISE BLVD
GALLERIA MALL",FT LAUDERDALE,FL,33304,United States,7760,,,,26.1364899,-80.112674,
striderite.com,598 . DILLARDS S020253,"11945 PINES BOULEVARD
PEMBROKE LAKES MALL",PEMBROKE PINES,FL,33026,United States,7762,,,,26.009321,-80.306182,
striderite.com,599 . PANDA - SHERBROOKE,2253 RUE KING OUEST,SHERBROOKE,QC,,Canada,65601,,,,45.3983776,-71.9279556,
striderite.com,600 . SHOE MARKET KIDS,790 CHIEF JUSTICE CUSHING HWY,COHASSET,MA,02025,United States,7907,781-383-8637,,,42.2212,-70.8001,
striderite.com,601 . HYMANS PENNYWORTHS 2,45 STOREY AVENUE,NEWBURYPORT,MA,01950,United States,7898,978-462-2711,,,42.8198,-70.9048,
striderite.com,602 . BOOTLEGGER'S FOOTWEAR CENTER,"20 PORTSMOUTH AVE., SUITE 2",STRATHAM,NH,03885,United States,7571,603/772-7463,,,42.9966206,-70.9225571,
striderite.com,603 . BOOTLEGGER'S FOOTWEAR CENTER,59 GONIC ROAD,ROCHESTER,NH,03839,United States,65481,603-332-3506,,,43.2739596,-70.9821772,
striderite.com,604 . SPORTS ACTION KIDS,19501 BISCAYNE BLVD,MIAMI,FL,33180,United States,7781,954-846-1755,,,25.956514,-80.142057,
striderite.com,605 . JOEY CHILDREN'S APPAREL,3-27 2 AVE,YORKTON,SK,,Canada,65628,,,,51.21113,-102.460907,
striderite.com,606 . RED SHOE BARN INC ST 1,35 BROADWAY,DOVER,NH,03820,United States,7996,603-742-1893,,,43.20198,-70.871175,
striderite.com,607 . BOOTLEGGER'S FOOTWEAR CENTER,"1623 WHITE MOUNTAIN HWY
RITE AID PLAZA",NORTH CONWAY,NH,03860,United States,7575,603/356-7818,,,44.0211542,-71.1161184,
striderite.com,608 . LA IDEAL BABY STORE 2,10613 NW 12TH STREET,MIAMI,FL,33172,United States,7766,305-716-1140,,,25.784595,-80.367862,
striderite.com,609 . LA IDEAL BABY STORE 3,1170 WEST 49TH STREET,MIAMI,FL,33110,United States,7767,305-826-2021,,,25.820074,-80.21541,
striderite.com,610 . DILLARDS S090939,320 SO 24TH ST WEST,BILLINGS,MT,59102,United States,7965,,,,45.7635341,-108.5764573,
striderite.com,611 . SESAME STEPS SHOE INC,14083 SW 88TH STREET,MIAMI,FL,33186,United States,7775,305-382-2199,,,25.6854174,-80.3916027,
striderite.com,612 . STEP BY STEP CHILDREN'S SHOES,4796 SW 72ND AVE,MIAMI,FL,,United States,67493,305-665-8040,,,25.725996,-80.3107316,
striderite.com,613 . LA IDEAL BABY STORE 1,1143 - 1155 WEST FLAGLER STREE,MIAMI,FL,33130,United States,7765,305-324-0278,,,25.7735881,-80.214052,
striderite.com,614 . PRETTY BOUTIQUES INC,"328 CRANDON BLVD 110
THE GALLERIA",KEY BISCAYNE,FL,33149,United States,7774,305-361-2855,,,25.695517,-80.163701,
striderite.com,615 . KIDS TRADING,4621 RAE ST.,REGINA,SK,,Canada,8374,,,,50.4054936,-104.6209778,
striderite.com,616 . LAMEY WELLEHAN SHS ST 7,"238 MAINE MALL ROAD
THE MAINE MALL",SOUTH PORTLAND,ME,04106,United States,7928,207-774-1335,,,43.6392654,-70.3345753,
striderite.com,617 . LAMEY WELLEHAN SHS ST 2,"251 U.S. 1
FALMOUTH SHOPPING CENTER",FALMOUTH,ME,04105,United States,7923,207-781-4627,,,43.7247704,-70.2302251,
striderite.com,618 . LAMEY WELLEHAN SHS ST 8,940 TURNER ST,AUBURN,ME,04210,United States,7929,207-783-2384,,,44.1224909,-70.233298,
striderite.com,619 . LAMEY WELLEHAN SHS ST 1,54 CANAL STREET,LEWISTON,ME,04240,United States,7922,207-784-6941,,,44.0982833,-70.2184132,
striderite.com,620 . CHAUSSURES TROTTE-MENU,9600 RUE DE VENISE,QUEBEC,QC,,Canada,65562,,,,46.8462476,-71.3427275,
striderite.com,621 . TROTTE-MENU LAURIER,2700 BOUL LAURIER,QUEBEC,QC,,Canada,65574,,,,46.7700072,-71.2846445,
striderite.com,622 . PANDA LAURIER,2700 BLVD LAURIER,QUEBEC,QC,,Canada,65607,,,,46.7700072,-71.2846445,
striderite.com,623 . BROWNS SHOES STORE 16,"2452 WILFRID LAURIER - G20
PLACE STE-FOY",STE-FOY,QC,,Canada,8369,418-659-1922,,,46.7737064,-71.2788187,
striderite.com,624 . BROWNS,"5401 BOUL. DES GALERIES
GALERIES DE LA CAPITALE",QUEBEC,QU,,Canada,65661,418-781-0964,,,46.831235,-71.295618,
striderite.com,625 . PANDA CAPITALE,5401 BOUL DES GALERIES,QUEBEC,QC,,Canada,65613,,,,46.831235,-71.295618,
striderite.com,626 . CHAUSSURE TROTTE MENU,"5401, BOUL DES GALERIES",QUEBEC,QC,,Canada,8356,,,,46.8311918,-71.2954592,
striderite.com,627 . LAMEY WELLEHAN SHS ST 6,"ROUTE 24
COOK CORNER MALL",BRUNSWICK,ME,04011,United States,7927,207-729-0505,,,43.9067728,-69.9333112,
striderite.com,628 . CHAUSSURES TROTTE MENU,552 BOUL.WILFRID HAMEL,QUEBEC,QC,,Canada,65561,,,,46.8202842,-71.2488427,
striderite.com,629 . PANDA BEAUPORT,3333 RUE DU CARREFOUR,QUEBEC,QC,,Canada,65603,,,,46.8605273,-71.21739,
striderite.com,630 . CHAUSSURES TROTTE MENU,1200 BOUL ALPHONSE DESJARDINS,LEVIS,QC,,Canada,65563,,,,46.7963976,-71.1711047,
striderite.com,631 . LAMEY WELLEHAN SHS ST 3,202-204 WATER ST,AUGUSTA,ME,04330,United States,7924,207-622-0871,,,44.3164838,-69.7736714,
striderite.com,632 . LAMEY WELLEHAN SHS ST 5,74 MAIN ST,WATERVILLE,ME,04901,United States,7926,207-680-2200,,,44.5496538,-69.6301041,
striderite.com,633 . DILLARDS S090933,"1200 SOUTH TOWNE CTR BLVD
TOWNE CENTRE",PROVO,UT,84601,United States,8231,,,,40.217608,-111.6607903,
striderite.com,634 . DILLARDS S090930,"6191 SOUTH STATE 100
FASHION PLACE",MURRY,UT,84107,United States,8228,,,,40.635922,-111.884251,
striderite.com,635 . DILLARDS S090931,"4000 NEWGATE MALL
NEWGATE MALL",OGDEN,UT,84405,United States,8229,,,,41.1956976,-111.977293,
striderite.com,636 . AU PETIT CORDONNIER,"1401 BOUL TALBOT
PLACE DU ROYAUME",CHICOUTIMI,QC,,Canada,8362,,,,48.4049983,-71.0557528,
striderite.com,637 . LAMEY WELLEHAN SHS ST 4,"43 BANGOR MALL BLVD
THE MID MALL",BANGOR,ME,04401,United States,7925,207-945-3764,,,44.8349936,-68.7454417,
striderite.com,638 . CATZ AND JAMMERS FOR KIDS,101 BURROWS AVE WEST,MELFORT,SK,,Canada,65652,,,,52.8605259,-104.610814,
striderite.com,639 . DILLARDS S090916,"4700 NORTH HIGHWAY 89
FLAGSTAFF MALL",FLAGSTAFF,AZ,86004,United States,7642,,,,35.222693,-111.579836,
striderite.com,640 . DILLARDS S090919,"3800 EL MERCADO LOOP
SIERRA VISTA TOWN CENTER",SIERRA VISTA,AZ,85635,United States,7644,,,,31.531064,-110.25978,
striderite.com,641 . DILLARDS S090914,"5890 E BROADWAY BLVD
PARK PLACE",TUCSON,AZ,85711,United States,7648,,,,32.221457,-110.8668788,
striderite.com,642 . DILLARDS S090915,"4550 NORTH ORACLE ROAD
TUCSON MALL",TUCSON,AZ,85705,United States,7641,,,,32.2897279,-110.975594,
striderite.com,643 . DILLARDS S090909,"6545 EAST SOUTHERN AVENUE
SUPERSTITION MALL",MESA,AZ,85206,United States,7638,,,,33.39003,-111.687478,
striderite.com,644 . CHEZ LES PETITS,180 BOUL HEBERT,EDMUNDSTON,NB,,Canada,65643,,,,47.3737173,-68.3169648,
striderite.com,645 . DILLARDS S090910,2151 S SAN TAN VILLAGE PKWY,GILBERT,AZ,85296,United States,7639,,,,33.3089913,-111.7457182,
striderite.com,646 . DILLARDS S090911,"3100 GATEWAY BLVD
PRESCOTT GATEWAY",PRESCOTT,AZ,86303,United States,7640,,,,34.5495329,-112.41025,
striderite.com,647 . DILLARDS S090902,"6900 EAST CAMELBACK ROAD
FASHION SQUARE MALL",SCOTTSDALE,AZ,85251,United States,7633,,,,33.502594,-111.931973,
striderite.com,648 . DILLARDS S090904,"4610 EAST CACTUS ROAD
PARADISE VALLEY MALL",PHOENIX,AZ,85032,United States,7634,,,,33.5986906,-111.9801487,
striderite.com,649 . DILLARDS S090908,"3101 WEST CHANDLER BLVD
CHANDLER FASHION CENTER",CHANDLER,AZ,85226,United States,7637,,,,33.303152,-111.896628,
striderite.com,650 . DILLARDS S090917,"1117 N PROMENADE PKWY
PROMENADE AT CASA GRANDE",CASA GRANDE,AZ,85194,United States,7643,,,,32.884028,-111.68504,
striderite.com,651 . DILLARDS S090907,"7800 W ARROWHEAD TOWNE CENTER
ARROWHEAD TOWNE",GLENDALE,AZ,85308,United States,7636,,,,33.6437199,-112.2293262,
striderite.com,652 . DILLARDS S090906,"7621 WEST THOMAS ROAD
WESTRIDGE MALL",PHOENIX,AZ,85033,United States,7635,,,,33.478241,-112.223841,
striderite.com,653 . PADDINGTON STATION,39 KING ST BRUNSWICK SQUARE,SAINT JOHN,NB,,Canada,65598,,,,45.2728866,-66.0630184,
striderite.com,654 . DILLARDS S090937,"2901 BROOKS STREET
SOUTHGATE MALL",MISSOULA,MT,59801,United States,7964,,,,46.8443595,-114.0246382,
striderite.com,655 . THREE GEMS,308 2ND ST W,BROOKS,AB,,Canada,65655,,,,50.567691,-111.898149,
striderite.com,656 . DILLARDS S090944,"1320 WEST SUNSET ROAD
GALLERIA AT SUNSET",HENDERSON,NV,89014,United States,8035,,,,36.066353,-115.044706,
striderite.com,657 . DILLARDS S090941,"3200 LAS VEGAS BOULEVARD SOUTH
LAS VEGAS FASHION",LAS VEGAS,NV,89109,United States,8033,,,,36.12809,-115.171626,
striderite.com,658 . DILLARDS S090942,"4200 MEADOWS LANE
THE MEADOWS MALL",LAS VEGAS,NV,89107,United States,8034,,,,36.171002,-115.196789,
striderite.com,659 . DILLARDS 945,"11011 SAGE PARK DRIVE
SUMMERLIN",LAS VEGAS,NV,,United States,67473,,,,36.1477395,-115.3339305,
striderite.com,660 . GO AS YOU GROW,9323 COMMERCIAL ST,NEW MINAS,NS,,Canada,65616,,,,45.070392,-64.441283,
striderite.com,661 . DILLARDS S090934,"350 NORTH MILWAUKEE
BOISE TOWNE SQUARE",BOISE,ID,83704,United States,7818,,,,43.605914,-116.278263,
striderite.com,662 . CHAUS ORTHESES MCGRAW LTEE (BCH),3532 RUE PRINCIPALE,TRACADIE,NB,,Canada,65558,,,,47.5156253,-64.911335,
striderite.com,663 . DILLARDS S090918,"1461 S YUMA PALMS PKWY
YUMA PALMS",YUMA,AZ,85365,United States,7649,,,,32.703183,-114.604512,
striderite.com,664 . TWIGGZ SHOES INC,"21 MIC MAC BLVD
UNT 217",DARTMOUTH,NS,,Canada,65654,,,,44.6856565,-63.5593473,
striderite.com,665 . FIDDLEHEADS KIDS SHOP,300 PRINCE ALBERT RD,DARTMOUTH,NS,,Canada,65646,,,,44.6794134,-63.5524303,
striderite.com,666 . BROWNS SHOES STORE 37,"100 ANDERSON RD SE
SOUTH CENTRE MALL",CALGARY,AB,,Canada,8280,403-278-5929,,,50.9505402,-114.0665841,
striderite.com,667 . POLISHED PUMPKINS,5015B 50TH AVE,COLD LAKE,AB,,Canada,65642,,,,54.413017,-110.207017,
striderite.com,668 . STEPHANIE'S KIDS LTD,10816 MACLEOD TRL S,CALGARY,AB,,Canada,65633,,,,50.956159,-114.071045,
striderite.com,669 . COCO AND CHARLIE CHILDREN'S STORE,822 49 AVE SW,CALGARY,AB,,Canada,65630,,,,51.0096962,-114.0827948,
striderite.com,670 . BROWNS,"261055 CROSSIRON BLVD
CROSS IRON MILLS",ROCKY VIEW,AB,,Canada,65665,403.274.4442,,,51.2027887,-113.9934473,
striderite.com,671 . BROWNS SHOES STORE 38,"3625 SHAGANAPPI TRAIL NW
MARKET MALL",CALGARY,AB,,Canada,8281,403-247-3236,,,51.0828538,-114.1573603,
striderite.com,672 . LITTLE FOOTPRINTS,131-333 ASPEN GLEN LANDING SW,CALGARY,AB,,Canada,33754,403-457-5437,,,51.0392911,-114.2079069,
striderite.com,673 . FROM KICKS TO KIDS,4929 - 50 ST,CAMROSE,AB,,Canada,65636,,,,53.021231,-112.824575,
striderite.com,674 . DILLARDS S090962,"3451 SOUTH DOGWOOD AVENUE
IMPERIAL VALLEY MALL",EL CENTRO,CA,92243,United States,7659,,,,32.763205,-115.530152,
striderite.com,675 . JADABUGS BABY BOUTIQUE,78377 HIGHWAY 111,LAQUINTA,CA,92253,United States,7705,760-347-7406,,,33.7146887,-116.2968704,
striderite.com,676 . GLACIER'S EDGE CLOTHING INC,100 737 MAIN STREET,CANMORE,AB,,Canada,65568,,,,51.0891176,-115.3607001,
striderite.com,677 . BABY AND BEYOND,124-2755 BROADMOOR BLVD,SHERWOOD PARK,AB,,Canada,65621,,,,53.5610515,-113.3188565,
striderite.com,678 . WEE LOVE BABY BOUTIQUE,1052 91ST ST SW,EDMONTON,AB,,Canada,65644,,,,53.4236184,-113.476514,
striderite.com,679 . THE MONKEY'S UNCLE TOY & GIFT CO,"901 7TH AVE
STE 105",INVERMERE,BC,,Canada,65639,,,,50.506634,-116.0290953,
striderite.com,680 . KUNITZ SHOES,837 SADDLEBACK RD,EDMONTON,AB,,Canada,65576,,,,53.4528866,-113.5250743,
striderite.com,681 . HEAD SHOULDERS KNEES AND TOES,12418-102 AVENUE,EDMONTON,AB,,Canada,8273,780-455-2727,,,53.5430538,-113.5359279,
striderite.com,682 . HANSEL AND GRETEL - EDMONTON,"8882-170 ST
UNIT 1986",EDMONTON,AB,,Canada,65626,,,,53.5224397,-113.6218728,
striderite.com,683 . MOUNTAIN BABY LTD.,636 BAKER STREET,NELSON,BC,,Canada,65614,,,,49.492489,-117.291801,
striderite.com,684 . DILLARDS S090961,1255 RANCHO VISTA BLVD,PALMDALE,CA,93551,United States,7658,,,,34.601873,-118.1535926,
striderite.com,685 . DILLARDS S090949,"13933 S VIRGINIA ST
SUMMIT SIERRA",RENO,NV,89511,United States,8037,,,,39.404947,-119.752247,
striderite.com,686 . BROOKS SHOES FOR KIDS ST9,14006 RIVERSIDE DR,SHERMAN OAKS,CA,91423,United States,7655,818-501-2982,,,34.1561459,-118.4329573,
striderite.com,687 . HARRY HARRIS SHOES,409 N CANON DR,BEVERLY HILLS,CA,90210,United States,67513,310-274-8481,,,34.0706539,-118.401323,
striderite.com,688 . BROOKS SHOES FOR KIDS ST1,1703 WILSHIRE BLVD,SANTA MONICA,CA,90403,United States,7653,310-315-9898,,,34.0288807,-118.4862963,
striderite.com,689 . BABY & ME,1969 HARVEY AVE,KELOWNA,BC,,Canada,8300,250-717-0556,,,49.8815482,-119.4514606,
striderite.com,690 . CHICKEN LITTLE CHILDHOOD OUTFITTERS,4407 24TH ST,VERNON,BC,,Canada,65641,,,,50.2768263,-119.2628106,
striderite.com,691 . SCALLYWAGS,101 - 2903 PANDOSY ST,KELOWNA,BC,,Canada,65629,,,,49.8646642,-119.4907981,
striderite.com,692 . MCCAULOUS STORE 34,372 ELM AVE,AUBURN,CA,95603,United States,67511,,,,38.9058586,-121.0727771,
striderite.com,693 . MODESTO STRIDE RITE STORE,"3401 DALE ROAD
VINTAGE FAIRE MALL",MODESTO,CA,95356,United States,7531,209-577-0517,,,37.686503,-121.050367,
striderite.com,694 . MODESTO STRIDE RITE,"3401 DALE ROAD
VINTAGE FAIRE MALL",MODESTO,CA,95356,United States,68572,209.577.0517,,,37.688251,-121.053247,
striderite.com,695 . BURTON'S SHOES,226 S SCHOOL ST,LODI,CA,95240,United States,68611,,,,38.1307988,-121.2735523,
striderite.com,696 . RJK STRIDE RITE STORE,"5308 PACIFIC AVENUE
SHERWOOD MALL",STOCKTON,CA,95207,United States,7532,209-957-4509,,,37.998803,-121.313686,
striderite.com,697 . DILLARDS S090960,"4950 PACIFIC AVENUE
WEBERSTOWN",STOCKTON,CA,95207,United States,7657,,,,37.995775,-121.313927,
striderite.com,698 . MCCAULOUS STORE 42,345 LINCOLN CENTER,STOCKTON,CA,95207,United States,67512,,,,38.0120839,-121.3227083,
striderite.com,699 . GENERATIONS FAMILY FOOTWEAR,710 2ND ST,DAVIS,CA,,United States,67514,530-756-5239,,,38.5433329,-121.73959,
striderite.com,700 . MCCAULOUS STORE 14,5100 CLAYTON RD,CONCORD,CA,94521,United States,67509,,,,37.9545358,-121.9678595,
striderite.com,701 . JOY PERS SHOES,944 SOUTH MAIN STREET,SALINAS,CA,93901,United States,7667,831-424-3466,,,36.66293,-121.658087,
striderite.com,702 . MCCAULOUS STORE 4,589 SAN RAMON VALLEY BLVD,DANVILLE,CA,94526,United States,67505,,,,37.8149038,-121.9974003,
striderite.com,703 . DANVILLE STRIDE RITE,804 SYCAMORE VALLEY ROAD,DANVILLE,CA,94526,United States,68569,925.831.9427,,,37.812097,-121.997604,
striderite.com,704 . MCCAULOUS STORE 10,718-C BANCROFT RD,WALNUT CREEK,CA,94598,United States,67508,,,,37.9290841,-122.0396694,
striderite.com,705 . MCCAULOUS STORE 1,3512 MT DIABLO BLVD,LAFAYETTE,CA,94549,United States,67503,,,,37.8922892,-122.1173017,
striderite.com,706 . MCCAULOUS STORE 2,1441 MORAGA WAY,MORAGA,CA,94556,United States,67504,,,,37.8347249,-122.1289318,
striderite.com,707 . READY SET BABY PLANNERS & BOUTIQUE,"UNIT 1 & 2, 239 CENTENNIAL DR N",MARTENSVILLE,SK,,Canada,65647,,,,37.675545,-122.0877707,
striderite.com,708 . LITTLE FEET CHILDREN'S SHOES,24 N BARTLETT,MEDFORD,OR,97501,United States,18575,541-779-5840,,,42.3273853,-122.8715489,
striderite.com,709 . HOWARDS SHOES FOR CHILDREN,19449 STEVEN'S CREEK BLVD # 100,CUPERTINO,CA,,United States,67501,408-257-6200,,,37.3242769,-122.0112028,
striderite.com,710 . MCCAULOUS STORE 6,250 VILLAGE SQUARE,ORINDA,CA,94563,United States,67506,,,,37.88337,-122.1906642,
striderite.com,711 . MCCAULOUS STORE 33,2020 MOUNTAIN BLVD,OAKLAND,CA,94611,United States,67510,,,,37.8271643,-122.2095952,
striderite.com,712 . ELMWOOD VILLAGE SHOES,2915 COLLEGE AVE,BERKELEY,CA,94705,United States,7709,510-845-4054,,,37.8580402,-122.2530572,
striderite.com,713 . GOLDENBUG CHILDRENS SHOES,5509 COLLEGE AVE,OAKLAND,CA,,United States,67515,510-350-8334,,,37.8427104,-122.2515991,
striderite.com,714 . HOWARDS SHS FOR CHILDREN 1,198 STANFORD SHOPPING CENTER,PALO ALTO,CA,94304,United States,7663,650-325-9300,,,37.4448594,-122.1712484,
striderite.com,715 . BURCH'S SHOES,16 OAKWAY CENTER,EUGENE,OR,97401,United States,67502,541-683-4115,,,44.0650114,-123.0771966,
striderite.com,716 . MCCAULOUS STORE 7,201 W NAPA ST,SONOMA,CA,95476,United States,67507,,,,38.2914216,-122.4625843,
striderite.com,717 . TEN TOES CHILDREN'S SHOES,641 LAUREL STREET,SAN CARLOS,CA,94070,United States,7698,650-591-8637,,,37.5058508,-122.260273,
striderite.com,718 . PRECIOUS KARGO BABY BOUTIQUE,2623 MONTROSE AVE,ABBOTSFORD,BC,,Canada,8297,604-746-3309,,,49.0496056,-122.2905212,
striderite.com,719 . SHOES N FEET,2398 LOMBARD ST,SAN FRANCISCO,CA,94123,United States,68139,415-937-2400,,,37.7994332,-122.4408192,
striderite.com,720 . CUTE AS A BUG'S EAR,104-10605 WEST SIDE DR,GRANDE PRAIRIE,AB,,Canada,65648,,,,55.1684326,-118.8146689,
striderite.com,721 . G A M SHOES & REPAIR LTD.,230-22709 LOUGHEED HWY,MAPLE RIDGE,BC,,Canada,65567,,,,49.2175433,-122.5922924,
striderite.com,722 . CHIC ANGELS,"19705 FRASER HWY
UNIT 226",LANGLEY,BC,,Canada,65635,,,,49.1145264,-122.6749022,
striderite.com,723 . KIDDOS FOOTWORKS,"COQUITLAM SHOPPING CENTRE MALL UNIT 1110
2929 BARNET HWY",COQUITLAM,BC,,Canada,49787,604-484-6520,,,49.2776706,-122.8029012,
striderite.com,724 . FIN & IZZY,2259 OAK BAY AVE,VICTORIA,BC,,Canada,8294,250-592-8168,,,48.4264793,-123.3138714,
striderite.com,725 . ROOM FOR TWO MATERNITY,1409 COMMERCIAL DR,VANCOUVER,BC,,Canada,65637,,,,49.2719105,-123.0697815,
striderite.com,726 . ABRA-KID-ABRA,2024 OAK BAY AVENUE,VICTORIA,BC,,Canada,65651,,,,48.4265024,-123.3216853,
striderite.com,727 . BOOMERS & ECHOES,626-2601 WESTVIEW DR,NORTH VANCOUVER,BC,,Canada,65638,,,,49.3329444,-123.0896282,
striderite.com,728 . SCALLYWAGS CHILDREN'S BOUTIQUE,"624 FORT ST
DOWNTOWN @ THE BAY CENTRE",VICTORIA,BC,,Canada,8299,250-360-2570,,,48.4249207,-123.3671293,
striderite.com,729 . CHIC ANGELS,2851 GRANVILLE ST,VANCOUVER,BC,,Canada,47426,604-742-2778,,,49.2602994,-123.1387022,
striderite.com,730 . STEVESTON VILLAGE MATERNITY,110-3911 MONCTON ST,RICHMOND,BC,,Canada,65650,,,,49.1253101,-123.1818225,
striderite.com,731 . LITTLE TREASURES,200-1496 CARTWRIGHT ST,VANCOUVER,BC,,Canada,8301,,,,49.2703229,-123.1358524,
striderite.com,732 . KERRISDALE BOOTERY,2182 WEST 41ST AVE.,VANCOUVER,BC,,Canada,8282,,,,49.2346037,-123.1581011,
striderite.com,733 . HIP BABY,2110 W 4TH AVE,VANCOUVER,BC,,Canada,65656,,,,49.2680001,-123.1531003,
striderite.com,734 . CHIC ANGELS SHOES,2020 PARK ROYAL S,WEST VANCOUVER,BC,,Canada,8283,77-279-2970,,,49.3263018,-123.1374988,
striderite.com,735 . AUNT EM'S,2670 WEST BROADWAY,VANCOUVER,BC,,Canada,65653,,,,49.2637867,-123.1658625,
striderite.com,736 . KIDDIN' AROUND,9769 FIFTH STREET,SIDNEY,BC,,Canada,8284,,,,48.6477977,-123.4002279,
striderite.com,737 . KAOS KIDS,38068 CLEVELAND AVE,SQUAMISH,BC,,Canada,65627,,,,49.6993889,-123.152312,
striderite.com,738 . PUMPKIN PIE DESIGNS,411A FITZWILLIAM STREET,NANAIMO,BC,,Canada,8288,,,,49.1653594,-123.9420024,
striderite.com,739 . KLUBHOUSE FOR KIDS,4736 JOHNSTON ROAD,PORT ALBERNI,BC,,Canada,65640,,,,49.259085,-124.808704,
striderite.com,740 . EVERYTHING BABY,102-770 CENTRAL ST E,PRINCE GEORGE,BC,,Canada,8293,,,,53.9182937,-122.7810134,
striderite.com,741 . KRADLES BABY BOUTIQUE,226 5TH ST,COURTENAY,BC,,Canada,65622,,,,49.691171,-124.997673,
striderite.com,742 . HEART & SOLE ENT INC,"153-159 CONCEPTION BAY HWY
UNT 101",BAY ROBERTS,NL,,Canada,65617,,,,47.5801284,-53.2785597,
striderite.com,743 . HEART AND SOLE ENTERPRISES INC.,120 COLUMBUS DRIVE,CARBONEAR,NL,,Canada,65618,,,,47.7279292,-53.244662,
striderite.com,744 . FOOTWORKS,41345 K BEACH RD,KENAI,AK,99611,United States,7528,907-283-2224,,,59.4425,-151.72,
striderite.com,745 . Nordstrom - SAINT LOUIS GALLERIA,1453 SAINT LOUIS GALLERIA,SAINT LOUIS,MO,63117,United States,16021,314-884-4900,,,38.634988,-90.347405,
striderite.com,746 . Nordstrom - WEST COUNTY,47 W COUNTY CTR,DES PERES,MO,63131,United States,16013,314-255-2000,,,38.60111,-90.447907,
striderite.com,747 . Nordstrom - KEYSTONE,8702 KEYSTONE XING,INDIANAPOLIS,IN,46240,United States,16018,317-810-9809,,,39.915679,-86.111939,
striderite.com,748 . Nordstrom - OAK PARK MALL,11143 W 95TH ST,OVERLAND PARK,KS,66214,United States,16012,913-492-8111,,,38.952892,-94.718807,
striderite.com,749 . Nordstrom - OAKBROOK,10 OAKBROOK CTR,OAK BROOK,IL,60523,United States,16006,630-571-2121,,,41.852483,-87.951037,
striderite.com,750 . Nordstrom - GREEN HILLS,2130 ABBOTT MARTIN RD,NASHVILLE,TN,37215,United States,16095,615-850-6700,,,36.106581,-86.816556,
striderite.com,751 . Nordstrom - WOODFIELD MALL,6 WOODFIELD MALL,SCHAUMBURG,IL,60173,United States,16009,847-605-2121,,,42.045677,-88.04014,
striderite.com,752 . Nordstrom - OLD ORCHARD,4937 OLD ORCHARD CTR,SKOKIE,IL,60077,United States,16008,847-677-2121,,,42.056434,-87.749857,
striderite.com,753 . Nordstrom - KENWOOD TOWNE CENTRE,7801 MONTGOMERY RD,CINCINNATI,OH,45236,United States,16019,513-699-4190,,,39.200386,-84.379307,
striderite.com,754 . Nordstrom - MAYFAIR,2424 N MAYFAIR RD,WAUWATOSA,WI,53226,United States,16023,414-203-6900,,,43.063148,-88.043543,
striderite.com,755 . Nordstrom - EASTON TOWN CENTER,4000 WORTH AVE,COLUMBUS,OH,43219,United States,16014,614-416-7111,,,40.055095,-82.915154,
striderite.com,756 . Nordstrom - TWELVE OAKS,27640 NOVI RD,NOVI,MI,48377,United States,16015,248-504-5700,,,42.49201,-83.46732,
striderite.com,757 . Nordstrom - SOMERSET NORTH,2850 W BIG BEAVER RD,TROY,MI,48084,United States,16011,248-816-5100,,,42.562963,-83.18602,
striderite.com,758 . Nordstrom - MALL OF AMERICA,1000 NW CT,BLOOMINGTON,MN,55425,United States,16007,952-883-2121,,,44.855927,-93.244231,
striderite.com,759 . Nordstrom - PERIMETER MALL,4390 ASHFORD DUNWOODY RD NE,ATLANTA,GA,30346,United States,16096,770-394-1141,,,33.923354,-84.342422,
striderite.com,760 . Nordstrom - PHIPPS PLAZA,3500 PEACHTREE RD NE,ATLANTA,GA,30326,United States,16102,404-442-3000,,,33.863283,-84.361272,
striderite.com,761 . Nordstrom - RIDGEDALE CENTER,12441 WAYZATA BLVD,MINNETONKA,MN,55305,United States,16024,651-900-6800,,,44.968841,-93.435421,
striderite.com,762 . Nordstrom - PARTRIDGE CREEK,17310 HALL RD,CLINTON TOWNSHIP,MI,48038,United States,16016,586-203-4360,,,42.625619,-82.948875,
striderite.com,763 . Nordstrom - BEACHWOOD PLACE,26200 CEDAR RD,BEACHWOOD,OH,44122,United States,16010,216-378-2121,,,41.497904,-81.495189,
striderite.com,764 . Nordstrom - STONEBRIAR MALL,2613 PRESTON RD,FRISCO,TX,75034,United States,16087,972-712-3794,,,33.10012,-96.812236,
striderite.com,765 . Nordstrom - THE DALLAS GALLERIA,5220 ALPHA RD,DALLAS,TX,75240,United States,16085,972-702-0055,,,32.932522,-96.819672,
striderite.com,766 . Nordstrom - NORTHPARK,8687 N CENTRAL EXPY,DALLAS,TX,75225,United States,16086,214-231-3900,,,32.869991,-96.774482,
striderite.com,767 . Nordstrom - ROSS PARK,1000 ROSS PARK MALL DR STE 29,PITTSBURGH,PA,15237,United States,16017,412-548-4300,,,40.544705,-80.008374,
striderite.com,768 . Nordstrom - NORTH EAST MALL,1101 MELBOURNE RD STE 4000,HURST,TX,76053,United States,16116,817-590-2599,,,32.829999,-97.201989,
striderite.com,769 . Nordstrom - SOUTHPARK,4400 SHARON RD,CHARLOTTE,NC,28211,United States,16093,704-442-6000,,,35.150344,-80.833245,
striderite.com,770 . Nordstrom - STREETS AT SOUTHPOINT,6910 FAYETTEVILLE RD STE 500,DURHAM,NC,27713,United States,16094,919-806-3700,,,35.904199,-78.940732,
striderite.com,771 . Nordstrom - SHERWAY GARDENS,25 THE WEST MALL,ETOBICOKE,ON,,Canada,16109,647-798-4200,,,43.610945,-79.556826,
striderite.com,772 . Nordstrom - WOODLANDS MALL,1201 LAKE WOODLANDS DR STE 300,THE WOODLANDS,TX,77380,United States,16092,832-562-4880,,,30.165416,-95.456234,
striderite.com,773 . Nordstrom - YORKDALE,3401 DUFFERIN ST SUITE 500,TORONTO,ON,,Canada,16110,416-780-6630,,,43.726138,-79.449354,
striderite.com,774 . Nordstrom - EATON CENTRE,260 YONGE ST,TORONTO,ON,,Canada,16111,416-552-2900,,,43.655111,-79.380977,
striderite.com,775 . Nordstrom - HOUSTON GALLERIA,5192 HIDALGO ST,HOUSTON,TX,77056,United States,16088,832-201-2700,,,29.73586,-95.464215,
striderite.com,776 . Nordstrom - RICHMOND,11812 W BROAD ST,RICHMOND,VA,23233,United States,16081,804-364-6900,,,37.65498,-77.618555,
striderite.com,777 . Nordstrom - TYSONS CORNER,8075 TYSONS CORNER CTR,MCLEAN,VA,22102,United States,16074,703-761-1121,,,38.917012,-77.221815,
striderite.com,778 . Nordstrom - MONTGOMERY,7111 DEMOCRACY BLVD,BETHESDA,MD,20817,United States,16077,301-365-4111,,,39.0232,-77.145323,
striderite.com,779 . Nordstrom - PENTAGON CITY,1400 S HAYES ST,ARLINGTON,VA,22202,United States,16075,703-415-1121,,,38.862015,-77.060862,
striderite.com,780 . Nordstrom - DOMAIN NORTHSIDE,3111 PALM WAY,AUSTIN,TX,78758,United States,16091,512-605-4900,,,30.402415,-97.720406,
striderite.com,781 . Nordstrom - COLUMBIA,10300 LITTLE PATUXENT PKWY STE 1,COLUMBIA,MD,21044,United States,16080,410-715-2222,,,39.21726,-76.86155,
striderite.com,782 . Nordstrom - BARTON CREEK SQUARE MALL,2901 S CAPITAL OF TEXAS HWY,AUSTIN,TX,78746,United States,16089,512-691-2500,,,30.259103,-97.808598,
striderite.com,783 . Nordstrom - TOWSON TOWN CENTER,700 FAIRMOUNT AVE,TOWSON,MD,21286,United States,16076,410-296-2111,,,39.403945,-76.597538,
striderite.com,784 . Nordstrom - ANNAPOLIS MALL,1880 ANNAPOLIS MALL,ANNAPOLIS,MD,21401,United States,16115,410-573-1121,,,38.990958,-76.542376,
striderite.com,785 . Nordstrom - ST. JOHNS TOWN CENTER,4835 TOWN CROSSING DR,JACKSONVILLE,FL,32246,United States,16105,904-672-2200,,,30.253688,-81.52672,
striderite.com,786 . Nordstrom - MACARTHUR CENTER,301 CUMBERLAND ST,NORFOLK,VA,23510,United States,16078,757-314-1111,,,36.848814,-76.286386,
striderite.com,787 . Nordstrom - CHRISTIANA,100 CHRISTIANA MALL,NEWARK,DE,19702,United States,16083,302-613-6000,,,39.680596,-75.652939,
striderite.com,788 . Nordstrom - LA CANTERA,15900 LA CANTERA PKWY,SAN ANTONIO,TX,78256,United States,16090,210-332-1900,,,29.595399,-98.614983,
striderite.com,789 . Nordstrom - PARK MEADOWS,8465 PARK MEADOWS CENTER DR,LONE TREE,CO,80124,United States,16034,303-799-3400,,,39.561376,-104.87471,
striderite.com,790 . Nordstrom - CHERRY CREEK,2810 E 1ST AVE,DENVER,CO,80206,United States,16047,720-746-2424,,,39.717343,-104.955044,
striderite.com,791 . Nordstrom - KING OF PRUSSIA,190 N GULPH RD,KING OF PRUSSIA,PA,19406,United States,16079,610-265-6111,,,40.086885,-75.392095,
striderite.com,792 . Nordstrom - FLATIRON CROSSING,21 W FLATIRON CROSSING DR,BROOMFIELD,CO,80021,United States,16042,720-887-0333,,,39.934729,-105.133828,
striderite.com,793 . Nordstrom - CHERRY HILL,2000 ROUTE 38 STE 100,CHERRY HILL,NJ,08002,United States,16082,856-773-5600,,,39.940825,-75.027485,
striderite.com,794 . Nordstrom - SHORT HILLS,1200 MORRIS TPKE STE 1007,SHORT HILLS,NJ,07078,United States,16069,973-467-1500,,,40.739028,-74.364363,
striderite.com,795 . Nordstrom - MENLO PARK,55 PARSONAGE RD UNIT 449,EDISON,NJ,08837,United States,16064,732-603-5000,,,40.549772,-74.336543,
striderite.com,796 . Nordstrom - FREEHOLD RACEWAY,3710 US HIGHWAY 9 STE 1400,FREEHOLD,NJ,07728,United States,16065,732-308-1117,,,40.254326,-74.301564,
striderite.com,797 . Nordstrom - INTERNATIONAL PLAZA,2223 N WEST SHORE BLVD STE 300,TAMPA,FL,33607,United States,16099,813-875-4400,,,27.963897,-82.522361,
striderite.com,798 . Nordstrom - GARDEN STATE PLAZA,501 GARDEN STATE PLZ,PARAMUS,NJ,07652,United States,16063,201-843-1122,,,40.919946,-74.075599,
striderite.com,799 . Nordstrom - RIDEAU CENTRE,50 RIDEAU ST UNIT 500,OTTAWA,ON,,Canada,16107,613-567-7005,,,45.424644,-75.690031,
striderite.com,800 . Nordstrom - THE WESTCHESTER,135 WESTCHESTER AVE,WHITE PLAINS,NY,10601,United States,16066,914-946-1122,,,41.032272,-73.758987,
striderite.com,801 . Nordstrom - ROOSEVELT FIELD,630 OLD COUNTRY RD,GARDEN CITY,NY,11530,United States,16067,516-746-0011,,,40.737305,-73.610944,
striderite.com,802 . Nordstrom - WESTFARMS,600 WESTFARMS MALL,FARMINGTON,CT,06032,United States,16068,860-521-9090,,,41.722648,-72.76534,
striderite.com,803 . Nordstrom - PALM BEACH GARDENS,3111 PGA BLVD,PALM BEACH GARDENS,FL,33410,United States,16103,561-340-2100,,,26.848172,-80.087829,
striderite.com,804 . Nordstrom - THE MALL AT WELLINGTON GREEN,10320 FOREST HILL BLVD,WELLINGTON,FL,33414,United States,16100,561-227-3000,,,26.646018,-80.209693,
striderite.com,805 . Nordstrom - Providence Place,6 Providence Place,Providence,RI,02903,United States,16119,401-276-4922,,,41.826464,-71.416928,
striderite.com,806 . Nordstrom - NATICK,290 SPEEN ST,NATICK,MA,01760,United States,16070,508-318-2600,,,42.30266,-71.382819,
striderite.com,807 . Nordstrom - BURLINGTON,75 MIDDLESEX TPKE,BURLINGTON,MA,01803,United States,16071,781-345-7800,,,42.481766,-71.214921,
striderite.com,808 . Nordstrom - BOCA RATON TOWN CENTER,5820 GLADES RD,BOCA RATON,FL,33431,United States,16097,561-620-5555,,,26.362943,-80.130876,
striderite.com,809 . Nordstrom - SOUTH SHORE PLAZA,250 GRANITE ST STE 227,BRAINTREE,MA,02184,United States,16114,781-519-7200,,,42.221837,-71.02114,
striderite.com,810 . Nordstrom - NORTHSHORE,210 ANDOVER ST,PEABODY,MA,01960,United States,16072,978-278-7400,,,42.539635,-70.945324,
striderite.com,811 . Nordstrom - AVENTURA,19507 BISCAYNE BLVD,AVENTURA,FL,33180,United States,16104,305-356-6900,,,25.957378,-80.145283,
striderite.com,812 . Nordstrom - SHOPS AT MERRICK PARK,4310 PONCE DE LEON BLVD,CORAL GABLES,FL,33146,United States,16098,786-999-1313,,,25.731767,-80.258938,
striderite.com,813 . Nordstrom - DADELAND,7239 N KENDALL DR,MIAMI,FL,33156,United States,16101,786-709-4100,,,25.689781,-80.310321,
striderite.com,814 . Nordstrom - MURRAY,6191 S STATE ST STE 200,MURRAY,UT,84107,United States,16025,801-261-4402,,,40.637284,-111.887206,
striderite.com,815 . Nordstrom - CITY CREEK CENTER,55 S WEST TEMPLE,SALT LAKE CITY,UT,84101,United States,16117,801-322-4200,,,40.768386,-111.893278,
striderite.com,816 . Nordstrom - FASHION SQUARE,7055 E CAMELBACK RD,SCOTTSDALE,AZ,85251,United States,16048,480-946-4111,,,33.502008,-111.929396,
striderite.com,817 . Nordstrom - CHANDLER FASHION CENTER,3199 W CHANDLER BLVD,CHANDLER,AZ,85226,United States,16049,480-855-2500,,,33.302854,-111.900483,
striderite.com,818 . Nordstrom - FASHION SHOW,3200 LAS VEGAS BLVD S STE 710,LAS VEGAS,NV,89109,United States,16051,702-862-2525,,,36.128286,-115.173199,
striderite.com,819 . Nordstrom - CHINOOK CENTRE,6455 MACLEOD TRAIL SW UNIT 2150,CALGARY,AB,,Canada,16106,587-291-2000,,,51.00092,-114.074247,
striderite.com,820 . Nordstrom - SPOKANE,828 W MAIN AVE,SPOKANE,WA,99201,United States,16112,509-455-6111,,,47.659587,-117.424681,
striderite.com,821 . Nordstrom - ESCONDIDO,270 E VIA RANCHO PKWY,ESCONDIDO,CA,92025,United States,16046,760-740-0170,,,33.071203,-117.065213,
striderite.com,822 . Nordstrom - TYLER,3601 TYLER ST,RIVERSIDE,CA,92503,United States,16030,951-351-3170,,,33.909724,-117.458376,
striderite.com,823 . Nordstrom - MONTCLAIR PLACE,5015 E MONTCLAIR PLAZA LN,MONTCLAIR,CA,91763,United States,16029,909-625-0821,,,34.086038,-117.694725,
striderite.com,824 . Nordstrom - UTC,4401 LA JOLLA VILLAGE DR,SAN DIEGO,CA,92122,United States,16045,858-457-4575,,,32.871199,-117.213418,
striderite.com,825 . Nordstrom - FASHION VALLEY,6997 FRIARS RD,SAN DIEGO,CA,92108,United States,16044,619-295-4441,,,32.768785,-117.168517,
striderite.com,826 . Nordstrom - MISSION VIEJO,100 THE SHOPS AT MISSION VIEJO,MISSION VIEJO,CA,92691,United States,16031,949-347-2710,,,33.556671,-117.670532,
striderite.com,827 . Nordstrom - IRVINE SPECTRUM,800 SPECTRUM CENTER DR,IRVINE,CA,92618,United States,16032,949-255-2800,,,33.648936,-117.742813,
striderite.com,828 . Nordstrom - BREA MALL,500 BREA MALL WAY,BREA,CA,92821,United States,16027,714-529-0123,,,33.916037,-117.888206,
striderite.com,829 . Nordstrom - SANTA ANITA,400 S BALDWIN AVE STE 200,ARCADIA,CA,91007,United States,16039,626-821-6363,,,34.135605,-118.052369,
striderite.com,830 . Nordstrom - SOUTH COAST PLAZA,3333 BRISTOL ST,COSTA MESA,CA,92626,United States,16026,714-549-8300,,,33.691666,-117.888469,
striderite.com,831 . Nordstrom - FASHION ISLAND,901 NEWPORT CENTER DR,NEWPORT BEACH,CA,92660,United States,16033,949-610-0700,,,33.616249,-117.877726,
striderite.com,832 . Nordstrom - LOS CERRITOS,300 LOS CERRITOS MALL,CERRITOS,CA,90703,United States,16028,562-924-0940,,,33.863514,-118.093787,
striderite.com,833 . Nordstrom - THE AMERICANA AT BRAND,102 CARUSO AVE,GLENDALE,CA,91210,United States,16035,818-502-9922,,,34.143347,-118.256157,
striderite.com,834 . Nordstrom - THE GROVE,189 THE GROVE DR STE P80,LOS ANGELES,CA,90036,United States,16041,323-930-2230,,,34.07157,-118.35702,
striderite.com,835 . Nordstrom - CENTURY CITY,10250 SANTA MONICA BLVD,LOS ANGELES,CA,90067,United States,16050,424-204-1177,,,34.057942,-118.418042,
striderite.com,836 . Nordstrom - DEL AMO FASHION CENTER,21500 HAWTHORNE BLVD,TORRANCE,CA,90503,United States,16037,310-542-9440,,,33.834994,-118.350504,
striderite.com,837 . Nordstrom - SANTA MONICA PLACE,220 BROADWAY,SANTA MONICA,CA,90401,United States,16043,310-752-2701,,,34.013735,-118.494842,
striderite.com,838 . Nordstrom - TOPANGA PLAZA,21725 VICTORY BLVD,CANOGA PARK,CA,91303,United States,16036,818-884-7900,,,34.188988,-118.602616,
striderite.com,839 . Nordstrom - THE OAKS,346 W HILLCREST DR,THOUSAND OAKS,CA,91360,United States,16040,805-418-4500,,,34.183931,-118.888647,
striderite.com,840 . Nordstrom - SANTA BARBARA/PASEO NUEVO,17 W CANON PERDIDO ST,SANTA BARBARA,CA,93101,United States,16038,805-564-8770,,,34.419588,-119.701146,
striderite.com,841 . Nordstrom - GALLERIA AT ROSEVILLE,1131 GALLERIA BLVD,ROSEVILLE,CA,95678,United States,16061,916-780-7300,,,38.772078,-121.268957,
striderite.com,842 . Nordstrom - ARDEN FAIR,1651 ARDEN WAY,SACRAMENTO,CA,95815,United States,16060,916-646-2400,,,38.602438,-121.427046,
striderite.com,843 . Nordstrom - CLACKAMAS TOWN CENTER,11900 SE 82ND AVE,HAPPY VALLEY,OR,97086,United States,16020,503-652-1810,,,45.436587,-122.575031,
striderite.com,844 . Nordstrom - BELLEVUE,100 BELLEVUE SQ,BELLEVUE,WA,98004,United States,16052,425-455-5800,,,47.61714,-122.204354,
striderite.com,845 . Nordstrom - SOUTHCENTER,100 SOUTHCENTER MALL,TUKWILA,WA,98188,United States,16062,206-246-0400,,,47.459612,-122.260824,
striderite.com,846 . Nordstrom - STONERIDGE,1600 STONERIDGE MALL RD,PLEASANTON,CA,94588,United States,16113,925-463-5050,,,37.696398,-121.927879,
striderite.com,847 . Nordstrom - MICHIGAN AVENUE,55 E GRAND AVE,CHICAGO,IL,60611,United States,16005,312-464-1515,,,45.519173,-122.680337,
striderite.com,848 . Nordstrom - DOWNTOWN PORTLAND,701 SW BROADWAY,PORTLAND,OR,97205,United States,16004,503-224-6666,,,45.519423,-122.680332,
striderite.com,849 . Nordstrom - ALDERWOOD,3200 184TH ST SW,LYNNWOOD,WA,98037,United States,16001,425-771-5755,,,47.831765,-122.274162,
striderite.com,850 . Nordstrom - DOWNTOWN SEATTLE,5000 PINE ST,SEATTLE,WA,98101,United States,16120,206-628-2111,,,47.612475,-122.336425,
striderite.com,851 . Nordstrom - WALNUT CREEK,1200 BROADWAY PLZ,WALNUT CREEK,CA,94596,United States,16054,925-930-7959,,,37.897348,-122.058252,
striderite.com,852 . Nordstrom - NORTHGATE,401 NE NORTHGATE WAY SPC 715,SEATTLE,WA,98125,United States,16003,206-364-8800,,,47.706479,-122.326479,
striderite.com,853 . Nordstrom - TACOMA MALL,4502 S STEELE ST STE 800,TACOMA,WA,98409,United States,16073,253-475-3630,,,47.216177,-122.468741,
striderite.com,854 . Nordstrom - VALLEY FAIR,2400 FOREST AVE,SAN JOSE,CA,95128,United States,16057,408-248-2180,,,37.326395,-121.946511,
striderite.com,855 . Nordstrom - WASHINGTON SQUARE,9700 SW WASHINGTON SQUARE RD,TIGARD,OR,97223,United States,16022,503-620-0555,,,45.449355,-122.781838,
striderite.com,856 . Nordstrom - PALO ALTO,550 STANFORD SHOPPING CTR,PALO ALTO,CA,94304,United States,16055,650-325-5111,,,37.439184,-122.173271,
striderite.com,857 . Nordstrom - HILLSDALE MALL,130 HILLSDALE MALL,SAN MATEO,CA,94403,United States,16053,650-570-5111,,,37.537567,-122.301411,
striderite.com,858 . Nordstrom - SAN FRANCISCO CENTRE,865 MARKET ST,SAN FRANCISCO,CA,94103,United States,16059,415-243-8500,,,37.784385,-122.407489,
striderite.com,859 . Nordstrom - CORTE MADERA,1870 REDWOOD HWY,CORTE MADERA,CA,94925,United States,16056,415-927-1690,,,37.931073,-122.514521,
striderite.com,860 . Nordstrom - STONESTOWN,285 WINSTON DR,SAN FRANCISCO,CA,94132,United States,16058,415-592-2579,,,37.726747,-122.4777729,
striderite.com,861 . Nordstrom - PACIFIC CENTRE,799 ROBSON ST,VANCOUVER,BC,,Canada,16108,604-699-2100,,,49.281986,-123.120187,
striderite.com,862 . Nordstrom - THE MALL OF SAN JUAN,4000 MALL OF SAN JUAN BLVD,SAN JUAN,PR,00924,United States,16118,787-274-6300,,,18.412299,-66.024312,
striderite.com,863 . Nordstrom - ANCHORAGE,603 D ST,ANCHORAGE,AK,99501,United States,16002,907-279-7622,,,61.216455,-149.888374,
striderite.com,864 . Nordstrom - ALA MOANA,1450 ALA MOANA BLVD STE 2950,HONOLULU,HI,96814,United States,16084,808-953-6100,,,21.292227,-157.846582,
striderite.com,865 . Von Maur,1650 County Road B2 W,Roseville,MN,55113,United States,68624,(763) 204-6966,,,-89.1566,45.0147,
