"locator_domain","location_name","street_address","city","state","zip","country_code","store_number","phone","location_type","latitude","longitude","hours_of_operation"
"https://www.audiusa.com","Audi Burlington","62 Cambridge St","Burlington","MA","01803","US","401A14","(781) 272 8880","audi SVC","42.4906","-71.1916","Monday openTime 07:00 closeTime 18:00 Tuesday openTime 07:00 closeTime 18:00 Wednesday openTime 07:00 closeTime 18:00 Thursday openTime 07:00 closeTime 18:00 Friday openTime 07:00 closeTime 18:00 Saturday openTime 07:30 closeTime 16:00 "
"https://www.audiusa.com","Audi Westwood","375 Providence Highway","Westwood","MA","02090","US","401A16","(781) 234 2000","audi SVC","42.215","-71.1823","Monday openTime 07:00 closeTime 19:00 Tuesday openTime 07:00 closeTime 19:00 Wednesday openTime 07:00 closeTime 19:00 Thursday openTime 07:00 closeTime 19:00 Friday openTime 07:00 closeTime 19:00 Saturday openTime 07:00 closeTime 16:00 "
"https://www.audiusa.com","Audi West Springfield","434 Memorial Ave","West Springfield","MA","01089","US","401A17","(413) 214 6777","audi PRIM","42.0963","-72.604","<MISSING>"
"https://www.audiusa.com","Mattie Audi","80 William S Canning Blvd","Fall River","MA","02721","US","401A19","(508) 678 5555","audi SALES","41.6764","-71.1616","Monday openTime 08:45 closeTime 20:00 Tuesday openTime 08:45 closeTime 20:00 Wednesday openTime 08:45 closeTime 20:00 Thursday openTime 08:45 closeTime 20:00 Friday openTime 08:45 closeTime 18:00 Saturday openTime 08:30 closeTime 17:00 "
"https://www.audiusa.com","Flynn Audi","600 Merrill Rd","Pittsfield","MA","01201","US","401A20","(413) 443 4702","audi SVC","42.4642","-73.2055","Monday openTime 07:30 closeTime 17:00 Tuesday openTime 07:30 closeTime 17:00 Wednesday openTime 07:30 closeTime 17:00 Thursday openTime 07:30 closeTime 17:00 Friday openTime 07:30 closeTime 17:00 "
"https://www.audiusa.com","Audi Natick","549 Worcester St","Natick","MA","01760","US","401A23","(508) 651 0388","audi SALES","42.302","-71.3465","Monday openTime 09:00 closeTime 20:00 Tuesday openTime 09:00 closeTime 20:00 Wednesday openTime 09:00 closeTime 20:00 Thursday openTime 09:00 closeTime 20:00 Friday openTime 09:00 closeTime 19:00 Saturday openTime 09:00 closeTime 18:00 "
"https://www.audiusa.com","Audi Peabody","252 Andover St","Peabody","MA","01960","US","401A26","(866) 225 5472","audi PARTS","42.5475","-70.9504","Monday openTime 07:00 closeTime 18:00 Tuesday openTime 07:00 closeTime 18:00 Wednesday openTime 07:00 closeTime 18:00 Thursday openTime 07:00 closeTime 18:00 Friday openTime 07:00 closeTime 18:00 Saturday openTime 07:00 closeTime 18:00 "
"https://www.audiusa.com","Audi Norwell","59 Pond St","Norwell","MA","02061","US","401A27","(781) 261 5000","audi PARTS","42.1703","-70.8855","Monday openTime 07:00 closeTime 19:00 Tuesday openTime 07:00 closeTime 19:00 Wednesday openTime 07:00 closeTime 19:00 Thursday openTime 07:00 closeTime 19:00 Friday openTime 07:00 closeTime 18:00 Saturday openTime 08:00 closeTime 17:00 "
"https://www.audiusa.com","Audi Brookline","308 Boylston St","Brookline","MA","02445","US","401A28","(617) 734 2020","audi SALES","42.33","-71.1249","Monday openTime 08:30 closeTime 20:00 Tuesday openTime 08:30 closeTime 20:00 Wednesday openTime 08:30 closeTime 20:00 Thursday openTime 08:30 closeTime 20:00 Friday openTime 08:30 closeTime 18:00 Saturday openTime 08:30 closeTime 18:00 "
"https://www.audiusa.com","Audi Shrewsbury","780 Boston Turnpike Road","Shrewsbury","MA","01545","US","401A29","(508) 581 5800","audi PARTS","42.2775","-71.6929","Monday openTime 07:00 closeTime 19:00 Tuesday openTime 07:00 closeTime 19:00 Wednesday openTime 07:00 closeTime 19:00 Thursday openTime 07:00 closeTime 19:00 Friday openTime 07:00 closeTime 18:00 Saturday openTime 07:30 closeTime 16:00 "
"https://www.audiusa.com","Audi Cape Cod","25 Falmouth Rd.","Hyannis","MA","02601","US","401A31","(508) 815 5600","audi SALES","41.6646","-70.2888","Monday openTime 08:00 closeTime 19:00 Tuesday openTime 08:00 closeTime 19:00 Wednesday openTime 08:00 closeTime 19:00 Thursday openTime 08:00 closeTime 19:00 Friday openTime 08:00 closeTime 18:00 Saturday openTime 08:00 closeTime 17:00 "
"https://www.audiusa.com","Morong Falmouth Audi","187 Route One","Falmouth","ME","04105","US","401B01","(207) 781 4020","audi SALES","43.7162","-70.2327","Monday openTime 08:00 closeTime 19:00 Tuesday openTime 08:00 closeTime 19:00 Wednesday openTime 08:00 closeTime 19:00 Thursday openTime 08:00 closeTime 19:00 Friday openTime 08:00 closeTime 18:00 Saturday openTime 08:00 closeTime 17:00 "
"https://www.audiusa.com","Darling's Audi","403 Hogan Rd","Bangor","ME","04401","US","401B04","(207) 941 1330","audi CORP","44.8281","-68.74","<MISSING>"
"https://www.audiusa.com","Thompson Audi","347 Main St","Waterville","ME","04901","US","401B50","(207) 873 0777","audi PRIM","44.5683","-69.6381","<MISSING>"
"https://www.audiusa.com","Audi Stratham","58 Portsmouth Ave","Stratham","NH","03885","US","401C07","(603) 418 0285","audi PARTS","43.0066","-70.9185","Monday openTime 07:30 closeTime 18:00 Tuesday openTime 07:30 closeTime 18:00 Wednesday openTime 07:30 closeTime 18:00 Thursday openTime 07:30 closeTime 18:00 Friday openTime 07:30 closeTime 18:00 Saturday openTime 08:00 closeTime 16:00 "
"https://www.audiusa.com","Audi of Nashua","170 Main Dunstable Rd","Nashua","NH","03060","US","401C08","(603) 595 1700","audi SALES","42.7446","-71.49","Monday openTime 08:00 closeTime 20:00 Tuesday openTime 08:00 closeTime 20:00 Wednesday openTime 08:00 closeTime 20:00 Thursday openTime 08:00 closeTime 20:00 Friday openTime 08:00 closeTime 19:00 Saturday openTime 09:00 closeTime 17:00 "
"https://www.audiusa.com","Audi Warwick","1517b Bald Hill Rd","Warwick","RI","02886","US","401D05","(401) 821 1510","audi CORP","41.6985","-71.4993","<MISSING>"
"https://www.audiusa.com","Audi South Burlington","1325 Shelburne Rd","South Burlington","VT","05403","US","401E07","(802) 861 3010","audi PRIM","44.4336","-73.2114","<MISSING>"
"https://www.audiusa.com","Audi Rutland","176 Us Route 7 S","Rutland","VT","05701","US","401E53","(802) 775 6900","audi PRIM","43.5878","-72.9692","<MISSING>"
"https://www.audiusa.com","Audi Hoffman Estates","1200 W Golf Rd","Hoffman Estates","IL","60169","US","402A01","(847) 843 9900","audi SALES","42.0486","-88.1083","Monday openTime 09:00 closeTime 20:00 Tuesday openTime 09:00 closeTime 20:00 Wednesday openTime 09:00 closeTime 20:00 Thursday openTime 09:00 closeTime 20:00 Friday openTime 09:00 closeTime 19:00 Saturday openTime 09:00 closeTime 18:00 "
"https://www.audiusa.com","Audi Peoria","2322 W Van Winkle Way","Peoria","IL","61615","US","402A04","(309) 243 7000","audi PRIM","40.803","-89.6293","<MISSING>"
"https://www.audiusa.com","The Audi Exchange","2490 Skokie Valley Rd","Highland Park","IL","60035","US","402A16","(847) 432 5020","audi SALES","42.1973","-87.8319","Monday openTime 09:00 closeTime 20:00 Tuesday openTime 09:00 closeTime 20:00 Wednesday openTime 09:00 closeTime 20:00 Thursday openTime 09:00 closeTime 20:00 Friday openTime 09:00 closeTime 18:00 Saturday openTime 09:00 closeTime 17:00 "
"https://www.audiusa.com","Audi Westmont","276 E Ogden Ave","Westmont","IL","60559","US","402A20","(630) 655 6700","audi CORP","41.8106","-87.9697","<MISSING>"
"https://www.audiusa.com","Green Audi","3901 Wabash Ave","Springfield","IL","62711","US","402A24","(217) 698 3100","audi CORP","39.7572","-89.728","<MISSING>"
"https://www.audiusa.com","Audi Loves Park","6600 E Riverside Blvd","Loves Park","IL","61111","US","402A30","(815) 636 6600","audi CORP","42.3197","-88.9854","<MISSING>"
"https://www.audiusa.com","Audi Morton Grove","7000 Golf Road","Morton Grove","IL","60053","US","402A32","(847) 998 8000","audi SALES","42.056","-87.801","Monday openTime 09:00 closeTime 21:00 Tuesday openTime 09:00 closeTime 21:00 Wednesday openTime 09:00 closeTime 21:00 Thursday openTime 09:00 closeTime 21:00 Friday openTime 09:00 closeTime 21:00 Saturday openTime 08:00 closeTime 18:00 "
"https://www.audiusa.com","Continental Audi of Naperville","1527 Aurora Ave","Naperville","IL","60540","US","402A33","(630) 388 1000","audi PRIM","41.7658","-88.1845","<MISSING>"
"https://www.audiusa.com","Fletcher Jones Audi","1523 W North Avenue","Chicago","IL","60642","US","402A36","(312) 628 4850","audi SALES","41.9106","-87.6662","Monday openTime 09:00 closeTime 20:00 Tuesday openTime 09:00 closeTime 20:00 Wednesday openTime 09:00 closeTime 20:00 Thursday openTime 09:00 closeTime 20:00 Friday openTime 09:00 closeTime 18:00 Saturday openTime 09:00 closeTime 18:00 "
"https://www.audiusa.com","Audi Orland Park","8021 W 159th St","Tinley Park","IL","60477","US","402A37","(708) 342 0300","audi SVC","41.6013","-87.8152","Monday openTime 07:00 closeTime 17:30 Tuesday openTime 07:00 closeTime 17:30 Wednesday openTime 07:00 closeTime 17:30 Thursday openTime 07:00 closeTime 17:30 Friday openTime 07:00 closeTime 17:30 Saturday openTime 08:00 closeTime 16:00 "
"https://www.audiusa.com","Team Audi","3990 E Lincoln Hwy","Merrillville","IN","46410","US","402A57","(219) 947 1581","audi PARTS","41.4718","-87.2886","Monday openTime 07:30 closeTime 18:00 Tuesday openTime 07:30 closeTime 18:00 Wednesday openTime 07:30 closeTime 18:00 Thursday openTime 07:30 closeTime 18:00 Friday openTime 07:30 closeTime 18:00 Saturday openTime 08:00 closeTime 16:00 "
"https://www.audiusa.com","Audi Bloomington Normal","1430 Fort Jesse Rd","Normal","IL","61761","US","402A59","(888) 582 0266","audi SALES","40.5186","-88.9617","Monday openTime 09:00 closeTime 21:00 Tuesday openTime 09:00 closeTime 21:00 Wednesday openTime 09:00 closeTime 21:00 Thursday openTime 09:00 closeTime 21:00 Friday openTime 09:00 closeTime 21:00 Saturday openTime 09:00 closeTime 21:00 "
"https://www.audiusa.com","Carousel Audi Iowa City","809 Highway 1 W","Iowa City","IA","52246","US","402B06","(319) 354 2550","audi PARTS","41.6461","-91.5508","Monday openTime 07:30 closeTime 17:30 Tuesday openTime 07:30 closeTime 17:30 Wednesday openTime 07:30 closeTime 17:30 Thursday openTime 07:30 closeTime 17:30 Friday openTime 07:30 closeTime 17:30 "
"https://www.audiusa.com","Audi Des Moines","5190 Merle Hay Road","Johnston","IA","50131","US","402B10","(515) 253 0333","audi CORP","41.6552","-93.6987","<MISSING>"
"https://www.audiusa.com","Audi Quad Cities","3602 N. Harrison St.","Davenport","IA","52806","US","402B11","(563) 388 8610","audi CORP","41.5566","-90.5784","<MISSING>"
"https://www.audiusa.com","Audi Minneapolis","9393 Wayzata Blvd","Minneapolis","MN","55426","US","402C02","(763) 744 9393","audi SVC","44.9723","-93.3977","Monday openTime 07:00 closeTime 20:00 Tuesday openTime 07:00 closeTime 20:00 Wednesday openTime 07:00 closeTime 20:00 Thursday openTime 07:00 closeTime 20:00 Friday openTime 07:00 closeTime 18:00 Saturday openTime 08:00 closeTime 16:00 "
"https://www.audiusa.com","Audi St. Paul","2450 Maplewood Dr","Maplewood","MN","55109","US","402C06","(651) 494 1400","audi PARTS","45.0152","-93.0512","Monday openTime 07:00 closeTime 20:00 Tuesday openTime 07:00 closeTime 20:00 Wednesday openTime 07:00 closeTime 20:00 Thursday openTime 07:00 closeTime 20:00 Friday openTime 07:00 closeTime 18:00 Saturday openTime 09:00 closeTime 17:00 "
"https://www.audiusa.com","Audi Richfield","1401 77th St. East","Richfield","MN","55423","US","402C07","(612) 961 2834","audi PRIM","44.8633","-93.255","<MISSING>"
"https://www.audiusa.com","Rochester Audi","2720 Highway 52 N","Rochester","MN","55901","US","402C52","(507) 282 9468","audi CORP","44.0521","-92.492","<MISSING>"
"https://www.audiusa.com","Audi Fargo","402 40th St S","Fargo","ND","58103","US","402D03","(701) 277 1777","audi CORP","46.871","-96.845","<MISSING>"
"https://www.audiusa.com","Audi Sioux Falls","805 W 41st St","Sioux Falls","SD","57105","US","402E50","(605) 336 3655","audi PRIM","43.5144","-96.7357","<MISSING>"
"https://www.audiusa.com","Audi Omaha","17340 Burt St","Omaha","NE","68118","US","402F02","(402) 393 7000","audi CORP","41.2653","-96.188","<MISSING>"
"https://www.audiusa.com","Zimbrick Audi","2300 Rimrock Rd","Madison","WI","53713","US","402F09","(608) 258 4000","audi SVC","43.0389","-89.3807","Monday openTime 07:00 closeTime 18:00 Tuesday openTime 07:00 closeTime 18:00 Wednesday openTime 07:00 closeTime 18:00 Thursday openTime 07:00 closeTime 18:00 Friday openTime 07:00 closeTime 18:00 Saturday openTime 09:00 closeTime 14:00 "
"https://www.audiusa.com","Audi Milwaukee","10606 W Arthur Ave","Milwaukee","WI","53227","US","402F10","(414) 543 3000","audi CORP","43.0003","-88.0463","<MISSING>"
"https://www.audiusa.com","Audi Wausau","1501 Morning Glory Ln","Wausau","WI","54401","US","402F11","(715) 359 0303","audi SALES","44.9157","-89.6521","Monday openTime 09:00 closeTime 19:00 Tuesday openTime 09:00 closeTime 19:00 Wednesday openTime 09:00 closeTime 19:00 Thursday openTime 09:00 closeTime 19:00 Friday openTime 09:00 closeTime 18:00 Saturday openTime 09:00 closeTime 17:00 "
"https://www.audiusa.com","Audi North Shore","4400 W Brown Deer Rd","Milwaukee","WI","53223","US","402F21","(414) 355 4400","audi SVC","43.1791","-87.967","Monday openTime 07:30 closeTime 17:30 Tuesday openTime 07:30 closeTime 17:30 Wednesday openTime 07:30 closeTime 17:30 Thursday openTime 07:30 closeTime 17:30 Friday openTime 07:30 closeTime 17:30 Saturday openTime 08:00 closeTime 13:00 "
"https://www.audiusa.com","Audi Appleton","3023 N Victory Ln","Appleton","WI","54913","US","402F56","(920) 749 3232","audi CORP","44.2911","-88.4718","<MISSING>"
"https://www.audiusa.com","Audi Eau Claire","5201 Fairview Dr","Eau Claire","WI","54701","US","402F67","(715) 830 1111","audi PARTS","44.7637","-91.4626","Monday openTime 08:00 closeTime 17:00 Tuesday openTime 08:00 closeTime 17:00 Wednesday openTime 08:00 closeTime 17:00 Thursday openTime 08:00 closeTime 17:00 Friday openTime 08:00 closeTime 17:00 "
"https://www.audiusa.com","Audi La Crosse","700 Monitor St","La Crosse","WI","54603","US","402F68","(608) 782 8808","audi PRIM","43.8281","-91.2455","<MISSING>"
"https://www.audiusa.com","Audi Bedford","19400 Rockside Rd","Bedford","OH","44146","US","403A07","(440) 232 4700","audi SVC","41.4091","-81.5427","Monday openTime 07:30 closeTime 18:00 Tuesday openTime 07:30 closeTime 18:00 Wednesday openTime 07:30 closeTime 18:00 Thursday openTime 07:30 closeTime 18:00 Friday openTime 07:30 closeTime 18:00 Saturday openTime 08:00 closeTime 17:00 "
"https://www.audiusa.com","Audi Cuyahoga Falls","4149 State Rd","Cuyahoga Falls","OH","44223","US","403A09","(330) 929 1861","audi PRIM","41.1848","-81.5081","<MISSING>"
"https://www.audiusa.com","Audi Dayton","648 North Springboro Pike","Dayton","OH","45449","US","403A21","(937) 291 6000","audi SALES","39.6502","-84.2232","Monday openTime 09:00 closeTime 20:00 Tuesday openTime 09:00 closeTime 20:00 Wednesday openTime 09:00 closeTime 20:00 Thursday openTime 09:00 closeTime 20:00 Friday openTime 09:00 closeTime 18:00 Saturday openTime 10:00 closeTime 17:00 "
"https://www.audiusa.com","Audi Mentor","8599 Market St","Mentor","OH","44060","US","403A22","(440) 209 4000","audi CORP","41.6909","-81.3328","<MISSING>"
"https://www.audiusa.com","Audi Middleburg Heights","7629 Pearl Rd.","Middleburg Heights","OH","44130","US","403A29","(440) 243 5588","audi SVC","41.3578","-81.8162","Monday openTime 07:30 closeTime 20:00 Tuesday openTime 07:30 closeTime 18:00 Wednesday openTime 07:30 closeTime 18:00 Thursday openTime 07:30 closeTime 20:00 Friday openTime 07:30 closeTime 18:00 Saturday openTime 09:00 closeTime 15:00 "
"https://www.audiusa.com","Audi Cincinnati East","8639 Beechmont Ave","Cincinnati","OH","45255","US","403A31","(513) 388 3700","audi SVC","39.0724","-84.3141","Monday openTime 07:00 closeTime 19:00 Tuesday openTime 07:00 closeTime 19:00 Wednesday openTime 07:00 closeTime 19:00 Thursday openTime 07:00 closeTime 19:00 Friday openTime 07:00 closeTime 18:00 Saturday openTime 08:00 closeTime 16:00 "
"https://www.audiusa.com","Audi Sylvania","5570 Monroe St","Sylvania","OH","43560","US","403A32","(419) 885 5111","audi CORP","41.7079","-83.6687","<MISSING>"
"https://www.audiusa.com","Audi Dublin","5875 Venture Drive","Dublin","OH","43017","US","403A33","(614) 889 2571","audi PRIM","40.1","-83.1492","<MISSING>"
"https://www.audiusa.com","The Audi Connection","9678 Montgomery Rd","Cincinnati","OH","45242","US","403A34","(513) 891 2000","audi SALES","39.2317","-84.3517","Sunday openTime 12:00 closeTime 15:00 Monday openTime 09:00 closeTime 20:00 Tuesday openTime 09:00 closeTime 20:00 Wednesday openTime 09:00 closeTime 20:00 Thursday openTime 09:00 closeTime 20:00 Friday openTime 09:00 closeTime 18:00 Saturday openTime 09:00 closeTime 18:00 "
"https://www.audiusa.com","Audi Columbus","341 N Hamilton Rd","Columbus","OH","43213","US","403A61","(614) 864 5180","audi CORP","39.9834","-82.8707","<MISSING>"
"https://www.audiusa.com","Audi Louisville","4730 Bowling Blvd","Louisville","KY","40207","US","403B13","(502) 894 3427","audi PRIM","38.2436","-85.6282","<MISSING>"
"https://www.audiusa.com","Audi of Lexington","3000 Pink Pigeon Pkwy","Lexington","KY","40509","US","403B15","(859) 252 2834","audi PARTS","38.0156","-84.4193","Monday openTime 07:30 closeTime 18:00 Tuesday openTime 07:30 closeTime 18:00 Wednesday openTime 07:30 closeTime 18:00 Thursday openTime 07:30 closeTime 18:00 Friday openTime 07:30 closeTime 18:00 Saturday openTime 07:30 closeTime 12:00 "
"https://www.audiusa.com","Audi Lansing","2845 E Saginaw St","Lansing","MI","48912","US","403C02","(517) 484 1341","audi PARTS","42.7421","-84.5108","Monday openTime 08:00 closeTime 20:00 Tuesday openTime 08:00 closeTime 18:00 Wednesday openTime 08:00 closeTime 18:00 Thursday openTime 08:00 closeTime 18:00 Friday openTime 08:00 closeTime 18:00 Saturday openTime 08:00 closeTime 15:00 "
"https://www.audiusa.com","Audi Birmingham","34602 Woodward Ave","Birmingham","MI","48009","US","403C03","(248) 645 5930","audi PRIM","42.5442","-83.2094","<MISSING>"
"https://www.audiusa.com","Audi Ann Arbor","2575 S State St","Ann Arbor","MI","48104","US","403C10","(734) 761 3200","audi SALES","42.2497","-83.7388","Monday openTime 08:30 closeTime 21:00 Tuesday openTime 08:30 closeTime 18:00 Wednesday openTime 08:30 closeTime 18:00 Thursday openTime 08:30 closeTime 21:00 Friday openTime 08:30 closeTime 18:00 Saturday openTime 10:00 closeTime 16:00 "
"https://www.audiusa.com","Audi Farmington Hills","37911 Grand River Ave","Farmington Hills","MI","48335","US","403C17","(248) 471 0800","audi SALES","42.4676","-83.4206","Monday openTime 08:30 closeTime 21:00 Tuesday openTime 08:30 closeTime 18:00 Wednesday openTime 08:30 closeTime 18:00 Friday openTime 08:30 closeTime 18:00 Saturday openTime 10:00 closeTime 17:00 "
"https://www.audiusa.com","Audi Rochester Hills","45441 Dequindre Rd","Rochester Hills","MI","48307","US","403C23","(248) 997 7400","audi PRIM","42.6271","-83.0928","<MISSING>"
"https://www.audiusa.com","Thelen Audi","1112 N Euclid Ave","Bay City","MI","48706","US","403C24","(989) 684 2980","audi SALES","43.6163","-83.9138","Monday openTime 08:30 closeTime 20:00 Tuesday openTime 08:30 closeTime 18:00 Wednesday openTime 08:30 closeTime 18:00 Thursday openTime 08:30 closeTime 18:00 Friday openTime 08:30 closeTime 18:00 Saturday openTime 09:00 closeTime 15:00 "
"https://www.audiusa.com","Audi Kalamazoo","5622 W Main St","Kalamazoo","MI","49009","US","403C25","(269) 342 6600","audi SVC","42.2973","-85.6585","Monday openTime 07:30 closeTime 17:30 Tuesday openTime 07:30 closeTime 17:30 Wednesday openTime 07:30 closeTime 19:00 Thursday openTime 07:30 closeTime 17:30 Friday openTime 07:30 closeTime 17:30 "
"https://www.audiusa.com","Audi Grand Rapids","6025 28th St. Se","Grand Rapids","MI","49546","US","403C27","(616) 988 9797","audi PRIM","42.9141","-85.5193","<MISSING>"
"https://www.audiusa.com","Audi Traverse City","1747 S Garfield Ave","Traverse City","MI","49686","US","403C28","(231) 946 5540","audi SVC","44.7439","-85.5944","Monday openTime 07:30 closeTime 18:00 Tuesday openTime 07:30 closeTime 18:00 Wednesday openTime 07:30 closeTime 18:00 Thursday openTime 07:30 closeTime 18:00 Friday openTime 07:30 closeTime 18:00 Saturday openTime 08:00 closeTime 15:00 "
"https://www.audiusa.com","Audi Petoskey","805 Charlevoix Ave","Petoskey","MI","49770","US","403C52","(231) 347 9651","audi PARTS","45.3698","-84.9727","Monday openTime 07:30 closeTime 18:00 Tuesday openTime 07:30 closeTime 18:00 Wednesday openTime 07:30 closeTime 18:00 Thursday openTime 07:30 closeTime 18:00 Friday openTime 07:30 closeTime 18:00 Saturday openTime 08:00 closeTime 12:00 "
"https://www.audiusa.com","Audi Muskegon","1860 E Sternberg Rd","Muskegon","MI","49444","US","403C54","(231) 799 2886","audi PRIM","43.1551","-86.1989","<MISSING>"
"https://www.audiusa.com","D-Patrick, Inc.","200 N Green River Rd","Evansville","IN","47715","US","403D08","(812) 473 6500","audi SALES","37.9782","-87.4933","Monday openTime 09:00 closeTime 20:00 Tuesday openTime 09:00 closeTime 20:00 Wednesday openTime 09:00 closeTime 20:00 Thursday openTime 09:00 closeTime 20:00 Friday openTime 09:00 closeTime 20:00 Saturday openTime 09:00 closeTime 17:00 "
"https://www.audiusa.com","Audi Fort Wayne","5611 Illinois Rd","Fort Wayne","IN","46804","US","403D19","(260) 435 5300","audi SVC","41.0737","-85.2157","Monday openTime 07:30 closeTime 17:30 Tuesday openTime 07:30 closeTime 17:30 Wednesday openTime 07:30 closeTime 17:30 Thursday openTime 07:30 closeTime 17:30 Friday openTime 07:30 closeTime 17:30 "
"https://www.audiusa.com","Audi Indianapolis","4610 E. 96th St., Ste. B","Indianapolis","IN","46240","US","403D20","(317) 853 4582","audi SALES","39.9286","-86.0938","Monday openTime 09:00 closeTime 20:00 Tuesday openTime 09:00 closeTime 18:00 Wednesday openTime 09:00 closeTime 18:00 Thursday openTime 09:00 closeTime 20:00 Friday openTime 09:00 closeTime 18:00 Saturday openTime 09:00 closeTime 18:00 "
"https://www.audiusa.com","Audi Michiana","4004 Grape Rd","Mishawaka","IN","46545","US","403D23","(574) 254 7130","audi PRIM","41.6962","-86.1865","<MISSING>"
"https://www.audiusa.com","Royal Audi","3333 E 3rd St","Bloomington","IN","47401","US","403D57","(812) 332 9251","audi CORP","39.1647","-86.491","<MISSING>"
"https://www.audiusa.com","Audi Lafayette","1701 Sagamore Pkwy. S.","Lafayette","IN","47905","US","403D59","(765) 448 7088","audi SVC","40.3993","-86.8565","Monday openTime 07:00 closeTime 18:00 Tuesday openTime 07:00 closeTime 18:00 Wednesday openTime 07:00 closeTime 18:00 Thursday openTime 07:00 closeTime 18:00 Friday openTime 07:00 closeTime 18:00 Saturday openTime 07:00 closeTime 13:00 "
"https://www.audiusa.com","Audi Tampa","105 E. Fowler Ave.","Tampa","FL","33612","US","405A11","(813) 933 2811","audi CORP","28.0542","-82.4576","<MISSING>"
"https://www.audiusa.com","Audi Lakeland","1215 Griffin Road","Lakeland","FL","33805","US","405A13","(863) 284 0880","audi SVC","28.0811","-81.9744","Monday openTime 07:30 closeTime 18:00 Tuesday openTime 07:30 closeTime 18:00 Wednesday openTime 07:30 closeTime 18:00 Thursday openTime 07:30 closeTime 18:00 Friday openTime 07:30 closeTime 18:00 Saturday openTime 08:00 closeTime 13:00 "
"https://www.audiusa.com","Audi Wesley Chapel","2500 Lajuana Blvd","Wesley Chapel","FL","33543","US","405A15","(813) 607 3100","audi PARTS","28.1933","-82.3375","Monday openTime 07:30 closeTime 18:00 Tuesday openTime 07:30 closeTime 18:00 Wednesday openTime 07:30 closeTime 18:00 Thursday openTime 07:30 closeTime 18:00 Friday openTime 07:30 closeTime 18:00 Saturday openTime 08:00 closeTime 13:00 "
"https://www.audiusa.com","Audi Coral Springs","5555 N State Road 7","Coral Springs","FL","33073","US","405A20","(954) 509 8960","audi PRIM","26.2981","-80.203","<MISSING>"
"https://www.audiusa.com","Audi Fort Lauderdale","1200 N. Federal Hwy.","Fort Lauderdale","FL","33304","US","405A23","(954) 545 4650","audi SALES","26.1397","-80.1195","Sunday openTime 12:00 closeTime 18:00 Monday openTime 09:00 closeTime 20:00 Tuesday openTime 09:00 closeTime 20:00 Wednesday openTime 09:00 closeTime 20:00 Thursday openTime 09:00 closeTime 20:00 Friday openTime 09:00 closeTime 19:00 Saturday openTime 10:00 closeTime 19:00 "
"https://www.audiusa.com","Audi West Palm Beach","2101 Okeechobee Blvd","West Palm Beach","FL","33409","US","405A36","(561) 688 2000","audi SALES","26.7068","-80.0827","Sunday openTime 11:00 closeTime 17:00 Monday openTime 09:00 closeTime 20:00 Tuesday openTime 09:00 closeTime 20:00 Wednesday openTime 09:00 closeTime 20:00 Thursday openTime 09:00 closeTime 20:00 Friday openTime 09:00 closeTime 19:00 Saturday openTime 09:00 closeTime 18:00 "
"https://www.audiusa.com","Audi Clearwater","18940 Us Hwy 19 N.","Clearwater","FL","33764","US","405A39","(727) 324 1800","audi SVC","27.9446","-82.7309","Monday openTime 07:00 closeTime 18:00 Tuesday openTime 07:00 closeTime 18:00 Wednesday openTime 07:00 closeTime 18:00 Thursday openTime 07:00 closeTime 18:00 Friday openTime 07:00 closeTime 18:00 Saturday openTime 08:00 closeTime 13:00 "
"https://www.audiusa.com","The Collection Audi","200 Bird Rd","Coral Gables","FL","33146","US","405A40","(305) 444 5555","audi SALES","25.734","-80.2588","Monday openTime 09:00 closeTime 20:00 Tuesday openTime 09:00 closeTime 20:00 Wednesday openTime 09:00 closeTime 20:00 Thursday openTime 09:00 closeTime 20:00 Friday openTime 09:00 closeTime 20:00 Saturday openTime 09:00 closeTime 19:00 "
"https://www.audiusa.com","Audi San Juan","J.F. Kennedy Ave. Km 3.8 Marginal","San Juan","PR","00920","US","405A42","(787) 277 0707","audi SVC","18.4219","-66.0976","Monday openTime 07:30 closeTime 18:00 Tuesday openTime 07:30 closeTime 18:00 Wednesday openTime 07:30 closeTime 18:00 Thursday openTime 07:30 closeTime 18:00 Friday openTime 07:30 closeTime 18:00 "
"https://www.audiusa.com","Audi North Orlando","139 N Oregon St","Sanford","FL","32771","US","405A46","(407) 992 4321","audi PARTS","28.8159","-81.337","Monday openTime 07:30 closeTime 18:00 Tuesday openTime 07:30 closeTime 18:00 Wednesday openTime 07:30 closeTime 18:00 Thursday openTime 07:30 closeTime 18:00 Friday openTime 07:30 closeTime 18:00 Saturday openTime 07:30 closeTime 16:00 "
"https://www.audiusa.com","Audi Sarasota","4900 Clark Rd.","Sarasota","FL","34233","US","405A47","(941) 922 0000","audi SALES","27.268","-82.4695","Monday openTime 08:30 closeTime 19:00 Tuesday openTime 08:30 closeTime 19:00 Wednesday openTime 08:30 closeTime 19:00 Thursday openTime 08:30 closeTime 19:00 Friday openTime 08:30 closeTime 19:00 Saturday openTime 09:00 closeTime 18:00 "
"https://www.audiusa.com","Audi Orange Park","7230 Blanding Blvd","Jacksonville","FL","32244","US","405A49","(904) 565 4000","audi CORP","30.2152","-81.7384","<MISSING>"
"https://www.audiusa.com","Audi Fort Myers","10050 Daniels Interstate Court","Fort Myers","FL","33913","US","405A51","(239) 454 9600","audi SVC","26.5443","-81.7933","Monday openTime 07:30 closeTime 17:30 Tuesday openTime 07:30 closeTime 17:30 Wednesday openTime 07:30 closeTime 17:30 Thursday openTime 07:30 closeTime 17:30 Friday openTime 07:30 closeTime 17:30 Saturday openTime 08:00 closeTime 14:00 "
"https://www.audiusa.com","Audi Naples","601 Airport Rd S","Naples","FL","34104","US","405A52","(239) 435 3200","audi SALES","26.1481","-81.766","Monday openTime 08:30 closeTime 19:30 Tuesday openTime 08:30 closeTime 19:30 Wednesday openTime 08:30 closeTime 19:30 Thursday openTime 08:30 closeTime 19:30 Friday openTime 08:30 closeTime 19:30 Saturday openTime 08:30 closeTime 18:00 "
"https://www.audiusa.com","Audi Gainesville","1920 N Main St","Gainesville","FL","32609","US","405A53","(352) 204 4000","audi PARTS","29.6704","-82.3242","Monday openTime 07:30 closeTime 18:00 Tuesday openTime 07:30 closeTime 18:00 Wednesday openTime 07:30 closeTime 18:00 Thursday openTime 07:30 closeTime 18:00 Friday openTime 07:30 closeTime 18:00 Saturday openTime 08:00 closeTime 14:00 "
"https://www.audiusa.com","Audi Jacksonville","11401 Atlantic Blvd","Jacksonville","FL","32225","US","405A54","(904) 367 3700","audi CORP","30.3253","-81.5035","<MISSING>"
"https://www.audiusa.com","Audi South Orlando","4725 Vineland Road","Orlando","FL","32811","US","405A56","(407) 264 2945","audi SVC","28.4934","-81.4353","Monday openTime 07:00 closeTime 19:00 Tuesday openTime 07:00 closeTime 19:00 Wednesday openTime 07:00 closeTime 19:00 Thursday openTime 07:00 closeTime 19:00 Friday openTime 07:00 closeTime 19:00 Saturday openTime 07:30 closeTime 17:00 "
"https://www.audiusa.com","Audi North Miami","1995 Ne 142nd Street","North Miami","FL","33181","US","405A61","(305) 952 5900","audi SALES","25.9074","-80.1592","Sunday openTime 10:00 closeTime 19:00 Monday openTime 09:00 closeTime 20:00 Tuesday openTime 09:00 closeTime 20:00 Wednesday openTime 09:00 closeTime 20:00 Thursday openTime 09:00 closeTime 20:00 Friday openTime 09:00 closeTime 20:00 Saturday openTime 09:00 closeTime 20:00 "
"https://www.audiusa.com","Audi Melbourne","2260 Coastal Lane","West Melbourne","FL","32904","US","405A66","(321) 956 2413","audi PARTS","28.0769","-80.7048","Monday openTime 08:00 closeTime 17:30 Tuesday openTime 08:00 closeTime 17:30 Wednesday openTime 08:00 closeTime 17:30 Thursday openTime 08:00 closeTime 17:30 Friday openTime 08:00 closeTime 17:30 Saturday openTime 08:00 closeTime 14:00 "
"https://www.audiusa.com","Audi Pembroke Pines","15000 Sheridan St","Fort Lauderdale","FL","33331","US","405A67","(954) 620 2000","audi PARTS","26.0283","-80.3484","Monday openTime 08:00 closeTime 17:30 Tuesday openTime 08:00 closeTime 17:30 Wednesday openTime 08:00 closeTime 17:30 Thursday openTime 08:00 closeTime 17:30 Friday openTime 08:00 closeTime 17:30 Saturday openTime 08:00 closeTime 14:00 "
"https://www.audiusa.com","Audi Stuart","3990 Se Federal Hwy","Stuart","FL","34997","US","405A68","(772) 214 3900","audi SALES","27.156","-80.2218","Sunday openTime 11:00 closeTime 17:00 Monday openTime 09:00 closeTime 20:00 Tuesday openTime 09:00 closeTime 20:00 Wednesday openTime 09:00 closeTime 20:00 Thursday openTime 09:00 closeTime 20:00 Friday openTime 09:00 closeTime 20:00 Saturday openTime 09:00 closeTime 19:00 "
"https://www.audiusa.com","Jack Ingram Audi","231 Eastern Blvd","Montgomery","AL","36117","US","405C10","(334) 277 5700","audi SVC","32.3756","-86.2084","Monday openTime 07:00 closeTime 17:00 Tuesday openTime 07:00 closeTime 17:00 Wednesday openTime 07:00 closeTime 17:00 Thursday openTime 07:00 closeTime 17:00 Friday openTime 07:00 closeTime 17:00 Saturday openTime 08:00 closeTime 14:00 "
"https://www.audiusa.com","Audi Pensacola","6303 Pensacola Blvd","Pensacola","FL","32505","US","405C16","(850) 898 8300","audi PRIM","30.4782","-87.2526","<MISSING>"
"https://www.audiusa.com","Audi Mobile","1525 E I65 Service Rd S","Mobile","AL","36606","US","405C17","(251) 459 8994","audi SVC","30.659","-88.1245","Monday openTime 07:30 closeTime 18:00 Tuesday openTime 07:30 closeTime 18:00 Wednesday openTime 07:30 closeTime 18:00 Thursday openTime 07:30 closeTime 18:00 Friday openTime 07:30 closeTime 18:00 Saturday openTime 08:00 closeTime 14:00 "
"https://www.audiusa.com","Audi Warrington","1607 Easton Rd","Warrington","PA","18976","US","406A06","(215) 343 1600","audi SVC","40.2647","-75.1303","Monday openTime 07:30 closeTime 19:00 Tuesday openTime 07:30 closeTime 19:00 Wednesday openTime 07:30 closeTime 19:00 Thursday openTime 07:30 closeTime 19:00 Friday openTime 07:30 closeTime 18:00 Saturday openTime 07:30 closeTime 16:00 "
"https://www.audiusa.com","Audi Devon","222 W. Lancaster Ave.","Devon","PA","19333","US","406A08","(610) 356 9000","audi PARTS","40.0443","-75.4254","Monday openTime 08:00 closeTime 17:00 Tuesday openTime 08:00 closeTime 17:00 Wednesday openTime 08:00 closeTime 17:00 Thursday openTime 08:00 closeTime 17:00 Friday openTime 08:00 closeTime 17:00 Saturday openTime 09:00 closeTime 16:00 "
"https://www.audiusa.com","Sewickley Audi","526 Ohio River Blvd","Sewickley","PA","15143","US","406A17","(412) 741 6400","audi PARTS","40.5359","-80.1842","Monday openTime 08:00 closeTime 17:30 Tuesday openTime 08:00 closeTime 17:30 Wednesday openTime 08:00 closeTime 17:30 Thursday openTime 08:00 closeTime 17:30 Friday openTime 08:00 closeTime 17:30 "
"https://www.audiusa.com","Audi Lancaster","1373 Manheim Pike","Lancaster","PA","17601","US","406A18","(717) 299 2801","audi PRIM","40.0693","-76.3301","<MISSING>"
"https://www.audiusa.com","Audi Wyoming Valley","1470 Highway 315 Blvd Ste 3","Wilkes Barre","PA","18702","US","406A29","(570) 714 6550","audi PARTS","41.2734","-75.8053","Monday openTime 08:00 closeTime 17:00 Tuesday openTime 08:00 closeTime 17:00 Wednesday openTime 08:00 closeTime 17:00 Thursday openTime 08:00 closeTime 17:00 Friday openTime 08:00 closeTime 17:00 Saturday openTime 08:00 closeTime 16:00 "
"https://www.audiusa.com","Audi Erie","5711 Peach St","Erie","PA","16509","US","406A31","(814) 864 0611","audi CORP","42.07","-80.0923","<MISSING>"
"https://www.audiusa.com","Audi Mechanicsburg","6671 Carlisle Pike","Mechanicsburg","PA","17050","US","406A34","(717) 796 2834","audi PRIM","40.2676","-76.7714","<MISSING>"
"https://www.audiusa.com","Audi Reading","2746 Bernville Rd","Leesport","PA","19533","US","406A35","(610) 777 6501","audi CORP","40.3885","-75.9938","<MISSING>"
"https://www.audiusa.com","Audi Wynnewood","323 E Lancaster Ave","Wynnewood","PA","19096","US","406A36","(610) 649 3200","audi PARTS","40.0024","-75.2785","Monday openTime 07:00 closeTime 18:00 Tuesday openTime 07:00 closeTime 18:00 Wednesday openTime 07:00 closeTime 18:00 Thursday openTime 07:00 closeTime 18:00 Friday openTime 07:00 closeTime 18:00 Saturday openTime 08:00 closeTime 18:00 "
"https://www.audiusa.com","Audi West Chester","1421 Wilmington Pike","West Chester","PA","19382","US","406A37","(610) 455 2000","audi PRIM","39.9","-75.5615","<MISSING>"
"https://www.audiusa.com","Audi Allentown","4725 Hamilton Blvd","Allentown","PA","18103","US","406A40","(610) 841 8100","audi SALES","40.5688","-75.5508","Monday openTime 09:00 closeTime 20:00 Tuesday openTime 09:00 closeTime 20:00 Wednesday openTime 09:00 closeTime 20:00 Thursday openTime 09:00 closeTime 20:00 Friday openTime 09:00 closeTime 20:00 Saturday openTime 09:00 closeTime 18:00 "
"https://www.audiusa.com","Fiore Audi","1000 S Logan Blvd","Hollidaysburg","PA","16648","US","406A56","(814) 696 1111","audi PARTS","40.4508","-78.3945","Monday openTime 08:00 closeTime 17:00 Tuesday openTime 08:00 closeTime 17:00 Wednesday openTime 08:00 closeTime 17:00 Thursday openTime 08:00 closeTime 17:00 Friday openTime 08:00 closeTime 17:00 "
"https://www.audiusa.com","Audi State College","3280 W College Ave","State College","PA","16801","US","406A59","(814) 237 0368","audi SVC","40.7601","-77.8768","Monday openTime 07:30 closeTime 17:30 Tuesday openTime 07:30 closeTime 17:30 Wednesday openTime 07:30 closeTime 17:30 Thursday openTime 07:30 closeTime 17:30 Friday openTime 07:30 closeTime 17:30 "
"https://www.audiusa.com","Audi Fort Washington","428 Pennsylvania Ave","Fort Washington","PA","19034","US","406A60","(215) 938 0600","audi SVC","40.1355","-75.209","Monday openTime 07:30 closeTime 19:00 Tuesday openTime 07:30 closeTime 19:00 Wednesday openTime 07:30 closeTime 19:00 Thursday openTime 07:30 closeTime 19:00 Friday openTime 07:30 closeTime 18:00 Saturday openTime 08:00 closeTime 16:00 "
"https://www.audiusa.com","Audi Pittsburgh","2050 Liberty Ave","Pittsburgh","PA","15222","US","406A61","(412) 253 9500","audi PRIM","40.4509","-79.9826","<MISSING>"
"https://www.audiusa.com","Audi Washington","453 Racetrack Rd","Washington","PA","15301","US","406A62","(724) 229 9000","audi CORP","40.2221","-80.2097","<MISSING>"
"https://www.audiusa.com","Audi Wilmington","1300 N Union St","Wilmington","DE","19806","US","406B05","(302) 661 2100","audi SVC","39.757","-75.5669","Monday openTime 07:30 closeTime 18:00 Tuesday openTime 07:30 closeTime 18:00 Wednesday openTime 07:30 closeTime 18:00 Thursday openTime 07:30 closeTime 18:00 Friday openTime 07:30 closeTime 18:00 Saturday openTime 08:00 closeTime 16:00 "
"https://www.audiusa.com","Audi Atlanta","5805 Peachtree Blvd.","Atlanta","GA","30341","US","407A09","(770) 454 8200","audi SALES","33.9066","-84.293","Monday openTime 09:00 closeTime 21:00 Tuesday openTime 09:00 closeTime 21:00 Wednesday openTime 09:00 closeTime 21:00 Thursday openTime 09:00 closeTime 21:00 Friday openTime 09:00 closeTime 21:00 Saturday openTime 09:00 closeTime 19:00 "
"https://www.audiusa.com","Gerald Jones Audi","4022 Washington Rd","Martinez","GA","30907","US","407A14","(706) 738 2561","audi SVC","33.509","-82.1063","Monday openTime 07:30 closeTime 18:00 Tuesday openTime 07:30 closeTime 18:00 Wednesday openTime 07:30 closeTime 18:00 Thursday openTime 07:30 closeTime 18:00 Friday openTime 07:30 closeTime 18:00 Saturday openTime 08:00 closeTime 17:00 "
"https://www.audiusa.com","Audi Marietta","1141 Cobb Pkwy S","Marietta","GA","30060","US","407A15","(770) 859 2834","audi PRIM","33.924","-84.5051","<MISSING>"
"https://www.audiusa.com","Audi North Atlanta","11505 Alpharetta Highway","Roswell","GA","30076","US","407A17","(678) 795 3300","audi CORP","34.0596","-84.3246","<MISSING>"
"https://www.audiusa.com","Audi Gwinnett","3180 Satellite Blvd","Duluth","GA","30096","US","407A18","(678) 258 2522","audi PRIM","33.9611","-84.1167","<MISSING>"
"https://www.audiusa.com","Audi South Atlanta","4332 Jonesboro Rd","Union City","GA","30291","US","407A19","(678) 783 2834","audi SALES","33.567","-84.5292","Monday openTime 09:00 closeTime 20:00 Tuesday openTime 09:00 closeTime 20:00 Wednesday openTime 09:00 closeTime 20:00 Thursday openTime 09:00 closeTime 20:00 Friday openTime 09:00 closeTime 20:00 Saturday openTime 09:00 closeTime 18:00 "
"https://www.audiusa.com","Audi Huntsville","6972 Us Hwy. 72 W.","Huntsville","AL","35806","US","407B04","(256) 724 3499","audi SVC","34.7534","-86.7078","Monday openTime 07:00 closeTime 18:00 Tuesday openTime 07:00 closeTime 18:00 Wednesday openTime 07:00 closeTime 18:00 Thursday openTime 07:00 closeTime 18:00 Friday openTime 07:00 closeTime 18:00 "
"https://www.audiusa.com","Audi Birmingham","1314 Grants Mill Way","Irondale","AL","35210","US","407B08","(205) 986 7100","audi CORP","33.5199","-86.6605","<MISSING>"
"https://www.audiusa.com","Audi Greenville","200 Duvall Dr","Greenville","SC","29607","US","407C15","(864) 288 8300","audi PRIM","34.8145","-82.3406","<MISSING>"
"https://www.audiusa.com","Audi Charleston","2293 Savannah Hwy","Charleston","SC","29414","US","407C18","(843) 766 6165","audi CORP","32.7913","-80.0435","<MISSING>"
"https://www.audiusa.com","Audi Hilton Head","46 Auto Mall Blvd","Hardeeville","SC","29927","US","407C20","(843) 288 0500","audi SVC","32.3123","-80.9841","Monday openTime 08:00 closeTime 18:00 Tuesday openTime 08:00 closeTime 18:00 Wednesday openTime 08:00 closeTime 18:00 Thursday openTime 08:00 closeTime 18:00 Friday openTime 08:00 closeTime 18:00 Saturday openTime 08:00 closeTime 15:00 "
"https://www.audiusa.com","Audi Columbia","6301 Two Notch Rd","Columbia","SC","29223","US","407C21","(803) 786 6601","audi SVC","34.0575","-80.9724","Monday openTime 07:30 closeTime 18:00 Tuesday openTime 07:30 closeTime 18:00 Wednesday openTime 07:30 closeTime 18:00 Thursday openTime 07:30 closeTime 18:00 Friday openTime 07:30 closeTime 18:00 Saturday openTime 07:30 closeTime 15:30 "
"https://www.audiusa.com","Audi Nashville","1576 Mallory Ln","Brentwood","TN","37027","US","407D08","(615) 385 1900","audi PARTS","35.9766","-86.8057","Monday openTime 07:00 closeTime 18:00 Tuesday openTime 07:00 closeTime 18:00 Wednesday openTime 07:00 closeTime 18:00 Thursday openTime 07:00 closeTime 18:00 Friday openTime 07:00 closeTime 18:00 Saturday openTime 08:00 closeTime 16:00 "
"https://www.audiusa.com","Audi Knoxville","9735 Kingston Pike","Knoxville","TN","37922","US","407D11","(865) 691 2834","audi SALES","35.9066","-84.11","Monday openTime 08:30 closeTime 18:30 Tuesday openTime 08:30 closeTime 18:30 Wednesday openTime 08:30 closeTime 18:30 Thursday openTime 08:30 closeTime 18:30 Friday openTime 08:30 closeTime 18:30 Saturday openTime 09:00 closeTime 17:00 "
"https://www.audiusa.com","Audi Memphis","1825 Covington Pike","Memphis","TN","38128","US","407D20","(901) 388 8989","audi PRIM","35.1751","-89.8979","<MISSING>"
"https://www.audiusa.com","Audi Chattanooga","6001 International Dr","Chattanooga","TN","37421","US","407D21","(423) 855 4981","audi CORP","35.0639","-85.1937","<MISSING>"
"https://www.audiusa.com","Classic Audi","541 White Plains Rd","Eastchester","NY","10709","US","408A01","(914) 779 2020","audi CORP","40.9606","-73.8119","<MISSING>"
"https://www.audiusa.com","Audi Albany","723 New Loudon Rd","Latham","NY","12110","US","408A04","(518) 783 5003","audi PRIM","42.7401","-73.7613","<MISSING>"
"https://www.audiusa.com","Audi Hawthorne","151 Saw Mill River Rd","Hawthorne","NY","10532","US","408A06","(914) 747 1077","audi SVC","41.098","-73.8096","Monday openTime 07:00 closeTime 18:00 Tuesday openTime 07:00 closeTime 18:00 Wednesday openTime 07:00 closeTime 18:00 Thursday openTime 07:00 closeTime 18:00 Friday openTime 07:00 closeTime 18:00 Saturday openTime 08:00 closeTime 16:00 "
"https://www.audiusa.com","Audi Brooklyn","665 65th St","Brooklyn","NY","11220","US","408A20","(718) 748 3400","audi SALES","40.6347","-74.0154","Sunday openTime 11:00 closeTime 16:00 Monday openTime 09:00 closeTime 20:00 Tuesday openTime 09:00 closeTime 20:00 Wednesday openTime 09:00 closeTime 20:00 Thursday openTime 09:00 closeTime 20:00 Friday openTime 09:00 closeTime 18:00 Saturday openTime 09:00 closeTime 18:00 "
"https://www.audiusa.com","Audi Southampton","51 Montauk Highway","Water Mill","NY","11976","US","408A37","(631) 283 0888","audi PARTS","40.9002","-72.375","Tuesday openTime 08:00 closeTime 16:30 Wednesday openTime 08:00 closeTime 16:30 Thursday openTime 08:00 closeTime 16:30 Friday openTime 08:00 closeTime 16:30 Saturday openTime 08:00 closeTime 16:30 "
"https://www.audiusa.com","Audi Massapequa","5775 Merrick Rd","Massapequa","NY","11758","US","408A42","(631) 691 7700","audi SVC","40.6705","-73.4262","Monday openTime 07:30 closeTime 17:30 Tuesday openTime 07:30 closeTime 17:30 Wednesday openTime 07:30 closeTime 17:30 Thursday openTime 07:30 closeTime 17:30 Friday openTime 07:30 closeTime 17:30 Saturday openTime 08:00 closeTime 15:00 "
"https://www.audiusa.com","Atlantic Audi West Islip","251 Sunrise Hwy","West Islip","NY","11795","US","408A43","(866) 682 4093","audi SALES","40.7208","-73.3023","Sunday openTime 11:00 closeTime 17:00 Monday openTime 09:00 closeTime 21:00 Tuesday openTime 09:00 closeTime 21:00 Wednesday openTime 09:00 closeTime 21:00 Thursday openTime 09:00 closeTime 21:00 Friday openTime 09:00 closeTime 21:00 Saturday openTime 09:00 closeTime 18:00 "
"https://www.audiusa.com","Biener Audi","795 Northern Blvd","Great Neck","NY","11021","US","408A67","(516) 829 2834","audi SALES","40.7849","-73.7115","Sunday openTime 12:00 closeTime 17:00 Monday openTime 09:00 closeTime 20:00 Tuesday openTime 09:00 closeTime 20:00 Wednesday openTime 09:00 closeTime 20:00 Thursday openTime 09:00 closeTime 20:00 Friday openTime 09:00 closeTime 18:00 Saturday openTime 09:00 closeTime 18:00 "
"https://www.audiusa.com","Audi of Huntington","363 E Jericho Tpke","Huntington Station","NY","11746","US","408A75","(631) 486 5600","audi PARTS","40.8307","-73.3971","Monday openTime 07:30 closeTime 17:00 Tuesday openTime 07:30 closeTime 17:00 Wednesday openTime 07:30 closeTime 17:00 Thursday openTime 07:30 closeTime 17:00 Friday openTime 07:30 closeTime 17:00 Saturday openTime 08:00 closeTime 13:00 "
"https://www.audiusa.com","Audi Cicero","5885 E Circle Dr","Cicero","NY","13039","US","408A78","(315) 699 2661","audi PRIM","43.1503","-76.1151","<MISSING>"
"https://www.audiusa.com","Mohegan Lake Audi","1791 E. Main Street","Mohegan Lake","NY","10547","US","408A79","(914) 528 8076","audi SVC","41.323","-73.8536","Monday openTime 08:00 closeTime 17:00 Tuesday openTime 08:00 closeTime 17:00 Wednesday openTime 08:00 closeTime 19:00 Thursday openTime 08:00 closeTime 17:00 Friday openTime 08:00 closeTime 17:00 Saturday openTime 08:00 closeTime 12:00 "
"https://www.audiusa.com","Audi of Smithtown","578 Middle Country Rd","Saint James","NY","11780","US","408A82","(631) 979 6400","audi PARTS","40.8592","-73.1597","Monday openTime 07:30 closeTime 17:00 Tuesday openTime 07:30 closeTime 17:00 Wednesday openTime 07:30 closeTime 17:00 Thursday openTime 07:30 closeTime 17:00 Friday openTime 07:30 closeTime 17:00 Saturday openTime 08:00 closeTime 13:00 "
"https://www.audiusa.com","Audi Ithaca","370 Elmira Rd","Ithaca","NY","14850","US","408A84","(607) 257 1515","audi SALES","42.4226","-76.5177","Monday openTime 08:00 closeTime 20:00 Tuesday openTime 08:00 closeTime 20:00 Wednesday openTime 08:00 closeTime 20:00 Thursday openTime 08:00 closeTime 20:00 Friday openTime 08:00 closeTime 18:00 Saturday openTime 08:00 closeTime 18:00 "
"https://www.audiusa.com","Audi Manhattan","800 11th Ave","New York","NY","10019","US","408A85","(212) 515 8200","audi PARTS","40.7692","-73.9918","Monday openTime 08:00 closeTime 17:00 Tuesday openTime 08:00 closeTime 17:00 Wednesday openTime 08:00 closeTime 17:00 Thursday openTime 08:00 closeTime 17:00 Friday openTime 08:00 closeTime 17:00 "
"https://www.audiusa.com","Audi Rochester","3955 W Henrietta Rd","Rochester","NY","14623","US","408A86","(585) 334 1600","audi PRIM","43.0737","-77.645","<MISSING>"
"https://www.audiusa.com","Audi Lynbrook","855 Sunrise Hwy","Lynbrook","NY","11563","US","408A88","(516) 887 5300","audi SVC","40.6567","-73.6854","Monday openTime 07:00 closeTime 18:00 Tuesday openTime 07:00 closeTime 18:00 Wednesday openTime 07:00 closeTime 18:00 Thursday openTime 07:00 closeTime 18:00 Friday openTime 07:00 closeTime 18:00 Saturday openTime 07:00 closeTime 16:30 "
"https://www.audiusa.com","Audi Queens","3035 College Point Blvd","Flushing","NY","11354","US","408A90","(929) 297 0700","audi PRIM","40.7705","-73.8413","<MISSING>"
"https://www.audiusa.com","Audi Buffalo","5255 Genesee St","Bowmansville","NY","14026","US","408A91","(716) 683 3343","audi PRIM","42.9398","-78.6873","<MISSING>"
"https://www.audiusa.com","Audi Nyack","127 Route 59","Nyack","NY","10960","US","408A92","(845) 353 7300","audi SALES","41.0933","-73.9416","Monday openTime 09:00 closeTime 19:00 Tuesday openTime 09:00 closeTime 19:00 Wednesday openTime 09:00 closeTime 19:00 Thursday openTime 09:00 closeTime 19:00 Friday openTime 09:00 closeTime 18:00 Saturday openTime 09:00 closeTime 18:00 "
"https://www.audiusa.com","Audi Freehold","3561 Us Route 9","Freehold","NJ","07728","US","408B03","(732) 810 8000","audi SVC","40.2374","-74.2731","Monday openTime 07:30 closeTime 20:00 Tuesday openTime 07:30 closeTime 20:00 Wednesday openTime 07:30 closeTime 20:00 Thursday openTime 07:30 closeTime 20:00 Friday openTime 07:30 closeTime 20:00 Saturday openTime 08:00 closeTime 16:00 "
"https://www.audiusa.com","Audi Princeton","959 State Rd. 206","Princeton","NJ","08540","US","408B04","(609) 688 3100","audi PRIM","40.3928","-74.6524","<MISSING>"
"https://www.audiusa.com","Jack Daniels Audi Paramus","123 Route 4 West","Paramus","NJ","07652","US","408B10","(201) 796 8500","audi PARTS","40.924","-74.083","Monday openTime 07:30 closeTime 17:30 Tuesday openTime 07:30 closeTime 17:30 Wednesday openTime 07:30 closeTime 17:30 Thursday openTime 07:30 closeTime 17:30 Friday openTime 07:30 closeTime 17:30 Saturday openTime 07:30 closeTime 16:00 "
"https://www.audiusa.com","Paul Miller Audi","179 Route 46 East","Parsippany","NJ","07054","US","408B12","(973) 575 7750","audi PRIM","40.8576","-74.3543","<MISSING>"
"https://www.audiusa.com","Bell Audi","782 U.S. Route 1","Edison","NJ","08817","US","408B13","(732) 388 2800","audi SALES","40.5113","-74.3828","Monday openTime 09:00 closeTime 20:00 Tuesday openTime 09:00 closeTime 20:00 Wednesday openTime 09:00 closeTime 20:00 Thursday openTime 09:00 closeTime 20:00 Friday openTime 09:00 closeTime 20:00 Saturday openTime 09:00 closeTime 18:00 "
"https://www.audiusa.com","Jack Daniels Audi of USR","243 Route 17 South","Upper Saddle River","NJ","07458","US","408B14","(201) 252 1500","audi CORP","41.0492","-74.1185","<MISSING>"
"https://www.audiusa.com","Audi Eatontown","95 Route 36","Eatontown","NJ","07724","US","408B18","(732) 389 1000","audi PRIM","40.292","-74.046","<MISSING>"
"https://www.audiusa.com","Cherry Hill Audi","2261 Marlton Pike W","Cherry Hill","NJ","08002","US","408B19","(856) 665 5370","audi SALES","39.9236","-75.0473","Monday openTime 09:00 closeTime 21:00 Tuesday openTime 09:00 closeTime 21:00 Wednesday openTime 09:00 closeTime 21:00 Thursday openTime 09:00 closeTime 21:00 Friday openTime 09:00 closeTime 18:00 Saturday openTime 09:00 closeTime 17:00 "
"https://www.audiusa.com","Town Audi","400 S Dean St","Englewood","NJ","07631","US","408B21","(201) 568 5200","audi CORP","40.8822","-73.9827","<MISSING>"
"https://www.audiusa.com","DCH Millburn Audi","2191-2195 Millburn Ave","Maplewood","NJ","07040","US","408B32","(973) 762 8500","audi PRIM","40.7222","-74.2844","<MISSING>"
"https://www.audiusa.com","Audi Turnersville","3751 Route 42","Turnersville","NJ","08012","US","408B33","(856) 649 7930","audi SVC","39.7327","-75.0375","Monday openTime 07:30 closeTime 17:30 Tuesday openTime 07:30 closeTime 17:30 Wednesday openTime 07:30 closeTime 17:30 Thursday openTime 07:30 closeTime 17:30 Friday openTime 07:30 closeTime 17:30 Saturday openTime 07:30 closeTime 17:30 "
"https://www.audiusa.com","Audi Meadowlands","425 Route 3 East","Secaucus","NJ","07094","US","408B55","(201) 567 1400","audi PRIM","40.789","-74.052","<MISSING>"
"https://www.audiusa.com","Audi Bridgewater","701 Route 202-206 North","Bridgewater","NJ","08807","US","408B59","(908) 800 9000","audi SVC","40.6041","-74.6249","Monday openTime 07:00 closeTime 19:00 Tuesday openTime 07:00 closeTime 19:00 Wednesday openTime 07:00 closeTime 19:00 Thursday openTime 07:00 closeTime 19:00 Friday openTime 07:00 closeTime 19:00 Saturday openTime 07:00 closeTime 16:00 "
"https://www.audiusa.com","Flemington Audi","213 Highway 202","Flemington","NJ","08822","US","408B64","(908) 782 2400","audi PARTS","40.4867","-74.8635","Monday openTime 08:00 closeTime 17:00 Tuesday openTime 08:00 closeTime 17:00 Wednesday openTime 08:00 closeTime 17:00 Thursday openTime 08:00 closeTime 17:00 Friday openTime 08:00 closeTime 17:00 Saturday openTime 08:00 closeTime 16:00 "
"https://www.audiusa.com","Audi Newton","34 Hampton House Rd","Newton","NJ","07860","US","408B66","(973) 383 2626","audi PARTS","41.0726","-74.7391","Monday openTime 08:00 closeTime 18:00 Tuesday openTime 08:00 closeTime 18:00 Wednesday openTime 08:00 closeTime 18:00 Thursday openTime 08:00 closeTime 18:00 Friday openTime 08:00 closeTime 18:00 Saturday openTime 08:00 closeTime 16:00 "
"https://www.audiusa.com","Audi Greenwich","181 W Putnam Ave","Greenwich","CT","06830","US","408C07","(203) 661 1800","audi SALES","41.0263","-73.6335","Monday openTime 09:00 closeTime 19:00 Tuesday openTime 09:00 closeTime 19:00 Wednesday openTime 09:00 closeTime 19:00 Thursday openTime 09:00 closeTime 19:00 Friday openTime 09:00 closeTime 19:00 Saturday openTime 09:00 closeTime 17:00 "
"https://www.audiusa.com","Hoffman Audi","700 Connecticut Blvd","East Hartford","CT","06108","US","408C10","(860) 289 7721","audi PARTS","41.7699","-72.6589","Monday openTime 07:30 closeTime 17:30 Tuesday openTime 07:30 closeTime 17:30 Wednesday openTime 07:30 closeTime 17:30 Thursday openTime 07:30 closeTime 17:30 Friday openTime 07:30 closeTime 17:30 Saturday openTime 07:30 closeTime 16:00 "
"https://www.audiusa.com","Valenti Audi","600 Straits Tpke","Watertown","CT","06795","US","408C12","(860) 274 8846","audi PARTS","41.5752","-73.1005","Monday openTime 08:00 closeTime 17:30 Tuesday openTime 08:00 closeTime 17:30 Wednesday openTime 08:00 closeTime 17:30 Thursday openTime 08:00 closeTime 17:30 Friday openTime 08:00 closeTime 17:30 Saturday openTime 08:00 closeTime 12:00 "
"https://www.audiusa.com","Audi of Wallingford","800 S Colony Rd","Wallingford","CT","06492","US","408C15","(203) 294 9000","audi SVC","41.439","-72.8322","Monday openTime 07:30 closeTime 18:00 Tuesday openTime 07:30 closeTime 18:00 Wednesday openTime 07:30 closeTime 18:00 Thursday openTime 07:30 closeTime 18:00 Friday openTime 07:30 closeTime 18:00 Saturday openTime 08:00 closeTime 16:00 "
"https://www.audiusa.com","Audi of Fairfield","435 Commerce Dr","Fairfield","CT","06825","US","408C16","(203) 335 0666","audi SVC","41.1648","-73.2302","Monday openTime 07:30 closeTime 17:30 Tuesday openTime 07:30 closeTime 17:30 Wednesday openTime 07:30 closeTime 17:30 Thursday openTime 07:30 closeTime 17:30 Friday openTime 07:30 closeTime 17:30 Saturday openTime 08:00 closeTime 15:00 "
"https://www.audiusa.com","Audi Danbury","25 Sugar Hollow Rd","Danbury","CT","06810","US","408C53","(203) 744 5202","audi CORP","41.3744","-73.4744","<MISSING>"
"https://www.audiusa.com","Hoffman Audi of New London","490 Broad St","New London","CT","06320","US","408C54","(860) 447 5000","audi PARTS","41.3641","-72.1183","Monday openTime 07:30 closeTime 17:00 Tuesday openTime 07:30 closeTime 17:00 Wednesday openTime 07:30 closeTime 17:00 Thursday openTime 07:30 closeTime 17:00 Friday openTime 07:30 closeTime 17:00 Saturday openTime 07:30 closeTime 12:30 "
"https://www.audiusa.com","Audi of Mendham","26 E Main St","Mendham","NJ","07945","US","408S59","(973) 543 6000","audi PRIM","40.7772","-74.598","<MISSING>"
"https://www.audiusa.com","Audi Hunt Valley","9800 York Rd","Cockeysville","MD","21030","US","409A02","(443) 689 4279","audi PRIM","39.4585","-76.6343","<MISSING>"
"https://www.audiusa.com","Audi Silver Spring","3151 Automobile Blvd","Silver Spring","MD","20904","US","409A09","(301) 847 2200","audi PARTS","39.0776","-76.9469","Monday openTime 07:30 closeTime 18:00 Tuesday openTime 07:30 closeTime 18:00 Wednesday openTime 07:30 closeTime 18:00 Thursday openTime 07:30 closeTime 18:00 Friday openTime 07:30 closeTime 18:00 Saturday openTime 08:00 closeTime 15:00 "
"https://www.audiusa.com","Audi Annapolis","1833 West Street","Annapolis","MD","21401","US","409A10","(443) 482 3250","audi CORP","38.9794","-76.523","<MISSING>"
"https://www.audiusa.com","Rockville Audi","1125 Rockville Pike","Rockville","MD","20852","US","409A12","(301) 296 2834","audi PARTS","39.0705","-77.1324","Monday openTime 07:30 closeTime 18:00 Tuesday openTime 07:30 closeTime 18:00 Wednesday openTime 07:30 closeTime 18:00 Thursday openTime 07:30 closeTime 18:00 Friday openTime 07:30 closeTime 18:00 Saturday openTime 08:00 closeTime 16:00 "
"https://www.audiusa.com","Audi Frederick","6001 Urbana Pike","Frederick","MD","21704","US","409A13","(301) 662 7600","audi CORP","39.3987","-77.4077","<MISSING>"
"https://www.audiusa.com","Audi Bethesda","7106 Woodmont Ave.","Bethesda","MD","20815","US","409A14","(240) 762 5700","audi PRIM","38.9798","-77.0926","<MISSING>"
"https://www.audiusa.com","Audi Owings Mills","9804 Reisterstown Rd","Owings Mills","MD","21117","US","409A15","(410) 372 3400","audi CORP","39.4079","-76.7652","<MISSING>"
"https://www.audiusa.com","Audi Cary","600 Auto Park Blvd","Cary","NC","27511","US","409B04","(919) 460 3800","audi SVC","35.7405","-78.8148","Monday openTime 07:30 closeTime 18:00 Tuesday openTime 07:30 closeTime 18:00 Wednesday openTime 07:30 closeTime 18:00 Thursday openTime 07:30 closeTime 18:00 Friday openTime 07:30 closeTime 18:00 Saturday openTime 08:00 closeTime 17:00 "
"https://www.audiusa.com","Audi Raleigh","4000 Capital Hills Dr","Raleigh","NC","27616","US","409B11","(919) 876 8766","audi CORP","35.8859","-78.5682","<MISSING>"
"https://www.audiusa.com","Audi Winston-Salem","465 Silas Creek Pkwy","Winston Salem","NC","27127","US","409B12","(336) 723 3524","audi SVC","36.0662","-80.2474","Monday openTime 07:30 closeTime 18:00 Tuesday openTime 07:30 closeTime 18:00 Wednesday openTime 07:30 closeTime 18:00 Thursday openTime 07:30 closeTime 18:00 Friday openTime 07:30 closeTime 18:00 Saturday openTime 08:00 closeTime 13:00 "
"https://www.audiusa.com","Audi of Charlotte","9300 E Independence Blvd","Matthews","NC","28105","US","409B22","(704) 535 8800","audi SVC","35.1389","-80.7184","Monday openTime 07:30 closeTime 18:00 Tuesday openTime 07:30 closeTime 18:00 Wednesday openTime 07:30 closeTime 18:00 Thursday openTime 07:30 closeTime 18:00 Friday openTime 07:30 closeTime 18:00 Saturday openTime 08:00 closeTime 17:00 "
"https://www.audiusa.com","Audi Greensboro","5601 Roanne Way # 200","Greensboro","NC","27409","US","409B23","(336) 856 9050","audi PARTS","36.0625","-79.9112","Monday openTime 07:30 closeTime 18:00 Tuesday openTime 07:30 closeTime 18:00 Wednesday openTime 07:30 closeTime 18:00 Thursday openTime 07:30 closeTime 18:00 Friday openTime 07:30 closeTime 18:00 Saturday openTime 08:00 closeTime 13:00 "
"https://www.audiusa.com","Audi Asheville","621 Brevard Road","Asheville","NC","28806","US","409B24","(828) 232 4000","audi SVC","35.5497","-82.6005","Monday openTime 07:30 closeTime 17:30 Tuesday openTime 07:30 closeTime 17:30 Wednesday openTime 07:30 closeTime 17:30 Thursday openTime 07:30 closeTime 17:30 Friday openTime 07:30 closeTime 17:30 Saturday openTime 08:00 closeTime 16:00 "
"https://www.audiusa.com","Audi Northlake","10831 Northlake Auto Plaza Blvd","Charlotte","NC","28269","US","409B25","(704) 379 8300","audi SVC","35.3677","-80.8336","Monday openTime 07:30 closeTime 18:00 Tuesday openTime 07:30 closeTime 18:00 Wednesday openTime 07:30 closeTime 18:00 Thursday openTime 07:30 closeTime 18:00 Friday openTime 07:30 closeTime 18:00 Saturday openTime 09:00 closeTime 17:00 "
"https://www.audiusa.com","Audi Cape Fear","255 Old Eastwood Road","Wilmington","NC","28403","US","409B30","(910) 202 4662","audi PARTS","34.2429","-77.8615","Monday openTime 07:30 closeTime 17:30 Tuesday openTime 07:30 closeTime 17:30 Wednesday openTime 07:30 closeTime 17:30 Thursday openTime 07:30 closeTime 17:30 Friday openTime 07:30 closeTime 17:30 "
"https://www.audiusa.com","Audi Greenville","3001 Evans St","Greenville","NC","27834","US","409B57","(252) 756 1135","audi SALES","35.5808","-77.3802","Monday openTime 09:00 closeTime 20:00 Tuesday openTime 09:00 closeTime 20:00 Wednesday openTime 09:00 closeTime 20:00 Thursday openTime 09:00 closeTime 20:00 Friday openTime 09:00 closeTime 19:30 Saturday openTime 09:00 closeTime 18:00 "
"https://www.audiusa.com","Audi Tysons Corner","8598 Leesburg Pike","Vienna","VA","22182","US","409D01","(703) 564 6100","audi SVC","38.9309","-77.2419","Monday openTime 07:00 closeTime 19:00 Tuesday openTime 07:00 closeTime 19:00 Wednesday openTime 07:00 closeTime 19:00 Thursday openTime 07:00 closeTime 19:00 Friday openTime 07:00 closeTime 19:00 Saturday openTime 08:00 closeTime 16:00 "
"https://www.audiusa.com","Audi Virginia Beach","2865 Virginia Beach Blvd","Virginia Beach","VA","23452","US","409D02","(757) 490 1111","audi SALES","36.8436","-76.0707","Monday openTime 09:00 closeTime 20:00 Tuesday openTime 09:00 closeTime 20:00 Wednesday openTime 09:00 closeTime 20:00 Thursday openTime 09:00 closeTime 20:00 Friday openTime 09:00 closeTime 20:00 Saturday openTime 09:00 closeTime 19:00 "
"https://www.audiusa.com","Audi Chantilly","14839 Stonecroft Center Ct","Chantilly","VA","20151","US","409D03","(703) 956 2100","audi CORP","38.8982","-77.4608","<MISSING>"
"https://www.audiusa.com","Audi Hampton","2712 Magruder Blvd","Hampton","VA","23666","US","409D05","(757) 865 8000","audi SVC","37.062","-76.4","Monday openTime 07:30 closeTime 17:30 Tuesday openTime 07:30 closeTime 17:30 Wednesday openTime 07:30 closeTime 17:30 Thursday openTime 07:30 closeTime 17:30 Friday openTime 07:30 closeTime 17:30 Saturday openTime 07:30 closeTime 16:00 "
"https://www.audiusa.com","Audi Roanoke","2006 Peters Creek Rd.","Roanoke","VA","24017","US","409D14","(540) 562 0088","audi PRIM","37.3107","-80.0079","<MISSING>"
"https://www.audiusa.com","Audi Arlington","3200 Columbia Pike","Arlington","VA","22204","US","409D16","(703) 739 7460","audi SVC","38.8615","-77.0902","Sunday openTime 08:00 closeTime 17:00 Monday openTime 07:30 closeTime 21:00 Tuesday openTime 07:30 closeTime 21:00 Wednesday openTime 07:30 closeTime 21:00 Thursday openTime 07:30 closeTime 21:00 Friday openTime 07:30 closeTime 21:00 Saturday openTime 08:00 closeTime 18:00 "
"https://www.audiusa.com","Audi Richmond","12592 Broad Street Rd","Richmond","VA","23233","US","409D17","(804) 273 8700","audi CORP","37.6646","-77.6533","<MISSING>"
"https://www.audiusa.com","Flow Audi","1313 Richmond Rd","Charlottesville","VA","22911","US","409D18","(434) 296 4147","audi CORP","38.0333","-78.4506","<MISSING>"
"https://www.audiusa.com","Audi Charleston","4 Dudley Farms Ln","Charleston","WV","25309","US","409D19","(304) 746 0500","audi PRIM","38.3269","-81.7123","<MISSING>"
"https://www.audiusa.com","Audi Clarksburg","Us Route 19 South","Clarksburg","WV","26301","US","409E49","(304) 623 7827","audi SVC","39.272","-80.3697","Monday openTime 08:00 closeTime 17:00 Tuesday openTime 08:00 closeTime 17:00 Wednesday openTime 08:00 closeTime 17:00 Thursday openTime 08:00 closeTime 17:00 Friday openTime 08:00 closeTime 17:00 Saturday openTime 08:00 closeTime 12:00 "
"https://www.audiusa.com","Audi Boise","8400 W Franklin Rd","Boise","ID","83709","US","419B90","(208) 377 5400","audi SVC","43.6054","-116.286","Monday openTime 07:30 closeTime 18:00 Tuesday openTime 07:30 closeTime 18:00 Wednesday openTime 07:30 closeTime 18:00 Thursday openTime 07:30 closeTime 18:00 Friday openTime 07:30 closeTime 18:00 "
"https://www.audiusa.com","Audi Bozeman","1800 W Main St","Bozeman","MT","59715","US","419C79","(406) 586 1772","audi PARTS","45.6788","-111.061","Monday openTime 07:30 closeTime 18:00 Tuesday openTime 07:30 closeTime 18:00 Wednesday openTime 07:30 closeTime 18:00 Thursday openTime 07:30 closeTime 18:00 Friday openTime 07:30 closeTime 18:00 "
"https://www.audiusa.com","Audi Spokane","10006 E Sprague Ave","Spokane","WA","99206","US","419D98","(509) 892 2240","audi SVC","47.6566","-117.27","Monday openTime 07:00 closeTime 18:00 Tuesday openTime 07:00 closeTime 18:00 Wednesday openTime 07:00 closeTime 18:00 Thursday openTime 07:00 closeTime 18:00 Friday openTime 07:00 closeTime 18:00 Saturday openTime 08:00 closeTime 17:00 "
"https://www.audiusa.com","Audi Salt Lake City","999 S State St","Salt Lake City","UT","84111","US","419E02","(801) 433 2834","audi SALES","40.7471","-111.888","Monday openTime 08:00 closeTime 19:00 Tuesday openTime 08:00 closeTime 19:00 Wednesday openTime 08:00 closeTime 19:00 Thursday openTime 08:00 closeTime 19:00 Friday openTime 08:00 closeTime 19:00 Saturday openTime 09:00 closeTime 17:00 "
"https://www.audiusa.com","Audi Layton","1230 N Main St","Layton","UT","84041","US","419E06","(801) 336 1111","audi SALES","41.0793","-111.983","Monday openTime 09:00 closeTime 20:00 Tuesday openTime 09:00 closeTime 20:00 Wednesday openTime 09:00 closeTime 20:00 Thursday openTime 09:00 closeTime 20:00 Friday openTime 09:00 closeTime 20:00 Saturday openTime 09:00 closeTime 19:00 "
"https://www.audiusa.com","Audi Lehi","3455 N. Digital Dr.","Lehi","UT","84043","US","419E07","(801) 852 5300","audi CORP","40.4308","-111.887","<MISSING>"
"https://www.audiusa.com","Audi Flatirons","13321 W Midway Blvd","Broomfield","CO","80020","US","420B06","(303) 222 3321","audi PARTS","39.9389","-105.125","Monday openTime 08:00 closeTime 17:30 Tuesday openTime 08:00 closeTime 17:30 Wednesday openTime 08:00 closeTime 17:30 Thursday openTime 08:00 closeTime 17:30 Friday openTime 08:00 closeTime 17:30 Saturday openTime 08:00 closeTime 15:00 "
"https://www.audiusa.com","Audi Fort Collins","3003 S College Ave","Fort Collins","CO","80525","US","420B08","(970) 226 3000","audi PARTS","40.5461","-105.078","Monday openTime 07:30 closeTime 17:30 Tuesday openTime 07:30 closeTime 17:30 Wednesday openTime 07:30 closeTime 17:30 Thursday openTime 07:30 closeTime 17:30 Friday openTime 07:30 closeTime 17:30 Saturday openTime 08:00 closeTime 13:00 "
"https://www.audiusa.com","Prestige Imports","9201 W Colfax Ave","Lakewood","CO","80215","US","420B09","(303) 238 8101","audi CORP","39.7407","-105.101","<MISSING>"
"https://www.audiusa.com","Audi Colorado Springs","550 Automotive Dr","Colorado Springs","CO","80905","US","420B11","(719) 575 7830","audi CORP","38.8164","-104.837","<MISSING>"
"https://www.audiusa.com","Audi Denver","6060 South Broadway","Littleton","CO","80121","US","420B13","(303) 795 1100","audi SALES","39.6067","-104.988","Monday openTime 08:00 closeTime 20:00 Tuesday openTime 08:00 closeTime 20:00 Wednesday openTime 08:00 closeTime 20:00 Thursday openTime 08:00 closeTime 20:00 Friday openTime 08:00 closeTime 20:00 Saturday openTime 09:00 closeTime 19:00 "
"https://www.audiusa.com","Audi Glenwood Springs","100 Riverine Road","Glenwood Springs","CO","81601","US","420B52","(970) 945 5200","audi SALES","39.5607","-107.366","Monday openTime 09:00 closeTime 18:00 Tuesday openTime 09:00 closeTime 18:00 Wednesday openTime 09:00 closeTime 18:00 Thursday openTime 09:00 closeTime 18:00 Friday openTime 09:00 closeTime 18:00 Saturday openTime 09:00 closeTime 17:00 "
"https://www.audiusa.com","Audi Albuquerque","8900 Pan American Fwy Ne","Albuquerque","NM","87113","US","420D06","(505) 338 8270","audi CORP","35.1863","-106.58","<MISSING>"
"https://www.audiusa.com","Audi Honolulu","888 Kapiolani Blvd.","Honolulu","HI","96813","US","421D06","(808) 585 6600","audi PARTS","21.3001","-157.853","Monday openTime 07:30 closeTime 17:30 Tuesday openTime 07:30 closeTime 17:30 Wednesday openTime 07:30 closeTime 17:30 Thursday openTime 07:30 closeTime 17:30 Friday openTime 07:30 closeTime 17:30 "
"https://www.audiusa.com","Keyes Audi","5239 Van Nuys Blvd","Sherman Oaks","CA","91401","US","422A02","(818) 922 0500","audi PRIM","34.166","-118.45","<MISSING>"
"https://www.audiusa.com","Circle Audi","1919 N Lakewood Blvd","Long Beach","CA","90815","US","422A03","(562) 597 3663","audi PRIM","33.7919","-118.143","<MISSING>"
"https://www.audiusa.com","Audi Bakersfield","6000 Wible Rd","Bakersfield","CA","93313","US","422A05","(661) 617 6200","audi SVC","35.3002","-119.038","Monday openTime 07:00 closeTime 17:30 Tuesday openTime 07:00 closeTime 17:30 Wednesday openTime 07:00 closeTime 17:30 Thursday openTime 07:00 closeTime 17:30 Friday openTime 07:00 closeTime 17:30 Saturday openTime 08:00 closeTime 13:00 "
"https://www.audiusa.com","Audi Valencia","23923 Creekside Rd","Valencia","CA","91355","US","422A06","(661) 888 1400","audi PARTS","34.4193","-118.553","Monday openTime 07:30 closeTime 18:00 Tuesday openTime 07:30 closeTime 18:00 Wednesday openTime 07:30 closeTime 18:00 Thursday openTime 07:30 closeTime 18:00 Friday openTime 07:30 closeTime 18:00 Saturday openTime 08:00 closeTime 18:00 "
"https://www.audiusa.com","Rusnak Audi","267 W Colorado Blvd","Pasadena","CA","91105","US","422A22","(626) 229 2419","audi PRIM","34.1461","-118.156","<MISSING>"
"https://www.audiusa.com","Audi Ontario","2272 E. Inland Empire Blvd.","Ontario","CA","91764","US","422A26","(909) 292 9700","audi PRIM","34.0695","-117.602","<MISSING>"
"https://www.audiusa.com","Walter's  Audi","3210 Adams-Auto Center Drive","Riverside","CA","92504","US","422A28","(951) 688 3344","audi SVC","33.9242","-117.418","Monday openTime 07:00 closeTime 19:00 Tuesday openTime 07:00 closeTime 19:00 Wednesday openTime 07:00 closeTime 19:00 Thursday openTime 07:00 closeTime 19:00 Friday openTime 07:00 closeTime 19:00 Saturday openTime 08:00 closeTime 16:00 "
"https://www.audiusa.com","Audi Pacific","20460 Hawthorne Blvd","Torrance","CA","90503","US","422A29","(310) 255 3200","audi CORP","33.8454","-118.353","<MISSING>"
"https://www.audiusa.com","Audi Oxnard","1600 Ventura Blvd","Oxnard","CA","93036","US","422A32","(805) 288 3800","audi SALES","34.2264","-119.156","Sunday openTime 10:00 closeTime 19:00 Monday openTime 09:00 closeTime 20:00 Tuesday openTime 09:00 closeTime 20:00 Wednesday openTime 09:00 closeTime 20:00 Thursday openTime 09:00 closeTime 20:00 Friday openTime 09:00 closeTime 20:00 Saturday openTime 09:00 closeTime 19:00 "
"https://www.audiusa.com","Audi Calabasas","24650 Calabasas Rd.","Calabasas","CA","91302","US","422A34","(818) 877 1900","audi CORP","34.1495","-118.663","<MISSING>"
"https://www.audiusa.com","Audi Downtown LA","1900 S Figueroa St","Los Angeles","CA","90007","US","422A35","(213) 745 7200","audi PRIM","34.0336","-118.272","<MISSING>"
"https://www.audiusa.com","Audi West Covina","2016 E Garvey Ave S","West Covina","CA","91791","US","422A37","(626) 384 3400","audi SVC","34.0714","-117.902","Monday openTime 07:00 closeTime 18:00 Tuesday openTime 07:00 closeTime 18:00 Wednesday openTime 07:00 closeTime 18:00 Thursday openTime 07:00 closeTime 18:00 Friday openTime 07:00 closeTime 18:00 Saturday openTime 07:00 closeTime 18:00 "
"https://www.audiusa.com","Santa Monica Audi","1020 Santa Monica Blvd","Santa Monica","CA","90401","US","422A45","(310) 393 9922","audi PRIM","34.0212","-118.489","<MISSING>"
"https://www.audiusa.com","Audi Rancho Mirage","71265 Highway 111","Rancho Mirage","CA","92270","US","422A49","(760) 674 2555","audi PARTS","33.7467","-116.42","Monday openTime 07:30 closeTime 17:30 Tuesday openTime 07:30 closeTime 17:30 Wednesday openTime 07:30 closeTime 17:30 Thursday openTime 07:30 closeTime 17:30 Friday openTime 07:30 closeTime 17:30 "
"https://www.audiusa.com","Audi Beverly Hills","8850 Wilshire Blvd","Beverly Hills","CA","90211","US","422A50","(424) 281 5600","audi SVC","34.0674","-118.385","Monday openTime 07:00 closeTime 19:00 Tuesday openTime 07:00 closeTime 19:00 Wednesday openTime 07:00 closeTime 19:00 Thursday openTime 07:00 closeTime 19:00 Friday openTime 07:00 closeTime 19:00 Saturday openTime 08:00 closeTime 15:00 "
"https://www.audiusa.com","Audi South Coast","1425 Auto Mall Dr","Santa Ana","CA","92705","US","422A55","(714) 973 7766","audi PRIM","33.7295","-117.838","<MISSING>"
"https://www.audiusa.com","Audi San Diego","9010 Miramar Rd","San Diego","CA","92126","US","422A58","(858) 578 8600","audi PRIM","32.894","-117.13","<MISSING>"
"https://www.audiusa.com","McKenna Audi","10850 Firestone Blvd","Norwalk","CA","90650","US","422A61","(562) 868 3233","audi PARTS","33.9233","-118.103","Monday openTime 08:00 closeTime 18:00 Tuesday openTime 08:00 closeTime 18:00 Wednesday openTime 08:00 closeTime 18:00 Thursday openTime 08:00 closeTime 18:00 Friday openTime 08:00 closeTime 18:00 Saturday openTime 08:00 closeTime 17:00 "
"https://www.audiusa.com","Audi Santa Barbara","402 S Hope Ave","Santa Barbara","CA","93105","US","422A62","(805) 682 2000","audi CORP","34.4343","-119.746","<MISSING>"
"https://www.audiusa.com","Rusnak/Westlake Audi","3832 E Thousand Oaks Blvd","Westlake Village","CA","91362","US","422A63","(818) 991 6340","audi SVC","34.1627","-118.827","Monday openTime 07:30 closeTime 18:00 Tuesday openTime 07:30 closeTime 18:00 Wednesday openTime 07:30 closeTime 18:00 Thursday openTime 07:30 closeTime 18:00 Friday openTime 07:30 closeTime 18:00 Saturday openTime 09:00 closeTime 16:00 "
"https://www.audiusa.com","Audi Mission Viejo","28451 Marguerite Pkwy","Mission Viejo","CA","92692","US","422A64","(949) 218 5050","audi SVC","33.5499","-117.671","Monday openTime 07:00 closeTime 19:00 Tuesday openTime 07:00 closeTime 19:00 Wednesday openTime 07:00 closeTime 19:00 Thursday openTime 07:00 closeTime 19:00 Friday openTime 07:00 closeTime 19:00 Saturday openTime 08:00 closeTime 17:00 "
"https://www.audiusa.com","Audi Escondido","1556 Auto Park Way","Escondido","CA","92029","US","422A68","(760) 520 6600","audi SVC","33.117","-117.106","Monday openTime 07:00 closeTime 18:00 Tuesday openTime 07:00 closeTime 18:00 Wednesday openTime 07:00 closeTime 18:00 Thursday openTime 07:00 closeTime 18:00 Friday openTime 07:00 closeTime 18:00 Saturday openTime 08:00 closeTime 16:00 "
"https://www.audiusa.com","Audi Carlsbad","5425 Paseo Del Norte","Carlsbad","CA","92008","US","422A72","(760) 438 9490","audi PARTS","33.1322","-117.327","Monday openTime 07:30 closeTime 17:30 Tuesday openTime 07:30 closeTime 17:30 Wednesday openTime 07:30 closeTime 17:30 Thursday openTime 07:30 closeTime 17:30 Friday openTime 07:30 closeTime 17:30 "
"https://www.audiusa.com","Audi Temecula","40955 Temecula Center Dr","Temecula","CA","92591","US","422B01","(951) 200 8100","audi PRIM","33.5355","-117.17","<MISSING>"
"https://www.audiusa.com","Audi Fletcher Jones","375 Bristol St","Costa Mesa","CA","92626","US","422B02","(949) 791 1500","audi SVC","33.6645","-117.88","Monday openTime 07:00 closeTime 19:00 Tuesday openTime 07:00 closeTime 19:00 Wednesday openTime 07:00 closeTime 19:00 Thursday openTime 07:00 closeTime 19:00 Friday openTime 07:00 closeTime 19:00 Saturday openTime 08:00 closeTime 14:00 "
"https://www.audiusa.com","Audi North Scottsdale","7150 E Princess Dr","Phoenix","AZ","85054","US","422C02","(480) 538 4000","audi PARTS","33.6473","-111.926","Monday openTime 07:00 closeTime 18:00 Tuesday openTime 07:00 closeTime 18:00 Wednesday openTime 07:00 closeTime 18:00 Thursday openTime 07:00 closeTime 18:00 Friday openTime 07:00 closeTime 18:00 Saturday openTime 08:00 closeTime 16:00 "
"https://www.audiusa.com","Audi Peoria","16900 N 88th Dr","Peoria","AZ","85382","US","422C04","(623) 561 4700","audi SALES","33.6372","-112.25","Sunday openTime 09:00 closeTime 19:00 Monday openTime 09:00 closeTime 21:00 Tuesday openTime 09:00 closeTime 21:00 Wednesday openTime 09:00 closeTime 21:00 Thursday openTime 09:00 closeTime 21:00 Friday openTime 09:00 closeTime 21:00 Saturday openTime 09:00 closeTime 21:00 "
"https://www.audiusa.com","Audi Tucson","4646 E 22nd St","Tucson","AZ","85711","US","422C08","(520) 748 1000","audi PRIM","32.2067","-110.894","<MISSING>"
"https://www.audiusa.com","Audi Chandler","7460 W Orchid Ln","Chandler","AZ","85226","US","422C09","(480) 941 0000","audi PARTS","33.3241","-111.971","Monday openTime 07:00 closeTime 18:00 Tuesday openTime 07:00 closeTime 18:00 Wednesday openTime 07:00 closeTime 18:00 Thursday openTime 07:00 closeTime 18:00 Friday openTime 07:00 closeTime 18:00 Saturday openTime 08:00 closeTime 16:00 "
"https://www.audiusa.com","Audi Gilbert","3235 S Gilbert Rd","Gilbert","AZ","85297","US","422C10","(480) 899 8000","audi SVC","33.2916","-111.789","Monday openTime 07:00 closeTime 18:00 Tuesday openTime 07:00 closeTime 18:00 Wednesday openTime 07:00 closeTime 18:00 Thursday openTime 07:00 closeTime 18:00 Friday openTime 07:00 closeTime 18:00 Saturday openTime 07:00 closeTime 13:00 "
"https://www.audiusa.com","Audi Las Vegas","6335 W Sahara Ave","Las Vegas","NV","89146","US","422G05","(702) 822 7000","audi PARTS","36.1435","-115.23","Monday openTime 07:00 closeTime 19:00 Tuesday openTime 07:00 closeTime 19:00 Wednesday openTime 07:00 closeTime 19:00 Thursday openTime 07:00 closeTime 19:00 Friday openTime 07:00 closeTime 19:00 Saturday openTime 07:00 closeTime 17:00 "
"https://www.audiusa.com","Audi Henderson","7740 Eastgate Rd","Henderson","NV","89011","US","422G06","(702) 982 4600","audi SVC","36.0471","-115.019","Monday openTime 07:30 closeTime 18:00 Tuesday openTime 07:30 closeTime 18:00 Wednesday openTime 07:30 closeTime 18:00 Thursday openTime 07:30 closeTime 18:00 Friday openTime 07:30 closeTime 18:00 Saturday openTime 08:00 closeTime 16:00 "
"https://www.audiusa.com","Audi Beaverton","13745 Sw Tualatin Valley Hwy.","Beaverton","OR","97005","US","423A90","(888) 379 1084","audi SVC","45.4891","-122.818","Monday openTime 07:00 closeTime 18:00 Tuesday openTime 07:00 closeTime 18:00 Wednesday openTime 07:00 closeTime 18:00 Thursday openTime 07:00 closeTime 18:00 Friday openTime 07:00 closeTime 18:00 "
"https://www.audiusa.com","Audi Bend","1045 Se 3rd St","Bend","OR","97702","US","423A92","(541) 382 1711","audi SVC","44.04","-121.304","Monday openTime 07:30 closeTime 18:00 Tuesday openTime 07:30 closeTime 18:00 Wednesday openTime 07:30 closeTime 18:00 Thursday openTime 07:30 closeTime 18:00 Friday openTime 07:30 closeTime 18:00 "
"https://www.audiusa.com","Audi Wilsonville","26600 Sw 95th Ave","Wilsonville","OR","97070","US","423A93","(503) 254 2834","audi SALES","45.3272","-122.772","Sunday openTime 10:00 closeTime 19:00 Monday openTime 08:30 closeTime 20:00 Tuesday openTime 08:30 closeTime 20:00 Wednesday openTime 08:30 closeTime 20:00 Thursday openTime 08:30 closeTime 20:00 Friday openTime 08:30 closeTime 20:00 Saturday openTime 08:30 closeTime 20:00 "
"https://www.audiusa.com","Audi Tacoma","1701 Alexander Ave E Ste B","Fife","WA","98424","US","423D35","(253) 475 3832","audi CORP","47.2417","-122.372","<MISSING>"
"https://www.audiusa.com","Audi Bellevue","1533 120th Ave Ne","Bellevue","WA","98005","US","423D37","(425) 249 7388","audi SVC","47.6239","-122.18","Monday openTime 07:00 closeTime 19:00 Tuesday openTime 07:00 closeTime 19:00 Wednesday openTime 07:00 closeTime 19:00 Thursday openTime 07:00 closeTime 19:00 Friday openTime 07:00 closeTime 19:00 Saturday openTime 08:00 closeTime 18:00 "
"https://www.audiusa.com","Audi Tri-Cities","901 Aaron Drive","Richland","WA","99352","US","423D74","(509) 943 5225","audi SALES","46.2598","-119.278","Sunday openTime 12:00 closeTime 17:30 Monday openTime 09:00 closeTime 19:00 Tuesday openTime 09:00 closeTime 19:00 Wednesday openTime 09:00 closeTime 19:00 Thursday openTime 09:00 closeTime 19:00 Friday openTime 09:00 closeTime 19:00 Saturday openTime 09:00 closeTime 19:00 "
"https://www.audiusa.com","Audi Bellingham","2200 Iowa St","Bellingham","WA","98229","US","423D95","(360) 734 5230","audi SVC","48.7559","-122.446","Monday openTime 07:30 closeTime 18:00 Tuesday openTime 07:30 closeTime 18:00 Wednesday openTime 07:30 closeTime 18:00 Thursday openTime 07:30 closeTime 18:00 Friday openTime 07:30 closeTime 18:00 "
"https://www.audiusa.com","Audi Seattle","4701 11th Ave Ne","Seattle","WA","98105","US","423D99","(206) 633 4630","audi SVC","47.6633","-122.317","Monday openTime 06:00 closeTime 18:00 Tuesday openTime 06:00 closeTime 18:00 Wednesday openTime 06:00 closeTime 18:00 Thursday openTime 06:00 closeTime 18:00 Friday openTime 06:00 closeTime 18:00 Saturday openTime 08:00 closeTime 17:00 "
"https://www.audiusa.com","Audi Anchorage","6115 Old Seward Hwy","Anchorage","AK","99518","US","423E99","(907) 272 5522","audi PRIM","61.213","-149.87","<MISSING>"
"https://www.audiusa.com","Kansas City Audi","10330 Madison Ave","Kansas City","MO","64114","US","424A03","(816) 941 9500","audi SALES","38.941","-94.6028","Monday openTime 08:30 closeTime 19:00 Tuesday openTime 08:30 closeTime 19:00 Wednesday openTime 08:30 closeTime 19:00 Thursday openTime 08:30 closeTime 19:00 Friday openTime 08:30 closeTime 18:00 Saturday openTime 08:30 closeTime 18:00 "
"https://www.audiusa.com","Audi Kirkwood","10230 Manchester Rd","Kirkwood","MO","63122","US","424A04","(314) 965 7711","audi PARTS","38.6005","-90.3954","Monday openTime 07:00 closeTime 18:00 Tuesday openTime 07:00 closeTime 18:00 Wednesday openTime 07:00 closeTime 18:00 Thursday openTime 07:00 closeTime 18:00 Friday openTime 07:00 closeTime 18:00 "
"https://www.audiusa.com","Audi Shawnee Mission","8035 Lenexa Dr.","Lenexa","KS","66214","US","424A05","(913) 249 3470","audi SALES","38.9826","-94.7062","Monday openTime 09:00 closeTime 19:00 Tuesday openTime 09:00 closeTime 19:00 Wednesday openTime 09:00 closeTime 19:00 Thursday openTime 09:00 closeTime 19:00 Friday openTime 09:00 closeTime 19:00 Saturday openTime 10:00 closeTime 18:00 "
"https://www.audiusa.com","Audi Creve Coeur","11830 Olive Blvd.","Creve Coeur","MO","63141","US","424A10","(314) 301 1700","audi PRIM","38.6704","-90.4445","<MISSING>"
"https://www.audiusa.com","Audi West County","15736 Manchester Rd","Ellisville","MO","63011","US","424A11","(636) 391 7228","audi SALES","38.5921","-90.5799","Monday openTime 09:00 closeTime 21:00 Tuesday openTime 09:00 closeTime 18:00 Wednesday openTime 09:00 closeTime 21:00 Thursday openTime 09:00 closeTime 18:00 Friday openTime 09:00 closeTime 21:00 Saturday openTime 09:00 closeTime 18:00 "
"https://www.audiusa.com","Audi Wichita","1575 N Greenwich Rd","Wichita","KS","67206","US","424A13","(316) 719 8700","audi SVC","37.7117","-97.2086","Monday openTime 07:30 closeTime 17:30 Tuesday openTime 07:30 closeTime 17:30 Wednesday openTime 07:30 closeTime 17:30 Thursday openTime 07:30 closeTime 17:30 Friday openTime 07:30 closeTime 17:30 Saturday openTime 09:00 closeTime 17:00 "
"https://www.audiusa.com","Audi Springfield","3500 E Sunshine St.","Springfield","MO","65809","US","424B29","(417) 881 2834","audi SALES","37.1798","-93.2231","Monday openTime 09:00 closeTime 19:00 Tuesday openTime 09:00 closeTime 19:00 Wednesday openTime 09:00 closeTime 19:00 Thursday openTime 09:00 closeTime 19:00 Friday openTime 08:00 closeTime 18:00 Saturday openTime 08:00 closeTime 18:00 "
"https://www.audiusa.com","Audi West Houston","15865 Katy Fwy.","Houston","TX","77094","US","425A01","(281) 899 3400","audi PARTS","29.7838","-95.6589","Monday openTime 08:00 closeTime 18:00 Tuesday openTime 08:00 closeTime 18:00 Wednesday openTime 08:00 closeTime 18:00 Thursday openTime 08:00 closeTime 18:00 Friday openTime 08:00 closeTime 18:00 Saturday openTime 07:30 closeTime 17:00 "
"https://www.audiusa.com","Audi Dominion","21105 W Interstate 10","San Antonio","TX","78257","US","425A05","(210) 681 3399","audi PARTS","29.6384","-98.6176","Monday openTime 07:00 closeTime 19:00 Tuesday openTime 07:00 closeTime 19:00 Wednesday openTime 07:00 closeTime 19:00 Thursday openTime 07:00 closeTime 19:00 Friday openTime 07:00 closeTime 19:00 Saturday openTime 08:00 closeTime 17:00 "
"https://www.audiusa.com","Audi North Houston","17815 North Fwy","Houston","TX","77090","US","425A06","(281) 214 0500","audi PARTS","30.025","-95.4305","Monday openTime 07:30 closeTime 19:00 Tuesday openTime 07:30 closeTime 19:00 Wednesday openTime 07:30 closeTime 19:00 Thursday openTime 07:30 closeTime 19:00 Friday openTime 07:30 closeTime 19:00 Saturday openTime 07:30 closeTime 17:00 "
"https://www.audiusa.com","Audi North Park","15678 IH 35","North Selma","TX","78154","US","425A10","(210) 960 6000","audi SALES","29.5817","-98.3075","Monday openTime 08:30 closeTime 20:00 Tuesday openTime 08:30 closeTime 20:00 Wednesday openTime 08:30 closeTime 20:00 Thursday openTime 08:30 closeTime 20:00 Friday openTime 08:30 closeTime 20:00 Saturday openTime 08:30 closeTime 20:00 "
"https://www.audiusa.com","Audi San Juan","1001 E Expressway 83","San Juan","TX","78589","US","425A12","(956) 475 3801","audi PRIM","26.1929","-98.1396","<MISSING>"
"https://www.audiusa.com","Audi Fort Worth","116 University Drive","Fort Worth","TX","76107","US","425A13","(817) 632 6700","audi CORP","32.7583","-97.3615","<MISSING>"
"https://www.audiusa.com","Audi El Paso","1444 Airway Blvd","El Paso","TX","79925","US","425A14","(915) 778 1444","audi PARTS","31.7883","-106.395","<MISSING>"
"https://www.audiusa.com","Audi Central Houston","2120 Southwest Fwy","Houston","TX","77098","US","425A61","(713) 596 3500","audi SALES","29.7315","-95.4121","Monday openTime 09:00 closeTime 20:00 Tuesday openTime 09:00 closeTime 20:00 Wednesday openTime 09:00 closeTime 20:00 Thursday openTime 09:00 closeTime 20:00 Friday openTime 09:00 closeTime 20:00 Saturday openTime 09:00 closeTime 20:00 "
"https://www.audiusa.com","Audi Dallas","5033 Lemmon Ave","Dallas","TX","75209","US","425A70","(214) 561 1800","audi PRIM","32.8233","-96.8198","<MISSING>"
"https://www.audiusa.com","Audi Plano","5930 W Plano Pkwy","Plano","TX","75093","US","425A72","(214) 452 3800","audi SVC","33.0154","-96.8275","Monday openTime 07:00 closeTime 19:00 Tuesday openTime 07:00 closeTime 19:00 Wednesday openTime 07:00 closeTime 19:00 Thursday openTime 07:00 closeTime 19:00 Friday openTime 07:00 closeTime 19:00 Saturday openTime 07:00 closeTime 17:00 "
"https://www.audiusa.com","Audi Grapevine","1260 E State Highway 114","Grapevine","TX","76051","US","425A73","(817) 354 2834","audi SALES","32.9215","-97.0735","Monday openTime 08:30 closeTime 20:00 Tuesday openTime 08:30 closeTime 20:00 Wednesday openTime 08:30 closeTime 20:00 Thursday openTime 08:30 closeTime 20:00 Friday openTime 08:30 closeTime 20:00 Saturday openTime 08:30 closeTime 18:00 "
"https://www.audiusa.com","Audi South Austin","4738 S. Ih 35 Frontage Rd.","Austin","TX","78745","US","425A74","(512) 660 6700","audi PARTS","30.2083","-97.7576","Monday openTime 07:00 closeTime 18:00 Tuesday openTime 07:00 closeTime 18:00 Wednesday openTime 07:00 closeTime 18:00 Thursday openTime 07:00 closeTime 18:00 Friday openTime 07:00 closeTime 18:00 Saturday openTime 09:00 closeTime 17:00 "
"https://www.audiusa.com","Audi North Austin","12971 Pond Springs Rd","Austin","TX","78729","US","425A75","(512) 219 3150","audi PARTS","30.4403","-97.772","Monday openTime 07:30 closeTime 17:00 Tuesday openTime 07:30 closeTime 17:00 Wednesday openTime 07:30 closeTime 17:00 Thursday openTime 07:30 closeTime 17:00 Friday openTime 07:30 closeTime 17:00 Saturday openTime 09:00 closeTime 16:00 "
"https://www.audiusa.com","Audi Sugar Land","10330 US 90A","Sugar Land","TX","77478","US","425A76","(281) 269 8800","audi PARTS","29.6261","-95.5995","Monday openTime 07:30 closeTime 19:00 Tuesday openTime 07:30 closeTime 19:00 Wednesday openTime 07:30 closeTime 19:00 Thursday openTime 07:30 closeTime 19:00 Friday openTime 07:30 closeTime 19:00 Saturday openTime 07:30 closeTime 17:00 "
"https://www.audiusa.com","Audi McKinney","6650 State Highway 121","Mckinney","TX","75070","US","425A77","(972) 390 2100","audi SALES","33.1382","-96.6989","Monday openTime 08:00 closeTime 20:00 Tuesday openTime 08:00 closeTime 20:00 Wednesday openTime 08:00 closeTime 20:00 Thursday openTime 08:00 closeTime 20:00 Friday openTime 08:00 closeTime 20:00 Saturday openTime 08:00 closeTime 18:00 "
"https://www.audiusa.com","Audi Lubbock","1949 W Loop 289","Lubbock","TX","79407","US","425A78","(877) 386 0375","audi PARTS","33.576","-101.943","Monday openTime 07:30 closeTime 18:00 Tuesday openTime 07:30 closeTime 18:00 Wednesday openTime 07:30 closeTime 18:00 Thursday openTime 07:30 closeTime 18:00 Friday openTime 07:30 closeTime 18:00 Saturday openTime 08:00 closeTime 12:00 "
"https://www.audiusa.com","Parker Audi","1624 N. Shackleford","Little Rock","AR","72211","US","425C24","(501) 221 2600","audi SVC","34.7691","-92.3963","Monday openTime 07:30 closeTime 17:30 Tuesday openTime 07:30 closeTime 17:30 Wednesday openTime 07:30 closeTime 17:30 Thursday openTime 07:30 closeTime 17:30 Friday openTime 07:30 closeTime 17:30 "
"https://www.audiusa.com","Audi Oklahoma City","13000 North Broadway Extension","Oklahoma City","OK","73114","US","425D06","(405) 748 8001","audi PRIM","35.6016","-97.5007","<MISSING>"
"https://www.audiusa.com","Audi Tulsa","4208 S Memorial Dr","Tulsa","OK","74145","US","425D11","(918) 712 2834","audi PRIM","36.1017","-95.8871","<MISSING>"
"https://www.audiusa.com","Audi Shreveport","102 Bert Kouns Industrial Loop","Shreveport","LA","71106","US","425F09","(318) 841 2834","audi PRIM","32.3994","-93.7544","<MISSING>"
"https://www.audiusa.com","Audi Baton Rouge","11955 Airline Hwy","Baton Rouge","LA","70817","US","425F12","(225) 754 1500","audi SVC","30.3943","-91.0485","Monday openTime 07:00 closeTime 18:00 Tuesday openTime 07:00 closeTime 18:00 Wednesday openTime 07:00 closeTime 18:00 Thursday openTime 07:00 closeTime 18:00 Friday openTime 07:00 closeTime 18:00 Saturday openTime 08:00 closeTime 14:00 "
"https://www.audiusa.com","Audi Lafayette","6160 Johnston St","Lafayette","LA","70503","US","425F13","(888) 483 6515","audi SVC","30.1635","-92.085","Monday openTime 07:30 closeTime 18:00 Tuesday openTime 07:30 closeTime 18:00 Wednesday openTime 07:30 closeTime 18:00 Thursday openTime 07:30 closeTime 18:00 Friday openTime 07:30 closeTime 18:00 Saturday openTime 08:00 closeTime 15:00 "
"https://www.audiusa.com","Audi New Orleans","3400 N Causeway Blvd","Metairie","LA","70002","US","425F16","(504) 838 8000","audi PARTS","30.0115","-90.1555","Monday openTime 07:00 closeTime 18:00 Tuesday openTime 07:00 closeTime 18:00 Wednesday openTime 07:00 closeTime 18:00 Thursday openTime 07:00 closeTime 18:00 Friday openTime 07:00 closeTime 18:00 Saturday openTime 08:00 closeTime 15:00 "
"https://www.audiusa.com","Audi Jackson","5320 I 55 N","Jackson","MS","39211","US","425G11","(601) 987 9090","audi SVC","32.3712","-90.1474","Monday openTime 07:30 closeTime 18:00 Tuesday openTime 07:30 closeTime 18:00 Wednesday openTime 07:30 closeTime 18:00 Thursday openTime 07:30 closeTime 18:00 Friday openTime 07:30 closeTime 18:00 Saturday openTime 08:00 closeTime 14:00 "
"https://www.audiusa.com","Niello Audi","2350 Auburn Blvd","Sacramento","CA","95821","US","426A05","(916) 480 2800","audi CORP","38.6273","-121.407","<MISSING>"
"https://www.audiusa.com","Audi Rocklin","4448 Granite Dr","Rocklin","CA","95677","US","426A09","(916) 836 1288","audi CORP","38.7964","-121.217","<MISSING>"
"https://www.audiusa.com","Stevens Creek Audi","3350 Stevens Creek Blvd","San Jose","CA","95117","US","426A10","(408) 244 5400","audi SALES","37.3228","-121.956","Sunday openTime 10:00 closeTime 18:00 Monday openTime 09:00 closeTime 20:00 Tuesday openTime 09:00 closeTime 20:00 Wednesday openTime 09:00 closeTime 20:00 Thursday openTime 09:00 closeTime 20:00 Friday openTime 09:00 closeTime 20:00 Saturday openTime 09:00 closeTime 20:00 "
"https://www.audiusa.com","Elk Grove Audi","9776 W Stockton Blvd","Elk Grove","CA","95757","US","426A16","(916) 405 2660","audi PARTS","38.4039","-121.386","Monday openTime 08:00 closeTime 18:00 Tuesday openTime 08:00 closeTime 18:00 Wednesday openTime 08:00 closeTime 18:00 Thursday openTime 08:00 closeTime 18:00 Friday openTime 08:00 closeTime 18:00 Saturday openTime 07:30 closeTime 16:00 "
"https://www.audiusa.com","Audi Palo Alto","1730 Embarcadero Rd","Palo Alto","CA","94303","US","426A20","(650) 856 6300","audi PRIM","37.4497","-122.118","<MISSING>"
"https://www.audiusa.com","Audi Fremont","43191 Boscell Rd","Fremont","CA","94538","US","426A22","(510) 403 3700","audi PRIM","37.5041","-121.978","<MISSING>"
"https://www.audiusa.com","Audi Oakland","2560 Webster St","Oakland","CA","94612","US","426A30","(510) 893 7282","audi SALES","37.8146","-122.264","Sunday openTime 11:00 closeTime 18:00 Monday openTime 09:00 closeTime 19:00 Tuesday openTime 09:00 closeTime 19:00 Wednesday openTime 09:00 closeTime 19:00 Thursday openTime 09:00 closeTime 19:00 Friday openTime 09:00 closeTime 19:00 Saturday openTime 09:00 closeTime 18:00 "
"https://www.audiusa.com","Audi Burlingame","1010 Cadillac Way","Burlingame","CA","94010","US","426A31","(650) 348 0111","audi PRIM","37.5884","-122.362","<MISSING>"
"https://www.audiusa.com","Audi Marin","700 Francisco Blvd W","San Rafael","CA","94901","US","426A38","(415) 460 4100","audi CORP","37.9631","-122.513","<MISSING>"
"https://www.audiusa.com","Audi San Francisco","300 S Van Ness Ave","San Francisco","CA","94103","US","426A49","(415) 241 8100","audi CORP","37.7688","-122.418","<MISSING>"
"https://www.audiusa.com","Livermore Audi","3400 Las Positas Rd","Livermore","CA","94551","US","426A53","(925) 447 1100","audi SALES","37.7014","-121.759","Sunday openTime 10:30 closeTime 18:00 Monday openTime 09:00 closeTime 20:00 Tuesday openTime 09:00 closeTime 20:00 Wednesday openTime 09:00 closeTime 20:00 Thursday openTime 09:00 closeTime 20:00 Friday openTime 09:00 closeTime 20:00 Saturday openTime 09:00 closeTime 19:00 "
"https://www.audiusa.com","Audi Monterey Peninsula","3 Heitzinger Plz","Seaside","CA","93955","US","426A54","(831) 392 0445","audi PARTS","36.6103","-121.847","Monday openTime 07:00 closeTime 18:00 Tuesday openTime 07:00 closeTime 18:00 Wednesday openTime 07:00 closeTime 18:00 Thursday openTime 07:00 closeTime 18:00 Friday openTime 07:00 closeTime 18:00 "
"https://www.audiusa.com","Audi Fresno","7121 N Palm Ave","Fresno","CA","93650","US","426A55","(559) 860 4000","audi SALES","36.8389","-119.809","Sunday openTime 10:00 closeTime 18:00 Monday openTime 08:00 closeTime 20:00 Tuesday openTime 08:00 closeTime 20:00 Wednesday openTime 08:00 closeTime 20:00 Thursday openTime 08:00 closeTime 20:00 Friday openTime 08:00 closeTime 20:00 Saturday openTime 09:00 closeTime 19:00 "
"https://www.audiusa.com","Audi Modesto","4151 McHenry Avenue","Modesto","CA","95356","US","426A56","(209) 458 6006","audi CORP","37.6982","-120.995","<MISSING>"
"https://www.audiusa.com","Audi Concord","1300 Concord Ave","Concord","CA","94520","US","426A59","(925) 771 2888","audi CORP","37.9789","-122.049","<MISSING>"
"https://www.audiusa.com","Audi Reno Tahoe","9190 S Virginia St","Reno","NV","89511","US","426B05","(775) 335 1335","audi SVC","39.4468","-119.773","Monday openTime 07:30 closeTime 18:00 Tuesday openTime 07:30 closeTime 18:00 Wednesday openTime 07:30 closeTime 18:00 Thursday openTime 07:30 closeTime 18:00 Friday openTime 07:30 closeTime 18:00 "
