"locator_domain","page_url","location_name","street_address","city","state","zip","country_code","store_number","phone","location_type","latitude","longitude","hours_of_operation"
"https://pepperpalace.com/","https://pepperpalace.myshopify.com/pages/foley-owa","Pepper Palace OWA"," 1501 South OWA Blvd Space 101-D ","Foley","AL","36535","US","<MISSING>","(865) 440-1318 ","<MISSING>","<MISSING>","<MISSING>","<MISSING>"
"https://pepperpalace.com/","https://pepperpalace.com/pages/leeds-al","Pepper Palace Leeds","6200 Grand River Boulevard, Suite 630","Leeds","AL","35094","US","<MISSING>","(205) 699-6339","<MISSING>","<MISSING>","<MISSING>","<MISSING>"
"https://pepperpalace.com/","https://pepperpalace.myshopify.com/pages/orange-beach-al","Pepper Palace at The Wharf","4725 Main St. Suite F-124","Orange Beach","AL","36561","US","<MISSING>","(251)-200-0324","<MISSING>","<MISSING>","<MISSING>","<MISSING>"
"https://pepperpalace.com/","https://pepperpalace.myshopify.com/pages/lake-arrowhead-california","Pepper Palace Lake Arrowhead","28200 Hwy 189, C-280","Lake Arrowhead","CA","92352","US","<MISSING>","(909) 744-8132","<MISSING>","<MISSING>","<MISSING>","<MISSING>"
"https://pepperpalace.com/","https://pepperpalace.myshopify.com/pages/monterey-ca","Pepper Palace at Cannery Row","700 Cannery Row Suite J","Monterey","CA","99940","US","<MISSING>","(831)643-9025","<MISSING>","<MISSING>","<MISSING>","<MISSING>"
"https://pepperpalace.com/","https://pepperpalace.myshopify.com/pages/san-diego-ca","Pepper Palace San Diego","789 West Harbor Drive Suite 114","San Diego","California","92101","US","<MISSING>","(800) 684-3358","<MISSING>","<MISSING>","<MISSING>","<MISSING>"
"https://pepperpalace.com/","https://pepperpalace.myshopify.com/pages/san-francisco-ca","Pepper Palace at Fishermans Wharf","2800 Leavenworth St Suite A7","San Francisco","CA","94133","US","<MISSING>","(415)922-1541","<MISSING>","<MISSING>","<MISSING>","<MISSING>"
"https://pepperpalace.com/","https://pepperpalace.myshopify.com/pages/denver-co","Pepper Palace Denver","13801 Grant Street, Suite 721Thornton, ","denver","CO","80023","US","<MISSING>","(303) 968-1369","<MISSING>","<MISSING>","<MISSING>","<MISSING>"
"https://pepperpalace.com/","https://pepperpalace.myshopify.com/pages/estes-park-co","Pepper Palace at Estes Park","157 W Elkhorn Ave #17 unit 13","Estes Park","CO","80517","US","<MISSING>","(970)577-1277","<MISSING>","<MISSING>","<MISSING>","<MISSING>"
"https://pepperpalace.com/","https://pepperpalace.com/pages/coconut-point-fl","Pepper Palace Coconut Point","23191 Fashion Drive, Suite 105Estero, ","coconut point","CO","33928","US","<MISSING>","(239) 949-7005","<MISSING>","<MISSING>","<MISSING>","<MISSING>"
"https://pepperpalace.com/","https://pepperpalace.myshopify.com/pages/destin-fl-1","Pepper Palace Silver Sands","10676 Emerald Coast Parkway Suite 136","Destin","FL","32550","US","<MISSING>","(865) 229-8650","<MISSING>","<MISSING>","<MISSING>","<MISSING>"
"https://pepperpalace.com/","https://pepperpalace.myshopify.com/pages/panama-city-beach-fl","Pepper Palace Pier Park","820 Pier Park Dr Suite 110","Panama City Beach","FL","32413","US","<MISSING>","(850)230-3408","<MISSING>","<MISSING>","<MISSING>","<MISSING>"
"https://pepperpalace.com/","https://pepperpalace.myshopify.com/pages/st-augustine-fl","Pepper Palace St. Augustine","2 Saint George St. Suite 101St. Augustine, FL","saint augustine","FL","32084","US","<MISSING>","(904)827-1090","<MISSING>","<MISSING>","<MISSING>","<MISSING>"
"https://pepperpalace.com/","https://pepperpalace.myshopify.com/pages/sarasota-fl","Pepper Palace Sarasota","23 North Blvd of the Presidents","Sarasota","FL","34236","US","<MISSING>","(941)217-6698","<MISSING>","<MISSING>","<MISSING>","<MISSING>"
"https://pepperpalace.com/","https://pepperpalace.myshopify.com/pages/helen-ga","Pepper Palace Helen","21 River St Suite A","Helen","GA ","30545","US","<MISSING>","<MISSING>","<MISSING>","<MISSING>","<MISSING>","<MISSING>"
"https://pepperpalace.com/","https://pepperpalace.myshopify.com/pages/dawsonville-ga","Pepper Palace North Georgia","800 Highway 400 South, Suite 965","Dawsonville","GA","30534","US","<MISSING>","(706) 531-1323","<MISSING>","<MISSING>","<MISSING>","<MISSING>"
"https://pepperpalace.com/","https://pepperpalace.myshopify.com/pages/schaumburg-il","SCHAUMBURG","5 Woodfield Mall Unit D307","Schaumburg","IL","60173","US","<MISSING>","(847)619-6190","<MISSING>","<MISSING>","<MISSING>","<MISSING>"
"https://pepperpalace.com/","https://pepperpalace.myshopify.com/pages/new-orleans-la","Pepper Palace French Market","1 French Market Place","New Orleans","LA","70116","US","<MISSING>","(504)529-4177","<MISSING>","<MISSING>","<MISSING>","<MISSING>"
"https://pepperpalace.com/","https://pepperpalace.myshopify.com/pages/bossier-city-la","Pepper Palace Bossier City","620 Boardwalk Blvd.","Bossier City","LA","71111","US","<MISSING>","(318) 746-3400","<MISSING>","<MISSING>","<MISSING>","<MISSING>"
"https://pepperpalace.com/","https://pepperpalace.myshopify.com/pages/boston-ma","Pepper Palace Boston","4 S Market Building Suite S-1155","Boston","MA","02109","US","<MISSING>","(865) 234-1121","<MISSING>","<MISSING>","<MISSING>","<MISSING>"
"https://pepperpalace.com/","https://pepperpalace.myshopify.com/pages/wrentham-ma","Pepper Palace Wrentham","1 Premium Outlets Blvd, Suite 404","Wrentham","MA","02093","US","<MISSING>","(774) 307-4176","<MISSING>","<MISSING>","<MISSING>","<MISSING>"
"https://pepperpalace.com/","https://pepperpalace.myshopify.com/pages/national-harbor-md","Pepper Palace National Harbor","120 American Way","Oxon Hill","MD","20745","US","<MISSING>","(301)749-6843","<MISSING>","<MISSING>","<MISSING>","<MISSING>"
"https://pepperpalace.com/","https://pepperpalace.myshopify.com/pages/bloomington-mn","Pepper Palace Mall of America","60 East Broadway Suite N284","Bloomington","MN","55425","US","<MISSING>","(865) 229-8581","<MISSING>","<MISSING>","<MISSING>","<MISSING>"
"https://pepperpalace.com/","https://pepperpalace.myshopify.com/pages/gulfport-ms","Pepper Palace Gulfport","10000 Factory Shop Blvd, Unit 725","Gulfport","MS","38503","US","<MISSING>","(228) 214-9900 ","<MISSING>","<MISSING>","<MISSING>","<MISSING>"
"https://pepperpalace.com/","https://pepperpalace.myshopify.com/pages/branson-mo","Pepper Palace Branson Landing","902 Branson Landing BlvdBranson, MO","branson","MS","65616","US","<MISSING>","(417)559-6905","<MISSING>","<MISSING>","<MISSING>","<MISSING>"
"https://pepperpalace.com/","https://pepperpalace.myshopify.com/pages/st-louis-mo","Pepper Palace St. Louis","  18533 Outlet Blvd, Suite 115Chesterfield, ","st. louis","MS","63005","US","<MISSING>","(636) 778-0472","<MISSING>","<MISSING>","<MISSING>","<MISSING>"
"https://pepperpalace.com/","https://pepperpalace.myshopify.com/pages/tinton-falls-nj","Pepper Palace Jersey Shore","1 Premium Outlet Blvd Unit 717","Tinton Falls","NJ","07753","US","<MISSING>","(848)217-8230 ","<MISSING>","<MISSING>","<MISSING>","<MISSING>"
"https://pepperpalace.com/","https://pepperpalace.myshopify.com/pages/syracuse-ny","Pepper Palace Destiny USA​","9090 Destiny USA Drive Space F-124​","Syracuse","NY","13204","US","<MISSING>","(865) 234-1098 ","<MISSING>","<MISSING>","<MISSING>","<MISSING>"
"https://pepperpalace.com/","https://pepperpalace.myshopify.com/pages/asheville-nc","Pepper Palace Asheville","6 College St Unit 6","Asheville","NC","28801","US","<MISSING>","(828)424-7152","<MISSING>","<MISSING>","<MISSING>","<MISSING>"
"https://pepperpalace.com/","https://pepperpalace.myshopify.com/pages/charlotte-nc","Pepper Palace Charlotte","5404 New Fashion Way Unit 994","Charlotte","NC","28278","US","<MISSING>","(704) 503-9131","<MISSING>","<MISSING>","<MISSING>","<MISSING>"
"https://pepperpalace.com/","https://pepperpalace.myshopify.com/pages/monroe-ohio","Pepper Palace Cincinnati","965 Premium Outlets Dr, Unit 965","Monroe","OH","45050","US","<MISSING>","(513) 438-0226","<MISSING>","<MISSING>","<MISSING>","<MISSING>"
"https://pepperpalace.com/","https://pepperpalace.myshopify.com/pages/oklahoma-city-ok","Pepper Palace Oklahoma City","7642 West Reno Avenue, Suite D480","Oklahoma City","OK","73127","US","<MISSING>","(405) 443-3584","<MISSING>","<MISSING>","<MISSING>","<MISSING>"
"https://pepperpalace.com/","https://pepperpalace.myshopify.com/pages/king-of-prussia-pa","Pepper Palace King Of Prussia","160 North Gulp Rd Suite 1021","Prussia","PA","19406","US","<MISSING>","(484)-322-2790","<MISSING>","<MISSING>","<MISSING>","<MISSING>"
"https://pepperpalace.com/","https://pepperpalace.myshopify.com/pages/tannersville-pa","Pepper Palace at The Crossings","1000 Premium Outlets Drive, Suite G9","Tannersville","PA","18372","US","<MISSING>","(570) 994-1130","<MISSING>","<MISSING>","<MISSING>","<MISSING>"
"https://pepperpalace.com/","https://pepperpalace.myshopify.com/pages/newport-ri","Pepper Palace Newport","337 Thames St. Unit #2","Newport","RI","02840","US","<MISSING>","(865) 229-8646","<MISSING>","<MISSING>","<MISSING>","<MISSING>"
"https://pepperpalace.com/","https://pepperpalace.myshopify.com/pages/charleston-sc","Pepper Palace Charleston","36 North Market Street","Charleston","SC","29401","US","<MISSING>","(843) 834-2191","<MISSING>","<MISSING>","<MISSING>","<MISSING>"
"https://pepperpalace.com/","https://pepperpalace.myshopify.com/pages/myrtle-beach-sc","Pepper Palace Broadway at the Beach","1314 Celebrity Circle Unit 166","Myrtle Beach","SC","29577","US","<MISSING>","(843) 712-2657","<MISSING>","<MISSING>","<MISSING>","<MISSING>"
"https://pepperpalace.com/","https://pepperpalace.myshopify.com/pages/north-myrtle-beach","Pepper Palace Barefoot Landing","4898 Hwy 17S Unit 18","North Myrtle Beach","SC","29582","US","<MISSING>","(843) 273-0877","<MISSING>","<MISSING>","<MISSING>","<MISSING>"
"https://pepperpalace.com/","https://pepperpalace.myshopify.com/pages/gatlinburg-tn","Pepper Palace Mountain Mall","611 Parkway Suite D10","Gatlinburg","TN","37738","US","<MISSING>","(865)436-5577","<MISSING>","<MISSING>","<MISSING>","<MISSING>"
"https://pepperpalace.com/","https://pepperpalace.myshopify.com/pages/gatlinburg-tn-2","Pepper Palace Ober Gatlinburg","1001 Parkway Suite 6","Gatlinburg","TN","37738","US","<MISSING>","(865)436-5577","<MISSING>","<MISSING>","<MISSING>","<MISSING>"
"https://pepperpalace.com/","https://pepperpalace.myshopify.com/pages/gatlinburg-tn-3","Pepper Palace Reagan Terrace","716 Parkway Unit 107","Gatlinburg","TN","37738","US","<MISSING>","(865)234-0281","<MISSING>","<MISSING>","<MISSING>","<MISSING>"
"https://pepperpalace.com/","https://pepperpalace.myshopify.com/pages/gatlinburg-tn-1","Pepper Palace The Village","634 Parkway Suite 11","Gatlinburg","TN","37738","US","<MISSING>","(865)430-1515","<MISSING>","<MISSING>","<MISSING>","<MISSING>"
"https://pepperpalace.com/","https://pepperpalace.myshopify.com/pages/nashville-tn","Pepper Palace Opry Mills","433 Opry Mills Dr. Service Court 16A, Suite 339","Nashville","TN","<MISSING>","US","<MISSING>","(615)939-3235","<MISSING>","<MISSING>","<MISSING>","<MISSING>"
"https://pepperpalace.com/","https://pepperpalace.myshopify.com/pages/pigeon-forge-tn","Pepper Palace at The Island","131 Island Dr. Bldg D, Suite 9132","pigeon forge","Tn","37863","US","<MISSING>","(865)365-1116","<MISSING>","<MISSING>","<MISSING>","<MISSING>"
"https://pepperpalace.com/","https://pepperpalace.myshopify.com/pages/sevierville-tn","Pepper Palace Corporate Office, Kitchen and Retail Outlet","3275 Newport Hwy Suite 5","Sevierville","TN","37876","US","<MISSING>","(800)684-3358","<MISSING>","<MISSING>","<MISSING>","<MISSING>"
"https://pepperpalace.com/","https://pepperpalace.myshopify.com/pages/round-rock-tx","Pepper Palace Round Rock","4401 N Interstate Hwy 335, Suite 723","round rock","TN","78664","US","<MISSING>","(737) 215-8905","<MISSING>","<MISSING>","<MISSING>","<MISSING>"
"https://pepperpalace.com/","https://pepperpalace.myshopify.com/pages/leesburg-va","Pepper Palace Leesburg","241 Fort Evans Road NE, Unit 1633","Leesburg","VA","20176","US","<MISSING>","(703) 737-9455","<MISSING>","<MISSING>","<MISSING>","<MISSING>"
"https://pepperpalace.com/","https://pepperpalace.myshopify.com/pages/williamsburg-va","Pepper Palace Williamsburg","5715 Richmond Rd Unit B-030","Williamsburg","VA","23188","US","<MISSING>","(865) 234-0956","<MISSING>","<MISSING>","<MISSING>","<MISSING>"
"https://pepperpalace.com/","https://pepperpalace.myshopify.com/pages/wisconsin-dells-wi","Pepper Palace Wisconsin Dells","304 Broadway","Wisconsin Dells","WI","53965","US","<MISSING>","(608)253-0303","<MISSING>","<MISSING>","<MISSING>","<MISSING>"
"https://pepperpalace.com/","https://pepperpalace.com/pages/edmonton-ab","Pepper Palace Edmonton","1 Outlet Collection Way, Unit 402","Edmonton","AB","T9E 1J5","CA","<MISSING>","(800) 684-3358","<MISSING>","<MISSING>","<MISSING>","<MISSING>"
"https://pepperpalace.com/","https://pepperpalace.com/pages/niagara-falls","Pepper Palace Niagara Falls","6380 Fallsview Blvd Unit 228","Niagara Falls","ON","L2G 3W6","CA","<MISSING>","(905) 358-8338","<MISSING>","<MISSING>","<MISSING>","<MISSING>"
"https://pepperpalace.com/","https://pepperpalace.com/pages/niagara-on-the-lake-on","Pepper Palace Niagara on the Lake","330 Taylor Road Unit 705","the Lake","ON","L0S 1J0","CA","<MISSING>","(905) 685-3232 ","<MISSING>","<MISSING>","<MISSING>","<MISSING>"
"https://pepperpalace.com/","https://pepperpalace.com/pages/blue-mountain-village-on","Pepper Palace Blue Mountain Village","170 Jozo Weider Blvd Suite C9AThe ","Blue Mountains","ON","L9Y0V2","CA","<MISSING>","(705) 443-8674","<MISSING>","<MISSING>","<MISSING>","<MISSING>"
"https://pepperpalace.com/","https://pepperpalace.com/pages/toronto","Pepper Palace Toronto","13850 Steeles Ave W Unit 849Georgetown, ON ","toronto","ON","L7G0J1","CA","<MISSING>","(289) 302-1672","<MISSING>","<MISSING>","<MISSING>","<MISSING>"
"https://pepperpalace.com/","https://pepperpalace.com/pages/tsawwassen-bc","Pepper Palace Tsawwassen","5000 Canoe Pass Way Unit 226","Tsawwassen","BC","V4M0B3","CA","<MISSING>","(604) 946-8225","<MISSING>","<MISSING>","<MISSING>","<MISSING>"
