"page_url","location_name","street_address","city","state","zip","country_code","store_number","phone","location_type","latitude","longitude","locator_domain","hours_of_operation","raw_address","record_id"
"<MISSING>","大埔道","地下","<MISSING>","<MISSING>","<MISSING>","<MISSING>","<MISSING>","27884876","大埔道","22.3301485","114.1662993","mcdonalds.com.hk","<MISSING>","<MISSING>","location_name:latitude:longitude"
"<MISSING>","信德中心","267號舖 干諾道中200號","<MISSING>","<MISSING>","<MISSING>","<MISSING>","<MISSING>","29758367","信德中心","22.2878936","114.1520234","mcdonalds.com.hk","<MISSING>","<MISSING>","location_name:latitude:longitude"
"<MISSING>","荷李活廣場","216號舖","<MISSING>","<MISSING>","<MISSING>","<MISSING>","<MISSING>","29555187","荷李活廣場","22.340554","114.2021768","mcdonalds.com.hk","<MISSING>","<MISSING>","location_name:latitude:longitude"
"<MISSING>","慈雲山中心","333號 華街","<MISSING>","<MISSING>","<MISSING>","<MISSING>","<MISSING>","21947428","慈雲山中心","22.3482388","114.2005514","mcdonalds.com.hk","<MISSING>","<MISSING>","location_name:latitude:longitude"
"<MISSING>","朗豪坊","32-37號舖 亞皆老街","<MISSING>","<MISSING>","<MISSING>","<MISSING>","<MISSING>","35144562","朗豪坊","22.3188667","114.1685026","mcdonalds.com.hk","<MISSING>","<MISSING>","location_name:latitude:longitude"
"<MISSING>","跑馬地馬場","跑馬地馬場2號公眾看台","<MISSING>","<MISSING>","<MISSING>","<MISSING>","<MISSING>","29667266","跑馬地馬場","22.27227","114.1807094","mcdonalds.com.hk","<MISSING>","<MISSING>","location_name:latitude:longitude"
"<MISSING>","富榮花園","園地下66A號舖","<MISSING>","<MISSING>","<MISSING>","<MISSING>","<MISSING>","21756362","富榮花園","22.3143219","114.1631178","mcdonalds.com.hk","<MISSING>","<MISSING>","location_name:latitude:longitude"
"<MISSING>","新翠邨","大圍新翠邨新翠商場地下1B舖","<MISSING>","<MISSING>","<MISSING>","<MISSING>","<MISSING>","26911851","新翠邨","22.3693641","114.1812707","mcdonalds.com.hk","<MISSING>","<MISSING>","location_name:latitude:longitude"
"<MISSING>","萬勝閣","深水埗荔枝角道150-174號萬盛閣地下1號舖","<MISSING>","<MISSING>","<MISSING>","<MISSING>","<MISSING>","23906570","萬勝閣","22.3256853","114.1646041","mcdonalds.com.hk","<MISSING>","<MISSING>","location_name:latitude:longitude"
"<MISSING>","旺角道","30-36號","<MISSING>","<MISSING>","<MISSING>","<MISSING>","<MISSING>","23934246","旺角道","22.3212893","114.1703633","mcdonalds.com.hk","<MISSING>","<MISSING>","location_name:latitude:longitude"
"<MISSING>","田灣","2號舖 地下1及","<MISSING>","<MISSING>","<MISSING>","<MISSING>","<MISSING>","25802816","田灣","22.2493714","114.1487427","mcdonalds.com.hk","<MISSING>","<MISSING>","location_name:latitude:longitude"
"<MISSING>","沙田馬場","沙田馬場2號公眾看台","<MISSING>","<MISSING>","<MISSING>","<MISSING>","<MISSING>","29666866","沙田馬場","22.4011111","114.2052778","mcdonalds.com.hk","<MISSING>","<MISSING>","location_name:latitude:longitude"
"<MISSING>","駿發花園","油麻地眾坊街3號駿發花園G2號舖","<MISSING>","<MISSING>","<MISSING>","<MISSING>","<MISSING>","27809361","駿發花園","22.3107703","114.1679481","mcdonalds.com.hk","<MISSING>","<MISSING>","location_name:latitude:longitude"
"<MISSING>","富昌邨","1樓 128至129號舖","<MISSING>","<MISSING>","<MISSING>","<MISSING>","<MISSING>","21424961","富昌邨","22.3285734","114.158868","mcdonalds.com.hk","<MISSING>","<MISSING>","location_name:latitude:longitude"
"<MISSING>","窩打老道","1樓 及","<MISSING>","<MISSING>","<MISSING>","<MISSING>","<MISSING>","27701243","窩打老道","22.3167109","114.1738234","mcdonalds.com.hk","<MISSING>","<MISSING>","location_name:latitude:longitude"
"<MISSING>","鴨寮街","104號","<MISSING>","<MISSING>","<MISSING>","<MISSING>","<MISSING>","23864460","鴨寮街","22.3299423","114.1626301","mcdonalds.com.hk","<MISSING>","<MISSING>","location_name:latitude:longitude"
"<MISSING>","恆安邨","202A 至","<MISSING>","<MISSING>","<MISSING>","<MISSING>","<MISSING>","26412931","恆安邨","22.417131","114.227526","mcdonalds.com.hk","<MISSING>","<MISSING>","location_name:latitude:longitude"
"<MISSING>","九龍站","12號B舖","<MISSING>","<MISSING>","<MISSING>","<MISSING>","<MISSING>","23750161","九龍站","22.304306","114.161475","mcdonalds.com.hk","<MISSING>","<MISSING>","location_name:latitude:longitude"
"<MISSING>","何文田廣場","319號舖","<MISSING>","<MISSING>","<MISSING>","<MISSING>","<MISSING>","22420462","何文田廣場","22.3162153","114.1817967","mcdonalds.com.hk","<MISSING>","<MISSING>","location_name:latitude:longitude"
"<MISSING>","宇晴匯","16號舖 及","<MISSING>","<MISSING>","<MISSING>","<MISSING>","<MISSING>","22649052","宇晴匯","22.3341562","114.1496735","mcdonalds.com.hk","<MISSING>","<MISSING>","location_name:latitude:longitude"
"<MISSING>","新港豪庭","新港豪庭地下F-H號舖及一樓 塘尾道51號","<MISSING>","<MISSING>","<MISSING>","<MISSING>","<MISSING>","23936918","新港豪庭","22.319882","114.165716","mcdonalds.com.hk","<MISSING>","<MISSING>","location_name:latitude:longitude"
"<MISSING>","真善美邨","9號地舖 富寧街5 7","<MISSING>","<MISSING>","<MISSING>","<MISSING>","<MISSING>","27121185","真善美邨","22.3251541","114.187594","mcdonalds.com.hk","<MISSING>","<MISSING>","location_name:latitude:longitude"
"<MISSING>","寶勒巷","3-7A號 寶勒巷","<MISSING>","<MISSING>","<MISSING>","<MISSING>","<MISSING>","23694398","寶勒巷","22.2983375","114.1743575","mcdonalds.com.hk","<MISSING>","<MISSING>","location_name:latitude:longitude"
"<MISSING>","大角咀道","地下J1 J2號舖 大角咀道97-105","大","<MISSING>","<MISSING>","<MISSING>","<MISSING>","23911830","大角咀道","22.3212706","114.1616315","mcdonalds.com.hk","<MISSING>","<MISSING>","location_name:latitude:longitude"
"<MISSING>","奧海城二期","九龍奧海城奧海城二期地面 G40-G42 號舖","<MISSING>","<MISSING>","<MISSING>","<MISSING>","<MISSING>","27404145","奧海城二期","22.3172044","114.1619682","mcdonalds.com.hk","<MISSING>","<MISSING>","location_name:latitude:longitude"
"<MISSING>","紅磡灣中心","紅磡灣中心地下8號舖","<MISSING>","<MISSING>","<MISSING>","<MISSING>","<MISSING>","23622034","紅磡灣中心","22.3053679","114.1860381","mcdonalds.com.hk","<MISSING>","<MISSING>","location_name:latitude:longitude"
"<MISSING>","美孚廣場","119號舖","<MISSING>","<MISSING>","<MISSING>","<MISSING>","<MISSING>","21483022","美孚廣場","22.335967","114.141406","mcdonalds.com.hk","<MISSING>","<MISSING>","location_name:latitude:longitude"
"<MISSING>","太子匯","448號 太子道西","<MISSING>","<MISSING>","<MISSING>","<MISSING>","<MISSING>","27162678","太子匯","22.328105","114.190709","mcdonalds.com.hk","<MISSING>","<MISSING>","location_name:latitude:longitude"
"<MISSING>","海逸豪園","30-32號舖 Ug層","<MISSING>","<MISSING>","<MISSING>","<MISSING>","<MISSING>","27749631","海逸豪園","22.3088208","114.1910993","mcdonalds.com.hk","<MISSING>","<MISSING>","location_name:latitude:longitude"
"<MISSING>","黃大仙中心南館","1樓 123號鋪","<MISSING>","<MISSING>","<MISSING>","<MISSING>","<MISSING>","23221565","黃大仙中心南館","22.3412668","114.1950937","mcdonalds.com.hk","<MISSING>","<MISSING>","location_name:latitude:longitude"
"<MISSING>","衛城道","半山 衛城道3號至3號A地下下層","<MISSING>","<MISSING>","<MISSING>","<MISSING>","<MISSING>","29152623","衛城道","22.2818833","114.151065","mcdonalds.com.hk","<MISSING>","<MISSING>","location_name:latitude:longitude"
"<MISSING>","般咸道","好景洋樓地下A-C及低層地下 西區般咸道51-53號","<MISSING>","<MISSING>","<MISSING>","<MISSING>","<MISSING>","25461671","般咸道","22.2849001","114.1413111","mcdonalds.com.hk","<MISSING>","<MISSING>","location_name:latitude:longitude"
"<MISSING>","海富中心","1-41號舖","<MISSING>","<MISSING>","<MISSING>","<MISSING>","<MISSING>","25201329","海富中心","22.2793623","114.1649799","mcdonalds.com.hk","<MISSING>","<MISSING>","location_name:latitude:longitude"
"<MISSING>","麗晶花園","218-1號舖 及停","<MISSING>","<MISSING>","<MISSING>","<MISSING>","<MISSING>","27590623","麗晶花園","22.330652","114.206785","mcdonalds.com.hk","<MISSING>","<MISSING>","location_name:latitude:longitude"
"<MISSING>","駱克道","2樓 駱克道151號","<MISSING>","<MISSING>","<MISSING>","<MISSING>","<MISSING>","28277537","駱克道","22.278259","114.172151","mcdonalds.com.hk","<MISSING>","<MISSING>","location_name:latitude:longitude"
"<MISSING>","亞州貨櫃物流中心","12 字樓","<MISSING>","<MISSING>","<MISSING>","<MISSING>","<MISSING>","24190262","亞州貨櫃物流中心","22.3433531","114.1250153","mcdonalds.com.hk","<MISSING>","<MISSING>","location_name:latitude:longitude"
"<MISSING>","囍寓","74-80號地庫及地下","<MISSING>","<MISSING>","<MISSING>","<MISSING>","<MISSING>","25298273","囍寓","22.2762612","114.1721049","mcdonalds.com.hk","<MISSING>","<MISSING>","location_name:latitude:longitude"
"<MISSING>","西寶城","8號 西環卑路乍街","<MISSING>","<MISSING>","<MISSING>","<MISSING>","<MISSING>","25427361","西寶城","22.284968","114.1332523","mcdonalds.com.hk","<MISSING>","<MISSING>","location_name:latitude:longitude"
"<MISSING>","景星中心","北角英皇道25-27號景星商業中心地下2號舖及一樓","<MISSING>","<MISSING>","<MISSING>","<MISSING>","<MISSING>","28070258","景星中心","22.2837975","114.1924124","mcdonalds.com.hk","<MISSING>","<MISSING>","location_name:latitude:longitude"
"<MISSING>","顯徑邨","301B號舖","<MISSING>","<MISSING>","<MISSING>","<MISSING>","<MISSING>","26813221","顯徑邨","22.3635027","114.1720137","mcdonalds.com.hk","<MISSING>","<MISSING>","location_name:latitude:longitude"
"<MISSING>","銅鑼灣道","銅鑼灣道11-17A國泰大廈一樓A","<MISSING>","<MISSING>","<MISSING>","<MISSING>","<MISSING>","28949677","銅鑼灣道","22.2790551","114.1880455","mcdonalds.com.hk","<MISSING>","<MISSING>","location_name:latitude:longitude"
"<MISSING>","健康邨","北角七姊妹道194號健康邨第一期地下C舖","<MISSING>","<MISSING>","<MISSING>","<MISSING>","<MISSING>","25639482","健康邨","22.2918344","114.2060878","mcdonalds.com.hk","<MISSING>","<MISSING>","location_name:latitude:longitude"
"<MISSING>","淘大商場","淘大花園商場第二期地下G246-253號舖 牛頭角道77號","<MISSING>","<MISSING>","<MISSING>","<MISSING>","<MISSING>","27986967","淘大商場","22.3244614","114.2163021","mcdonalds.com.hk","<MISSING>","<MISSING>","location_name:latitude:longitude"
"<MISSING>","創紀之城","1A地下","<MISSING>","<MISSING>","<MISSING>","<MISSING>","<MISSING>","22671638","創紀之城","22.3146929","114.2195682","mcdonalds.com.hk","<MISSING>","<MISSING>","location_name:latitude:longitude"
"<MISSING>","樂華邨","310號舖","<MISSING>","<MISSING>","<MISSING>","<MISSING>","<MISSING>","23051384","樂華邨","22.3217722","114.2198737","mcdonalds.com.hk","<MISSING>","<MISSING>","location_name:latitude:longitude"
"<MISSING>","葵昌路","1樓1號舖 葵昌路","<MISSING>","<MISSING>","<MISSING>","<MISSING>","<MISSING>","24229256","葵昌路","22.3634404","114.1325556","mcdonalds.com.hk","<MISSING>","<MISSING>","location_name:latitude:longitude"
"<MISSING>","牛頭角道","地庫及地下 頭角道327-333號","<MISSING>","<MISSING>","<MISSING>","<MISSING>","<MISSING>","23442756","牛頭角道","22.3149965","114.2223784","mcdonalds.com.hk","<MISSING>","<MISSING>","location_name:latitude:longitude"
"<MISSING>","嘉業大廈","1 Lai Chi Kwok Road G/","Kowloon","<MISSING>","<MISSING>","<MISSING>","<MISSING>","23802850","嘉業大廈","22.3221308","114.1684822","mcdonalds.com.hk","<MISSING>","<MISSING>","location_name:latitude:longitude"
"<MISSING>","葵盛東邨","105號舖","<MISSING>","<MISSING>","<MISSING>","<MISSING>","<MISSING>","29449196","葵盛東邨","22.3641144","114.1270786","mcdonalds.com.hk","<MISSING>","<MISSING>","location_name:latitude:longitude"
"<MISSING>","石蔭邨","Lg213及214號舖","<MISSING>","<MISSING>","<MISSING>","<MISSING>","<MISSING>","22760880","石蔭邨","22.3715263","114.1385792","mcdonalds.com.hk","<MISSING>","<MISSING>","location_name:latitude:longitude"
"<MISSING>","翠怡花園","翠怡花園商場地下G2號舖 楓樹窩路","<MISSING>","<MISSING>","<MISSING>","<MISSING>","<MISSING>","24358772","翠怡花園","22.3532263","114.10909","mcdonalds.com.hk","<MISSING>","<MISSING>","location_name:latitude:longitude"
"<MISSING>","鯉魚門廣場","201號舖","<MISSING>","<MISSING>","<MISSING>","<MISSING>","<MISSING>","31940307","鯉魚門廣場","22.3101991","114.2287405","mcdonalds.com.hk","<MISSING>","<MISSING>","location_name:latitude:longitude"
"<MISSING>","麗港城","6-9號舖","<MISSING>","<MISSING>","<MISSING>","<MISSING>","<MISSING>","23463285","麗港城","22.3069361","114.2281319","mcdonalds.com.hk","<MISSING>","<MISSING>","location_name:latitude:longitude"
"<MISSING>","翠屏邨","觀塘翠屏邨翠屏商場地下5號舖","<MISSING>","<MISSING>","<MISSING>","<MISSING>","<MISSING>","22646215","翠屏邨","22.3165412","114.2296358","mcdonalds.com.hk","<MISSING>","<MISSING>","location_name:latitude:longitude"
"<MISSING>","長康邨","青衣長康邨長康商場一期地下101號舖","<MISSING>","<MISSING>","<MISSING>","<MISSING>","<MISSING>","21466914","長康邨","22.350027","114.105611","mcdonalds.com.hk","<MISSING>","<MISSING>","location_name:latitude:longitude"
"<MISSING>","石圍角邨","荃灣石圍角邨石圍角商場平台324號舖","<MISSING>","<MISSING>","<MISSING>","<MISSING>","<MISSING>","24156879","石圍角邨","22.375568","114.136128","mcdonalds.com.hk","<MISSING>","<MISSING>","location_name:latitude:longitude"
"<MISSING>","秀茂坪邨","觀塘秀茂坪邨秀茂坪商場地下1號舖","<MISSING>","<MISSING>","<MISSING>","<MISSING>","<MISSING>","23548506","秀茂坪邨","22.3194881","114.2319161","mcdonalds.com.hk","<MISSING>","<MISSING>","location_name:latitude:longitude"
"<MISSING>","博康邨","210號舖","<MISSING>","<MISSING>","<MISSING>","<MISSING>","<MISSING>","21445203","博康邨","22.3754592","114.1956878","mcdonalds.com.hk","<MISSING>","<MISSING>","location_name:latitude:longitude"
"<MISSING>","好望角大廈","好望角大廈地下及地庫 彌敦道612-618號","<MISSING>","<MISSING>","<MISSING>","<MISSING>","<MISSING>","23842728","好望角大廈","22.3173731","114.1700381","mcdonalds.com.hk","<MISSING>","<MISSING>","location_name:latitude:longitude"
"<MISSING>","置富","426-432號舖","<MISSING>","<MISSING>","<MISSING>","<MISSING>","<MISSING>","28753720","置富","22.2560275","114.1388493","mcdonalds.com.hk","<MISSING>","<MISSING>","location_name:latitude:longitude"
"<MISSING>","綠楊坊","荃灣綠楊坊二樓S1-2號舖","<MISSING>","<MISSING>","<MISSING>","<MISSING>","<MISSING>","24022527","綠楊坊","22.3729004","114.1191563","mcdonalds.com.hk","<MISSING>","<MISSING>","location_name:latitude:longitude"
"<MISSING>","德田邨","104A號舖","<MISSING>","<MISSING>","<MISSING>","<MISSING>","<MISSING>","27178546","德田邨","22.3082273","114.2351489","mcdonalds.com.hk","<MISSING>","<MISSING>","location_name:latitude:longitude"
"<MISSING>","寶達邨","206號舖","<MISSING>","<MISSING>","<MISSING>","<MISSING>","<MISSING>","21904206","寶達邨","22.317468","114.2364229","mcdonalds.com.hk","<MISSING>","<MISSING>","location_name:latitude:longitude"
"<MISSING>","南豐中心","301號舖 青山道264-298號","<MISSING>","<MISSING>","<MISSING>","<MISSING>","<MISSING>","24111531","南豐中心","22.3738014","114.1163447","mcdonalds.com.hk","<MISSING>","<MISSING>","location_name:latitude:longitude"
"<MISSING>","新望大廈","地庫及地下 彌敦道763-767號","<MISSING>","<MISSING>","<MISSING>","<MISSING>","<MISSING>","23917608","新望大廈","22.3248281","114.1679857","mcdonalds.com.hk","<MISSING>","<MISSING>","location_name:latitude:longitude"
"<MISSING>","愛東邨","筲箕灣愛東邨愛東商場地下11號舖","<MISSING>","<MISSING>","<MISSING>","<MISSING>","<MISSING>","25604242","愛東邨","22.2808612","114.2277794","mcdonalds.com.hk","<MISSING>","<MISSING>","location_name:latitude:longitude"
"<MISSING>","南康街","18號 南康街","<MISSING>","<MISSING>","<MISSING>","<MISSING>","<MISSING>","28849853","南康街","22.2782074","114.2259063","mcdonalds.com.hk","<MISSING>","<MISSING>","location_name:latitude:longitude"
"<MISSING>","華富邨","華富 I 邨華富 I 商場1A舖","<MISSING>","<MISSING>","<MISSING>","<MISSING>","<MISSING>","25518135","華富邨","22.2525","114.1363889","mcdonalds.com.hk","<MISSING>","<MISSING>","location_name:latitude:longitude"
"<MISSING>","油麗邨","5-6號舖","<MISSING>","<MISSING>","<MISSING>","<MISSING>","<MISSING>","24898777","油麗邨","22.2983917","114.2372842","mcdonalds.com.hk","<MISSING>","<MISSING>","location_name:latitude:longitude"
"<MISSING>","愉翠苑","101號舖","<MISSING>","<MISSING>","<MISSING>","<MISSING>","<MISSING>","22780155","愉翠苑","22.3821357","114.2051279","mcdonalds.com.hk","<MISSING>","<MISSING>","location_name:latitude:longitude"
"<MISSING>","禾輋邨","245-247號舖","<MISSING>","<MISSING>","<MISSING>","<MISSING>","<MISSING>","26998365","禾輋邨","22.3879585","114.1952465","mcdonalds.com.hk","<MISSING>","<MISSING>","location_name:latitude:longitude"
"<MISSING>","富運商業中心","569-573A號 彌敦道","<MISSING>","<MISSING>","<MISSING>","<MISSING>","<MISSING>","27713890","富運商業中心","22.3148953","114.1699917","mcdonalds.com.hk","<MISSING>","<MISSING>","location_name:latitude:longitude"
"<MISSING>","置富第一城","1號 銀城街","<MISSING>","<MISSING>","<MISSING>","<MISSING>","<MISSING>","26483765","置富第一城","22.3871067","114.2028926","mcdonalds.com.hk","<MISSING>","<MISSING>","location_name:latitude:longitude"
"<MISSING>","廣源邨","13號舖","<MISSING>","<MISSING>","<MISSING>","<MISSING>","<MISSING>","26357283","廣源邨","22.3808333","114.215","mcdonalds.com.hk","<MISSING>","<MISSING>","location_name:latitude:longitude"
"<MISSING>","荃灣中心","94-98號 荃景圍","<MISSING>","<MISSING>","<MISSING>","<MISSING>","<MISSING>","24055857","荃灣中心","22.3785816","114.1078291","mcdonalds.com.hk","<MISSING>","<MISSING>","location_name:latitude:longitude"
"<MISSING>","翠林邨","將軍澳翠林邨翠林新城126號舖","<MISSING>","<MISSING>","<MISSING>","<MISSING>","<MISSING>","22094206","翠林邨","22.3226169","114.2494009","mcdonalds.com.hk","<MISSING>","<MISSING>","location_name:latitude:longitude"
"<MISSING>","沙田商業中心","2號舖 及","<MISSING>","<MISSING>","<MISSING>","<MISSING>","<MISSING>","21454123","沙田商業中心","22.3972442","114.1934135","mcdonalds.com.hk","<MISSING>","<MISSING>","location_name:latitude:longitude"
"<MISSING>","彩明商場","271及272號舖","<MISSING>","<MISSING>","<MISSING>","<MISSING>","<MISSING>","34095352","彩明商場","22.3060752","114.2524067","mcdonalds.com.hk","<MISSING>","<MISSING>","location_name:latitude:longitude"
"<MISSING>","茵怡花園","將軍澳茵怡花園地下1號舖","<MISSING>","<MISSING>","<MISSING>","<MISSING>","<MISSING>","29970007","茵怡花園","22.3214801","114.2561857","mcdonalds.com.hk","<MISSING>","<MISSING>","location_name:latitude:longitude"
"<MISSING>","寶林邨","將軍澳寶林邨寶林商場地下103號舖","<MISSING>","<MISSING>","<MISSING>","<MISSING>","<MISSING>","22464575","寶林邨","22.3250831","114.2561675","mcdonalds.com.hk","<MISSING>","<MISSING>","location_name:latitude:longitude"
"<MISSING>","興華邨","114號舖","<MISSING>","<MISSING>","<MISSING>","<MISSING>","<MISSING>","29769865","興華邨","22.263396","114.235071","mcdonalds.com.hk","<MISSING>","<MISSING>","location_name:latitude:longitude"
"<MISSING>","駿景廣場","1號 駿景路","<MISSING>","<MISSING>","<MISSING>","<MISSING>","<MISSING>","26348734","駿景廣場","22.3988826","114.2012944","mcdonalds.com.hk","<MISSING>","<MISSING>","location_name:latitude:longitude"
"<MISSING>","新都城中心二期商場","1017號舖","<MISSING>","<MISSING>","<MISSING>","<MISSING>","<MISSING>","31945176","新都城中心二期商場","22.3233143","114.2581878","mcdonalds.com.hk","<MISSING>","<MISSING>","location_name:latitude:longitude"
"<MISSING>","TKO Spot","216號舖 2樓","<MISSING>","<MISSING>","<MISSING>","<MISSING>","<MISSING>","21780769","TKO Spot","22.3110182","114.2588317","mcdonalds.com.hk","<MISSING>","<MISSING>","location_name:latitude:longitude"
"<MISSING>","海悅豪園","18號 培成路","<MISSING>","<MISSING>","<MISSING>","<MISSING>","<MISSING>","22744106","海悅豪園","22.3148492","114.2657023","mcdonalds.com.hk","<MISSING>","<MISSING>","location_name:latitude:longitude"
"<MISSING>","香港科技大學","香港科技大學學術樓Lg5餐廳","<MISSING>","<MISSING>","<MISSING>","<MISSING>","<MISSING>","23580271","香港科技大學","22.3363998","114.2654655","mcdonalds.com.hk","<MISSING>","<MISSING>","location_name:latitude:longitude"
"<MISSING>","藍灣半島","11B號舖 小西灣道28號","<MISSING>","<MISSING>","<MISSING>","<MISSING>","<MISSING>","34074142","藍灣半島","22.266226","114.2508984","mcdonalds.com.hk","<MISSING>","<MISSING>","location_name:latitude:longitude"
"<MISSING>","彌敦行","油麻地 彌敦道518-520號彌敦行地下A及C舖","<MISSING>","<MISSING>","<MISSING>","<MISSING>","<MISSING>","23851611","彌敦行","22.3124053","114.1709903","mcdonalds.com.hk","<MISSING>","<MISSING>","location_name:latitude:longitude"
"<MISSING>","錦泰苑","102號舖","<MISSING>","<MISSING>","<MISSING>","<MISSING>","<MISSING>","31248656","錦泰苑","22.4087594","114.2217721","mcdonalds.com.hk","<MISSING>","<MISSING>","location_name:latitude:longitude"
"<MISSING>","頌安邨","馬鞍山頌安邨頌安商場6號舖","<MISSING>","<MISSING>","<MISSING>","<MISSING>","<MISSING>","26334380","頌安邨","22.421869","114.226598","mcdonalds.com.hk","<MISSING>","<MISSING>","location_name:latitude:longitude"
"<MISSING>","新港城廣場","2138號舖 鞍祿街","沙田","新界","<MISSING>","<MISSING>","<MISSING>","26334460","新港城廣場","22.4241633","114.2314688","mcdonalds.com.hk","<MISSING>","<MISSING>","location_name:latitude:longitude"
"<MISSING>","新達廣場","1樓 083-085號舖","<MISSING>","<MISSING>","<MISSING>","<MISSING>","<MISSING>","26529900","新達廣場","22.443554","114.169348","mcdonalds.com.hk","<MISSING>","<MISSING>","location_name:latitude:longitude"
"<MISSING>","欽州街","78-86號地下","<MISSING>","<MISSING>","<MISSING>","<MISSING>","<MISSING>","27284222","欽州街","22.3319566","114.161469","mcdonalds.com.hk","<MISSING>","<MISSING>","location_name:latitude:longitude"
"<MISSING>","利安邨","304號舖","<MISSING>","<MISSING>","<MISSING>","<MISSING>","<MISSING>","26339576","利安邨","22.4264114","114.2409805","mcdonalds.com.hk","<MISSING>","<MISSING>","location_name:latitude:longitude"
"<MISSING>","廣福邨","大埔廣福邨廣福商場P316號舖","<MISSING>","<MISSING>","<MISSING>","<MISSING>","<MISSING>","26535348","廣福邨","22.4485664","114.1741257","mcdonalds.com.hk","<MISSING>","<MISSING>","location_name:latitude:longitude"
"<MISSING>","富善邨","大埔富善邨富善商場地下G25號舖","<MISSING>","<MISSING>","<MISSING>","<MISSING>","<MISSING>","26670558","富善邨","22.45402","114.174652","mcdonalds.com.hk","<MISSING>","<MISSING>","location_name:latitude:longitude"
"<MISSING>","恆成大廈","恆成大廈地下B舖 九龍油麻地彌敦道363-373號","<MISSING>","<MISSING>","<MISSING>","<MISSING>","<MISSING>","27804073","恆成大廈","22.3079182","114.1711064","mcdonalds.com.hk","<MISSING>","<MISSING>","location_name:latitude:longitude"
"<MISSING>","窩仔街","B2及B3地舖 窩仔街","<MISSING>","<MISSING>","<MISSING>","<MISSING>","<MISSING>","27840215","窩仔街","22.331304","114.170219","mcdonalds.com.hk","<MISSING>","<MISSING>","location_name:latitude:longitude"
"<MISSING>","百誠大廈","31-37號","九龍","<MISSING>","<MISSING>","<MISSING>","<MISSING>","23325215","百誠大廈","22.3055248","114.1703865","mcdonalds.com.hk","<MISSING>","<MISSING>","location_name:latitude:longitude"
"<MISSING>","美居中心","9-19號 州街","<MISSING>","<MISSING>","<MISSING>","<MISSING>","<MISSING>","27283566","美居中心","22.3348181","114.1597737","mcdonalds.com.hk","<MISSING>","<MISSING>","location_name:latitude:longitude"
"<MISSING>","愛民廣場","G38A號地下 忠孝街","九龍","<MISSING>","<MISSING>","<MISSING>","<MISSING>","27577891","愛民廣場","22.3121605","114.178795","mcdonalds.com.hk","<MISSING>","<MISSING>","location_name:latitude:longitude"
"<MISSING>","幸福商場","111 舖","<MISSING>","<MISSING>","<MISSING>","<MISSING>","<MISSING>","27583292","幸福商場","22.335339","114.154595","mcdonalds.com.hk","<MISSING>","<MISSING>","location_name:latitude:longitude"
"<MISSING>","青山道","瑞麗閣地下及一樓 青山道212-214號","<MISSING>","<MISSING>","<MISSING>","<MISSING>","<MISSING>","27088169","青山道","22.3368433","114.1586822","mcdonalds.com.hk","<MISSING>","<MISSING>","location_name:latitude:longitude"
"<MISSING>","海聯廣場","2B 海聯廣場地下2A及","<MISSING>","<MISSING>","<MISSING>","<MISSING>","<MISSING>","26763860","海聯廣場","22.500198","114.141608","mcdonalds.com.hk","<MISSING>","<MISSING>","location_name:latitude:longitude"
"<MISSING>","山林道","The Wave 地下 一樓及二樓 九龍尖沙咀彌敦道 184 號","<MISSING>","<MISSING>","<MISSING>","<MISSING>","<MISSING>","25575818","山林道","22.3030378","114.1720585","mcdonalds.com.hk","<MISSING>","<MISSING>","location_name:latitude:longitude"
"<MISSING>","華樂大廈","地下","<MISSING>","<MISSING>","<MISSING>","<MISSING>","<MISSING>","24591736","華樂大廈","22.3888073","113.9793187","mcdonalds.com.hk","<MISSING>","<MISSING>","location_name:latitude:longitude"
"<MISSING>","上水名都商場","16號舖 至","<MISSING>","<MISSING>","<MISSING>","<MISSING>","<MISSING>","26390646","上水名都商場","22.5012113","114.1316266","mcdonalds.com.hk","<MISSING>","<MISSING>","location_name:latitude:longitude"
"<MISSING>","天平邨","上水天平邨天平商場地下122號舖","<MISSING>","<MISSING>","<MISSING>","<MISSING>","<MISSING>","26392254","天平邨","22.503554","114.1338055","mcdonalds.com.hk","<MISSING>","<MISSING>","location_name:latitude:longitude"
"<MISSING>","彩園邨","上水彩園商場三樓R36及R37號舖","<MISSING>","<MISSING>","<MISSING>","<MISSING>","<MISSING>","26723936","彩園邨","22.5027345","114.1248779","mcdonalds.com.hk","<MISSING>","<MISSING>","location_name:latitude:longitude"
"<MISSING>","屯門時代廣場","14號舖 及","<MISSING>","<MISSING>","<MISSING>","<MISSING>","<MISSING>","24413628","屯門時代廣場","22.3922083","113.9758571","mcdonalds.com.hk","<MISSING>","<MISSING>","location_name:latitude:longitude"
"<MISSING>","九龍公園","九龍公園 柯士甸道22號","<MISSING>","<MISSING>","<MISSING>","<MISSING>","<MISSING>","23171527","九龍公園","22.301755","114.1705215","mcdonalds.com.hk","<MISSING>","<MISSING>","location_name:latitude:longitude"
"<MISSING>","富泰邨","215號舖","<MISSING>","<MISSING>","<MISSING>","<MISSING>","<MISSING>","24537011","富泰邨","22.413687","113.983152","mcdonalds.com.hk","<MISSING>","<MISSING>","location_name:latitude:longitude"
"<MISSING>","中港城","尖沙咀廣東道33號中港城一樓28號店","<MISSING>","<MISSING>","<MISSING>","<MISSING>","<MISSING>","27361760","中港城","22.3005315","114.1678015","mcdonalds.com.hk","<MISSING>","<MISSING>","location_name:latitude:longitude"
"<MISSING>","新屯門中心","2樓9-11號舖 龍門路","<MISSING>","<MISSING>","<MISSING>","<MISSING>","<MISSING>","24683707","新屯門中心","22.3812408","113.9643827","mcdonalds.com.hk","<MISSING>","<MISSING>","location_name:latitude:longitude"
"<MISSING>","山景邨","124號舖","<MISSING>","<MISSING>","<MISSING>","<MISSING>","<MISSING>","24641660","山景邨","22.3966317","113.9665641","mcdonalds.com.hk","<MISSING>","<MISSING>","location_name:latitude:longitude"
"<MISSING>","寶怡花園","1-2號舖 屯門良德街","<MISSING>","<MISSING>","<MISSING>","<MISSING>","<MISSING>","24645711","寶怡花園","22.407878","113.968484","mcdonalds.com.hk","<MISSING>","<MISSING>","location_name:latitude:longitude"
"<MISSING>","又一城","80 號 達之路","九龍","<MISSING>","<MISSING>","<MISSING>","<MISSING>","22658232","又一城","22.3364841","114.1751935","mcdonalds.com.hk","<MISSING>","<MISSING>","location_name:latitude:longitude"
"<MISSING>","興華街","416號地下 州街","<MISSING>","<MISSING>","<MISSING>","<MISSING>","<MISSING>","29581556","興華街","22.338762","114.15524","mcdonalds.com.hk","<MISSING>","<MISSING>","location_name:latitude:longitude"
"<MISSING>","東薈城","112號舖 達東路","東涌","<MISSING>","<MISSING>","<MISSING>","<MISSING>","21092404","東薈城","22.2894343","113.9408813","mcdonalds.com.hk","<MISSING>","<MISSING>","location_name:latitude:longitude"
"<MISSING>","逸東邨","104號舖","<MISSING>","<MISSING>","<MISSING>","<MISSING>","<MISSING>","31417367","逸東邨","22.281675","113.9348144","mcdonalds.com.hk","<MISSING>","<MISSING>","location_name:latitude:longitude"
"<MISSING>","蘇屋商場","深水埗蘇屋邨蘇屋商場地下G09號及G10號舖","<MISSING>","<MISSING>","<MISSING>","<MISSING>","<MISSING>","27565068","蘇屋商場","22.3403107","114.157685","mcdonalds.com.hk","<MISSING>","<MISSING>","location_name:latitude:longitude"
"<MISSING>","樂意居","樂意居地下1號舖及一樓 馬頭圍道418號","<MISSING>","<MISSING>","<MISSING>","<MISSING>","<MISSING>","27697811","樂意居","22.319114","114.1873385","mcdonalds.com.hk","<MISSING>","<MISSING>","location_name:latitude:longitude"
"<MISSING>","長沙灣廣場","325-328號舖 291 & 293 三樓","<MISSING>","<MISSING>","<MISSING>","<MISSING>","<MISSING>","27434245","長沙灣廣場","22.3371349","114.148673","mcdonalds.com.hk","<MISSING>","<MISSING>","location_name:latitude:longitude"
"<MISSING>","海悅廣場","海悅廣場地下1號舖 馬頭圍道207-211號","<MISSING>","<MISSING>","<MISSING>","<MISSING>","<MISSING>","22468290","海悅廣場","22.3219466","114.1877869","mcdonalds.com.hk","<MISSING>","<MISSING>","location_name:latitude:longitude"
"<MISSING>","紅磡站","九龍紅磡站閣樓層 Huh R2 號舖","<MISSING>","<MISSING>","<MISSING>","<MISSING>","<MISSING>","27119576","紅磡站","22.3033453","114.1814521","mcdonalds.com.hk","<MISSING>","<MISSING>","location_name:latitude:longitude"
"<MISSING>","新文華中心","1樓 127-138號鋪","<MISSING>","<MISSING>","<MISSING>","<MISSING>","<MISSING>","28041787","新文華中心","22.300215","114.1782124","mcdonalds.com.hk","<MISSING>","<MISSING>","location_name:latitude:longitude"
"<MISSING>","北京道","新聲大廈地庫與地下 尖沙咀北京道12號","<MISSING>","<MISSING>","<MISSING>","<MISSING>","<MISSING>","23760170","北京道","22.2965356","114.1709903","mcdonalds.com.hk","<MISSING>","<MISSING>","location_name:latitude:longitude"
"<MISSING>","土瓜灣道","31號 C 地下","<MISSING>","<MISSING>","<MISSING>","<MISSING>","<MISSING>","23335578","土瓜灣道","22.315079","114.188797","mcdonalds.com.hk","<MISSING>","<MISSING>","location_name:latitude:longitude"
"<MISSING>","星光行","尖沙咀 梳士巴利道三號星光行地下及地庫","<MISSING>","<MISSING>","<MISSING>","<MISSING>","<MISSING>","27356379","星光行","22.2944543","114.1687698","mcdonalds.com.hk","<MISSING>","<MISSING>","location_name:latitude:longitude"
"<MISSING>","九龍城廣埸","九龍城廣場地下上層Ug02B Ug03 & Ug05號舖 賈炳達道128號","<MISSING>","<MISSING>","<MISSING>","<MISSING>","<MISSING>","27187673","九龍城廣埸","22.3309857","114.1879624","mcdonalds.com.hk","<MISSING>","<MISSING>","location_name:latitude:longitude"
"<MISSING>","黃埔花園","1 樓 九龍","<MISSING>","<MISSING>","<MISSING>","<MISSING>","<MISSING>","27742777","黃埔花園","22.306068","114.190308","mcdonalds.com.hk","<MISSING>","<MISSING>","location_name:latitude:longitude"
"<MISSING>","美孚新邨","美孚新邨萬事達廣場地下N60A號店","<MISSING>","<MISSING>","<MISSING>","<MISSING>","<MISSING>","27862178","美孚新邨","22.3374675","114.1394451","mcdonalds.com.hk","<MISSING>","<MISSING>","location_name:latitude:longitude"
"<MISSING>","樂富廣場","聯合道198號樂富廣場3樓3112-3114號舖","<MISSING>","<MISSING>","<MISSING>","<MISSING>","<MISSING>","23385032","樂富廣場","22.3383244","114.1872329","mcdonalds.com.hk","<MISSING>","<MISSING>","location_name:latitude:longitude"
"<MISSING>","越秀廣場","3-23號 寧遠街","<MISSING>","<MISSING>","<MISSING>","<MISSING>","<MISSING>","23201578","越秀廣場","22.3338518","114.1957967","mcdonalds.com.hk","<MISSING>","<MISSING>","location_name:latitude:longitude"
"<MISSING>","國際金融中心商場","2022號舖 景街","<MISSING>","<MISSING>","<MISSING>","<MISSING>","<MISSING>","24786588","國際金融中心商場","22.28588","114.158131","mcdonalds.com.hk","<MISSING>","<MISSING>","location_name:latitude:longitude"
"<MISSING>","龍記大廈","267-275號 及地下入口","<MISSING>","<MISSING>","<MISSING>","<MISSING>","<MISSING>","28656238","龍記大廈","22.2868574","114.1518062","mcdonalds.com.hk","<MISSING>","<MISSING>","location_name:latitude:longitude"
"<MISSING>","竹園邨","黃大仙竹園南邨竹園商場S219A號舖","<MISSING>","<MISSING>","<MISSING>","<MISSING>","<MISSING>","23279998","竹園邨","22.3445998","114.1906127","mcdonalds.com.hk","<MISSING>","<MISSING>","location_name:latitude:longitude"
"<MISSING>","299QRC","287號 皇后大道中","<MISSING>","<MISSING>","<MISSING>","<MISSING>","<MISSING>","25418667","299QRC","22.2853316","114.1503454","mcdonalds.com.hk","<MISSING>","<MISSING>","location_name:latitude:longitude"
"<MISSING>","莊士大廈","莊士大廈地下高層與地下底層 干諾道中30-32號","<MISSING>","<MISSING>","<MISSING>","<MISSING>","<MISSING>","25234310","莊士大廈","22.283593","114.1571031","mcdonalds.com.hk","<MISSING>","<MISSING>","location_name:latitude:longitude"
"<MISSING>","香港仔中心","6A-6B地下","<MISSING>","<MISSING>","<MISSING>","<MISSING>","<MISSING>","<MISSING>","香港仔中心","22.2839609","114.1532513","mcdonalds.com.hk","<MISSING>","<MISSING>","location_name:latitude:longitude"
"<MISSING>","皇后大道西","265號地下 皇后大道西","<MISSING>","<MISSING>","<MISSING>","<MISSING>","<MISSING>","28583417","皇后大道西","22.287058","114.142887","mcdonalds.com.hk","<MISSING>","<MISSING>","location_name:latitude:longitude"
"<MISSING>","余道生行","余道生大廈地庫 皇后大道中37號","<MISSING>","<MISSING>","<MISSING>","<MISSING>","<MISSING>","25263770","余道生行","22.2824","114.156237","mcdonalds.com.hk","<MISSING>","<MISSING>","location_name:latitude:longitude"
"<MISSING>","E-Max","1號 貿徑","<MISSING>","<MISSING>","<MISSING>","<MISSING>","<MISSING>","23211739","E-Max","22.323968","114.203765","mcdonalds.com.hk","<MISSING>","<MISSING>","location_name:latitude:longitude"
"<MISSING>","萬迪廣場","3號 大有街","<MISSING>","<MISSING>","<MISSING>","<MISSING>","<MISSING>","22670798","萬迪廣場","22.3384451","114.1991519","mcdonalds.com.hk","<MISSING>","<MISSING>","location_name:latitude:longitude"
"<MISSING>","晴朗商場","九龍城沐翠街晴朗商場地下B001號舖","<MISSING>","<MISSING>","<MISSING>","<MISSING>","<MISSING>","23820518","晴朗商場","22.3315451","114.2030178","mcdonalds.com.hk","<MISSING>","<MISSING>","location_name:latitude:longitude"
"<MISSING>","港灣道","灣仔港灣道30號新鴻基中心地下G1號店","<MISSING>","<MISSING>","<MISSING>","<MISSING>","<MISSING>","25110948","港灣道","22.2803654","114.1769119","mcdonalds.com.hk","<MISSING>","<MISSING>","location_name:latitude:longitude"
"<MISSING>","MegaBox","九龍灣宏照道38號企業廣場五期Megabox L2 34號舖","<MISSING>","<MISSING>","<MISSING>","<MISSING>","<MISSING>","23590412","MegaBox","22.3199795","114.2084331","mcdonalds.com.hk","<MISSING>","<MISSING>","location_name:latitude:longitude"
"<MISSING>","康澤花園","園地下B2及B3號舖","<MISSING>","<MISSING>","<MISSING>","<MISSING>","<MISSING>","25783870","康澤花園","22.2881574","114.1941087","mcdonalds.com.hk","<MISSING>","<MISSING>","location_name:latitude:longitude"
"<MISSING>","山道","484-496號地下 皇后大道西","<MISSING>","<MISSING>","<MISSING>","<MISSING>","<MISSING>","25407710","山道","22.2858022","114.1354354","mcdonalds.com.hk","<MISSING>","<MISSING>","location_name:latitude:longitude"
"<MISSING>","鳳德邨","202A號舖","<MISSING>","<MISSING>","<MISSING>","<MISSING>","<MISSING>","23527761","鳳德邨","22.3440779","114.2004223","mcdonalds.com.hk","<MISSING>","<MISSING>","location_name:latitude:longitude"
"<MISSING>","英皇道","北角英皇道353-361號益新大廈地下A-C舖","<MISSING>","<MISSING>","<MISSING>","<MISSING>","<MISSING>","25785473","英皇道","22.2908404","114.1975791","mcdonalds.com.hk","<MISSING>","<MISSING>","location_name:latitude:longitude"
"<MISSING>","柯布連道","D4舖 C及","<MISSING>","<MISSING>","<MISSING>","<MISSING>","<MISSING>","25723630","柯布連道","22.2772208","114.1732649","mcdonalds.com.hk","<MISSING>","<MISSING>","location_name:latitude:longitude"
"<MISSING>","軒尼詩道","灣仔軒尼詩道302-308號集成中心地下G11-17號舖","<MISSING>","<MISSING>","<MISSING>","<MISSING>","<MISSING>","28939503","軒尼詩道","22.277985","114.1779013","mcdonalds.com.hk","<MISSING>","<MISSING>","location_name:latitude:longitude"
"<MISSING>","莊士敦道","舖華懋莊士敦廣場地下2號舖 士敦道178-186號","<MISSING>","<MISSING>","<MISSING>","<MISSING>","<MISSING>","25914351","莊士敦道","22.2770061","114.1756812","mcdonalds.com.hk","<MISSING>","<MISSING>","location_name:latitude:longitude"
"<MISSING>","宏開道","2 號舖 及","<MISSING>","<MISSING>","<MISSING>","<MISSING>","<MISSING>","27117892","宏開道","22.3213269","114.2112792","mcdonalds.com.hk","<MISSING>","<MISSING>","location_name:latitude:longitude"
"<MISSING>","樂嘉中心","460-470號","<MISSING>","<MISSING>","<MISSING>","<MISSING>","<MISSING>","25638416","樂嘉中心","22.291054","114.200809","mcdonalds.com.hk","<MISSING>","<MISSING>","location_name:latitude:longitude"
"<MISSING>","銅鑼灣怡和街","46-54號地下 至二樓","<MISSING>","<MISSING>","<MISSING>","<MISSING>","<MISSING>","25778240","銅鑼灣怡和街","22.2795267","114.1859171","mcdonalds.com.hk","<MISSING>","<MISSING>","location_name:latitude:longitude"
"<MISSING>","合和中心","322-323號舖 皇后大道東","<MISSING>","<MISSING>","<MISSING>","<MISSING>","<MISSING>","25284973","合和中心","22.2746444","114.1716278","mcdonalds.com.hk","<MISSING>","<MISSING>","location_name:latitude:longitude"
"<MISSING>","禮頓中心","銅鑼灣禮頓道77號禮頓中心地庫B02","<MISSING>","<MISSING>","<MISSING>","<MISSING>","<MISSING>","31264113","禮頓中心","22.2776353","114.1829035","mcdonalds.com.hk","<MISSING>","<MISSING>","location_name:latitude:longitude"
"<MISSING>","毓華街","地下 華街","<MISSING>","<MISSING>","<MISSING>","<MISSING>","<MISSING>","27528426","毓華街","22.3470226","114.2023161","mcdonalds.com.hk","<MISSING>","<MISSING>","location_name:latitude:longitude"
"<MISSING>","坪石邨","G1號舖 坪石村停車場","<MISSING>","<MISSING>","<MISSING>","<MISSING>","<MISSING>","22527938","坪石邨","22.3329963","114.2101922","mcdonalds.com.hk","<MISSING>","<MISSING>","location_name:latitude:longitude"
"<MISSING>","德福廣場","九龍灣德福廣場 I 期第F21號舖","<MISSING>","<MISSING>","<MISSING>","<MISSING>","<MISSING>","27568166","德福廣場","22.3238143","114.2135246","mcdonalds.com.hk","<MISSING>","<MISSING>","location_name:latitude:longitude"
"<MISSING>","士美菲路","12F-G文光閣地下 士美菲路","<MISSING>","<MISSING>","<MISSING>","<MISSING>","<MISSING>","28174130","士美菲路","22.2834332","114.1305981","mcdonalds.com.hk","<MISSING>","<MISSING>","location_name:latitude:longitude"
"<MISSING>","彩雲邨","九龍牛池灣清水灣道45號彩雲邨彩雲商場第二期地下上層A104及A115號店","<MISSING>","<MISSING>","<MISSING>","<MISSING>","<MISSING>","27775288","彩雲邨","22.3337874","114.2147761","mcdonalds.com.hk","<MISSING>","<MISSING>","location_name:latitude:longitude"
"<MISSING>","山頂廣場","2 樓 11-12 號鋪","<MISSING>","<MISSING>","<MISSING>","<MISSING>","<MISSING>","28496379","山頂廣場","22.2701512","114.1496575","mcdonalds.com.hk","<MISSING>","<MISSING>","location_name:latitude:longitude"
"<MISSING>","新都會廣場","541號舖","<MISSING>","<MISSING>","<MISSING>","<MISSING>","<MISSING>","24224134","新都會廣場","22.3574957","114.1269292","mcdonalds.com.hk","<MISSING>","<MISSING>","location_name:latitude:longitude"
"<MISSING>","榮芳路","1-5號地下舖 芳路","<MISSING>","<MISSING>","<MISSING>","<MISSING>","<MISSING>","24949167","榮芳路","22.3600976","114.1284385","mcdonalds.com.hk","<MISSING>","<MISSING>","location_name:latitude:longitude"
"<MISSING>","成城大廈","90-114號 地下 9&10舖","<MISSING>","<MISSING>","<MISSING>","<MISSING>","<MISSING>","24232122","成城大廈","22.3677479","114.1392549","mcdonalds.com.hk","<MISSING>","<MISSING>","location_name:latitude:longitude"
"<MISSING>","景光街","19-21號 景光街","<MISSING>","<MISSING>","<MISSING>","<MISSING>","<MISSING>","28920197","景光街","22.2688005","114.184877","mcdonalds.com.hk","<MISSING>","<MISSING>","location_name:latitude:longitude"
"<MISSING>","德昌大廈","3號舖 葵涌葵涌道1001號","<MISSING>","<MISSING>","<MISSING>","<MISSING>","<MISSING>","27854939","德昌大廈","22.3672988","114.1332523","mcdonalds.com.hk","<MISSING>","<MISSING>","location_name:latitude:longitude"
"<MISSING>","The Wave","102 號舖 興業街4 號1 樓","<MISSING>","<MISSING>","<MISSING>","<MISSING>","<MISSING>","27203703","The Wave","22.309603","114.2245146","mcdonalds.com.hk","<MISSING>","<MISSING>","location_name:latitude:longitude"
"<MISSING>","大圍","1 樓 地下1 號鋪及","<MISSING>","<MISSING>","<MISSING>","<MISSING>","<MISSING>","26089197","大圍","22.3755951","114.1774669","mcdonalds.com.hk","<MISSING>","<MISSING>","location_name:latitude:longitude"
"<MISSING>","柏蕙苑","鰂魚涌英皇道1060號柏蕙苑地下C舖","<MISSING>","<MISSING>","<MISSING>","<MISSING>","<MISSING>","28809603","柏蕙苑","22.2844839","114.2130927","mcdonalds.com.hk","<MISSING>","<MISSING>","location_name:latitude:longitude"
"<MISSING>","秦石邨","8-9號舖 盛田街","<MISSING>","<MISSING>","<MISSING>","<MISSING>","<MISSING>","25275195","秦石邨","22.3731526","114.186758","mcdonalds.com.hk","<MISSING>","<MISSING>","location_name:latitude:longitude"
"<MISSING>","鱷魚恤中心","2 3A & 3B號舖 道","<MISSING>","<MISSING>","<MISSING>","<MISSING>","<MISSING>","23388646","鱷魚恤中心","22.3114885","114.225792","mcdonalds.com.hk","<MISSING>","<MISSING>","location_name:latitude:longitude"
"<MISSING>","順利邨","201A 號舖","<MISSING>","<MISSING>","<MISSING>","<MISSING>","<MISSING>","21749428","順利邨","22.3315374","114.225687","mcdonalds.com.hk","<MISSING>","<MISSING>","location_name:latitude:longitude"
"<MISSING>","太古城中心","505號舖","<MISSING>","<MISSING>","<MISSING>","<MISSING>","<MISSING>","29070004","太古城中心","22.286721","114.217477","mcdonalds.com.hk","<MISSING>","<MISSING>","location_name:latitude:longitude"
"<MISSING>","美林邨","96號舖","<MISSING>","<MISSING>","<MISSING>","<MISSING>","<MISSING>","26975951","美林邨","22.3781722","114.176093","mcdonalds.com.hk","<MISSING>","<MISSING>","location_name:latitude:longitude"
"<MISSING>","水泉澳邨","沙田水泉澳邨水泉澳廣場G12號舖","<MISSING>","<MISSING>","<MISSING>","<MISSING>","<MISSING>","27902526","水泉澳邨","22.3727472","114.1977853","mcdonalds.com.hk","<MISSING>","<MISSING>","location_name:latitude:longitude"
"<MISSING>","德士古道","1-9號 德士古道","荃灣","<MISSING>","<MISSING>","<MISSING>","<MISSING>","24985689","德士古道","22.3691307","114.1223247","mcdonalds.com.hk","<MISSING>","<MISSING>","location_name:latitude:longitude"
"<MISSING>","沙田中心","69A號舖 及","<MISSING>","<MISSING>","<MISSING>","<MISSING>","<MISSING>","26034161","沙田中心","22.3795063","114.1870935","mcdonalds.com.hk","<MISSING>","<MISSING>","location_name:latitude:longitude"
"<MISSING>","太安","15號 太安街","<MISSING>","<MISSING>","<MISSING>","<MISSING>","<MISSING>","29679830","太安","22.2829884","114.220962","mcdonalds.com.hk","<MISSING>","<MISSING>","location_name:latitude:longitude"
"<MISSING>","青衣商場","10號 楓樹窩路","<MISSING>","新界","<MISSING>","香港","<MISSING>","27952081","青衣商場","22.3540138","114.1035242","mcdonalds.com.hk","<MISSING>","<MISSING>","location_name:latitude:longitude"
"<MISSING>","青衣城","31 號 青敬路","<MISSING>","<MISSING>","<MISSING>","<MISSING>","<MISSING>","24364742","青衣城","22.3581433","114.1062131","mcdonalds.com.hk","<MISSING>","<MISSING>","location_name:latitude:longitude"
"<MISSING>","數碼港","1-2號","<MISSING>","<MISSING>","<MISSING>","<MISSING>","<MISSING>","27628532","數碼港","22.2606823","114.1297001","mcdonalds.com.hk","<MISSING>","<MISSING>","location_name:latitude:longitude"
"<MISSING>","匯景廣場","26號1號舖","<MISSING>","<MISSING>","<MISSING>","<MISSING>","<MISSING>","23795337","匯景廣場","22.3058291","114.2336398","mcdonalds.com.hk","<MISSING>","<MISSING>","location_name:latitude:longitude"
"<MISSING>","沙咀道","及地下 沙咀道270-276號","<MISSING>","<MISSING>","<MISSING>","<MISSING>","<MISSING>","24122134","沙咀道","22.3697529","114.1162982","mcdonalds.com.hk","<MISSING>","<MISSING>","location_name:latitude:longitude"
"<MISSING>","街市街","10-16號 荃灣街市街","<MISSING>","<MISSING>","<MISSING>","<MISSING>","<MISSING>","24930754","街市街","22.3720086","114.1166017","mcdonalds.com.hk","<MISSING>","<MISSING>","location_name:latitude:longitude"
"<MISSING>","海之戀商場","2029號舖 大河道100號","荃灣","新界","<MISSING>","<MISSING>","<MISSING>","24675221","海之戀商場","22.3680845","114.1106576","mcdonalds.com.hk","<MISSING>","<MISSING>","location_name:latitude:longitude"
"<MISSING>","荃灣廣場","511-512A號鋪 及","<MISSING>","<MISSING>","<MISSING>","<MISSING>","<MISSING>","24115973","荃灣廣場","22.3704413","114.1113744","mcdonalds.com.hk","<MISSING>","<MISSING>","location_name:latitude:longitude"
"<MISSING>","長亨邨","115-117號舖","<MISSING>","<MISSING>","<MISSING>","<MISSING>","<MISSING>","24975055","長亨邨","22.354612","114.097692","mcdonalds.com.hk","<MISSING>","<MISSING>","location_name:latitude:longitude"
"<MISSING>","長發邨","406-407號舖","<MISSING>","<MISSING>","<MISSING>","<MISSING>","<MISSING>","24338156","長發邨","22.363348","114.1029663","mcdonalds.com.hk","<MISSING>","<MISSING>","location_name:latitude:longitude"
"<MISSING>","海洋公園","香港仔海洋公園山頂小食亭","<MISSING>","<MISSING>","<MISSING>","<MISSING>","<MISSING>","25183856","海洋公園","22.2466607","114.1757239","mcdonalds.com.hk","<MISSING>","<MISSING>","location_name:latitude:longitude"
"<MISSING>","愉景新城","398號 青山公路","<MISSING>","<MISSING>","<MISSING>","<MISSING>","<MISSING>","29400759","愉景新城","22.3764012","114.111548","mcdonalds.com.hk","<MISSING>","<MISSING>","location_name:latitude:longitude"
"<MISSING>","筲箕灣東大街","159號 地下至二樓","<MISSING>","<MISSING>","<MISSING>","<MISSING>","<MISSING>","25608884","筲箕灣東大街","22.2775584","114.2303071","mcdonalds.com.hk","<MISSING>","<MISSING>","location_name:latitude:longitude"
"<MISSING>","鴨脷洲大街","165-167號 鴨脷洲大街","<MISSING>","<MISSING>","<MISSING>","<MISSING>","<MISSING>","26731619","鴨脷洲大街","22.2436381","114.153457","mcdonalds.com.hk","<MISSING>","<MISSING>","location_name:latitude:longitude"
"<MISSING>","海怡半島","12A 怡路","<MISSING>","<MISSING>","<MISSING>","<MISSING>","<MISSING>","25809762","海怡半島","22.2438301","114.1467731","mcdonalds.com.hk","<MISSING>","<MISSING>","location_name:latitude:longitude"
"<MISSING>","麗城花園","49A號 及","<MISSING>","<MISSING>","<MISSING>","<MISSING>","<MISSING>","25761399","麗城花園","22.3717174","114.1016658","mcdonalds.com.hk","<MISSING>","<MISSING>","location_name:latitude:longitude"
"<MISSING>","利東邨","212號舖","<MISSING>","<MISSING>","<MISSING>","<MISSING>","<MISSING>","28749654","利東邨","22.2409897","114.1559524","mcdonalds.com.hk","<MISSING>","<MISSING>","location_name:latitude:longitude"
"<MISSING>","杏花邨","柴灣盛泰道100號杏花邨杏花新城地下G46舖","<MISSING>","<MISSING>","<MISSING>","<MISSING>","<MISSING>","28965292","杏花邨","22.2783282","114.2386153","mcdonalds.com.hk","<MISSING>","<MISSING>","location_name:latitude:longitude"
"<MISSING>","沙田萬怡酒店","1號地下1號舖 安平街","<MISSING>","<MISSING>","<MISSING>","<MISSING>","<MISSING>","26798129","沙田萬怡酒店","22.3906135","114.2063647","mcdonalds.com.hk","<MISSING>","<MISSING>","location_name:latitude:longitude"
"<MISSING>","將軍澳中心","9 號 唐德街","西貢將軍澳","新界","<MISSING>","<MISSING>","<MISSING>","27870201","將軍澳中心","22.306968","114.257852","mcdonalds.com.hk","<MISSING>","<MISSING>","location_name:latitude:longitude"
"<MISSING>","將軍澳廣場","1 號 唐德街","將軍澳","新界","<MISSING>","<MISSING>","<MISSING>","26741217","將軍澳廣場","22.3090651","114.2624233","mcdonalds.com.hk","<MISSING>","<MISSING>","location_name:latitude:longitude"
"<MISSING>","TKO Gateway","W102號鋪 常寧路","<MISSING>","<MISSING>","<MISSING>","<MISSING>","<MISSING>","27043722","TKO Gateway","22.3172083","114.2658933","mcdonalds.com.hk","<MISSING>","<MISSING>","location_name:latitude:longitude"
"<MISSING>","富怡花園","小西灣富怡花園地下C10-C19","<MISSING>","<MISSING>","<MISSING>","<MISSING>","<MISSING>","25150314","富怡花園","22.2628253","114.2498465","mcdonalds.com.hk","<MISSING>","<MISSING>","location_name:latitude:longitude"
"<MISSING>","日出康城","號鋪 康城路 431A 4 樓","西貢","新界","<MISSING>","<MISSING>","<MISSING>","27951806","日出康城","22.2949071","114.2697138","mcdonalds.com.hk","<MISSING>","<MISSING>","location_name:latitude:longitude"
"<MISSING>","海韻花園","38 號 青山公路","荃灣","新界","<MISSING>","<MISSING>","<MISSING>","24563903","海韻花園","22.368432","114.061637","mcdonalds.com.hk","<MISSING>","<MISSING>","location_name:latitude:longitude"
"<MISSING>","赤柱廣場","赤柱佳美道23號赤柱廣場地下G02及G03號舖","<MISSING>","<MISSING>","<MISSING>","<MISSING>","<MISSING>","28130655","赤柱廣場","22.2187596","114.2096335","mcdonalds.com.hk","<MISSING>","<MISSING>","location_name:latitude:longitude"
"<MISSING>","西貢花園","1-3號舖 西貢親民街","<MISSING>","<MISSING>","<MISSING>","<MISSING>","<MISSING>","27925585","西貢花園","22.3822222","114.2713889","mcdonalds.com.hk","<MISSING>","<MISSING>","location_name:latitude:longitude"
"<MISSING>","廣福道","寶康大廈地庫 廣福道70號","<MISSING>","<MISSING>","<MISSING>","<MISSING>","<MISSING>","26538411","廣福道","22.4484573","114.1668334","mcdonalds.com.hk","<MISSING>","<MISSING>","location_name:latitude:longitude"
"<MISSING>","太和邨","102號舖","<MISSING>","<MISSING>","<MISSING>","<MISSING>","<MISSING>","26509136","太和邨","22.4506851","114.1607491","mcdonalds.com.hk","<MISSING>","<MISSING>","location_name:latitude:longitude"
"<MISSING>","昌運中心","57-66號地下 慈路","<MISSING>","<MISSING>","<MISSING>","<MISSING>","<MISSING>","26656612","昌運中心","22.4524409","114.1680317","mcdonalds.com.hk","<MISSING>","<MISSING>","location_name:latitude:longitude"
"<MISSING>","愉景灣","大嶼山愉景灣愉景灣廣場A座地下G02號舖","<MISSING>","<MISSING>","<MISSING>","<MISSING>","<MISSING>","29871033","愉景灣","22.2965503","114.0169281","mcdonalds.com.hk","<MISSING>","<MISSING>","location_name:latitude:longitude"
"<MISSING>","梅窩","地下1,3及5號舖 運路","梅窩","<MISSING>","<MISSING>","<MISSING>","<MISSING>","29841102","梅窩","22.2642074","114.0016513","mcdonalds.com.hk","<MISSING>","<MISSING>","location_name:latitude:longitude"
"<MISSING>","長洲","103號地下及 長洲新興街 一樓","<MISSING>","<MISSING>","<MISSING>","<MISSING>","<MISSING>","29817533","長洲","22.2086111","114.0286111","mcdonalds.com.hk","<MISSING>","<MISSING>","location_name:latitude:longitude"
"<MISSING>","花都廣場","91A 93-95號舖","粉嶺","新界","<MISSING>","<MISSING>","<MISSING>","26826084","花都廣場","22.4854804","114.141195","mcdonalds.com.hk","<MISSING>","<MISSING>","location_name:latitude:longitude"
"<MISSING>","黃金海岸","香港黃金海岸購物商場R6及F9地舖及露天茶座 青山公","路","新界","<MISSING>","<MISSING>","<MISSING>","24416822","黃金海岸","22.3717971","113.9894773","mcdonalds.com.hk","<MISSING>","<MISSING>","location_name:latitude:longitude"
"<MISSING>","碧湖花園商場","34B號舖 層 Ug樓","粉嶺","新界","<MISSING>","<MISSING>","<MISSING>","25281092","碧湖花園商場","22.4877231","114.1427277","mcdonalds.com.hk","<MISSING>","<MISSING>","location_name:latitude:longitude"
"<MISSING>","形點","8號 日路","<MISSING>","<MISSING>","<MISSING>","<MISSING>","<MISSING>","25205377","形點","22.4457587","114.0352248","mcdonalds.com.hk","<MISSING>","<MISSING>","location_name:latitude:longitude"
"<MISSING>","粉嶺","22號舖","<MISSING>","<MISSING>","<MISSING>","<MISSING>","<MISSING>","26765792","粉嶺","22.4918335","114.1401071","mcdonalds.com.hk","<MISSING>","<MISSING>","location_name:latitude:longitude"
"<MISSING>","教育路","9-13號 地下1&11舖","<MISSING>","<MISSING>","<MISSING>","<MISSING>","<MISSING>","24430738","教育路","22.4427108","114.0275937","mcdonalds.com.hk","<MISSING>","<MISSING>","location_name:latitude:longitude"
"<MISSING>","元朗廣場","元朗 青山公路元朗廣場地下071-078號鋪","<MISSING>","<MISSING>","<MISSING>","<MISSING>","<MISSING>","24783431","元朗廣場","22.4448907","114.0239001","mcdonalds.com.hk","<MISSING>","<MISSING>","location_name:latitude:longitude"
"<MISSING>","朗屏邨","1樓 L116號鋪","<MISSING>","<MISSING>","<MISSING>","<MISSING>","<MISSING>","24508700","朗屏邨","22.4502264","114.0232217","mcdonalds.com.hk","<MISSING>","<MISSING>","location_name:latitude:longitude"
"<MISSING>","安定邨","1樓A-144號舖","<MISSING>","<MISSING>","<MISSING>","<MISSING>","<MISSING>","24307699","安定邨","22.3878435","113.9752328","mcdonalds.com.hk","<MISSING>","<MISSING>","location_name:latitude:longitude"
"<MISSING>","新豐路","地下 新豐路","<MISSING>","<MISSING>","<MISSING>","<MISSING>","<MISSING>","26703509","新豐路","22.5040809","114.1265869","mcdonalds.com.hk","<MISSING>","<MISSING>","location_name:latitude:longitude"
"<MISSING>","景峰花園","2號 景峰徑","<MISSING>","<MISSING>","<MISSING>","<MISSING>","<MISSING>","24412180","景峰花園","22.4032393","113.9797899","mcdonalds.com.hk","<MISSING>","<MISSING>","location_name:latitude:longitude"
"<MISSING>","鄉事會道","280號 河傍街","<MISSING>","<MISSING>","<MISSING>","<MISSING>","<MISSING>","24504721","鄉事會道","22.3988352","113.9750672","mcdonalds.com.hk","<MISSING>","<MISSING>","location_name:latitude:longitude"
"<MISSING>","洪福邨","洪福邨洪福商場地下1號鋪 洪水橋田心路","<MISSING>","<MISSING>","<MISSING>","<MISSING>","<MISSING>","24570313","洪福邨","22.4366712","113.9982189","mcdonalds.com.hk","<MISSING>","<MISSING>","location_name:latitude:longitude"
"<MISSING>","蝴蝶邨","1號 湖翠路","屯門","新界","<MISSING>","<MISSING>","<MISSING>","24637410","蝴蝶邨","22.3752484","113.9630632","mcdonalds.com.hk","<MISSING>","<MISSING>","location_name:latitude:longitude"
"<MISSING>","大興邨","1號 大興街","<MISSING>","<MISSING>","<MISSING>","<MISSING>","<MISSING>","22346011","大興邨","22.3993642","113.9718627","mcdonalds.com.hk","<MISSING>","<MISSING>","location_name:latitude:longitude"
"<MISSING>","兆康苑","109號舖","<MISSING>","<MISSING>","<MISSING>","<MISSING>","<MISSING>","24649297","兆康苑","22.4127","113.978182","mcdonalds.com.hk","<MISSING>","<MISSING>","location_name:latitude:longitude"
"<MISSING>","天耀邨","天水圍天耀邨天耀商場地下L011號舖","<MISSING>","<MISSING>","<MISSING>","<MISSING>","<MISSING>","24460375","天耀邨","22.4514115","114.0028642","mcdonalds.com.hk","<MISSING>","<MISSING>","location_name:latitude:longitude"
"<MISSING>","嘉湖","嘉湖1期地下57 A C號舖","天水圍","新界","<MISSING>","<MISSING>","<MISSING>","26174329","嘉湖","22.4572699","114.0037781","mcdonalds.com.hk","<MISSING>","<MISSING>","location_name:latitude:longitude"
"<MISSING>","天瑞邨","天水圍天瑞邨天瑞商場地下一號舖","<MISSING>","<MISSING>","<MISSING>","<MISSING>","<MISSING>","24458365","天瑞邨","22.4561072","113.9984839","mcdonalds.com.hk","<MISSING>","<MISSING>","location_name:latitude:longitude"
"<MISSING>","良景邨","328A號舖 212A 及","屯門","新界","<MISSING>","<MISSING>","<MISSING>","24673956","良景邨","22.4063434","113.9627991","mcdonalds.com.hk","<MISSING>","<MISSING>","location_name:latitude:longitude"
"<MISSING>","天一商城","8號 天秀路","<MISSING>","<MISSING>","<MISSING>","<MISSING>","<MISSING>","27599439","天一商城","22.4647433","114.0030365","mcdonalds.com.hk","<MISSING>","<MISSING>","location_name:latitude:longitude"
"<MISSING>","T Town南館","2樓S206號舖","<MISSING>","<MISSING>","<MISSING>","<MISSING>","<MISSING>","22530291","T Town南館","22.4622193","113.9980862","mcdonalds.com.hk","<MISSING>","<MISSING>","location_name:latitude:longitude"
"<MISSING>","俊宏軒","88號 元朗天瑞路","<MISSING>","<MISSING>","<MISSING>","<MISSING>","<MISSING>","28115481","俊宏軒","22.469012","114.002131","mcdonalds.com.hk","<MISSING>","<MISSING>","location_name:latitude:longitude"
"<MISSING>","機場離境大堂","1號 航路","暢","<MISSING>","<MISSING>","香港","<MISSING>","22610426","機場離境大堂","22.3149715","113.9340063","mcdonalds.com.hk","<MISSING>","<MISSING>","location_name:latitude:longitude"
"<MISSING>","家維邨","46-48號 馬頭","<MISSING>","<MISSING>","<MISSING>","<MISSING>","<MISSING>","29945909","家維邨","12.912146","77.6379503","mcdonalds.com.hk","<MISSING>","<MISSING>","location_name:latitude:longitude"