"locator_domain","location_name","street_address","city","state","zip","country_code","store_number","phone","location_type","latitude","longitude","hours_of_operation","page_url"
"https://www.bostonmarket.com/","Boston Market Restaurant in Chandler, AZ","1010 N. Alma School Road","Chandler","AZ","85224","US","880","(480) 786-3535","Restaurant","33.321135689387084","-111.8597700620353","Mon 11:00 AM - 9:00 PM Tues 11:00 AM - 9:00 PM Wed 11:00 AM - 9:00 PM Thu 11:00 AM - 9:00 PM Fri 11:00 AM - 9:00 PM Sat 11:00 AM - 9:00 PM Sun 11:00 AM - 9:00 PM","https://www.bostonmarket.com/location/az/chandler/1010-n-alma-school-road"
"https://www.bostonmarket.com/","Boston Market Restaurant in Glendale, AZ","5825 W. Peoria Ave.","Glendale","AZ","85302","US","2407","(623) 915-2900","Restaurant","33.58149855939267","-112.1842496879799","Mon 11:00 AM - 8:00 PM Tues 11:00 AM - 8:00 PM Wed 11:00 AM - 8:00 PM Thu 11:00 AM - 8:00 PM Fri 11:00 AM - 8:00 PM Sat 11:00 AM - 8:00 PM Sun 11:00 AM - 8:00 PM","https://www.bostonmarket.com/location/az/glendale/5825-w-peoria-ave"
"https://www.bostonmarket.com/","Boston Market Restaurant in Glendale, AZ","6665 W. Bell Rd.","Glendale","AZ","85306","US","282","(623) 979-4949","Restaurant","33.6378134882728","-112.20189580324586","Mon 12:00 PM - 8:00 PM Tues 12:00 PM - 8:00 PM Wed 12:00 PM - 8:00 PM Thu 12:00 PM - 8:00 PM Fri 12:00 PM - 8:00 PM Sat 12:00 PM - 8:00 PM Sun 12:00 PM - 8:00 PM","https://www.bostonmarket.com/location/az/glendale/6665-w-bell-rd"
"https://www.bostonmarket.com/","Boston Market Restaurant in Phoenix, AZ","236 East Bell Road","Phoenix","AZ","85022","US","698","(602) 866-3311","Restaurant","33.64075405181823","-112.07030603534577","Mon 11:00 AM - 9:00 PM Tues 11:00 AM - 9:00 PM Wed 11:00 AM - 9:00 PM Thu 11:00 AM - 9:00 PM Fri 11:00 AM - 9:00 PM Sat 11:00 AM - 9:00 PM Sun 11:00 AM - 9:00 PM","https://www.bostonmarket.com/location/az/phoenix/236-east-bell-road"
"https://www.bostonmarket.com/","Boston Market Restaurant in Phoenix, AZ","8001 N. 19th Ave.","Phoenix","AZ","85021","US","272","(602) 944-7000","Restaurant","33.55345824892467","-112.09924304730293","Mon 12:00 PM - 8:00 PM Tues 12:00 PM - 8:00 PM Wed 12:00 PM - 8:00 PM Thu 12:00 PM - 8:00 PM Fri 12:00 PM - 8:00 PM Sat 12:00 PM - 8:00 PM Sun 12:00 PM - 8:00 PM","https://www.bostonmarket.com/location/az/phoenix/8001-n-19th-ave"
"https://www.bostonmarket.com/","Boston Market Restaurant in Scottsdale, AZ","15784 North Frank Lloyd Wright Blvd.","Scottsdale","AZ","85260","US","1137","(480) 614-9744","Restaurant","33.62918068681692","-111.8890605159504","Mon 11:00 AM - 8:00 PM Tues 11:00 AM - 8:00 PM Wed 11:00 AM - 8:00 PM Thu 11:00 AM - 8:00 PM Fri 11:00 AM - 8:00 PM Sat 11:00 AM - 8:00 PM Sun 11:00 AM - 8:00 PM","https://www.bostonmarket.com/location/az/scottsdale/15784-north-frank-lloyd-wright-blvd"
"https://www.bostonmarket.com/","Boston Market Restaurant in Scottsdale, AZ","2712 N. Scottsdale Road","Scottsdale","AZ","85251","US","918","(480) 949-6689","Restaurant","33.4781081","-111.9266284","Mon 12:00 PM - 8:00 PM Tues 12:00 PM - 8:00 PM Wed 12:00 PM - 8:00 PM Thu 12:00 PM - 8:00 PM Fri 12:00 PM - 8:00 PM Sat 12:00 PM - 8:00 PM Sun 12:00 PM - 8:00 PM","https://www.bostonmarket.com/location/az/scottsdale/2712-n-scottsdale-road"
"https://www.bostonmarket.com/","Boston Market Restaurant in Scottsdale, AZ","7127 East Shea Blvd Inside Kitchen United Mix","Scottsdale","AZ","85254","US","3525","(480) 562-6134","Restaurant","33.58089097417347","-111.92740181056516","Mon 11:00 AM - 8:00 PM Tues 11:00 AM - 8:00 PM Wed 11:00 AM - 8:00 PM Thu 11:00 AM - 8:00 PM Fri 11:00 AM - 8:00 PM Sat 11:00 AM - 8:00 PM Sun 11:00 AM - 8:00 PM","https://www.bostonmarket.com/location/az/scottsdale/7127-east-shea-blvd"
"https://www.bostonmarket.com/","Boston Market Restaurant in Tempe, AZ","3435 S. McClintock Dr.","Tempe","AZ","85282","US","426","(480) 831-8822","Restaurant","33.391255651236854","-111.90883979201317","Mon 12:00 PM - 8:00 PM Tues 12:00 PM - 8:00 PM Wed 12:00 PM - 8:00 PM Thu 12:00 PM - 8:00 PM Fri 12:00 PM - 8:00 PM Sat 12:00 PM - 8:00 PM Sun 12:00 PM - 8:00 PM","https://www.bostonmarket.com/location/az/tempe/3435-s-mcclintock-dr"
"https://www.bostonmarket.com/","Boston Market Restaurant in Costa Mesa, CA","2799 Harbor Boulevard","Costa Mesa","CA","92626","US","969","(714) 437-0034","Restaurant","33.67300262213828","-117.91966609192059","Mon 11:00 AM - 8:00 PM Tues 11:00 AM - 8:00 PM Wed 11:00 AM - 8:00 PM Thu 11:00 AM - 8:00 PM Fri 11:00 AM - 8:00 PM Sat 11:00 AM - 8:00 PM Sun 11:00 AM - 8:00 PM","https://www.bostonmarket.com/location/ca/costa-mesa/2799-harbor-boulevard"
"https://www.bostonmarket.com/","Boston Market Restaurant in Daly City, CA","332 Gellert Boulevard","Daly City","CA","94015","US","1384","(650) 755-3700","Restaurant","37.6675800492388","-122.46923245870221","Mon 11:00 AM - 8:00 PM Tues 11:00 AM - 8:00 PM Wed 11:00 AM - 8:00 PM Thu 11:00 AM - 8:00 PM Fri 11:00 AM - 8:00 PM Sat 11:00 AM - 8:00 PM Sun 11:00 AM - 8:00 PM","https://www.bostonmarket.com/location/ca/daly-city/332-gellert-boulevard"
"https://www.bostonmarket.com/","Boston Market Restaurant in Downey, CA","8606 Firestone Blvd.","Downey","CA","90241","US","1551","(562) 923-5247","Restaurant","33.936921278827185","-118.12763929367065","Mon 11:00 AM - 9:00 PM Tues 11:00 AM - 9:00 PM Wed 11:00 AM - 9:00 PM Thu 11:00 AM - 9:00 PM Fri 11:00 AM - 9:00 PM Sat 11:00 AM - 9:00 PM Sun 11:00 AM - 9:00 PM","https://www.bostonmarket.com/location/ca/downey/8606-firestone-blvd"
"https://www.bostonmarket.com/","Boston Market Restaurant in El Cajon, CA","706 Fletcher Parkway","El Cajon","CA","92020","US","735","(619) 447-6669","Restaurant","32.80818589203263","-116.97144761681557","Mon 11:00 AM - 8:00 PM Tues 11:00 AM - 8:00 PM Wed 11:00 AM - 8:00 PM Thu 11:00 AM - 8:00 PM Fri 11:00 AM - 8:00 PM Sat 11:00 AM - 8:00 PM Sun 11:00 AM - 8:00 PM","https://www.bostonmarket.com/location/ca/el-cajon/706-fletcher-parkway"
"https://www.bostonmarket.com/","Boston Market Restaurant in Fremont, CA","3966 Mowry Avenue","Fremont","CA","94538","US","994","(510) 791-1191","Restaurant","37.5487624","-121.9877301","Mon 12:00 PM - 8:00 PM Tues 12:00 PM - 8:00 PM Wed 12:00 PM - 8:00 PM Thu 12:00 PM - 8:00 PM Fri 12:00 PM - 8:00 PM Sat 12:00 PM - 8:00 PM Sun 12:00 PM - 8:00 PM","https://www.bostonmarket.com/location/ca/fremont/3966-mowry-avenue"
"https://www.bostonmarket.com/","Boston Market Restaurant in Fresno, CA","110 E. Bullard","Fresno","CA","93711","US","510","(559) 436-4455","Restaurant","36.8232639","-119.7880431","Mon 12:00 PM - 8:00 PM Tues 12:00 PM - 8:00 PM Wed 12:00 PM - 8:00 PM Thu 12:00 PM - 8:00 PM Fri 12:00 PM - 8:00 PM Sat 12:00 PM - 8:00 PM Sun 12:00 PM - 8:00 PM","https://www.bostonmarket.com/location/ca/fresno/110-e-bullard"
"https://www.bostonmarket.com/","Boston Market Restaurant in Fresno, CA","637 E. Nees","Fresno","CA","93720","US","671","(559) 440-0500","Restaurant","36.8516136349689","-119.77409580594895","Mon 11:00 AM - 8:00 PM Tues 11:00 AM - 8:00 PM Wed 11:00 AM - 8:00 PM Thu 11:00 AM - 8:00 PM Fri 11:00 AM - 8:00 PM Sat 11:00 AM - 8:00 PM Sun 11:00 AM - 8:00 PM","https://www.bostonmarket.com/location/ca/fresno/637-e-nees"
"https://www.bostonmarket.com/","Boston Market Restaurant in Huntington Beach, CA","16972 Goldenwest Street","Huntington Beach","CA","92647","US","647","(714) 841-3511","Restaurant","33.715984284276765","-118.00615534186363","Mon 12:00 PM - 8:00 PM Tues 12:00 PM - 8:00 PM Wed 12:00 PM - 8:00 PM Thu 12:00 PM - 8:00 PM Fri 12:00 PM - 8:00 PM Sat 12:00 PM - 8:00 PM Sun 12:00 PM - 8:00 PM","https://www.bostonmarket.com/location/ca/huntington-beach/16972-goldenwest-street"
"https://www.bostonmarket.com/","Boston Market Restaurant in Laguna Niguel, CA","27100 Alicia Parkway","Laguna Niguel","CA","92677","US","873","(949) 360-9860","Restaurant","33.56926912885298","-117.71431887394783","Mon 11:00 AM - 8:00 PM Tues 11:00 AM - 8:00 PM Wed 11:00 AM - 8:00 PM Thu 11:00 AM - 8:00 PM Fri 11:00 AM - 8:00 PM Sat 11:00 AM - 8:00 PM Sun 11:00 AM - 8:00 PM","https://www.bostonmarket.com/location/ca/laguna-niguel/27100-alicia-parkway"
"https://www.bostonmarket.com/","Boston Market Restaurant in Lawndale, CA","17100 Hawthorne Blvd.","Lawndale","CA","90260","US","1050","(310) 214-3318","Restaurant","33.87550760500946","-118.35212879267601","Mon 12:00 PM - 8:00 PM Tues 12:00 PM - 8:00 PM Wed 12:00 PM - 8:00 PM Thu 12:00 PM - 8:00 PM Fri 12:00 PM - 8:00 PM Sat 12:00 PM - 8:00 PM Sun 12:00 PM - 8:00 PM","https://www.bostonmarket.com/location/ca/lawndale/17100-hawthorne-blvd"
"https://www.bostonmarket.com/","Boston Market Restaurant in Monterey Park, CA","2020 Atlantic Blvd.","Monterey Park","CA","91754","US","664","(323) 887-7500","Restaurant","34.04028165271739","-118.14197027928742","Mon 11:00 AM - 7:00 PM Tues 11:00 AM - 7:00 PM Wed 11:00 AM - 7:00 PM Thu 11:00 AM - 7:00 PM Fri 11:00 AM - 7:00 PM Sat 11:00 AM - 7:00 PM Sun 11:00 AM - 7:00 PM","https://www.bostonmarket.com/location/ca/monterey-park/2020-atlantic-blvd"
"https://www.bostonmarket.com/","Boston Market Restaurant in Oakland, CA","3060 East 9th Street Suite E","Oakland","CA","94601","US","2288","(510) 261-1995","Restaurant","37.7743078","-122.2299451","Mon 11:00 AM - 8:00 PM Tues 11:00 AM - 8:00 PM Wed 11:00 AM - 8:00 PM Thu 11:00 AM - 8:00 PM Fri 11:00 AM - 8:00 PM Sat 11:00 AM - 8:00 PM Sun 11:00 AM - 8:00 PM","https://www.bostonmarket.com/location/ca/oakland/3060-east-9th-street"
"https://www.bostonmarket.com/","Boston Market Restaurant in Oakland, CA","5132 Broadway Suite C101","Oakland","CA","94611","US","1297","(510) 601-0300","Restaurant","37.8338083","-122.2494392","Mon 12:00 PM - 8:00 PM Tues 12:00 PM - 8:00 PM Wed 12:00 PM - 8:00 PM Thu 12:00 PM - 8:00 PM Fri 12:00 PM - 8:00 PM Sat 12:00 PM - 8:00 PM Sun 12:00 PM - 8:00 PM","https://www.bostonmarket.com/location/ca/oakland/5132-broadway"
"https://www.bostonmarket.com/","Boston Market Restaurant in Pleasant Hill, CA","2180 Contra Costa Blvd.","Pleasant Hill","CA","94523","US","1961","(925) 691-5900","Restaurant","37.9463365","-122.0600198","Mon 12:00 PM - 8:00 PM Tues 12:00 PM - 8:00 PM Wed 12:00 PM - 8:00 PM Thu 12:00 PM - 8:00 PM Fri 12:00 PM - 8:00 PM Sat 12:00 PM - 8:00 PM Sun 12:00 PM - 8:00 PM","https://www.bostonmarket.com/location/ca/pleasant-hill/2180-contra-costa-blvd"
"https://www.bostonmarket.com/","Boston Market Restaurant in Rancho Cucamonga, CA","10890 Foothill Blvd.","Rancho Cucamonga","CA","91730","US","842","(909) 989-1252","Restaurant","34.10691002682252","-117.56732382260907","Mon 12:00 PM - 8:00 PM Tues 12:00 PM - 8:00 PM Wed 12:00 PM - 8:00 PM Thu 12:00 PM - 8:00 PM Fri 12:00 PM - 8:00 PM Sat 12:00 PM - 8:00 PM Sun 12:00 PM - 8:00 PM","https://www.bostonmarket.com/location/ca/rancho-cucamonga/10890-foothill-blvd"
"https://www.bostonmarket.com/","Boston Market Restaurant in Roseville, CA","5003 Foothills Blvd.","Roseville","CA","95747","US","578","(916) 783-9300","Restaurant","38.7595808","-121.3094226","Mon 12:00 PM - 8:00 PM Tues 12:00 PM - 8:00 PM Wed 12:00 PM - 8:00 PM Thu 12:00 PM - 8:00 PM Fri 12:00 PM - 8:00 PM Sat 12:00 PM - 8:00 PM Sun 12:00 PM - 8:00 PM","https://www.bostonmarket.com/location/ca/roseville/5003-foothills-blvd"
"https://www.bostonmarket.com/","Boston Market Restaurant in Sacramento, CA","2300 Fair Oaks Blvd.","Sacramento","CA","95825","US","454","(916) 568-6300","Restaurant","38.573926","-121.410728","Mon 11:00 AM - 9:00 PM Tues 11:00 AM - 9:00 PM Wed 11:00 AM - 9:00 PM Thu 11:00 AM - 9:00 PM Fri 11:00 AM - 9:00 PM Sat 11:00 AM - 9:00 PM Sun 11:00 AM - 9:00 PM","https://www.bostonmarket.com/location/ca/sacramento/2300-fair-oaks-blvd"
"https://www.bostonmarket.com/","Boston Market Restaurant in San Diego, CA","5502 Balboa Ave","San Diego","CA","92111","US","1333","(858) 292-0099","Restaurant","32.820077466085166","-117.18166400493828","Mon 12:00 PM - 8:00 PM Tues 12:00 PM - 8:00 PM Wed 12:00 PM - 8:00 PM Thu 12:00 PM - 8:00 PM Fri 12:00 PM - 8:00 PM Sat 12:00 PM - 8:00 PM Sun 12:00 PM - 8:00 PM","https://www.bostonmarket.com/location/ca/san-diego/5502-balboa-ave"
"https://www.bostonmarket.com/","Boston Market Restaurant in San Dimas, CA","952 W Arrow Highway","San Dimas","CA","91773","US","1121","(909) 592-7003","Restaurant","34.1063218","-117.8265186","Mon 12:00 PM - 8:00 PM Tues 12:00 PM - 8:00 PM Wed 12:00 PM - 8:00 PM Thu 12:00 PM - 8:00 PM Fri 12:00 PM - 8:00 PM Sat 12:00 PM - 8:00 PM Sun 12:00 PM - 8:00 PM","https://www.bostonmarket.com/location/ca/san-dimas/952-w-arrow-highway"
"https://www.bostonmarket.com/","Boston Market Restaurant in San Jose, CA","1554 S. Bascom Avenue","San Jose","CA","95125","US","1334","(408) 369-7900","Restaurant","37.2950075","-121.9313557","Mon 12:00 PM - 8:00 PM Tues 12:00 PM - 8:00 PM Wed 12:00 PM - 8:00 PM Thu 12:00 PM - 8:00 PM Fri 12:00 PM - 8:00 PM Sat 12:00 PM - 8:00 PM Sun 12:00 PM - 8:00 PM","https://www.bostonmarket.com/location/ca/san-jose/1554-s-bascom-avenue"
"https://www.bostonmarket.com/","Boston Market Restaurant in San Jose, CA","880 Blossom Hill Road","San Jose","CA","95123","US","1126","(408) 972-8900","Restaurant","37.249873009988754","-121.85950800776482","Mon 12:00 PM - 8:00 PM Tues 12:00 PM - 8:00 PM Wed 12:00 PM - 8:00 PM Thu 12:00 PM - 8:00 PM Fri 12:00 PM - 8:00 PM Sat 12:00 PM - 8:00 PM Sun 12:00 PM - 8:00 PM","https://www.bostonmarket.com/location/ca/san-jose/880-blossom-hill-road"
"https://www.bostonmarket.com/","Boston Market Restaurant in Santa Clara, CA","2006 El Camino Real","Santa Clara","CA","95050","US","1300","(408) 247-7333","Restaurant","37.3519955","-121.9610933","Mon 11:00 AM - 8:00 PM Tues 11:00 AM - 8:00 PM Wed 11:00 AM - 8:00 PM Thu 11:00 AM - 8:00 PM Fri 11:00 AM - 8:00 PM Sat 11:00 AM - 8:00 PM Sun 11:00 AM - 8:00 PM","https://www.bostonmarket.com/location/ca/santa-clara/2006-el-camino-real"
"https://www.bostonmarket.com/","Boston Market Restaurant in Van Nuys, CA","14480 Sherman Way","Van Nuys","CA","91405","US","631","(818) 994-0700","Restaurant","34.20096297414555","-118.44853703679291","Mon 12:00 PM - 8:00 PM Tues 12:00 PM - 8:00 PM Wed 12:00 PM - 8:00 PM Thu 12:00 PM - 8:00 PM Fri 12:00 PM - 8:00 PM Sat 12:00 PM - 8:00 PM Sun 12:00 PM - 8:00 PM","https://www.bostonmarket.com/location/ca/van-nuys/14480-sherman-way"
"https://www.bostonmarket.com/","Boston Market Restaurant in Aurora, CO","14110 E. Illiff Ave.","Aurora","CO","80014","US","1755","(303) 755-4032","Restaurant","39.67402800383176","-104.82353517658112","Mon 12:00 PM - 7:00 PM Tues 12:00 PM - 7:00 PM Wed 12:00 PM - 7:00 PM Thu 12:00 PM - 7:00 PM Fri 12:00 PM - 7:00 PM Sat 12:00 PM - 7:00 PM Sun 12:00 PM - 7:00 PM","https://www.bostonmarket.com/location/co/aurora/14110-e-illiff-ave"
"https://www.bostonmarket.com/","Boston Market Restaurant in Colorado Springs, CO","1015 N. Academy Blvd.","Colorado Springs","CO","80909","US","375","(719) 573-1901","Restaurant","38.8475573","-104.7564243","Mon 12:00 PM - 8:00 PM Tues 12:00 PM - 8:00 PM Wed 12:00 PM - 8:00 PM Thu 12:00 PM - 8:00 PM Fri 12:00 PM - 8:00 PM Sat 12:00 PM - 8:00 PM Sun 12:00 PM - 8:00 PM","https://www.bostonmarket.com/location/co/colorado-springs/1015-n-academy-blvd"
"https://www.bostonmarket.com/","Boston Market Restaurant in Ft Carson, CO","6110 Martinez St","Ft Carson","CO","80913","US","4116","(719) 576-5661","Restaurant","38.737459","-104.795493","Mon 11:00 AM - 7:00 PM Tues 11:00 AM - 7:00 PM Wed 11:00 AM - 7:00 PM Thu 11:00 AM - 7:00 PM Fri 11:00 AM - 7:00 PM Sat 11:00 AM - 7:00 PM Sun 11:00 AM - 7:00 PM","https://www.bostonmarket.com/location/co/ft-carson/6110-martinez-st"
"https://www.bostonmarket.com/","Boston Market Restaurant in Littleton, CO","8500 W. Crestline Ave.","Littleton","CO","80123","US","218","(303) 979-4919","Restaurant","39.61806235453071","-105.09184196591377","Mon 11:00 AM - 8:00 PM Tues 11:00 AM - 8:00 PM Wed 11:00 AM - 8:00 PM Thu 11:00 AM - 8:00 PM Fri 11:00 AM - 8:00 PM Sat 11:00 AM - 8:00 PM Sun 11:00 AM - 8:00 PM","https://www.bostonmarket.com/location/co/littleton/8500-w-crestline-ave"
"https://www.bostonmarket.com/","Boston Market Restaurant in Westminster, CO","9269 Sheridan Blvd.","Westminster","CO","80031","US","498","(303) 426-9110","Restaurant","39.86577089998016","-105.05385853730786","Mon 12:00 PM - 8:00 PM Tues 12:00 PM - 8:00 PM Wed 12:00 PM - 8:00 PM Thu 12:00 PM - 8:00 PM Fri 12:00 PM - 8:00 PM Sat 12:00 PM - 8:00 PM Sun 12:00 PM - 8:00 PM","https://www.bostonmarket.com/location/co/westminster/9269-sheridan-blvd"
"https://www.bostonmarket.com/","Boston Market Restaurant in Wheat Ridge, CO","3820 N. Wadsworth Blvd.","Wheat Ridge","CO","80033","US","1182","(303) 420-3444","Restaurant","39.770122889879424","-105.08077182252237","Mon 11:00 AM - 8:00 PM Tues 11:00 AM - 8:00 PM Wed 11:00 AM - 8:00 PM Thu 11:00 AM - 8:00 PM Fri 11:00 AM - 8:00 PM Sat 11:00 AM - 8:00 PM Sun 11:00 AM - 8:00 PM","https://www.bostonmarket.com/location/co/wheat-ridge/3820-n-wadsworth-blvd"
"https://www.bostonmarket.com/","Boston Market Restaurant in Bloomfield, CT","417 Cottage Grove Rd.","Bloomfield","CT","06002","US","701","(860) 243-3400","Restaurant","41.81760502381069","-72.71628150347169","Mon 12:00 PM - 8:00 PM Tues 12:00 PM - 8:00 PM Wed 12:00 PM - 8:00 PM Thu 12:00 PM - 8:00 PM Fri 12:00 PM - 8:00 PM Sat 12:00 PM - 8:00 PM Sun 12:00 PM - 8:00 PM","https://www.bostonmarket.com/location/ct/bloomfield/417-cottage-grove-rd"
"https://www.bostonmarket.com/","Boston Market Restaurant in Bristol, CT","45 Farmington Ave","Bristol","CT","06010","US","700","(860) 314-0102","Restaurant","41.6836288","-72.9411765","Mon 12:00 PM - 8:00 PM Tues 12:00 PM - 8:00 PM Wed 12:00 PM - 8:00 PM Thu 12:00 PM - 8:00 PM Fri 12:00 PM - 8:00 PM Sat 12:00 PM - 8:00 PM Sun 12:00 PM - 8:00 PM","https://www.bostonmarket.com/location/ct/bristol/45-farmington-ave"
"https://www.bostonmarket.com/","Boston Market Restaurant in Danbury, CT","61 Newtown Road","Danbury","CT","06810","US","56","(203) 792-4868","Restaurant","41.405074431185206","-73.4182915091514","Mon 12:00 PM - 8:00 PM Tues 12:00 PM - 8:00 PM Wed 12:00 PM - 8:00 PM Thu 12:00 PM - 8:00 PM Fri 12:00 PM - 8:00 PM Sat 12:00 PM - 8:00 PM Sun 12:00 PM - 8:00 PM","https://www.bostonmarket.com/location/ct/danbury/61-newtown-road"
"https://www.bostonmarket.com/","Boston Market Restaurant in East Haven, CT","96 Frontage Rd.","East Haven","CT","06512","US","672","(203) 467-4472","Restaurant","41.28623007504631","-72.88139292601039","Mon 12:00 PM - 8:00 PM Tues 12:00 PM - 8:00 PM Wed 12:00 PM - 8:00 PM Thu 12:00 PM - 8:00 PM Fri 12:00 PM - 8:00 PM Sat 12:00 PM - 8:00 PM Sun 12:00 PM - 8:00 PM","https://www.bostonmarket.com/location/ct/east-haven/96-frontage-rd"
"https://www.bostonmarket.com/","Boston Market Restaurant in Milford, CT","1454 Boston Post Road Unit 60","Milford","CT","06460","US","1786","(203) 878-4500","Restaurant","41.24274050746022","-73.03160749752351","Mon 12:00 PM - 8:00 PM Tues 12:00 PM - 8:00 PM Wed 12:00 PM - 8:00 PM Thu 12:00 PM - 8:00 PM Fri 12:00 PM - 8:00 PM Sat 12:00 PM - 8:00 PM Sun 12:00 PM - 8:00 PM","https://www.bostonmarket.com/location/ct/milford/1454-boston-post-road"
"https://www.bostonmarket.com/","Boston Market Restaurant in Newington, CT","2495 Berlin Tpke","Newington","CT","06111","US","596","(860) 665-7542","Restaurant","41.684038350380405","-72.71011994050241","Mon 12:00 PM - 8:00 PM Tues 12:00 PM - 8:00 PM Wed 12:00 PM - 8:00 PM Thu 12:00 PM - 8:00 PM Fri 12:00 PM - 8:00 PM Sat 12:00 PM - 8:00 PM Sun 12:00 PM - 8:00 PM","https://www.bostonmarket.com/location/ct/newington/2495-berlin-tpke"
"https://www.bostonmarket.com/","Boston Market Restaurant in Old Greenwich, CT","1345 E. Putnam Avenue","Old Greenwich","CT","06870","US","92","(203) 637-4088","Restaurant","41.044261682825194","-73.57357665896416","Mon 12:00 PM - 8:00 PM Tues 12:00 PM - 8:00 PM Wed 12:00 PM - 8:00 PM Thu 12:00 PM - 8:00 PM Fri 12:00 PM - 8:00 PM Sat 12:00 PM - 8:00 PM Sun 12:00 PM - 8:00 PM","https://www.bostonmarket.com/location/ct/old-greenwich/1345-e-putnam-avenue"
"https://www.bostonmarket.com/","Boston Market Restaurant in Stratford, CT","935 Barnum Avenue Cut Off","Stratford","CT","06614","US","582","(203) 378-8508","Restaurant","41.198637166827695","-73.13041095437256","Mon 12:00 PM - 8:00 PM Tues 12:00 PM - 8:00 PM Wed 12:00 PM - 8:00 PM Thu 12:00 PM - 8:00 PM Fri 12:00 PM - 8:00 PM Sat 12:00 PM - 8:00 PM Sun 12:00 PM - 8:00 PM","https://www.bostonmarket.com/location/ct/stratford/935-barnum-avenue-cut-off"
"https://www.bostonmarket.com/","Boston Market Restaurant in West Hartford, CT","1240 Farmington Ave.","West Hartford","CT","06107","US","148","(860) 561-6150","Restaurant","41.7551325","-72.7663756","Mon 12:00 PM - 8:00 PM Tues 12:00 PM - 8:00 PM Wed 12:00 PM - 8:00 PM Thu 12:00 PM - 8:00 PM Fri 12:00 PM - 8:00 PM Sat 12:00 PM - 8:00 PM Sun 12:00 PM - 8:00 PM","https://www.bostonmarket.com/location/ct/west-hartford/1240-farmington-ave"
"https://www.bostonmarket.com/","Boston Market Restaurant in Wilton, CT","14 Danbury Road","Wilton","CT","06897","US","1841","(203) 834-2400","Restaurant","41.16247150400559","-73.41833040879465","Mon 12:00 PM - 8:00 PM Tues 12:00 PM - 8:00 PM Wed 12:00 PM - 8:00 PM Thu 12:00 PM - 8:00 PM Fri 12:00 PM - 8:00 PM Sat 12:00 PM - 8:00 PM Sun 12:00 PM - 8:00 PM","https://www.bostonmarket.com/location/ct/wilton/14-danbury-road"
"https://www.bostonmarket.com/","Boston Market Restaurant in Claymont, DE","3603 Philadelphia Pk.","Claymont","DE","19703","US","382","(302) 798-5300","Restaurant","39.80392250879697","-75.45631832909748","Mon 12:00 PM - 8:00 PM Tues 12:00 PM - 8:00 PM Wed 12:00 PM - 8:00 PM Thu 12:00 PM - 8:00 PM Fri 12:00 PM - 8:00 PM Sat 12:00 PM - 8:00 PM Sun 12:00 PM - 8:00 PM","https://www.bostonmarket.com/location/de/claymont/3603-philadelphia-pk"
"https://www.bostonmarket.com/","Boston Market Restaurant in Dover, DE","1151 N. Dupont Hwy","Dover","DE","19901","US","639","(302) 734-8431","Restaurant","39.18728040898532","-75.5370072448909","Mon 12:00 PM - 8:00 PM Tues 12:00 PM - 8:00 PM Wed 12:00 PM - 8:00 PM Thu 12:00 PM - 8:00 PM Fri 12:00 PM - 8:00 PM Sat 12:00 PM - 8:00 PM Sun 12:00 PM - 8:00 PM","https://www.bostonmarket.com/location/de/dover/1151-n-dupont-hwy"
"https://www.bostonmarket.com/","Boston Market Restaurant in Newark, DE","1050 S. College Ave.","Newark","DE","19711","US","361","(302) 369-3389","Restaurant","39.65166303572243","-75.75023621320724","Mon 12:00 PM - 8:00 PM Tues 12:00 PM - 8:00 PM Wed 12:00 PM - 8:00 PM Thu 12:00 PM - 8:00 PM Fri 12:00 PM - 8:00 PM Sat 12:00 PM - 8:00 PM Sun 12:00 PM - 8:00 PM","https://www.bostonmarket.com/location/de/newark/1050-s-college-ave"
"https://www.bostonmarket.com/","Boston Market Restaurant in Newark, DE","300 University Plaza","Newark","DE","19702","US","916","(302) 452-5120","Restaurant","39.6671469","-75.6679335","Mon 12:00 PM - 8:00 PM Tues 12:00 PM - 8:00 PM Wed 12:00 PM - 8:00 PM Thu 12:00 PM - 8:00 PM Fri 12:00 PM - 8:00 PM Sat 12:00 PM - 8:00 PM Sun 12:00 PM - 8:00 PM","https://www.bostonmarket.com/location/de/newark/300-university-plaza"
"https://www.bostonmarket.com/","Boston Market Restaurant in Wilmington, DE","1611 Pennsylvania Ave.","Wilmington","DE","19806","US","404","(302) 652-0765","Restaurant","39.754862455713926","-75.5643922537729","Mon 12:00 PM - 8:00 PM Tues 12:00 PM - 8:00 PM Wed 12:00 PM - 8:00 PM Thu 12:00 PM - 8:00 PM Fri 12:00 PM - 8:00 PM Sat 12:00 PM - 8:00 PM Sun 12:00 PM - 8:00 PM","https://www.bostonmarket.com/location/de/wilmington/1611-pennsylvania-ave"
"https://www.bostonmarket.com/","Boston Market Restaurant in Wilmington, DE","3130 Kirkwood Highway","Wilmington","DE","19808","US","376","(302) 998-1602","Restaurant","39.736736416950535","-75.62288879418702","Mon 12:00 PM - 8:00 PM Tues 12:00 PM - 8:00 PM Wed 12:00 PM - 8:00 PM Thu 12:00 PM - 8:00 PM Fri 12:00 PM - 8:00 PM Sat 12:00 PM - 8:00 PM Sun 12:00 PM - 8:00 PM","https://www.bostonmarket.com/location/de/wilmington/3130-kirkwood-highway"
"https://www.bostonmarket.com/","Boston Market Restaurant in Wilmington, DE","3900 Concord Pike","Wilmington","DE","19803","US","1158","(302) 478-1777","Restaurant","39.8068558072143","-75.54985441648114","Mon 12:00 PM - 8:00 PM Tues 12:00 PM - 8:00 PM Wed 12:00 PM - 8:00 PM Thu 12:00 PM - 8:00 PM Fri 12:00 PM - 8:00 PM Sat 12:00 PM - 8:00 PM Sun 12:00 PM - 8:00 PM","https://www.bostonmarket.com/location/de/wilmington/3900-concord-pike"
"https://www.bostonmarket.com/","Boston Market Restaurant in Altamonte Springs, FL","429 W SR 436","Altamonte Springs","FL","32714","US","177","(407) 862-8327","Restaurant","28.6624551811511","-81.39837925137726","Mon 11:00 AM - 9:00 PM Tues 11:00 AM - 9:00 PM Wed 11:00 AM - 9:00 PM Thu 11:00 AM - 9:00 PM Fri 11:00 AM - 9:00 PM Sat 11:00 AM - 9:00 PM Sun 11:00 AM - 9:00 PM","https://www.bostonmarket.com/location/fl/altamonte-springs/429-w-sr-436"
"https://www.bostonmarket.com/","Boston Market Restaurant in Boca Raton, FL","9959 Glades Rd.","Boca Raton","FL","33434","US","192","(561) 451-3918","Restaurant","26.3683735","-80.2022566","Mon 12:00 PM - 8:00 PM Tues 12:00 PM - 8:00 PM Wed 12:00 PM - 8:00 PM Thu 12:00 PM - 8:00 PM Fri 12:00 PM - 8:00 PM Sat 12:00 PM - 8:00 PM Sun 12:00 PM - 8:00 PM","https://www.bostonmarket.com/location/fl/boca-raton/9959-glades-rd"
"https://www.bostonmarket.com/","Boston Market Restaurant in Boynton Beach, FL","9929 Military Trail South #53","Boynton Beach","FL","33436","US","132","(561) 731-4441","Restaurant","26.5286191","-80.1233111","Mon 11:00 AM - 8:00 PM Tues 11:00 AM - 8:00 PM Wed 11:00 AM - 8:00 PM Thu 11:00 AM - 8:00 PM Fri 11:00 AM - 8:00 PM Sat 11:00 AM - 8:00 PM Sun 11:00 AM - 8:00 PM","https://www.bostonmarket.com/location/fl/boynton-beach/9929-military-trail-south"
"https://www.bostonmarket.com/","Boston Market Restaurant in Bradenton, FL","5002 Cortez West","Bradenton","FL","34210","US","162","(941) 792-8366","Restaurant","27.462932090412952","-82.61199066287872","Mon 11:00 AM - 8:00 PM Tues 11:00 AM - 8:00 PM Wed 11:00 AM - 8:00 PM Thu 11:00 AM - 8:00 PM Fri 11:00 AM - 8:00 PM Sat 11:00 AM - 8:00 PM Sun 11:00 AM - 8:00 PM","https://www.bostonmarket.com/location/fl/bradenton/5002-cortez-west"
"https://www.bostonmarket.com/","Boston Market Restaurant in Brandon, FL","1401 W. Brandon Blvd.","Brandon","FL","33511","US","131","(813) 651-1107","Restaurant","27.937198414632892","-82.30438956863281","Mon 11:00 AM - 9:00 PM Tues 11:00 AM - 9:00 PM Wed 11:00 AM - 9:00 PM Thu 11:00 AM - 9:00 PM Fri 11:00 AM - 9:00 PM Sat 11:00 AM - 9:00 PM Sun 11:00 AM - 9:00 PM","https://www.bostonmarket.com/location/fl/brandon/1401-w-brandon-blvd"
"https://www.bostonmarket.com/","Boston Market Restaurant in Clearwater, FL","4001 E. Bay Drive","Clearwater","FL","33764","US","766","(727) 524-6603","Restaurant","27.915985785655806","-82.74527304251023","Mon 11:00 AM - 9:00 PM Tues 11:00 AM - 9:00 PM Wed 11:00 AM - 9:00 PM Thu 11:00 AM - 9:00 PM Fri 11:00 AM - 9:00 PM Sat 11:00 AM - 9:00 PM Sun 11:00 AM - 9:00 PM","https://www.bostonmarket.com/location/fl/clearwater/4001-e-bay-drive"
"https://www.bostonmarket.com/","Boston Market Restaurant in Fort Lauderdale, FL","1500 South Federal Hwy","Fort Lauderdale","FL","33316","US","141","(954) 525-1413","Restaurant","26.102800569283346","-80.136529058218","Mon 11:00 AM - 8:00 PM Tues 11:00 AM - 8:00 PM Wed 11:00 AM - 8:00 PM Thu 11:00 AM - 8:00 PM Fri 11:00 AM - 8:00 PM Sat 11:00 AM - 8:00 PM Sun 11:00 AM - 8:00 PM","https://www.bostonmarket.com/location/fl/fort-lauderdale/1500-south-federal-hwy"
"https://www.bostonmarket.com/","Boston Market Restaurant in Fort Lauderdale, FL","1781 E. Commercial Blvd.","Fort Lauderdale","FL","33334","US","230","(954) 938-9073","Restaurant","26.189533589626375","-80.12303553521639","Mon 11:00 AM - 8:00 PM Tues 11:00 AM - 8:00 PM Wed 11:00 AM - 8:00 PM Thu 11:00 AM - 8:00 PM Fri 11:00 AM - 8:00 PM Sat 11:00 AM - 8:00 PM Sun 11:00 AM - 8:00 PM","https://www.bostonmarket.com/location/fl/fort-lauderdale/1781-e-commercial-blvd"
"https://www.bostonmarket.com/","Boston Market Restaurant in Gainesville, FL","6483 Newberry Road","Gainesville","FL","32605","US","559","(352) 331-1519","Restaurant","29.6592615","-82.4113726","Mon 11:00 AM - 8:00 PM Tues 11:00 AM - 8:00 PM Wed 11:00 AM - 8:00 PM Thu 11:00 AM - 8:00 PM Fri 11:00 AM - 8:00 PM Sat 11:00 AM - 8:00 PM Sun 11:00 AM - 8:00 PM","https://www.bostonmarket.com/location/fl/gainesville/6483-newberry-road"
"https://www.bostonmarket.com/","Boston Market Restaurant in Hallandale, FL","1665 E. Hallandale Beach Blvd.","Hallandale","FL","33009","US","1007","(954) 455-8535","Restaurant","25.986363433632583","-80.130685865879","Mon 11:00 AM - 8:00 PM Tues 11:00 AM - 8:00 PM Wed 11:00 AM - 8:00 PM Thu 11:00 AM - 8:00 PM Fri 11:00 AM - 8:00 PM Sat 11:00 AM - 8:00 PM Sun 11:00 AM - 8:00 PM","https://www.bostonmarket.com/location/fl/hallandale/1665-e-hallandale-beach-blvd"
"https://www.bostonmarket.com/","Boston Market Restaurant in Hialeah, FL","1001 West 49th Unit 1","Hialeah","FL","33012","US","3301","(305) 397-0190","Restaurant","25.8671695","-80.3036162","Mon 12:00 PM - 7:00 PM Tues 12:00 PM - 7:00 PM Wed 12:00 PM - 7:00 PM Thu 12:00 PM - 7:00 PM Fri 12:00 PM - 7:00 PM Sat 12:00 PM - 7:00 PM Sun 12:00 PM - 7:00 PM","https://www.bostonmarket.com/location/fl/hialeah/1001-west-49th"
"https://www.bostonmarket.com/","Boston Market Restaurant in Hialeah, FL","16709 NW 67th Ave","Hialeah","FL","33014","US","489","(305) 362-0985","Restaurant","25.9254828","-80.3080163","Mon 11:00 AM - 8:00 PM Tues 11:00 AM - 8:00 PM Wed 11:00 AM - 8:00 PM Thu 11:00 AM - 8:00 PM Fri 11:00 AM - 8:00 PM Sat 11:00 AM - 8:00 PM Sun 11:00 AM - 8:00 PM","https://www.bostonmarket.com/location/fl/hialeah/16709-nw-67th-ave"
"https://www.bostonmarket.com/","Boston Market Restaurant in Hollywood, FL","3249 Hollywood Blvd.","Hollywood","FL","33021","US","213","(954) 966-6959","Restaurant","26.01125116477059","-80.17327491940705","Mon 11:00 AM - 8:00 PM Tues 11:00 AM - 8:00 PM Wed 11:00 AM - 8:00 PM Thu 11:00 AM - 8:00 PM Fri 11:00 AM - 8:00 PM Sat 11:00 AM - 8:00 PM Sun 11:00 AM - 8:00 PM","https://www.bostonmarket.com/location/fl/hollywood/3249-hollywood-blvd"
"https://www.bostonmarket.com/","Boston Market Restaurant in Jupiter, FL","80 Intracoastal Pointe Dr.","Jupiter","FL","33477","US","437","(561) 747-3552","Restaurant","26.934666543719672","-80.0889627635479","Mon 12:00 PM - 8:00 PM Tues 12:00 PM - 8:00 PM Wed 12:00 PM - 8:00 PM Thu 12:00 PM - 8:00 PM Fri 12:00 PM - 8:00 PM Sat 12:00 PM - 8:00 PM Sun 12:00 PM - 8:00 PM","https://www.bostonmarket.com/location/fl/jupiter/80-intracoastal-pointe-dr"
"https://www.bostonmarket.com/","Boston Market Restaurant in Kissimmee, FL","3251 W Vine Street","Kissimmee","FL","34741","US","560","(407) 935-1263","Restaurant","28.304961617034596","-81.43691226840019","Mon 12:00 PM - 8:00 PM Tues 12:00 PM - 8:00 PM Wed 12:00 PM - 8:00 PM Thu 12:00 PM - 8:00 PM Fri 12:00 PM - 8:00 PM Sat 12:00 PM - 8:00 PM Sun 12:00 PM - 8:00 PM","https://www.bostonmarket.com/location/fl/kissimmee/3251-w-vine-street"
"https://www.bostonmarket.com/","Boston Market Restaurant in Lake Mary, FL","4335 W. Lake Mary Blvd.","Lake Mary","FL","32746","US","212","(407) 322-9699","Restaurant","28.755569176740245","-81.35149249437745","Mon 11:00 AM - 8:00 PM Tues 11:00 AM - 8:00 PM Wed 11:00 AM - 8:00 PM Thu 11:00 AM - 8:00 PM Fri 11:00 AM - 8:00 PM Sat 11:00 AM - 8:00 PM Sun 11:00 AM - 8:00 PM","https://www.bostonmarket.com/location/fl/lake-mary/4335-w-lake-mary-blvd"
"https://www.bostonmarket.com/","Boston Market Restaurant in Lake Worth, FL","6520 Lake Worth Rd.","Lake Worth","FL","33467","US","1039","(561) 963-7272","Restaurant","26.618261781754327","-80.14701985199281","Mon 12:00 PM - 8:00 PM Tues 12:00 PM - 8:00 PM Wed 12:00 PM - 8:00 PM Thu 12:00 PM - 8:00 PM Fri 12:00 PM - 8:00 PM Sat 12:00 PM - 8:00 PM Sun 12:00 PM - 8:00 PM","https://www.bostonmarket.com/location/fl/lake-worth/6520-lake-worth-rd"
"https://www.bostonmarket.com/","Boston Market Restaurant in MacDill AFB, FL","3108 N. Boundary Blvd. Food Court Bld# 926","MacDill AFB","FL","33608","US","4122","<MISSING>","Restaurant","27.946529388427734","-82.45926666259766","Mon 11:00 AM - 8:00 PM Tues 11:00 AM - 8:00 PM Wed 11:00 AM - 8:00 PM Thu 11:00 AM - 8:00 PM Fri 11:00 AM - 8:00 PM Sat 11:00 AM - 8:00 PM Sun 11:00 AM - 8:00 PM","https://www.bostonmarket.com/location/fl/macdill-afb/3108-n-boundary-blvd"
"https://www.bostonmarket.com/","Boston Market Restaurant in Melbourne, FL","2450 N Wickham Rd","Melbourne","FL","32935","US","349","(321) 254-6549","Restaurant","28.146175666444336","-80.67229494452471","Mon 11:00 AM - 8:00 PM Tues 11:00 AM - 8:00 PM Wed 11:00 AM - 8:00 PM Thu 11:00 AM - 8:00 PM Fri 11:00 AM - 8:00 PM Sat 11:00 AM - 8:00 PM Sun 11:00 AM - 8:00 PM","https://www.bostonmarket.com/location/fl/melbourne/2450-n-wickham-rd"
"https://www.bostonmarket.com/","Boston Market Restaurant in Miami, FL","18601 S. Dixie Highway","Miami","FL","33157","US","190","(305) 251-9107","Restaurant","25.595743914516742","-80.35490606726853","Mon 11:00 AM - 9:00 PM Tues 11:00 AM - 9:00 PM Wed 11:00 AM - 9:00 PM Thu 11:00 AM - 9:00 PM Fri 11:00 AM - 9:00 PM Sat 11:00 AM - 9:00 PM Sun 12:00 PM - 8:00 PM","https://www.bostonmarket.com/location/fl/miami/18601-s-dixie-highway"
"https://www.bostonmarket.com/","Boston Market Restaurant in Miami, FL","3600 SW 22nd Street","Miami","FL","33145","US","1067","(305) 444-0209","Restaurant","25.74963985973604","-80.25231466458536","Mon 11:00 AM - 9:00 PM Tues 11:00 AM - 9:00 PM Wed 11:00 AM - 9:00 PM Thu 11:00 AM - 9:00 PM Fri 11:00 AM - 9:00 PM Sat 11:00 AM - 9:00 PM Sun 11:00 AM - 9:00 PM","https://www.bostonmarket.com/location/fl/miami/3600-sw-22nd-street"
"https://www.bostonmarket.com/","Boston Market Restaurant in Miami, FL","8070 NW 36th St","Miami","FL","33166","US","636","(305) 716-0056","Restaurant","25.8093939","-80.3280324","Mon 11:00 AM - 8:00 PM Tues 11:00 AM - 8:00 PM Wed 11:00 AM - 8:00 PM Thu 11:00 AM - 8:00 PM Fri 11:00 AM - 8:00 PM Sat 11:00 AM - 8:00 PM Sun 11:00 AM - 8:00 PM","https://www.bostonmarket.com/location/fl/miami/8070-nw-36th-st"
"https://www.bostonmarket.com/","Boston Market Restaurant in North Miami, FL","12500 Biscayne Blvd.","North Miami","FL","33181","US","273","(305) 892-8867","Restaurant","25.891813995836618","-80.16335785388947","Mon 11:00 AM - 8:00 PM Tues 11:00 AM - 8:00 PM Wed 11:00 AM - 8:00 PM Thu 11:00 AM - 8:00 PM Fri 11:00 AM - 8:00 PM Sat 11:00 AM - 8:00 PM Sun 11:00 AM - 8:00 PM","https://www.bostonmarket.com/location/fl/north-miami/12500-biscayne-blvd"
"https://www.bostonmarket.com/","Boston Market Restaurant in Ocala, FL","2650 SW College Road","Ocala","FL","34471","US","763","(352) 873-1115","Restaurant","29.16683460711412","-82.16726236425984","Mon 11:00 AM - 8:00 PM Tues 11:00 AM - 8:00 PM Wed 11:00 AM - 8:00 PM Thu 11:00 AM - 8:00 PM Fri 11:00 AM - 8:00 PM Sat 11:00 AM - 8:00 PM Sun 11:00 AM - 8:00 PM","https://www.bostonmarket.com/location/fl/ocala/2650-sw-college-road"
"https://www.bostonmarket.com/","Boston Market Restaurant in Orlando, FL","12140 Lake Underhill Road","Orlando","FL","32828","US","3210","(407) 737-3335","Restaurant","28.5464267","-81.2085704","Mon 11:00 AM - 9:00 PM Tues 11:00 AM - 9:00 PM Wed 11:00 AM - 9:00 PM Thu 11:00 AM - 9:00 PM Fri 11:00 AM - 9:00 PM Sat 11:00 AM - 9:00 PM Sun 11:00 AM - 9:00 PM","https://www.bostonmarket.com/location/fl/orlando/12140-lake-underhill-road"
"https://www.bostonmarket.com/","Boston Market Restaurant in Orlando, FL","250 E Michigan St","Orlando","FL","32806","US","348","(407) 648-0568","Restaurant","28.51254800587612","-81.3747064769268","Mon 11:00 AM - 8:00 PM Tues 11:00 AM - 8:00 PM Wed 11:00 AM - 8:00 PM Thu 11:00 AM - 8:00 PM Fri 11:00 AM - 8:00 PM Sat 11:00 AM - 8:00 PM Sun 11:00 AM - 8:00 PM","https://www.bostonmarket.com/location/fl/orlando/250-e-michigan-st"
"https://www.bostonmarket.com/","Boston Market Restaurant in Orlando, FL","4201 E Colonial Drive","Orlando","FL","32803","US","770","(407) 896-3682","Restaurant","28.553942199991162","-81.33317112922668","Mon 11:00 AM - 8:00 PM Tues 11:00 AM - 8:00 PM Wed 11:00 AM - 8:00 PM Thu 11:00 AM - 8:00 PM Fri 11:00 AM - 8:00 PM Sat 11:00 AM - 8:00 PM Sun 11:00 AM - 8:00 PM","https://www.bostonmarket.com/location/fl/orlando/4201-e-colonial-drive"
"https://www.bostonmarket.com/","Boston Market Restaurant in Orlando, FL","4621 South Kirkman Road","Orlando","FL","32811","US","920","(407) 292-0504","Restaurant","28.495025511309464","-81.45843498789418","Mon 11:00 AM - 8:00 PM Tues 11:00 AM - 8:00 PM Wed 11:00 AM - 8:00 PM Thu 11:00 AM - 8:00 PM Fri 11:00 AM - 8:00 PM Sat 11:00 AM - 8:00 PM Sun 11:00 AM - 8:00 PM","https://www.bostonmarket.com/location/fl/orlando/4621-south-kirkman-road"
"https://www.bostonmarket.com/","Boston Market Restaurant in Ormond Beach, FL","1425 W. Granada Blvd.","Ormond Beach","FL","32174","US","1430","(386) 673-9040","Restaurant","29.260271743108575","-81.11042105042088","Mon 12:00 PM - 8:00 PM Tues 12:00 PM - 8:00 PM Wed 12:00 PM - 8:00 PM Thu 12:00 PM - 8:00 PM Fri 12:00 PM - 8:00 PM Sat 12:00 PM - 8:00 PM Sun 12:00 PM - 8:00 PM","https://www.bostonmarket.com/location/fl/ormond-beach/1425-w-granada-blvd"
"https://www.bostonmarket.com/","Boston Market Restaurant in Palm Harbor, FL","33163 US Hwy 19 North","Palm Harbor","FL","34684","US","196","(727) 786-5336","Restaurant","28.07355184401683","-82.73829259354903","Mon 12:00 PM - 8:00 PM Tues 12:00 PM - 8:00 PM Wed 12:00 PM - 8:00 PM Thu 12:00 PM - 8:00 PM Fri 12:00 PM - 8:00 PM Sat 12:00 PM - 8:00 PM Sun 12:00 PM - 8:00 PM","https://www.bostonmarket.com/location/fl/palm-harbor/33163-us-hwy-19-north"
"https://www.bostonmarket.com/","Boston Market Restaurant in Pembroke Pines, FL","50 S. Flamingo Rd.","Pembroke Pines","FL","33029","US","537","(954) 450-0494","Restaurant","26.007162695304427","-80.31281987077591","Mon 11:00 AM - 9:00 PM Tues 11:00 AM - 9:00 PM Wed 11:00 AM - 9:00 PM Thu 11:00 AM - 9:00 PM Fri 11:00 AM - 9:00 PM Sat 11:00 AM - 9:00 PM Sun 11:00 AM - 9:00 PM","https://www.bostonmarket.com/location/fl/pembroke-pines/50-s-flamingo-rd"
"https://www.bostonmarket.com/","Boston Market Restaurant in Plantation, FL","330 S. University Dr.","Plantation","FL","33324","US","279","(954) 472-5360","Restaurant","26.117137601389388","-80.25084266069825","Mon 12:00 PM - 8:00 PM Tues 12:00 PM - 8:00 PM Wed 12:00 PM - 8:00 PM Thu 12:00 PM - 8:00 PM Fri 12:00 PM - 8:00 PM Sat 12:00 PM - 8:00 PM Sun 12:00 PM - 8:00 PM","https://www.bostonmarket.com/location/fl/plantation/330-s-university-dr"
"https://www.bostonmarket.com/","Boston Market Restaurant in Pompano Beach, FL","2451 N. Federal Hwy","Pompano Beach","FL","33064","US","123","(954) 785-1922","Restaurant","26.261993425641027","-80.09981029120354","Mon 11:00 AM - 8:00 PM Tues 11:00 AM - 8:00 PM Wed 11:00 AM - 8:00 PM Thu 11:00 AM - 8:00 PM Fri 11:00 AM - 8:00 PM Sat 11:00 AM - 8:00 PM Sun 11:00 AM - 8:00 PM","https://www.bostonmarket.com/location/fl/pompano-beach/2451-n-federal-hwy"
"https://www.bostonmarket.com/","Boston Market Restaurant in Port Orange, FL","1037 Dunlawton Avenue","Port Orange","FL","32127","US","734","(386) 322-6801","Restaurant","29.12670279905544","-81.00800821430084","Mon 11:00 AM - 8:00 PM Tues 11:00 AM - 8:00 PM Wed 11:00 AM - 8:00 PM Thu 11:00 AM - 8:00 PM Fri 11:00 AM - 8:00 PM Sat 11:00 AM - 8:00 PM Sun 11:00 AM - 8:00 PM","https://www.bostonmarket.com/location/fl/port-orange/1037-dunlawton-avenue"
"https://www.bostonmarket.com/","Boston Market Restaurant in Safety Harbor, FL","1847 Enterprise Road East","Safety Harbor","FL","34695","US","101","(727) 725-8232","Restaurant","28.01248369347403","-82.70847240335343","Mon 12:00 PM - 8:00 PM Tues 12:00 PM - 8:00 PM Wed 12:00 PM - 8:00 PM Thu 12:00 PM - 8:00 PM Fri 12:00 PM - 8:00 PM Sat 12:00 PM - 8:00 PM Sun 12:00 PM - 8:00 PM","https://www.bostonmarket.com/location/fl/safety-harbor/1847-enterprise-road-east"
"https://www.bostonmarket.com/","Boston Market Restaurant in Seminole, FL","7820 113th Street","Seminole","FL","33772","US","859","(727) 319-3911","Restaurant","27.84295515488083","-82.79573941475746","Mon 12:00 PM - 9:00 PM Tues 12:00 PM - 9:00 PM Wed 12:00 PM - 9:00 PM Thu 12:00 PM - 9:00 PM Fri 12:00 PM - 9:00 PM Sat 12:00 PM - 9:00 PM Sun 12:00 PM - 9:00 PM","https://www.bostonmarket.com/location/fl/seminole/7820-113th-street"
"https://www.bostonmarket.com/","Boston Market Restaurant in St Petersburg, FL","9595 4th St N","St Petersburg","FL","33702","US","516","(727) 577-6622","Restaurant","27.85879563080693","-82.63827368617058","Mon 11:00 AM - 8:00 PM Tues 11:00 AM - 8:00 PM Wed 11:00 AM - 8:00 PM Thu 11:00 AM - 8:00 PM Fri 11:00 AM - 8:00 PM Sat 11:00 AM - 8:00 PM Sun 11:00 AM - 8:00 PM","https://www.bostonmarket.com/location/fl/st-petersburg/9595-4th-st-n"
"https://www.bostonmarket.com/","Boston Market Restaurant in Tallahassee, FL","2329 N. Monroe Street","Tallahassee","FL","32303","US","810","(850) 297-2178","Restaurant","30.471603183445808","-84.28967960559476","Mon 11:00 AM - 8:00 PM Tues 11:00 AM - 8:00 PM Wed 11:00 AM - 8:00 PM Thu 11:00 AM - 8:00 PM Fri 11:00 AM - 8:00 PM Sat 11:00 AM - 8:00 PM Sun 11:00 AM - 8:00 PM","https://www.bostonmarket.com/location/fl/tallahassee/2329-n-monroe-street"
"https://www.bostonmarket.com/","Boston Market Restaurant in Tamarac, FL","3102 W. Commercial Blvd","Tamarac","FL","33309","US","416","(954) 485-7428","Restaurant","26.185865491304973","-80.18794164061546","Mon 11:00 AM - 9:00 PM Tues 11:00 AM - 9:00 PM Wed 11:00 AM - 9:00 PM Thu 11:00 AM - 9:00 PM Fri 11:00 AM - 9:00 PM Sat 11:00 AM - 9:00 PM Sun 11:00 AM - 9:00 PM","https://www.bostonmarket.com/location/fl/tamarac/3102-w-commercial-blvd"
"https://www.bostonmarket.com/","Boston Market Restaurant in Tamarac, FL","5815 N. University Dr.","Tamarac","FL","33321","US","253","(954) 722-7906","Restaurant","26.196086145422488","-80.25281824552167","Mon 11:00 AM - 9:00 PM Tues 11:00 AM - 9:00 PM Wed 11:00 AM - 9:00 PM Thu 11:00 AM - 9:00 PM Fri 11:00 AM - 9:00 PM Sat 11:00 AM - 9:00 PM Sun 11:00 AM - 9:00 PM","https://www.bostonmarket.com/location/fl/tamarac/5815-n-university-dr"
"https://www.bostonmarket.com/","Boston Market Restaurant in Tampa, FL","16215 N. Dale Mabry","Tampa","FL","33618","US","274","(813) 962-2621","Restaurant","28.10065809964799","-82.50163123011589","Mon 12:00 PM - 8:00 PM Tues 12:00 PM - 8:00 PM Wed 12:00 PM - 8:00 PM Thu 12:00 PM - 8:00 PM Fri 12:00 PM - 8:00 PM Sat 12:00 PM - 8:00 PM Sun 12:00 PM - 8:00 PM","https://www.bostonmarket.com/location/fl/tampa/16215-n-dale-mabry"
"https://www.bostonmarket.com/","Boston Market Restaurant in Tampa, FL","2708 W. Martin Luther King","Tampa","FL","33607","US","257","(813) 872-7929","Restaurant","27.98089657588387","-82.48783984779493","Mon 11:00 AM - 8:00 PM Tues 11:00 AM - 8:00 PM Wed 11:00 AM - 8:00 PM Thu 11:00 AM - 8:00 PM Fri 11:00 AM - 8:00 PM Sat 11:00 AM - 8:00 PM Sun 11:00 AM - 8:00 PM","https://www.bostonmarket.com/location/fl/tampa/2708-w-martin-luther-king"
"https://www.bostonmarket.com/","Boston Market Restaurant in Tampa, FL","5501 East Fowler Avenue","Tampa","FL","33617","US","80","(813) 988-3188","Restaurant","28.053923725247383","-82.3942767530844","Mon 11:00 AM - 9:00 PM Tues 11:00 AM - 9:00 PM Wed 11:00 AM - 9:00 PM Thu 11:00 AM - 9:00 PM Fri 11:00 AM - 9:00 PM Sat 11:00 AM - 9:00 PM Sun 11:00 AM - 9:00 PM","https://www.bostonmarket.com/location/fl/tampa/5501-east-fowler-avenue"
"https://www.bostonmarket.com/","Boston Market Restaurant in Tampa, FL","7503 W. Waters Avenue","Tampa","FL","33615","US","113","(813) 886-4422","Restaurant","28.02621130616092","-82.56272618474213","Mon 11:00 AM - 8:00 PM Tues 11:00 AM - 8:00 PM Wed 11:00 AM - 8:00 PM Thu 11:00 AM - 8:00 PM Fri 11:00 AM - 8:00 PM Sat 11:00 AM - 8:00 PM Sun 11:00 AM - 8:00 PM","https://www.bostonmarket.com/location/fl/tampa/7503-w-waters-avenue"
"https://www.bostonmarket.com/","Boston Market Restaurant in West Palm Beach, FL","2024 N. Military Trail","West Palm Beach","FL","33409","US","258","(561) 686-8161","Restaurant","26.7073446","-80.1105948","Mon 11:00 AM - 8:00 PM Tues 11:00 AM - 8:00 PM Wed 11:00 AM - 8:00 PM Thu 11:00 AM - 8:00 PM Fri 11:00 AM - 8:00 PM Sat 11:00 AM - 8:00 PM Sun 11:00 AM - 8:00 PM","https://www.bostonmarket.com/location/fl/west-palm-beach/2024-n-military-trail"
"https://www.bostonmarket.com/","Boston Market Restaurant in Winter Haven, FL","150 Cypress Gardens Blvd SE","Winter Haven","FL","33880","US","609","(863) 293-6907","Restaurant","28.003650782440566","-81.72626965132622","Mon 11:00 AM - 9:00 PM Tues 11:00 AM - 9:00 PM Wed 11:00 AM - 9:00 PM Thu 11:00 AM - 9:00 PM Fri 11:00 AM - 9:00 PM Sat 11:00 AM - 9:00 PM Sun 11:00 AM - 9:00 PM","https://www.bostonmarket.com/location/fl/winter-haven/150-cypress-gardens-blvd-se"
"https://www.bostonmarket.com/","Boston Market Restaurant in Atlanta, GA","2014 Powers Ferry Road SE","Atlanta","GA","30339","US","1602","(770) 988-9020","Restaurant","33.90337834445967","-84.4607495554601","Mon 12:00 PM - 7:00 PM Tues 12:00 PM - 7:00 PM Wed 12:00 PM - 7:00 PM Thu 12:00 PM - 7:00 PM Fri 12:00 PM - 7:00 PM Sat 12:00 PM - 7:00 PM Sun 12:00 PM - 7:00 PM","https://www.bostonmarket.com/location/ga/atlanta/2014-powers-ferry-road-se"
"https://www.bostonmarket.com/","Boston Market Restaurant in Atlanta, GA","2535 Briarcliff Road","Atlanta","GA","30329","US","935","(404) 329-0700","Restaurant","33.8270174","-84.3298882","Mon 11:00 AM - 9:00 PM Tues 11:00 AM - 9:00 PM Wed 11:00 AM - 9:00 PM Thu 11:00 AM - 9:00 PM Fri 11:00 AM - 9:00 PM Sat 11:00 AM - 9:00 PM Sun 11:00 AM - 9:00 PM","https://www.bostonmarket.com/location/ga/atlanta/2535-briarcliff-road"
"https://www.bostonmarket.com/","Boston Market Restaurant in Ft Benning, GA","9220 Marne Road","Ft Benning","GA","31905","US","4111","(706) 687-3665","Restaurant","32.3755241208031","-84.92385288700461","Mon 11:00 AM - 8:00 PM Tues 11:00 AM - 8:00 PM Wed 11:00 AM - 8:00 PM Thu 11:00 AM - 8:00 PM Fri 11:00 AM - 8:00 PM Sat 11:00 AM - 7:00 PM Sun 11:00 AM - 6:00 PM","https://www.bostonmarket.com/location/ga/ft-benning/9220-marne-road"
"https://www.bostonmarket.com/","Boston Market Restaurant in Ft Gordon, GA","38200 3rd Ave","Ft Gordon","GA","30905","US","4105","(706) 772-9742","Restaurant","33.408267536527084","-82.13508926331997","Mon 11:00 AM - 9:00 PM Tues 11:00 AM - 9:00 PM Wed 11:00 AM - 9:00 PM Thu 11:00 AM - 9:00 PM Fri 11:00 AM - 9:00 PM Sat 11:00 AM - 9:00 PM Sun 11:00 AM - 9:00 PM","https://www.bostonmarket.com/location/ga/ft-gordon/38200-3rd-ave"
"https://www.bostonmarket.com/","Boston Market Restaurant in Ft Stewart, GA","345 Lindquist Road","Ft Stewart","GA","31314","US","4109","(912) 876-4698","Restaurant","31.865806598997587","-81.60915216431022","Mon 11:00 AM - 8:00 PM Tues 11:00 AM - 8:00 PM Wed 11:00 AM - 8:00 PM Thu 11:00 AM - 8:00 PM Fri 11:00 AM - 8:00 PM Sat 11:00 AM - 5:00 PM Sun 11:00 AM - 6:00 PM","https://www.bostonmarket.com/location/ga/ft-stewart/345-lindquist-road"
"https://www.bostonmarket.com/","Boston Market Restaurant in Stone Mountain, GA","5170 Stone Mtn. Highway Ste. E","Stone Mountain","GA","30087","US","553","(770) 879-8211","Restaurant","33.823354170765114","-84.1081403195858","Mon 12:00 PM - 8:00 PM Tues 12:00 PM - 8:00 PM Wed 12:00 PM - 8:00 PM Thu 12:00 PM - 8:00 PM Fri 12:00 PM - 8:00 PM Sat 12:00 PM - 8:00 PM Sun 12:00 PM - 8:00 PM","https://www.bostonmarket.com/location/ga/stone-mountain/5170-stone-mtn-highway"
"https://www.bostonmarket.com/","Boston Market Restaurant in Schofield Barracks, HI","Bldg# 694 Cadet Sheridan & McCornack Roa","Schofield Barracks","HI","96857","US","4106","(808) 237-4502","Restaurant","21.49436561624077","-158.06040650233626","Mon 11:00 AM - 8:00 PM Tues 11:00 AM - 8:00 PM Wed 11:00 AM - 8:00 PM Thu 11:00 AM - 8:00 PM Fri 11:00 AM - 8:00 PM Sat 11:00 AM - 8:00 PM Sun 11:00 AM - 7:00 PM","https://www.bostonmarket.com/location/hi/schofield-barracks/bldg-694-cadet-sheridan-&-mccornack-roa"
"https://www.bostonmarket.com/","Boston Market Restaurant in Bolingbrook, IL","285 N. Weber Rd.","Bolingbrook","IL","60440","US","831","(630) 759-9900","Restaurant","41.7039493","-88.1262291","Mon 12:00 PM - 8:00 PM Tues 12:00 PM - 8:00 PM Wed 12:00 PM - 8:00 PM Thu 12:00 PM - 8:00 PM Fri 12:00 PM - 8:00 PM Sat 12:00 PM - 8:00 PM Sun 12:00 PM - 8:00 PM","https://www.bostonmarket.com/location/il/bolingbrook/285-n-weber-rd"
"https://www.bostonmarket.com/","Boston Market Restaurant in Chicago, IL","1424 E 53rd St Unit 28","Chicago","IL","60615","US","825","(773) 288-2600","Restaurant","41.79969639372075","-87.59072520219428","Mon 12:00 PM - 9:00 PM Tues 12:00 PM - 9:00 PM Wed 12:00 PM - 9:00 PM Thu 12:00 PM - 9:00 PM Fri 12:00 PM - 9:00 PM Sat 12:00 PM - 9:00 PM Sun 12:00 PM - 9:00 PM","https://www.bostonmarket.com/location/il/chicago/1424-e-53rd-st"
"https://www.bostonmarket.com/","Boston Market Restaurant in Chicago, IL","3020 N Ashland Ave","Chicago","IL","60657","US","2520","(773) 529-0071","Restaurant","41.93673541157504","-87.66888611399281","Mon 11:00 AM - 8:00 PM Tues 11:00 AM - 8:00 PM Wed 11:00 AM - 8:00 PM Thu 11:00 AM - 8:00 PM Fri 11:00 AM - 8:00 PM Sat 11:00 AM - 8:00 PM Sun 11:00 AM - 8:00 PM","https://www.bostonmarket.com/location/il/chicago/3020-n-ashland-ave"
"https://www.bostonmarket.com/","Boston Market Restaurant in Crestwood, IL","13201 S. Cicero Avenue","Crestwood","IL","60445","US","668","(708) 385-9300","Restaurant","41.652338846976356","-87.73769282185185","Mon 12:00 PM - 8:00 PM Tues 12:00 PM - 8:00 PM Wed 12:00 PM - 8:00 PM Thu 12:00 PM - 8:00 PM Fri 12:00 PM - 8:00 PM Sat 12:00 PM - 8:00 PM Sun 12:00 PM - 8:00 PM","https://www.bostonmarket.com/location/il/crestwood/13201-s-cicero-avenue"
"https://www.bostonmarket.com/","Boston Market Restaurant in Elgin, IL","205 S. Randall Road","Elgin","IL","60123","US","833","(847) 608-8700","Restaurant","42.02759812839625","-88.33793633066762","Mon 12:00 PM - 8:00 PM Tues 12:00 PM - 8:00 PM Wed 12:00 PM - 8:00 PM Thu 12:00 PM - 8:00 PM Fri 12:00 PM - 8:00 PM Sat 12:00 PM - 8:00 PM Sun 12:00 PM - 8:00 PM","https://www.bostonmarket.com/location/il/elgin/205-s-randall-road"
"https://www.bostonmarket.com/","Boston Market Restaurant in Homewood, IL","17855 S Halsted St.","Homewood","IL","60430","US","435","(708) 922-1200","Restaurant","41.56487982171334","-87.63596133167084","Mon 12:00 PM - 8:00 PM Tues 12:00 PM - 8:00 PM Wed 12:00 PM - 8:00 PM Thu 12:00 PM - 8:00 PM Fri 12:00 PM - 8:00 PM Sat 12:00 PM - 8:00 PM Sun 12:00 PM - 8:00 PM","https://www.bostonmarket.com/location/il/homewood/17855-s-halsted-st"
"https://www.bostonmarket.com/","Boston Market Restaurant in Melrose Park, IL","830 W. North Ave.","Melrose Park","IL","60160","US","822","(708) 865-8900","Restaurant","41.90771587852837","-87.84378223501795","Mon 11:00 AM - 8:00 PM Tues 11:00 AM - 8:00 PM Wed 11:00 AM - 8:00 PM Thu 11:00 AM - 8:00 PM Fri 11:00 AM - 8:00 PM Sat 11:00 AM - 8:00 PM Sun 11:00 AM - 8:00 PM","https://www.bostonmarket.com/location/il/melrose-park/830-w-north-ave"
"https://www.bostonmarket.com/","Boston Market Restaurant in Mt Prospect, IL","1000 S Elmhurst","Mt Prospect","IL","60056","US","421","(847) 364-6300","Restaurant","42.047131580350225","-87.94132679700846","Mon 11:30 AM - 8:00 PM Tues 11:30 AM - 8:00 PM Wed 11:30 AM - 8:00 PM Thu 11:30 AM - 8:00 PM Fri 11:30 AM - 8:00 PM Sat 11:30 AM - 8:00 PM Sun 11:30 AM - 8:00 PM","https://www.bostonmarket.com/location/il/mt-prospect/1000-s-elmhurst"
"https://www.bostonmarket.com/","Boston Market Restaurant in Oak Lawn, IL","9267 S. Cicero Ave.","Oak Lawn","IL","60453","US","558","(708) 229-0900","Restaurant","41.72412757348035","-87.74055266625282","Mon 12:00 PM - 8:00 PM Tues 12:00 PM - 8:00 PM Wed 12:00 PM - 8:00 PM Thu 12:00 PM - 8:00 PM Fri 12:00 PM - 8:00 PM Sat 12:00 PM - 8:00 PM Sun 12:00 PM - 8:00 PM","https://www.bostonmarket.com/location/il/oak-lawn/9267-s-cicero-ave"
"https://www.bostonmarket.com/","Boston Market Restaurant in Park Ridge, IL","800 Devon Ave.","Park Ridge","IL","60068","US","205","(847) 292-3000","Restaurant","41.996929540052825","-87.83287167549133","Mon 12:00 PM - 7:00 PM Tues 12:00 PM - 7:00 PM Wed 12:00 PM - 7:00 PM Thu 12:00 PM - 7:00 PM Fri 12:00 PM - 7:00 PM Sat 12:00 PM - 7:00 PM Sun 12:00 PM - 7:00 PM","https://www.bostonmarket.com/location/il/park-ridge/800-devon-ave"
"https://www.bostonmarket.com/","Boston Market Restaurant in River Forest, IL","7211 Lake Street Pud","River Forest","IL","60305","US","575","(708) 771-0455","Restaurant","41.88813762871839","-87.80529455103533","Mon 12:00 PM - 8:00 PM Tues 12:00 PM - 8:00 PM Wed 12:00 PM - 8:00 PM Thu 12:00 PM - 8:00 PM Fri 12:00 PM - 8:00 PM Sat 12:00 PM - 8:00 PM Sun 12:00 PM - 8:00 PM","https://www.bostonmarket.com/location/il/river-forest/7211-lake-street"
"https://www.bostonmarket.com/","Boston Market Restaurant in Schaumburg, IL","24 W. Golf Road Maytag Bldg.","Schaumburg","IL","60173","US","260","(847) 519-9500","Restaurant","42.04964225900167","-88.08075332886574","Mon 12:00 PM - 8:00 PM Tues 12:00 PM - 8:00 PM Wed 12:00 PM - 8:00 PM Thu 12:00 PM - 8:00 PM Fri 12:00 PM - 8:00 PM Sat 12:00 PM - 8:00 PM Sun 12:00 PM - 8:00 PM","https://www.bostonmarket.com/location/il/schaumburg/24-w-golf-road"
"https://www.bostonmarket.com/","Boston Market Restaurant in Wheaton, IL","625 S. County Farm Rd.","Wheaton","IL","60187","US","1181","(630) 871-0100","Restaurant","41.85919173977247","-88.14197748899466","Mon 12:00 PM - 8:00 PM Tues 12:00 PM - 8:00 PM Wed 12:00 PM - 8:00 PM Thu 12:00 PM - 8:00 PM Fri 12:00 PM - 8:00 PM Sat 12:00 PM - 8:00 PM Sun 12:00 PM - 8:00 PM","https://www.bostonmarket.com/location/il/wheaton/625-s-county-farm-rd"
"https://www.bostonmarket.com/","Boston Market Restaurant in Indianapolis, IN","5665 Georgetown Road","Indianapolis","IN","46254","US","2454","(317) 328-9239","Restaurant","39.855306763370656","-86.23962973059861","Mon 12:00 PM - 8:00 PM Tues 12:00 PM - 8:00 PM Wed 12:00 PM - 8:00 PM Thu 12:00 PM - 8:00 PM Fri 12:00 PM - 8:00 PM Sat 12:00 PM - 8:00 PM Sun 12:00 PM - 8:00 PM","https://www.bostonmarket.com/location/in/indianapolis/5665-georgetown-road"
"https://www.bostonmarket.com/","Boston Market Restaurant in Indianapolis, IN","7554 Shadeland Avenue","Indianapolis","IN","46250","US","638","(317) 578-1119","Restaurant","39.892175138119185","-86.04666257149574","Mon 12:00 PM - 8:00 PM Tues 12:00 PM - 8:00 PM Wed 12:00 PM - 8:00 PM Thu 12:00 PM - 8:00 PM Fri 12:00 PM - 8:00 PM Sat 12:00 PM - 8:00 PM Sun 12:00 PM - 8:00 PM","https://www.bostonmarket.com/location/in/indianapolis/7554-shadeland-avenue"
"https://www.bostonmarket.com/","Boston Market Restaurant in Indianapolis, IN","7910 South US 31","Indianapolis","IN","46227","US","2463","(317) 882-9356","Restaurant","39.65154230147123","-86.13890239841339","Mon 12:00 PM - 8:00 PM Tues 12:00 PM - 8:00 PM Wed 12:00 PM - 8:00 PM Thu 12:00 PM - 8:00 PM Fri 12:00 PM - 8:00 PM Sat 12:00 PM - 8:00 PM Sun 12:00 PM - 8:00 PM","https://www.bostonmarket.com/location/in/indianapolis/7910-south-us-31"
"https://www.bostonmarket.com/","Boston Market Restaurant in Munster, IN","8032 Calumet Ave.","Munster","IN","46321","US","669","(219) 836-2888","Restaurant","41.56718449039038","-87.50929668545723","Mon 11:00 AM - 9:00 PM Tues 11:00 AM - 9:00 PM Wed 11:00 AM - 9:00 PM Thu 11:00 AM - 9:00 PM Fri 11:00 AM - 9:00 PM Sat 11:00 AM - 9:00 PM Sun 11:00 AM - 9:00 PM","https://www.bostonmarket.com/location/in/munster/8032-calumet-ave"
"https://www.bostonmarket.com/","Boston Market Restaurant in Ft Campbell, KY","Bldg 2840 Bastogne Ave.","Ft Campbell","KY","42223","US","4121","(270) 439-2019","Restaurant","36.64621059016231","-87.45269050821662","Mon 11:00 AM - 9:00 PM Tues 11:00 AM - 9:00 PM Wed 11:00 AM - 9:00 PM Thu 11:00 AM - 9:00 PM Fri 11:00 AM - 9:00 PM Sat 11:00 AM - 9:00 PM Sun 11:00 AM - 9:00 PM","https://www.bostonmarket.com/location/ky/ft-campbell/bldg-2840-bastogne-ave"
"https://www.bostonmarket.com/","Boston Market Restaurant in Ft Polk, LA","7742 Colorado Ave Bldg 850","Ft Polk","LA","71459","US","4110","(337) 537-4089","Restaurant","31.0443","-93.21810289999999","Mon 11:00 AM - 9:00 PM Tues 11:00 AM - 9:00 PM Wed 11:00 AM - 9:00 PM Thu 11:00 AM - 10:00 PM Fri 11:00 AM - 9:00 PM Sat 11:00 AM - 9:00 PM Sun 11:00 AM - 10:00 PM","https://www.bostonmarket.com/location/la/ft-polk/7742-colorado-ave-bldg-850"
"https://www.bostonmarket.com/","Boston Market Restaurant in Lafayette, LA","1701 North University Ave","Lafayette","LA","70507-6399","US","4202","(337) 237-0176","Restaurant","30.25213047733818","-92.0385035496804","Mon 10:00 AM - 10:00 PM Tues 10:00 AM - 10:00 PM Wed 10:00 AM - 10:00 PM Thu 10:00 AM - 10:00 PM Fri 10:00 AM - 10:00 PM Sat 10:00 AM - 10:00 PM Sun 10:00 AM - 10:00 PM","https://www.bostonmarket.com/location/la/lafayette/1701-north-university-ave"
"https://www.bostonmarket.com/","Boston Market Restaurant in Aspen Hill, MD","3825 Aspen Hill Road","Aspen Hill","MD","20906","US","796","(301) 871-0660","Restaurant","39.08126087744344","-77.07720547914505","Mon 12:00 PM - 8:00 PM Tues 12:00 PM - 8:00 PM Wed 12:00 PM - 8:00 PM Thu 12:00 PM - 8:00 PM Fri 12:00 PM - 8:00 PM Sat 12:00 PM - 8:00 PM Sun 12:00 PM - 8:00 PM","https://www.bostonmarket.com/location/md/aspen-hill/3825-aspen-hill-road"
"https://www.bostonmarket.com/","Boston Market Restaurant in Baltimore, MD","6336 York Road","Baltimore","MD","21212","US","683","(410) 372-0220","Restaurant","39.3724511343766","-76.61015712105382","Mon 12:00 PM - 8:00 PM Tues 12:00 PM - 8:00 PM Wed 12:00 PM - 8:00 PM Thu 12:00 PM - 8:00 PM Fri 12:00 PM - 8:00 PM Sat 12:00 PM - 8:00 PM Sun 12:00 PM - 8:00 PM","https://www.bostonmarket.com/location/md/baltimore/6336-york-road"
"https://www.bostonmarket.com/","Boston Market Restaurant in Bel Air, MD","600 Marketplace Drive","Bel Air","MD","21014","US","939","(410) 638-1530","Restaurant","39.52369026044442","-76.35091423988342","Mon 12:00 PM - 8:00 PM Tues 12:00 PM - 8:00 PM Wed 12:00 PM - 8:00 PM Thu 12:00 PM - 8:00 PM Fri 12:00 PM - 8:00 PM Sat 12:00 PM - 8:00 PM Sun 12:00 PM - 8:00 PM","https://www.bostonmarket.com/location/md/bel-air/600-marketplace-drive"
"https://www.bostonmarket.com/","Boston Market Restaurant in Columbia, MD","9061 Snowden River Pkwy","Columbia","MD","21045","US","331","(410) 312-0800","Restaurant","39.17999958619511","-76.82330422479936","Mon 12:00 PM - 8:00 PM Tues 12:00 PM - 8:00 PM Wed 12:00 PM - 8:00 PM Thu 12:00 PM - 8:00 PM Fri 12:00 PM - 8:00 PM Sat 12:00 PM - 8:00 PM Sun 12:00 PM - 8:00 PM","https://www.bostonmarket.com/location/md/columbia/9061-snowden-river-pkwy"
"https://www.bostonmarket.com/","Boston Market Restaurant in Ellicott City, MD","9380 Baltimore National Pike","Ellicott City","MD","21042","US","153","(410) 313-8400","Restaurant","39.27798925123073","-76.83475390076637","Mon 12:00 PM - 7:00 PM Tues 12:00 PM - 7:00 PM Wed 12:00 PM - 7:00 PM Thu 12:00 PM - 7:00 PM Fri 12:00 PM - 7:00 PM Sat 12:00 PM - 7:00 PM Sun 12:00 PM - 7:00 PM","https://www.bostonmarket.com/location/md/ellicott-city/9380-baltimore-national-pike"
"https://www.bostonmarket.com/","Boston Market Restaurant in Ft Mead, MD","2799 Rose Street","Ft Mead","MD","20755","US","4102","(410) 305-4079","Restaurant","39.107391034506705","-76.73800729215145","Mon 11:00 AM - 8:00 PM Tues 11:00 AM - 8:00 PM Wed 11:00 AM - 8:00 PM Thu 11:00 AM - 8:00 PM Fri 11:00 AM - 8:00 PM Sat 11:00 AM - 8:00 PM Sun 11:00 AM - 8:00 PM","https://www.bostonmarket.com/location/md/ft-mead/2799-rose-street"
"https://www.bostonmarket.com/","Boston Market Restaurant in Gaithersburg, MD","596 Frederick Avenue Unit B","Gaithersburg","MD","20877","US","999","(301) 869-9600","Restaurant","39.149468812734916","-77.2089958190918","Mon 11:00 AM - 8:00 PM Tues 11:00 AM - 8:00 PM Wed 11:00 AM - 8:00 PM Thu 11:00 AM - 8:00 PM Fri 11:00 AM - 8:00 PM Sat 11:00 AM - 8:00 PM Sun 11:00 AM - 8:00 PM","https://www.bostonmarket.com/location/md/gaithersburg/596-frederick-avenue"
"https://www.bostonmarket.com/","Boston Market Restaurant in Glen Burnie, MD","7931 Governor Ritchie Hwy","Glen Burnie","MD","21061","US","321","(410) 760-2800","Restaurant","39.1381797","-76.5998066","Mon 12:00 PM - 8:00 PM Tues 12:00 PM - 8:00 PM Wed 12:00 PM - 8:00 PM Thu 12:00 PM - 8:00 PM Fri 12:00 PM - 8:00 PM Sat 12:00 PM - 8:00 PM Sun 12:00 PM - 8:00 PM","https://www.bostonmarket.com/location/md/glen-burnie/7931-governor-ritchie-hwy"
"https://www.bostonmarket.com/","Boston Market Restaurant in Greenbelt, MD","6228 Greenbelt Rd. Unit A","Greenbelt","MD","20770","US","705","(301) 220-4445","Restaurant","38.99791426606555","-76.90918385982513","Mon 12:00 PM - 8:00 PM Tues 12:00 PM - 8:00 PM Wed 12:00 PM - 8:00 PM Thu 12:00 PM - 8:00 PM Fri 12:00 PM - 8:00 PM Sat 12:00 PM - 8:00 PM Sun 12:00 PM - 8:00 PM","https://www.bostonmarket.com/location/md/greenbelt/6228-greenbelt-rd"
"https://www.bostonmarket.com/","Boston Market Restaurant in JB Andrews AFB, MD","Bldg. 1811 G Street","JB Andrews AFB","MD","20762","US","4119","(301) 568-0180","Restaurant","38.81872","-76.88259","Mon 11:00 AM - 7:00 PM Tues 11:00 AM - 7:00 PM Wed 11:00 AM - 7:00 PM Thu 11:00 AM - 7:00 PM Fri 11:00 AM - 7:00 PM Sat 11:00 AM - 7:00 PM Sun 11:00 AM - 5:00 PM","https://www.bostonmarket.com/location/md/jb-andrews-afb/bldg-1811-g-street"
"https://www.bostonmarket.com/","Boston Market Restaurant in Pikesville, MD","1317 Reisterstown Road","Pikesville","MD","21208","US","432","(410) 484-2400","Restaurant","39.3760453696902","-76.72386864072678","Mon 12:00 PM - 7:00 PM Tues 12:00 PM - 7:00 PM Wed 12:00 PM - 7:00 PM Thu 12:00 PM - 7:00 PM Fri 12:00 PM - 7:00 PM Sat 12:00 PM - 7:00 PM Sun 12:00 PM - 7:00 PM","https://www.bostonmarket.com/location/md/pikesville/1317-reisterstown-road"
"https://www.bostonmarket.com/","Boston Market Restaurant in Riverdale, MD","6121 Kenilworth Ave","Riverdale","MD","20737","US","2791","(301) 277-1350","Restaurant","38.9606866","-76.9194363","Mon 12:00 PM - 8:00 PM Tues 12:00 PM - 8:00 PM Wed 12:00 PM - 8:00 PM Thu 12:00 PM - 8:00 PM Fri 12:00 PM - 8:00 PM Sat 12:00 PM - 8:00 PM Sun 12:00 PM - 8:00 PM","https://www.bostonmarket.com/location/md/riverdale/6121-kenilworth-ave"
"https://www.bostonmarket.com/","Boston Market Restaurant in Waldorf, MD","3295 Crain Highway","Waldorf","MD","20603","US","1779","(301) 638-4750","Restaurant","38.621976553196895","-76.9163741954481","Mon 12:00 PM - 8:00 PM Tues 12:00 PM - 8:00 PM Wed 12:00 PM - 8:00 PM Thu 12:00 PM - 8:00 PM Fri 12:00 PM - 8:00 PM Sat 12:00 PM - 8:00 PM Sun 12:00 PM - 8:00 PM","https://www.bostonmarket.com/location/md/waldorf/3295-crain-highway"
"https://www.bostonmarket.com/","Boston Market Restaurant in Brockton, MA","756 Belmont Street","Brockton","MA","02301","US","14","(508) 580-8551","Restaurant","42.06853592060291","-71.04825675487513","Mon 12:00 PM - 8:00 PM Tues 12:00 PM - 8:00 PM Wed 12:00 PM - 8:00 PM Thu 12:00 PM - 8:00 PM Fri 12:00 PM - 8:00 PM Sat 12:00 PM - 8:00 PM Sun 12:00 PM - 8:00 PM","https://www.bostonmarket.com/location/ma/brockton/756-belmont-street"
"https://www.bostonmarket.com/","Boston Market Restaurant in Chelmsford, MA","40 Drum Hill Rd.","Chelmsford","MA","01824","US","1630","(978) 937-7979","Restaurant","42.625032892692076","-71.36067375540733","Mon 12:00 PM - 8:00 PM Tues 12:00 PM - 8:00 PM Wed 12:00 PM - 8:00 PM Thu 12:00 PM - 8:00 PM Fri 12:00 PM - 8:00 PM Sat 12:00 PM - 8:00 PM Sun 12:00 PM - 8:00 PM","https://www.bostonmarket.com/location/ma/chelmsford/40-drum-hill-rd"
"https://www.bostonmarket.com/","Boston Market Restaurant in Fitchburg, MA","152 Whalon St.","Fitchburg","MA","01420","US","4","(978) 342-8329","Restaurant","42.5544025","-71.780883","Mon 12:00 PM - 8:00 PM Tues 12:00 PM - 8:00 PM Wed 12:00 PM - 8:00 PM Thu 12:00 PM - 8:00 PM Fri 12:00 PM - 8:00 PM Sat 12:00 PM - 8:00 PM Sun 12:00 PM - 8:00 PM","https://www.bostonmarket.com/location/ma/fitchburg/152-whalon-st"
"https://www.bostonmarket.com/","Boston Market Restaurant in Lawrence, MA","435 Winthrop Rd.","Lawrence","MA","01843","US","782","(978) 725-8100","Restaurant","42.679206643269026","-71.13396132237318","Mon 12:00 PM - 8:00 PM Tues 12:00 PM - 8:00 PM Wed 12:00 PM - 8:00 PM Thu 12:00 PM - 8:00 PM Fri 12:00 PM - 8:00 PM Sat 12:00 PM - 8:00 PM Sun 12:00 PM - 8:00 PM","https://www.bostonmarket.com/location/ma/lawrence/435-winthrop-rd"
"https://www.bostonmarket.com/","Boston Market Restaurant in Marlborough, MA","189 Boston Post Rd. West","Marlborough","MA","01752","US","812","(508) 229-2525","Restaurant","42.339339767513636","-71.5893567502826","Mon 12:00 PM - 8:00 PM Tues 12:00 PM - 8:00 PM Wed 12:00 PM - 8:00 PM Thu 12:00 PM - 8:00 PM Fri 12:00 PM - 8:00 PM Sat 12:00 PM - 8:00 PM Sun 12:00 PM - 8:00 PM","https://www.bostonmarket.com/location/ma/marlborough/189-boston-post-rd-west"
"https://www.bostonmarket.com/","Boston Market Restaurant in Medford, MA","616 Fellsway","Medford","MA","02155","US","1064","(781) 393-0413","Restaurant","42.4061036","-71.0826042","Mon 12:00 PM - 8:00 PM Tues 12:00 PM - 8:00 PM Wed 12:00 PM - 8:00 PM Thu 12:00 PM - 8:00 PM Fri 12:00 PM - 8:00 PM Sat 12:00 PM - 8:00 PM Sun 12:00 PM - 8:00 PM","https://www.bostonmarket.com/location/ma/medford/616-fellsway"
"https://www.bostonmarket.com/","Boston Market Restaurant in Quincy, MA","126 Granite Street","Quincy","MA","02169","US","594","(617) 774-1155","Restaurant","42.24621510684731","-71.0047258511986","Mon 12:00 PM - 8:00 PM Tues 12:00 PM - 8:00 PM Wed 12:00 PM - 8:00 PM Thu 12:00 PM - 8:00 PM Fri 12:00 PM - 8:00 PM Sat 12:00 PM - 8:00 PM Sun 12:00 PM - 8:00 PM","https://www.bostonmarket.com/location/ma/quincy/126-granite-street"
"https://www.bostonmarket.com/","Boston Market Restaurant in Saugus, MA","168 Broadway","Saugus","MA","01906","US","29","(781) 231-7007","Restaurant","42.4907459","-71.0162293","Mon 12:00 PM - 8:00 PM Tues 12:00 PM - 8:00 PM Wed 12:00 PM - 8:00 PM Thu 12:00 PM - 8:00 PM Fri 12:00 PM - 8:00 PM Sat 12:00 PM - 8:00 PM Sun 12:00 PM - 8:00 PM","https://www.bostonmarket.com/location/ma/saugus/168-broadway"
"https://www.bostonmarket.com/","Boston Market Restaurant in Springfield, MA","1387 Boston Rd","Springfield","MA","01119","US","329","(413) 271-3808","Restaurant","42.1406152747576","-72.49719271308777","Mon 12:00 PM - 8:00 PM Tues 12:00 PM - 8:00 PM Wed 12:00 PM - 8:00 PM Thu 12:00 PM - 8:00 PM Fri 12:00 PM - 8:00 PM Sat 12:00 PM - 8:00 PM Sun 12:00 PM - 8:00 PM","https://www.bostonmarket.com/location/ma/springfield/1387-boston-rd"
"https://www.bostonmarket.com/","Boston Market Restaurant in Waltham, MA","1099 Lexington Street","Waltham","MA","02452","US","13","(781) 647-3600","Restaurant","42.41269166361044","-71.23270148283837","Mon 12:00 PM - 8:00 PM Tues 12:00 PM - 8:00 PM Wed 12:00 PM - 8:00 PM Thu 12:00 PM - 8:00 PM Fri 12:00 PM - 8:00 PM Sat 12:00 PM - 8:00 PM Sun 12:00 PM - 8:00 PM","https://www.bostonmarket.com/location/ma/waltham/1099-lexington-street"
"https://www.bostonmarket.com/","Boston Market Restaurant in Worcester, MA","14 Park Avenue","Worcester","MA","01605","US","3212","(508) 421-9352","Restaurant","42.28411750482104","-71.8085751720173","Mon 12:00 PM - 8:00 PM Tues 12:00 PM - 8:00 PM Wed 12:00 PM - 8:00 PM Thu 12:00 PM - 8:00 PM Fri 12:00 PM - 8:00 PM Sat 12:00 PM - 8:00 PM Sun 12:00 PM - 8:00 PM","https://www.bostonmarket.com/location/ma/worcester/14-park-avenue"
"https://www.bostonmarket.com/","Boston Market Restaurant in Allen Park, MI","15424 Southfield Rd.","Allen Park","MI","48101","US","600","(313) 381-8600","Restaurant","42.25915736019796","-83.20494130253792","Mon 11:00 AM - 8:00 PM Tues 11:00 AM - 8:00 PM Wed 11:00 AM - 8:00 PM Thu 11:00 AM - 8:00 PM Fri 11:00 AM - 8:00 PM Sat 11:00 AM - 8:00 PM Sun 11:00 AM - 8:00 PM","https://www.bostonmarket.com/location/mi/allen-park/15424-southfield-rd"
"https://www.bostonmarket.com/","Boston Market Restaurant in Canton, MI","43450 Ford Rd.","Canton","MI","48187","US","501","(734) 844-1200","Restaurant","42.3228304292466","-83.46895435455735","Mon 12:00 PM - 8:00 PM Tues 12:00 PM - 8:00 PM Wed 12:00 PM - 8:00 PM Thu 12:00 PM - 8:00 PM Fri 12:00 PM - 8:00 PM Sat 12:00 PM - 8:00 PM Sun 12:00 PM - 8:00 PM","https://www.bostonmarket.com/location/mi/canton/43450-ford-rd"
"https://www.bostonmarket.com/","Boston Market Restaurant in Clinton Township, MI","37105 Gratiot Avenue","Clinton Township","MI","48036","US","135","(586) 463-8320","Restaurant","42.5710147","-82.8916893","Mon 12:00 PM - 8:00 PM Tues 12:00 PM - 8:00 PM Wed 12:00 PM - 8:00 PM Thu 12:00 PM - 8:00 PM Fri 12:00 PM - 8:00 PM Sat 12:00 PM - 8:00 PM Sun 12:00 PM - 8:00 PM","https://www.bostonmarket.com/location/mi/clinton-township/37105-gratiot-avenue"
"https://www.bostonmarket.com/","Boston Market Restaurant in Dearborn, MI","5651 Mercury Dr.","Dearborn","MI","48126","US","543","(313) 441-3200","Restaurant","42.32973794513927","-83.20720234758255","Mon 12:00 PM - 8:00 PM Tues 12:00 PM - 8:00 PM Wed 12:00 PM - 8:00 PM Thu 12:00 PM - 8:00 PM Fri 12:00 PM - 8:00 PM Sat 12:00 PM - 8:00 PM Sun 12:00 PM - 8:00 PM","https://www.bostonmarket.com/location/mi/dearborn/5651-mercury-dr"
"https://www.bostonmarket.com/","Boston Market Restaurant in Detroit, MI","18610 Livernois","Detroit","MI","48221","US","976","(313) 341-0111","Restaurant","42.42834284649833","-83.14073324203491","Mon 12:00 PM - 8:00 PM Tues 12:00 PM - 8:00 PM Wed 12:00 PM - 8:00 PM Thu 12:00 PM - 8:00 PM Fri 12:00 PM - 8:00 PM Sat 12:00 PM - 8:00 PM Sun 12:00 PM - 8:00 PM","https://www.bostonmarket.com/location/mi/detroit/18610-livernois"
"https://www.bostonmarket.com/","Boston Market Restaurant in Grosse Pointe Woods, MI","20195 Mack Road","Grosse Pointe Woods","MI","48236","US","59","(313) 885-6480","Restaurant","42.43541942810279","-82.90856887401787","Mon 12:00 PM - 8:00 PM Tues 12:00 PM - 8:00 PM Wed 12:00 PM - 8:00 PM Thu 12:00 PM - 8:00 PM Fri 12:00 PM - 8:00 PM Sat 12:00 PM - 8:00 PM Sun 12:00 PM - 8:00 PM","https://www.bostonmarket.com/location/mi/grosse-pointe-woods/20195-mack-road"
"https://www.bostonmarket.com/","Boston Market Restaurant in Livonia, MI","19055 Middlebelt Rd.","Livonia","MI","48152","US","289","(248) 442-7790","Restaurant","42.426091777291326","-83.33624213933939","Mon 11:00 AM - 9:00 PM Tues 11:00 AM - 9:00 PM Wed 11:00 AM - 9:00 PM Thu 11:00 AM - 9:00 PM Fri 11:00 AM - 9:00 PM Sat 11:00 AM - 9:00 PM Sun 11:00 AM - 9:00 PM","https://www.bostonmarket.com/location/mi/livonia/19055-middlebelt-rd"
"https://www.bostonmarket.com/","Boston Market Restaurant in Shelby Charter Township, MI","13993 Hall Rd.","Shelby Charter Township","MI","48315","US","169","(586) 566-7170","Restaurant","42.62905610662054","-82.9924523164645","Mon 12:00 PM - 8:00 PM Tues 12:00 PM - 8:00 PM Wed 12:00 PM - 8:00 PM Thu 12:00 PM - 8:00 PM Fri 12:00 PM - 8:00 PM Sat 12:00 PM - 8:00 PM Sun 12:00 PM - 8:00 PM","https://www.bostonmarket.com/location/mi/shelby-charter-township/13993-hall-rd"
"https://www.bostonmarket.com/","Boston Market Restaurant in Southfield, MI","29940 Southfield Road","Southfield","MI","48076","US","77","(248) 557-7020","Restaurant","42.5092508","-83.221946","Mon 12:00 PM - 8:00 PM Tues 12:00 PM - 8:00 PM Wed 12:00 PM - 8:00 PM Thu 12:00 PM - 8:00 PM Fri 12:00 PM - 8:00 PM Sat 12:00 PM - 8:00 PM Sun 12:00 PM - 8:00 PM","https://www.bostonmarket.com/location/mi/southfield/29940-southfield-road"
"https://www.bostonmarket.com/","Boston Market Restaurant in Warren, MI","26021 Hoover Road","Warren","MI","48089","US","68","(586) 757-9970","Restaurant","42.4853216","-83.0072811","Mon 12:00 PM - 8:00 PM Tues 12:00 PM - 8:00 PM Wed 12:00 PM - 8:00 PM Thu 12:00 PM - 8:00 PM Fri 12:00 PM - 8:00 PM Sat 12:00 PM - 8:00 PM Sun 12:00 PM - 8:00 PM","https://www.bostonmarket.com/location/mi/warren/26021-hoover-road"
"https://www.bostonmarket.com/","Boston Market Restaurant in Waterford, MI","5160 Highland Road","Waterford","MI","48327","US","248","(248) 674-8867","Restaurant","42.66074628457488","-83.38928550481796","Mon 12:00 PM - 8:00 PM Tues 12:00 PM - 8:00 PM Wed 12:00 PM - 8:00 PM Thu 12:00 PM - 8:00 PM Fri 12:00 PM - 8:00 PM Sat 12:00 PM - 8:00 PM Sun 12:00 PM - 8:00 PM","https://www.bostonmarket.com/location/mi/waterford/5160-highland-road"
"https://www.bostonmarket.com/","Boston Market Restaurant in Ft Leonard Wood, MO","143  Replacement Ave Bldg # 487","Ft Leonard Wood","MO","65473","US","4113","(573) 329-2200","Restaurant","37.75808079999999","-92.1156046","Mon 11:00 AM - 8:00 PM Tues 11:00 AM - 8:00 PM Wed 11:00 AM - 8:00 PM Thu 11:00 AM - 8:00 PM Fri 11:00 AM - 8:00 PM Sat 11:00 AM - 8:00 PM Sun 11:00 AM - 6:00 PM","https://www.bostonmarket.com/location/mo/ft-leonard-wood/143-replacement-ave-bldg-487"
"https://www.bostonmarket.com/","Boston Market Restaurant in Richmond Heights, MO","6690 Clayton Rd.","Richmond Heights","MO","63117","US","1741","(314) 647-4500","Restaurant","38.6341715936318","-90.31610369682306","Mon 12:00 PM - 8:00 PM Tues 12:00 PM - 8:00 PM Wed 12:00 PM - 8:00 PM Thu 12:00 PM - 8:00 PM Fri 12:00 PM - 8:00 PM Sat 12:00 PM - 8:00 PM Sun 12:00 PM - 8:00 PM","https://www.bostonmarket.com/location/mo/richmond-heights/6690-clayton-rd"
"https://www.bostonmarket.com/","Boston Market Restaurant in Nellis AFB, NV","5691 Rickenbacker Road Bldg 431","Nellis AFB","NV","89191","US","4114","(702) 643-3526","Restaurant","36.23393156301699","-115.05022656172514","Mon 11:00 AM - 8:00 PM Tues 11:00 AM - 8:00 PM Wed 11:00 AM - 8:00 PM Thu 11:00 AM - 8:00 PM Fri 11:00 AM - 8:00 PM Sat 11:00 AM - 8:00 PM Sun 11:00 AM - 6:00 PM","https://www.bostonmarket.com/location/nv/nellis-afb/5691-rickenbacker-road-bldg-431"
"https://www.bostonmarket.com/","Boston Market Restaurant in Reno, NV","4801 Kietzke Lane","Reno","NV","89502","US","1588","(775) 827-5900","Restaurant","39.4805798","-119.7938577","Mon 12:00 PM - 8:00 PM Tues 12:00 PM - 8:00 PM Wed 12:00 PM - 8:00 PM Thu 12:00 PM - 8:00 PM Fri 12:00 PM - 8:00 PM Sat 12:00 PM - 8:00 PM Sun 12:00 PM - 8:00 PM","https://www.bostonmarket.com/location/nv/reno/4801-kietzke-lane"
"https://www.bostonmarket.com/","Boston Market Restaurant in Avenel, NJ","1560 St. Georges Avenue","Avenel","NJ","07001","US","1658","(732) 381-8833","Restaurant","40.5912632","-74.2903041","Mon 12:00 PM - 8:00 PM Tues 12:00 PM - 8:00 PM Wed 12:00 PM - 8:00 PM Thu 12:00 PM - 8:00 PM Fri 12:00 PM - 8:00 PM Sat 12:00 PM - 8:00 PM Sun 12:00 PM - 8:00 PM","https://www.bostonmarket.com/location/nj/avenel/1560-st-georges-avenue"
"https://www.bostonmarket.com/","Boston Market Restaurant in Blackwood, NJ","5716 Black Horse Pike","Blackwood","NJ","08012","US","400","(856) 227-6700","Restaurant","39.76046365382097","-75.04716016728707","Mon 12:00 PM - 8:00 PM Tues 12:00 PM - 8:00 PM Wed 12:00 PM - 8:00 PM Thu 12:00 PM - 8:00 PM Fri 12:00 PM - 8:00 PM Sat 12:00 PM - 8:00 PM Sun 12:00 PM - 8:00 PM","https://www.bostonmarket.com/location/nj/blackwood/5716-black-horse-pike"
"https://www.bostonmarket.com/","Boston Market Restaurant in Clifton, NJ","1160 US Highway 46","Clifton","NJ","07013","US","1659","(973) 591-0111","Restaurant","40.87029120772481","-74.18431157118675","Mon 12:00 PM - 8:00 PM Tues 12:00 PM - 8:00 PM Wed 12:00 PM - 8:00 PM Thu 12:00 PM - 8:00 PM Fri 12:00 PM - 8:00 PM Sat 12:00 PM - 8:00 PM Sun 12:00 PM - 8:00 PM","https://www.bostonmarket.com/location/nj/clifton/1160-us-highway-46"
"https://www.bostonmarket.com/","Boston Market Restaurant in Clifton, NJ","1342 Clifton Ave.","Clifton","NJ","07013","US","965","(973) 778-7879","Restaurant","40.8540346","-74.1727614","Mon 12:00 PM - 8:00 PM Tues 12:00 PM - 8:00 PM Wed 12:00 PM - 8:00 PM Thu 12:00 PM - 8:00 PM Fri 12:00 PM - 8:00 PM Sat 12:00 PM - 8:00 PM Sun 12:00 PM - 8:00 PM","https://www.bostonmarket.com/location/nj/clifton/1342-clifton-ave"
"https://www.bostonmarket.com/","Boston Market Restaurant in East Brunswick, NJ","300 Rt-18","East Brunswick","NJ","08816","US","316","(732) 432-0404","Restaurant","40.45592466474407","-74.40002957231394","Mon 12:00 PM - 8:00 PM Tues 12:00 PM - 8:00 PM Wed 12:00 PM - 8:00 PM Thu 12:00 PM - 8:00 PM Fri 12:00 PM - 8:00 PM Sat 12:00 PM - 8:00 PM Sun 12:00 PM - 8:00 PM","https://www.bostonmarket.com/location/nj/east-brunswick/300-rt-18"
"https://www.bostonmarket.com/","Boston Market Restaurant in East Hanover, NJ","332 Rt. 10","East Hanover","NJ","07936","US","1728","(973) 884-7200","Restaurant","40.80452327819691","-74.36553492212624","Mon 12:00 PM - 8:00 PM Tues 12:00 PM - 8:00 PM Wed 12:00 PM - 8:00 PM Thu 12:00 PM - 8:00 PM Fri 12:00 PM - 8:00 PM Sat 12:00 PM - 8:00 PM Sun 12:00 PM - 8:00 PM","https://www.bostonmarket.com/location/nj/east-hanover/332-rt-10"
"https://www.bostonmarket.com/","Boston Market Restaurant in East Orange, NJ","471 Central Avenue","East Orange","NJ","07018","US","1660","(973) 678-1616","Restaurant","40.75824230837242","-74.22040678941357","Mon 12:00 PM - 8:00 PM Tues 12:00 PM - 8:00 PM Wed 12:00 PM - 8:00 PM Thu 12:00 PM - 8:00 PM Fri 12:00 PM - 8:00 PM Sat 12:00 PM - 8:00 PM Sun 12:00 PM - 8:00 PM","https://www.bostonmarket.com/location/nj/east-orange/471-central-avenue"
"https://www.bostonmarket.com/","Boston Market Restaurant in Edison, NJ","878 US Rt. 1 North Bound","Edison","NJ","08817","US","1661","(732) 248-3080","Restaurant","40.5147684","-74.3748066","Mon 12:00 PM - 8:00 PM Tues 12:00 PM - 8:00 PM Wed 12:00 PM - 8:00 PM Thu 12:00 PM - 8:00 PM Fri 12:00 PM - 8:00 PM Sat 12:00 PM - 8:00 PM Sun 12:00 PM - 8:00 PM","https://www.bostonmarket.com/location/nj/edison/878-us-rt-1-north-bound"
"https://www.bostonmarket.com/","Boston Market Restaurant in Emerson, NJ","175 Kinderkamack","Emerson","NJ","07630","US","319","(201) 599-0500","Restaurant","40.97532992578415","-74.02652089299409","Mon 12:00 PM - 8:00 PM Tues 12:00 PM - 8:00 PM Wed 12:00 PM - 8:00 PM Thu 12:00 PM - 8:00 PM Fri 12:00 PM - 8:00 PM Sat 12:00 PM - 8:00 PM Sun 12:00 PM - 8:00 PM","https://www.bostonmarket.com/location/nj/emerson/175-kinderkamack"
"https://www.bostonmarket.com/","Boston Market Restaurant in Fair Lawn, NJ","21-20 Broadway","Fair Lawn","NJ","07410","US","1662","(201) 794-2100","Restaurant","40.921651338621686","-74.11436224228731","Mon 12:00 PM - 8:00 PM Tues 12:00 PM - 8:00 PM Wed 12:00 PM - 8:00 PM Thu 12:00 PM - 8:00 PM Fri 12:00 PM - 8:00 PM Sat 12:00 PM - 8:00 PM Sun 12:00 PM - 8:00 PM","https://www.bostonmarket.com/location/nj/fair-lawn/21-20-broadway"
"https://www.bostonmarket.com/","Boston Market Restaurant in Hackensack, NJ","180 Hackensack Avenue","Hackensack","NJ","07602","US","1664","(201) 457-0707","Restaurant","40.90054712884499","-74.03514460490442","Mon 12:00 PM - 8:00 PM Tues 12:00 PM - 8:00 PM Wed 12:00 PM - 8:00 PM Thu 12:00 PM - 8:00 PM Fri 12:00 PM - 8:00 PM Sat 12:00 PM - 8:00 PM Sun 12:00 PM - 8:00 PM","https://www.bostonmarket.com/location/nj/hackensack/180-hackensack-avenue"
"https://www.bostonmarket.com/","Boston Market Restaurant in Hamilton, NJ","770 Route 33","Hamilton","NJ","08619","US","1008","(609) 631-9200","Restaurant","40.23106635826708","-74.67579089485753","Mon 12:00 PM - 8:00 PM Tues 12:00 PM - 8:00 PM Wed 12:00 PM - 8:00 PM Thu 12:00 PM - 8:00 PM Fri 12:00 PM - 8:00 PM Sat 12:00 PM - 8:00 PM Sun 12:00 PM - 8:00 PM","https://www.bostonmarket.com/location/nj/hamilton/770-route-33"
"https://www.bostonmarket.com/","Boston Market Restaurant in Lodi, NJ","314 Essex Street","Lodi","NJ","07644","US","323","(201) 845-7778","Restaurant","40.88798811090096","-74.06696317790988","Mon 12:00 PM - 8:00 PM Tues 12:00 PM - 8:00 PM Wed 12:00 PM - 8:00 PM Thu 12:00 PM - 8:00 PM Fri 12:00 PM - 8:00 PM Sat 12:00 PM - 8:00 PM Sun 12:00 PM - 8:00 PM","https://www.bostonmarket.com/location/nj/lodi/314-essex-street"
"https://www.bostonmarket.com/","Boston Market Restaurant in Mahwah, NJ","395 Route 17 North","Mahwah","NJ","07430","US","1667","(201) 828-9399","Restaurant","41.079918350560995","-74.14902845270035","Mon 12:00 PM - 8:00 PM Tues 12:00 PM - 8:00 PM Wed 12:00 PM - 8:00 PM Thu 12:00 PM - 8:00 PM Fri 12:00 PM - 8:00 PM Sat 12:00 PM - 8:00 PM Sun 12:00 PM - 8:00 PM","https://www.bostonmarket.com/location/nj/mahwah/395-route-17-north"
"https://www.bostonmarket.com/","Boston Market Restaurant in McGuire AFB, NJ","3452 Broidy Avenue","McGuire AFB","NJ","08641","US","4108","(609) 723-6100","Restaurant","40.0270745","-74.61640729999999","Mon 11:00 AM - 7:00 PM Tues 11:00 AM - 7:00 PM Wed 11:00 AM - 7:00 PM Thu 11:00 AM - 7:00 PM Fri 11:00 AM - 7:00 PM Sat 11:00 AM - 7:00 PM Sun 11:00 AM - 5:00 PM","https://www.bostonmarket.com/location/nj/mcguire-afb/3452-broidy-avenue"
"https://www.bostonmarket.com/","Boston Market Restaurant in Moorestown, NJ","1201 Nixon Drive","Moorestown","NJ","08057","US","1539","(856) 802-0044","Restaurant","39.9406476","-74.9622934","Mon 12:00 PM - 8:00 PM Tues 12:00 PM - 8:00 PM Wed 12:00 PM - 8:00 PM Thu 12:00 PM - 8:00 PM Fri 12:00 PM - 8:00 PM Sat 12:00 PM - 8:00 PM Sun 12:00 PM - 8:00 PM","https://www.bostonmarket.com/location/nj/moorestown/1201-nixon-drive"
"https://www.bostonmarket.com/","Boston Market Restaurant in Mount Holly, NJ","514 High Street","Mount Holly","NJ","08060","US","1072","(609) 702-9085","Restaurant","40.00571780245531","-74.79620262980461","Mon 12:00 PM - 8:00 PM Tues 12:00 PM - 8:00 PM Wed 12:00 PM - 8:00 PM Thu 12:00 PM - 8:00 PM Fri 12:00 PM - 8:00 PM Sat 12:00 PM - 8:00 PM Sun 12:00 PM - 8:00 PM","https://www.bostonmarket.com/location/nj/mount-holly/514-high-street"
"https://www.bostonmarket.com/","Boston Market Restaurant in North Arlington, NJ","491 Ridge Road","North Arlington","NJ","07031","US","696","(201) 997-1006","Restaurant","40.7964840689861","-74.12789471828091","Mon 12:00 PM - 8:00 PM Tues 12:00 PM - 8:00 PM Wed 12:00 PM - 8:00 PM Thu 12:00 PM - 8:00 PM Fri 12:00 PM - 8:00 PM Sat 12:00 PM - 8:00 PM Sun 12:00 PM - 8:00 PM","https://www.bostonmarket.com/location/nj/north-arlington/491-ridge-road"
"https://www.bostonmarket.com/","Boston Market Restaurant in Shrewsbury, NJ","1103 Broad Street","Shrewsbury","NJ","07702","US","1139","(732) 544-2400","Restaurant","40.316017741702744","-74.06205493218295","Mon 12:00 PM - 8:00 PM Tues 12:00 PM - 8:00 PM Wed 12:00 PM - 8:00 PM Thu 12:00 PM - 8:00 PM Fri 12:00 PM - 8:00 PM Sat 12:00 PM - 8:00 PM Sun 12:00 PM - 8:00 PM","https://www.bostonmarket.com/location/nj/shrewsbury/1103-broad-street"
"https://www.bostonmarket.com/","Boston Market Restaurant in Somerset, NJ","900 Easton Ave. #165","Somerset","NJ","08873","US","993","(732) 214-1144","Restaurant","40.51124079096646","-74.48385643965594","Mon 12:00 PM - 8:00 PM Tues 12:00 PM - 8:00 PM Wed 12:00 PM - 8:00 PM Thu 12:00 PM - 8:00 PM Fri 12:00 PM - 8:00 PM Sat 12:00 PM - 8:00 PM Sun 12:00 PM - 8:00 PM","https://www.bostonmarket.com/location/nj/somerset/900-easton-ave"
"https://www.bostonmarket.com/","Boston Market Restaurant in Succasunna, NJ","247 Route 10 East","Succasunna","NJ","07876","US","119","(973) 584-9200","Restaurant","40.870400734068916","-74.64402207977173","Mon 12:00 PM - 8:00 PM Tues 12:00 PM - 8:00 PM Wed 12:00 PM - 8:00 PM Thu 12:00 PM - 8:00 PM Fri 12:00 PM - 8:00 PM Sat 12:00 PM - 8:00 PM Sun 12:00 PM - 8:00 PM","https://www.bostonmarket.com/location/nj/succasunna/247-route-10-east"
"https://www.bostonmarket.com/","Boston Market Restaurant in Toms River, NJ","141 Route 37 East","Toms River","NJ","08753","US","677","(732) 914-8900","Restaurant","39.96293486279579","-74.18921121958192","Mon 12:00 PM - 8:00 PM Tues 12:00 PM - 8:00 PM Wed 12:00 PM - 8:00 PM Thu 12:00 PM - 8:00 PM Fri 12:00 PM - 8:00 PM Sat 12:00 PM - 8:00 PM Sun 12:00 PM - 8:00 PM","https://www.bostonmarket.com/location/nj/toms-river/141-route-37-east"
"https://www.bostonmarket.com/","Boston Market Restaurant in Union, NJ","2650 US Highway 22","Union","NJ","07083","US","1671","(908) 687-8400","Restaurant","40.68886727323238","-74.30668607354164","Mon 12:00 PM - 8:00 PM Tues 12:00 PM - 8:00 PM Wed 12:00 PM - 8:00 PM Thu 12:00 PM - 8:00 PM Fri 12:00 PM - 8:00 PM Sat 12:00 PM - 8:00 PM Sun 12:00 PM - 8:00 PM","https://www.bostonmarket.com/location/nj/union/2650-us-highway-22"
"https://www.bostonmarket.com/","Boston Market Restaurant in Union, NJ","523 Chestnut Street","Union","NJ","07083","US","195","(908) 687-1700","Restaurant","40.68490576522341","-74.26893183592256","Mon 12:00 PM - 8:00 PM Tues 12:00 PM - 8:00 PM Wed 12:00 PM - 8:00 PM Thu 12:00 PM - 8:00 PM Fri 12:00 PM - 8:00 PM Sat 12:00 PM - 8:00 PM Sun 12:00 PM - 8:00 PM","https://www.bostonmarket.com/location/nj/union/523-chestnut-street"
"https://www.bostonmarket.com/","Boston Market Restaurant in Vineland, NJ","301 S. Main Rd.","Vineland","NJ","08360","US","1918","(856) 507-7970","Restaurant","39.4786763","-75.0006017","Mon 12:00 PM - 8:00 PM Tues 12:00 PM - 8:00 PM Wed 12:00 PM - 8:00 PM Thu 12:00 PM - 8:00 PM Fri 12:00 PM - 8:00 PM Sat 12:00 PM - 8:00 PM Sun 12:00 PM - 8:00 PM","https://www.bostonmarket.com/location/nj/vineland/301-s-main-rd"
"https://www.bostonmarket.com/","Boston Market Restaurant in Waldwick, NJ","20 Wyckoff Avenue","Waldwick","NJ","07463","US","174","(201) 447-3300","Restaurant","41.00857098430637","-74.1209490001529","Mon 12:00 PM - 8:00 PM Tues 12:00 PM - 8:00 PM Wed 12:00 PM - 8:00 PM Thu 12:00 PM - 8:00 PM Fri 12:00 PM - 8:00 PM Sat 12:00 PM - 8:00 PM Sun 12:00 PM - 8:00 PM","https://www.bostonmarket.com/location/nj/waldwick/20-wyckoff-avenue"
"https://www.bostonmarket.com/","Boston Market Restaurant in Woodbury, NJ","891 Hurffville Rd","Woodbury","NJ","08096","US","495","(856) 848-8892","Restaurant","39.83681433215549","-75.08864521980286","Mon 12:00 PM - 8:00 PM Tues 12:00 PM - 8:00 PM Wed 12:00 PM - 8:00 PM Thu 12:00 PM - 8:00 PM Fri 12:00 PM - 8:00 PM Sat 12:00 PM - 8:00 PM Sun 12:00 PM - 8:00 PM","https://www.bostonmarket.com/location/nj/woodbury/891-hurffville-rd"
"https://www.bostonmarket.com/","Boston Market Restaurant in Albuquerque, NM","5640 Wyoming Blvd. NE Tract B-6","Albuquerque","NM","87109","US","554","(505) 857-0700","Restaurant","35.14555356396618","-106.55280634760857","Mon 12:00 PM - 8:00 PM Tues 12:00 PM - 8:00 PM Wed 12:00 PM - 8:00 PM Thu 12:00 PM - 8:00 PM Fri 12:00 PM - 8:00 PM Sat 12:00 PM - 8:00 PM Sun 12:00 PM - 8:00 PM","https://www.bostonmarket.com/location/nm/albuquerque/5640-wyoming-blvd-ne"
"https://www.bostonmarket.com/","Boston Market Restaurant in Bayside, NY","23-90 Bell Blvd","Bayside","NY","11360","US","423","(718) 224-1747","Restaurant","40.7802457","-73.7768201","Mon 12:00 PM - 8:00 PM Tues 12:00 PM - 8:00 PM Wed 12:00 PM - 8:00 PM Thu 12:00 PM - 8:00 PM Fri 12:00 PM - 8:00 PM Sat 12:00 PM - 8:00 PM Sun 12:00 PM - 8:00 PM","https://www.bostonmarket.com/location/ny/bayside/23-90-bell-blvd"
"https://www.bostonmarket.com/","Boston Market Restaurant in Bethpage, NY","3962 Hempstead Tpke.","Bethpage","NY","11714","US","311","(516) 579-0779","Restaurant","40.7249344753309","-73.48967917640039","Mon 12:00 PM - 8:00 PM Tues 12:00 PM - 8:00 PM Wed 12:00 PM - 8:00 PM Thu 12:00 PM - 8:00 PM Fri 12:00 PM - 8:00 PM Sat 12:00 PM - 8:00 PM Sun 12:00 PM - 8:00 PM","https://www.bostonmarket.com/location/ny/bethpage/3962-hempstead-tpke"
"https://www.bostonmarket.com/","Boston Market Restaurant in Bronx, NY","3371-85 East Tremont Avenue","Bronx","NY","10465","US","950","(718) 824-0440","Restaurant","40.833966","-73.8285444","Mon 12:00 PM - 9:00 PM Tues 12:00 PM - 9:00 PM Wed 12:00 PM - 9:00 PM Thu 12:00 PM - 9:00 PM Fri 12:00 PM - 9:00 PM Sat 12:00 PM - 9:00 PM Sun 12:00 PM - 9:00 PM","https://www.bostonmarket.com/location/ny/bronx/3371-85-east-tremont-avenue"
"https://www.bostonmarket.com/","Boston Market Restaurant in Brooklyn, NY","1340 Pennsylvania Ave","Brooklyn","NY","11239","US","3303","(929) 379-0034","Restaurant","40.64725","-73.88255","Mon 12:00 PM - 8:00 PM Tues 12:00 PM - 8:00 PM Wed 12:00 PM - 8:00 PM Thu 12:00 PM - 8:00 PM Fri 12:00 PM - 8:00 PM Sat 12:00 PM - 8:00 PM Sun 12:00 PM - 8:00 PM","https://www.bostonmarket.com/location/ny/brooklyn/1340-pennsylvania-ave"
"https://www.bostonmarket.com/","Boston Market Restaurant in Brooklyn, NY","1972 Ralph Avenue","Brooklyn","NY","11234","US","1589","(718) 241-5700","Restaurant","40.6292952","-73.9188159","Mon 11:30 AM - 9:00 PM Tues 11:30 AM - 9:00 PM Wed 11:30 AM - 9:00 PM Thu 11:30 AM - 9:00 PM Fri 11:30 AM - 9:00 PM Sat 11:30 AM - 9:00 PM Sun 11:30 AM - 8:00 PM","https://www.bostonmarket.com/location/ny/brooklyn/1972-ralph-avenue"
"https://www.bostonmarket.com/","Boston Market Restaurant in Buffalo, NY","2380 Delaware Ave.","Buffalo","NY","14216","US","617","(716) 873-4548","Restaurant","42.9493068","-78.8691072","Mon 12:00 PM - 8:00 PM Tues 12:00 PM - 8:00 PM Wed 12:00 PM - 8:00 PM Thu 12:00 PM - 8:00 PM Fri 12:00 PM - 8:00 PM Sat 12:00 PM - 8:00 PM Sun 12:00 PM - 8:00 PM","https://www.bostonmarket.com/location/ny/buffalo/2380-delaware-ave"
"https://www.bostonmarket.com/","Boston Market Restaurant in Commack, NY","2170 Jericho Turnpike","Commack","NY","11725","US","2351","(631) 462-8700","Restaurant","40.84266990640117","-73.2856259644359","Mon 12:00 PM - 8:00 PM Tues 12:00 PM - 8:00 PM Wed 12:00 PM - 8:00 PM Thu 12:00 PM - 8:00 PM Fri 12:00 PM - 8:00 PM Sat 12:00 PM - 8:00 PM Sun 12:00 PM - 8:00 PM","https://www.bostonmarket.com/location/ny/commack/2170-jericho-turnpike"
"https://www.bostonmarket.com/","Boston Market Restaurant in Deer Park, NY","1605 Deer Park Avenue","Deer Park","NY","11729","US","464","(631) 254-0922","Restaurant","40.75065036874151","-73.32447052001953","Mon 12:00 PM - 8:00 PM Tues 12:00 PM - 8:00 PM Wed 12:00 PM - 8:00 PM Thu 12:00 PM - 8:00 PM Fri 12:00 PM - 8:00 PM Sat 12:00 PM - 8:00 PM Sun 12:00 PM - 8:00 PM","https://www.bostonmarket.com/location/ny/deer-park/1605-deer-park-avenue"
"https://www.bostonmarket.com/","Boston Market Restaurant in East Islip, NY","23 W. Main St.","East Islip","NY","11730","US","875","(631) 277-3232","Restaurant","40.73110449079661","-73.19201834876367","Mon 12:00 PM - 8:00 PM Tues 12:00 PM - 8:00 PM Wed 12:00 PM - 8:00 PM Thu 12:00 PM - 8:00 PM Fri 12:00 PM - 8:00 PM Sat 12:00 PM - 8:00 PM Sun 12:00 PM - 8:00 PM","https://www.bostonmarket.com/location/ny/east-islip/23-w-main-st"
"https://www.bostonmarket.com/","Boston Market Restaurant in Forest Hills, NY","106-24 71st Avenue","Forest Hills","NY","11375","US","990","(718) 261-0500","Restaurant","40.7200377","-73.8446771","Mon 11:30 AM - 8:00 PM Tues 11:30 AM - 8:00 PM Wed 11:30 AM - 8:00 PM Thu 11:30 AM - 8:00 PM Fri 11:30 AM - 8:00 PM Sat 11:30 AM - 8:00 PM Sun 11:30 AM - 8:00 PM","https://www.bostonmarket.com/location/ny/forest-hills/106-24-71st-avenue"
"https://www.bostonmarket.com/","Boston Market Restaurant in Freeport, NY","168 Atlantic Avenue","Freeport","NY","11520","US","418","(516) 377-4220","Restaurant","40.6460907","-73.5833459","Mon 12:00 PM - 8:00 PM Tues 12:00 PM - 8:00 PM Wed 12:00 PM - 8:00 PM Thu 12:00 PM - 8:00 PM Fri 12:00 PM - 8:00 PM Sat 12:00 PM - 8:00 PM Sun 12:00 PM - 8:00 PM","https://www.bostonmarket.com/location/ny/freeport/168-atlantic-avenue"
"https://www.bostonmarket.com/","Boston Market Restaurant in Fresh Meadows, NY","61-45 188th St","Fresh Meadows","NY","11365","US","641","(718) 264-7137","Restaurant","40.7395755153832","-73.78565021239865","Mon 12:00 PM - 8:00 PM Tues 12:00 PM - 8:00 PM Wed 12:00 PM - 8:00 PM Thu 12:00 PM - 8:00 PM Fri 12:00 PM - 8:00 PM Sat 12:00 PM - 8:00 PM Sun 12:00 PM - 8:00 PM","https://www.bostonmarket.com/location/ny/fresh-meadows/61-45-188th-st"
"https://www.bostonmarket.com/","Boston Market Restaurant in Ft Drum, NY","Bldg P 10730A Enduring Freedom drive","Ft Drum","NY","13602","US","4112","(315) 773-0065","Restaurant","44.04370000870193","-75.80669453367591","Mon 11:00 AM - 8:00 PM Tues 11:00 AM - 8:00 PM Wed 11:00 AM - 8:00 PM Thu 11:00 AM - 8:00 PM Fri 11:00 AM - 8:00 PM Sat 11:00 AM - 8:00 PM Sun 11:00 AM - 8:00 PM","https://www.bostonmarket.com/location/ny/ft-drum/bldg-p-10730a-enduring-freedom-drive"
"https://www.bostonmarket.com/","Boston Market Restaurant in Latham, NY","753 New Loudon Rd.","Latham","NY","12110","US","232","(518) 785-7509","Restaurant","42.743668587625585","-73.76125686251277","Mon 12:00 PM - 8:00 PM Tues 12:00 PM - 8:00 PM Wed 12:00 PM - 8:00 PM Thu 12:00 PM - 8:00 PM Fri 12:00 PM - 8:00 PM Sat 12:00 PM - 8:00 PM Sun 12:00 PM - 8:00 PM","https://www.bostonmarket.com/location/ny/latham/753-new-loudon-rd"
"https://www.bostonmarket.com/","Boston Market Restaurant in Lindenhurst, NY","163 East Montauk Hwy","Lindenhurst","NY","11757","US","597","(631) 957-7046","Restaurant","40.6801335","-73.3596319","Mon 12:00 PM - 8:00 PM Tues 12:00 PM - 8:00 PM Wed 12:00 PM - 8:00 PM Thu 12:00 PM - 8:00 PM Fri 12:00 PM - 8:00 PM Sat 12:00 PM - 8:00 PM Sun 12:00 PM - 8:00 PM","https://www.bostonmarket.com/location/ny/lindenhurst/163-east-montauk-hwy"
"https://www.bostonmarket.com/","Boston Market Restaurant in Mamaroneck, NY","667 W. Boston Post Road","Mamaroneck","NY","10543","US","211","(914) 777-1017","Restaurant","40.9431543","-73.7395613","Mon 12:00 PM - 8:00 PM Tues 12:00 PM - 8:00 PM Wed 12:00 PM - 8:00 PM Thu 12:00 PM - 8:00 PM Fri 12:00 PM - 8:00 PM Sat 12:00 PM - 8:00 PM Sun 12:00 PM - 8:00 PM","https://www.bostonmarket.com/location/ny/mamaroneck/667-w-boston-post-road"
"https://www.bostonmarket.com/","Boston Market Restaurant in Mount Kisco, NY","130 North Bedford Rd","Mount Kisco","NY","10549","US","54","(914) 241-8800","Restaurant","41.2125473","-73.7206992","Mon 12:00 PM - 8:00 PM Tues 12:00 PM - 8:00 PM Wed 12:00 PM - 8:00 PM Thu 12:00 PM - 8:00 PM Fri 12:00 PM - 8:00 PM Sat 12:00 PM - 8:00 PM Sun 12:00 PM - 8:00 PM","https://www.bostonmarket.com/location/ny/mount-kisco/130-north-bedford-rd"
"https://www.bostonmarket.com/","Boston Market Restaurant in New Hyde Park, NY","2091 Hillside Avenue","New Hyde Park","NY","11040","US","225","(516) 328-2424","Restaurant","40.75174970760139","-73.67411859714139","Mon 12:00 PM - 8:00 PM Tues 12:00 PM - 8:00 PM Wed 12:00 PM - 8:00 PM Thu 12:00 PM - 8:00 PM Fri 12:00 PM - 8:00 PM Sat 12:00 PM - 8:00 PM Sun 12:00 PM - 8:00 PM","https://www.bostonmarket.com/location/ny/new-hyde-park/2091-hillside-avenue"
"https://www.bostonmarket.com/","Boston Market Restaurant in New York, NY","271 W. 23rd Street","New York","NY","10011","US","695","(212) 206-1221","Restaurant","40.74527793462094","-73.99798465185245","Mon 12:00 PM - 8:00 PM Tues 12:00 PM - 8:00 PM Wed 12:00 PM - 8:00 PM Thu 12:00 PM - 8:00 PM Fri 12:00 PM - 8:00 PM Sat 12:00 PM - 8:00 PM Sun 12:00 PM - 8:00 PM","https://www.bostonmarket.com/location/ny/new-york/271-w-23rd-street"
"https://www.bostonmarket.com/","Boston Market Restaurant in Ozone Park, NY","83-02 Atlantic Avenue","Ozone Park","NY","11416","US","1092","(718) 647-4700","Restaurant","40.685098483153936","-73.85783030661514","Mon 12:00 PM - 8:00 PM Tues 12:00 PM - 8:00 PM Wed 12:00 PM - 8:00 PM Thu 12:00 PM - 8:00 PM Fri 12:00 PM - 8:00 PM Sat 12:00 PM - 8:00 PM Sun 12:00 PM - 8:00 PM","https://www.bostonmarket.com/location/ny/ozone-park/83-02-atlantic-avenue"
"https://www.bostonmarket.com/","Boston Market Restaurant in Ridgewood, NY","60-18 Metropolitan Avenue","Ridgewood","NY","11385","US","879","(718) 386-5858","Restaurant","40.71259387305441","-73.90445356072632","Mon 12:00 PM - 8:00 PM Tues 12:00 PM - 8:00 PM Wed 12:00 PM - 8:00 PM Thu 12:00 PM - 8:00 PM Fri 12:00 PM - 8:00 PM Sat 12:00 PM - 8:00 PM Sun 12:00 PM - 8:00 PM","https://www.bostonmarket.com/location/ny/ridgewood/60-18-metropolitan-avenue"
"https://www.bostonmarket.com/","Boston Market Restaurant in Rochester, NY","942 Jefferson Road","Rochester","NY","14623","US","1412","(585) 272-8110","Restaurant","43.08771519856113","-77.6120539928138","Mon 12:00 PM - 8:00 PM Tues 12:00 PM - 8:00 PM Wed 12:00 PM - 8:00 PM Thu 12:00 PM - 8:00 PM Fri 12:00 PM - 8:00 PM Sat 12:00 PM - 8:00 PM Sun 12:00 PM - 8:00 PM","https://www.bostonmarket.com/location/ny/rochester/942-jefferson-road"
"https://www.bostonmarket.com/","Boston Market Restaurant in Scarsdale, NY","654 Central Park Ave.","Scarsdale","NY","10583","US","533","(914) 472-5038","Restaurant","40.999862720831075","-73.81472060329315","Mon 12:00 PM - 8:00 PM Tues 12:00 PM - 8:00 PM Wed 12:00 PM - 8:00 PM Thu 12:00 PM - 8:00 PM Fri 12:00 PM - 8:00 PM Sat 12:00 PM - 8:00 PM Sun 12:00 PM - 8:00 PM","https://www.bostonmarket.com/location/ny/scarsdale/654-central-park-ave"
"https://www.bostonmarket.com/","Boston Market Restaurant in Selden, NY","966 Middle Country Rd.","Selden","NY","11784","US","234","(631) 736-4577","Restaurant","40.8636675695732","-73.04674917704466","Mon 12:00 PM - 8:00 PM Tues 12:00 PM - 8:00 PM Wed 12:00 PM - 8:00 PM Thu 12:00 PM - 8:00 PM Fri 12:00 PM - 8:00 PM Sat 12:00 PM - 8:00 PM Sun 12:00 PM - 8:00 PM","https://www.bostonmarket.com/location/ny/selden/966-middle-country-rd"
"https://www.bostonmarket.com/","Boston Market Restaurant in Shirley, NY","803 Montauk Highway","Shirley","NY","11967","US","852","(631) 395-5015","Restaurant","40.801402912183995","-72.86844537423354","Mon 12:00 PM - 8:00 PM Tues 12:00 PM - 8:00 PM Wed 12:00 PM - 8:00 PM Thu 12:00 PM - 8:00 PM Fri 12:00 PM - 8:00 PM Sat 12:00 PM - 8:00 PM Sun 12:00 PM - 8:00 PM","https://www.bostonmarket.com/location/ny/shirley/803-montauk-highway"
"https://www.bostonmarket.com/","Boston Market Restaurant in Staten Island, NY","1465 Forest Avenue","Staten Island","NY","10302","US","663","(718) 815-1198","Restaurant","40.62463927479141","-74.13740609587876","Mon 12:00 PM - 8:00 PM Tues 12:00 PM - 8:00 PM Wed 12:00 PM - 8:00 PM Thu 12:00 PM - 8:00 PM Fri 12:00 PM - 8:00 PM Sat 12:00 PM - 8:00 PM Sun 12:00 PM - 8:00 PM","https://www.bostonmarket.com/location/ny/staten-island/1465-forest-avenue"
"https://www.bostonmarket.com/","Boston Market Restaurant in Staten Island, NY","854 Arthur Kill Road","Staten Island","NY","10312","US","1153","(718) 227-8200","Restaurant","40.560627196269415","-74.1687037969291","Mon 12:00 PM - 8:00 PM Tues 12:00 PM - 8:00 PM Wed 12:00 PM - 8:00 PM Thu 12:00 PM - 8:00 PM Fri 12:00 PM - 8:00 PM Sat 12:00 PM - 8:00 PM Sun 12:00 PM - 8:00 PM","https://www.bostonmarket.com/location/ny/staten-island/854-arthur-kill-road"
"https://www.bostonmarket.com/","Boston Market Restaurant in Valley Stream, NY","168 West Merrick Road","Valley Stream","NY","11580","US","280","(516) 561-5539","Restaurant","40.665856940568254","-73.70339283592102","Mon 12:00 PM - 8:00 PM Tues 12:00 PM - 8:00 PM Wed 12:00 PM - 8:00 PM Thu 12:00 PM - 8:00 PM Fri 12:00 PM - 8:00 PM Sat 12:00 PM - 8:00 PM Sun 12:00 PM - 8:00 PM","https://www.bostonmarket.com/location/ny/valley-stream/168-west-merrick-road"
"https://www.bostonmarket.com/","Boston Market Restaurant in West Hempstead, NY","603 Hempstead Turnpike","West Hempstead","NY","11552","US","1672","(516) 539-0500","Restaurant","40.70616388349736","-73.66204261226846","Mon 12:00 PM - 8:00 PM Tues 12:00 PM - 8:00 PM Wed 12:00 PM - 8:00 PM Thu 12:00 PM - 8:00 PM Fri 12:00 PM - 8:00 PM Sat 12:00 PM - 8:00 PM Sun 12:00 PM - 8:00 PM","https://www.bostonmarket.com/location/ny/west-hempstead/603-hempstead-turnpike"
"https://www.bostonmarket.com/","Boston Market Restaurant in Woodside, NY","50-01 Queens Boulevard","Woodside","NY","11377","US","1669","(718) 779-3700","Restaurant","40.743081413495645","-73.91467908028062","Mon 12:00 PM - 8:00 PM Tues 12:00 PM - 8:00 PM Wed 12:00 PM - 8:00 PM Thu 12:00 PM - 8:00 PM Fri 12:00 PM - 8:00 PM Sat 12:00 PM - 8:00 PM Sun 12:00 PM - 8:00 PM","https://www.bostonmarket.com/location/ny/woodside/50-01-queens-boulevard"
"https://www.bostonmarket.com/","Boston Market Restaurant in Woodside, NY","5124 Northern Boulevard","Woodside","NY","11377","US","546","(718) 533-1389","Restaurant","40.751869920590636","-73.90968212488588","Mon 12:00 PM - 8:00 PM Tues 12:00 PM - 8:00 PM Wed 12:00 PM - 8:00 PM Thu 12:00 PM - 8:00 PM Fri 12:00 PM - 8:00 PM Sat 12:00 PM - 8:00 PM Sun 12:00 PM - 8:00 PM","https://www.bostonmarket.com/location/ny/woodside/5124-northern-boulevard"
"https://www.bostonmarket.com/","Boston Market Restaurant in Yonkers, NY","3100 Xavier Drive","Yonkers","NY","10701","US","373","(914) 963-1305","Restaurant","40.92839874512254","-73.85256655053587","Mon 12:00 PM - 8:00 PM Tues 12:00 PM - 8:00 PM Wed 12:00 PM - 8:00 PM Thu 12:00 PM - 8:00 PM Fri 12:00 PM - 8:00 PM Sat 12:00 PM - 8:00 PM Sun 12:00 PM - 8:00 PM","https://www.bostonmarket.com/location/ny/yonkers/3100-xavier-drive"
"https://www.bostonmarket.com/","Boston Market Restaurant in Cary, NC","1397 Kildaire Farm Road","Cary","NC","27511","US","480","(919) 319-3818","Restaurant","35.758388","-78.7826475","Mon 11:00 AM - 8:00 PM Tues 11:00 AM - 8:00 PM Wed 11:00 AM - 8:00 PM Thu 11:00 AM - 8:00 PM Fri 11:00 AM - 8:00 PM Sat 11:00 AM - 8:00 PM Sun 11:00 AM - 8:00 PM","https://www.bostonmarket.com/location/nc/cary/1397-kildaire-farm-road"
"https://www.bostonmarket.com/","Boston Market Restaurant in Charlotte, NC","1001 Chancellor Park Drive","Charlotte","NC","28213","US","791","(704) 597-5688","Restaurant","35.29421775229075","-80.74314543849823","Mon 12:00 PM - 8:00 PM Tues 12:00 PM - 8:00 PM Wed 12:00 PM - 8:00 PM Thu 12:00 PM - 8:00 PM Fri 12:00 PM - 8:00 PM Sat 12:00 PM - 8:00 PM Sun 12:00 PM - 8:00 PM","https://www.bostonmarket.com/location/nc/charlotte/1001-chancellor-park-drive"
"https://www.bostonmarket.com/","Boston Market Restaurant in Fayetteville, NC","1909 Skibo Road","Fayetteville","NC","28314","US","292","(910) 864-1666","Restaurant","35.06887648084609","-78.96571397781372","Mon 11:00 AM - 9:00 PM Tues 11:00 AM - 9:00 PM Wed 11:00 AM - 9:00 PM Thu 11:00 AM - 9:00 PM Fri 11:00 AM - 9:00 PM Sat 11:00 AM - 9:00 PM Sun 11:00 AM - 9:00 PM","https://www.bostonmarket.com/location/nc/fayetteville/1909-skibo-road"
"https://www.bostonmarket.com/","Boston Market Restaurant in Fort Bragg, NC","Bldg 8-5050 Butner Rd","Fort Bragg","NC","28310","US","4115","(910) 436-2490","Restaurant","35.157363130809735","-78.97760745352934","Mon 11:00 AM - 8:00 PM Tues 11:00 AM - 8:00 PM Wed 11:00 AM - 8:00 PM Thu 11:00 AM - 8:00 PM Fri 11:00 AM - 8:00 PM Sat 11:00 AM - 8:00 PM Sun 11:00 AM - 8:00 PM","https://www.bostonmarket.com/location/nc/fort-bragg/bldg-8-5050-butner-rd"
"https://www.bostonmarket.com/","Boston Market Restaurant in Ft Bragg, NC","2240 Reilly Road Building H 4512","Ft Bragg","NC","28307","US","4104","(910) 339-0366","Restaurant","35.124502718010795","-78.99413835257292","Mon 11:00 AM - 8:00 PM Tues 11:00 AM - 8:00 PM Wed 11:00 AM - 8:00 PM Thu 11:00 AM - 8:00 PM Fri 11:00 AM - 8:00 PM Sat 11:00 AM - 8:00 PM Sun 11:00 AM - 8:00 PM","https://www.bostonmarket.com/location/nc/ft-bragg/2240-reilly-road-building-h-4512"
"https://www.bostonmarket.com/","Boston Market Restaurant in Greensboro, NC","5615 W. Friendly Ave.","Greensboro","NC","27410","US","239","(336) 292-6336","Restaurant","36.08917541770638","-79.88614954434985","Mon 11:00 AM - 8:00 PM Tues 11:00 AM - 8:00 PM Wed 11:00 AM - 8:00 PM Thu 11:00 AM - 8:00 PM Fri 11:00 AM - 8:00 PM Sat 11:00 AM - 8:00 PM Sun 11:00 AM - 8:00 PM","https://www.bostonmarket.com/location/nc/greensboro/5615-w-friendly-ave"
"https://www.bostonmarket.com/","Boston Market Restaurant in Matthews, NC","9550 E. Independence Blvd.","Matthews","NC","28105","US","436","(704) 849-2850","Restaurant","35.13647333920616","-80.715738281624","Mon 12:00 PM - 8:00 PM Tues 12:00 PM - 8:00 PM Wed 12:00 PM - 8:00 PM Thu 12:00 PM - 8:00 PM Fri 12:00 PM - 8:00 PM Sat 12:00 PM - 8:00 PM Sun 12:00 PM - 8:00 PM","https://www.bostonmarket.com/location/nc/matthews/9550-e-independence-blvd"
"https://www.bostonmarket.com/","Boston Market Restaurant in Raleigh, NC","4558 Capital Blvd. Unit A","Raleigh","NC","27604","US","306","(919) 981-7450","Restaurant","35.84603043547736","-78.5794892335606","Mon 11:00 AM - 8:00 PM Tues 11:00 AM - 8:00 PM Wed 11:00 AM - 8:00 PM Thu 11:00 AM - 8:00 PM Fri 11:00 AM - 8:00 PM Sat 11:00 AM - 8:00 PM Sun 11:00 AM - 8:00 PM","https://www.bostonmarket.com/location/nc/raleigh/4558-capital-blvd"
"https://www.bostonmarket.com/","Boston Market Restaurant in Raleigh, NC","9500 Strickland Road","Raleigh","NC","27615","US","198","(919) 676-7609","Restaurant","35.90172426298409","-78.65426190578091","Mon 11:00 AM - 9:00 PM Tues 11:00 AM - 9:00 PM Wed 11:00 AM - 9:00 PM Thu 11:00 AM - 9:00 PM Fri 11:00 AM - 9:00 PM Sat 11:00 AM - 9:00 PM Sun 11:00 AM - 9:00 PM","https://www.bostonmarket.com/location/nc/raleigh/9500-strickland-road"
"https://www.bostonmarket.com/","Boston Market Restaurant in Bexley, OH","2741 E. Main Street","Bexley","OH","43209","US","35","(614) 237-5015","Restaurant","39.9566378","-82.9252483","Mon 12:00 PM - 8:00 PM Tues 12:00 PM - 8:00 PM Wed 12:00 PM - 8:00 PM Thu 12:00 PM - 8:00 PM Fri 12:00 PM - 8:00 PM Sat 12:00 PM - 8:00 PM Sun 12:00 PM - 8:00 PM","https://www.bostonmarket.com/location/oh/bexley/2741-e-main-street"
"https://www.bostonmarket.com/","Boston Market Restaurant in Brooklyn, OH","4742 Ridge Road","Brooklyn","OH","44144","US","90","(216) 459-1500","Restaurant","41.42555974971764","-81.73507788780626","Mon 12:00 PM - 9:00 PM Tues 12:00 PM - 9:00 PM Wed 12:00 PM - 9:00 PM Thu 12:00 PM - 9:00 PM Fri 12:00 PM - 9:00 PM Sat 12:00 PM - 9:00 PM Sun 12:00 PM - 9:00 PM","https://www.bostonmarket.com/location/oh/brooklyn/4742-ridge-road"
"https://www.bostonmarket.com/","Boston Market Restaurant in Columbus, OH","4310 W. Broad St.","Columbus","OH","43228","US","613","(614) 274-9300","Restaurant","39.9532530507263","-83.1161139198457","Mon 11:00 AM - 8:00 PM Tues 11:00 AM - 8:00 PM Wed 11:00 AM - 8:00 PM Thu 11:00 AM - 8:00 PM Fri 11:00 AM - 8:00 PM Sat 11:00 AM - 8:00 PM Sun 11:00 AM - 8:00 PM","https://www.bostonmarket.com/location/oh/columbus/4310-w-broad-st"
"https://www.bostonmarket.com/","Boston Market Restaurant in Cuyahoga Falls, OH","699 Howe Avenue","Cuyahoga Falls","OH","44221","US","202","(330) 922-3333","Restaurant","41.11949120461346","-81.47424378994401","Mon 11:00 AM - 8:00 PM Tues 11:00 AM - 8:00 PM Wed 11:00 AM - 8:00 PM Thu 11:00 AM - 8:00 PM Fri 11:00 AM - 8:00 PM Sat 11:00 AM - 8:00 PM Sun 11:00 AM - 8:00 PM","https://www.bostonmarket.com/location/oh/cuyahoga-falls/699-howe-avenue"
"https://www.bostonmarket.com/","Boston Market Restaurant in Fairlawn, OH","3750 W. Market St Unit F","Fairlawn","OH","44333","US","115","(330) 666-6997","Restaurant","41.1353632","-81.6321138","Mon 12:00 PM - 8:00 PM Tues 12:00 PM - 8:00 PM Wed 12:00 PM - 8:00 PM Thu 12:00 PM - 8:00 PM Fri 12:00 PM - 8:00 PM Sat 12:00 PM - 8:00 PM Sun 12:00 PM - 8:00 PM","https://www.bostonmarket.com/location/oh/fairlawn/3750-w-market-st"
"https://www.bostonmarket.com/","Boston Market Restaurant in Holland, OH","6550 Airport Hwy.","Holland","OH","43528","US","249","(419) 868-7811","Restaurant","41.6128298050347","-83.69839051369127","Mon 11:00 AM - 8:00 PM Tues 11:00 AM - 8:00 PM Wed 11:00 AM - 8:00 PM Thu 11:00 AM - 8:00 PM Fri 11:00 AM - 8:00 PM Sat 11:00 AM - 8:00 PM Sun 11:00 AM - 8:00 PM","https://www.bostonmarket.com/location/oh/holland/6550-airport-hwy"
"https://www.bostonmarket.com/","Boston Market Restaurant in Lyndhurst, OH","5096 Mayfield Road","Lyndhurst","OH","44124","US","139","(440) 460-0505","Restaurant","41.51931640990618","-81.49619512636497","Mon 11:00 AM - 8:00 PM Tues 11:00 AM - 8:00 PM Wed 11:00 AM - 8:00 PM Thu 11:00 AM - 8:00 PM Fri 11:00 AM - 8:00 PM Sat 11:00 AM - 8:00 PM Sun 11:00 AM - 8:00 PM","https://www.bostonmarket.com/location/oh/lyndhurst/5096-mayfield-road"
"https://www.bostonmarket.com/","Boston Market Restaurant in Mentor, OH","9361 Mentor Avenue","Mentor","OH","44060","US","264","(440) 974-7333","Restaurant","41.67935176751998","-81.30493009335396","Mon 11:00 AM - 8:00 PM Tues 11:00 AM - 8:00 PM Wed 11:00 AM - 8:00 PM Thu 11:00 AM - 8:00 PM Fri 11:00 AM - 8:00 PM Sat 11:00 AM - 8:00 PM Sun 11:00 AM - 8:00 PM","https://www.bostonmarket.com/location/oh/mentor/9361-mentor-avenue"
"https://www.bostonmarket.com/","Boston Market Restaurant in North Olmsted, OH","26440 Lorain Road","North Olmsted","OH","44070","US","576","(440) 779-0800","Restaurant","41.419477305135864","-81.91502541303635","Mon 11:00 AM - 8:00 PM Tues 11:00 AM - 8:00 PM Wed 11:00 AM - 8:00 PM Thu 11:00 AM - 8:00 PM Fri 11:00 AM - 8:00 PM Sat 11:00 AM - 8:00 PM Sun 11:00 AM - 8:00 PM","https://www.bostonmarket.com/location/oh/north-olmsted/26440-lorain-road"
"https://www.bostonmarket.com/","Boston Market Restaurant in Parma, OH","1350 W. Pleasant Valley Rd","Parma","OH","44134","US","167","(440) 845-9700","Restaurant","41.36193127673312","-81.68792345010382","Mon 11:00 AM - 8:00 PM Tues 11:00 AM - 8:00 PM Wed 11:00 AM - 8:00 PM Thu 11:00 AM - 8:00 PM Fri 11:00 AM - 8:00 PM Sat 11:00 AM - 8:00 PM Sun 11:00 AM - 8:00 PM","https://www.bostonmarket.com/location/oh/parma/1350-w-pleasant-valley-rd"
"https://www.bostonmarket.com/","Boston Market Restaurant in Reynoldsburg, OH","6330 Tussing Road","Reynoldsburg","OH","43068","US","312","(614) 861-2585","Restaurant","39.92788939794776","-82.8290726244449","Mon 12:00 PM - 8:00 PM Tues 12:00 PM - 8:00 PM Wed 12:00 PM - 8:00 PM Thu 12:00 PM - 8:00 PM Fri 12:00 PM - 8:00 PM Sat 12:00 PM - 8:00 PM Sun 12:00 PM - 8:00 PM","https://www.bostonmarket.com/location/oh/reynoldsburg/6330-tussing-road"
"https://www.bostonmarket.com/","Boston Market Restaurant in Shaker Heights, OH","16773 Chagrin Blvd","Shaker Heights","OH","44120","US","76","(216) 991-0300","Restaurant","41.46518501196617","-81.56197160482412","Mon 11:30 AM - 8:30 PM Tues 11:30 AM - 8:30 PM Wed 11:30 AM - 8:30 PM Thu 11:30 AM - 8:30 PM Fri 11:30 AM - 8:30 PM Sat 11:30 AM - 8:30 PM Sun 11:30 AM - 8:30 PM","https://www.bostonmarket.com/location/oh/shaker-heights/16773-chagrin-blvd"
"https://www.bostonmarket.com/","Boston Market Restaurant in Solon, OH","34295 Aurora Road","Solon","OH","44139","US","259","(440) 498-0088","Restaurant","41.384403016177906","-81.43398994452355","Mon 12:00 PM - 7:00 PM Tues 12:00 PM - 7:00 PM Wed 12:00 PM - 7:00 PM Thu 12:00 PM - 7:00 PM Fri 12:00 PM - 7:00 PM Sat 12:00 PM - 7:00 PM Sun 12:00 PM - 7:00 PM","https://www.bostonmarket.com/location/oh/solon/34295-aurora-road"
"https://www.bostonmarket.com/","Boston Market Restaurant in Strongsville, OH","14375 Pearl Road","Strongsville","OH","44136","US","261","(440) 846-0003","Restaurant","41.310220536412736","-81.83459267020226","Mon 12:00 PM - 7:00 PM Tues 12:00 PM - 7:00 PM Wed 12:00 PM - 7:00 PM Thu 12:00 PM - 7:00 PM Fri 12:00 PM - 7:00 PM Sat 12:00 PM - 7:00 PM Sun 12:00 PM - 7:00 PM","https://www.bostonmarket.com/location/oh/strongsville/14375-pearl-road"
"https://www.bostonmarket.com/","Boston Market Restaurant in Toledo, OH","3808 Secor Road","Toledo","OH","43606","US","250","(419) 292-0060","Restaurant","41.68819302406047","-83.62263249570083","Mon 11:00 AM - 9:00 PM Tues 11:00 AM - 9:00 PM Wed 11:00 AM - 9:00 PM Thu 11:00 AM - 9:00 PM Fri 11:00 AM - 9:00 PM Sat 11:00 AM - 9:00 PM Sun 11:00 AM - 9:00 PM","https://www.bostonmarket.com/location/oh/toledo/3808-secor-road"
"https://www.bostonmarket.com/","Boston Market Restaurant in Toledo, OH","930 W. Alexis Rd.","Toledo","OH","43612","US","524","(419) 478-2241","Restaurant","41.72201654778032","-83.56549316889641","Mon 11:00 AM - 8:00 PM Tues 11:00 AM - 8:00 PM Wed 11:00 AM - 8:00 PM Thu 11:00 AM - 8:00 PM Fri 11:00 AM - 8:00 PM Sat 11:00 AM - 8:00 PM Sun 11:00 AM - 8:00 PM","https://www.bostonmarket.com/location/oh/toledo/930-w-alexis-rd"
"https://www.bostonmarket.com/","Boston Market Restaurant in University Heights, OH","2184 Warrensville Center Rd.","University Heights","OH","44118","US","483","(216) 321-2219","Restaurant","41.500278351433806","-81.53660126411074","Mon 11:00 AM - 8:00 PM Tues 11:00 AM - 8:00 PM Wed 11:00 AM - 8:00 PM Thu 11:00 AM - 8:00 PM Fri 11:00 AM - 8:00 PM Sat 11:00 AM - 8:00 PM Sun 11:00 AM - 8:00 PM","https://www.bostonmarket.com/location/oh/university-heights/2184-warrensville-center-rd"
"https://www.bostonmarket.com/","Boston Market Restaurant in Abington, PA","1776 Old York Road","Abington","PA","19001","US","370","(215) 784-9090","Restaurant","40.13465356644676","-75.11537947137185","Mon 12:00 PM - 8:00 PM Tues 12:00 PM - 8:00 PM Wed 12:00 PM - 8:00 PM Thu 12:00 PM - 8:00 PM Fri 12:00 PM - 8:00 PM Sat 12:00 PM - 8:00 PM Sun 12:00 PM - 8:00 PM","https://www.bostonmarket.com/location/pa/abington/1776-old-york-road"
"https://www.bostonmarket.com/","Boston Market Restaurant in Allentown, PA","385 S. Cedar Crest Blvd.","Allentown","PA","18103","US","1323","(610) 770-3324","Restaurant","40.58244052602273","-75.5216469653351","Mon 12:00 PM - 8:00 PM Tues 12:00 PM - 8:00 PM Wed 12:00 PM - 8:00 PM Thu 12:00 PM - 8:00 PM Fri 12:00 PM - 8:00 PM Sat 12:00 PM - 8:00 PM Sun 12:00 PM - 8:00 PM","https://www.bostonmarket.com/location/pa/allentown/385-s-cedar-crest-blvd"
"https://www.bostonmarket.com/","Boston Market Restaurant in Clifton Heights, PA","5200 Baltimore Pk","Clifton Heights","PA","19018","US","392","(610) 622-7909","Restaurant","39.92559809399731","-75.30700855337727","Mon 12:00 PM - 8:00 PM Tues 12:00 PM - 8:00 PM Wed 12:00 PM - 8:00 PM Thu 12:00 PM - 8:00 PM Fri 12:00 PM - 8:00 PM Sat 12:00 PM - 8:00 PM Sun 12:00 PM - 8:00 PM","https://www.bostonmarket.com/location/pa/clifton-heights/5200-baltimore-pk"
"https://www.bostonmarket.com/","Boston Market Restaurant in Greensburg, PA","5228 Route 30","Greensburg","PA","15601","US","450","(724) 838-9864","Restaurant","40.30268329174527","-79.5057024196434","Mon 12:00 PM - 7:00 PM Tues 12:00 PM - 7:00 PM Wed 12:00 PM - 7:00 PM Thu 12:00 PM - 7:00 PM Fri 12:00 PM - 7:00 PM Sat 12:00 PM - 7:00 PM Sun 12:00 PM - 7:00 PM","https://www.bostonmarket.com/location/pa/greensburg/5228-route-30"
"https://www.bostonmarket.com/","Boston Market Restaurant in Langhorne, PA","360 N Oxford Valley Road","Langhorne","PA","19047","US","154","(215) 547-3500","Restaurant","40.1826399","-74.8697352","Mon 12:00 PM - 8:00 PM Tues 12:00 PM - 8:00 PM Wed 12:00 PM - 8:00 PM Thu 12:00 PM - 8:00 PM Fri 12:00 PM - 8:00 PM Sat 12:00 PM - 8:00 PM Sun 12:00 PM - 8:00 PM","https://www.bostonmarket.com/location/pa/langhorne/360-n-oxford-valley-road"
"https://www.bostonmarket.com/","Boston Market Restaurant in Lansdale, PA","1758 Allentown Road","Lansdale","PA","19446","US","602","(215) 393-8237","Restaurant","40.259324765666086","-75.32542681349184","Mon 12:00 PM - 8:00 PM Tues 12:00 PM - 8:00 PM Wed 12:00 PM - 8:00 PM Thu 12:00 PM - 8:00 PM Fri 12:00 PM - 8:00 PM Sat 12:00 PM - 8:00 PM Sun 12:00 PM - 8:00 PM","https://www.bostonmarket.com/location/pa/lansdale/1758-allentown-road"
"https://www.bostonmarket.com/","Boston Market Restaurant in Norristown, PA","18 E. Germantown Pk","Norristown","PA","19401","US","388","(610) 275-4334","Restaurant","40.140141995433154","-75.31120513381217","Mon 12:00 PM - 8:00 PM Tues 12:00 PM - 8:00 PM Wed 12:00 PM - 8:00 PM Thu 12:00 PM - 8:00 PM Fri 12:00 PM - 8:00 PM Sat 12:00 PM - 8:00 PM Sun 12:00 PM - 8:00 PM","https://www.bostonmarket.com/location/pa/norristown/18-e-germantown-pk"
"https://www.bostonmarket.com/","Boston Market Restaurant in Philadelphia, PA","31 Snyder Ave","Philadelphia","PA","19148","US","1095","(215) 755-2002","Restaurant","39.921754372520965","-75.14627947238739","Mon 12:00 PM - 8:00 PM Tues 12:00 PM - 8:00 PM Wed 12:00 PM - 8:00 PM Thu 12:00 PM - 8:00 PM Fri 12:00 PM - 8:00 PM Sat 12:00 PM - 8:00 PM Sun 12:00 PM - 8:00 PM","https://www.bostonmarket.com/location/pa/philadelphia/31-snyder-ave"
"https://www.bostonmarket.com/","Boston Market Restaurant in Philadelphia, PA","3680 Aramingo Ave.","Philadelphia","PA","19134","US","490","(215) 533-4032","Restaurant","39.99464517632344","-75.09525412566063","Mon 12:00 PM - 8:00 PM Tues 12:00 PM - 8:00 PM Wed 12:00 PM - 8:00 PM Thu 12:00 PM - 8:00 PM Fri 12:00 PM - 8:00 PM Sat 12:00 PM - 8:00 PM Sun 12:00 PM - 8:00 PM","https://www.bostonmarket.com/location/pa/philadelphia/3680-aramingo-ave"
"https://www.bostonmarket.com/","Boston Market Restaurant in Philadelphia, PA","3901 Chestnut St.","Philadelphia","PA","19104","US","394","(215) 222-6900","Restaurant","39.95566172628969","-75.2002526112301","Mon 12:00 PM - 8:00 PM Tues 12:00 PM - 8:00 PM Wed 12:00 PM - 8:00 PM Thu 12:00 PM - 8:00 PM Fri 12:00 PM - 8:00 PM Sat 12:00 PM - 8:00 PM Sun 12:00 PM - 8:00 PM","https://www.bostonmarket.com/location/pa/philadelphia/3901-chestnut-st"
"https://www.bostonmarket.com/","Boston Market Restaurant in Philadelphia, PA","4600 City Line Avenue","Philadelphia","PA","19131","US","41","(215) 871-7500","Restaurant","40.0026323","-75.2227973","Mon 12:00 PM - 8:00 PM Tues 12:00 PM - 8:00 PM Wed 12:00 PM - 8:00 PM Thu 12:00 PM - 8:00 PM Fri 12:00 PM - 8:00 PM Sat 12:00 PM - 8:00 PM Sun 12:00 PM - 8:00 PM","https://www.bostonmarket.com/location/pa/philadelphia/4600-city-line-avenue"
"https://www.bostonmarket.com/","Boston Market Restaurant in Philadelphia, PA","6350 Roosevelt Blvd.","Philadelphia","PA","19149","US","399","(215) 533-4040","Restaurant","40.03558705653434","-75.0711464881897","Mon 12:00 PM - 8:00 PM Tues 12:00 PM - 8:00 PM Wed 12:00 PM - 8:00 PM Thu 12:00 PM - 8:00 PM Fri 12:00 PM - 8:00 PM Sat 12:00 PM - 8:00 PM Sun 12:00 PM - 8:00 PM","https://www.bostonmarket.com/location/pa/philadelphia/6350-roosevelt-blvd"
"https://www.bostonmarket.com/","Boston Market Restaurant in Philadelphia, PA","9113 E. Roosevelt Blvd.","Philadelphia","PA","19114","US","111","(215) 969-4200","Restaurant","40.0742636","-75.0333148","Mon 12:00 PM - 8:00 PM Tues 12:00 PM - 8:00 PM Wed 12:00 PM - 8:00 PM Thu 12:00 PM - 8:00 PM Fri 12:00 PM - 8:00 PM Sat 12:00 PM - 8:00 PM Sun 12:00 PM - 8:00 PM","https://www.bostonmarket.com/location/pa/philadelphia/9113-e-roosevelt-blvd"
"https://www.bostonmarket.com/","Boston Market Restaurant in Pittsburgh, PA","5200 Baum Blvd.","Pittsburgh","PA","15224","US","270","(412) 683-9752","Restaurant","40.45558110382329","-79.94155445698198","Mon 12:00 PM - 8:00 PM Tues 12:00 PM - 8:00 PM Wed 12:00 PM - 8:00 PM Thu 12:00 PM - 8:00 PM Fri 12:00 PM - 8:00 PM Sat 12:00 PM - 8:00 PM Sun 12:00 PM - 8:00 PM","https://www.bostonmarket.com/location/pa/pittsburgh/5200-baum-blvd"
"https://www.bostonmarket.com/","Boston Market Restaurant in Pittsburgh, PA","978 Greentree Road","Pittsburgh","PA","15220","US","410","(412) 928-0716","Restaurant","40.41808362149724","-80.04601199140166","Mon 12:00 PM - 8:00 PM Tues 12:00 PM - 8:00 PM Wed 12:00 PM - 8:00 PM Thu 12:00 PM - 8:00 PM Fri 12:00 PM - 8:00 PM Sat 12:00 PM - 8:00 PM Sun 12:00 PM - 8:00 PM","https://www.bostonmarket.com/location/pa/pittsburgh/978-greentree-road"
"https://www.bostonmarket.com/","Boston Market Restaurant in Pottstown, PA","223 Shoemaker Road","Pottstown","PA","19465","US","1101","(610) 327-3065","Restaurant","40.254724496174994","-75.6626699771914","Mon 12:00 PM - 8:00 PM Tues 12:00 PM - 8:00 PM Wed 12:00 PM - 8:00 PM Thu 12:00 PM - 8:00 PM Fri 12:00 PM - 8:00 PM Sat 12:00 PM - 8:00 PM Sun 12:00 PM - 8:00 PM","https://www.bostonmarket.com/location/pa/pottstown/223-shoemaker-road"
"https://www.bostonmarket.com/","Boston Market Restaurant in West Chester, PA","726 E. Gay Street","West Chester","PA","19380","US","1176","(610) 918-9800","Restaurant","39.96553109116795","-75.59324075283257","Mon 12:00 PM - 8:00 PM Tues 12:00 PM - 8:00 PM Wed 12:00 PM - 8:00 PM Thu 12:00 PM - 8:00 PM Fri 12:00 PM - 8:00 PM Sat 12:00 PM - 8:00 PM Sun 12:00 PM - 8:00 PM","https://www.bostonmarket.com/location/pa/west-chester/726-e-gay-street"
"https://www.bostonmarket.com/","Boston Market Restaurant in Fort Buchanan, PR","689 N Terminal Road","Fort Buchanan","PR","00934","US","4118","(787) 792-8919","Restaurant","18.41979173034712","-66.12477690888532","Mon 11:00 AM - 7:00 PM Tues 11:00 AM - 8:00 PM Wed 11:00 AM - 8:00 PM Thu 11:00 AM - 8:00 PM Fri 11:00 AM - 8:30 PM Sat 11:00 AM - 8:30 PM Sun 11:00 AM - 7:00 PM","https://www.bostonmarket.com/location/pr/fort-buchanan/689-n-terminal-road"
"https://www.bostonmarket.com/","Boston Market Restaurant in Cranston, RI","185 Sockanoset Cross Rd","Cranston","RI","02920","US","96","(401) 946-2449","Restaurant","41.756814","-71.4577439","Mon 12:00 PM - 8:00 PM Tues 12:00 PM - 8:00 PM Wed 12:00 PM - 8:00 PM Thu 12:00 PM - 8:00 PM Fri 12:00 PM - 8:00 PM Sat 12:00 PM - 8:00 PM Sun 12:00 PM - 8:00 PM","https://www.bostonmarket.com/location/ri/cranston/185-sockanoset-cross-rd"
"https://www.bostonmarket.com/","Boston Market Restaurant in Ft Jackson, SC","4110 Moseby Street","Ft Jackson","SC","29207","US","4107","(803) 738-0467","Restaurant","34.0225072","-80.94365169999999","Mon 11:00 AM - 9:00 PM Tues 11:00 AM - 9:00 PM Wed 11:00 AM - 9:00 PM Thu 11:00 AM - 9:00 PM Fri 11:00 AM - 9:00 PM Sat 11:00 AM - 9:00 PM Sun 11:00 AM - 9:00 PM","https://www.bostonmarket.com/location/sc/ft-jackson/4110-moseby-street"
"https://www.bostonmarket.com/","Boston Market Restaurant in Arlington, TX","2561 E. Pioneer Pkwy","Arlington","TX","76010","US","482","(817) 274-2121","Restaurant","32.71298983904308","-97.06536434967347","Mon 11:00 AM - 8:00 PM Tues 11:00 AM - 8:00 PM Wed 11:00 AM - 8:00 PM Thu 11:00 AM - 8:00 PM Fri 11:00 AM - 8:00 PM Sat 11:00 AM - 8:00 PM Sun 11:00 AM - 8:00 PM","https://www.bostonmarket.com/location/tx/arlington/2561-e-pioneer-pkwy"
"https://www.bostonmarket.com/","Boston Market Restaurant in Arlington, TX","4402 Little Road","Arlington","TX","76016","US","120","(817) 478-8878","Restaurant","32.67645864821317","-97.19824634873021","Mon 11:00 AM - 9:00 PM Tues 11:00 AM - 9:00 PM Wed 11:00 AM - 9:00 PM Thu 11:00 AM - 9:00 PM Fri 11:00 AM - 9:00 PM Sat 11:00 AM - 9:00 PM Sun 11:00 AM - 9:00 PM","https://www.bostonmarket.com/location/tx/arlington/4402-little-road"
"https://www.bostonmarket.com/","Boston Market Restaurant in Austin, TX","4607 Braker Lane Suite 100","Austin","TX","78759","US","1981","(512) 346-5222","Restaurant","30.3998294805609","-97.74499453980752","Mon 12:00 PM - 8:00 PM Tues 12:00 PM - 8:00 PM Wed 12:00 PM - 8:00 PM Thu 12:00 PM - 8:00 PM Fri 12:00 PM - 8:00 PM Sat 12:00 PM - 8:00 PM Sun 12:00 PM - 8:00 PM","https://www.bostonmarket.com/location/tx/austin/4607-braker-lane"
"https://www.bostonmarket.com/","Boston Market Restaurant in Dallas, TX","11717 N. Central Expressway","Dallas","TX","75243","US","3260","(214) 373-7900","Restaurant","32.9085388","-96.7699344","Mon 11:00 AM - 8:00 PM Tues 11:00 AM - 8:00 PM Wed 11:00 AM - 8:00 PM Thu 11:00 AM - 8:00 PM Fri 11:00 AM - 8:00 PM Sat 11:00 AM - 8:00 PM Sun 11:00 AM - 8:00 PM","https://www.bostonmarket.com/location/tx/dallas/11717-n-central-expressway"
"https://www.bostonmarket.com/","Boston Market Restaurant in Dallas, TX","3797 Forest Ln. Suite 325","Dallas","TX","75244","US","325","(972) 484-0101","Restaurant","32.909976893129596","-96.85199730482964","Mon 12:00 PM - 8:00 PM Tues 12:00 PM - 8:00 PM Wed 12:00 PM - 8:00 PM Thu 12:00 PM - 8:00 PM Fri 12:00 PM - 8:00 PM Sat 12:00 PM - 8:00 PM Sun 12:00 PM - 8:00 PM","https://www.bostonmarket.com/location/tx/dallas/3797-forest-ln"
"https://www.bostonmarket.com/","Boston Market Restaurant in Dallas, TX","6333 E. Mockingbird Lane No.165","Dallas","TX","75214","US","971","(214) 887-9341","Restaurant","32.838016442113094","-96.75339299446932","Mon 12:00 PM - 8:00 PM Tues 12:00 PM - 8:00 PM Wed 12:00 PM - 8:00 PM Thu 12:00 PM - 8:00 PM Fri 12:00 PM - 8:00 PM Sat 12:00 PM - 8:00 PM Sun 12:00 PM - 8:00 PM","https://www.bostonmarket.com/location/tx/dallas/6333-e-mockingbird-lane"
"https://www.bostonmarket.com/","Boston Market Restaurant in Denton, TX","6420 I-35 Frontage Road","Denton","TX","76207","US","4201","(940) 383-1458","Restaurant","33.26222483216092","-97.17664557787509","Mon 10:00 AM - 10:00 PM Tues 10:00 AM - 10:00 PM Wed 10:00 AM - 10:00 PM Thu 10:00 AM - 10:00 PM Fri 10:00 AM - 10:00 PM Sat 10:00 AM - 10:00 PM Sun 10:00 AM - 10:00 PM","https://www.bostonmarket.com/location/tx/denton/6420-i-35-frontage-road"
"https://www.bostonmarket.com/","Boston Market Restaurant in Desoto, TX","735 E. Pleasant Run Road","Desoto","TX","75115","US","1292","(972) 224-5588","Restaurant","32.60454334223723","-96.84112826233672","Mon 11:00 AM - 9:00 PM Tues 11:00 AM - 9:00 PM Wed 11:00 AM - 9:00 PM Thu 11:00 AM - 9:00 PM Fri 11:00 AM - 9:00 PM Sat 11:00 AM - 9:00 PM Sun 11:00 AM - 9:00 PM","https://www.bostonmarket.com/location/tx/desoto/735-e-pleasant-run-road"
"https://www.bostonmarket.com/","Boston Market Restaurant in Duncanville, TX","789 W Wheatland Rd.","Duncanville","TX","75116","US","112","(972) 709-0926","Restaurant","32.64865189913791","-96.92510646627045","Mon 12:00 PM - 8:00 PM Tues 12:00 PM - 8:00 PM Wed 12:00 PM - 8:00 PM Thu 12:00 PM - 8:00 PM Fri 12:00 PM - 8:00 PM Sat 12:00 PM - 8:00 PM Sun 12:00 PM - 8:00 PM","https://www.bostonmarket.com/location/tx/duncanville/789-w-wheatland-rd"
"https://www.bostonmarket.com/","Boston Market Restaurant in Fort Bliss, TX","1613 Marshall Road","Fort Bliss","TX","79916","US","4101","(915) 566-0761","Restaurant","31.8174316","-106.4286985","Mon 11:00 AM - 8:00 PM Tues 11:00 AM - 8:00 PM Wed 11:00 AM - 8:00 PM Thu 11:00 AM - 8:00 PM Fri 11:00 AM - 8:00 PM Sat 11:00 AM - 8:00 PM Sun 11:00 AM - 8:00 PM","https://www.bostonmarket.com/location/tx/fort-bliss/1613-marshall-road"
"https://www.bostonmarket.com/","Boston Market Restaurant in Fort Worth, TX","6030 S. Hulen St.","Fort Worth","TX","76132","US","997","(817) 263-6400","Restaurant","32.663685165323265","-97.40295095579768","Mon 11:00 AM - 9:00 PM Tues 11:00 AM - 9:00 PM Wed 11:00 AM - 9:00 PM Thu 11:00 AM - 9:00 PM Fri 11:00 AM - 9:00 PM Sat 11:00 AM - 9:00 PM Sun 11:00 AM - 9:00 PM","https://www.bostonmarket.com/location/tx/fort-worth/6030-s-hulen-st"
"https://www.bostonmarket.com/","Boston Market Restaurant in Ft Hood, TX","Bldg 4250 Clear Creek Road","Ft Hood","TX","76544","US","4103","(254) 532-0052","Restaurant","31.1397476","-97.8025835","Mon 11:00 AM - 9:00 PM Tues 11:00 AM - 9:00 PM Wed 11:00 AM - 9:00 PM Thu 11:00 AM - 9:00 PM Fri 11:00 AM - 9:00 PM Sat 11:00 AM - 9:00 PM Sun 11:00 AM - 9:00 PM","https://www.bostonmarket.com/location/tx/ft-hood/bldg-4250-clear-creek-road"
"https://www.bostonmarket.com/","Boston Market Restaurant in Garland, TX","730 W. Centerville Rd.","Garland","TX","75041","US","104","(972) 613-1188","Restaurant","32.861609962564614","-96.6415223479271","Mon 11:00 AM - 8:00 PM Tues 11:00 AM - 8:00 PM Wed 11:00 AM - 8:00 PM Thu 11:00 AM - 8:00 PM Fri 11:00 AM - 8:00 PM Sat 11:00 AM - 8:00 PM Sun 11:00 AM - 8:00 PM","https://www.bostonmarket.com/location/tx/garland/730-w-centerville-rd"
"https://www.bostonmarket.com/","Boston Market Restaurant in Grand Prairie, TX","404 Westchase Dr.","Grand Prairie","TX","75052","US","2334","(972) 262-3325","Restaurant","32.67358793273976","-97.00517082459328","Mon 12:00 PM - 8:00 PM Tues 12:00 PM - 8:00 PM Wed 12:00 PM - 8:00 PM Thu 12:00 PM - 8:00 PM Fri 12:00 PM - 8:00 PM Sat 12:00 PM - 8:00 PM Sun 12:00 PM - 8:00 PM","https://www.bostonmarket.com/location/tx/grand-prairie/404-westchase-dr"
"https://www.bostonmarket.com/","Boston Market Restaurant in Houston, TX","4672 Beechnut Street","Houston","TX","77096","US","1723","(713) 667-8800","Restaurant","29.6895222","-95.457658","Mon 12:00 PM - 8:00 PM Tues 12:00 PM - 8:00 PM Wed 12:00 PM - 8:00 PM Thu 12:00 PM - 8:00 PM Fri 12:00 PM - 8:00 PM Sat 12:00 PM - 8:00 PM Sun 12:00 PM - 8:00 PM","https://www.bostonmarket.com/location/tx/houston/4672-beechnut-street"
"https://www.bostonmarket.com/","Boston Market Restaurant in Houston, TX","7910 FM 1960 Rd. W","Houston","TX","77070","US","654","(281) 807-9044","Restaurant","29.962625335515508","-95.54641121870873","Mon 11:00 AM - 8:00 PM Tues 11:00 AM - 8:00 PM Wed 11:00 AM - 8:00 PM Thu 11:00 AM - 8:00 PM Fri 11:00 AM - 8:00 PM Sat 11:00 AM - 8:00 PM Sun 11:00 AM - 8:00 PM","https://www.bostonmarket.com/location/tx/houston/7910-fm-1960-rd-w"
"https://www.bostonmarket.com/","Boston Market Restaurant in Hurst, TX","494 Grapevine Hwy","Hurst","TX","76054","US","293","(817) 581-9999","Restaurant","32.86429573707134","-97.1764992624685","Mon 11:00 AM - 8:00 PM Tues 11:00 AM - 8:00 PM Wed 11:00 AM - 8:00 PM Thu 11:00 AM - 8:00 PM Fri 11:00 AM - 8:00 PM Sat 11:00 AM - 8:00 PM Sun 11:00 AM - 8:00 PM","https://www.bostonmarket.com/location/tx/hurst/494-grapevine-hwy"
"https://www.bostonmarket.com/","Boston Market Restaurant in Irving, TX","2705 N. Beltline Rd","Irving","TX","75062","US","188","(972) 594-6014","Restaurant","32.84434345420981","-96.99298828840256","Mon 12:00 PM - 8:00 PM Tues 12:00 PM - 8:00 PM Wed 12:00 PM - 8:00 PM Thu 12:00 PM - 8:00 PM Fri 12:00 PM - 8:00 PM Sat 12:00 PM - 8:00 PM Sun 12:00 PM - 8:00 PM","https://www.bostonmarket.com/location/tx/irving/2705-n-beltline-rd"
"https://www.bostonmarket.com/","Boston Market Restaurant in Irving, TX","5487 N. Macarthur Blvd.","Irving","TX","75038","US","2272","(972) 756-0772","Restaurant","32.8845635","-96.9647877","Mon 12:00 PM - 7:00 PM Tues 12:00 PM - 7:00 PM Wed 12:00 PM - 7:00 PM Thu 12:00 PM - 7:00 PM Fri 12:00 PM - 7:00 PM Sat 12:00 PM - 7:00 PM Sun 12:00 PM - 7:00 PM","https://www.bostonmarket.com/location/tx/irving/5487-n-macarthur-blvd"
"https://www.bostonmarket.com/","Boston Market Restaurant in Lewisville, TX","1570 W. Main St.","Lewisville","TX","75067","US","227","(972) 436-8199","Restaurant","33.04185091528531","-97.03448139511693","Mon 12:00 PM - 8:00 PM Tues 12:00 PM - 8:00 PM Wed 12:00 PM - 8:00 PM Thu 12:00 PM - 8:00 PM Fri 12:00 PM - 8:00 PM Sat 12:00 PM - 8:00 PM Sun 12:00 PM - 8:00 PM","https://www.bostonmarket.com/location/tx/lewisville/1570-w-main-st"
"https://www.bostonmarket.com/","Boston Market Restaurant in Mesquite, TX","1230 Town East Blvd.","Mesquite","TX","75150","US","98","(972) 681-0600","Restaurant","32.8102682140979","-96.61304527766106","Mon 11:00 AM - 9:00 PM Tues 11:00 AM - 9:00 PM Wed 11:00 AM - 9:00 PM Thu 11:00 AM - 9:00 PM Fri 11:00 AM - 9:00 PM Sat 11:00 AM - 9:00 PM Sun 11:00 AM - 9:00 PM","https://www.bostonmarket.com/location/tx/mesquite/1230-town-east-blvd"
"https://www.bostonmarket.com/","Boston Market Restaurant in North Richland Hills, TX","6000 Rufe Snow Dr.","North Richland Hills","TX","76180","US","332","(817) 788-8008","Restaurant","32.85583755892589","-97.23783910274506","Mon 11:00 AM - 8:00 PM Tues 11:00 AM - 8:00 PM Wed 11:00 AM - 8:00 PM Thu 11:00 AM - 8:00 PM Fri 11:00 AM - 8:00 PM Sat 11:00 AM - 8:00 PM Sun 11:00 AM - 8:00 PM","https://www.bostonmarket.com/location/tx/north-richland-hills/6000-rufe-snow-dr"
"https://www.bostonmarket.com/","Boston Market Restaurant in Plano, TX","2104 Preston Rd.","Plano","TX","75093","US","328","(972) 612-2625","Restaurant","33.0281936","-96.7939392","Mon 11:00 AM - 9:00 PM Tues 11:00 AM - 9:00 PM Wed 11:00 AM - 9:00 PM Thu 11:00 AM - 9:00 PM Fri 11:00 AM - 9:00 PM Sat 11:00 AM - 9:00 PM Sun 11:00 AM - 9:00 PM","https://www.bostonmarket.com/location/tx/plano/2104-preston-rd"
"https://www.bostonmarket.com/","Boston Market Restaurant in Plano, TX","701 W. 15th St.","Plano","TX","75075","US","281","(972) 578-7997","Restaurant","33.01961683663589","-96.71382196624108","Mon 11:00 AM - 8:00 PM Tues 11:00 AM - 8:00 PM Wed 11:00 AM - 8:00 PM Thu 11:00 AM - 8:00 PM Fri 11:00 AM - 8:00 PM Sat 11:00 AM - 8:00 PM Sun 11:00 AM - 8:00 PM","https://www.bostonmarket.com/location/tx/plano/701-w-15th-st"
"https://www.bostonmarket.com/","Boston Market Restaurant in Sugar Land, TX","2410 Hwy 6","Sugar Land","TX","77479","US","1020","(281) 277-1666","Restaurant","29.596202853684833","-95.61774422229973","Mon 11:00 AM - 8:00 PM Tues 11:00 AM - 8:00 PM Wed 11:00 AM - 8:00 PM Thu 11:00 AM - 8:00 PM Fri 11:00 AM - 8:00 PM Sat 11:00 AM - 8:00 PM Sun 11:00 AM - 8:00 PM","https://www.bostonmarket.com/location/tx/sugar-land/2410-hwy-6"
"https://www.bostonmarket.com/","Boston Market Restaurant in Alexandria, VA","6650 Richmond Highway","Alexandria","VA","22306","US","676","(703) 768-1838","Restaurant","38.77212854428763","-77.08213725689347","Mon 12:00 PM - 8:00 PM Tues 12:00 PM - 8:00 PM Wed 12:00 PM - 8:00 PM Thu 12:00 PM - 8:00 PM Fri 12:00 PM - 8:00 PM Sat 12:00 PM - 8:00 PM Sun 12:00 PM - 8:00 PM","https://www.bostonmarket.com/location/va/alexandria/6650-richmond-highway"
"https://www.bostonmarket.com/","Boston Market Restaurant in Chesapeake, VA","1300 Greenbrier Parkway","Chesapeake","VA","23320","US","1225","(757) 382-9552","Restaurant","36.77198912815806","-76.22921571135527","Mon 11:00 AM - 8:00 PM Tues 11:00 AM - 8:00 PM Wed 11:00 AM - 8:00 PM Thu 11:00 AM - 8:00 PM Fri 11:00 AM - 8:00 PM Sat 11:00 AM - 8:00 PM Sun 11:00 AM - 8:00 PM","https://www.bostonmarket.com/location/va/chesapeake/1300-greenbrier-parkway"
"https://www.bostonmarket.com/","Boston Market Restaurant in Fairfax, VA","13059 Lee Jackson Memorial Highway","Fairfax","VA","22033","US","102","(703) 263-1234","Restaurant","38.88025342301228","-77.39844018465874","Mon 12:00 PM - 7:00 PM Tues 12:00 PM - 7:00 PM Wed 12:00 PM - 7:00 PM Thu 12:00 PM - 7:00 PM Fri 12:00 PM - 7:00 PM Sat 12:00 PM - 7:00 PM Sun 12:00 PM - 7:00 PM","https://www.bostonmarket.com/location/va/fairfax/13059-lee-jackson-memorial-highway"
"https://www.bostonmarket.com/","Boston Market Restaurant in Fairfax, VA","4090 Jermantown Road","Fairfax","VA","22030","US","984","(703) 246-9800","Restaurant","38.852141338637615","-77.33280256390577","Mon 12:00 PM - 8:00 PM Tues 12:00 PM - 8:00 PM Wed 12:00 PM - 8:00 PM Thu 12:00 PM - 8:00 PM Fri 12:00 PM - 8:00 PM Sat 12:00 PM - 8:00 PM Sun 12:00 PM - 8:00 PM","https://www.bostonmarket.com/location/va/fairfax/4090-jermantown-road"
"https://www.bostonmarket.com/","Boston Market Restaurant in Ft Belvoir, VA","8651 John J Kingman Building 2321","Ft Belvoir","VA","22060","US","4120","(703) 806-5655","Restaurant","38.72488897347423","-77.1503659312134","Mon 11:00 AM - 7:00 PM Tues 11:00 AM - 7:00 PM Wed 11:00 AM - 7:00 PM Thu 11:00 AM - 7:00 PM Fri 11:00 AM - 7:00 PM Sat 11:00 AM - 7:00 PM Sun 11:00 AM - 5:00 PM","https://www.bostonmarket.com/location/va/ft-belvoir/8651-john-j-kingman-building-2321"
"https://www.bostonmarket.com/","Boston Market Restaurant in Hampton, VA","2034 Coliseum Drive","Hampton","VA","23666","US","1009","(757) 838-0300","Restaurant","37.04457215082923","-76.38948568946716","Mon 11:00 AM - 9:00 PM Tues 11:00 AM - 9:00 PM Wed 11:00 AM - 9:00 PM Thu 11:00 AM - 9:00 PM Fri 11:00 AM - 9:00 PM Sat 11:00 AM - 9:00 PM Sun 11:00 AM - 9:00 PM","https://www.bostonmarket.com/location/va/hampton/2034-coliseum-drive"
"https://www.bostonmarket.com/","Boston Market Restaurant in Norfolk, VA","472 Military Highway","Norfolk","VA","23502","US","2396","(757) 461-2400","Restaurant","36.8484797","-76.209473","Mon 12:00 PM - 8:00 PM Tues 12:00 PM - 8:00 PM Wed 12:00 PM - 8:00 PM Thu 12:00 PM - 8:00 PM Fri 12:00 PM - 8:00 PM Sat 12:00 PM - 8:00 PM Sun 12:00 PM - 8:00 PM","https://www.bostonmarket.com/location/va/norfolk/472-military-highway"
"https://www.bostonmarket.com/","Boston Market Restaurant in Virginia Beach, VA","3981 Virginia Beach Boulevard","Virginia Beach","VA","23452","US","1165","(757) 498-7900","Restaurant","36.84064226956793","-76.11248691381661","Mon 12:00 PM - 8:00 PM Tues 12:00 PM - 8:00 PM Wed 12:00 PM - 8:00 PM Thu 12:00 PM - 8:00 PM Fri 12:00 PM - 8:00 PM Sat 12:00 PM - 8:00 PM Sun 12:00 PM - 8:00 PM","https://www.bostonmarket.com/location/va/virginia-beach/3981-virginia-beach-boulevard"
"https://www.bostonmarket.com/","Boston Market Restaurant in Woodbridge, VA","13815 Smoketown Road","Woodbridge","VA","22192","US","646","(703) 878-7200","Restaurant","38.65175140966747","-77.30236748106898","Mon 11:00 AM - 8:00 PM Tues 11:00 AM - 8:00 PM Wed 11:00 AM - 8:00 PM Thu 11:00 AM - 8:00 PM Fri 11:00 AM - 8:00 PM Sat 11:00 AM - 8:00 PM Sun 11:00 AM - 8:00 PM","https://www.bostonmarket.com/location/va/woodbridge/13815-smoketown-road"
"https://www.bostonmarket.com/","Boston Market Restaurant in West Allis, WI","2678 S 108th Street","West Allis","WI","53227","US","1173","(414) 329-0909","Restaurant","42.99564818236435","-88.04652163631323","Mon 11:30 AM - 8:00 PM Tues 11:30 AM - 8:00 PM Wed 11:30 AM - 8:00 PM Thu 11:30 AM - 8:00 PM Fri 11:30 AM - 8:00 PM Sat 11:30 AM - 8:00 PM Sun 11:30 AM - 8:00 PM","https://www.bostonmarket.com/location/wi/west-allis/2678-s-108th-street"
