locator_domain,location_name,street_address,city,state,zip,country_code,store_number,phone,location_type,latitude,longitude,hours_of_operation
medicineshoppe.ca,The Medicine Shoppe Pharmacy #129,4409 Pleasantview Dr,High Prairie,Alberta,T0G 1E0,CA,129,780.523.3138,"Mental Health,Diabetes Support,Flu Shot Services",55.435264,-116.479968,Monday : 9:00 AM - 6:30 PM ;Tuesday : 9:00 AM - 6:30 PM ;Wednesday : 9:00 AM - 6:30 PM ;Thursday : 9:00 AM - 6:30 PM ;Friday Open : 9:00 AM - 6:30 PM ;Saturday : 12:00 PM - 4:00 PM ;Sunday : 12:00 PM - 4:00 PM
medicineshoppe.ca,Medicine Shoppe #404,103-4807 44th Ave,Stony Plain,Alberta,T7Z 1V5,CA,404,780.968.9646,"Immunizations & Injections,Diabetes Support,Flu Shot Services",53.536334,-114.003301,Monday : 9:00 AM - 6:00 PM ;Tuesday : 9:00 AM - 6:00 PM ;Wednesday : 9:00 AM - 6:00 PM ;Thursday : 9:00 AM - 6:00 PM ;Friday Open : 9:00 AM - 6:00 PM ;Saturday : 10:00 AM - 2:00 PM ;Sunday : Not available
medicineshoppe.ca,The Medicine Shoppe Pharmacy #380,4a-420 King St,Spruce Grove,Alberta,T7X 2C6,CA,380,780.571.1500,"Immunizations & Injections,Weight Management,Mental Health,Diabetes Support,Flu Shot Services",53.546199,-113.899397,Monday : 9:00 AM - 6:00 PM ;Tuesday : 9:00 AM - 6:00 PM ;Wednesday : 9:00 AM - 6:00 PM ;Thursday : 9:00 AM - 6:00 PM ;Friday Open : 9:00 AM - 6:00 PM ;Saturday : 10:00 AM - 2:00 PM ;Sunday : Closed
medicineshoppe.ca,Medicine Shoppe #403,102-102 6th Ave S W,Slave Lake,Alberta,T0G 2A3,CA,403,780.849.2896,"Immunizations & Injections,Weight Management,Mental Health",55.279618,-114.772227,Monday : 8:30 AM - 6:00 PM ;Tuesday : 8:30 AM - 6:00 PM ;Wednesday : 8:30 AM - 6:00 PM ;Thursday : 8:30 AM - 6:00 PM ;Friday Open : 8:30 AM - 6:00 PM ;Saturday : Closed ;Sunday : Closed
medicineshoppe.ca,The Medicine Shoppe Pharmacy #200,25 St Michael St,St Albert,Alberta,T8N 1C7,CA,200,780.459.8545,"Immunizations & Injections,Weight Management,Mental Health,Diabetes Support,Flu Shot Services",53.633812,-113.625253,Monday : 9:00 AM - 6:00 PM ;Tuesday : 9:00 AM - 6:00 PM ;Wednesday : 9:00 AM - 6:00 PM ;Thursday : 9:00 AM - 6:00 PM ;Friday Open : 9:00 AM - 6:00 PM ;Saturday : 9:00 AM - 12:00 PM ;Sunday : Closed
medicineshoppe.ca,The Medicine Shoppe Pharmacy #189,17715 98a Ave N W,Edmonton,Alberta,T5T 5W8,CA,189,780.487.1331,Closed,53.533923,-113.627233,Monday : 9:00 AM - 6:00 PM ;Tuesday : 9:00 AM - 6:00 AM ;Wednesday : 9:00 AM - 6:00 AM ;Thursday : 9:00 AM - 6:00 AM ;Friday Closed : 9:00 AM - 6:00 AM ;Saturday : 10:00 AM - 4:00 AM ;Sunday : Closed
medicineshoppe.ca,The Medicine Shoppe Pharmacy #381,101-10071 120th Ave,Grande Prairie,Alberta,T8V 8H9,CA,381,780.539.9710,"Weight Management,Mental Health,Diabetes Support",55.18755,-118.800075,Monday : 9:30 AM - 5:30 PM ;Tuesday : 9:30 AM - 5:30 PM ;Wednesday : 9:30 AM - 5:30 PM ;Thursday : 9:30 AM - 5:30 PM ;Friday Open : 9:30 AM - 5:30 PM ;Saturday : 10:00 AM - 2:00 PM ;Sunday : Not available
medicineshoppe.ca,The Medicine Shoppe Pharmacy #320,102-16028 100a Ave N W,Edmonton,Alberta,T5P 0M1,CA,320,780.487.6336,"Medication Compounding,Weight Management,Mental Health,Diabetes Support,Flu Shot Services",53.54102,-113.59877,Monday : 8:00 AM - 6:00 PM ;Tuesday : 8:00 AM - 6:00 PM ;Wednesday : 8:00 AM - 6:00 PM ;Thursday : 8:00 AM - 6:00 PM ;Friday Open : 8:00 AM - 6:00 PM ;Saturday : 10:00 AM - 2:00 PM ;Sunday : 10:30 AM - 1:30 PM
medicineshoppe.ca,The Medicine Shoppe Pharmacy #266,6837 170th St,Edmonton,Alberta,T5T 4W4,CA,266,780.481.0535,"Diabetes Support,Flu Shot Services",53.503802,-113.614106,Monday : 9:00 AM - 6:00 PM ;Tuesday : 9:00 AM - 6:00 PM ;Wednesday : 9:00 AM - 6:00 PM ;Thursday : 9:00 AM - 6:00 PM ;Friday Open : 9:00 AM - 6:00 PM ;Saturday : 10:00 AM - 2:00 PM ;Sunday : Not available
medicineshoppe.ca,The Medicine Shoppe Pharmacy #115,15819 87th Ave,Edmonton,Alberta,T5R 4G7,CA,115,780.486.1882,"Mental Health,Diabetes Support,Flu Shot Services",53.51934,-113.59595,Monday : 10:00 AM - 6:00 PM ;Tuesday : 10:00 AM - 6:00 PM ;Wednesday : 10:00 AM - 6:00 PM ;Thursday : 10:00 AM - 6:00 PM ;Friday Open : 10:00 AM - 6:00 PM ;Saturday : 10:00 AM - 2:00 PM ;Sunday : Not available
medicineshoppe.ca,The Medicine Shoppe Pharmacy #393,10712 142nd St N W,Edmonton,Alberta,T5N 2P7,CA,393,<MISSING>,Flu Shot Services,53.551654,-113.567115,Monday : 9:00 AM - 6:00 PM ;Tuesday : 9:00 AM - 6:00 PM ;Wednesday : 9:00 AM - 6:00 PM ;Thursday : 9:00 AM - 6:00 PM ;Friday Open : 9:00 AM - 6:00 PM ;Saturday : 10:00 AM - 2:00 PM ;Sunday : Closed
medicineshoppe.ca,The Medicine Shoppe Pharmacy #345,14020 127th St,Edmonton,Alberta,T6V 1K4,CA,345,780.472.9929,"Mental Health,Diabetes Support,Flu Shot Services",53.60231,-113.541407,Monday : 10:00 AM - 7:00 PM ;Tuesday : 10:00 AM - 7:00 PM ;Wednesday : 10:00 AM - 7:00 PM ;Thursday : 10:00 AM - 7:00 PM ;Friday Open : 10:00 AM - 7:00 PM ;Saturday : 10:00 AM - 4:00 PM ;Sunday : 12:00 PM - 4:00 PM
medicineshoppe.ca,The Medicine Shoppe Pharmacy #217,102-121 Haddow Close N W,Edmonton,Alberta,T6R 3W3,CA,217,780.436.4572,"Weight Management,Mental Health,Diabetes Support,Flu Shot Services",53.459355,-113.591532,Monday : 9:00 AM - 5:00 PM ;Tuesday : 9:00 AM - 5:00 PM ;Wednesday : 9:00 AM - 5:00 PM ;Thursday : 9:00 AM - 5:00 PM ;Friday Open : 9:00 AM - 5:00 PM ;Saturday : Not available ;Sunday : Not available
medicineshoppe.ca,The Medicine Shoppe Pharmacy #340,12411 118th Ave,Edmonton,Alberta,T5L 2K3,CA,340,780.455.0880,"Mental Health,Diabetes Support,Flu Shot Services",53.570294,-113.537158,Monday : 9:00 AM - 5:00 PM ;Tuesday : 9:00 AM - 5:00 PM ;Wednesday : 9:00 AM - 5:00 PM ;Thursday : 9:00 AM - 5:00 PM ;Friday Open : 9:00 AM - 5:00 PM ;Saturday : 10:00 AM - 2:00 PM ;Sunday : 10:00 AM - 2:00 PM
medicineshoppe.ca,The Medicine Shoppe Pharmacy #188,100-11910 111th Ave,Edmonton,Alberta,T5G 0E5,CA,188,780.455.1302,"Weight Management,Mental Health,Diabetes Support,Flu Shot Services",53.55894,-113.52712,Monday : 8:30 AM - 6:00 PM ;Tuesday : 8:30 AM - 6:00 PM ;Wednesday : 8:30 AM - 6:00 PM ;Thursday : 8:30 AM - 6:00 PM ;Friday Open : 8:30 AM - 5:30 PM ;Saturday : 9:00 AM - 1:00 PM ;Sunday : Not available
medicineshoppe.ca,The Medicine Shoppe Pharmacy #353,10423 158th Ave,Edmonton,Alberta,T5X 5E5,CA,353,780.705.8150,"Mental Health,Diabetes Support,Flu Shot Services",53.618842,-113.502662,Monday : 10:00 AM - 8:00 PM ;Tuesday : 10:00 AM - 8:00 PM ;Wednesday : 10:00 AM - 8:00 PM ;Thursday : 10:00 AM - 8:00 PM ;Friday Open : 10:00 AM - 8:00 PM ;Saturday : 10:00 AM - 3:00 PM ;Sunday : 10:00 AM - 3:00 PM
medicineshoppe.ca,The Medicine Shoppe Pharmacy #107,11464 Jasper Ave,Edmonton,Alberta,T5K 0M1,CA,107,780.488.9000,"Medication Compounding,Mental Health,Diabetes Support,Flu Shot Services",53.540954,-113.519437,Monday : 9:00 AM - 6:00 PM ;Tuesday : 9:00 AM - 6:00 PM ;Wednesday : 9:00 AM - 6:00 PM ;Thursday : 9:00 AM - 6:00 PM ;Friday Open : 9:00 AM - 6:00 PM ;Saturday : 10:00 AM - 2:00 PM ;Sunday : Not available
medicineshoppe.ca,The Medicine Shoppe Pharmacy #185,8219 112th St,Edmonton,Alberta,T6G 2L9,CA,185,780.702.1803,"Medication Compounding,Mental Health,Diabetes Support,Flu Shot Services",53.518726,-113.520217,Monday : 9:00 AM - 6:00 PM ;Tuesday : 9:00 AM - 6:00 PM ;Wednesday : 9:00 AM - 6:00 PM ;Thursday : 9:00 AM - 6:00 PM ;Friday Open : 9:00 AM - 6:00 PM ;Saturday : Not available ;Sunday : Not available
medicineshoppe.ca,The Medicine Shoppe Pharmacy #387,13703 93rd St,Edmonton,Alberta,T5E 5V6,CA,387,780.760.3387,"Immunizations & Injections,Weight Management,Flu Shot Services",53.600089,-113.484607,Monday : 9:00 AM - 6:00 PM ;Tuesday : 9:00 AM - 6:00 PM ;Wednesday : 9:00 AM - 6:00 PM ;Thursday : 9:00 AM - 6:00 PM ;Friday Open : 9:00 AM - 6:00 PM ;Saturday : 10:00 AM - 2:00 PM ;Sunday : Closed
medicineshoppe.ca,The Medicine Shoppe Pharmacy #249,9117 111th Ave N W,Edmonton,Alberta,T5B 0C3,CA,249,780.425.1384,"Mental Health,Diabetes Support,Flu Shot Services",53.558945,-113.495197,Monday : 9:00 AM - 5:30 PM ;Tuesday : 9:00 AM - 5:30 PM ;Wednesday : 9:00 AM - 5:30 PM ;Thursday : 9:00 AM - 5:30 PM ;Friday Open : 9:00 AM - 5:30 PM ;Saturday : Not available ;Sunday : Not available
medicineshoppe.ca,The Medicine Shoppe Pharmacy #405,10130 111th Ave,Edmonton,Alberta,T5G 0B3,CA,405,780.479.5646,<MISSING>,53.559276,-113.494802,Monday : 9:00 AM - 5:00 PM ;Tuesday : 9:00 AM - 5:00 PM ;Wednesday : 9:00 AM - 5:00 PM ;Thursday : 9:00 AM - 5:00 PM ;Friday Open : 9:00 AM - 5:00 PM ;Saturday : 10:00 AM - 2:00 PM ;Sunday : 10:00 AM - 2:00 PM
medicineshoppe.ca,The Medicine Shoppe Pharmacy #344,9559 118th Ave,Edmonton,Alberta,T5G 0N9,CA,344,780.477.3779,"Mental Health,Diabetes Support,Flu Shot Services",53.570311,-113.48978,Monday : 9:00 AM - 6:00 PM ;Tuesday : 9:00 AM - 6:00 PM ;Wednesday : 9:00 AM - 6:00 PM ;Thursday : 9:00 AM - 6:00 PM ;Friday Open : 9:00 AM - 6:00 PM ;Saturday : 10:00 AM - 2:00 PM ;Sunday : 10:00 AM - 2:00 PM
medicineshoppe.ca,The Medicine Shoppe Pharmacy #370,11407 40th Ave,Edmonton,Alberta,T6J 0R4,CA,370,780.468.1557,"Mental Health,Diabetes Support,Flu Shot Services",53.475664,-113.52684,Monday : 9:00 AM - 7:00 PM ;Tuesday : 9:00 AM - 7:00 PM ;Wednesday : 9:00 AM - 7:00 PM ;Thursday : 9:00 AM - 7:00 PM ;Friday Open : 9:00 AM - 7:00 PM ;Saturday : 10:00 AM - 2:00 PM ;Sunday : 10:00 AM - 2:00 PM
medicineshoppe.ca,The Medicine Shoppe Pharmacy #114,128-4211 106th St,Edmonton,Alberta,T6J 6L7,CA,114,780.438.1040,"Immunizations & Injections,Mental Health,Flu Shot Services",53.48024,-113.503654,Monday : 10:00 AM - 6:00 PM ;Tuesday : 10:00 AM - 6:00 PM ;Wednesday : 10:00 AM - 6:00 PM ;Thursday : 10:00 AM - 6:00 PM ;Friday Open : 10:00 AM - 6:00 PM ;Saturday : Not available ;Sunday : Not available
medicineshoppe.ca,The Medicine Shoppe Pharmacy #244,9002 Jasper Ave,Edmonton,Alberta,T5H 3S8,CA,244,780.424.8998,"Medication Compounding,Mental Health,Diabetes Support,Flu Shot Services",53.551329,-113.473351,Monday : 10:00 AM - 6:00 PM ;Tuesday : 10:00 AM - 6:00 PM ;Wednesday : 10:00 AM - 6:00 PM ;Thursday : 10:00 AM - 6:00 PM ;Friday Open : 10:00 AM - 6:00 PM ;Saturday : 10:00 AM - 2:00 PM ;Sunday : 10:00 AM - 2:00 PM
medicineshoppe.ca,The Medicine Shoppe Pharmacy #225,8111 118th Ave,Edmonton,Alberta,T5B 0R9,CA,225,780.477.1192,"Medication Compounding,Weight Management,Mental Health,Diabetes Support,Flu Shot Services",53.570294,-113.466108,Monday : 9:00 AM - 6:00 PM ;Tuesday : 9:00 AM - 6:00 PM ;Wednesday : 9:00 AM - 6:00 PM ;Thursday : 9:00 AM - 6:00 PM ;Friday Open : 9:00 AM - 6:00 PM ;Saturday : 10:00 AM - 2:00 PM ;Sunday : 10:00 AM - 2:00 PM
medicineshoppe.ca,The Medicine Shoppe Pharmacy #377,6610 132nd Ave N W,Edmonton,Alberta,T5C 2A5,CA,377,780.705.7150,"Weight Management,Mental Health,Diabetes Support,Flu Shot Services",53.592029,-113.444422,Monday : 9:00 AM - 6:00 PM ;Tuesday : 9:00 AM - 6:00 PM ;Wednesday : 9:00 AM - 6:00 PM ;Thursday : 9:00 AM - 6:00 PM ;Friday Open : 9:00 AM - 6:00 PM ;Saturday : 10:00 AM - 2:00 PM ;Sunday : Not available
medicineshoppe.ca,The Medicine Shoppe Pharmacy #328,9122 82nd Ave,Edmonton,Alberta,T6C 0Z5,CA,328,780.760.1131,"Weight Management,Mental Health,Diabetes Support,Flu Shot Services",53.518037,-113.468407,Monday : 9:00 AM - 6:00 PM ;Tuesday : 9:00 AM - 6:00 PM ;Wednesday : 9:00 AM - 6:00 PM ;Thursday : 9:00 AM - 6:00 PM ;Friday Open : 9:00 AM - 6:00 PM ;Saturday : Not available ;Sunday : Not available
medicineshoppe.ca,The Medicine Shoppe Pharmacy #315,6525 118th Ave,Edmonton,Alberta,T5W 1G5,CA,315,780.479.2077,"Mental Health,Diabetes Support,Flu Shot Services",53.570346,-113.442692,Monday : 10:00 AM - 6:00 PM ;Tuesday : 10:00 AM - 6:00 PM ;Wednesday : 10:00 AM - 6:00 PM ;Thursday : 10:00 AM - 6:00 PM ;Friday Open : 10:00 AM - 6:00 PM ;Saturday : 10:00 AM - 2:00 PM ;Sunday : Not available
medicineshoppe.ca,The Medicine Shoppe Pharmacy #103,7915 106th Ave N W,Edmonton,Alberta,T6A 1H7,CA,103,780.469.8222,Closed,53.54901,-113.450293,Monday : 9:00 AM - 6:00 AM ;Tuesday : 9:00 AM - 6:00 PM ;Wednesday : 9:00 AM - 6:00 PM ;Thursday : 9:00 AM - 6:00 PM ;Friday Closed : 9:00 AM - 5:00 AM ;Saturday : 9:00 AM - 1:00 AM ;Sunday : Not available
medicineshoppe.ca,The Medicine Shoppe Pharmacy #346,14606 50th St,Edmonton,Alberta,T5A 4W9,CA,346,780.472.2822,"Mental Health,Diabetes Support,Flu Shot Services",53.608804,-113.417295,Monday : 9:30 AM - 6:00 PM ;Tuesday : 9:30 AM - 6:00 PM ;Wednesday : 9:30 AM - 6:00 PM ;Thursday : 9:30 AM - 6:00 PM ;Friday Open : 9:30 AM - 6:00 PM ;Saturday : 10:00 AM - 2:00 PM ;Sunday : Not available
medicineshoppe.ca,The Medicine Shoppe Pharmacy #105,5011 118th Ave,Edmonton,Alberta,T5W 1B8,CA,105,780.448.6048,"Immunizations & Injections,Weight Management,Mental Health,Diabetes Support,Flu Shot Services",53.570241,-113.418773,Monday : 10:00 AM - 6:00 PM ;Tuesday : 10:00 AM - 6:00 PM ;Wednesday : 10:00 AM - 6:00 PM ;Thursday : 10:00 AM - 6:00 PM ;Friday Open : 10:00 AM - 6:00 PM ;Saturday : 10:00 AM - 2:00 PM ;Sunday : Not available
medicineshoppe.ca,The Medicine Shoppe Pharmacy #170,127 Millbourne Rd E,Edmonton,Alberta,T6K 0K9,CA,170,780.461.8648,"Medication Compounding,Mental Health,Diabetes Support,Flu Shot Services",53.46811,-113.449555,Monday : 9:30 AM - 7:00 PM ;Tuesday : 9:30 AM - 7:00 PM ;Wednesday : 9:30 AM - 7:00 PM ;Thursday : 9:30 AM - 7:00 PM ;Friday Open : 9:30 AM - 7:00 PM ;Saturday : 10:00 AM - 5:00 PM ;Sunday : 10:00 AM - 2:00 PM
medicineshoppe.ca,The Medicine Shoppe Pharmacy #384,1071 Knottwood Rd East N W,Edmonton,Alberta,T6K 3N5,CA,384,780.461.8444,"Medication Compounding,Immunizations & Injections,Mental Health,Diabetes Support,Flu Shot Services",53.444975,-113.443381,Monday : 10:00 AM - 6:00 PM ;Tuesday : 10:00 AM - 6:00 PM ;Wednesday : 10:00 AM - 6:00 PM ;Thursday : 10:00 AM - 6:00 PM ;Friday Open : 10:00 AM - 6:00 PM ;Saturday : Not available ;Sunday : Not available
medicineshoppe.ca,The Medicine Shoppe Pharmacy #264,18-4302 50th St,Leduc,Alberta,T9E 6J9,CA,264,780.986.7030,"Mental Health,Diabetes Support,Flu Shot Services",53.257754,-113.549987,Monday : 9:30 AM - 5:30 PM ;Tuesday : 9:30 AM - 5:30 PM ;Wednesday : 9:30 AM - 5:30 PM ;Thursday : 9:30 AM - 5:30 PM ;Friday Open : 9:30 AM - 5:30 PM ;Saturday : Closed ;Sunday : Closed
medicineshoppe.ca,The Medicine Shoppe Pharmacy #383,4345 50th St,Edmonton,Alberta,T6L 7E8,CA,383,780.250.8081,"Immunizations & Injections,Weight Management,Mental Health,Diabetes Support,Flu Shot Services",53.481273,-113.417075,Monday : 10:00 PM - 7:00 PM ;Tuesday : 10:00 PM - 7:00 PM ;Wednesday : 10:00 AM - 7:00 PM ;Thursday : 10:00 AM - 7:00 PM ;Friday Open : 10:00 AM - 7:00 PM ;Saturday : 11:00 AM - 3:00 PM ;Sunday : Not available
medicineshoppe.ca,The Medicine Shoppe Pharmacy #390,2356 23rd Ave,Edmonton,Alberta,T6T 0R1,CA,390,780.485.1378,"Immunizations & Injections,Flu Shot Services",53.454117,-113.376015,Monday : 9:00 AM - 7:00 PM ;Tuesday : 9:00 AM - 7:00 PM ;Wednesday : 9:00 AM - 7:00 PM ;Thursday : 9:00 AM - 7:00 PM ;Friday Open : 9:00 AM - 7:00 PM ;Saturday : 10:00 AM - 2:00 PM ;Sunday : 10:00 AM - 2:00 PM
medicineshoppe.ca,The Medicine Shoppe Pharmacy #365,172-270 Baseline Rd,Sherwood Park,Alberta,T8H 1R4,CA,365,780.570.0203,"Immunizations & Injections,Weight Management,Mental Health,Diabetes Support,Flu Shot Services",53.542165,-113.312189,Monday : 9:00 AM - 7:00 PM ;Tuesday : 9:00 AM - 7:00 PM ;Wednesday : 9:00 AM - 7:00 PM ;Thursday : 9:00 AM - 7:00 PM ;Friday Open : 9:00 AM - 7:00 PM ;Saturday : 10:00 AM - 4:00 PM ;Sunday : 11:00 AM - 2:00 PM
medicineshoppe.ca,The Medicine Shoppe Pharmacy #117,9421 94th Ave,Fort Saskatchewan,Alberta,T8L 1N6,CA,117,780.998.1120,"Weight Management,Mental Health,Diabetes Support,Flu Shot Services",53.701501,-113.223788,Monday : 9:30 AM - 5:30 PM ;Tuesday : 9:30 AM - 5:30 PM ;Wednesday : 9:30 AM - 5:30 PM ;Thursday : 9:30 AM - 5:30 PM ;Friday Open : 9:30 AM - 5:30 PM ;Saturday : Not available ;Sunday : Not available
medicineshoppe.ca,The Medicine Shoppe Pharmacy #368,B-2810 48th Ave,Athabasca,Alberta,T9S 0B1,CA,368,780.675.3855,"Weight Management,Mental Health,Diabetes Support,Flu Shot Services",54.718646,-113.249732,Monday : 9:00 AM - 6:00 PM ;Tuesday : 9:00 AM - 6:00 PM ;Wednesday : 9:00 AM - 6:00 PM ;Thursday : 9:00 AM - 6:00 PM ;Friday Open : 9:00 AM - 6:00 PM ;Saturday : Closed ;Sunday : Closed
medicineshoppe.ca,The Medicine Shoppe Pharmacy #397,B-5214 50th Ave,Wetaskiwin,Alberta,T9A 0S8,CA,397,780.352.2272,Flu Shot Services,52.970414,-113.380139,Monday : 9:00 AM - 7:00 PM ;Tuesday : 9:00 AM - 7:00 PM ;Wednesday : 9:00 AM - 7:00 PM ;Thursday : 9:00 AM - 7:00 PM ;Friday Open : 9:00 AM - 7:00 PM ;Saturday : 10:00 AM - 3:00 PM ;Sunday : Not available
medicineshoppe.ca,The Medicine Shoppe Pharmacy #379,111-4871 Joyce Ave,Powell River,British Columbia,V8A 5P4,CA,379,604.489.5919,"Mental Health,Diabetes Support,Flu Shot Services",49.84776,-124.523422,Monday : 9:30 AM - 5:30 PM ;Tuesday : 9:30 AM - 5:30 PM ;Wednesday : 9:30 AM - 5:30 PM ;Thursday : 9:30 AM - 5:30 PM ;Friday Open : 9:30 AM - 5:30 PM ;Saturday : 10:00 AM - 4:00 PM ;Sunday : 10:00 AM - 4:00 PM
medicineshoppe.ca,The Medicine Shoppe Pharmacy #169,1782b Comox Ave,Comox,British Columbia,V9M 3M8,CA,169,250.339.5050,"Immunizations & Injections,Mental Health,Diabetes Support,Flu Shot Services",49.673435,-124.926374,Monday : 9:00 AM - 5:30 PM ;Tuesday : 9:00 AM - 5:30 PM ;Wednesday : 9:00 AM - 5:30 PM ;Thursday : 9:00 AM - 5:30 PM ;Friday Open : 9:00 AM - 5:30 PM ;Saturday : Closed ;Sunday : Closed
medicineshoppe.ca,The Medicine Shoppe Pharmacy #396,1-330 Fischer Ave,The Pas,Manitoba,R9A 1K2,CA,396,844.623.5888,Flu Shot Services,53.822651,-101.252079,Monday : 9:00 AM - 5:00 PM ;Tuesday : 9:00 AM - 5:00 PM ;Wednesday : 9:00 AM - 5:00 PM ;Thursday : 9:00 AM - 5:00 PM ;Friday Open : 9:00 AM - 5:00 PM ;Saturday : 10:00 AM - 3:00 PM ;Sunday : 11:00 AM - 1:00 PM
medicineshoppe.ca,The Medicine Shoppe Pharmacy #273,A-500 Brookside Dr,Fredericton,New Brunswick,E3A 8V2,CA,273,506.454.0070,Flu Shot Services,45.991831,-66.649645,Monday : 9:00 AM - 5:30 PM ;Tuesday : 9:00 AM - 5:30 PM ;Wednesday : 9:00 AM - 5:30 PM ;Thursday : 9:00 AM - 5:30 PM ;Friday Open : 9:00 AM - 5:30 PM ;Saturday : 9:00 AM - 1:00 PM ;Sunday : Closed
medicineshoppe.ca,The Medicine Shoppe Pharmacy #400,348 King St,Fredericton,New Brunswick,E3B 1E3,CA,400,506.450.5464,Flu Shot Services,45.962025,-66.645538,Monday : 8:30 AM - 6:00 PM ;Tuesday : 8:30 AM - 6:00 PM ;Wednesday : 8:30 AM - 6:00 PM ;Thursday : 8:30 AM - 6:00 PM ;Friday Open : 8:30 AM - 6:00 PM ;Saturday : 8:30 AM - 1:00 PM ;Sunday : 8:30 AM - 11:00 AM
medicineshoppe.ca,The Medicine Shoppe Pharmacy #192,170 Doake Rd Box 602,Fredericton,New Brunswick,E3B 5A6,CA,192,506.453.1324,"Medication Compounding,Mental Health,Diabetes Support,Flu Shot Services",45.912187,-66.617029,Monday : 9:00 AM - 6:00 PM ;Tuesday : 9:00 AM - 8:30 PM ;Wednesday : 9:00 AM - 8:30 PM ;Thursday : 9:00 AM - 8:30 PM ;Friday Open : 9:00 AM - 8:30 PM ;Saturday : 9:00 AM - 6:00 PM ;Sunday : 10:00 AM - 5:00 PM
medicineshoppe.ca,The Medicine Shoppe Pharmacy #401,2049 Rte 640,Hanwell,New Brunswick,E3C 1V3,CA,401,506.206.7667,<MISSING>,45.90587,-66.75069,Monday : 10:00 AM - 6:00 PM ;Tuesday : 10:00 AM - 6:00 PM ;Wednesday : 10:00 AM - 6:00 PM ;Thursday : 10:00 AM - 6:00 PM ;Friday Open : 10:00 AM - 6:00 PM ;Saturday : Closed ;Sunday : Closed
medicineshoppe.ca,The Medicine Shoppe Pharmacy #282,106 Newcastle Blvd,Miramichi,New Brunswick,E1V 2Y7,CA,282,506.622.7000,"Mental Health,Diabetes Support,Flu Shot Services",47.001417,-65.56465,Monday : 9:00 AM - 5:00 PM ;Tuesday : 9:00 AM - 5:00 PM ;Wednesday : 9:00 AM - 5:00 PM ;Thursday : 9:00 AM - 5:00 PM ;Friday Open : 9:00 AM - 5:00 PM ;Saturday : Closed ;Sunday : Closed
medicineshoppe.ca,The Medicine Shoppe Pharmacy #323,100-100 Jones St,Woodstock,New Brunswick,E7M 0H6,CA,323,506.325.5550,"Medication Compounding,Weight Management,Mental Health,Diabetes Support,Flu Shot Services",46.150266,-67.603395,Monday : 9:00 AM - 6:00 PM ;Tuesday : 9:00 AM - 6:00 PM ;Wednesday : 9:00 AM - 6:00 PM ;Thursday : 9:00 AM - 6:00 PM ;Friday Open : 9:00 AM - 6:00 PM ;Saturday : Closed ;Sunday : Closed
medicineshoppe.ca,The Medicine Shoppe Pharmacy #296,224 Hwy 410,Baie Verte,Newfoundland and Labrador,A0K 1B0,CA,296,709.532.4051,"Medication Compounding,Weight Management,Diabetes Support,Flu Shot Services",49.950905,-56.186933,Monday : 9:00 AM - 5:30 PM ;Tuesday : 9:00 AM - 5:30 PM ;Wednesday : 9:00 AM - 5:30 PM ;Thursday : 9:00 AM - 5:30 PM ;Friday Open : 9:00 AM - 5:30 PM ;Saturday : 12:00 PM - 5:00 PM ;Sunday : Closed
medicineshoppe.ca,The Medicine Shoppe Pharmacy #399,45 Main St N,Deer Lake,Newfoundland and Labrador,A8A 1W9,CA,399,709.635.4018,Flu Shot Services,49.171262,-57.424951,Monday : 9:00 AM - 5:30 PM ;Tuesday : 9:00 AM - 5:30 PM ;Wednesday : 9:00 AM - 5:30 PM ;Thursday : 9:00 AM - 5:30 PM ;Friday Open : 9:00 AM - 5:30 PM ;Saturday : Closed ;Sunday : Closed
medicineshoppe.ca,The Medicine Shoppe Pharmacy #357,1-3 1st Ave,Pasadena,Newfoundland and Labrador,A0L 1K0,CA,357,709.686.2273,"Immunizations & Injections,Weight Management,Mental Health,Diabetes Support,Flu Shot Services",49.012202,-57.604656,Monday : 9:00 AM - 5:30 PM ;Tuesday : 9:00 AM - 5:30 PM ;Wednesday : 9:00 AM - 5:30 PM ;Thursday : 9:00 AM - 5:30 PM ;Friday Open : 9:00 AM - 5:30 PM ;Saturday : Closed ;Sunday : Closed
medicineshoppe.ca,The Medicine Shoppe Pharmacy #354,13 Union St,Corner Brook,Newfoundland and Labrador,A2H 5M7,CA,354,709.632.2442,"Medication Compounding,Immunizations & Injections,Weight Management,Mental Health,Diabetes Support,Flu Shot Services",48.942966,-57.948501,Monday : 8:30 AM - 5:30 PM ;Tuesday : 8:30 AM - 5:30 PM ;Wednesday : 8:30 AM - 5:30 PM ;Thursday : 8:30 AM - 5:30 PM ;Friday Open : 8:30 AM - 5:30 PM ;Saturday : Not available ;Sunday : Not available
medicineshoppe.ca,The Medicine Shoppe Pharmacy #366,28 Cromer Ave,Grand Falls-Windsor,Newfoundland and Labrador,A2A 1X2,CA,366,709.489.0853,"Weight Management,Mental Health,Diabetes Support,Flu Shot Services",48.948719,-55.654922,Monday : 9:00 AM - 5:30 PM ;Tuesday : 9:00 AM - 5:30 PM ;Wednesday : 9:00 AM - 5:30 PM ;Thursday : 9:00 AM - 5:30 PM ;Friday Open : 9:00 AM - 5:30 PM ;Saturday : Closed ;Sunday : Closed
medicineshoppe.ca,The Medicine Shoppe Pharmacy #336,108-314 Old Airport Rd,Yellowknife,Northwest Territories,X1A 3T3,CA,336,867.920.7775,"Mental Health,Diabetes Support",62.447187,-114.408719,Monday : 9:30 AM - 6:00 PM ;Tuesday : 9:30 AM - 6:00 PM ;Wednesday : 9:30 AM - 6:00 PM ;Thursday : 9:30 AM - 6:00 PM ;Friday Open : 9:30 AM - 6:00 PM ;Saturday : 10:00 AM - 2:00 PM ;Sunday : Closed
medicineshoppe.ca,The Medicine Shoppe Pharmacy #262,70 Lacewood Dr,Halifax,Nova Scotia,B3M 2P1,CA,262,902.406.4110,"Medication Compounding,Immunizations & Injections,Weight Management,Mental Health,Diabetes Support,Flu Shot Services",44.66098,-63.637586,Monday : 9:30 AM - 6:00 PM ;Tuesday : 9:30 AM - 6:00 PM ;Wednesday : 9:30 AM - 6:00 PM ;Thursday : 9:30 AM - 6:00 PM ;Friday Open : 9:30 AM - 6:00 PM ;Saturday : 10:00 AM - 3:00 PM ;Sunday : 10:00 AM - 3:00 PM
medicineshoppe.ca,The Medicine Shoppe Pharmacy #392,2-3622 Hammonds Plains Rd,Upper Tantallon,Nova Scotia,B3Z 4R2,CA,392,902.820.0392,Flu Shot Services,44.70355,-63.856476,Monday : 9:30 AM - 6:00 PM ;Tuesday : 9:30 AM - 6:00 PM ;Wednesday : 9:30 AM - 6:00 PM ;Thursday : 9:30 AM - 6:00 PM ;Friday Open : 9:30 AM - 6:00 PM ;Saturday : Closed ;Sunday : Closed
medicineshoppe.ca,The Medicine Shoppe Pharmacy #270,601 Sackville Dr,Lower Sackville,Nova Scotia,B4C 2S4,CA,270,902.252.7700,"Medication Compounding,Mental Health,Diabetes Support,Flu Shot Services",44.768322,-63.685916,Monday : 8:30 AM - 8:00 PM ;Tuesday : 8:30 AM - 8:00 PM ;Wednesday : 8:30 AM - 8:00 PM ;Thursday : 8:30 AM - 8:00 PM ;Friday Open : 8:30 AM - 8:00 PM ;Saturday : 10:00 AM - 5:00 PM ;Sunday : 10:00 AM - 5:00 PM
medicineshoppe.ca,The Medicine Shoppe Pharmacy #277,2958 Oxford St,Halifax,Nova Scotia,B3L 2W4,CA,277,902.405.3784,"Medication Compounding,Weight Management,Mental Health,Diabetes Support",44.653316,-63.608463,Monday : 9:30 AM - 5:30 PM ;Tuesday : 9:30 AM - 5:30 PM ;Wednesday : 9:30 AM - 1:00 PM ;Thursday : 8:00 AM - 4:00 PM ;Friday Closed : 8:00 AM - 4:00 PM ;Saturday : Not available ;Sunday : Not available
medicineshoppe.ca,The Medicine Shoppe Pharmacy #283,6407 Quinpool Rd,Halifax,Nova Scotia,B3L 1A7,CA,283,902.444.7702,"Medication Compounding,Weight Management,Mental Health,Diabetes Support,Flu Shot Services",44.644564,-63.600669,Monday : 10:00 AM - 6:00 PM ;Tuesday : 10:00 AM - 6:00 PM ;Wednesday : 10:00 AM - 6:00 PM ;Thursday : 10:00 AM - 6:00 PM ;Friday Open : 10:00 AM - 6:00 PM ;Saturday : 11:00 AM - 3:00 PM ;Sunday : Closed
medicineshoppe.ca,The Medicine Shoppe Pharmacy #349,141b-349 Loutit Rd,Fort Mcmurray,Alberta,T9K 0Z3,CA,349,780.790.1234,"Mental Health,Diabetes Support,Flu Shot Services",56.752187,-111.435974,Monday : 9:00 AM - 6:00 PM ;Tuesday : 9:00 AM - 6:00 PM ;Wednesday : 9:00 AM - 6:00 PM ;Thursday : 9:00 AM - 6:00 PM ;Friday Open : 9:00 AM - 6:00 PM ;Saturday : 10:00 AM - 3:00 PM ;Sunday : Closed
medicineshoppe.ca,The Medicine Shoppe Pharmacy #237,9914 Morrison St,Fort Mcmurray,Alberta,T9H 4A4,CA,237,780.792.0708,"Medication Compounding,Mental Health,Diabetes Support,Flu Shot Services",56.728794,-111.384311,Monday : 9:00 AM - 6:30 PM ;Tuesday : 9:00 AM - 6:30 PM ;Wednesday : 9:00 AM - 6:30 PM ;Thursday : 9:00 AM - 6:30 PM ;Friday Open : 9:00 AM - 6:00 PM ;Saturday : 9:00 AM - 4:00 PM ;Sunday : Closed
medicineshoppe.ca,The Medicine Shoppe Pharmacy #195,104-1964 Fort St,Victoria,British Columbia,V8R 6R3,CA,195,250.595.1323,"Medication Compounding,Immunizations & Injections,Mental Health,Diabetes Support,Flu Shot Services",48.43221,-123.323481,Monday : 9:00 AM - 5:30 PM ;Tuesday : 9:00 AM - 5:30 PM ;Wednesday : 9:00 AM - 5:30 PM ;Thursday : 9:00 AM - 5:30 PM ;Friday Open : 9:00 AM - 5:30 PM ;Saturday : Not available ;Sunday : Not available
medicineshoppe.ca,The Medicine Shoppe Pharmacy #255,4-4071 Shelbourne St,Victoria,British Columbia,V8N 5Y1,CA,255,250.477.6112,"Medication Compounding,Immunizations & Injections,Mental Health,Diabetes Support,Flu Shot Services",48.476096,-123.332874,Monday : 9:30 AM - 6:00 PM ;Tuesday : 9:30 AM - 6:00 PM ;Wednesday : 9:30 AM - 6:00 PM ;Thursday : 9:30 AM - 6:00 PM ;Friday Open : 9:30 AM - 6:00 PM ;Saturday : Not available ;Sunday : Not available
medicineshoppe.ca,The Medicine Shoppe Pharmacy #356,D-2388 Mccallum Rd,Abbotsford,British Columbia,V2S 3P4,CA,356,604.776.1000,"Immunizations & Injections,Mental Health,Diabetes Support,Flu Shot Services",49.045146,-122.292925,Monday : 6:00 AM - 3:00 PM ;Tuesday : 6:00 AM - 3:00 PM ;Wednesday : 6:00 AM - 3:00 PM ;Thursday : 6:00 AM - 3:00 PM ;Friday Closed : 6:00 AM - 12:00 PM ;Saturday : 6:00 AM - 1:00 PM ;Sunday : 9:00 AM - 1:00 PM
medicineshoppe.ca,The Medicine Shoppe Pharmacy #148,9-31205 Maclure Rd,Abbotsford,British Columbia,V2T 5E5,CA,148,604.854.5800,"Medication Compounding,Mental Health,Diabetes Support,Flu Shot Services",49.054217,-122.359995,Monday : 9:30 AM - 6:00 PM ;Tuesday : 9:30 AM - 6:00 PM ;Wednesday : 9:30 AM - 6:00 PM ;Thursday : 9:30 AM - 6:00 PM ;Friday Open : 9:30 AM - 6:00 PM ;Saturday : 10:00 AM - 5:00 PM ;Sunday : 10:00 AM - 2:00 PM
medicineshoppe.ca,The Medicine Shoppe Pharmacy #163,122-1959 152nd St,Surrey,British Columbia,V4A 9E3,CA,163,604.531.4400,"Medication Compounding,Mental Health,Diabetes Support,Flu Shot Services",49.03684,-122.801521,Monday : 9:00 AM - 5:00 PM ;Tuesday : 9:00 AM - 5:00 PM ;Wednesday : 9:00 AM - 5:00 PM ;Thursday : 9:00 AM - 5:00 PM ;Friday Open : 9:00 AM - 5:00 PM ;Saturday : 10:00 AM - 2:00 PM ;Sunday : Not available
medicineshoppe.ca,The Medicine Shoppe Pharmacy #281,108-2210 Main St,Penticton,British Columbia,V2A 5H8,CA,281,250.276.3876,"Weight Management,Mental Health,Diabetes Support,Flu Shot Services",49.473408,-119.580632,Monday : 9:00 AM - 5:30 PM ;Tuesday : 9:00 AM - 5:30 PM ;Wednesday : 9:00 AM - 5:30 PM ;Thursday : 9:00 AM - 5:30 PM ;Friday Open : 9:00 AM - 5:30 PM ;Saturday : 10:00 AM - 2:00 PM ;Sunday : Not available
medicineshoppe.ca,The Medicine Shoppe Pharmacy #367,4-1363 56th St,Delta,British Columbia,V4L 2P7,CA,367,778.434.3300,"Mental Health,Diabetes Support,Flu Shot Services",49.027524,-123.070153,Monday : 9:30 AM - 5:30 PM ;Tuesday : 9:30 AM - 5:30 PM ;Wednesday : 9:30 AM - 5:30 PM ;Thursday : 9:30 AM - 5:30 PM ;Friday Open : 9:30 AM - 5:30 PM ;Saturday : 10:00 AM - 2:00 PM ;Sunday : Closed
medicineshoppe.ca,The Medicine Shoppe Pharmacy #361,121-20353 64th Ave,Langley,British Columbia,V2Y 1N5,CA,361,604.510.3140,"Immunizations & Injections,Weight Management,Mental Health,Diabetes Support,Flu Shot Services",49.118981,-122.659226,Monday : 9:00 AM - 6:00 PM ;Tuesday : 9:00 AM - 6:00 PM ;Wednesday : 9:00 AM - 6:00 PM ;Thursday : 9:00 AM - 6:00 PM ;Friday Open : 9:00 AM - 6:00 PM ;Saturday : 10:00 AM - 4:00 PM ;Sunday : 10:00 AM - 2:00 PM
medicineshoppe.ca,The Medicine Shoppe Pharmacy #156,104-16088 84th Ave,Surrey,British Columbia,V3S 2P1,CA,156,604.507.0190,"Immunizations & Injections,Mental Health,Diabetes Support,Flu Shot Services",49.155423,-122.776636,Monday : 9:00 AM - 6:00 PM ;Tuesday : 9:00 AM - 6:00 PM ;Wednesday : 9:00 AM - 6:00 PM ;Thursday : 9:00 AM - 6:00 PM ;Friday Open : 9:00 AM - 6:00 PM ;Saturday : Not available ;Sunday : Not available
medicineshoppe.ca,The Medicine Shoppe Pharmacy #240,303-15988 Fraser Hwy,Surrey,British Columbia,V3S 2N4,CA,240,604.507.0970,"Immunizations & Injections,Weight Management,Mental Health,Diabetes Support,Flu Shot Services",49.157122,-122.780037,Monday : 9:00 AM - 6:00 PM ;Tuesday : 9:00 AM - 6:00 PM ;Wednesday : 9:00 AM - 6:00 PM ;Thursday : 9:00 AM - 6:00 PM ;Friday Open : 9:00 AM - 6:00 PM ;Saturday : 9:00 AM - 3:00 PM ;Sunday : 9:00 AM - 11:00 AM
medicineshoppe.ca,The Medicine Shoppe Pharmacy #373,11919 224th St,Maple Ridge,British Columbia,V2X 6B2,CA,373,604.380.1500,Flu Shot Services,49.218994,-122.601946,Monday : 9:00 AM - 6:00 PM ;Tuesday : 9:00 AM - 6:00 PM ;Wednesday : 9:00 AM - 6:00 PM ;Thursday : 9:00 AM - 6:00 PM ;Friday Open : 9:00 AM - 6:00 PM ;Saturday : 10:00 AM - 3:00 PM ;Sunday : Not available
medicineshoppe.ca,The Medicine Shoppe Pharmacy #310,3993 Chatham St,Richmond,British Columbia,V7E 2Z6,CA,310,778.297.5777,"Medication Compounding,Weight Management,Mental Health,Diabetes Support,Flu Shot Services",49.126549,-123.181127,Monday : 9:00 AM - 6:00 PM ;Tuesday : 9:00 AM - 6:00 PM ;Wednesday : 9:00 AM - 6:00 PM ;Thursday : 9:00 AM - 6:00 PM ;Friday Open : 9:00 AM - 6:00 PM ;Saturday : 10:00 AM - 5:00 PM ;Sunday : Closed
medicineshoppe.ca,The Medicine Shoppe Pharmacy #312,130-8171 Cook Rd,Richmond,British Columbia,V6Y 3T8,CA,312,604.278.3828,"Mental Health,Diabetes Support,Flu Shot Services",49.166511,-123.133846,Monday : 9:30 AM - 6:00 PM ;Tuesday : 9:30 AM - 6:00 PM ;Wednesday : 9:30 AM - 6:00 PM ;Thursday : 9:30 AM - 6:00 PM ;Friday Open : 9:30 AM - 6:00 PM ;Saturday : 10:00 AM - 2:00 PM ;Sunday : Closed
medicineshoppe.ca,The Medicine Shoppe Pharmacy #142,413 Columbia St E,New Westminster,British Columbia,V3L 0B4,CA,142,604.521.9313,"Mental Health,Diabetes Support,Flu Shot Services",49.225879,-122.892888,Monday : 9:00 AM - 6:00 PM ;Tuesday : 9:00 AM - 6:00 PM ;Wednesday : 9:00 AM - 6:00 PM ;Thursday : 9:00 AM - 6:00 PM ;Friday Open : 9:00 AM - 6:00 PM ;Saturday : Not available ;Sunday : Not available
medicineshoppe.ca,The Medicine Shoppe Pharmacy #292,4277 Kingsway,Burnaby,British Columbia,V5H 3Z2,CA,292,604.435.5353,"Immunizations & Injections,Weight Management,Mental Health,Diabetes Support,Flu Shot Services",49.232185,-123.010047,Monday : 9:00 AM - 6:00 PM ;Tuesday : 9:00 AM - 6:00 PM ;Wednesday : 9:00 AM - 6:00 PM ;Thursday : 9:00 AM - 6:00 PM ;Friday Open : 9:00 AM - 6:00 PM ;Saturday : 10:00 AM - 6:00 PM ;Sunday : 10:00 AM - 6:00 PM
medicineshoppe.ca,The Medicine Shoppe Pharmacy #254,53-2991 Lougheed Hwy,Coquitlam,British Columbia,V3B 6J6,CA,254,604.468.4711,"Mental Health,Diabetes Support,Flu Shot Services",49.276542,-122.795036,Monday : 9:00 AM - 6:00 PM ;Tuesday : 9:00 AM - 6:00 PM ;Wednesday : 9:00 AM - 6:00 PM ;Thursday : 9:00 AM - 6:00 PM ;Friday Open : 9:00 AM - 6:00 PM ;Saturday : 9:00 AM - 3:00 PM ;Sunday : Not available
medicineshoppe.ca,The Medicine Shoppe Pharmacy #149,6495 Victoria Dr,Vancouver,British Columbia,V5P 3X5,CA,149,604.327.5567,"Medication Compounding,Mental Health,Diabetes Support,Flu Shot Services",49.225353,-123.065915,Monday : 9:00 AM - 6:00 PM ;Tuesday : 9:00 AM - 6:00 PM ;Wednesday : 9:00 AM - 6:00 PM ;Thursday : 9:00 AM - 6:00 PM ;Friday Open : 9:00 AM - 6:00 PM ;Saturday : 10:00 AM - 5:00 PM ;Sunday : Not available
medicineshoppe.ca,The Medicine Shoppe Pharmacy #285,3039 Kingsway,Vancouver,British Columbia,V5R 5J6,CA,285,604.437.5442,"Mental Health,Diabetes Support,Flu Shot Services",49.235999,-123.040923,Monday : 9:30 AM - 5:30 PM ;Tuesday : 9:30 AM - 5:30 PM ;Wednesday : 9:30 AM - 5:30 PM ;Thursday : 9:30 AM - 5:30 PM ;Friday Open : 9:30 AM - 5:30 PM ;Saturday : 9:30 AM - 1:30 PM ;Sunday : Not available
medicineshoppe.ca,The Medicine Shoppe Pharmacy #231,6180 Fraser St,Vancouver,British Columbia,V5W 3A1,CA,231,604.327.3898,"Mental Health,Diabetes Support,Flu Shot Services",49.228584,-123.090484,Monday : 9:00 AM - 5:00 PM ;Tuesday : 9:00 AM - 5:00 PM ;Wednesday : 9:00 AM - 5:00 PM ;Thursday : 9:00 AM - 5:00 PM ;Friday Open : 9:00 AM - 5:00 PM ;Saturday : 9:00 AM - 1:00 PM ;Sunday : 9:00 AM - 1:00 PM
medicineshoppe.ca,The Medicine Shoppe Pharmacy #239,2030 Kingsway St,Vancouver,British Columbia,V5N 2T3,CA,239,604.876.2511,"Medication Compounding,Mental Health,Diabetes Support,Flu Shot Services",49.244788,-123.064718,Monday : 9:00 AM - 6:00 PM ;Tuesday : 9:00 AM - 6:00 PM ;Wednesday : 9:00 AM - 6:00 PM ;Thursday : 9:00 AM - 6:00 PM ;Friday Open : 9:00 AM - 6:00 PM ;Saturday : 10:00 AM - 2:00 PM ;Sunday : Not available
medicineshoppe.ca,The Medicine Shoppe Pharmacy #402,3982 Hastings St,Burnaby,British Columbia,V5C 6C1,CA,402,604.229.8353,"Medication Compounding,Immunizations & Injections,Mental Health,Diabetes Support,Flu Shot Services",49.280869,-123.017294,Monday : 10:00 AM - 6:00 PM ;Tuesday : 10:00 AM - 6:00 PM ;Wednesday : 10:00 AM - 6:00 PM ;Thursday : 10:00 AM - 6:00 PM ;Friday : 10:00 AM - 6:00 PM ;Saturday : Not available ;Sunday : Not available
medicineshoppe.ca,MEDICINE SHOPPE #116,6-3195 Granville St,Vancouver,British Columbia,V6H 3K2,CA,116,604.732.0777,<MISSING>,49.257238,-123.139259,Monday : 9:00 AM - 6:00 PM ;Tuesday : 9:00 AM - 6:00 PM ;Wednesday : 9:00 AM - 6:00 PM ;Thursday : 9:00 AM - 6:00 PM ;Friday Open : 9:00 AM - 6:00 PM ;Saturday : Not available ;Sunday : Not available
medicineshoppe.ca,The Medicine Shoppe Pharmacy #221,101-777 Broadway W,Vancouver,British Columbia,V5Z 4J7,CA,221,604.675.6300,"Immunizations & Injections,Weight Management,Mental Health,Diabetes Support,Flu Shot Services",49.263611,-123.121446,Monday : 9:00 AM - 5:30 PM ;Tuesday : 9:00 AM - 5:30 PM ;Wednesday : 9:00 AM - 5:30 PM ;Thursday : 9:00 AM - 5:30 PM ;Friday Open : 9:00 AM - 5:30 PM ;Saturday : 10:00 AM - 3:00 PM ;Sunday : Not available
medicineshoppe.ca,The Medicine Shoppe Pharmacy #352,2a-1834 Cedar Rd,Nanaimo,British Columbia,V9X 1H9,CA,352,250.323.8688,"Mental Health,Diabetes Support,Flu Shot Services",49.107102,-123.862413,Monday : 10:00 AM - 6:00 PM ;Tuesday : 10:00 AM - 6:00 PM ;Wednesday : 10:00 AM - 6:00 PM ;Thursday : 10:00 AM - 6:00 PM ;Friday Open : 10:00 AM - 6:00 PM ;Saturday : 10:00 AM - 2:00 PM ;Sunday : Closed
medicineshoppe.ca,The Medicine Shoppe Pharmacy #406,100-847 Bruce Ave,Nanaimo,British Columbia,V9R 6Y2,CA,406,250.591.4555,"Diabetes Support,Flu Shot Services",49.144996,-123.950913,Monday : 9:00 AM - 6:30 PM ;Tuesday : 9:00 AM - 6:30 PM ;Wednesday : 9:00 AM - 6:30 PM ;Thursday : 9:00 AM - 6:30 PM ;Friday Open : 9:00 AM - 6:30 PM ;Saturday : 9:00 AM - 1:00 PM ;Sunday : 9:00 AM - 12:00 PM
medicineshoppe.ca,The Medicine Shoppe Pharmacy #350,33-1150 Terminal Ave N,Nanaimo,British Columbia,V9S 5L6,CA,350,250.591.4933,"Mental Health,Diabetes Support,Flu Shot Services",49.183679,-123.954093,Monday : 9:00 AM - 6:30 PM ;Tuesday : 9:00 AM - 6:30 PM ;Wednesday : 9:00 AM - 6:30 PM ;Thursday : 9:00 AM - 6:30 PM ;Friday Open : 9:00 AM - 6:30 PM ;Saturday : 9:00 AM - 5:00 PM ;Sunday : 7:30 AM - 10:00 AM
medicineshoppe.ca,The Medicine Shoppe Pharmacy #259,2441a Main St,Westbank,British Columbia,V4T 1K5,CA,259,250.707.2952,"Immunizations & Injections,Mental Health,Diabetes Support,Flu Shot Services",49.829455,-119.627673,Monday : 9:30 AM - 6:00 PM ;Tuesday : 9:30 AM - 6:00 PM ;Wednesday : 9:30 AM - 6:00 PM ;Thursday : 9:30 AM - 6:00 PM ;Friday Open : 9:30 AM - 6:00 PM ;Saturday : 9:00 AM - 3:00 PM ;Sunday : Closed
medicineshoppe.ca,The Medicine Shoppe Pharmacy #358,105-3957 Lakeshore Rd,Kelowna,British Columbia,V1W 1V3,CA,358,778.477.3811,"Immunizations & Injections,Weight Management,Mental Health,Diabetes Support,Flu Shot Services",49.841258,-119.488339,Monday : 9:00 AM - 6:00 PM ;Tuesday : 9:00 AM - 6:00 PM ;Wednesday : 9:00 AM - 6:00 PM ;Thursday : 9:00 AM - 6:00 PM ;Friday Open : 9:00 AM - 6:00 PM ;Saturday : Not available ;Sunday : Not available
medicineshoppe.ca,The Medicine Shoppe Pharmacy #332,A-4186 Departure Bay Rd,Nanaimo,British Columbia,V9T 4B7,CA,332,250.760.0073,"Weight Management,Mental Health,Diabetes Support,Flu Shot Services",49.207604,-124.000832,Monday : 9:30 AM - 6:00 PM ;Tuesday : 9:30 AM - 6:00 PM ;Wednesday : 9:30 AM - 6:00 PM ;Thursday : 9:30 AM - 6:00 PM ;Friday Open : 9:30 AM - 6:00 PM ;Saturday : 11:00 AM - 3:00 PM ;Sunday : Closed
medicineshoppe.ca,The Medicine Shoppe Pharmacy #321,102a-1100 Lawrence Ave,Kelowna,British Columbia,V1Y 6M4,CA,321,250.763.5312,"Mental Health,Diabetes Support,Flu Shot Services",49.885272,-119.476807,Monday : 9:00 AM - 5:00 PM ;Tuesday : 9:00 AM - 5:00 PM ;Wednesday : 9:00 AM - 5:00 PM ;Thursday : 9:00 AM - 5:00 PM ;Friday Open : 9:00 AM - 5:00 PM ;Saturday : 9:00 AM - 2:00 PM ;Sunday : Not available
medicineshoppe.ca,The Medicine Shoppe Pharmacy #325,303-5800 Turner Rd,Nanaimo,British Columbia,V9T 6J4,CA,325,250.585.0325,"Mental Health,Flu Shot Services",49.224885,-124.037211,Monday : 9:00 AM - 6:00 PM ;Tuesday : 9:00 AM - 6:00 PM ;Wednesday : 9:00 AM - 6:00 PM ;Thursday : 9:00 AM - 6:00 PM ;Friday Open : 9:00 AM - 6:00 PM ;Saturday : Not available ;Sunday : Not available
medicineshoppe.ca,The Medicine Shoppe Pharmacy #374,20-15 Southgate Blvd S,Lethbridge,Alberta,T1K 6S5,CA,374,403.394.0404,"Mental Health,Diabetes Support,Flu Shot Services",49.659915,-112.792037,Monday : 8:30 AM - 5:00 PM ;Tuesday : 8:30 AM - 5:00 PM ;Wednesday : 8:30 AM - 5:00 PM ;Thursday : 8:30 AM - 5:00 PM ;Friday Open : 8:30 AM - 5:00 PM ;Saturday : Closed ;Sunday : Closed
medicineshoppe.ca,The Medicine Shoppe Pharmacy #175,4330 Sunshine Coast Hwy 6,Sechelt,British Columbia,V0N 3A1,CA,175,604.740.5813,"Mental Health,Diabetes Support,Flu Shot Services",49.440272,-123.709568,Monday : 9:00 AM - 5:30 PM ;Tuesday : 9:00 AM - 5:30 PM ;Wednesday : 9:00 AM - 5:30 PM ;Thursday : 9:00 AM - 5:30 PM ;Friday Open : 9:00 AM - 5:30 PM ;Saturday : 10:00 AM - 2:00 PM ;Sunday : Not available
medicineshoppe.ca,The Medicine Shoppe Pharmacy #127,1016a 20th St S,Lethbridge,Alberta,T1K 2C9,CA,127,403.380.3282,"Diabetes Support,Flu Shot Services",49.683172,-112.812801,Monday : 8:30 AM - 6:00 PM ;Tuesday : 8:30 AM - 6:00 PM ;Wednesday : 8:30 AM - 6:00 PM ;Thursday : 8:30 AM - 6:00 PM ;Friday Open : 8:30 AM - 6:00 PM ;Saturday : 10:00 AM - 2:00 PM ;Sunday : Closed
medicineshoppe.ca,The Medicine Shoppe Pharmacy #168,192 Island Hwy W Box 998,Parksville,British Columbia,V9P 2H1,CA,168,250.248.6695,"Medication Compounding,Mental Health,Diabetes Support,Flu Shot Services",49.321354,-124.316597,Monday : 9:00 AM - 5:30 PM ;Tuesday : 9:00 AM - 5:30 PM ;Wednesday : 9:00 AM - 5:30 PM ;Thursday : 9:00 AM - 5:30 PM ;Friday Open : 9:00 AM - 5:30 PM ;Saturday : 9:00 AM - 5:00 PM ;Sunday : Not available
medicineshoppe.ca,The Medicine Shoppe Pharmacy #388,2-245 13th St N,Lethbridge,Alberta,T1H 2R6,CA,388,587.486.8800,"Medication Compounding,Weight Management,Mental Health,Diabetes Support,Flu Shot Services",49.702242,-112.82356,Monday : 9:00 AM - 5:00 PM ;Tuesday : 9:00 AM - 5:00 PM ;Wednesday : 9:00 AM - 5:00 PM ;Thursday : 9:00 AM - 5:00 PM ;Friday Open : 9:00 AM - 5:00 PM ;Saturday : Not available ;Sunday : Not available
medicineshoppe.ca,The Medicine Shoppe Pharmacy #284,1904 13th Ave N,Lethbridge,Alberta,T1H 4W9,CA,284,403.381.0700,"Immunizations & Injections,Mental Health,Diabetes Support,Flu Shot Services",49.716219,-112.813439,Monday : 9:00 AM - 5:30 PM ;Tuesday : 9:00 AM - 5:30 PM ;Wednesday : 9:00 AM - 5:30 PM ;Thursday : 9:00 AM - 5:30 PM ;Friday Open : 9:00 AM - 5:30 PM ;Saturday : Closed ;Sunday : Closed
medicineshoppe.ca,The Medicine Shoppe Pharmacy #369,2943 10th Ave Lot A Dl1,Port Alberni,British Columbia,V9Y 2N5,CA,369,250.723.9850,"Mental Health,Diabetes Support,Flu Shot Services",49.233431,-124.797506,Monday : 9:30 AM - 5:30 PM ;Tuesday : 9:30 AM - 5:30 PM ;Wednesday : 9:30 AM - 5:30 PM ;Thursday : 9:30 AM - 5:30 PM ;Friday Open : 9:30 AM - 5:30 PM ;Saturday : 10:00 AM - 4:00 PM ;Sunday : Not available
medicineshoppe.ca,The Medicine Shoppe Pharmacy #268,143 2nd Ave W Box 418,Qualicum Beach,British Columbia,V9K 2R8,CA,268,250.752.6691,"Medication Compounding,Mental Health,Diabetes Support,Flu Shot Services",49.347297,-124.443782,Monday : 9:00 AM - 5:00 PM ;Tuesday : 9:00 AM - 5:00 PM ;Wednesday : 9:00 AM - 5:00 PM ;Thursday : 9:00 AM - 5:00 PM ;Friday Open : 9:00 AM - 5:00 PM ;Saturday : Not available ;Sunday : Not available
medicineshoppe.ca,The Medicine Shoppe Pharmacy #253,4833 Southgate Rd,Port Alberni,British Columbia,V9Y 5K5,CA,253,250.723.4940,"Mental Health,Diabetes Support,Flu Shot Services",49.257766,-124.808698,Monday : 9:30 AM - 5:30 PM ;Tuesday : 9:30 AM - 5:30 PM ;Wednesday : 9:30 AM - 5:30 PM ;Thursday : 9:30 AM - 5:30 PM ;Friday Open : 9:30 AM - 5:30 PM ;Saturday : 9:30 AM - 12:00 PM ;Sunday : Not available
medicineshoppe.ca,The Medicine Shoppe Pharmacy #333,107-3949 Maple Way,Port Alberni,British Columbia,V9Y 0B2,CA,333,250.723.7270,"Medication Compounding,Mental Health,Diabetes Support,Flu Shot Services",49.263581,-124.792042,Monday : 9:30 AM - 5:30 PM ;Tuesday : 9:30 AM - 5:30 PM ;Wednesday : 9:30 AM - 5:30 PM ;Thursday : 9:30 AM - 5:30 PM ;Friday Open : 9:30 AM - 5:30 PM ;Saturday : Not available ;Sunday : Not available
medicineshoppe.ca,The Medicine Shoppe Pharmacy #395,100-3605 31st St,Vernon,British Columbia,V1T 5J4,CA,395,778.475.1010,Flu Shot Services,50.268381,-119.271761,Monday : 9:00 AM - 5:30 PM ;Tuesday : 9:00 AM - 5:30 PM ;Wednesday : 9:00 AM - 5:30 PM ;Thursday : 9:00 AM - 5:30 PM ;Friday Open : 9:00 AM - 5:30 PM ;Saturday : 10:00 AM - 2:00 PM ;Sunday : Not available
medicineshoppe.ca,The Medicine Shoppe Pharmacy #317,102-303 9th Ave S W,High River,Alberta,T1V 0H2,CA,317,403.652.4449,"Medication Compounding,Mental Health,Diabetes Support,Flu Shot Services",50.575085,-113.877974,Monday : 9:00 AM - 5:30 PM ;Tuesday : 9:00 AM - 5:30 PM ;Wednesday : 9:00 AM - 5:30 PM ;Thursday : 9:00 AM - 5:30 PM ;Friday Open : 9:00 AM - 5:00 PM ;Saturday : 9:00 AM - 1:00 PM ;Sunday : Not available
medicineshoppe.ca,The Medicine Shoppe Pharmacy #242,111-31 Sunpark Plaza S E,Calgary,Alberta,T2X 3W5,CA,242,403.873.0087,"Mental Health,Diabetes Support,Flu Shot Services",50.902556,-114.058636,Monday : 9:00 AM - 6:00 PM ;Tuesday : 9:00 AM - 6:00 PM ;Wednesday : 9:00 AM - 6:00 PM ;Thursday : 9:00 AM - 6:00 PM ;Friday Open : 9:00 AM - 6:00 PM ;Saturday : 10:00 AM - 5:00 PM ;Sunday : Closed
medicineshoppe.ca,The Medicine Shoppe Pharmacy #322,Po Box 1130,Siksika,Alberta,T0J 3W0,CA,322,403.734.5658,"Mental Health,Diabetes Support,Flu Shot Services",50.733379,-112.776782,Monday : 10:00 AM - 4:00 PM ;Tuesday : 10:00 AM - 4:00 PM ;Wednesday : 10:00 AM - 4:00 PM ;Thursday : 10:00 AM - 4:00 PM ;Friday Closed : 10:00 AM - 4:00 PM ;Saturday : Not available ;Sunday : Not available
medicineshoppe.ca,The Medicine Shoppe Pharmacy #389,1152 137th Ave S E,Calgary,Alberta,T2J 6T6,CA,389,403.523.0116,"Weight Management,Flu Shot Services",50.928239,-114.028166,Monday : 9:00 AM - 5:00 PM ;Tuesday : 9:00 AM - 5:00 PM ;Wednesday : 9:00 AM - 5:00 PM ;Thursday : 9:00 AM - 5:00 PM ;Friday Open : 9:00 AM - 5:00 PM ;Saturday : Closed ;Sunday : Closed
medicineshoppe.ca,The Medicine Shoppe Pharmacy #111,114-8180 Macleod Trail S E,Calgary,Alberta,T2H 2B8,CA,111,403.253.7383,"Weight Management,Mental Health,Diabetes Support,Flu Shot Services",50.981849,-114.070439,Monday : 9:00 AM - 5:00 PM ;Tuesday : 9:00 AM - 5:00 PM ;Wednesday : 9:00 AM - 5:00 PM ;Thursday : 9:00 AM - 5:00 PM ;Friday Open : 9:00 AM - 5:00 PM ;Saturday : 10:00 AM - 1:00 PM ;Sunday : Closed
medicineshoppe.ca,The Medicine Shoppe Pharmacy #398,70-1935 37th St S W,Calgary,Alberta,T3E 3A4,CA,398,403.452.8333,"Medication Compounding,Immunizations & Injections,Weight Management,Diabetes Support,Flu Shot Services",51.036627,-114.141849,Monday : 9:30 AM - 5:30 PM ;Tuesday : 9:30 AM - 5:30 PM ;Wednesday : 9:30 AM - 5:30 PM ;Thursday : 9:30 AM - 5:30 PM ;Friday Open : 9:30 AM - 5:30 PM ;Saturday : 10:00 AM - 2:00 PM ;Sunday : Closed
medicineshoppe.ca,The Medicine Shoppe Pharmacy #194,2303 4th St S W,Calgary,Alberta,T2S 2S7,CA,194,403.229.3458,"Mental Health,Diabetes Support,Flu Shot Services",51.032284,-114.071777,Monday : 8:30 AM - 5:30 PM ;Tuesday : 8:30 AM - 5:30 PM ;Wednesday : 8:30 AM - 5:30 PM ;Thursday : 8:30 AM - 5:30 PM ;Friday Open : 8:30 AM - 5:30 PM ;Saturday : 10:00 AM - 2:00 PM ;Sunday : Not available
medicineshoppe.ca,The Medicine Shoppe Pharmacy #158,312-401 9th Ave S W,Calgary,Alberta,T2P 3C5,CA,158,403.221.4383,"Medication Compounding,Immunizations & Injections,Weight Management,Mental Health,Diabetes Support,Flu Shot Services",51.044689,-114.070865,Monday : 8:30 AM - 5:00 PM ;Tuesday : 8:30 AM - 5:00 PM ;Wednesday : 8:30 AM - 5:00 PM ;Thursday : 8:30 AM - 5:00 PM ;Friday Closed : 8:30 AM - 4:00 PM ;Saturday : Not available ;Sunday : Not available
medicineshoppe.ca,The Medicine Shoppe Pharmacy #212,2905 17th Ave S E,Calgary,Alberta,T2A 0P7,CA,212,403.235.0888,"Diabetes Support,Flu Shot Services",51.037738,-113.992688,Monday : 9:00 AM - 6:00 PM ;Tuesday : 9:00 AM - 6:00 PM ;Wednesday : 9:00 AM - 6:00 PM ;Thursday : 9:00 AM - 6:00 PM ;Friday Open : 9:00 AM - 6:00 PM ;Saturday : 10:00 AM - 2:00 PM ;Sunday : Closed
medicineshoppe.ca,The Medicine Shoppe Pharmacy #178,105-4411 16th Ave N W,Calgary,Alberta,T3B 0M3,CA,178,403.247.9502,"Medication Compounding,Mental Health,Diabetes Support,Flu Shot Services",51.06811,-114.15923,Monday : 9:30 AM - 6:00 PM ;Tuesday : 9:30 AM - 6:00 PM ;Wednesday : 9:30 AM - 6:00 PM ;Thursday : 9:30 AM - 5:30 PM ;Friday Open : 9:30 AM - 5:30 PM ;Saturday : 10:00 AM - 2:00 PM ;Sunday : Not available
medicineshoppe.ca,The Medicine Shoppe Pharmacy #199,4-7930 Bowness Rd N W,Calgary,Alberta,T3B 0H3,CA,199,403.288.4041,"Medication Compounding,Mental Health,Diabetes Support,Flu Shot Services",51.088967,-114.201176,Monday : 9:30 AM - 5:30 PM ;Tuesday : 9:30 AM - 5:30 PM ;Wednesday : 9:30 AM - 5:30 PM ;Thursday : 9:30 AM - 5:30 PM ;Friday Open : 9:30 AM - 5:30 PM ;Saturday : Not available ;Sunday : Not available
medicineshoppe.ca,The Medicine Shoppe Pharmacy #171,100-2675 36th St N E,Calgary,Alberta,T1Y 6H6,CA,171,403.291.0076,"Medication Compounding,Mental Health,Diabetes Support,Flu Shot Services",51.076783,-113.983283,Monday : 8:30 AM - 6:00 PM ;Tuesday : 8:30 AM - 6:00 PM ;Wednesday : 8:30 AM - 6:00 PM ;Thursday : 8:30 AM - 6:00 PM ;Friday Open : 8:30 AM - 6:00 PM ;Saturday : 10:00 AM - 4:00 PM ;Sunday : Closed
medicineshoppe.ca,The Medicine Shoppe Pharmacy #126,12-5440 4th St N W,Calgary,Alberta,T2K 1A8,CA,126,403.274.3400,"Mental Health,Diabetes Support,Flu Shot Services",51.099583,-114.071534,Monday : 9:30 AM - 6:00 PM ;Tuesday : 9:30 AM - 6:00 PM ;Wednesday : 9:30 AM - 6:00 PM ;Thursday : 9:30 AM - 6:00 PM ;Friday Open : 9:30 AM - 6:00 PM ;Saturday : 10:00 AM - 1:00 PM ;Sunday : Not available
medicineshoppe.ca,The Medicine Shoppe Pharmacy #260,11-600 Crowfoot Cr N W,Calgary,Alberta,T3G 0B4,CA,260,403.455.9939,"Medication Compounding,Immunizations & Injections,Weight Management,Mental Health,Diabetes Support,Flu Shot Services",51.129397,-114.203836,Monday : 8:30 AM - 6:00 PM ;Tuesday : 8:30 AM - 6:00 PM ;Wednesday : 8:30 AM - 6:00 PM ;Thursday : 8:30 AM - 6:00 PM ;Friday Open : 8:30 AM - 6:00 PM ;Saturday : 10:00 AM - 4:00 PM ;Sunday : Closed
medicineshoppe.ca,The Medicine Shoppe Pharmacy #181,11-555 Hawkwood Blvd N W,Calgary,Alberta,T3G 3K2,CA,181,403.547.1600,"Medication Compounding,Immunizations & Injections,Weight Management,Mental Health,Diabetes Support,Flu Shot Services",51.129984,-114.178144,Monday : 9:30 AM - 5:30 PM ;Tuesday : 9:30 AM - 5:30 PM ;Wednesday : 9:30 AM - 5:30 PM ;Thursday : 9:30 AM - 5:30 PM ;Friday Open : 9:30 AM - 5:30 PM ;Saturday : 10:00 AM - 2:00 PM ;Sunday : Not available
medicineshoppe.ca,The Medicine Shoppe Pharmacy #341,130-2950 22nd St,Red Deer,Alberta,T4R 0H9,CA,341,403.343.8831,<MISSING>,52.238116,-113.765307,Monday : 10:00 AM - 6:00 PM ;Tuesday : 10:00 AM - 6:00 PM ;Wednesday : 10:00 AM - 6:00 PM ;Thursday : 10:00 AM - 6:00 PM ;Friday Open : 10:00 AM - 6:00 PM ;Saturday : 10:00 AM - 2:00 PM ;Sunday : Not available
medicineshoppe.ca,The Medicine Shoppe Pharmacy #251,3805 50 St,Red Deer,Alberta,T4N 1W1,CA,251,403.343.8088,<MISSING>,52.266497,-113.785532,Monday : 10:00 AM - 6:00 PM ;Tuesday : 10:00 AM - 6:00 PM ;Wednesday : 10:00 AM - 6:00 PM ;Thursday : 10:00 AM - 6:00 PM ;Friday Open : 10:00 AM - 6:00 PM ;Saturday : 10:00 AM - 2:00 PM ;Sunday : Not available
medicineshoppe.ca,The Medicine Shoppe Pharmacy #187,54 Central St,Summerside,Prince Edward Island,C1N 3L1,CA,187,902.436.4436,<MISSING>,46.393715,-63.792924,Monday : 8:30 AM - 5:30 PM ;Tuesday : 8:30 AM - 5:30 PM ;Wednesday : 8:30 AM - 5:30 PM ;Thursday : 8:30 AM - 5:30 PM ;Friday Open : 8:30 AM - 7:00 PM ;Saturday : 9:00 AM - 3:00 PM ;Sunday : Closed
medicineshoppe.ca,The Medicine Shoppe Pharmacy #143,19-5303 Canotek Rd,Ottawa,Ontario,K1J 9M1,CA,143,613.745.5905,"Mental Health,Diabetes Support,Flu Shot Services",45.452204,-75.588964,Monday : 9:00 AM - 5:00 PM ;Tuesday : 9:00 AM - 5:00 PM ;Wednesday : 9:00 AM - 5:00 PM ;Thursday : 9:00 AM - 5:00 PM ;Friday Open : 9:00 AM - 5:00 PM ;Saturday : Closed ;Sunday : Closed
medicineshoppe.ca,The Medicine Shoppe Pharmacy #271,381 Kent St,Ottawa,Ontario,K2P 2A8,CA,271,613.232.4337,"Mental Health,Diabetes Support,Flu Shot Services",45.41257,-75.696916,Monday : 9:00 AM - 6:00 PM ;Tuesday : 9:00 AM - 6:00 PM ;Wednesday : 9:00 AM - 6:00 PM ;Thursday : 9:00 AM - 6:00 PM ;Friday Open : 9:00 AM - 6:00 PM ;Saturday : 10:00 AM - 3:00 PM ;Sunday : Closed
medicineshoppe.ca,The Medicine Shoppe Pharmacy #347,317 Rivervalley Dr,Grand Bay-Westfield,New Brunswick,E5K 1A8,CA,347,506.738.3355,"Medication Compounding,Weight Management,Mental Health,Diabetes Support,Flu Shot Services",45.306693,-66.195227,Monday : 8:30 AM - 6:00 PM ;Tuesday : 8:30 AM - 6:00 PM ;Wednesday : 7:30 AM - 9:00 PM ;Thursday : 8:30 AM - 9:00 PM ;Friday Open : 8:30 AM - 6:00 PM ;Saturday : 8:30 AM - 1:00 PM ;Sunday : Closed
medicineshoppe.ca,The Medicine Shoppe Pharmacy #176,8-3360 Boul Dr Victor Leblanc,Tracadie,New Brunswick,E1X 0E1,CA,176,506.395.1725,"Weight Management,Mental Health,Diabetes Support,Flu Shot Services",47.524226,-64.910002,Monday : 9:00 AM - 8:00 PM ;Tuesday : 9:00 AM - 8:00 PM ;Wednesday : 9:00 AM - 8:00 PM ;Thursday : 9:00 AM - 8:00 PM ;Friday Open : 9:00 AM - 8:00 PM ;Saturday : 9:00 AM - 6:00 PM ;Sunday : Not available
medicineshoppe.ca,The Medicine Shoppe Pharmacy #316,106 Iceberg Arena Rd Box 99,Fogo,Newfoundland and Labrador,A0G 2B0,CA,316,709.266.1010,"Mental Health,Diabetes Support,Flu Shot Services",47.524226,-64.910002,Monday : 8:30 AM - 8:00 PM ;Tuesday : 8:30 AM - 8:00 PM ;Wednesday : 8:30 AM - 8:00 PM ;Thursday : 8:30 AM - 8:00 PM ;Friday Open : 8:30 AM - 8:00 PM ;Saturday : 10:00 AM - 5:00 PM ;Sunday : 2:00 PM - 5:00 PM
medicineshoppe.ca,The Medicine Shoppe Pharmacy #174,90 Mapleton Rd,Moncton,New Brunswick,E1C 7W8,CA,174,506.869.5221,"Mental Health,Diabetes Support,Flu Shot Services",46.107892,-64.82277,Monday : 9:00 AM - 6:00 PM ;Tuesday : 9:00 AM - 6:00 PM ;Wednesday : 9:00 AM - 6:00 PM ;Thursday : 9:00 AM - 6:00 PM ;Friday Open : 9:00 AM - 6:00 PM ;Saturday : 9:00 AM - 4:00 PM ;Sunday : Closed
medicineshoppe.ca,The Medicine Shoppe Pharmacy #219,960 St George Blvd,Moncton,New Brunswick,E1E 3Y3,CA,219,506.852.8082,"Mental Health,Diabetes Support,Flu Shot Services",46.08277,-64.821837,Monday : 9:00 AM - 5:00 PM ;Tuesday : 9:00 AM - 5:00 PM ;Wednesday : 9:00 AM - 5:00 PM ;Thursday : 9:00 AM - 5:00 PM ;Friday Open : 9:00 AM - 5:00 PM ;Saturday : Closed ;Sunday : Closed
medicineshoppe.ca,The Medicine Shoppe Pharmacy #294,1685 Main St,Moncton,New Brunswick,E1E 1G8,CA,294,506.854.2010,"Mental Health,Diabetes Support,Flu Shot Services",46.079858,-64.796072,Monday : 9:00 AM - 5:30 PM ;Tuesday : 9:00 AM - 5:30 PM ;Wednesday : 9:00 AM - 5:30 PM ;Thursday : 9:00 AM - 5:30 PM ;Friday Open : 9:00 AM - 5:30 PM ;Saturday : 9:00 AM - 4:00 PM ;Sunday : Not available
medicineshoppe.ca,The Medicine Shoppe Pharmacy #252,120 Shediac Rd,Moncton,New Brunswick,E1A 2R9,CA,252,506.858.6161,"Immunizations & Injections,Weight Management,Mental Health,Diabetes Support,Flu Shot Services",46.102843,-64.763825,Monday : 9:30 AM - 5:30 PM ;Tuesday : 9:30 AM - 5:30 PM ;Wednesday : 9:30 AM - 5:30 PM ;Thursday : 9:30 AM - 5:30 PM ;Friday Open : 9:30 AM - 5:30 PM ;Saturday : 9:00 AM - 1:00 PM ;Sunday : Closed
medicineshoppe.ca,The Medicine Shoppe Pharmacy #205,68 Rue Principale Box 2066,Lameque,New Brunswick,E8T 1M6,CA,205,506.344.0822,"Mental Health,Diabetes Support,Flu Shot Services",47.793476,-64.652853,Monday : 9:00 AM - 6:00 PM ;Tuesday : 9:00 AM - 6:00 PM ;Wednesday : 9:00 AM - 6:00 PM ;Thursday : 9:00 AM - 7:00 PM ;Friday Open : 9:00 AM - 7:00 PM ;Saturday : 9:00 AM - 5:00 PM ;Sunday : Not available
medicineshoppe.ca,The Medicine Shoppe Pharmacy #261,335 Rue Main,Shediac,New Brunswick,E4P 2B1,CA,261,506.532.6601,"Mental Health,Diabetes Support,Flu Shot Services",46.219396,-64.545384,Monday : 9:00 AM - 6:00 PM ;Tuesday : 9:00 AM - 6:00 PM ;Wednesday : 9:00 AM - 6:00 PM ;Thursday : 9:00 AM - 6:00 PM ;Friday Open : 9:00 AM - 6:00 PM ;Saturday : 10:00 AM - 4:00 PM ;Sunday : Closed
medicineshoppe.ca,The Medicine Shoppe Pharmacy #326,597-28 St W,Prince Albert,Saskatchewan,S6V 4T1,CA,326,306.970.3060,"Weight Management,Mental Health,Diabetes Support,Flu Shot Services",53.187558,-105.769692,Monday : 9:00 AM - 5:30 PM ;Tuesday : 9:00 AM - 5:30 PM ;Wednesday : 9:00 AM - 5:30 PM ;Thursday : 9:00 AM - 5:30 PM ;Friday Open : 9:00 AM - 5:30 PM ;Saturday : Not available ;Sunday : Not available
medicineshoppe.ca,The Medicine Shoppe Pharmacy #161,4910 50th St Box 100,Vegreville,Alberta,T9C 1R1,CA,161,780.632.6337,Immunizations & Injections,53.494258,-112.053469,Monday : 9:00 AM - 6:00 PM ;Tuesday : 9:00 AM - 6:00 PM ;Wednesday : 9:00 AM - 6:00 PM ;Thursday : 9:00 AM - 6:00 PM ;Friday Open : 9:00 AM - 6:00 PM ;Saturday : Not available ;Sunday : Not available
medicineshoppe.ca,The Medicine Shoppe Pharmacy #386,120c Centre St,Meadow Lake,Saskatchewan,S9X 1L3,CA,386,306.236.0333,"Medication Compounding,Mental Health,Diabetes Support,Flu Shot Services",54.132245,-108.432776,Monday : 8:30 AM - 6:00 PM ;Tuesday : 8:30 AM - 6:00 PM ;Wednesday : 8:30 AM - 6:00 PM ;Thursday : 8:30 AM - 6:00 PM ;Friday Open : 8:30 AM - 6:00 PM ;Saturday : Closed ;Sunday : Closed
