"locator_domain","page_url","location_name","street_address","city","state","zip","country_code","store_number","phone","location_type","latitude","longitude","hours_of_operation"
"https://gloriascuisine.com/","https://gloriascuisine.com/locations/index.html","Addison","5100 Belt Line Rd.","Addison","TX","75254","US","<MISSING>","972-387-8442","<MISSING>","32.951883","-96.821898","Sunday opens: 11:00 closes: 21:00|Monday opens: 11:00 closes: 22:00|Tuesday opens: 11:00 closes: 22:00|Wednesday opens: 11:00 closes: 22:00|Thursday opens: 11:00 closes: 22:00|Friday opens: 11:00 closes: 23:00|Saturday opens: 11:00 closes: 23:00| "
"https://gloriascuisine.com/","https://gloriascuisine.com/locations/index.html","Arlington","3901 Arlington Highlands Blvd. ","Arlington","TX","76018","US","<MISSING>","817-701-2981","<MISSING>","32.681299","-97.108836","Sunday opens: 11:00 closes: 21:00|Monday opens: 11:00 closes: 22:00|Tuesday opens: 11:00 closes: 22:00|Wednesday opens: 11:00 closes: 22:00|Thursday opens: 11:00 closes: 22:00|Friday opens: 11:00 closes: 23:00|Saturday opens: 11:00 closes: 23:00| "
"https://gloriascuisine.com/","https://gloriascuisine.com/locations/index.html","Austin (The Domain)","3309 Esperanza Crossing","Austin","TX","78758","US","<MISSING>","512-833-6400","<MISSING>","30.400159","-97.726028","Sunday opens: 11:00 closes: 22:00|Monday opens: 11:00 closes: 22:00|Tuesday opens: 11:00 closes: 22:00|Wednesday opens: 11:00 closes: 22:00|Thursday opens: 11:00 closes: 22:00|Friday opens: 11:00 closes: 23:00|Saturday opens: 11:00 closes: 23:00| "
"https://gloriascuisine.com/","https://gloriascuisine.com/locations/index.html","Austin (Downtown)","300 W 6th Street ","Austin","TX","78701","US","<MISSING>","512-236-1795","<MISSING>","30.269098","-97.745702","Sunday opens: 11:00 closes: 21:00|Monday opens: 11:00 closes: 22:00|Tuesday opens: 11:00 closes: 22:00|Wednesday opens: 11:00 closes: 22:00|Thursday opens: 11:00 closes: 22:00|Friday opens: 11:00 closes: 23:00|Saturday opens: 11:00 closes: 23:00| "
"https://gloriascuisine.com/","https://gloriascuisine.com/locations/index.html","Colleyville","5611 Colleyville Blvd.","Colleyville","TX","76034","US","<MISSING>","817-656-1784","<MISSING>","32.890493","-97.146349","Sunday opens: 11:00 closes: 21:00|Monday opens: 11:00 closes: 21:00|Tuesday opens: 11:00 closes: 22:00|Wednesday opens: 11:00 closes: 22:00|Thursday opens: 11:00 closes: 22:00|Friday opens: 11:00 closes: 22:30|Saturday opens: 11:00 closes: 22:30| "
"https://gloriascuisine.com/","https://gloriascuisine.com/locations/index.html","Dallas (Greenville Ave.)","3715 Greenville Ave.","Dallas","TX","75206","US","<MISSING>","214-874-0088","<MISSING>","32.832357","-96.770282","Sunday opens: 11:00 closes: 21:00|Monday opens: 11:00 closes: 21:30|Tuesday opens: 11:00 closes: 21:30|Wednesday opens: 11:00 closes: 21:30|Thursday opens: 11:00 closes: 21:30|Friday opens: 11:00 closes: 22:30|Saturday opens: 11:00 closes: 22:30| "
"https://gloriascuisine.com/","https://gloriascuisine.com/locations/index.html","Dallas (Lemmon Ave.)","4140 Lemmon Ave.","Dallas","TX","75219","US","<MISSING>","214-521-7576","<MISSING>","32.815583","-96.809485","Sunday opens: 10:30 closes: 21:00|Monday opens: 11:00 closes: 22:00|Tuesday opens: 11:00 closes: 22:00|Wednesday opens: 11:00 closes: 22:00|Thursday opens: 11:00 closes: 22:00|Friday opens: 11:00 closes: 23:00|Saturday opens: 10:30 closes: 23:00| "
"https://gloriascuisine.com/","https://gloriascuisine.com/locations/index.html","Dallas (Uptown)","3223 Lemmon Ave.","Dallas","TX","75204","US","<MISSING>","214-303-1166","<MISSING>","32.807154","-96.800041","Sunday opens: 10:30 closes: 21:00|Monday opens: 11:00 closes: 22:00|Tuesday opens: 11:00 closes: 22:00|Wednesday opens: 11:00 closes: 22:00|Thursday opens: 11:00 closes: 22:00|Friday opens: 11:00 closes: 23:00|Saturday opens: 11:00 closes: 23:00| "
"https://gloriascuisine.com/","https://gloriascuisine.com/locations/index.html","Fairview","152 Fountain Court","Fairview","TX","75069","US","<MISSING>","972-549-4031","<MISSING>","33.133014","-96.650757","Sunday opens: 11:00 closes: 21:00|Monday opens: 11:00 closes: 21:00|Tuesday opens: 11:00 closes: 22:00|Wednesday opens: 11:00 closes: 22:00|Thursday opens: 11:00 closes: 22:00|Friday opens: 11:00 closes: 22:30|Saturday opens: 11:00 closes: 22:30| "
"https://gloriascuisine.com/","https://gloriascuisine.com/locations/index.html","Flower Mound","3721 Justin Rd.","Flower Mound","TX","75028","US","<MISSING>","972-539-7300","<MISSING>","33.071162","-97.087479","Sunday opens: 11:00 closes: 21:00|Monday opens: 11:00 closes: 21:00|Tuesday opens: 11:00 closes: 21:00|Wednesday opens: 11:00 closes: 21:00|Thursday opens: 11:00 closes: 22:00|Friday opens: 11:00 closes: 22:30|Saturday opens: 11:00 closes: 22:30| "
"https://gloriascuisine.com/","https://gloriascuisine.com/locations/index.html","Friendswood (Baybrook Mall)","700 Baybrook Mall","Friendswood","TX","77546","US","<MISSING>","281-667-9869","<MISSING>","29.545212","-95.149536","Sunday opens: 11:00 closes: 21:00|Monday opens: 11:00 closes: 21:00|Tuesday opens: 11:00 closes: 21:00|Wednesday opens: 11:00 closes: 22:00|Thursday opens: 11:00 closes: 22:00|Friday opens: 11:00 closes: 22:30|Saturday opens: 11:00 closes: 22:30| "
"https://gloriascuisine.com/","https://gloriascuisine.com/locations/index.html","Frisco","8600 Gaylord Pkwy","Frisco","TX","75034","US","<MISSING>","972-668-1555","<MISSING>","33.104938","-96.809708","Sunday opens: 11:00 closes: 21:00|Monday opens: 11:00 closes: 22:00|Tuesday opens: 11:00 closes: 22:00|Wednesday opens: 11:00 closes: 22:00|Thursday opens: 11:00 closes: 22:00|Friday opens: 11:00 closes: 23:00|Saturday opens: 11:00 closes: 23:00| "
"https://gloriascuisine.com/","https://gloriascuisine.com/locations/index.html","Garland (Firewheel Mall)","360 Coneflower Drive","Garland","TX","75040","US","<MISSING>","972-526-5290","<MISSING>","32.951883","-96.612589","Sunday opens: 11:00 closes: 21:00|Monday opens: 11:00 closes: 21:00|Tuesday opens: 11:00 closes: 22:00|Wednesday opens: 11:00 closes: 22:00|Thursday opens: 11:00 closes: 22:00|Friday opens: 11:00 closes: 22:30|Saturday opens: 11:00 closes: 22:30| "
"https://gloriascuisine.com/","https://gloriascuisine.com/locations/index.html","Houston (Midtown)","2616 Louisiana St.","Houston","TX","77006","US","<MISSING>","832-360-1710","<MISSING>","29.746746","-95.377117","Sunday opens: 11:00 closes: 21:00|Monday opens: 11:00 closes: 22:00|Tuesday opens: 11:00 closes: 22:00|Wednesday opens: 11:00 closes: 22:00|Thursday opens: 11:00 closes: 22:00|Friday opens: 11:00 closes: 23:00|Saturday opens: 11:00 closes: 23:00| "
"https://gloriascuisine.com/","https://gloriascuisine.com/locations/index.html","Oak Cliff (Bishop Arts)","600 N. Bishop Ave.","Dallas","TX","75208","US","<MISSING>","214-948-3672","<MISSING>","32.749635","-96.827477","Sunday opens: 11:00 closes: 21:00|Monday opens: 11:00 closes: 22:00|Tuesday opens: 11:00 closes: 22:00|Wednesday opens: 11:00 closes: 22:00|Thursday opens: 11:00 closes: 22:30|Friday opens: 11:00 closes: 23:00|Saturday opens: 11:00 closes: 23:00| "
"https://gloriascuisine.com/","https://gloriascuisine.com/locations/index.html","Rockwall","2079 Summer Lee Drive","Rockwall","TX","75032","US","<MISSING>","972-772-4088","<MISSING>","32.890129","-96.48137","Sunday opens: 10:30 closes: 21:00|Monday opens: 11:00 closes: 22:00|Tuesday opens: 11:00 closes: 22:00|Wednesday opens: 11:00 closes: 22:00|Thursday opens: 11:00 closes: 22:00|Friday opens: 11:00 closes: 23:00|Saturday opens: 11:00 closes: 23:00| "
"https://gloriascuisine.com/","https://gloriascuisine.com/locations/index.html","San Antonio","17623 La Cantera Parkway","San Antonio","TX","78257","US","<MISSING>","210-451-5412","<MISSING>","29.609482","-98.598598","Sunday opens: 11:00 closes: 21:00|Monday opens: 11:00 closes: 21:00|Tuesday opens: 11:00 closes: 22:00|Wednesday opens: 11:00 closes: 22:00|Thursday opens: 11:00 closes: 22:00|Friday opens: 11:00 closes: 23:00|Saturday opens: 11:00 closes: 23:00| "
"https://gloriascuisine.com/","https://gloriascuisine.com/locations/index.html","Fort Worth","2600 W. Seventh St. ","Fort Worth","TX","76107","US","<MISSING>","817-332-8800","<MISSING>","32.752025","-97.353472","Sunday opens: 11:00 closes: 21:00|Monday opens: 11:00 closes: 21:00|Tuesday opens: 11:00 closes: 22:00|Wednesday opens: 11:00 closes: 22:00|Thursday opens: 11:00 closes: 22:00|Friday opens: 11:00 closes: 22:30|Saturday opens: 11:00 closes: 22:30| "
"https://gloriascuisine.com/","https://gloriascuisine.com/locations/index.html","Southlake","1121 E. Southlake Blvd","Southlake","TX","76092","US","<MISSING>","817-305-0000","<MISSING>","32.940689","-97.134256","Sunday opens: 11:00 closes: 21:00|Monday opens: 11:00 closes: 21:00|Tuesday opens: 11:00 closes: 22:00|Wednesday opens: 11:00 closes: 22:00|Thursday opens: 11:00 closes: 22:00|Friday opens: 11:00 closes: 22:30|Saturday opens: 11:00 closes: 22:30| "
"https://gloriascuisine.com/","https://gloriascuisine.com/locations/index.html","Las Colinas (Music Factory)","320 West Las Colinas Blvd","Irving","TX","75039","US","<MISSING>","469-242-2641","<MISSING>","32.872231","-96.943357","Sunday opens: 11:00 closes: 21:00|Monday opens: 11:00 closes: 21:00|Tuesday opens: 11:00 closes: 22:00|Wednesday opens: 11:00 closes: 22:00|Thursday opens: 11:00 closes: 22:00|Friday opens: 11:00 closes: 23:00|Saturday opens: 11:00 closes: 23:00| "
