"locator_domain","location_name","street_address","city","state","zip","country_code","store_number","phone","location_type","latitude","longitude","hours_of_operation"
"http://ilovechillers.com/","JEFFERSONVILLE","2314 Allison Lane","Jeffersonville","IN","47130","US","<MISSING>","1 (812) 285-1676","<MISSING>","38.3185037","-85.708534","Sunday:
11:30 a.m. -10:00 p.m.
Monday-Thursday:
10:30 a.m. - 10:00 p.m. 
Friday & Saturday:
10:30 a.m. - 10:00 p.m."
"http://ilovechillers.com/","SCOTTSBURG","1515 McClain Ave","Scottsburg","IN","47170","US","<MISSING>","1 (812) 752-5111","<MISSING>","38.6846151","-85.7918049","Sunday-Thursday:
10:30 a.m. - 9:30 p.m.
Friday & Saturday:
10:30 a.m. - 10:00 p.m."
"http://ilovechillers.com/","SELLERSBURG","7601 Highway 311","Sellersburg","IN","47172","US","<MISSING>","1 (812) 248-4071","<MISSING>","38.3810816","-85.76888","Sunday-Thursday:
10:30 a.m. - 9:30 p.m.
Friday & Saturday:
10:30 a.m. - 10:00 p.m."
"http://ilovechillers.com/","NEW ALBANY","2740 Charlestown Road","New Albany","IN","47150","US","<MISSING>","1 (812) 944-6845","<MISSING>","38.3235279","-85.8011147","Sunday-Thursday:
10:30 a.m. - 9:30 p.m.
Friday & Saturday:
10:30 a.m. - 10:00 p.m."
"http://ilovechillers.com/","CLARKSVILLE","301 E. Lewis & Clark Pkwy","Clarksville","IN","47129","US","<MISSING>","1 (812) 280-8255","<MISSING>","38.309673","-85.7696734","Sunday-Thursday:
10:30 a.m. - 9:30 p.m.
Friday & Saturday:
10:30 a.m. - 10:00 p.m."
