"locator_domain","location_name","street_address","city","state","zip","country_code","store_number","phone","location_type","latitude","longitude","hours_of_operation"
"https://www.alliancebanks.com/","St. Paul","55 E. Fifth St., Suite 115","St. Paul","MN","55101","US","<MISSING>","(651) 229-0070
","<MISSING>","<MISSING>","<MISSING>","Lobby:
8:30 - 4:30 Monday thru Friday
Drive Up:
8:00 - 4:30 Monday thru Friday"
"https://www.alliancebanks.com/","Courtland","329 Main Street P.O. Box 88","Courtland","MN","56021","US","<MISSING>","(507) 359-2865
","<MISSING>","<MISSING>","<MISSING>","Lobby and Drive Up
8:00 - 3:30 Monday thru Thursday
8:00 - 5:00 Friday"
"https://www.alliancebanks.com/","Hanska","112 Broadway P.O. Box 5","Hanska","MN","56041","US","<MISSING>","(507) 439-6227
","<MISSING>","<MISSING>","<MISSING>","Lobby:
8:30 - 3:00 Monday thru Thursday
8:30 - 4:30 Friday
Drive Up:
7:30 - 4:30 Monday thru Friday"
"https://www.alliancebanks.com/","Lake City","105 E. Lyon Ave.","Lake City","MN","55041","US","<MISSING>","(651) 345-3311
","<MISSING>","<MISSING>","<MISSING>","Lobby:
8:30 - 4:30 Monday thru Friday
Drive Up:
8:30 - 5:30 Monday thru Friday
8:30 - 12:00 Saturday"
"https://www.alliancebanks.com/","Madelia","20 West Main Street","Madelia","MN","56062","US","<MISSING>","(507) 642-3236
","<MISSING>","<MISSING>","<MISSING>","Lobby:
8:30 – 4:00 Monday thru Thursday
8:30 – 5:00 Friday
Walk Up and Drive Up:
8:30 – 5:00 Monday thru Friday"
"https://www.alliancebanks.com/","New Ulm","322 North Minnesota St.","New Ulm","MN","56073","US","<MISSING>","(507) 233-8200
","<MISSING>","<MISSING>","<MISSING>","Lobby:
8:30 - 5:00 Monday
8:30 - 4:00 Tuesday thru Friday
Walk Up and Drive Up:
7:30 - 5:30 Monday thru Friday
7:30 - 12:00 Saturday"
"https://www.alliancebanks.com/","Red Wing","840 Technology Drive","Red Wing","MN","55066","US","<MISSING>","(651) 388-6001
","<MISSING>","<MISSING>","<MISSING>","Lobby:
8:30 – 4:30 Monday thru Friday
Drive Up:
8:00 – 5:00 Monday thru Friday"
