locator_domain,location_name,street_address,city,state,zip,country_code,store_number,phone,location_type,latitude,longitude,hours_of_operation,raw_address
https://thaiexpress.ca/wp-content/plugins/superstorefinder-wp/ssf-wp-xml.php?wpml_lang=en&t=1564582064002,100e Avenue - Autoroute 440 Laval,<INACCESSIBLE>,<INACCESSIBLE>,<INACCESSIBLE>,<INACCESSIBLE>,US,<MISSING>,4506872555,<MISSING>,45.5585494,-73.7926457,"Sunday: 11:00, 21:00, Monday: 11:00, 21:00, Tuesday: 11:00, 21:00, Wednesday: 11:00, 21:00, Thursday: 11:00, 22:00, Friday: 11:00, 22:00, Saturday: 11:00, 21:00","4620 autoroute 440 Laval ouest  Laval,  QC H7T 2Z8"
https://thaiexpress.ca/wp-content/plugins/superstorefinder-wp/ssf-wp-xml.php?wpml_lang=en&t=1564582064002,13350 Dallas Parkway Suite #3650,<INACCESSIBLE>,<INACCESSIBLE>,<INACCESSIBLE>,<INACCESSIBLE>,US,<MISSING>,2142383838,<MISSING>,32.9285449,-96.8193573,"Monday: 10am, 9pm, Tuesday: 10am, 9pm, Wednesday: 10am, 9pm, Thursday: 10am, 9pm, Friday: 10am, 9pm, Saturday: 10am, 9pm, Sunday: 12pm, 6pm","13350 Dallas Parkway Suite #3650  Dallas,  Texas 75240"
https://thaiexpress.ca/wp-content/plugins/superstorefinder-wp/ssf-wp-xml.php?wpml_lang=en&t=1564582064002,150 King Street West,<INACCESSIBLE>,<INACCESSIBLE>,<INACCESSIBLE>,<INACCESSIBLE>,US,<MISSING>,4165931543,<MISSING>,43.6481,-79.3844515,"Sunday: Closed, Monday: 10:00, 18:30, Tuesday: 10:00, 19:00, Wednesday: 10:00, 19:00, Thursday: 10:00, 19:00, Friday: 10:30, 18:30, Saturday: Closed","150 King Street West  Toronto,  ON M5H 1J9"
https://thaiexpress.ca/wp-content/plugins/superstorefinder-wp/ssf-wp-xml.php?wpml_lang=en&t=1564582064002,181 boul. Sir Wilfrid Laurier&#44; St Basile Le Grand&#44; Qc J0L 2B0,<INACCESSIBLE>,<INACCESSIBLE>,<INACCESSIBLE>,<INACCESSIBLE>,US,<MISSING>,4504615151,<MISSING>,45.5289313,-73.2889504,"Monday to Sunday: 11:00am, 09:00pm","181 boul. Sir Wilfrid Laurier  St Basile Le Grand,  Quebec J0L 2B0"
https://thaiexpress.ca/wp-content/plugins/superstorefinder-wp/ssf-wp-xml.php?wpml_lang=en&t=1564582064002,1881 Yonge Street,<INACCESSIBLE>,<INACCESSIBLE>,<INACCESSIBLE>,<INACCESSIBLE>,US,<MISSING>,4164833993,<MISSING>,43.6976717,-79.3960999,"Sunday: 11:00, 21:00, Monday: 11:00, 21:00, Tuesday: 11:00, 21:00, Wednesday: 11:00, 21:00, Thursday: 11:00, 21:00, Friday: 11:00, 21:00, Saturday: 11:00, 21:00","1881 Yonge Street  Toronto,  ON M4S 3C4"
https://thaiexpress.ca/wp-content/plugins/superstorefinder-wp/ssf-wp-xml.php?wpml_lang=en&t=1564582064002,2020 University&#44; AXA Center,<INACCESSIBLE>,<INACCESSIBLE>,<INACCESSIBLE>,<INACCESSIBLE>,US,<MISSING>,5158448228,<MISSING>,45.5039643,-73.5722865,"Sunday: Monday: 10:30, 19:00, Tuesday: 10:30, 19:00, Wednesday: 10:30, 19:00, Thursday: 10:30, 21:00, Friday: 10:30, 21:00, Saturday: 11:30, 17:00","AXA Center&#44; 2020 Robert-Bourassa  Montreal,  QC H3A 2A5"
https://thaiexpress.ca/wp-content/plugins/superstorefinder-wp/ssf-wp-xml.php?wpml_lang=en&t=1564582064002,255 King Street (Waterloo),<INACCESSIBLE>,<INACCESSIBLE>,<INACCESSIBLE>,<INACCESSIBLE>,US,<MISSING>,5197473888,<MISSING>,43.4773461,-80.5256995,"Sunday: 12:00, 22:00, Monday: 11:00, 22:00, Tuesday: 11:00, 22:00, Wednesday: 11:00, 22:00, Thursday: 11:00, 22:00, Friday: 11:00, 22:00, Saturday: 12:00, 22:00","255 King Street North  Waterloo,  ON N2J 4V2"
https://thaiexpress.ca/wp-content/plugins/superstorefinder-wp/ssf-wp-xml.php?wpml_lang=en&t=1564582064002,2745 King Ouest Sherbrooke,<INACCESSIBLE>,<INACCESSIBLE>,<INACCESSIBLE>,<INACCESSIBLE>,US,<MISSING>,8197911755,<MISSING>,45.3981593,-71.9406787,"Monday to Sunday: 11:00, 22:00","2745 rue King Ouest  Sherbrooke,  QC J1L 1C1"
https://thaiexpress.ca/wp-content/plugins/superstorefinder-wp/ssf-wp-xml.php?wpml_lang=en&t=1564582064002,3077 Mavis Road,<INACCESSIBLE>,<INACCESSIBLE>,<INACCESSIBLE>,<INACCESSIBLE>,US,<MISSING>,9056158424,<MISSING>,43.5678607,-79.6346734,"Sunday: 11:00, 20:00, Monday: 11:00, 21:00, Tuesday: 11:00, 21:00, Wednesday: 11:00, 21:00, Thursday: 11:00, 21:00, Friday: 11:00, 21:00, Saturday: 11:00, 21:00","3077 Mavis Road  Mississauga,  ON L5B 4M3"
https://thaiexpress.ca/wp-content/plugins/superstorefinder-wp/ssf-wp-xml.php?wpml_lang=en&t=1564582064002,320 Front Street West,<INACCESSIBLE>,<INACCESSIBLE>,<INACCESSIBLE>,<INACCESSIBLE>,US,<MISSING>,4165818853,<MISSING>,43.6436619,-79.3909279,"Sunday: Closed, Monday: 11:00, 18:00, Tuesday: 11:00, 18:00, Wednesday: 11:00, 18:00, Thursday: 11:00, 18:00, Friday: 11:00, 18:00, Saturday: Closed","320 Front Street West  Toronto,  ON M5V 3B6"
https://thaiexpress.ca/wp-content/plugins/superstorefinder-wp/ssf-wp-xml.php?wpml_lang=en&t=1564582064002,372 Yonge Street,<INACCESSIBLE>,<INACCESSIBLE>,<INACCESSIBLE>,<INACCESSIBLE>,US,<MISSING>,4169776464,<MISSING>,43.6587187,-79.3823022,"Sunday: 11:00, 23:00, Monday: 11:00, 23:00, Tuesday: 11:00, 23:00, Wednesday: 11:00, 23:00, Thursday: 11:00, 23:00, Friday: 11:00, 24:00, Saturday: 11:00, 24:00","372 Yonge Street  Toronto,  ON M5B 1S6"
https://thaiexpress.ca/wp-content/plugins/superstorefinder-wp/ssf-wp-xml.php?wpml_lang=en&t=1564582064002,394 Princess Street Kingston,<INACCESSIBLE>,<INACCESSIBLE>,<INACCESSIBLE>,<INACCESSIBLE>,US,<MISSING>,6135314546,<MISSING>,44.2328316,-76.4922219,"Sunday: 11:00, 22:00, Monday: 11:00, 22:00, Tuesday: 11:00, 22:00, Wednesday: 11:00, 22:00, Thursday: 11:00, 22:00, Friday: 11:00, 22:00, Saturday: 11:00, 22:00","394 Pincess Street  Unit 4  Kingston,  ON K7L 5N3"
https://thaiexpress.ca/wp-content/plugins/superstorefinder-wp/ssf-wp-xml.php?wpml_lang=en&t=1564582064002,410 Steeles,<INACCESSIBLE>,<INACCESSIBLE>,<INACCESSIBLE>,<INACCESSIBLE>,US,<MISSING>,9054549306,<MISSING>,43.6784774,-79.7208288,"Sunday: 11:00, 20:00, Monday: 11:00, 21:00, Tuesday: 11:00, 21:00, Wednesday: 11:00, 21:00, Thursday: 11:00, 21:00, Friday: 11:00, 21:00, Saturday: 11:00, 21:00","80 Resolution Drive  Brampton,  ON L6W 0A5"
https://thaiexpress.ca/wp-content/plugins/superstorefinder-wp/ssf-wp-xml.php?wpml_lang=en&t=1564582064002,475 University,<INACCESSIBLE>,<INACCESSIBLE>,<INACCESSIBLE>,<INACCESSIBLE>,US,<MISSING>,9026286223,<MISSING>,46.2521679,-63.1394674,"Sunday: 11:00, 22:00, Monday: 11:00, 22:00, Tuesday: 11:00, 22:00, Wednesday: 11:00, 22:00, Thursday: 11:00, 22:00, Friday: 11:00, 22:00, Saturday: 11:00, 22:00","475 University Avenue  Charlottetown,  PEI C1A 7Z4"
https://thaiexpress.ca/wp-content/plugins/superstorefinder-wp/ssf-wp-xml.php?wpml_lang=en&t=1564582064002,5259 Sherbrooke Ouest,<INACCESSIBLE>,<INACCESSIBLE>,<INACCESSIBLE>,<INACCESSIBLE>,US,<MISSING>,5143693746,<MISSING>,45.4746737,-73.6086592,"Sunday: 12:00, 21:00, Monday: 11:00, 22:00, Tuesday: 11:00, 22:00, Wednesday: 11:00, 23:00, Thursday: 11:00, 23:00, Friday: 11:00, 23:00, Saturday: 12:00, 23:00","5259 rue Sherbrooke Ouest  Montreal,  QC H4A 1V1"
https://thaiexpress.ca/wp-content/plugins/superstorefinder-wp/ssf-wp-xml.php?wpml_lang=en&t=1564582064002,7 King Street East,<INACCESSIBLE>,<INACCESSIBLE>,<INACCESSIBLE>,<INACCESSIBLE>,US,<MISSING>,4162039222,<MISSING>,43.6491825,-79.3769254,"Sunday: Monday: 10:00, 21:00, Tuesday: 10:00, 21:00, Wednesday: 10:00, 21:00, Thursday: 10:00, 21:00, Friday: 10:00, 21:00, Saturday: 11:00, 20:00","7 King Street East  Toronto,  ON M5C 3C6"
https://thaiexpress.ca/wp-content/plugins/superstorefinder-wp/ssf-wp-xml.php?wpml_lang=en&t=1564582064002,Alma,<INACCESSIBLE>,<INACCESSIBLE>,<INACCESSIBLE>,<INACCESSIBLE>,US,<MISSING>,4187690188,<MISSING>,48.533988,-71.6465743,"Sunday: 11:00, 20:00, Monday: 11:00, 20:00, Tuesday: 11:00, 20:00, Wednesday: 11:00, 20:00, Thursday: 11:00, 21:00, Friday: 11:00, 21:00, Saturday: 11:00, 20:00","1055 avenue du Pont-Sud  Alma,  QC G8B 2V6"
https://thaiexpress.ca/wp-content/plugins/superstorefinder-wp/ssf-wp-xml.php?wpml_lang=en&t=1564582064002,Ange-Gardien,<INACCESSIBLE>,<INACCESSIBLE>,<INACCESSIBLE>,<INACCESSIBLE>,US,<MISSING>,4502933737,<MISSING>,45.365545,-72.9332581,"Sunday: 10:00, 22:00, Monday: 10:00, 22:00, Tuesday: 10:00, 22:00, Wednesday: 10:00, 22:00, Thursday: 10:00, 22:00, Friday: 10:00, 22:00, Saturday: 10:00, 22:00","99 Route 235  Ange-Gardien,  QC J0E 1E0"
https://thaiexpress.ca/wp-content/plugins/superstorefinder-wp/ssf-wp-xml.php?wpml_lang=en&t=1564582064002,Appleby,<INACCESSIBLE>,<INACCESSIBLE>,<INACCESSIBLE>,<INACCESSIBLE>,US,<MISSING>,9053339998,<MISSING>,43.3730957,-79.7607261,"Sunday: 11:30, 20:00, Monday: 10:30, 21:00, Tuesday: 10:30, 21:00, Wednesday: 10:30, 21:00, Thursday: 10:30, 21:00, Friday: 10:30, 21:00, Saturday: 11:00, 21:00","671 Appleby Line  Burlington,  ON L7L 2Y5"
https://thaiexpress.ca/wp-content/plugins/superstorefinder-wp/ssf-wp-xml.php?wpml_lang=en&t=1564582064002,Arthur Sauve,<INACCESSIBLE>,<INACCESSIBLE>,<INACCESSIBLE>,<INACCESSIBLE>,US,<MISSING>,4506232828,<MISSING>,45.5736115,-73.9128332,"Sunday: 11:00, 21:00, Monday: 11:00, 21:00, Tuesday: 11:00, 21:00, Wednesday: 11:00, 21:00, Thursday: 11:00, 21:00, Friday: 11:00, 21:00, Saturday: 11:00, 21:00","535 boulevard Arthur-Sauve  Saint-Eustache,  QC J7P 4X4"
https://thaiexpress.ca/wp-content/plugins/superstorefinder-wp/ssf-wp-xml.php?wpml_lang=en&t=1564582064002,Avalon Mall,<INACCESSIBLE>,<INACCESSIBLE>,<INACCESSIBLE>,<INACCESSIBLE>,US,<MISSING>,7095766388,<MISSING>,47.56109,-52.7543554,"Sunday: 10:30, 18:00, Monday: 10:30, 21:00, Tuesday: 10:30, 21:00, Wednesday: 10:30, 21:00, Thursday: 10:30, 21:00, Friday: 10:30, 21:00, Saturday: 10:30, 21:00","48 Kenmount Rd&#44;  St. John&amp;#39;s,  NL A1B 1W3"
https://thaiexpress.ca/wp-content/plugins/superstorefinder-wp/ssf-wp-xml.php?wpml_lang=en&t=1564582064002,Barrhaven  Town Centre,<INACCESSIBLE>,<INACCESSIBLE>,<INACCESSIBLE>,<INACCESSIBLE>,US,<MISSING>,6138258500,<MISSING>,45.2681524,-75.7466046,"Sunday: 11:00, 21:30, Monday: 11:00, 21:30, Tuesday: 11:00, 21:30, Wednesday: 11:00, 21:30, Thursday: 11:00, 21:30, Friday: 11:00, 21:30, Saturday: 11:00, 21:30","3777 Strandherd Drive  Ottawa,  ON K2J 4B1"
https://thaiexpress.ca/wp-content/plugins/superstorefinder-wp/ssf-wp-xml.php?wpml_lang=en&t=1564582064002,Baseline and Clyde,<INACCESSIBLE>,<INACCESSIBLE>,<INACCESSIBLE>,<INACCESSIBLE>,US,<MISSING>,6132248288,<MISSING>,45.3630056,-75.7400934,"Monday to Sunday: 11:00, 21:00","1331 Clyde Avenue  Ottawa,  ON K2C 3G4"
https://thaiexpress.ca/wp-content/plugins/superstorefinder-wp/ssf-wp-xml.php?wpml_lang=en&t=1564582064002,Bayshore Shopping Centre,<INACCESSIBLE>,<INACCESSIBLE>,<INACCESSIBLE>,<INACCESSIBLE>,US,<MISSING>,6135054643,<MISSING>,45.3474121,-75.8070362,"Sunday: 11:00, 18:00, Monday: 11:00, 21:00, Tuesday: 11:00, 21:00, Wednesday: 11:00, 21:00, Thursday: 11:00, 21:00, Friday: 11:00, 21:00, Saturday: 11:00, 21:00","100 Bayshore Drive #T42  Ottawa,  ON K2B 8C1"
https://thaiexpress.ca/wp-content/plugins/superstorefinder-wp/ssf-wp-xml.php?wpml_lang=en&t=1564582064002,Bayview Village,<INACCESSIBLE>,<INACCESSIBLE>,<INACCESSIBLE>,<INACCESSIBLE>,US,<MISSING>,4165908828,<MISSING>,43.7690883,-79.3854655,"Sunday: 11:00, 18:00, Monday: 11:00, 21:00, Tuesday: 11:00, 21:00, Wednesday: 11:00, 21:00, Thursday: 11:00, 21:00, Friday: 11:00, 21:00, Saturday: 11:00, 20:00","2901 Bayview Avenue #103A  North York,  ON M2K 1E6"
https://thaiexpress.ca/wp-content/plugins/superstorefinder-wp/ssf-wp-xml.php?wpml_lang=en&t=1564582064002,Beloeil,<INACCESSIBLE>,<INACCESSIBLE>,<INACCESSIBLE>,<INACCESSIBLE>,US,<MISSING>,4504649745,<MISSING>,45.5517191,-73.2158155,"Sunday: 11:00, 21:00, Monday: 11:00, 21:00, Tuesday: 11:00, 21:00, Wednesday: 11:00, 21:00, Thursday: 11:00, 21:00, Friday: 11:00, 21:00, Saturday: 11:00, 21:00","146 Boul. Sir-Wilfrid Laurier  Beloeil,  QC J3G 4G7"
https://thaiexpress.ca/wp-content/plugins/superstorefinder-wp/ssf-wp-xml.php?wpml_lang=en&t=1564582064002,Billings Bridge Shopping Centre,<INACCESSIBLE>,<INACCESSIBLE>,<INACCESSIBLE>,<INACCESSIBLE>,US,<MISSING>,6132470583,<MISSING>,45.3855413,-75.6774625,"Sunday: 11:00, 17:00, Monday: 11:00, 21:00, Tuesday: 11:00, 21:00, Wednesday: 11:00, 21:00, Thursday: 11:00, 21:00, Friday: 11:00, 21:00, Saturday: 11:00, 18:00","2277 Riverside Drive East  Ottawa,  ON K1H 7X6"
https://thaiexpress.ca/wp-content/plugins/superstorefinder-wp/ssf-wp-xml.php?wpml_lang=en&t=1564582064002,Blue Bonnet Jean-Talon,<INACCESSIBLE>,<INACCESSIBLE>,<INACCESSIBLE>,<INACCESSIBLE>,US,<MISSING>,5147336060,<MISSING>,45.492213,-73.655338,"Sunday: 11:00, 21:00, Monday: 11:00, 21:00, Tuesday: 11:00, 21:00, Wednesday: 11:00, 21:00, Thursday: 11:00, 21:00, Friday: 11:00, 21:00, Saturday: 11:00, 21:00","5510 rue Jean-Talon Ouest  Montreal,  QC H4P 2T5"
https://thaiexpress.ca/wp-content/plugins/superstorefinder-wp/ssf-wp-xml.php?wpml_lang=en&t=1564582064002,Boucherville,<INACCESSIBLE>,<INACCESSIBLE>,<INACCESSIBLE>,<INACCESSIBLE>,US,<MISSING>,4504498088,<MISSING>,45.5701002,-73.4485363,"Sunday: 11:00, 21:00, Monday: 11:00, 21:00, Tuesday: 11:00, 21:00, Wednesday: 11:00, 21:00, Thursday: 11:00, 21:30, Friday: 11:00, 21:30, Saturday: 11:00, 21:00","1150-B rue Volta  Boucherville,  QC J4B 7A2"
https://thaiexpress.ca/wp-content/plugins/superstorefinder-wp/ssf-wp-xml.php?wpml_lang=en&t=1564582064002,Boul. Des Forges,<INACCESSIBLE>,<INACCESSIBLE>,<INACCESSIBLE>,<INACCESSIBLE>,US,<MISSING>,8193740123,<MISSING>,46.3538242,-72.5814362,"Sunday: 11:00, 21:00, Monday: 11:00, 21:00, Tuesday: 11:00, 21:00, Wednesday: 11:00, 21:00, Thursday: 11:00, 22:00, Friday: 11:00, 22:00, Saturday: 11:00, 21:00","3700 boulevard des Forges  Trois-Rivieres,  QC G8Y 4R2"
https://thaiexpress.ca/wp-content/plugins/superstorefinder-wp/ssf-wp-xml.php?wpml_lang=en&t=1564582064002,Boul. Pie IX,<INACCESSIBLE>,<INACCESSIBLE>,<INACCESSIBLE>,<INACCESSIBLE>,US,<MISSING>,5144192771,<MISSING>,45.5892718,-73.6363655,"Sunday: 10:30, 21:00, Monday: 10:30, 21:00, Tuesday: 10:30, 21:00, Wednesday: 10:30, 21:00, Thursday: 10:30, 22:00, Friday: 10:30, 22:00, Saturday: 10:30, 22:00","10734 Boul. Pie-IX  Montreal,  QC H1H 4A7"
https://thaiexpress.ca/wp-content/plugins/superstorefinder-wp/ssf-wp-xml.php?wpml_lang=en&t=1564582064002,Boul. St-Joseph,<INACCESSIBLE>,<INACCESSIBLE>,<INACCESSIBLE>,<INACCESSIBLE>,US,<MISSING>,8192051866,<MISSING>,45.4450511,-75.7321498,"Sunday: 11:00, 21:00, Monday: 11:00, 21:00, Tuesday: 11:00, 21:00, Wednesday: 11:00, 21:00, Thursday: 11:00, 21:00, Friday: 11:00, 21:00, Saturday: 11:00, 21:00","450A boulevard Saint-Joseph  Gatineau,  QC J8Y 3Y7"
https://thaiexpress.ca/wp-content/plugins/superstorefinder-wp/ssf-wp-xml.php?wpml_lang=en&t=1564582064002,Boulevard des Sources,<INACCESSIBLE>,<INACCESSIBLE>,<INACCESSIBLE>,<INACCESSIBLE>,US,<MISSING>,5145421060,<MISSING>,45.4842569,-73.7955834,"Sunday: 11:00, 21:00, Monday: 11:00, 21:00, Tuesday: 11:00, 22:00, Wednesday: 11:00, 22:00, Thursday: 11:00, 22:00, Friday: 11:00, 22:00, Saturday: 11:00, 22:00","3339G boulevard des Sources  Dollard-des-Ormeaux,  QC H9B 1Z8"
https://thaiexpress.ca/wp-content/plugins/superstorefinder-wp/ssf-wp-xml.php?wpml_lang=en&t=1564582064002,Boulevard Moody,<INACCESSIBLE>,<INACCESSIBLE>,<INACCESSIBLE>,<INACCESSIBLE>,US,<MISSING>,4504718424,<MISSING>,45.7044328,-73.6507525,"Sunday: 11:00, 20:00, Monday: 11:00, 21:00, Tuesday: 11:00, 21:00, Wednesday: 11:00, 21:00, Thursday: 11:00, 21:00, Friday: 11:00, 21:00, Saturday: 11:00, 21:00","1352 boulevard Moody  Terrebonne,  QC J6W 3K9"
https://thaiexpress.ca/wp-content/plugins/superstorefinder-wp/ssf-wp-xml.php?wpml_lang=en&t=1564582064002,Boulevard Talbot Chicoutimi,<INACCESSIBLE>,<INACCESSIBLE>,<INACCESSIBLE>,<INACCESSIBLE>,US,<MISSING>,4189735388,<MISSING>,48.399523,-71.0620449,"Sunday: 11:00, 20:00, Monday: 11:00, 20:00, Tuesday: 11:00, 20:00, Wednesday: 11:00, 20:00, Thursday: 11:00, 21:00, Friday: 11:00, 21:00, Saturday: 11:00, 20:00","1611 boulevard Talbot - local 116  Chicoutimi,  QC G7H 4C3"
https://thaiexpress.ca/wp-content/plugins/superstorefinder-wp/ssf-wp-xml.php?wpml_lang=en&t=1564582064002,Bower Place,<INACCESSIBLE>,<INACCESSIBLE>,<INACCESSIBLE>,<INACCESSIBLE>,US,<MISSING>,5872723663,<MISSING>,52.2433592,-113.8102136,"Sunday: 10:30, 17:00, Monday: 9:30, 21:00, Tuesday: 9:30, 21:00, Wednesday: 9:30, 21:00, Thursday: 9:30, 21:00, Friday: 9:30, 21:00, Saturday: 9:30, 21:00","4900 Molly Banister Drive  Red Deer,  AB T4R 1N9"
https://thaiexpress.ca/wp-content/plugins/superstorefinder-wp/ssf-wp-xml.php?wpml_lang=en&t=1564582064002,BP Centre,<INACCESSIBLE>,<INACCESSIBLE>,<INACCESSIBLE>,<INACCESSIBLE>,US,<MISSING>,4032633350,<MISSING>,51.0499673,-114.0672171,"Sunday: Closed, Monday: 9:00, 4:30, Tuesday: 9:00, 4:30, Wednesday: 9:00, 4:30, Thursday: 9:00, 4:30, Friday: 9:00, 4:00, Saturday: Closed","240 4th Avenue S.W.  Calgary,  AB T2P 4H4"
https://thaiexpress.ca/wp-content/plugins/superstorefinder-wp/ssf-wp-xml.php?wpml_lang=en&t=1564582064002,Bramalea City Centre,<INACCESSIBLE>,<INACCESSIBLE>,<INACCESSIBLE>,<INACCESSIBLE>,US,<MISSING>,9057891888,<MISSING>,43.7155387,-79.7220217,"Sunday: 11:00, 19:00, Monday: 11:00, 21:00, Tuesday: 11:00, 21:00, Wednesday: 11:00, 21:00, Thursday: 11:00, 21:00, Friday: 11:00, 21:00, Saturday: 11:00, 21:00","25 Peel Centre Drive #475  Brampton,  ON L6T 3R5"
https://thaiexpress.ca/wp-content/plugins/superstorefinder-wp/ssf-wp-xml.php?wpml_lang=en&t=1564582064002,Brunswick Square Shopping Centre,<INACCESSIBLE>,<INACCESSIBLE>,<INACCESSIBLE>,<INACCESSIBLE>,US,<MISSING>,5066387899,<MISSING>,45.2733321,-66.0612638,"Sunday: Closed, Monday: 10:30, 18:30, Tuesday: 10:30, 18:30, Wednesday: 10:30, 18:30, Thursday: 10:30, 18:30, Friday: 10:30, 18:30, Saturday: 10:30, 18:00","39 King Street Unit A14  Saint John,  NB E2L 4W3"
https://thaiexpress.ca/wp-content/plugins/superstorefinder-wp/ssf-wp-xml.php?wpml_lang=en&t=1564582064002,Burlington Mall,<INACCESSIBLE>,<INACCESSIBLE>,<INACCESSIBLE>,<INACCESSIBLE>,US,<MISSING>,9056375777,<MISSING>,43.3485093,-79.7936002,"Sunday: 11:30, 17:00, Monday: 10:30, 21:00, Tuesday: 10:30, 21:00, Wednesday: 10:30, 21:00, Thursday: 10:30, 21:00, Friday: 10:30, 21:00, Saturday: 10:30, 18:00","777 Guelph Line  Burlington,  ON L7R 3N2"
https://thaiexpress.ca/wp-content/plugins/superstorefinder-wp/ssf-wp-xml.php?wpml_lang=en&t=1564582064002,Calgary Airport International DEP.D,<INACCESSIBLE>,<INACCESSIBLE>,<INACCESSIBLE>,<INACCESSIBLE>,US,<MISSING>,4036802999,<MISSING>,51.1303233,-114.0098872,"Sunday: 09:00, 21:00, Monday: 94:00, 21:00, Tuesday: 09:00, 21:00, Wednesday: 09:00, 21:00, Thursday: 09:00, 21:00, Friday: 09:00, 21:00, Saturday: 09:00, 21:00","2016D Airport Road NE #1402AS  Calgary,  AB T2E 3B9"
https://thaiexpress.ca/wp-content/plugins/superstorefinder-wp/ssf-wp-xml.php?wpml_lang=en&t=1564582064002,Calgary Airport Transboarder DEP.E,<INACCESSIBLE>,<INACCESSIBLE>,<INACCESSIBLE>,<INACCESSIBLE>,US,<MISSING>,4046802999,<MISSING>,51.1303233,-114.0098872,"Sunday: 08:00, 19:30, Monday: 08:00, 19:30, Tuesday: 08:00, 19:30, Wednesday: 08:00, 19:30, Thursday: 08:00, 19:30, Friday: 08:00, 19:30, Saturday: 08:00, 19:30","2016T Airport Road NE #1701AN  Calgary,  AB T2E 3B9"
https://thaiexpress.ca/wp-content/plugins/superstorefinder-wp/ssf-wp-xml.php?wpml_lang=en&t=1564582064002,Cap-de-la-Madeleine,<INACCESSIBLE>,<INACCESSIBLE>,<INACCESSIBLE>,<INACCESSIBLE>,US,<MISSING>,8195198424,<MISSING>,46.3706896,-72.5548108,"Sunday: 11:00, 21:00, Monday: 11:00, 21:00, Tuesday: 11:00, 21:00, Wednesday: 11:00, 21:00, Thursday: 11:00, 22:00, Friday: 11:00, 22:00, Saturday: 11:00","505 rue Vachon  Trois-Rivieres,  QC G8T 8P6"
https://thaiexpress.ca/wp-content/plugins/superstorefinder-wp/ssf-wp-xml.php?wpml_lang=en&t=1564582064002,Carlingwood Shopping Centre,<INACCESSIBLE>,<INACCESSIBLE>,<INACCESSIBLE>,<INACCESSIBLE>,US,<MISSING>,6136801188,<MISSING>,45.3727775,-75.7690305,"Sunday: 11:00, 18:00, Monday: 11:00, 21:00, Tuesday: 11:00, 21:00, Wednesday: 11:00, 21:00, Thursday: 11:00, 21:00, Friday: 11:00, 21:00, Saturday: 10:30, 21:00","2121 Carling Avenue Unit 721k  Ottawa,  ON K2A 1H2"
https://thaiexpress.ca/wp-content/plugins/superstorefinder-wp/ssf-wp-xml.php?wpml_lang=en&t=1564582064002,Carre Masson,<INACCESSIBLE>,<INACCESSIBLE>,<INACCESSIBLE>,<INACCESSIBLE>,US,<MISSING>,4509660777,<MISSING>,45.7329262,-73.6155967,"Sunday: 11:00, 21:00, Monday: 11:00, 21:00, Tuesday: 11:00, 21:00, Wednesday: 11:00, 21:00, Thursday: 11:00, 21:00, Friday: 11:00, 21:00, Saturday: 11:00, 21:00","462 montee Masson  Mascouche,  QC J7K 2L5"
https://thaiexpress.ca/wp-content/plugins/superstorefinder-wp/ssf-wp-xml.php?wpml_lang=en&t=1564582064002,Carre Saint-Lambert,<INACCESSIBLE>,<INACCESSIBLE>,<INACCESSIBLE>,<INACCESSIBLE>,US,<MISSING>,4504667888,<MISSING>,45.4934643,-73.5017242,"Sunday: 11:00, 21:00, Monday: 11:00, 21:00, Tuesday: 11:00, 21:00, Wednesday: 11:00, 21:00, Thursday: 11:00, 21:00, Friday: 11:00, 21:00, Saturday: 11:00, 21:00","299 boulevard Sir-Wilfrid-Laurier  Saint-Lambert,  QC J4R 2G4"
https://thaiexpress.ca/wp-content/plugins/superstorefinder-wp/ssf-wp-xml.php?wpml_lang=en&t=1564582064002,Carrefour Angrignon,<INACCESSIBLE>,<INACCESSIBLE>,<INACCESSIBLE>,<INACCESSIBLE>,US,<MISSING>,5143688228,<MISSING>,45.4473692,-73.6171694,"Sunday: 11:00, 17:00, Monday: 11:00, 18:00, Tuesday: 11:00, 18:00, Wednesday: 11:00, 21:00, Thursday: 11:00, 21:00, Friday: 11:00, 21:00, Saturday: 11:00, 17:00","7077 boulevard Newman  Lasalle,  QC H8N 1X1"
https://thaiexpress.ca/wp-content/plugins/superstorefinder-wp/ssf-wp-xml.php?wpml_lang=en&t=1564582064002,Carrefour de l&#39;Estrie,<INACCESSIBLE>,<INACCESSIBLE>,<INACCESSIBLE>,<INACCESSIBLE>,US,<MISSING>,8195631886,<MISSING>,45.4040261,-71.9572713,"Sunday: 11:00, 17:00, Monday: 11:00, 17:30, Tuesday: 11:00, 17:30, Wednesday: 11:00, 17:30, Thursday: 11:00, 21:00, Friday: 11:00, 21:00, Saturday: 11:00, 17:00","3050 boulevard de Portland  Sherbrooke,  QC J1L 1K1"
https://thaiexpress.ca/wp-content/plugins/superstorefinder-wp/ssf-wp-xml.php?wpml_lang=en&t=1564582064002,Carrefour de la Seigneurie (Blainville),<INACCESSIBLE>,<INACCESSIBLE>,<INACCESSIBLE>,<INACCESSIBLE>,US,<MISSING>,4509518800,<MISSING>,45.6674134,-73.868391,"Sunday: 11:00, 21:00, Monday: 11:00, 21:00, Tuesday: 11:00, 21:00, Wednesday: 11:00, 21:00, Thursday: 11:00, 21:00, Friday: 11:00, 21:00, Saturday: 11:00, 21:00","9 boulevard de la Seigneurie Est  Blainville,  QC J7C 4G6"
https://thaiexpress.ca/wp-content/plugins/superstorefinder-wp/ssf-wp-xml.php?wpml_lang=en&t=1564582064002,Carrefour du Nord,<INACCESSIBLE>,<INACCESSIBLE>,<INACCESSIBLE>,<INACCESSIBLE>,US,<MISSING>,4505044977,<MISSING>,45.7940071,-74.0178793,"Sunday: 11:00, 17:00, Monday: 11:00, 18:00, Tuesday: 11:00, 18:00, Wednesday: 11:00, 21:00, Thursday: 11:00, 21:00, Friday: 11:00, 21:00, Saturday: 11:00, 17:00","900 boulevard Grignon  Saint-Jerome,  QC J7Y 3S7"
https://thaiexpress.ca/wp-content/plugins/superstorefinder-wp/ssf-wp-xml.php?wpml_lang=en&t=1564582064002,Carrefour du Versant Est (Gatineau),<INACCESSIBLE>,<INACCESSIBLE>,<INACCESSIBLE>,<INACCESSIBLE>,US,<MISSING>,8198936888,<MISSING>,45.5030485,-75.6759614,"Sunday: 11:00, 19:00, Monday: 11:00, 21:00, Tuesday: 11:00, 21:00, Wednesday: 11:00, 21:00, Thursday: 11:00, 21:00, Friday: 11:00, 21:00, Saturday: 11:00, 21:00","710 Montee Paiement  Gatineau,  QC J8R 4A3"
https://thaiexpress.ca/wp-content/plugins/superstorefinder-wp/ssf-wp-xml.php?wpml_lang=en&t=1564582064002,Carrefour Industrielle Alliance,<INACCESSIBLE>,<INACCESSIBLE>,<INACCESSIBLE>,<INACCESSIBLE>,US,<MISSING>,5149008166,<MISSING>,45.50111,-73.5722427,"Sunday: 11:00, 17:00, Monday: 11:00, 18:00, Tuesday: 11:00, 18:00, Wednesday: 11:00, 18:00, Thursday: 11:00, 21:00, Friday: 11:00, 21:00, Saturday: 11:00, 17:00","977 rue Sainte-Catherine Ouest  Montreal,  QC H3B 4W3"
https://thaiexpress.ca/wp-content/plugins/superstorefinder-wp/ssf-wp-xml.php?wpml_lang=en&t=1564582064002,Carrefour Saint-Hubert,<INACCESSIBLE>,<INACCESSIBLE>,<INACCESSIBLE>,<INACCESSIBLE>,US,<MISSING>,4506783122,<MISSING>,45.4958044,-73.4094409,"Sunday: 11:00, 21:00, Monday: 11:00, 21:00, Tuesday: 11:00, 21:00, Wednesday: 11:00, 21:00, Thursday: 11:00, 22:00, Friday: 11:00, 22:00, Saturday: 11:00, 22:00","5962 boulevard Cousineau  Saint-Hubert,  QC J3Y 7R9"
https://thaiexpress.ca/wp-content/plugins/superstorefinder-wp/ssf-wp-xml.php?wpml_lang=en&t=1564582064002,Cataraqui Centre,<INACCESSIBLE>,<INACCESSIBLE>,<INACCESSIBLE>,<INACCESSIBLE>,US,<MISSING>,6133896662,<MISSING>,44.2563363,-76.572171,"Sunday: Closed, Monday: 11:00, 20:00, Tuesday: 11:00, 20:00, Wednesday: 11:00, 20:00, Thursday: 11:00, 20:00, Friday: 11:00, 14:00, Saturday: Closed","945 Gardiners Road  Kingston,  ON K7M 7H4"
https://thaiexpress.ca/wp-content/plugins/superstorefinder-wp/ssf-wp-xml.php?wpml_lang=en&t=1564582064002,Centennial Place West Tower,<INACCESSIBLE>,<INACCESSIBLE>,<INACCESSIBLE>,<INACCESSIBLE>,US,<MISSING>,4032881154,<MISSING>,51.050861,-114.0720599,"Sunday: Closed, Monday: 10:00, 17:00, Tuesday: 10:00, 17:00, Wednesday: 10:00, 17:00, Thursday: 10:00, 17:00, Friday: 10:00, 17:00, Saturday: Closed","520 3rd Avenue S.W.  Calgary,  AB T2P 4L4"
https://thaiexpress.ca/wp-content/plugins/superstorefinder-wp/ssf-wp-xml.php?wpml_lang=en&t=1564582064002,Central City,<INACCESSIBLE>,<INACCESSIBLE>,<INACCESSIBLE>,<INACCESSIBLE>,US,<MISSING>,6045811816,<MISSING>,49.1865388,-122.8483444,"Sunday: 11:00, 18:00, Monday: 11:00, 18:00, Tuesday: 11:00, 18:00, Wednesday: 11:00, 21:00, Thursday: 11:00, 21:00, Friday: 11:00, 21:00, Saturday: 11:00, 18:00","10153 King George Boulevard  Surrey,  BC V3T 2W1"
https://thaiexpress.ca/wp-content/plugins/superstorefinder-wp/ssf-wp-xml.php?wpml_lang=en&t=1564582064002,Centre des Sciences de Montreal,<INACCESSIBLE>,<INACCESSIBLE>,<INACCESSIBLE>,<INACCESSIBLE>,US,<MISSING>,5149875198,<MISSING>,45.5052122,-73.5502408,"Sunday: 11:00, 19:00, Monday: 11:00, 14:00, Tuesday: 11:00, 14:00, Wednesday: 11:00, 14:00, Thursday: 11:00, 14:00, Friday: 11:00, 19:00, Saturday: 11:00, 19:00","2 rue de la commune ouest  Montreal,  QC H2Y 4B2"
https://thaiexpress.ca/wp-content/plugins/superstorefinder-wp/ssf-wp-xml.php?wpml_lang=en&t=1564582064002,Centre Eaton de Montreal,<INACCESSIBLE>,<INACCESSIBLE>,<INACCESSIBLE>,<INACCESSIBLE>,US,<MISSING>,5148458688,<MISSING>,45.5023703,-73.5715387,"Sunday: 11:00, 17:00, Monday: 11:00, 21:00, Tuesday: 11:00, 21:00, Wednesday: 11:00, 21:00, Thursday: 11:00, 21:00, Friday: 11:00, 21:00, Saturday: 11:00, 18:00","705 rue Sainte-Catherine Ouest  Montreal,  QC H3B 4G5"
https://thaiexpress.ca/wp-content/plugins/superstorefinder-wp/ssf-wp-xml.php?wpml_lang=en&t=1564582064002,Centre Lachenaie,<INACCESSIBLE>,<INACCESSIBLE>,<INACCESSIBLE>,<INACCESSIBLE>,US,<MISSING>,4506577557,<MISSING>,45.7279317,-73.508909,"Sunday: 11:00, 21:00, Monday: 11:00, 21:00, Tuesday: 11:00, 21:00, Wednesday: 11:00, 21:00, Thursday: 11:00, 21:00, Friday: 11:00, 21:00, Saturday: 11:00, 21:00","1153 Montee Des Pionners  Lachenaie,  QC J6V 0E1"
https://thaiexpress.ca/wp-content/plugins/superstorefinder-wp/ssf-wp-xml.php?wpml_lang=en&t=1564582064002,Centre Laval,<INACCESSIBLE>,<INACCESSIBLE>,<INACCESSIBLE>,<INACCESSIBLE>,US,<MISSING>,4506818940,<MISSING>,45.5617576,-73.732182,"Sunday: 11:00, 17:00, Monday: 11:00, 16:00, Tuesday: 11:00, 16:00, Wednesday: 11:00, 16:00, Thursday: 11:00, 21:00, Friday: 11:00, 21:00, Saturday: 11:00, 17:00","1600 boulevard le Corbusier  Laval,  QC H7S 1Y9"
https://thaiexpress.ca/wp-content/plugins/superstorefinder-wp/ssf-wp-xml.php?wpml_lang=en&t=1564582064002,Centre Les Rivieres,<INACCESSIBLE>,<INACCESSIBLE>,<INACCESSIBLE>,<INACCESSIBLE>,US,<MISSING>,8193747636,<MISSING>,46.3562107,-72.5891327,"Sunday: 11:00, 17:00, Monday: 11:00, 17:00, Tuesday: 11:00, 17:00, Wednesday: 11:00, 17:00, Thursday: 11:00, 21:00, Friday: 11:00, 21:00, Saturday: 11:00, 17:00","4225 boulevard des Forges  Trois-Rivieres,  QC G8Y 1W1"
https://thaiexpress.ca/wp-content/plugins/superstorefinder-wp/ssf-wp-xml.php?wpml_lang=en&t=1564582064002,Centrepoint Mall,<INACCESSIBLE>,<INACCESSIBLE>,<INACCESSIBLE>,<INACCESSIBLE>,US,<MISSING>,4162234888,<MISSING>,43.7955012,-79.4225197,"Sunday: 12:00, 18:00, Monday: 11:00, 21:00, Tuesday: 11:00, 21:00, Wednesday: 11:00, 21:00, Thursday: 11:00, 21:00, Friday: 11:00, 21:00, Saturday: 11:00, 18:00","6464 Yonge Street  Willowdale,  ON M2M 3X4"
https://thaiexpress.ca/wp-content/plugins/superstorefinder-wp/ssf-wp-xml.php?wpml_lang=en&t=1564582064002,CF Carrefour Laval,<INACCESSIBLE>,<INACCESSIBLE>,<INACCESSIBLE>,<INACCESSIBLE>,US,<MISSING>,4506828862,<MISSING>,45.5702063,-73.7519628,"Sunday: 11:00, 17:00, Monday: 11:00, 21:00, Tuesday: 11:00, 21:00, Wednesday: 11:00, 21:00, Thursday: 11:00, 21:00, Friday: 11:00, 21:00, Saturday: 11:00, 17:00","3035 boulevard le Carrefour  Laval,  QC H7T 1C7"
https://thaiexpress.ca/wp-content/plugins/superstorefinder-wp/ssf-wp-xml.php?wpml_lang=en&t=1564582064002,CF Chinook Centre,<INACCESSIBLE>,<INACCESSIBLE>,<INACCESSIBLE>,<INACCESSIBLE>,US,<MISSING>,4034573888,<MISSING>,50.9951926,-114.0742866,"Sunday: 11:00, 19:00, Monday: 11:00, 21:00, Tuesday: 11:00, 21:00, Wednesday: 11:00, 21:00, Thursday: 11:00, 21:00, Friday: 11:00, 21:00, Saturday: 11:00, 21:00","6455 Macleod Trail S.W.  Calgary,  AB T2H 0K8"
https://thaiexpress.ca/wp-content/plugins/superstorefinder-wp/ssf-wp-xml.php?wpml_lang=en&t=1564582064002,CF Fairview Mall (North York),<INACCESSIBLE>,<INACCESSIBLE>,<INACCESSIBLE>,<INACCESSIBLE>,US,<MISSING>,6473523233,<MISSING>,43.7779901,-79.3440914,"Sunday: 11:00, 19:00, Monday: 11:00, 21:00, Tuesday: 11:00, 21:00, Wednesday: 11:00, 21:00, Thursday: 11:00, 21:00, Friday: 11:00, 21:00, Saturday: 11:00, 21:00","1800 Sheppard Avenue E F008  Toronto,  ON M2J 5A7"
https://thaiexpress.ca/wp-content/plugins/superstorefinder-wp/ssf-wp-xml.php?wpml_lang=en&t=1564582064002,CF Fairview Park Mall,<INACCESSIBLE>,<INACCESSIBLE>,<INACCESSIBLE>,<INACCESSIBLE>,US,<MISSING>,5198948828,<MISSING>,43.4243864,-80.4385539,"Sunday: 11:00, 17:00, Monday: 11:00, 21:00, Tuesday: 11:00, 21:00, Wednesday: 11:00, 21:00, Thursday: 11:00, 21:00, Friday: 11:00, 21:00, Saturday: 11:00, 18:00","2960 Kingsway Drive #F010  Kitchener,  ON N2C 1X1"
https://thaiexpress.ca/wp-content/plugins/superstorefinder-wp/ssf-wp-xml.php?wpml_lang=en&t=1564582064002,CF Fairview Pointe Claire,<INACCESSIBLE>,<INACCESSIBLE>,<INACCESSIBLE>,<INACCESSIBLE>,US,<MISSING>,5144263773,<MISSING>,45.4637411,-73.8311678,"Sunday: 10:30, 17:00, Monday: 10:30, 21:00, Tuesday: 10:30, 21:00, Wednesday: 10:30, 21:00, Thursday: 10:30, 21:00, Friday: 10:30, 21:00, Saturday: 10:30, 21:00","6815 autoroute Trans-Canadienne  Pointe-Claire,  QC H9R 5J1"
https://thaiexpress.ca/wp-content/plugins/superstorefinder-wp/ssf-wp-xml.php?wpml_lang=en&t=1564582064002,CF Galeries D&#39;Anjou,<INACCESSIBLE>,<INACCESSIBLE>,<INACCESSIBLE>,<INACCESSIBLE>,US,<MISSING>,5143553667,<MISSING>,45.6006624,-73.5644021,"Sunday: 11:00, 17:00, Monday: 10:00, 21:00, Tuesday: 10:00, 21:00, Wednesday: 10:00, 21:00, Thursday: 10:00, 21:00, Friday: 10:30, 21:00, Saturday: 10:00, 17:00","7999 boulevard des Galeries  Montreal,  QC H1M 1W9"
https://thaiexpress.ca/wp-content/plugins/superstorefinder-wp/ssf-wp-xml.php?wpml_lang=en&t=1564582064002,CF Lime Ridge Mall,<INACCESSIBLE>,<INACCESSIBLE>,<INACCESSIBLE>,<INACCESSIBLE>,US,<MISSING>,9055751513,<MISSING>,43.2177265,-79.861375,"Sunday: 11:00, 17:00, Monday: 11:00, 21:00, Tuesday: 11:00, 21:00, Wednesday: 11:00, 21:00, Thursday: 11:00, 21:00, Friday: 11:00, 21:00, Saturday: 11:00, 18:00","999 Upper Wentworth Street  Hamilton,  ON L9A 4X5"
https://thaiexpress.ca/wp-content/plugins/superstorefinder-wp/ssf-wp-xml.php?wpml_lang=en&t=1564582064002,CF Market Mall,<INACCESSIBLE>,<INACCESSIBLE>,<INACCESSIBLE>,<INACCESSIBLE>,US,<MISSING>,4032659553,<MISSING>,51.084709,-114.154918,"Sunday: 11:00, 18:00, Monday: 09:30, 21:00, Tuesday: 09:30, 21:00, Wednesday: 09:30, 21:00, Thursday: 09:30, 21:00, Friday: 09:30, 21:00, Saturday: 09:30, 20:00","3625 Shaganappi Trail N.W.  Calgary,  AB T3A 0E2"
https://thaiexpress.ca/wp-content/plugins/superstorefinder-wp/ssf-wp-xml.php?wpml_lang=en&t=1564582064002,CF Markville Shopping Centre,<INACCESSIBLE>,<INACCESSIBLE>,<INACCESSIBLE>,<INACCESSIBLE>,US,<MISSING>,9053058806,<MISSING>,43.8682046,-79.2883119,"Sunday: 11:00, 18:00, Monday: 11:00, 21:00, Tuesday: 11:00, 21:00, Wednesday: 11:00, 21:00, Thursday: 11:00, 21:00, Friday: 11:00, 21:00, Saturday: 11:00, 21:00","5000 Highway 7 East #FC0209  Markham,  ON L3R 4M9"
https://thaiexpress.ca/wp-content/plugins/superstorefinder-wp/ssf-wp-xml.php?wpml_lang=en&t=1564582064002,CF Pacific Centre,<INACCESSIBLE>,<INACCESSIBLE>,<INACCESSIBLE>,<INACCESSIBLE>,US,<MISSING>,6046828038,<MISSING>,49.2843731,-123.1164403,"Sunday: 11:00, 18:00, Monday: 10:00, 19:00, Tuesday: 10:00, 19:00, Wednesday: 10:00, 21:00, Thursday: 10:00, 21:00, Friday: 10:00, 21:00, Saturday: 10:00, 19:00","701 West Georgia Street  Vancouver,  BC V7Y 1G5"
https://thaiexpress.ca/wp-content/plugins/superstorefinder-wp/ssf-wp-xml.php?wpml_lang=en&t=1564582064002,CF Polo Park,<INACCESSIBLE>,<INACCESSIBLE>,<INACCESSIBLE>,<INACCESSIBLE>,US,<MISSING>,2044153708,<MISSING>,49.8824211,-97.198585,"Sunday: 11:00, 18:00, Monday: 10:00, 21:00, Tuesday: 10:00, 21:00, Wednesday: 10:00, 21:00, Thursday: 10:00, 21:00, Friday: 10:00, 21:00, Saturday: 9:30, 18:00","1485 Portage Avenue #FC11  Winnipeg,  MB R3G 0W4"
https://thaiexpress.ca/wp-content/plugins/superstorefinder-wp/ssf-wp-xml.php?wpml_lang=en&t=1564582064002,CF Promenades St-Bruno,<INACCESSIBLE>,<INACCESSIBLE>,<INACCESSIBLE>,<INACCESSIBLE>,US,<MISSING>,4504613482,<MISSING>,45.5052198,-73.3766652,"Sunday: 11:00, 17:00, Monday: 11:00, 18:00, Tuesday: 11:00, 18:00, Wednesday: 11:00, 21:00, Thursday: 11:00, 21:00, Friday: 11:00, 21:00, Saturday: 11:00, 17:00","1 boulevard des Promenades  Saint-Bruno-de-Montarville,  QC J3V 5J5"
https://thaiexpress.ca/wp-content/plugins/superstorefinder-wp/ssf-wp-xml.php?wpml_lang=en&t=1564582064002,CF Richmond Centre,<INACCESSIBLE>,<INACCESSIBLE>,<INACCESSIBLE>,<INACCESSIBLE>,US,<MISSING>,6042708323,<MISSING>,49.16679,-123.1383853,"Sunday: 11:00, 18:00, Monday: 11:00, 18:00, Tuesday: 9:30, 19:00, Wednesday: 9:30, 21:00, Thursday: 9:30, 21:00, Friday: 9:30, 21:00, Saturday: 9:30, 19:00","6551 Number 3 Road #FC1548A  Richmond,  BC V6Y 2B6"
https://thaiexpress.ca/wp-content/plugins/superstorefinder-wp/ssf-wp-xml.php?wpml_lang=en&t=1564582064002,CF Rideau Centre,<INACCESSIBLE>,<INACCESSIBLE>,<INACCESSIBLE>,<INACCESSIBLE>,US,<MISSING>,6134221400,<MISSING>,45.4260575,-75.6907998,"Sunday: 11:00, 17:00, Monday: 11:00, 21:00, Tuesday: 11:00, 21:00, Wednesday: 11:00, 21:00, Thursday: 11:00, 21:00, Friday: 11:00, 21:30, Saturday: 11:00, 18:00","50 Rideau Street  Ottawa,  ON K1N 9J7"
https://thaiexpress.ca/wp-content/plugins/superstorefinder-wp/ssf-wp-xml.php?wpml_lang=en&t=1564582064002,CF Sherway Gardens Mall,<INACCESSIBLE>,<INACCESSIBLE>,<INACCESSIBLE>,<INACCESSIBLE>,US,<MISSING>,4166204888,<MISSING>,43.6116933,-79.557183,"Sunday: 11:00, 17:00, Monday: 10:00, 21:00, Tuesday: 10:00, 21:00, Wednesday: 10:00, 21:00, Thursday: 10:00, 21:00, Friday: 10:00, 21:00, Saturday: 11:00, 19:00","25 The West Mall #2126  Etobicoke,  ON M9C 1B8"
https://thaiexpress.ca/wp-content/plugins/superstorefinder-wp/ssf-wp-xml.php?wpml_lang=en&t=1564582064002,CF Toronto Eaton Centre,<INACCESSIBLE>,<INACCESSIBLE>,<INACCESSIBLE>,<INACCESSIBLE>,US,<MISSING>,4165996668,<MISSING>,43.6548655,-79.3807161,"Sunday: 11:00, 17:00, Monday: 11:00, 21:00, Tuesday: 11:00, 21:00, Wednesday: 11:00, 21:00, Thursday: 11:00, 21:00, Friday: 11:00, 21:00, Saturday: 11:00, 18:00","218 Yonge Street 1st Level #2  Toronto,  ON M5B 2H6"
https://thaiexpress.ca/wp-content/plugins/superstorefinder-wp/ssf-wp-xml.php?wpml_lang=en&t=1564582064002,Chambly,<INACCESSIBLE>,<INACCESSIBLE>,<INACCESSIBLE>,<INACCESSIBLE>,US,<MISSING>,4506583888,<MISSING>,45.4556782,-73.3018057,"Sunday: 11:00, 22:00, Monday: 11:00, 22:00, Tuesday: 11:00, 22:00, Wednesday: 11:00, 22:00, Thursday: 11:00, 22:00, Friday: 11:00, 22:00, Saturday: 11:00, 22:00","815 boulevard de Perigny  Chambly,  QC J3L 1W5"
https://thaiexpress.ca/wp-content/plugins/superstorefinder-wp/ssf-wp-xml.php?wpml_lang=en&t=1564582064002,Chambly Road,<INACCESSIBLE>,<INACCESSIBLE>,<INACCESSIBLE>,<INACCESSIBLE>,US,<MISSING>,4506702576,<MISSING>,45.5353366,-73.4967306,"Sunday: 11:00, 20:00, Monday: 11:00, 20:00, Tuesday: 11:00, 20:00, Wednesday: 11:00, 20:00, Thursday: 11:00, 20:00, Friday: 11:00, 20:00, Saturday: 11:00, 20:00","850 Chambly Road  Longueuil,  QC J4H 3M3"
https://thaiexpress.ca/wp-content/plugins/superstorefinder-wp/ssf-wp-xml.php?wpml_lang=en&t=1564582064002,Chandler Fashion Center ID,<INACCESSIBLE>,<INACCESSIBLE>,<INACCESSIBLE>,<INACCESSIBLE>,US,<MISSING>,4808456377,<MISSING>,33.3014708,-111.8984985,"Sunday: 11:00, 18:00, Monday: 10:00, 21:00, Tuesday: 10:00, 21:00, Wednesday: 10:00, 21:00, Thursday: 10:00, 21:00, Friday: 10:00, 21:00, Saturday: 10:00, 21:00","3111&#44; W. Chandler Blvd&#44; Unit #FF224  Chandler,  AZ 85226"
https://thaiexpress.ca/wp-content/plugins/superstorefinder-wp/ssf-wp-xml.php?wpml_lang=en&t=1564582064002,Chandler Fashion Center ID,<INACCESSIBLE>,<INACCESSIBLE>,<INACCESSIBLE>,<INACCESSIBLE>,US,<MISSING>,4808456377,<MISSING>,56.130366,-106.346771,"Sunday: 11:00, 18:00, Monday: 10:00, 21:00, Tuesday: 10:00, 21:00, Wednesday: 10:00, 21:00, Thursday: 10:00, 21:00, Friday: 10:00, 21:00, Saturday: 10:00, 21:00","3111&#44; W. Chandler Blvd&#44; Unit #FF224  Chandler,  AZ 85226"
https://thaiexpress.ca/wp-content/plugins/superstorefinder-wp/ssf-wp-xml.php?wpml_lang=en&t=1564582064002,Chandler Fashion Center&#44; AZ,<INACCESSIBLE>,<INACCESSIBLE>,<INACCESSIBLE>,<INACCESSIBLE>,US,<MISSING>,4808456377,<MISSING>,33.3014704,-111.8984059,"Sunday: 11:00, 18:00, Monday: 10:00, 21:00, Tuesday: 10:00, 21:00, Wednesday: 10:00, 21:00, Thursday: 10:00, 21:00, Friday: 10:00, 21:00, Saturday: 10:00, 21:00","3111 W. Chandler Blvd Unit #FF224  Chandler,  AZ 85226"
https://thaiexpress.ca/wp-content/plugins/superstorefinder-wp/ssf-wp-xml.php?wpml_lang=en&t=1564582064002,Chateauguay,<INACCESSIBLE>,<INACCESSIBLE>,<INACCESSIBLE>,<INACCESSIBLE>,US,<MISSING>,4508443472,<MISSING>,45.358455,-73.7195338,"Sunday: 11:00, 21:00, Monday: 11:00, 21:00, Tuesday: 11:00, 21:00, Wednesday: 11:00, 21:00, Thursday: 11:00, 21:00, Friday: 11:00, 21:00, Saturday: 11:00, 21:00","280-A boulevard d&#39;Anjou  Chäteauguay,  QC J6J 1C6"
https://thaiexpress.ca/wp-content/plugins/superstorefinder-wp/ssf-wp-xml.php?wpml_lang=en&t=1564582064002,Chemin du Tremblay,<INACCESSIBLE>,<INACCESSIBLE>,<INACCESSIBLE>,<INACCESSIBLE>,US,<MISSING>,4506475703,<MISSING>,45.5377528,-73.4631811,"Sunday: 11:00, 21:00, Monday: 11:00, 21:00, Tuesday: 11:00, 21:00, Wednesday: 11:00, 21:00, Thursday: 11:00, 21:00, Friday: 11:00, 21:00, Saturday: 11:00, 21:00","1215 chemin du Tremblay  Longueuil,  QC J4N 1R4"
https://thaiexpress.ca/wp-content/plugins/superstorefinder-wp/ssf-wp-xml.php?wpml_lang=en&t=1564582064002,Circle &amp; 8th,<INACCESSIBLE>,<INACCESSIBLE>,<INACCESSIBLE>,<INACCESSIBLE>,US,<MISSING>,3069552756,<MISSING>,52.114284,-106.5945129,"Sunday: 11:00, 17:00, Monday: 11:00, 18:00, Tuesday: 11:00, 18:00, Wednesday: 11:00, 21:00, Thursday: 11:00, 21:00, Friday: 11:00, 21:00, Saturday: 11:00, 18:00","3510 8th Street East  Saskatoon,  SK S7H 0W6"
https://thaiexpress.ca/wp-content/plugins/superstorefinder-wp/ssf-wp-xml.php?wpml_lang=en&t=1564582064002,Clarica Centre,<INACCESSIBLE>,<INACCESSIBLE>,<INACCESSIBLE>,<INACCESSIBLE>,US,<MISSING>,4162342078,<MISSING>,43.6455182,-79.5222505,"Sunday: Closed, Monday: 10:00, 19:00, Tuesday: 10:00, 19:00, Wednesday: 10:00, 19:00, Thursday: 10:00, 19:00, Friday: 10:00, 19:00, Saturday: Closed","3300 Bloor Street West Centre Tower  Etobicoke,  ON M8X 2X3"
https://thaiexpress.ca/wp-content/plugins/superstorefinder-wp/ssf-wp-xml.php?wpml_lang=en&t=1564582064002,Cloverdale Mall,<INACCESSIBLE>,<INACCESSIBLE>,<INACCESSIBLE>,<INACCESSIBLE>,US,<MISSING>,4162392288,<MISSING>,43.6318273,-79.5547902,"Sunday: 11:00, 17:00, Monday: 11:00, 21:00, Tuesday: 11:00, 21:00, Wednesday: 11:00, 21:00, Thursday: 11:00, 21:00, Friday: 11:00, 21:00, Saturday: 11:00, 18:00","250 The East Mall Unit 162  Etobicoke,  ON M9B 3Y8"
https://thaiexpress.ca/wp-content/plugins/superstorefinder-wp/ssf-wp-xml.php?wpml_lang=en&t=1564582064002,Coeur d&#39;Alène ID,<INACCESSIBLE>,<INACCESSIBLE>,<INACCESSIBLE>,<INACCESSIBLE>,US,<MISSING>,5092800667,<MISSING>,47.7036826,-116.8074841,"Sunday: 11:00, 21:00, Monday: 11:00, 21:00, Tuesday: 11:00, 21:00, Wednesday: 11:00, 21:00, Thursday: 11:00, 21:00, Friday: 11:00, 21:00, Saturday: 11:00, 21:00","2824 North Ramsey Road&#44; Suite 101  Coeur d&amp;#39;Alène,  ID 83815"
https://thaiexpress.ca/wp-content/plugins/superstorefinder-wp/ssf-wp-xml.php?wpml_lang=en&t=1564582064002,Complexe Brault,<INACCESSIBLE>,<INACCESSIBLE>,<INACCESSIBLE>,<INACCESSIBLE>,US,<MISSING>,4504666555,<MISSING>,45.497692,-73.4843808,"Sunday: 11:00, 21:00, Monday: 11:00, 21:30, Tuesday: 11:00, 21:30, Wednesday: 11:00, 21:30, Thursday: 11:00, 22:00, Friday: 11:00, 22:00, Saturday: 11:00, 21:00","3135 boulevard Taschereau  Longueuil,  QC J4V 2H2"
https://thaiexpress.ca/wp-content/plugins/superstorefinder-wp/ssf-wp-xml.php?wpml_lang=en&t=1564582064002,Complexe Dejardins,<INACCESSIBLE>,<INACCESSIBLE>,<INACCESSIBLE>,<INACCESSIBLE>,US,<MISSING>,5148751436,<MISSING>,45.508056,-73.563886,"Sunday: 11:00, 17:00, Monday: 11:00, 18:00, Tuesday: 11:00, 18:00, Wednesday: 11:00, 18:00, Thursday: 11:00, 21:00, Friday: 11:00, 21:00, Saturday: 11:00, 17:00","5 Complexe Desjardins  Montreal,  QC H5B 1B8"
https://thaiexpress.ca/wp-content/plugins/superstorefinder-wp/ssf-wp-xml.php?wpml_lang=en&t=1564582064002,Coquitlam Centre,<INACCESSIBLE>,<INACCESSIBLE>,<INACCESSIBLE>,<INACCESSIBLE>,US,<MISSING>,7782858223,<MISSING>,49.27745,-122.802288,"Sunday: 11:00, 18:00, Monday: 11:00, 18:00, Tuesday: 11:00, 18:00, Wednesday: 11:00, 21:00, Thursday: 11:00, 21:00, Friday: 11:00, 21:00, Saturday: 11:00, 18:00","2929 Barnet Highway  Coquitlam,  BC V3B 5R5"
https://thaiexpress.ca/wp-content/plugins/superstorefinder-wp/ssf-wp-xml.php?wpml_lang=en&t=1564582064002,Cornwall,<INACCESSIBLE>,<INACCESSIBLE>,<INACCESSIBLE>,<INACCESSIBLE>,US,<MISSING>,6139336888,<MISSING>,45.028264,-74.7540165,"Sunday: 11:00, 21:00, Monday: 11:00, 21:00, Tuesday: 11:00, 21:00, Wednesday: 11:00, 21:00, Thursday: 11:00, 21:00, Friday: 11:00, 21:00, Saturday: 11:00, 21:00","1232 Brookdale avenue  Cornwall,  ON K6J 4P8"
https://thaiexpress.ca/wp-content/plugins/superstorefinder-wp/ssf-wp-xml.php?wpml_lang=en&t=1564582064002,Cornwall Centre,<INACCESSIBLE>,<INACCESSIBLE>,<INACCESSIBLE>,<INACCESSIBLE>,US,<MISSING>,3067571398,<MISSING>,50.4509682,-104.6113994,"Sunday: 12:00, 17:00, Monday: 11:00, 18:00, Tuesday: 11:00, 18:00, Wednesday: 11:00, 21:00, Thursday: 11:00, 21:00, Friday: 11:00, 21:00, Saturday: 11:00, 18:00","2102 11th Avenue  Regina,  SK S4P 0J5"
https://thaiexpress.ca/wp-content/plugins/superstorefinder-wp/ssf-wp-xml.php?wpml_lang=en&t=1564582064002,Cote-des-Neiges,<INACCESSIBLE>,<INACCESSIBLE>,<INACCESSIBLE>,<INACCESSIBLE>,US,<MISSING>,5144196985,<MISSING>,45.4979801,-73.6268236,"Sunday: 11:00, 22:00, Monday: 10:00, 22:00, Tuesday: 11:00, 22:00, Wednesday: 11:00, 22:00, Thursday: 11:00, 22:00, Friday: 11:00, 22:00, Saturday: 11:00, 22:00","5660 chemin Cote-des-Neiges  Montreal,  QC H3T 1Z2"
https://thaiexpress.ca/wp-content/plugins/superstorefinder-wp/ssf-wp-xml.php?wpml_lang=en&t=1564582064002,Coventry Hills,<INACCESSIBLE>,<INACCESSIBLE>,<INACCESSIBLE>,<INACCESSIBLE>,US,<MISSING>,5877551276,<MISSING>,51.1607627,-114.0680284,"Sunday: 11:00, 21:00, Monday: 11:00, 21:00, Tuesday: 11:00, 21:00, Wednesday: 11:00, 21:00, Thursday: 11:00, 21:00, Friday: 11:00, 21:00, Saturday: 11:00, 21:00","Unit 107-104 Country Village Road NE  Calgary,  AB T3K 2K9"
https://thaiexpress.ca/wp-content/plugins/superstorefinder-wp/ssf-wp-xml.php?wpml_lang=en&t=1564582064002,Cowansville,<INACCESSIBLE>,<INACCESSIBLE>,<INACCESSIBLE>,<INACCESSIBLE>,US,<MISSING>,4502666888,<MISSING>,45.191249,-72.7532231,"Sunday: 11:00, 21:00, Monday: 11:00, 21:00, Tuesday: 11:00, 21:00, Wednesday: 11:00, 21:00, Thursday: 11:00, 21:00, Friday: 11:00, 21:00, Saturday: 11:00, 21:00","1599 rue du Sud  Cowansville,  QC J2K 2Z4"
https://thaiexpress.ca/wp-content/plugins/superstorefinder-wp/ssf-wp-xml.php?wpml_lang=en&t=1564582064002,Creekside Crossing,<INACCESSIBLE>,<INACCESSIBLE>,<INACCESSIBLE>,<INACCESSIBLE>,US,<MISSING>,9059492121,<MISSING>,43.6109567,-79.5790443,"Sunday: 11:00, 20:00, Monday: 11:00, 21:00, Tuesday: 11:00, 21:00, Wednesday: 11:00, 21:00, Thursday: 11:00, 21:00, Friday: 11:00, 21:00, Saturday: 11:00, 21:00","1510 Dundas Street East  Mississauga,  ON L4X 1L4"
https://thaiexpress.ca/wp-content/plugins/superstorefinder-wp/ssf-wp-xml.php?wpml_lang=en&t=1564582064002,CrossIron Mills,<INACCESSIBLE>,<INACCESSIBLE>,<INACCESSIBLE>,<INACCESSIBLE>,US,<MISSING>,4034530329,<MISSING>,51.2031812,-113.9925638,"Sunday: 11:00, 18:00, Monday: 10:00, 21:00, Tuesday: 10:00, 21:00, Wednesday: 10:00, 21:00, Thursday: 10:00, 21:00, Friday: 10:00, 21:00, Saturday: 10:00, 21:00","261055 Crosslron Boulevard  Rocky View,  AB T4A 0G3"
https://thaiexpress.ca/wp-content/plugins/superstorefinder-wp/ssf-wp-xml.php?wpml_lang=en&t=1564582064002,Currents of Windermere,<INACCESSIBLE>,<INACCESSIBLE>,<INACCESSIBLE>,<INACCESSIBLE>,US,<MISSING>,7807567737,<MISSING>,53.434794,-113.6032255,<MISSING>,"5206 Windermere Boulevard North West  Edmonton,  AB T6W 0L9"
https://thaiexpress.ca/wp-content/plugins/superstorefinder-wp/ssf-wp-xml.php?wpml_lang=en&t=1564582064002,Dartmouth Crossing,<INACCESSIBLE>,<INACCESSIBLE>,<INACCESSIBLE>,<INACCESSIBLE>,US,<MISSING>,9028695252,<MISSING>,44.7056683,-63.5633701,"Monday: 11:00am, 9:00pm, Tuesday: 11:00am, 9:00pm, Wednesday: 11:00am, 9:00pm, Thursday: 11:00am, 9:00pm, Friday: 11:00am, 9:00pm, Saturday: 11:00am, 9:00pm, Sunday: 12:00pm, 9:00pm","50 Foulis Row  Dartmouth,  Nova Scotia B3B0E1"
https://thaiexpress.ca/wp-content/plugins/superstorefinder-wp/ssf-wp-xml.php?wpml_lang=en&t=1564582064002,De Maisonneuve Est,<INACCESSIBLE>,<INACCESSIBLE>,<INACCESSIBLE>,<INACCESSIBLE>,US,<MISSING>,5145281111,<MISSING>,45.5165627,-73.5600792,"Sunday: 11:00, 21:00, Monday: 11:00, 21:00, Tuesday: 11:00, 21:00, Wednesday: 11:00, 21:00, Thursday: 11:00, 21:00, Friday: 11:00, 21:00, Saturday: 11:00, 21:00","833 boulevard de Maisonneuve Est  Montreal,  QC H2L 1Y7"
https://thaiexpress.ca/wp-content/plugins/superstorefinder-wp/ssf-wp-xml.php?wpml_lang=en&t=1564582064002,De Maisonneuve Ouest,<INACCESSIBLE>,<INACCESSIBLE>,<INACCESSIBLE>,<INACCESSIBLE>,US,<MISSING>,5149376280,<MISSING>,45.4959198,-73.5789191,"Sunday: 11:00, 23:00, Monday: 11:00, 23:00, Tuesday: 11:00, 23:00, Wednesday: 11:00, 23:00, Thursday: 11:00, 23:00, Friday: 11:00, 23:00, Saturday: 11:00, 23:00","1570 boulevard de Maisonneuve ouest  Montreal,  QC H3G 1N2"
https://thaiexpress.ca/wp-content/plugins/superstorefinder-wp/ssf-wp-xml.php?wpml_lang=en&t=1564582064002,Decatur GA,<INACCESSIBLE>,<INACCESSIBLE>,<INACCESSIBLE>,<INACCESSIBLE>,US,<MISSING>,6782710095,<MISSING>,33.7950592,-84.2868608,"Sunday: 11:00, 22:00, Monday: 11:00, 22:00, Tuesday: 11:00, 22:00, Wednesday: 11:00, 22:00, Thursday: 11:00, 22:00, Friday: 11:00, 22:00, Saturday: 11:00, 22:00","2502 Blackmon Drive&#44; Suite 830  Decatur,  GA 30033"
https://thaiexpress.ca/wp-content/plugins/superstorefinder-wp/ssf-wp-xml.php?wpml_lang=en&t=1564582064002,Deerfoot Meadows,<INACCESSIBLE>,<INACCESSIBLE>,<INACCESSIBLE>,<INACCESSIBLE>,US,<MISSING>,4034602587,<MISSING>,50.982188,-114.0404314,"Sunday: 11:00, 18:00, Monday: 11:00, 20:00, Tuesday: 11:00, 20:00, Wednesday: 11:00, 20:00, Thursday: 11:00, 21:00, Friday: 11:00, 21:00, Saturday: 11:00, 21:00","33 Heritage Meadows Way SE Unit 206  Calgary,  AB T2H 3B8"
https://thaiexpress.ca/wp-content/plugins/superstorefinder-wp/ssf-wp-xml.php?wpml_lang=en&t=1564582064002,Dixie Crossing,<INACCESSIBLE>,<INACCESSIBLE>,<INACCESSIBLE>,<INACCESSIBLE>,US,<MISSING>,9056299966,<MISSING>,43.6382738,-79.62198,"Sunday: 11:00, 21:00, Monday: 11:00, 21:00, Tuesday: 11:00, 21:00, Wednesday: 11:00, 21:00, Thursday: 11:00, 21:00, Friday: 11:00, 21:00, Saturday: 11:00, 21:00","5083 Dixie Road Unit D7  Mississauga,  ON L4W 0E6"
https://thaiexpress.ca/wp-content/plugins/superstorefinder-wp/ssf-wp-xml.php?wpml_lang=en&t=1564582064002,Dixie Outlet Mall,<INACCESSIBLE>,<INACCESSIBLE>,<INACCESSIBLE>,<INACCESSIBLE>,US,<MISSING>,4168190518,<MISSING>,43.5931066,-79.5681913,"Sunday: 11:00, 18:00, Monday: 11:00, 21:00, Tuesday: 11:00, 21:00, Wednesday: 11:00, 21:00, Thursday: 11:00, 21:00, Friday: 11:00, 21:00, Saturday: 11:00, 19:00","73-1250 South Service Road  Mississauga,  ON L5E 1V4"
https://thaiexpress.ca/wp-content/plugins/superstorefinder-wp/ssf-wp-xml.php?wpml_lang=en&t=1564582064002,Dollard-des-Ormeaux,<INACCESSIBLE>,<INACCESSIBLE>,<INACCESSIBLE>,<INACCESSIBLE>,US,<MISSING>,5146240005,<MISSING>,45.4739341,-73.8357296,"Sunday: 11:00, 21:30, Monday: 11:00, 21:30, Tuesday: 11:00, 21:30, Wednesday: 11:00, 21:30, Thursday: 11:00, 22:00, Friday: 11:00, 22:00, Saturday: 11:00, 22:00","3700-3750 boulevard St-Jean  Dollard-des-Ormeaux,  QC H9G 1X1"
https://thaiexpress.ca/wp-content/plugins/superstorefinder-wp/ssf-wp-xml.php?wpml_lang=en&t=1564582064002,Downsview Plaza,<INACCESSIBLE>,<INACCESSIBLE>,<INACCESSIBLE>,<INACCESSIBLE>,US,<MISSING>,19028695253,<MISSING>,44.7717692,-63.6934221,"Monday: 11:00, 21:00, Tuesday: 11:00, 21:00, Wednesday: 11:00, 21:00, Thursday: 11:00, 21:00, Friday: 11:00, 22:00, Saturday: 11:00, 22:00, Sunday: 11:00, 21:00","720 Sackville Drive  Lower Sackville,  Nova Scotia B4E 1R7"
https://thaiexpress.ca/wp-content/plugins/superstorefinder-wp/ssf-wp-xml.php?wpml_lang=en&t=1564582064002,Downtown Markham,<INACCESSIBLE>,<INACCESSIBLE>,<INACCESSIBLE>,<INACCESSIBLE>,US,<MISSING>,9054707887,<MISSING>,43.8491335,-79.3239632,"Sunday: 11:30, 20:00, Monday: 11:30, 20:00, Tuesday: 11:30, 21:30, Wednesday: 11:30, 20:00, Thursday: 11:30, 20:00, Friday: 11:30, 21:30, Saturday: 11:30, 21:30","169 Enterprise Boulevard  unit L105  Markham,  ON L6G 0E7"
https://thaiexpress.ca/wp-content/plugins/superstorefinder-wp/ssf-wp-xml.php?wpml_lang=en&t=1564582064002,Drummondville,<INACCESSIBLE>,<INACCESSIBLE>,<INACCESSIBLE>,<INACCESSIBLE>,US,<MISSING>,8198505640,<MISSING>,45.8943602,-72.5149017,"Sunday: 11:00, 22:00, Monday: 11:00, 22:00, Tuesday: 11:00, 22:00, Wednesday: 11:00, 22:00, Thursday: 11:00, 22:00, Friday: 11:00, 22:00, Saturday: 11:00, 22:00","520 boulevard Saint-Joseph  Drummondville,  QC J2C 2B8"
https://thaiexpress.ca/wp-content/plugins/superstorefinder-wp/ssf-wp-xml.php?wpml_lang=en&t=1564582064002,Dufferin Mall,<INACCESSIBLE>,<INACCESSIBLE>,<INACCESSIBLE>,<INACCESSIBLE>,US,<MISSING>,4165314280,<MISSING>,43.6563311,-79.4353349,"Sunday: 10:00, 18:00, Monday: 10:00, 21:00, Tuesday: 10:00, 21:00, Wednesday: 10:00, 21:00, Thursday: 10:00, 21:00, Friday: 10:00, 21:00, Saturday: 10:00, 21:00","900 Dufferin Street  Toronto,  ON M6H 4B1"
https://thaiexpress.ca/wp-content/plugins/superstorefinder-wp/ssf-wp-xml.php?wpml_lang=en&t=1564582064002,Eastgate Square,<INACCESSIBLE>,<INACCESSIBLE>,<INACCESSIBLE>,<INACCESSIBLE>,US,<MISSING>,9055608788,<MISSING>,43.2308333,-79.7657856,"Sunday: 11:00, 17:00, Monday: 10:00, 21:00, Tuesday: 10:00, 21:00, Wednesday: 10:00, 21:00, Thursday: 10:00, 21:00, Friday: 10:00, 21:00, Saturday: 09:30, 18:00","75 Centennial Parkway North  Stoney Creek,  ON L8E 2P2"
https://thaiexpress.ca/wp-content/plugins/superstorefinder-wp/ssf-wp-xml.php?wpml_lang=en&t=1564582064002,Edmonton City Centre,<INACCESSIBLE>,<INACCESSIBLE>,<INACCESSIBLE>,<INACCESSIBLE>,US,<MISSING>,7809900128,<MISSING>,53.5437272,-113.4946539,"Sunday: 12:00, 17:00, Monday: 10:00, 18:00, Tuesday: 10:00, 18:00, Wednesday: 10:00, 18:00, Thursday: 10:00, 20:00, Friday: 10:00, 20:00, Saturday: 10:00, 18:00","FC09 10025 102A Avenue Edmonton City Center  Edmonton,  AB T5J 4H5"
https://thaiexpress.ca/wp-content/plugins/superstorefinder-wp/ssf-wp-xml.php?wpml_lang=en&t=1564582064002,Erin Mills Town Centre,<INACCESSIBLE>,<INACCESSIBLE>,<INACCESSIBLE>,<INACCESSIBLE>,US,<MISSING>,9056072903,<MISSING>,43.5584112,-79.7117817,"Sunday: 11:00, 18:00, Monday: 11:00, 21:00, Tuesday: 11:00, 21:00, Wednesday: 11:00, 21:00, Thursday: 11:00, 21:00, Friday: 11:00, 21:00, Saturday: 11:00, 18:00","5100 Erin Mills Parkway #F-011  Mississauga,  ON L5M 4Z5"
https://thaiexpress.ca/wp-content/plugins/superstorefinder-wp/ssf-wp-xml.php?wpml_lang=en&t=1564582064002,Faubourg Boisbriand,<INACCESSIBLE>,<INACCESSIBLE>,<INACCESSIBLE>,<INACCESSIBLE>,US,<MISSING>,4504355492,<MISSING>,45.6297375,-73.8483221,"Sunday: 11:00, 20:00, Monday: 11:00, 20:00, Tuesday: 11:00, 20:00, Wednesday: 11:00, 21:00, Thursday: 11:00, 21:00, Friday: 11:00, 21:00, Saturday: 11:00, 20:00","3480 avenue des Grandes Tourelles  Boisbriand,  QC J7H 0A2"
https://thaiexpress.ca/wp-content/plugins/superstorefinder-wp/ssf-wp-xml.php?wpml_lang=en&t=1564582064002,Faubourg Delson,<INACCESSIBLE>,<INACCESSIBLE>,<INACCESSIBLE>,<INACCESSIBLE>,US,<MISSING>,4506389888,<MISSING>,45.3839874,-73.5423148,"Sunday: 11:00, 21:00, Monday: 11:00, 21:00, Tuesday: 11:00, 21:00, Wednesday: 11:00, 21:00, Thursday: 11:00, 21:00, Friday: 11:00, 21:00, Saturday: 11:00, 21:00","68 route 132  Delson,  QC J5B 0A1"
https://thaiexpress.ca/wp-content/plugins/superstorefinder-wp/ssf-wp-xml.php?wpml_lang=en&t=1564582064002,First Place St Catharines,<INACCESSIBLE>,<INACCESSIBLE>,<INACCESSIBLE>,<INACCESSIBLE>,US,<MISSING>,9059883635,<MISSING>,43.1563131,-79.2609078,"Sunday: 11:00, 21:00, Monday: 11:00, 21:00, Tuesday: 11:00, 21:00, Wednesday: 11:00, 21:00, Thursday: 11:00, 21:00, Friday: 11:00, 21:00, Saturday: 11:00, 21:00","300E  Fourth Avenue  Unit 8 St. Catharines,  ON L2S 0E6"
https://thaiexpress.ca/wp-content/plugins/superstorefinder-wp/ssf-wp-xml.php?wpml_lang=en&t=1564582064002,Flamingo NV,<INACCESSIBLE>,<INACCESSIBLE>,<INACCESSIBLE>,<INACCESSIBLE>,US,<MISSING>,7022721075,<MISSING>,36.114181,-115.259912,"Sunday: 11:00, 21:00, Monday: 11:00, 21:00, Tuesday: 11:00, 21:00, Wednesday: 11:00, 21:00, Thursday: 11:00, 21:00, Friday: 11:00, 21:00, Saturday: 11:00, 21:00","97773 W Flamingo Road&#44; Suite 2  Las Vegas,  NV 89147"
https://thaiexpress.ca/wp-content/plugins/superstorefinder-wp/ssf-wp-xml.php?wpml_lang=en&t=1564582064002,Flamingo NV,<INACCESSIBLE>,<INACCESSIBLE>,<INACCESSIBLE>,<INACCESSIBLE>,US,<MISSING>,7022721075,<MISSING>,56.130366,-106.346771,"Sunday: 11:00, 21:00, Monday: 11:00, 21:00, Tuesday: 11:00, 21:00, Wednesday: 11:00, 21:00, Thursday: 11:00, 21:00, Friday: 11:00, 21:00, Saturday: 11:00, 21:00","97773 W Flamingo Road&#44; Suite 2  Las Vegas,  NV 89147"
https://thaiexpress.ca/wp-content/plugins/superstorefinder-wp/ssf-wp-xml.php?wpml_lang=en&t=1564582064002,Fleurimont,<INACCESSIBLE>,<INACCESSIBLE>,<INACCESSIBLE>,<INACCESSIBLE>,US,<MISSING>,8198221881,<MISSING>,45.4340138,-71.8689376,"Sunday: 11:00, 21:00, Monday: 11:00, 21:00, Tuesday: 11:00, 21:00, Wednesday: 11:00, 21:00, Thursday: 11:00, 21:00, Friday: 11:00, 22:00, Saturday: 11:00, 21:00","2015 12e avenue N #540  Sherbrooke,  QC J1E 4J5"
https://thaiexpress.ca/wp-content/plugins/superstorefinder-wp/ssf-wp-xml.php?wpml_lang=en&t=1564582064002,Frank Lloyd Wright AZ,<INACCESSIBLE>,<INACCESSIBLE>,<INACCESSIBLE>,<INACCESSIBLE>,US,<MISSING>,4806578213,<MISSING>,33.6285999,-111.8893139,"Sunday: 11:00, 20:00, Monday: 11:00, 21:00, Tuesday: 11:00, 21:00, Wednesday: 11:00, 21:00, Thursday: 11:00, 21:00, Friday: 11:00, 21:00, Saturday: 11:00, 21:00","15686 N. Frank Lloyd Wright&#44; Suite E3  Scottsdale,  AZ 85260"
https://thaiexpress.ca/wp-content/plugins/superstorefinder-wp/ssf-wp-xml.php?wpml_lang=en&t=1564582064002,Galerie du Parc,<INACCESSIBLE>,<INACCESSIBLE>,<INACCESSIBLE>,<INACCESSIBLE>,US,<MISSING>,5144477479,<MISSING>,45.510319,-73.5750033,"Sunday: 11:00, 23:00, Monday: 11:00, 23:00, Tuesday: 11:00, 23:00, Wednesday: 11:00, 23:00, Thursday: 11:00, 23:00, Friday: 11:00, 23:00, Saturday: 11:00, 23:00","3550 Avenue du Parc  Montreal,  QC H2X 3P9"
https://thaiexpress.ca/wp-content/plugins/superstorefinder-wp/ssf-wp-xml.php?wpml_lang=en&t=1564582064002,Galeries de la Capitale,<INACCESSIBLE>,<INACCESSIBLE>,<INACCESSIBLE>,<INACCESSIBLE>,US,<MISSING>,4182609797,<MISSING>,46.8311593,-71.2990936,"Sunday: 11:00, 17:00, Monday: 11:00, 17:00, Tuesday: 11:00, 17:00, Wednesday: 11:00, 17:00, Thursday: 11:00, 21:00, Friday: 11:00, 21:00, Saturday: 11:00, 17:00","5401 boulevard des Galeries  Quebec,  QC G2K 1N4"
https://thaiexpress.ca/wp-content/plugins/superstorefinder-wp/ssf-wp-xml.php?wpml_lang=en&t=1564582064002,Galeries Joliette,<INACCESSIBLE>,<INACCESSIBLE>,<INACCESSIBLE>,<INACCESSIBLE>,US,<MISSING>,4507528878,<MISSING>,46.0327605,-73.4246143,"Sunday: 11:00, 17:00, Monday: 11:00, 17:00, Tuesday: 11:00, 17:00, Wednesday: 11:00, 17:00, Thursday: 11:00, 21:00, Friday: 11:00, 21:00, Saturday: 11:00, 17:00","1075 boulevard Firestone  Joliette,  QC J6E 6X6"
https://thaiexpress.ca/wp-content/plugins/superstorefinder-wp/ssf-wp-xml.php?wpml_lang=en&t=1564582064002,Galeries Saint-Laurent,<INACCESSIBLE>,<INACCESSIBLE>,<INACCESSIBLE>,<INACCESSIBLE>,US,<MISSING>,5143317575,<MISSING>,45.5188902,-73.7002104,"Sunday: 11:00, 20:00, Monday: 11:00, 21:00, Tuesday: 11:00, 21:00, Wednesday: 11:00, 21:00, Thursday: 11:00, 21:00, Friday: 11:00, 21:00, Saturday: 11:00, 20:00","1995 boulevard Marcel-Laurin  Saint-Laurent,  QC H4R 1K4"
https://thaiexpress.ca/wp-content/plugins/superstorefinder-wp/ssf-wp-xml.php?wpml_lang=en&t=1564582064002,Garden City Shopping Centre,<INACCESSIBLE>,<INACCESSIBLE>,<INACCESSIBLE>,<INACCESSIBLE>,US,<MISSING>,2045051168,<MISSING>,49.950629,-97.1444712,"Sunday: 11:00, 18:00, Monday: 9:30, 21:00, Tuesday: 9:30, 21:00, Wednesday: 9:30, 21:00, Thursday: 9:30, 21:00, Friday: 9:30, 21:00, Saturday: 9:30, 18:00","2305 McPhillips Street Unit 321  Winnipeg,  MB R2V 3E1"
https://thaiexpress.ca/wp-content/plugins/superstorefinder-wp/ssf-wp-xml.php?wpml_lang=en&t=1564582064002,Georgian Mall,<INACCESSIBLE>,<INACCESSIBLE>,<INACCESSIBLE>,<INACCESSIBLE>,US,<MISSING>,7057197140,<MISSING>,44.4132753,-79.7090835,"Sunday: 11:00, 17:00, Monday: 10:00, 21:00, Tuesday: 10:00, 21:00, Wednesday: 10:00, 21:00, Thursday: 10:00, 21:00, Friday: 10:00, 21:00, Saturday: 10:00, 18:00","509 Bayfield Street  Barrie,  ON L4M 4Z8"
https://thaiexpress.ca/wp-content/plugins/superstorefinder-wp/ssf-wp-xml.php?wpml_lang=en&t=1564582064002,Granby,<INACCESSIBLE>,<INACCESSIBLE>,<INACCESSIBLE>,<INACCESSIBLE>,US,<MISSING>,4503789133,<MISSING>,45.413649,-72.7533709,"Sunday: 11:00, 21:00, Monday: 11:00, 21:00, Tuesday: 11:00, 21:00, Wednesday: 11:00, 21:00, Thursday: 11:00, 22:00, Friday: 11:00, 22:00, Saturday: 11:00, 22:00","880 rue Principale  Granby,  QC J2G 2Z3"
https://thaiexpress.ca/wp-content/plugins/superstorefinder-wp/ssf-wp-xml.php?wpml_lang=en&t=1564582064002,Guildford Town Centre,<INACCESSIBLE>,<INACCESSIBLE>,<INACCESSIBLE>,<INACCESSIBLE>,US,<MISSING>,6044985575,<MISSING>,49.1904168,-122.803713,"Sunday: 11:00, 18:00, Monday: 11:00, 21:00, Tuesday: 11:00, 21:00, Wednesday: 11:00, 21:00, Thursday: 11:00, 21:00, Friday: 11:00, 21:00, Saturday: 11:00, 21:00","10355 152 Street  Surrey,  BC V3R 7C1"
https://thaiexpress.ca/wp-content/plugins/superstorefinder-wp/ssf-wp-xml.php?wpml_lang=en&t=1564582064002,Halifax Shopping Centre,<INACCESSIBLE>,<INACCESSIBLE>,<INACCESSIBLE>,<INACCESSIBLE>,US,<MISSING>,9024445500,<MISSING>,44.6491246,-63.6186647,"Sunday: 12:00, 17:00, Monday: 11:00, 21:00, Tuesday: 11:00, 21:00, Wednesday: 11:00, 21:00, Thursday: 11:00, 21:00, Friday: 11:00, 21:00, Saturday: 11:00, 21:00","7001 Mumford Road  Halifax,  NS B3L 4N9"
https://thaiexpress.ca/wp-content/plugins/superstorefinder-wp/ssf-wp-xml.php?wpml_lang=en&t=1564582064002,Harbour Centre Complex,<INACCESSIBLE>,<INACCESSIBLE>,<INACCESSIBLE>,<INACCESSIBLE>,US,<MISSING>,6046960090,<MISSING>,49.2846966,-123.1119349,"Sunday: Closed, Monday: 10:00, 18:00, Tuesday: 10:00, 18:00, Wednesday: 10:00, 18:00, Thursday: 10:00, 18:00, Friday: 10:00, 18:00, Saturday: 10:00, 18:00","555 West Hastings Street  Vancouver,  BC V6B 4N4"
https://thaiexpress.ca/wp-content/plugins/superstorefinder-wp/ssf-wp-xml.php?wpml_lang=en&t=1564582064002,Hawkesbury,<INACCESSIBLE>,<INACCESSIBLE>,<INACCESSIBLE>,<INACCESSIBLE>,US,<MISSING>,6136324888,<MISSING>,45.5893904,-74.5884071,"Sunday: 11:00, 21:00, Monday: 11:00, 21:00, Tuesday: 11:00, 21:00, Wednesday: 11:00, 21:00, Thursday: 11:00, 21:00, Friday: 11:00, 21:00, Saturday: 11:00, 21:00","450 Highway 17  Hawkesbury,  ON K6A 2R2"
https://thaiexpress.ca/wp-content/plugins/superstorefinder-wp/ssf-wp-xml.php?wpml_lang=en&t=1564582064002,Hazeldean / Grant Crossing Centre,<INACCESSIBLE>,<INACCESSIBLE>,<INACCESSIBLE>,<INACCESSIBLE>,US,<MISSING>,6138364446,<MISSING>,45.2897335,-75.9024048,"Sunday: 11:00, 20:00, Monday: 11:00, 21:00, Tuesday: 11:00, 21:00, Wednesday: 11:00, 21:00, Thursday: 11:00, 21:00, Friday: 11:00, 21:00, Saturday: 11:00, 21:00","5507 Hazeldean Road  Kanata,  ON K2S 0P5"
https://thaiexpress.ca/wp-content/plugins/superstorefinder-wp/ssf-wp-xml.php?wpml_lang=en&t=1564582064002,Henderson NV,<INACCESSIBLE>,<INACCESSIBLE>,<INACCESSIBLE>,<INACCESSIBLE>,US,<MISSING>,7029822822,<MISSING>,36.0631269,-115.0453743,"Sunday: 11:00, 21:00, Monday: 11:00, 21:00, Tuesday: 11:00, 21:00, Wednesday: 11:00, 21:00, Thursday: 11:00, 21:00, Friday: 11:00, 22:00, Saturday: 11:00, 22:00","1381 W. Sunset Rd&#44; Suite #160  Henderson,  NV 89014"
https://thaiexpress.ca/wp-content/plugins/superstorefinder-wp/ssf-wp-xml.php?wpml_lang=en&t=1564582064002,Hendreson&#44; NV,<INACCESSIBLE>,<INACCESSIBLE>,<INACCESSIBLE>,<INACCESSIBLE>,US,<MISSING>,7029822822,<MISSING>,36.0631269,-115.0453743,"Sunday: 11:00, 21:00, Monday: 11:00, 21:00, Tuesday: 11:00, 21:00, Wednesday: 11:00, 21:00, Thursday: 11:00, 21:00, Friday: 11:00, 22:00, Saturday: 11:00, 22:00","1381 W. Sunset Rd Suite#160  Henderson,  NV 89014"
https://thaiexpress.ca/wp-content/plugins/superstorefinder-wp/ssf-wp-xml.php?wpml_lang=en&t=1564582064002,Herongate,<INACCESSIBLE>,<INACCESSIBLE>,<INACCESSIBLE>,<INACCESSIBLE>,US,<MISSING>,6132605888,<MISSING>,45.3796212,-75.6460848,"Sunday: 11:00, 9:00, Monday: 11:00, 9:00, Tuesday: 11:00, 9:00, Wednesday: 11:00, 9:00, Thursday: 11:00, 9:00, Friday: 11:00, 9:00, Saturday: 11:00, 9:00","Unit 9  - 1600 Heron Road  Ottawa,  ON K1V 2P5"
https://thaiexpress.ca/wp-content/plugins/superstorefinder-wp/ssf-wp-xml.php?wpml_lang=en&t=1564582064002,Hillcrest Mall,<INACCESSIBLE>,<INACCESSIBLE>,<INACCESSIBLE>,<INACCESSIBLE>,US,<MISSING>,9057708712,<MISSING>,43.8539315,-79.4377754,"Sunday: 11:00, 18:00, Monday: 11:00, 21:00, Tuesday: 11:00, 21:00, Wednesday: 11:00, 21:00, Thursday: 11:00, 21:00, Friday: 11:00, 21:00, Saturday: 11:00, 18:00","9350 Yonge Street  Richmond Hill,  ON L4C 5G2"
https://thaiexpress.ca/wp-content/plugins/superstorefinder-wp/ssf-wp-xml.php?wpml_lang=en&t=1564582064002,Hudson&#39;s Bay Centre,<INACCESSIBLE>,<INACCESSIBLE>,<INACCESSIBLE>,<INACCESSIBLE>,US,<MISSING>,4169261023,<MISSING>,43.6710978,-79.386063,"Monday: 11:00am, 9:00pm, Tuesday: 11:00am, 9:00pm, Wednesday: 11:00am, 9:00pm, Thursday: 11:00am, 9:00pm, Friday: 11:00am, 9:00pm, Saturday: 11:00am, 6:00pm, Sunday: 11:00am, 6:00pm","2 Bloor Street East  Toronto,  ON M4W 1A8"
https://thaiexpress.ca/wp-content/plugins/superstorefinder-wp/ssf-wp-xml.php?wpml_lang=en&t=1564582064002,Humber River Hospital,<INACCESSIBLE>,<INACCESSIBLE>,<INACCESSIBLE>,<INACCESSIBLE>,US,<MISSING>,4162414050,<MISSING>,43.723672,-79.488574,"Sunday: 11:00, 20:00, Monday: 10:00, 21:00, Tuesday: 10:00, 21:00, Wednesday: 10:00, 21:00, Thursday: 10:00, 21:00, Friday: 10:00, 21:00, Saturday: 11:00, 20:00","1235 Wilson Avenue Unit 2  Level 0  Toronto,  ON M3M 0B2"
https://thaiexpress.ca/wp-content/plugins/superstorefinder-wp/ssf-wp-xml.php?wpml_lang=en&t=1564582064002,Hunt Club,<INACCESSIBLE>,<INACCESSIBLE>,<INACCESSIBLE>,<INACCESSIBLE>,US,<MISSING>,6132248228,<MISSING>,45.3380561,-75.7155521,"Sunday: 11:00, 20:00, Monday: 11:00, 21:00, Tuesday: 11:00, 21:00, Wednesday: 11:00, 21:00, Thursday: 11:00, 21:00, Friday: 11:00, 21:00, Saturday: 11:00, 21:00","330 West Hunt Club Road  Ottawa,  ON K2E 0B7"
https://thaiexpress.ca/wp-content/plugins/superstorefinder-wp/ssf-wp-xml.php?wpml_lang=en&t=1564582064002,Innes Road,<INACCESSIBLE>,<INACCESSIBLE>,<INACCESSIBLE>,<INACCESSIBLE>,US,<MISSING>,6138245432,<MISSING>,45.4497538,-75.5172222,"Sunday: 11:00, 20:00, Monday: 11:00, 21:00, Tuesday: 11:00, 21:00, Wednesday: 11:00, 21:00, Thursday: 11:00, 21:00, Friday: 11:00, 22:00, Saturday: 11:00, 21:00","3712 Innes Road  Orleans,  ON K1W 0C8"
https://thaiexpress.ca/wp-content/plugins/superstorefinder-wp/ssf-wp-xml.php?wpml_lang=en&t=1564582064002,Intercity Shopping Centre,<INACCESSIBLE>,<INACCESSIBLE>,<INACCESSIBLE>,<INACCESSIBLE>,US,<MISSING>,8076226047,<MISSING>,48.4022692,-89.2440292,"Sunday: 12:00, 17:00, Monday: 11:00, 21:00, Tuesday: 11:00, 21:00, Wednesday: 11:00, 21:00, Thursday: 11:00, 21:00, Friday: 11:00, 21:00, Saturday: 11:00, 18:00","1000 Fort William Road  Thunder Bay,  ON P7B 6B9"
https://thaiexpress.ca/wp-content/plugins/superstorefinder-wp/ssf-wp-xml.php?wpml_lang=en&t=1564582064002,Joliette,<INACCESSIBLE>,<INACCESSIBLE>,<INACCESSIBLE>,<INACCESSIBLE>,US,<MISSING>,4507603778,<MISSING>,46.036765,-73.4425939,"Sunday: 11:00, 17:00, Monday: 11:00, 17:00, Tuesday: 11:00, 17:00, Wednesday: 11:00, 17:00, Thursday: 11:00, 21:00, Friday: 11:00, 21:00, Saturday: 11:00, 17:00","555 Saint-Charles-Borromee  Joliette,  QC J6E 4S5"
https://thaiexpress.ca/wp-content/plugins/superstorefinder-wp/ssf-wp-xml.php?wpml_lang=en&t=1564582064002,Jonquiere,<INACCESSIBLE>,<INACCESSIBLE>,<INACCESSIBLE>,<INACCESSIBLE>,US,<MISSING>,4184126020,<MISSING>,48.4132034,-71.2455138,"Sunday: 11:00, 20:00, Monday: 11:00, 20:00, Tuesday: 11:00, 20:00, Wednesday: 11:00, 21:00, Thursday: 11:00, 21:00, Friday: 11:00, 21:00, Saturday: 11:00, 21:00","3821 boulevard Harvey  Jonquiere,  QC G7X 3B7"
https://thaiexpress.ca/wp-content/plugins/superstorefinder-wp/ssf-wp-xml.php?wpml_lang=en&t=1564582064002,Kingsway Mall,<INACCESSIBLE>,<INACCESSIBLE>,<INACCESSIBLE>,<INACCESSIBLE>,US,<MISSING>,7804910138,<MISSING>,53.564022,-113.508534,"Sunday: 11:00, 17:00, Monday: 10:00, 21:00, Tuesday: 10:00, 21:00, Wednesday: 10:00, 21:00, Thursday: 10:00, 21:00, Friday: 10:00, 21:00, Saturday: 9:30, 18:00","109 Street &amp; Princess Elizabeth Ave. #425  Edmonton,  AB T5G 3A6"
https://thaiexpress.ca/wp-content/plugins/superstorefinder-wp/ssf-wp-xml.php?wpml_lang=en&t=1564582064002,Kirkland,<INACCESSIBLE>,<INACCESSIBLE>,<INACCESSIBLE>,<INACCESSIBLE>,US,<MISSING>,5144263581,<MISSING>,45.4418606,-73.88666,"Sunday: 11:00, 21:00, Monday: 11:00, 21:00, Tuesday: 11:00, 22:00, Wednesday: 11:00, 22:00, Thursday: 11:00, 22:00, Friday: 11:00, 22:00, Saturday: 11:00, 22:00","3420 rue Jean-Yves  Kirkland,  QC H9J 2R6"
https://thaiexpress.ca/wp-content/plugins/superstorefinder-wp/ssf-wp-xml.php?wpml_lang=en&t=1564582064002,L&#39;assomption,<INACCESSIBLE>,<INACCESSIBLE>,<INACCESSIBLE>,<INACCESSIBLE>,US,<MISSING>,4505898880,<MISSING>,45.8358737,-73.4127626,"Sunday: 11:00, 21:00, Monday: 11:00, 21:00, Tuesday: 11:00, 21:00, Wednesday: 11:00, 21:00, Thursday: 11:00, 21:00, Friday: 11:00, 21:00, Saturday: 11:00, 21:00","788 Montee St-Sulpice - Local 104  L&amp;#39;Assomption,  QC J5W 0M6"
https://thaiexpress.ca/wp-content/plugins/superstorefinder-wp/ssf-wp-xml.php?wpml_lang=en&t=1564582064002,La Prairie,<INACCESSIBLE>,<INACCESSIBLE>,<INACCESSIBLE>,<INACCESSIBLE>,US,<MISSING>,4504443000,<MISSING>,45.4065093,-73.4984715,"Sunday: 11:00, 21:00, Monday: 11:00, 21:00, Tuesday: 11:00, 21:00, Wednesday: 11:00, 21:00, Thursday: 11:00, 21:00, Friday: 11:00, 21:00, Saturday: 11:00, 21:00","1028 boulevard Taschereau  La Prairie,  QC J4R 1W6"
https://thaiexpress.ca/wp-content/plugins/superstorefinder-wp/ssf-wp-xml.php?wpml_lang=en&t=1564582064002,LACHUTE,<INACCESSIBLE>,<INACCESSIBLE>,<INACCESSIBLE>,<INACCESSIBLE>,US,<MISSING>,4505624188,<MISSING>,45.6349008,-74.3266799,"Sunday: 11:00, 21:00, Monday: 11:00, 21:00, Tuesday: 11:00, 21:00, Wednesday: 11:00, 21:00, Thursday: 11:00, 21:00, Friday: 11:00, 21:00, Saturday: 11:00, 21:00","501&#44; av. Béthany&#44; Qc&#44; Canada  Lachute,  QC J8H 4H5"
https://thaiexpress.ca/wp-content/plugins/superstorefinder-wp/ssf-wp-xml.php?wpml_lang=en&t=1564582064002,Lambton Mall,<INACCESSIBLE>,<INACCESSIBLE>,<INACCESSIBLE>,<INACCESSIBLE>,US,<MISSING>,5195410777,<MISSING>,42.9824996,-82.3523063,"Sunday: 11:00, 17:00, Monday: 11:00, 21:00, Tuesday: 11:00, 21:00, Wednesday: 11:00, 21:00, Thursday: 11:00, 21:00, Friday: 11:00, 21:00, Saturday: 11:00, 21:00","1380 London Road  Sarnia,  ON N7S 1P8"
https://thaiexpress.ca/wp-content/plugins/superstorefinder-wp/ssf-wp-xml.php?wpml_lang=en&t=1564582064002,Landsdowne Place,<INACCESSIBLE>,<INACCESSIBLE>,<INACCESSIBLE>,<INACCESSIBLE>,US,<MISSING>,7057493309,<MISSING>,44.2852395,-78.3320006,"Sunday: 11:00, 17:00, Monday: 11:00, 21:00, Tuesday: 11:00, 21:00, Wednesday: 11:00, 21:00, Thursday: 11:00, 21:00, Friday: 11:00, 21:00, Saturday: 11:00, 18:00","645 Lansdowne Street West  Peterborough,  ON K9J 7Y5"
https://thaiexpress.ca/wp-content/plugins/superstorefinder-wp/ssf-wp-xml.php?wpml_lang=en&t=1564582064002,Lauriel Friel,<INACCESSIBLE>,<INACCESSIBLE>,<INACCESSIBLE>,<INACCESSIBLE>,US,<MISSING>,6132332119,<MISSING>,45.4267061,-75.6803121,<MISSING>,"265 Laurier Avenue East  Ottawa,  Ontario K1N 6P7"
https://thaiexpress.ca/wp-content/plugins/superstorefinder-wp/ssf-wp-xml.php?wpml_lang=en&t=1564582064002,Laval Est,<INACCESSIBLE>,<INACCESSIBLE>,<INACCESSIBLE>,<INACCESSIBLE>,US,<MISSING>,4506616288,<MISSING>,45.6109855,-73.7009972,"Sunday: 11:00, 20:00, Monday: 11:00, 20:30, Tuesday: 11:00, 20:30, Wednesday: 11:00, 21:00, Thursday: 11:00, 21:00, Friday: 11:00, 21:00, Saturday: 11:00, 20:00","5720 boulevard Robert-Bourassa  Laval,  QC H7E 0A5"
https://thaiexpress.ca/wp-content/plugins/superstorefinder-wp/ssf-wp-xml.php?wpml_lang=en&t=1564582064002,Le Campanille,<INACCESSIBLE>,<INACCESSIBLE>,<INACCESSIBLE>,<INACCESSIBLE>,US,<MISSING>,5144192816,<MISSING>,45.467466,-73.541667,"Sunday: 11:00, 21:00, Monday: 11:00, 21:00, Tuesday: 11:00, 21:00, Wednesday: 11:00, 21:00, Thursday: 11:00, 21:00, Friday: 11:00, 21:00, Saturday: 11:00, 21:00","38 Place du Commerceasuite 14  Ile des Soeurs,  QC H3E 1T8"
https://thaiexpress.ca/wp-content/plugins/superstorefinder-wp/ssf-wp-xml.php?wpml_lang=en&t=1564582064002,Les Cours Mont-Royal,<INACCESSIBLE>,<INACCESSIBLE>,<INACCESSIBLE>,<INACCESSIBLE>,US,<MISSING>,5148421688,<MISSING>,45.5003292,-73.5735359,"Sunday: 11:00, 17:00, Monday: 11:00, 18:00, Tuesday: 11:00, 18:00, Wednesday: 11:00, 18:00, Thursday: 11:00, 21:00, Friday: 11:00, 21:00, Saturday: 11:00, 17:00","1455 rue Peel  Montreal,  QC H3A 1T5"
https://thaiexpress.ca/wp-content/plugins/superstorefinder-wp/ssf-wp-xml.php?wpml_lang=en&t=1564582064002,Les Galeries Normandie,<INACCESSIBLE>,<INACCESSIBLE>,<INACCESSIBLE>,<INACCESSIBLE>,US,<MISSING>,5147458787,<MISSING>,45.5363175,-73.7002101,"Sunday: 11:00, 21:00, Monday: 11:00, 21:00, Tuesday: 11:00, 21:00, Wednesday: 11:00, 21:00, Thursday: 11:00, 21:00, Friday: 11:00, 21:00, Saturday: 11:00, 21:00","2910 rue de Salaberry  Montreal,  QC H3M 1L3"
https://thaiexpress.ca/wp-content/plugins/superstorefinder-wp/ssf-wp-xml.php?wpml_lang=en&t=1564582064002,Les Halles D&#39;Anjou,<INACCESSIBLE>,<INACCESSIBLE>,<INACCESSIBLE>,<INACCESSIBLE>,US,<MISSING>,5143555541,<MISSING>,45.5980184,-73.5675366,"Sunday: 10:00, 18:00, Monday: 10:00, 18:00, Tuesday: 10:00, 18:00, Wednesday: 10:00, 18:00, Thursday: 10:00, 21:00, Friday: 10:00, 21:00, Saturday: 10:00, 21:00","7500 boulevard des Galeries d  Anjou,  QC H1M 3M4"
https://thaiexpress.ca/wp-content/plugins/superstorefinder-wp/ssf-wp-xml.php?wpml_lang=en&t=1564582064002,Les Halles de la Gare,<INACCESSIBLE>,<INACCESSIBLE>,<INACCESSIBLE>,<INACCESSIBLE>,US,<MISSING>,5148714724,<MISSING>,45.4999489,-73.5666644,"Sunday: 11:00, 19:00, Monday: 11:00, 19:00, Tuesday: 11:00, 19:00, Wednesday: 11:00, 19:00, Thursday: 11:00, 19:00, Friday: 11:00, 19:00, Saturday: 11:00, 19:00","895 rue de la Gauchetiere Ouest  Montreal,  QC H3B 4G1"
https://thaiexpress.ca/wp-content/plugins/superstorefinder-wp/ssf-wp-xml.php?wpml_lang=en&t=1564582064002,LondenDerry Mall,<INACCESSIBLE>,<INACCESSIBLE>,<INACCESSIBLE>,<INACCESSIBLE>,US,<MISSING>,,<MISSING>,53.6023404,-113.445584,"Monday: 10:00, 21:00, Tuesday: 10:00, 21:00, Wednesday: 10:00, 21:00, Thursday: 10:00, 21:00, Friday: 10:00, 21:00, Saturday: 09:30, 17:30, Sunday: 12:00, 17:00","FC06&#44; 1 LondonDerry Mall&#44;  Edmonton,  AB T5C 3C8"
https://thaiexpress.ca/wp-content/plugins/superstorefinder-wp/ssf-wp-xml.php?wpml_lang=en&t=1564582064002,Louis Boheme,<INACCESSIBLE>,<INACCESSIBLE>,<INACCESSIBLE>,<INACCESSIBLE>,US,<MISSING>,5144198437,<MISSING>,45.5068418,-73.5688434,"Sunday: 11:00, 23:00, Monday: 11:00, 23:00, Tuesday: 11:00, 23:00, Wednesday: 11:00, 23:00, Thursday: 11:00, 23:00, Friday: 11:00, 23:00, Saturday: 11:00, 23:00","1504 rue Bleury  Montreal,  QC H3A 2J2"
https://thaiexpress.ca/wp-content/plugins/superstorefinder-wp/ssf-wp-xml.php?wpml_lang=en&t=1564582064002,Mail Champlain,<INACCESSIBLE>,<INACCESSIBLE>,<INACCESSIBLE>,<INACCESSIBLE>,US,<MISSING>,4506719036,<MISSING>,45.4715857,-73.4716105,"Sunday: 11:00, 17:00, Monday: 11:00, 18:00, Tuesday: 11:00, 18:00, Wednesday: 11:00, 21:00, Thursday: 11:00, 21:00, Friday: 11:00, 21:00, Saturday: 11:00, 17:00","2151 boulevard  Lapiniere  Brossard,  QC J4W 2T5"
https://thaiexpress.ca/wp-content/plugins/superstorefinder-wp/ssf-wp-xml.php?wpml_lang=en&t=1564582064002,Mall of America&#44; MN,<INACCESSIBLE>,<INACCESSIBLE>,<INACCESSIBLE>,<INACCESSIBLE>,US,<MISSING>,9523033880,<MISSING>,44.8563628,-93.2426366,"Sunday: 11:00, 19:00, Monday: 10:00, 21:30, Tuesday: 10:00, 21:30, Wednesday: 10:00, 21:30, Thursday: 10:00, 21:30, Friday: 10:00, 21:30, Saturday: 10:00, 21:30","60 E. Broadway C335   Bloomington,  MN 55425"
https://thaiexpress.ca/wp-content/plugins/superstorefinder-wp/ssf-wp-xml.php?wpml_lang=en&t=1564582064002,Mall of America&#44; MN,<INACCESSIBLE>,<INACCESSIBLE>,<INACCESSIBLE>,<INACCESSIBLE>,US,<MISSING>,9523033880,<MISSING>,44.8544766,-93.2401046,"Sunday: 11:00, 19:00, Monday: 10:00, 21:30, Tuesday: 10:00, 21:30, Wednesday: 10:00, 21:30, Thursday: 10:00, 21:30, Friday: 10:00, 21:30, Saturday: 10:00, 21:30","60 E. Broadway&#44; Ste C335  Bloomington,  MN 55425"
https://thaiexpress.ca/wp-content/plugins/superstorefinder-wp/ssf-wp-xml.php?wpml_lang=en&t=1564582064002,Manning Town Centre,<INACCESSIBLE>,<INACCESSIBLE>,<INACCESSIBLE>,<INACCESSIBLE>,US,<MISSING>,5875218819,<MISSING>,53.6159111,-113.3974033,"Sunday: 11:00, 21:00, Monday: 11:00, 21:00, Tuesday: 11:00, 21:00, Wednesday: 11:00, 21:00, Thursday: 11:00, 22:00, Friday: 11:00, 22:00, Saturday: 11:00, 22:00","15367 37 street NW  Edmonton,  AB T5Y 0S5"
https://thaiexpress.ca/wp-content/plugins/superstorefinder-wp/ssf-wp-xml.php?wpml_lang=en&t=1564582064002,Maple Grove&#44; MN,<INACCESSIBLE>,<INACCESSIBLE>,<INACCESSIBLE>,<INACCESSIBLE>,US,<MISSING>,7636570772,<MISSING>,45.0945003,-93.4333308,"Monday: 11:00, 22:00, Tuesday: 11:00, 22:00, Wednesday: 11:00, 22:00, Thursday: 11:00, 22:00, Friday: 11:00, 22:00, Saturday: 11:00, 22:00, Sunday: 11:00, 21:00","11660 Elm Creek Blvd  Maple Grove,  MN 55369"
https://thaiexpress.ca/wp-content/plugins/superstorefinder-wp/ssf-wp-xml.php?wpml_lang=en&t=1564582064002,Marche Central,<INACCESSIBLE>,<INACCESSIBLE>,<INACCESSIBLE>,<INACCESSIBLE>,US,<MISSING>,5143888052,<MISSING>,45.5345582,-73.6597309,"Sunday: 10:00, 21:00, Monday: 10:00, 22:00, Tuesday: 10:00, 22:00, Wednesday: 10:00, 22:00, Thursday: 10:00, 23:00, Friday: 10:00, 23:00, Saturday: 10:00, 22:00","1023 rue du Marche Central  Montreal,  QC H4N 1J8"
https://thaiexpress.ca/wp-content/plugins/superstorefinder-wp/ssf-wp-xml.php?wpml_lang=en&t=1564582064002,Marche Terrebonne,<INACCESSIBLE>,<INACCESSIBLE>,<INACCESSIBLE>,<INACCESSIBLE>,US,<MISSING>,4504339889,<MISSING>,45.6894589,-73.7820093,"Sunday: 11:00, 20:00, Monday: 11:00, 20:00, Tuesday: 11:00, 20:00, Wednesday: 11:00, 20:00, Thursday: 11:00, 21:00, Friday: 11:00, 21:00, Saturday: 11:00, 21:00","1113 rang St-Francois  Terrebonne,  QC J6Y 0C7"
https://thaiexpress.ca/wp-content/plugins/superstorefinder-wp/ssf-wp-xml.php?wpml_lang=en&t=1564582064002,Marlborough Mall,<INACCESSIBLE>,<INACCESSIBLE>,<INACCESSIBLE>,<INACCESSIBLE>,US,<MISSING>,4034571889,<MISSING>,51.0556235,-113.9795181,"Sunday: 12:00, 17:00, Monday: 11:00, 21:00, Tuesday: 11:00, 21:00, Wednesday: 11:00, 21:00, Thursday: 11:00, 21:00, Friday: 11:00, 21:00, Saturday: 11:00, 19:00","3800 Memorial Drive N.E.  Calgary,  AB T2A 2K2"
https://thaiexpress.ca/wp-content/plugins/superstorefinder-wp/ssf-wp-xml.php?wpml_lang=en&t=1564582064002,Masonville Place,<INACCESSIBLE>,<INACCESSIBLE>,<INACCESSIBLE>,<INACCESSIBLE>,US,<MISSING>,5196450754,<MISSING>,43.025599,-81.2783801,"Sunday: 11:00, 17:00, Monday: 11:00, 21:00, Tuesday: 11:00, 21:00, Wednesday: 11:00, 21:00, Thursday: 11:00, 21:00, Friday: 11:00, 21:00, Saturday: 11:00, 19:00","1680 Richmond Street North  London,  ON N6G 3Y9"
https://thaiexpress.ca/wp-content/plugins/superstorefinder-wp/ssf-wp-xml.php?wpml_lang=en&t=1564582064002,Meadowale Town Center,<INACCESSIBLE>,<INACCESSIBLE>,<INACCESSIBLE>,<INACCESSIBLE>,US,<MISSING>,9052869364,<MISSING>,43.5802073,-79.7593169,"Sunday: 11:00, 20:00, Monday: 10:30, 21:00, Tuesday: 10:30, 21:00, Wednesday: 10:30, 21:00, Thursday: 10:30, 21:00, Friday: 10:30, 21:00, Saturday: 10:30, 21:00","6590 Meadowvale Town Circle  Mississauga,  ON L5N 4B7"
https://thaiexpress.ca/wp-content/plugins/superstorefinder-wp/ssf-wp-xml.php?wpml_lang=en&t=1564582064002,Meadowvale North Business Park S.C.,<INACCESSIBLE>,<INACCESSIBLE>,<INACCESSIBLE>,<INACCESSIBLE>,US,<MISSING>,9058128800,<MISSING>,43.6105627,-79.7487108,"Sunday: Closed, Monday: 10:00, 21:00, Tuesday: 10:00, 21:00, Wednesday: 10:00, 21:00, Thursday: 10:00, 21:00, Friday: 10:00, 21:00, Saturday: 10:00, 21:00","6956 Financial Drive #H11  Mississauga,  ON L5N 8J4"
https://thaiexpress.ca/wp-content/plugins/superstorefinder-wp/ssf-wp-xml.php?wpml_lang=en&t=1564582064002,Mega Centre Notre-Dame,<INACCESSIBLE>,<INACCESSIBLE>,<INACCESSIBLE>,<INACCESSIBLE>,US,<MISSING>,4506898118,<MISSING>,45.5346521,-73.790964,"Sunday: 11:00, 20:00, Monday: 11:00, 21:00, Tuesday: 11:00, 21:00, Wednesday: 11:00, 21:00, Thursday: 11:00, 21:00, Friday: 11:00, 21:00, Saturday: 11:00, 21:00","2296 autoroute Chomedy  Laval,  QC H7X 4G8"
https://thaiexpress.ca/wp-content/plugins/superstorefinder-wp/ssf-wp-xml.php?wpml_lang=en&t=1564582064002,Mega Centre Vaudreuil,<INACCESSIBLE>,<INACCESSIBLE>,<INACCESSIBLE>,<INACCESSIBLE>,US,<MISSING>,4505102882,<MISSING>,45.405766,-74.0429899,"Sunday: 11:30, 18:00, Monday: 11:00, 20:00, Tuesday: 11:00, 20:00, Wednesday: 11:00, 20:00, Thursday: 11:00, 20:00, Friday: 11:00, 20:00, Saturday: 11:00, 20:00","3206 boulevard de la Gare  Vaudreuil-Dorion,  QC J7V 8W5"
https://thaiexpress.ca/wp-content/plugins/superstorefinder-wp/ssf-wp-xml.php?wpml_lang=en&t=1564582064002,Metropolis at Metrotown,<INACCESSIBLE>,<INACCESSIBLE>,<INACCESSIBLE>,<INACCESSIBLE>,US,<MISSING>,7783797131,<MISSING>,49.2254918,-122.9967995,"Sunday: 11:00, 18:00, Monday: 10:00, 21:00, Tuesday: 10:00, 21:00, Wednesday: 10:00, 21:00, Thursday: 10:00, 21:00, Friday: 10:00, 21:00, Saturday: 10:00, 21:00","318-4820 Kingsway  Burnaby,  BC V5H 4P1"
https://thaiexpress.ca/wp-content/plugins/superstorefinder-wp/ssf-wp-xml.php?wpml_lang=en&t=1564582064002,Micmac Mall,<INACCESSIBLE>,<INACCESSIBLE>,<INACCESSIBLE>,<INACCESSIBLE>,US,<MISSING>,9024445353,<MISSING>,44.6863394,-63.5595873,"Sunday: 12:00, 17:00, Monday: 11:00, 21:00, Tuesday: 11:00, 21:00, Wednesday: 11:00, 21:00, Thursday: 11:00, 21:00, Friday: 11:00, 21:00, Saturday: 11:00, 21:00","21 Micmac Boulevard  Dartmouth,  NS B3A 4N3"
https://thaiexpress.ca/wp-content/plugins/superstorefinder-wp/ssf-wp-xml.php?wpml_lang=en&t=1564582064002,Milton Commons,<INACCESSIBLE>,<INACCESSIBLE>,<INACCESSIBLE>,<INACCESSIBLE>,US,<MISSING>,9056367850,<MISSING>,43.5272776,-79.866193,"Sunday: 12:00, 21:00, Monday: 11:00, 21:00, Tuesday: 11:00, 21:00, Wednesday: 11:00, 21:00, Thursday: 11:00, 22:00, Friday: 11:00, 22:00, Saturday: 11:00, 21:00","870 Main Street East  Milton,  ON L9T 0J4"
https://thaiexpress.ca/wp-content/plugins/superstorefinder-wp/ssf-wp-xml.php?wpml_lang=en&t=1564582064002,Mirabel,<INACCESSIBLE>,<INACCESSIBLE>,<INACCESSIBLE>,<INACCESSIBLE>,US,<MISSING>,4504334848,<MISSING>,45.7026773,-73.9254195,"Sunday: 11:00, 20:00, Monday: 11:00, 20:00, Tuesday: 11:00, 20:00, Wednesday: 11:00, 20:00, Thursday: 11:00, 21:00, Friday: 11:00, 21:00, Saturday: 11:00, 21:00","17 663 rue Charles  Mirabel,  QC J7J 1P3"
https://thaiexpress.ca/wp-content/plugins/superstorefinder-wp/ssf-wp-xml.php?wpml_lang=en&t=1564582064002,Mont-Laurier,<INACCESSIBLE>,<INACCESSIBLE>,<INACCESSIBLE>,<INACCESSIBLE>,US,<MISSING>,8196231136,<MISSING>,46.5495375,-75.5161034,"Sunday: 11:00, 21:00, Monday: 11:00, 21:00, Tuesday: 11:00, 21:00, Wednesday: 11:00, 21:00, Thursday: 11:00, 21:00, Friday: 11:00, 22:00, Saturday: 11:00, 21:00","2580 Chemin de la Lievre Sud  Mont-Laurier,  QC J9L 3P4"
https://thaiexpress.ca/wp-content/plugins/superstorefinder-wp/ssf-wp-xml.php?wpml_lang=en&t=1564582064002,Mont-Royal Ouest,<INACCESSIBLE>,<INACCESSIBLE>,<INACCESSIBLE>,<INACCESSIBLE>,US,<MISSING>,5142851288,<MISSING>,45.5199456,-73.5866978,"Sunday: 11:00, 21:00, Monday: 11:00, 21:00, Tuesday: 11:00, 21:00, Wednesday: 11:00, 21:00, Thursday: 11:00, 21:00, Friday: 11:00, 21:00, Saturday: 11:00, 21:00","11 rue Mont-Royal Ouest  Montreal,  QC H2T 2R9"
https://thaiexpress.ca/wp-content/plugins/superstorefinder-wp/ssf-wp-xml.php?wpml_lang=en&t=1564582064002,Mount Royal College,<INACCESSIBLE>,<INACCESSIBLE>,<INACCESSIBLE>,<INACCESSIBLE>,US,<MISSING>,4032498087,<MISSING>,51.0138486,-114.1325906,"Sunday: Closed, Monday: 10:00, 19:00, Tuesday: 10:00, 19:00, Wednesday: 10:00, 19:00, Thursday: 10:00, 19:00, Friday: 10:00, 18:00, Saturday: 10:00, 15:00","4825 Mount Royal Gate Weykham House Student Centre-Z118  Calgary,  AB T3E 6K6"
https://thaiexpress.ca/wp-content/plugins/superstorefinder-wp/ssf-wp-xml.php?wpml_lang=en&t=1564582064002,Mount Sinai Hospital,<INACCESSIBLE>,<INACCESSIBLE>,<INACCESSIBLE>,<INACCESSIBLE>,US,<MISSING>,4169718888,<MISSING>,43.6577073,-79.389952,"Sunday: 11:00, 18:00, Monday: 10:30, 20:30, Tuesday: 10:30, 20:30, Wednesday: 10:30, 20:30, Thursday: 10:30, 20:30, Friday: 10:30, 20:30, Saturday: 11:00, 18:00","600 University Avenue FC06  Toronto,  ON M5G 1X5"
https://thaiexpress.ca/wp-content/plugins/superstorefinder-wp/ssf-wp-xml.php?wpml_lang=en&t=1564582064002,New Sudbury Centre,<INACCESSIBLE>,<INACCESSIBLE>,<INACCESSIBLE>,<INACCESSIBLE>,US,<MISSING>,7055601818,<MISSING>,46.5205125,-80.9471539,"Sunday: 11:00, Monday: 10:00, 21:00, Tuesday: 10:00, 21:00, Wednesday: 10:00, 21:00, Thursday: 10:00, 21:00, Friday: 10:00, 21:00, Saturday: 10:00, 18:00","1349 Lasalle Boulevard  Sudbury,  ON P3A 1Z2"
https://thaiexpress.ca/wp-content/plugins/superstorefinder-wp/ssf-wp-xml.php?wpml_lang=en&t=1564582064002,Newman,<INACCESSIBLE>,<INACCESSIBLE>,<INACCESSIBLE>,<INACCESSIBLE>,US,<MISSING>,5143796788,<MISSING>,45.43501,-73.6276816,"Sunday: 11:00, 9:00, Monday: 11:00, 9:00, Tuesday: 11:00, 9:00, Wednesday: 11:00, 9:00, Thursday: 11:00, 9:00, Friday: 11:00, 9:00, Saturday: 11:00, 9:00","8071 Boul Newman  LaSalle,  QC  H8N 2N9"
https://thaiexpress.ca/wp-content/plugins/superstorefinder-wp/ssf-wp-xml.php?wpml_lang=en&t=1564582064002,North American Centre,<INACCESSIBLE>,<INACCESSIBLE>,<INACCESSIBLE>,<INACCESSIBLE>,US,<MISSING>,6473516999,<MISSING>,43.7801678,-79.416364,"Sunday: 11:00, 17:00, Monday: 09:30, 21:00, Tuesday: 09:30, 21:00, Wednesday: 09:30, 21:00, Thursday: 09:30, 21:00, Friday: 09:30, 21:00, Saturday: 09:30, 21:00","5650 Yonge Street unit 16  Toronto,  ON M2M 4G3"
https://thaiexpress.ca/wp-content/plugins/superstorefinder-wp/ssf-wp-xml.php?wpml_lang=en&t=1564582064002,North Hill Centre,<INACCESSIBLE>,<INACCESSIBLE>,<INACCESSIBLE>,<INACCESSIBLE>,US,<MISSING>,4032893774,<MISSING>,51.0651892,-114.1021543,"Monday: Friday: 10:00, 21:00, Saturday: Sunday: 11:00, 17:00","1804 - 1632 14 Avenue NW  Calgary,  AB T2N 1M7"
https://thaiexpress.ca/wp-content/plugins/superstorefinder-wp/ssf-wp-xml.php?wpml_lang=en&t=1564582064002,North York General Hospital,<INACCESSIBLE>,<INACCESSIBLE>,<INACCESSIBLE>,<INACCESSIBLE>,US,<MISSING>,4167566040,<MISSING>,43.7694685,-79.3625826,"Sunday: Closed, Monday: 11:00, 15:00, Tuesday: 11:00, 15:00, Wednesday: 11:00, 15:00, Thursday: 11:00, 15:00, Friday: 11:00, 15:00, Saturday: Closed","4001 Leslie Street  Toronto,  ON M2K 1E1"
https://thaiexpress.ca/wp-content/plugins/superstorefinder-wp/ssf-wp-xml.php?wpml_lang=en&t=1564582064002,Northgate Mall,<INACCESSIBLE>,<INACCESSIBLE>,<INACCESSIBLE>,<INACCESSIBLE>,US,<MISSING>,3065868870,<MISSING>,50.4825691,-104.6152418,"Sunday: 12:00, 17:00, Monday: 11:00, 18:00, Tuesday: 11:00, 18:00, Wednesday: 11:00, 21:00, Thursday: 11:00, 21:00, Friday: 11:00, 21:00, Saturday: 11:00, 18:00","489 Albert Street North  Regina,  SK S4R 3C4"
https://thaiexpress.ca/wp-content/plugins/superstorefinder-wp/ssf-wp-xml.php?wpml_lang=en&t=1564582064002,Northland Village,<INACCESSIBLE>,<INACCESSIBLE>,<INACCESSIBLE>,<INACCESSIBLE>,US,<MISSING>,4032880028,<MISSING>,51.0984526,-114.1438705,"Sunday: 11:00, 17:00, Monday: 11:00, 21:00, Tuesday: 11:00, 21:00, Wednesday: 11:00, 21:00, Thursday: 11:00, 21:00, Friday: 11:00, 21:00, Saturday: 11:00, 18:30","5111 Northland Drive N.W.  Calgary,  AB T2L 2J8"
https://thaiexpress.ca/wp-content/plugins/superstorefinder-wp/ssf-wp-xml.php?wpml_lang=en&t=1564582064002,Notre-Dame,<INACCESSIBLE>,<INACCESSIBLE>,<INACCESSIBLE>,<INACCESSIBLE>,US,<MISSING>,5145443014,<MISSING>,45.4811719,-73.5783292,"Sunday: 11:00, 21:00, Monday: 11:00, 21:00, Tuesday: 11:00, 21:00, Wednesday: 11:00, 21:00, Thursday: 11:00, 21:00, Friday: 11:00, 21:00, Saturday: 11:00, 21:00","3009 rue Notre Dame Ouest  Montreal,  QC H4C 1N9"
https://thaiexpress.ca/wp-content/plugins/superstorefinder-wp/ssf-wp-xml.php?wpml_lang=en&t=1564582064002,Oakville Place,<INACCESSIBLE>,<INACCESSIBLE>,<INACCESSIBLE>,<INACCESSIBLE>,US,<MISSING>,9058150693,<MISSING>,43.461607,-79.6868686,"Sunday: 11:00, 17:00, Monday: 11:00, 21:00, Tuesday: 11:00, 21:00, Wednesday: 11:00, 21:00, Thursday: 11:00, 21:00, Friday: 11:00, 21:00, Saturday: 11:00, 19:00","240 Leighland Avenue #FC6  Oakville,  ON L6H 3H6"
https://thaiexpress.ca/wp-content/plugins/superstorefinder-wp/ssf-wp-xml.php?wpml_lang=en&t=1564582064002,Oakville Trafalgar Memorial Hospital,<INACCESSIBLE>,<INACCESSIBLE>,<INACCESSIBLE>,<INACCESSIBLE>,US,<MISSING>,9054698348,<MISSING>,43.450405,-79.7647495,"Sunday: 11:00, 19:00, Monday: 11:00, 19:00, Tuesday: 11:00, 19:00, Wednesday: 11:00, 19:00, Thursday: 11:00, 19:00, Friday: 11:00, 19:00, Saturday: 11:00, 19:00","3001 Hospital Gate unit C5  Oakville,  ON L6M 0L8"
https://thaiexpress.ca/wp-content/plugins/superstorefinder-wp/ssf-wp-xml.php?wpml_lang=en&t=1564582064002,Orlando&#44; FL,<INACCESSIBLE>,<INACCESSIBLE>,<INACCESSIBLE>,<INACCESSIBLE>,US,<MISSING>,4078024426,<MISSING>,28.4945993,-81.4234772,"Monday: 11am, 10pm, Tuesday: 11am, 10pm, Wednesday: 11am, 10pm, Thursday: 11am, 10pm, Friday: 11am, 10pm, Saturday: 11am, 10pm, Sunday: 11am, 8pm","4693 Gardens Park Blvd.  Orlando,  FL 32839"
https://thaiexpress.ca/wp-content/plugins/superstorefinder-wp/ssf-wp-xml.php?wpml_lang=en&t=1564582064002,Oshawa Centre,<INACCESSIBLE>,<INACCESSIBLE>,<INACCESSIBLE>,<INACCESSIBLE>,US,<MISSING>,9054338883,<MISSING>,43.8915831,-78.8804217,"Sunday: 11:00, 18:00, Monday: 10:00, 21:00, Tuesday: 10:00, 21:00, Wednesday: 10:00, 21:00, Thursday: 10:00, 21:00, Friday: 10:00, 21:00, Saturday: 11:00, 21:00","419 King Street West #2232  Oshawa,  ON L1J 2K5"
https://thaiexpress.ca/wp-content/plugins/superstorefinder-wp/ssf-wp-xml.php?wpml_lang=en&t=1564582064002,Oshawa Gateway Centre,<INACCESSIBLE>,<INACCESSIBLE>,<INACCESSIBLE>,<INACCESSIBLE>,US,<MISSING>,2892228888,<MISSING>,43.9059391,-78.8575065,"Sunday: 11:00, 21:00, Monday: 11:00, 21:00, Tuesday: 11:00, 21:00, Wednesday: 11:00, 21:00, Thursday: 11:00, 21:00, Friday: 11:00, 21:00, Saturday: 11:00, 21:00","238 Ritson Road North Unit C8.1A  Oshawa,  ON L1G 0B2"
https://thaiexpress.ca/wp-content/plugins/superstorefinder-wp/ssf-wp-xml.php?wpml_lang=en&t=1564582064002,Outlet Collection Winnipeg,<INACCESSIBLE>,<INACCESSIBLE>,<INACCESSIBLE>,<INACCESSIBLE>,US,<MISSING>,2044533839,<MISSING>,49.8451048,-97.213641,"Sunday: 9:00, 18:00, Monday: 9:30, 21:00, Tuesday: 9:30, 21:00, Wednesday: 9:30, 21:00, Thursday: 9:30, 21:00, Friday: 9:30, 21:00, Saturday: 9:30, 21:00","555 Sterling Lyon Parkway #FC6  Winnipeg,  MB R3P 1E9"
https://thaiexpress.ca/wp-content/plugins/superstorefinder-wp/ssf-wp-xml.php?wpml_lang=en&t=1564582064002,Pen Centre,<INACCESSIBLE>,<INACCESSIBLE>,<INACCESSIBLE>,<INACCESSIBLE>,US,<MISSING>,9057080193,<MISSING>,43.1356569,-79.2254081,"Sunday: 11:00, 17:00, Monday: 11:00, 21:00, Tuesday: 11:00, 21:00, Wednesday: 11:00, 21:00, Thursday: 11:00, 21:00, Friday: 11:00, 21:00, Saturday: 11:00, 18:00","221 Glendale Avenue #FC9  St. Catharines,  ON L2T 2K9"
https://thaiexpress.ca/wp-content/plugins/superstorefinder-wp/ssf-wp-xml.php?wpml_lang=en&t=1564582064002,Pergola Commons,<INACCESSIBLE>,<INACCESSIBLE>,<INACCESSIBLE>,<INACCESSIBLE>,US,<MISSING>,5198270303,<MISSING>,43.5003906,-80.1890092,"Sunday: 11:00, 21:00, Monday: 11:00, 21:00, Tuesday: 11:00, 21:00, Wednesday: 11:00, 21:00, Thursday: 11:00, 21:00, Friday: 11:00, 21:00, Saturday: 11:00, 21:00","79 Clair Road East  Guelph,  ON N1L 0J7"
https://thaiexpress.ca/wp-content/plugins/superstorefinder-wp/ssf-wp-xml.php?wpml_lang=en&t=1564582064002,Piazza Del Sol,<INACCESSIBLE>,<INACCESSIBLE>,<INACCESSIBLE>,<INACCESSIBLE>,US,<MISSING>,9052640028,<MISSING>,43.7903783,-79.5525535,"Monday: 11:00, 21:00, Tuesday: 11:00, 21:00, Wednesday: 11:00, 21:00, Thursday: 11:00, 21:00, Friday: 11:00, 22:00, Saturday: 11:00, 22:00","200 Windflower Gate  Woodbridge,  ON L4L 9L3"
https://thaiexpress.ca/wp-content/plugins/superstorefinder-wp/ssf-wp-xml.php?wpml_lang=en&t=1564582064002,Pickering Town Centre,<INACCESSIBLE>,<INACCESSIBLE>,<INACCESSIBLE>,<INACCESSIBLE>,US,<MISSING>,9058312565,<MISSING>,43.836187,-79.0859536,"Sunday: 10:30, 18:00, Monday: 10:30, 21:00, Tuesday: 10:30, 21:00, Wednesday: 10:30, 21:00, Thursday: 10:30, 21:00, Friday: 10:30, 21:00, Saturday: 10:30, 18:00","1355 Kingston Road  Pickering,  ON L1V 1B8"
https://thaiexpress.ca/wp-content/plugins/superstorefinder-wp/ssf-wp-xml.php?wpml_lang=en&t=1564582064002,Place Alexis Nihon,<INACCESSIBLE>,<INACCESSIBLE>,<INACCESSIBLE>,<INACCESSIBLE>,US,<MISSING>,5149041111,<MISSING>,45.4888063,-73.5859947,"Sunday: 11:00, 17:00, Monday: 11:00, 18:00, Tuesday: 11:00, 18:00, Wednesday: 11:00, 18:00, Thursday: 11:00, 21:00, Friday: 11:00, 21:00, Saturday: 11:00, 17:00","1500 avenue  Atwater  Montreal,  QC H3Z 1X5"
https://thaiexpress.ca/wp-content/plugins/superstorefinder-wp/ssf-wp-xml.php?wpml_lang=en&t=1564582064002,Place d&#39;Orléans,<INACCESSIBLE>,<INACCESSIBLE>,<INACCESSIBLE>,<INACCESSIBLE>,US,<MISSING>,6134248499,<MISSING>,45.4785994,-75.5151663,"Sunday: 11:00, 17:00, Monday: 11:00, 21:00, Tuesday: 11:00, 21:00, Wednesday: 11:00, 21:00, Thursday: 11:00, 21:00, Friday: 11:00, 21:00, Saturday: 11:00, 19:00","110 Place d&#39;Orléans Drive Unit 2250  Orléans,  ON K1C 2L9"
https://thaiexpress.ca/wp-content/plugins/superstorefinder-wp/ssf-wp-xml.php?wpml_lang=en&t=1564582064002,Place de la Cite,<INACCESSIBLE>,<INACCESSIBLE>,<INACCESSIBLE>,<INACCESSIBLE>,US,<MISSING>,4182667769,<MISSING>,46.7719636,-71.2821248,"Sunday: 11:00, 17:00, Monday: 11:00, 17:00, Tuesday: 11:00, 17:00, Wednesday: 11:00, 17:00, Thursday: 11:00, 21:00, Friday: 11:00, 21:00, Saturday: 11:00, 17:00","2600 boulevard Laurier  Ste-Foy,  QC G1V 4T3"
https://thaiexpress.ca/wp-content/plugins/superstorefinder-wp/ssf-wp-xml.php?wpml_lang=en&t=1564582064002,Place du Centre,<INACCESSIBLE>,<INACCESSIBLE>,<INACCESSIBLE>,<INACCESSIBLE>,US,<MISSING>,8197782888,<MISSING>,45.4268934,-75.7134941,"Sunday: Closed, Monday: 11:00, 18:00, Tuesday: 11:00, 18:00, Wednesday: 11:00, 18:00, Thursday: 11:00, 18:00, Friday: 11:00, 18:00, Saturday: Closed","200 Promenade du Portage  Gatineau,  QC J8X 4B7"
https://thaiexpress.ca/wp-content/plugins/superstorefinder-wp/ssf-wp-xml.php?wpml_lang=en&t=1564582064002,Place Du Royaume Chicoutimi,<INACCESSIBLE>,<INACCESSIBLE>,<INACCESSIBLE>,<INACCESSIBLE>,US,<MISSING>,4185438088,<MISSING>,48.4043941,-71.0553013,"Sunday: 11:00, 17:00, Monday: 11:00, 17:00, Tuesday: 11:00, 17:00, Wednesday: 11:00, 17:00, Thursday: 11:00, 21:00, Friday: 11:00, 21:00, Saturday: 11:00, 17:00","1401 boulevard Talbot  Chicoutimi,  QC G7H 5N6"
https://thaiexpress.ca/wp-content/plugins/superstorefinder-wp/ssf-wp-xml.php?wpml_lang=en&t=1564582064002,Place Fleur de Lys,<INACCESSIBLE>,<INACCESSIBLE>,<INACCESSIBLE>,<INACCESSIBLE>,US,<MISSING>,4185246198,<MISSING>,46.8224361,-71.2518926,"Sunday: 11:00, 17:00, Monday: 11:00, 17:00, Tuesday: 11:00, 17:00, Wednesday: 11:00, 17:00, Thursday: 11:00, 21:00, Friday: 11:00, 21:00, Saturday: 11:00, 17:00","552 boulevard Wilfrid-Hamel  Quebec,  QC G1M 3E5"
https://thaiexpress.ca/wp-content/plugins/superstorefinder-wp/ssf-wp-xml.php?wpml_lang=en&t=1564582064002,Place Jacques Cartier,<INACCESSIBLE>,<INACCESSIBLE>,<INACCESSIBLE>,<INACCESSIBLE>,US,<MISSING>,5143979111,<MISSING>,45.5075396,-73.5529407,"Sunday: 10:00, 22:30, Monday: 10:00, 22:30, Tuesday: 10:00, 22:30, Wednesday: 10:00, 22:30, Thursday: 10:00, 22:30, Friday: 10:00, 22:30, Saturday: 10:00, 22:30","420 Place Jacques-Cartier  Montreal,  QC H2Y 3B3"
https://thaiexpress.ca/wp-content/plugins/superstorefinder-wp/ssf-wp-xml.php?wpml_lang=en&t=1564582064002,Place Laurier,<INACCESSIBLE>,<INACCESSIBLE>,<INACCESSIBLE>,<INACCESSIBLE>,US,<MISSING>,4189779013,<MISSING>,46.7703103,-71.2855154,"Sunday: 11:00, 17:00, Monday: 11:00, 18:00, Tuesday: 11:00, 18:00, Wednesday: 11:00, 18:00, Thursday: 11:00, 21:00, Friday: 11:00, 21:00, Saturday: 11:00, 17:00","2700 boulevard Laurier  Ste-Foy,  QC G1V 2L8"
https://thaiexpress.ca/wp-content/plugins/superstorefinder-wp/ssf-wp-xml.php?wpml_lang=en&t=1564582064002,Place Michelet,<INACCESSIBLE>,<INACCESSIBLE>,<INACCESSIBLE>,<INACCESSIBLE>,US,<MISSING>,5147213131,<MISSING>,45.5754029,-73.5828274,"Sunday: 11:00, 21:00, Monday: 11:00, 21:00, Tuesday: 11:00, 21:00, Wednesday: 11:00, 21:00, Thursday: 11:00, 22:00, Friday: 11:00, 22:00, Saturday: 11:00, 21:00","5040 rue Jean-Talon  Montreal,  QC H1S 1K6"
https://thaiexpress.ca/wp-content/plugins/superstorefinder-wp/ssf-wp-xml.php?wpml_lang=en&t=1564582064002,Place Rosemere,<INACCESSIBLE>,<INACCESSIBLE>,<INACCESSIBLE>,<INACCESSIBLE>,US,<MISSING>,4504198388,<MISSING>,45.6306724,-73.8192093,"Sunday: 11:00, 17:00, Monday: 11:00, 21:00, Tuesday: 11:00, 21:00, Wednesday: 11:00, 21:00, Thursday: 11:00, 21:00, Friday: 11:00, 21:00, Saturday: 11:00, 17:00","401 boulevard Labelle  Rosemere,  QC J7A 3T2"
https://thaiexpress.ca/wp-content/plugins/superstorefinder-wp/ssf-wp-xml.php?wpml_lang=en&t=1564582064002,Place Sainte-Foy,<INACCESSIBLE>,<INACCESSIBLE>,<INACCESSIBLE>,<INACCESSIBLE>,US,<MISSING>,4186505836,<MISSING>,46.7735879,-71.2790953,"Sunday: 11:00, 17:00, Monday: 11:00, 18:00, Tuesday: 11:00, 18:00, Wednesday: 11:00, 18:00, Thursday: 11:00, 21:00, Friday: 11:00, 21:00, Saturday: 11:00, 17:00","2450 boulevard Laurier  Ste-Foy,  QC G1V 2L1"
https://thaiexpress.ca/wp-content/plugins/superstorefinder-wp/ssf-wp-xml.php?wpml_lang=en&t=1564582064002,Place Versailles,<INACCESSIBLE>,<INACCESSIBLE>,<INACCESSIBLE>,<INACCESSIBLE>,US,<MISSING>,5143528885,<MISSING>,45.592057,-73.5419886,"Sunday: 11:00, 17:00, Monday: 11:30, 21:00, Tuesday: 11:00, 21:00, Wednesday: 11:00, 21:00, Thursday: 11:00, 21:00, Friday: 11:00, 21:00, Saturday: 11:00, 17:00","7275 rue Sherbrooke Est  Montreal,  QC H1N 1E9"
https://thaiexpress.ca/wp-content/plugins/superstorefinder-wp/ssf-wp-xml.php?wpml_lang=en&t=1564582064002,Place Vertu,<INACCESSIBLE>,<INACCESSIBLE>,<INACCESSIBLE>,<INACCESSIBLE>,US,<MISSING>,5143329651,<MISSING>,45.4980887,-73.7053097,"Sunday: 10:00, 17:00, Monday: 10:00, 18:00, Tuesday: 10:00, 18:00, Wednesday: 10:00, 6:00, Thursday: 10:00, 21:00, Friday: 10:00, 21:00, Saturday: 10:00, 17:00","3131 boulevard Cote-Vertu  Ville Saint-Laurent,  QC H4R 1Y8"
https://thaiexpress.ca/wp-content/plugins/superstorefinder-wp/ssf-wp-xml.php?wpml_lang=en&t=1564582064002,Place Victoria,<INACCESSIBLE>,<INACCESSIBLE>,<INACCESSIBLE>,<INACCESSIBLE>,US,<MISSING>,5148799131,<MISSING>,45.5014462,-73.5626809,"Sunday: Closed, Monday: 11:00, 17:00, Tuesday: 11:00, 17:00, Wednesday: 11:00, 17:00, Thursday: 11:00, 17:00, Friday: 11:00, 17:00, Saturday: 11:00, 17:00","800 rue du Square-Victoria  Montreal,  QC H4Z 1A8"
https://thaiexpress.ca/wp-content/plugins/superstorefinder-wp/ssf-wp-xml.php?wpml_lang=en&t=1564582064002,Plaza Don-Quichotte (Ile-Perrot),<INACCESSIBLE>,<INACCESSIBLE>,<INACCESSIBLE>,<INACCESSIBLE>,US,<MISSING>,5144258862,<MISSING>,45.387887,-73.9622691,"Sunday: 11:00, 21:00, Monday: 11:00, 21:00, Tuesday: 11:00, 22:00, Wednesday: 11:00, 22:00, Thursday: 11:00, 22:00, Friday: 11:00, 22:00, Saturday: 11:00, 22:00","100 Boul.Don Quichotte  Ile-Perrot,  QC J7V 6L7"
https://thaiexpress.ca/wp-content/plugins/superstorefinder-wp/ssf-wp-xml.php?wpml_lang=en&t=1564582064002,Plaza Pierrefonds,<INACCESSIBLE>,<INACCESSIBLE>,<INACCESSIBLE>,<INACCESSIBLE>,US,<MISSING>,5146265317,<MISSING>,45.4838324,-73.8586773,"Sunday: 11:00, 21:00, Monday: 11:00, 21:00, Tuesday: 11:00, 21:00, Wednesday: 11:00, 21:00, Thursday: 11:00, 22:00, Friday: 11:00, 22:00, Saturday: 11:00, 22:00","14850 boulevard Pierrefonds  Pierrefonds,  QC H9H 4Y6"
https://thaiexpress.ca/wp-content/plugins/superstorefinder-wp/ssf-wp-xml.php?wpml_lang=en&t=1564582064002,Pointe-aux-Trembles,<INACCESSIBLE>,<INACCESSIBLE>,<INACCESSIBLE>,<INACCESSIBLE>,US,<MISSING>,5145086818,<MISSING>,45.6549072,-73.5089714,"Sunday: 11:00, 22:00, Monday: 11:00, 22:00, Tuesday: 11:00, 22:00, Wednesday: 11:00, 22:00, Thursday: 11:00, 22:00, Friday: 11:00, 22:00, Saturday: 11:00, 22:00","12882 rue Sherbrooke E.  Pointe-aux-Trembles,  QC H1A 4Y3"
https://thaiexpress.ca/wp-content/plugins/superstorefinder-wp/ssf-wp-xml.php?wpml_lang=en&t=1564582064002,Portage Place,<INACCESSIBLE>,<INACCESSIBLE>,<INACCESSIBLE>,<INACCESSIBLE>,US,<MISSING>,2049479104,<MISSING>,49.8926006,-97.14846,"Sunday: 12:00, 17:00, Monday: 10:00, 18:00, Tuesday: 10:00, 18:00, Wednesday: 10:00, 18:00, Thursday: 10:00, 21:00, Friday: 10:00, 21:00, Saturday: 11:00, 18:00","393 Portage Avenue #153A  Winnipeg,  MB R3B 3H6"
https://thaiexpress.ca/wp-content/plugins/superstorefinder-wp/ssf-wp-xml.php?wpml_lang=en&t=1564582064002,Portes Sainte-Rose,<INACCESSIBLE>,<INACCESSIBLE>,<INACCESSIBLE>,<INACCESSIBLE>,US,<MISSING>,4506240005,<MISSING>,45.589372,-73.787211,"Sunday: 11:00, 21:00, Monday: 11:00, 21:00, Tuesday: 11:00, 21:00, Wednesday: 11:00, 21:00, Thursday: 11:00, 21:00, Friday: 11:00, 21:00, Saturday: 11:00, 21:00","679 boulevard Cure-Labelle  Laval,  QC H7L 5R7"
https://thaiexpress.ca/wp-content/plugins/superstorefinder-wp/ssf-wp-xml.php?wpml_lang=en&t=1564582064002,Premium Outlet Collection,<INACCESSIBLE>,<INACCESSIBLE>,<INACCESSIBLE>,<INACCESSIBLE>,US,<MISSING>,,<MISSING>,53.3083529,-113.5813588,"Monday: 10am, 9pm, Tuesday: 10am, 9pm, Wednesday: 10am, 9pm, Thursday: 10am, 9pm, Friday: 10am, 9pm, Saturday: 10am, 9pm, Sunday: 11am, 6pm","1 outlet collection way unit # FC6 Edmonton international airport  Edmonton,  AB T9E 1J5"
https://thaiexpress.ca/wp-content/plugins/superstorefinder-wp/ssf-wp-xml.php?wpml_lang=en&t=1564582064002,Promenade Shoping Centre,<INACCESSIBLE>,<INACCESSIBLE>,<INACCESSIBLE>,<INACCESSIBLE>,US,<MISSING>,9057713688,<MISSING>,43.8077256,-79.452203,"Sunday: 10:00, 18:00, Monday: 10:00, 21:00, Tuesday: 10:00, 21:00, Wednesday: 10:00, 21:00, Thursday: 10:00, 21:00, Friday: 10:00, 21:00, Saturday: 10:00, 19:00","1 Promenade Circle #F-111A  Thornhill,  ON L4J 4P8"
https://thaiexpress.ca/wp-content/plugins/superstorefinder-wp/ssf-wp-xml.php?wpml_lang=en&t=1564582064002,Promenades Beauport,<INACCESSIBLE>,<INACCESSIBLE>,<INACCESSIBLE>,<INACCESSIBLE>,US,<MISSING>,4189141443,<MISSING>,46.8606254,-71.217647,"Sunday: 11:00, 17:00, Monday: 11:00, 17:00, Tuesday: 11:00, 17:00, Wednesday: 11:00, 17:00, Thursday: 11:00, 21:00, Friday: 11:00, 21:00, Saturday: 11:00, 17:00","3333 rue du Carrefour  Quebec,  QC G1C 5R9"
https://thaiexpress.ca/wp-content/plugins/superstorefinder-wp/ssf-wp-xml.php?wpml_lang=en&t=1564582064002,Promenades Bellerose,<INACCESSIBLE>,<INACCESSIBLE>,<INACCESSIBLE>,<INACCESSIBLE>,US,<MISSING>,4506678588,<MISSING>,45.610313,-73.735105,"Sunday: 11:00, 9:00, Monday: 11:00, 9:00, Tuesday: 11:00, 9:00, Wednesday: 11:00, 9:00, Thursday: 11:00, 10:00, Friday: 11:00, 10:00, Saturday: 11:00, 9:00","2151 boulevard des laurentides   Vimont,  QC  H7M 4M2 "
https://thaiexpress.ca/wp-content/plugins/superstorefinder-wp/ssf-wp-xml.php?wpml_lang=en&t=1564582064002,Promenades Cathedrale,<INACCESSIBLE>,<INACCESSIBLE>,<INACCESSIBLE>,<INACCESSIBLE>,US,<MISSING>,5149798988,<MISSING>,45.503376,-73.5698987,"Sunday: 11:00, 17:00, Monday: 11:00, 18:00, Tuesday: 11:00, 18:00, Wednesday: 11:00, 18:00, Thursday: 11:00, 21:00, Friday: 11:00, 21:00, Saturday: 11:00, 17:00","625 Sainte-Catherine Ouest  Montreal,  QC H3B 1B7"
https://thaiexpress.ca/wp-content/plugins/superstorefinder-wp/ssf-wp-xml.php?wpml_lang=en&t=1564582064002,Promenades Outaouais,<INACCESSIBLE>,<INACCESSIBLE>,<INACCESSIBLE>,<INACCESSIBLE>,US,<MISSING>,8192436843,<MISSING>,45.4757467,-75.6970486,"Sunday: 11:00, 17:00, Monday: 11:00, 20:00, Tuesday: 11:00, 20:00, Wednesday: 11:00, 21:00, Thursday: 11:00, 21:00, Friday: 11:00, 21:00, Saturday: 11:00, 17:00","1100  boulevard Maloney Ouest  Gatineau,  QC J8T 6G3"
https://thaiexpress.ca/wp-content/plugins/superstorefinder-wp/ssf-wp-xml.php?wpml_lang=en&t=1564582064002,Quartier Laval,<INACCESSIBLE>,<INACCESSIBLE>,<INACCESSIBLE>,<INACCESSIBLE>,US,<MISSING>,4506811128,<MISSING>,45.5574114,-73.7246354,"Sunday: 11:00am, 8:00pm, Monday: 11:00am, 9:00pm, Tuesday: 11:00am, 9:00pm, Wednesday: 11:00am, 9:00pm, Thursday: 11:00am, 9:00pm, Friday: 11:00am, 9:00pm, Saturday: 11:00am, 9:00pm","1020 boulevard Le Corbusier  Laval,  QC H7N 0A8"
https://thaiexpress.ca/wp-content/plugins/superstorefinder-wp/ssf-wp-xml.php?wpml_lang=en&t=1564582064002,Quartier Santé,<INACCESSIBLE>,<INACCESSIBLE>,<INACCESSIBLE>,<INACCESSIBLE>,US,<MISSING>,8198221881,<MISSING>,45.434263,-71.8691309,"Sunday: 11:00, 21:00, Monday: 11:00, 21:00, Tuesday: 11:00, 21:00, Wednesday: 11:00, 21:00, Thursday: 11:00, 21:00, Friday: 11:00, 22:00, Saturday: 11:00, 21:00","2015 12e Av N Quartier Santé  Sherbrooke,  QC J1E 4J5"
https://thaiexpress.ca/wp-content/plugins/superstorefinder-wp/ssf-wp-xml.php?wpml_lang=en&t=1564582064002,Quartiers  Dix30,<INACCESSIBLE>,<INACCESSIBLE>,<INACCESSIBLE>,<INACCESSIBLE>,US,<MISSING>,4504430333,<MISSING>,45.4445964,-73.4331304,"Sunday: 11:00, 17:00, Monday: 11:00, 18:00, Tuesday: 11:00, 18:00, Wednesday: 11:00, 21:00, Thursday: 11:00, 21:00, Friday: 11:00, 21:00, Saturday: 11:00, 17:00","9380 boulevard Leduc suite 10 &amp; 15  Brossard,  QC J4Y 0B3"
https://thaiexpress.ca/wp-content/plugins/superstorefinder-wp/ssf-wp-xml.php?wpml_lang=en&t=1564582064002,Queen Mary,<INACCESSIBLE>,<INACCESSIBLE>,<INACCESSIBLE>,<INACCESSIBLE>,US,<MISSING>,5143692889,<MISSING>,45.4833188,-73.6296065,"Sunday: 11:00, 21:00, Monday: 11:00, 21:00, Tuesday: 11:00, 21:00, Wednesday: 11:00, 21:00, Thursday: 11:00, 22:00, Friday: 11:00, 22:00, Saturday: 11:00, 22:00","5323 chemin Queen Mary  Montreal,  QC H3X 1T9"
https://thaiexpress.ca/wp-content/plugins/superstorefinder-wp/ssf-wp-xml.php?wpml_lang=en&t=1564582064002,Regent Mall,<INACCESSIBLE>,<INACCESSIBLE>,<INACCESSIBLE>,<INACCESSIBLE>,US,<MISSING>,5064601091,<MISSING>,45.934473,-66.6641088,"Sunday: 12:00, 17:00, Monday: 11:00, 21:00, Tuesday: 11:00, 21:00, Wednesday: 11:00, 21:00, Thursday: 11:00, 21:00, Friday: 11:00, 21:00, Saturday: 11:00, 21:00","1381 Regent Street  Fredericton,  NB E3C 1A2"
https://thaiexpress.ca/wp-content/plugins/superstorefinder-wp/ssf-wp-xml.php?wpml_lang=en&t=1564582064002,Repentigny,<INACCESSIBLE>,<INACCESSIBLE>,<INACCESSIBLE>,<INACCESSIBLE>,US,<MISSING>,4507042880,<MISSING>,45.7431428,-73.4523516,"Sunday: 11:00, 21:00, Monday: 11:00, 21:00, Tuesday: 11:00, 21:00, Wednesday: 11:00, 21:00, Thursday: 11:00, 21:00, Friday: 11:00, 21:00, Saturday: 11:00, 21:00","80 boulevard Brien  Repentigny,  QC J6A 5K7"
https://thaiexpress.ca/wp-content/plugins/superstorefinder-wp/ssf-wp-xml.php?wpml_lang=en&t=1564582064002,Richelieu,<INACCESSIBLE>,<INACCESSIBLE>,<INACCESSIBLE>,<INACCESSIBLE>,US,<MISSING>,4504479748,<MISSING>,45.4277229,-73.2444462,"Sunday: 10:30, 22:00, Monday: 10:30, 22:00, Tuesday: 10:30, 22:00, Wednesday: 10:30, 22:00, Thursday: 10:30, 22:00, Friday: 10:30, 22:00, Saturday: 10:30, 22:00","2360 chemin des Patriotes  Richelieu,  QC J3L 6M7"
https://thaiexpress.ca/wp-content/plugins/superstorefinder-wp/ssf-wp-xml.php?wpml_lang=en&t=1564582064002,Rimouski,<INACCESSIBLE>,<INACCESSIBLE>,<INACCESSIBLE>,<INACCESSIBLE>,US,<MISSING>,4187230777,<MISSING>,48.4535422,-68.5228767,"Sunday: 11:00, 20:00, Monday: 11:00, 20:00, Tuesday: 11:00, 20:00, Wednesday: 11:00, 20:00, Thursday: 11:00, 22:00, Friday: 11:00, 22:00, Saturday: 11:00, 20:00","132 rue St-Germain Est  Rimouski,  QC G5L 1A8"
https://thaiexpress.ca/wp-content/plugins/superstorefinder-wp/ssf-wp-xml.php?wpml_lang=en&t=1564582064002,Riocan Market Place,<INACCESSIBLE>,<INACCESSIBLE>,<INACCESSIBLE>,<INACCESSIBLE>,US,<MISSING>,4167369297,<MISSING>,43.7863804,-79.4727994,"Sunday: 11:00, 17:00, Monday: 11:00, 21:00, Tuesday: 11:00, 21:00, Wednesday: 11:00, 21:00, Thursday: 11:00, 21:00, Friday: 11:00, 21:00, Saturday: 11:00, 18:00","2061 Steeles Avenue  North York,  ON M3J 3N3"
https://thaiexpress.ca/wp-content/plugins/superstorefinder-wp/ssf-wp-xml.php?wpml_lang=en&t=1564582064002,Roberval,<INACCESSIBLE>,<INACCESSIBLE>,<INACCESSIBLE>,<INACCESSIBLE>,US,<MISSING>,4504824398,<MISSING>,45.52748,-73.34681,"Sunday: 11:00, 21:00, Monday: 11:00, 21:00, Tuesday: 11:00, 21:00, Wednesday: 11:00, 21:00, Thursday: 11:00, 21:00, Friday: 11:00, 21:00, Saturday: 11:00, 21:00","1307 rue Roberval  Saint-Bruno-de-Montarville,  QC J3V 5J1"
https://thaiexpress.ca/wp-content/plugins/superstorefinder-wp/ssf-wp-xml.php?wpml_lang=en&t=1564582064002,Rockland Mall,<INACCESSIBLE>,<INACCESSIBLE>,<INACCESSIBLE>,<INACCESSIBLE>,US,<MISSING>,5143422872,<MISSING>,45.5281968,-73.6481237,"Monday: 11am, 6pm, Tuesday: 11am, 6pm, Wednesday: 11am, 9pm, Thursday: 11am, 9pm, Friday: 11am, 9pm, Saturday: 5pm, Sunday: 11am, 5pm","2305 chemin Rockland  Mont-Royal,  QC H3P3E9"
https://thaiexpress.ca/wp-content/plugins/superstorefinder-wp/ssf-wp-xml.php?wpml_lang=en&t=1564582064002,Rue Bouvier,<INACCESSIBLE>,<INACCESSIBLE>,<INACCESSIBLE>,<INACCESSIBLE>,US,<MISSING>,4186142066,<MISSING>,46.8328631,-71.2783803,"Sunday: 11:00, 20:00, Monday: 11:00, 20:00, Tuesday: 11:00, 20:00, Wednesday: 11:00, 20:00, Thursday: 11:00, 21:00, Friday: 11:00, 21:00, Saturday: 11:00, 21:00","980 rue Bouvier  Quebec,  QC G2J 1A3"
https://thaiexpress.ca/wp-content/plugins/superstorefinder-wp/ssf-wp-xml.php?wpml_lang=en&t=1564582064002,Rue de la Couronne,<INACCESSIBLE>,<INACCESSIBLE>,<INACCESSIBLE>,<INACCESSIBLE>,US,<MISSING>,4186140653,<MISSING>,46.8138362,-71.2245415,"Sunday: 11:00, 20:00, Monday: 11:00, 20:00, Tuesday: 11:00, 20:00, Wednesday: 11:00, 20:00, Thursday: 11:00, 21:00, Friday: 11:00, 21:00, Saturday: 11:00, 20:00","440 rue de la Couronne  Quebec,  QC G1K 9M5"
https://thaiexpress.ca/wp-content/plugins/superstorefinder-wp/ssf-wp-xml.php?wpml_lang=en&t=1564582064002,Rue St-Jean,<INACCESSIBLE>,<INACCESSIBLE>,<INACCESSIBLE>,<INACCESSIBLE>,US,<MISSING>,4186143749,<MISSING>,46.8116687,-71.2166298,"Sunday: 11:00, 20:00, Monday: 11:00, 20:00, Tuesday: 11:00, 20:00, Wednesday: 11:00, 20:00, Thursday: 11:00, 21:00, Friday: 11:00, 21:00, Saturday: 11:00, 20:00","854 rue St-Jean  Quebec,  QC G1R 1R3"
https://thaiexpress.ca/wp-content/plugins/superstorefinder-wp/ssf-wp-xml.php?wpml_lang=en&t=1564582064002,Rutherford Market Place,<INACCESSIBLE>,<INACCESSIBLE>,<INACCESSIBLE>,<INACCESSIBLE>,US,<MISSING>,9054170220,<MISSING>,43.8488869,-79.4607158,"Sunday: 11:00, 20:00, Monday: 11:00, 21:00, Tuesday: 11:00, 21:00, Wednesday: 11:00, 21:00, Thursday: 11:00, 21:00, Friday: 11:00, 21:00, Saturday: 11:00, 21:00","9342 Bathurst Street  Vaughan,  ON L6A 4N9"
https://thaiexpress.ca/wp-content/plugins/superstorefinder-wp/ssf-wp-xml.php?wpml_lang=en&t=1564582064002,Saint-Eustache,<INACCESSIBLE>,<INACCESSIBLE>,<INACCESSIBLE>,<INACCESSIBLE>,US,<MISSING>,4504727676,<MISSING>,45.5790808,-73.8776159,"Sunday: 11:00, 21:00, Monday: 11:00, 21:00, Tuesday: 11:00, 21:00, Wednesday: 11:00, 21:00, Thursday: 11:00, 21:00, Friday: 11:00, 21:00, Saturday: 11:00, 21:00","477 25e avenue  Saint-Eustache,  QC J7P 4Y1"
https://thaiexpress.ca/wp-content/plugins/superstorefinder-wp/ssf-wp-xml.php?wpml_lang=en&t=1564582064002,Saint-Hyacinthe,<INACCESSIBLE>,<INACCESSIBLE>,<INACCESSIBLE>,<INACCESSIBLE>,US,<MISSING>,4502538424,<MISSING>,45.6437181,-72.9774821,"Sunday: 11:00, 20:30, Monday: 11:00, 20:30, Tuesday: 11:00, 20:30, Wednesday: 11:00, 20:30, Thursday: 11:00, 21:30, Friday: 11:00, 21:30, Saturday: 11:00, 20:30","3535 boulevard Laframboise  Saint-Hyacinthe,  QC J2R 1E1"
https://thaiexpress.ca/wp-content/plugins/superstorefinder-wp/ssf-wp-xml.php?wpml_lang=en&t=1564582064002,Saint-Sauveur,<INACCESSIBLE>,<INACCESSIBLE>,<INACCESSIBLE>,<INACCESSIBLE>,US,<MISSING>,4502272127,<MISSING>,45.8902345,-74.1498909,"Sunday: 9:00, 21:00, Monday: 9:00, 21:00, Tuesday: 9:00, 21:00, Wednesday: 9:00, 21:00, Thursday: 10:00, 22:00, Friday: 10:00, 22:00, Saturday: 10:00, 22:00","197 chemin de la Gare  Saint-Sauveur,  QC J0R 1R3"
https://thaiexpress.ca/wp-content/plugins/superstorefinder-wp/ssf-wp-xml.php?wpml_lang=en&t=1564582064002,Sainte-Julie,<INACCESSIBLE>,<INACCESSIBLE>,<INACCESSIBLE>,<INACCESSIBLE>,US,<MISSING>,4506490909,<MISSING>,45.5853769,-73.3253745,"Sunday: 11:00, 20:00, Monday: 11:00, 20:00, Tuesday: 11:00, 20:00, Wednesday: 11:00, 20:00, Thursday: 11:00, 21:00, Friday: 11:00, 21:00, Saturday: 11:00, 20:00","1700 chemin du Fer-A-Cheval  Sainte-Julie,  QC J3E 1A7"
https://thaiexpress.ca/wp-content/plugins/superstorefinder-wp/ssf-wp-xml.php?wpml_lang=en&t=1564582064002,Sainte-Therese,<INACCESSIBLE>,<INACCESSIBLE>,<INACCESSIBLE>,<INACCESSIBLE>,US,<MISSING>,4504301221,<MISSING>,45.6450303,-73.8372154,"Sunday: 11:00, 20:00, Monday: 11:00, 20:00, Tuesday: 11:00, 20:00, Wednesday: 11:00, 20:00, Thursday: 11:00, 21:00, Friday: 11:00, 21:00, Saturday: 11:00, 20:00","201 boulevard Cure-Labelle  Sainte-Therese,  QC J7E 2X6"
https://thaiexpress.ca/wp-content/plugins/superstorefinder-wp/ssf-wp-xml.php?wpml_lang=en&t=1564582064002,Scarborough Town Centre,<INACCESSIBLE>,<INACCESSIBLE>,<INACCESSIBLE>,<INACCESSIBLE>,US,<MISSING>,4162901188,<MISSING>,43.7749399,-79.2572366,"Sunday: 11:00, 18:00, Monday: 10:30, 21:00, Tuesday: 10:30, 21:00, Wednesday: 10:30, 21:00, Thursday: 10:30, 21:00, Friday: 10:30, 21:00, Saturday: 11:00, 21:00","300 Borough Drive Unit FC-14  Scarborough,  ON M1P 4P5"
https://thaiexpress.ca/wp-content/plugins/superstorefinder-wp/ssf-wp-xml.php?wpml_lang=en&t=1564582064002,Scotia Plaza,<INACCESSIBLE>,<INACCESSIBLE>,<INACCESSIBLE>,<INACCESSIBLE>,US,<MISSING>,4165949595,<MISSING>,43.6495171,-79.3796355,"Sunday: Closed, Monday: 10:00, 18:30, Tuesday: 10:00, 18:30, Wednesday: 10:00, 18:30, Thursday: 10:00, 18:30, Friday: 10:00, 18:30, Saturday: Closed","40 King Street West #130  Toronto,  ON M5H 3Y2"
https://thaiexpress.ca/wp-content/plugins/superstorefinder-wp/ssf-wp-xml.php?wpml_lang=en&t=1564582064002,Scotia Square,<INACCESSIBLE>,<INACCESSIBLE>,<INACCESSIBLE>,<INACCESSIBLE>,US,<MISSING>,9024075500,<MISSING>,44.6496567,-63.5756494,"Sunday: Closed, Monday: 10:30, 21:00, Tuesday: 10:30, 21:00, Wednesday: 10:30, 21:00, Thursday: 10:30, 21:00, Friday: 10:30, 21:00, Saturday: 10:30, 21:00","5201 Duke Steet  Halifax,  NS B3J 1N9"
https://thaiexpress.ca/wp-content/plugins/superstorefinder-wp/ssf-wp-xml.php?wpml_lang=en&t=1564582064002,Scottsdale AZ,<INACCESSIBLE>,<INACCESSIBLE>,<INACCESSIBLE>,<INACCESSIBLE>,US,<MISSING>,4803621514,<MISSING>,33.6519743,-111.9246289,"Sunday: 11:00, 21:00, Monday: 11:00, 21:00, Tuesday: 11:00, 21:00, Wednesday: 11:00, 21:00, Thursday: 11:00, 21:00, Friday: 11:00, 21:00, Saturday: 11:00, 21:00","18511 N Scottsdale Road  Scottsdale,  AZ 85254"
https://thaiexpress.ca/wp-content/plugins/superstorefinder-wp/ssf-wp-xml.php?wpml_lang=en&t=1564582064002,Seasons of Tuxedo,<INACCESSIBLE>,<INACCESSIBLE>,<INACCESSIBLE>,<INACCESSIBLE>,US,<MISSING>,2044534551,<MISSING>,49.8408755,-97.2179338,"Sunday: 11:00, 19:00, Monday: 11:00, 21:00, Tuesday: 11:00, 21:00, Wednesday: 11:00, 21:00, Thursday: 11:00, 21:00, Friday: 11:00, 21:00, Saturday: 11:00, 21:00","660 Sterling Lyon Parkway  Winnipeg,  MB R3P 1E9"
https://thaiexpress.ca/wp-content/plugins/superstorefinder-wp/ssf-wp-xml.php?wpml_lang=en&t=1564582064002,Serramonte Center,<INACCESSIBLE>,<INACCESSIBLE>,<INACCESSIBLE>,<INACCESSIBLE>,US,<MISSING>,6509919621,<MISSING>,37.6718461,-122.4721437,"Sunday: 11:00, 19:00, Monday: 10:00, 21:00, Tuesday: 10:00, 21:00, Wednesday: 10:00, 21:00, Thursday: 10:00, 21:00, Friday: 10:00, 21:00, Saturday: 10:00, 21:00","Space 821 - 66 Serramonte Center  Daly City ,  CA 94015"
https://thaiexpress.ca/wp-content/plugins/superstorefinder-wp/ssf-wp-xml.php?wpml_lang=en&t=1564582064002,Sevenoaks Shopping Centre,<INACCESSIBLE>,<INACCESSIBLE>,<INACCESSIBLE>,<INACCESSIBLE>,US,<MISSING>,6047465818,<MISSING>,49.049673,-122.3127539,"Sunday: 11:00, 18:00, Monday: 9:30, 18:00, Tuesday: 9:30, 18:00, Wednesday: 9:30, 21:00, Thursday: 9:30, 21:00, Friday: 9:30, 21:00, Saturday: 9:30, 18:00","32900 South Fraser Way  Abbotsford,  BC V2S 5A1"
https://thaiexpress.ca/wp-content/plugins/superstorefinder-wp/ssf-wp-xml.php?wpml_lang=en&t=1564582064002,Shawnessy Towne Centre,<INACCESSIBLE>,<INACCESSIBLE>,<INACCESSIBLE>,<INACCESSIBLE>,US,<MISSING>,4037190939,<MISSING>,50.9014811,-114.0635657,"Sunday: 11:00, 21:00, Monday: 11:00, 21:00, Tuesday: 11:00, 21:00, Wednesday: 11:00, 21:00, Thursday: 11:00, 21:00, Friday: 11:00, 21:00, 11:00, 21:00","#116&#44; 296 Shawville Boulevard SE  Calgary,  AB T2Y 3S4"
https://thaiexpress.ca/wp-content/plugins/superstorefinder-wp/ssf-wp-xml.php?wpml_lang=en&t=1564582064002,Sheridan College,<INACCESSIBLE>,<INACCESSIBLE>,<INACCESSIBLE>,<INACCESSIBLE>,US,<MISSING>,9058448532,<MISSING>,43.4689298,-79.6999246,"Sunday: Closed, Monday: 10:30, 19:00, Tuesday: 10:30, 19:00, Wednesday: 10:30, 19:00, Thursday: 10:00, 19:00, Friday: 11:00, 16:00, Saturday: Closed","1430 Trafalgar Road  Oakville,  ON L6H 2L1"
https://thaiexpress.ca/wp-content/plugins/superstorefinder-wp/ssf-wp-xml.php?wpml_lang=en&t=1564582064002,Sherwood Park Mall,<INACCESSIBLE>,<INACCESSIBLE>,<INACCESSIBLE>,<INACCESSIBLE>,US,<MISSING>,5872690026,<MISSING>,53.5310617,-113.2934037,"Sunday: 12:00, 17:00, Monday: 09:30, 21:00, Tuesday: 09:30, 21:00, Wednesday: 09:30, 21:00, Thursday: 09:30, 21:00, Friday: 09:30, 21:00, Saturday: 09:30, 17:30","2020 Sherwood Drive  Sherwood Park,  AB T8A 3H9"
https://thaiexpress.ca/wp-content/plugins/superstorefinder-wp/ssf-wp-xml.php?wpml_lang=en&t=1564582064002,Shopper City East,<INACCESSIBLE>,<INACCESSIBLE>,<INACCESSIBLE>,<INACCESSIBLE>,US,<MISSING>,6136805200,<MISSING>,45.4369307,-75.6037275,"Sunday: 11:00, 21:00, Monday: 11:00, 21:00, Tuesday: 11:00, 21:00, Wednesday: 11:00, 21:00, Thursday: 11:00, 21:00, Friday: 11:00, 21:00, Saturday: 11:00, 21:00","2014 #6 Ogilvie Road  Gloucester,  ON K1J 7N9"
https://thaiexpress.ca/wp-content/plugins/superstorefinder-wp/ssf-wp-xml.php?wpml_lang=en&t=1564582064002,Shoppers Mall,<INACCESSIBLE>,<INACCESSIBLE>,<INACCESSIBLE>,<INACCESSIBLE>,US,<MISSING>,2047275574,<MISSING>,49.8243037,-99.9636376,"Sunday: 11:00, 17:00, Monday: 10:00, 21:00, Tuesday: 10:00, 21:00, Wednesday: 10:00, 21:00, Thursday: 10:00, 21:00, Friday: 10:00, 21:00, Saturday: 10:00, 21:00","82-1570 18th Street  Brandon,  MB R7A 5C5"
https://thaiexpress.ca/wp-content/plugins/superstorefinder-wp/ssf-wp-xml.php?wpml_lang=en&t=1564582064002,Signature Centre,<INACCESSIBLE>,<INACCESSIBLE>,<INACCESSIBLE>,<INACCESSIBLE>,US,<MISSING>,6132708860,<MISSING>,45.3107677,-75.9206954,"Sunday: 11:00, 21:00, Monday: 11:00, 21:00, Tuesday: 11:00, 21:00, Wednesday: 11:00, 21:00, Thursday: 11:00, 21:00, Friday: 11:00, 21:00, Saturday: 11:00, 21:00","499 Terry Fox Drive Unit 95  Kanata,  ON K2T 1H7"
https://thaiexpress.ca/wp-content/plugins/superstorefinder-wp/ssf-wp-xml.php?wpml_lang=en&t=1564582064002,Skyview Power Centre,<INACCESSIBLE>,<INACCESSIBLE>,<INACCESSIBLE>,<INACCESSIBLE>,US,<MISSING>,7804789838,<MISSING>,53.5998778,-113.5592845,"Sunday: 11:00, 19:00, Monday: 11:00, 21:00, Tuesday: 11:00, 21:00, Wednesday: 11:00, 21:00, Thursday: 11:00, 21:00, Friday: 11:00, 21:00, Saturday: 11:00, 21:00","13680  137 Avenue North West  Edmonton,  AB T5L 4Z8"
https://thaiexpress.ca/wp-content/plugins/superstorefinder-wp/ssf-wp-xml.php?wpml_lang=en&t=1564582064002,Sorel-Tracy,<INACCESSIBLE>,<INACCESSIBLE>,<INACCESSIBLE>,<INACCESSIBLE>,US,<MISSING>,4508554567,<MISSING>,46.042267,-73.1027547,"Sunday: 11:00, 22:00, Monday: 11:00, 22:00, Tuesday: 11:00, 22:00, Wednesday: 11:00, 22:00, Thursday: 11:00, 22:00, Friday: 11:00, 22:00, Saturday: 11:00, 22:00","170 boulevard Fiset  Sorel-Tracy,  QC J3P 3P4"
https://thaiexpress.ca/wp-content/plugins/superstorefinder-wp/ssf-wp-xml.php?wpml_lang=en&t=1564582064002,South Edmonton Common,<INACCESSIBLE>,<INACCESSIBLE>,<INACCESSIBLE>,<INACCESSIBLE>,US,<MISSING>,7809889816,<MISSING>,53.4485836,-113.4833553,"Sunday: 11:00, 19:00, Monday: 11:00, 21:00, Tuesday: 11:00, 21:00, Wednesday: 11:00, 21:00, Thursday: 11:00, 21:00, Friday: 11:00, 21:00, Saturday: 11:00, 21:00","1921 98 Street NW  Edmonton,  AB T6N 1L5"
https://thaiexpress.ca/wp-content/plugins/superstorefinder-wp/ssf-wp-xml.php?wpml_lang=en&t=1564582064002,South Keys,<INACCESSIBLE>,<INACCESSIBLE>,<INACCESSIBLE>,<INACCESSIBLE>,US,<MISSING>,6136808977,<MISSING>,45.3556337,-75.6546138,"Sunday: 11:00, 21:00, Monday: 11:00, 21:00, Tuesday: 11:00, 21:00, Wednesday: 11:00, 21:00, Thursday: 11:00, 21:00, Friday: 11:00, 21:00, Saturday: 11:00, 21:00","2210 Bank street  Ottawa,  ON K1V  1J5"
https://thaiexpress.ca/wp-content/plugins/superstorefinder-wp/ssf-wp-xml.php?wpml_lang=en&t=1564582064002,Southcore Financial Centre,<INACCESSIBLE>,<INACCESSIBLE>,<INACCESSIBLE>,<INACCESSIBLE>,US,<MISSING>,4163607340,<MISSING>,43.6425704,-79.3830512,"Sunday: Closed, Monday: 11:00, 18:00, Tuesday: 11:00, 18:00, Wednesday: 11:00, 18:00, Thursday: 11:00, 18:00, Friday: 11:00, 18:00, Saturday: Closed","120 Bremner Boulevard  Toronto,  ON M5J 0B2"
https://thaiexpress.ca/wp-content/plugins/superstorefinder-wp/ssf-wp-xml.php?wpml_lang=en&t=1564582064002,Southgate Centre,<INACCESSIBLE>,<INACCESSIBLE>,<INACCESSIBLE>,<INACCESSIBLE>,US,<MISSING>,7804306946,<MISSING>,53.4854955,-113.513648,"Sunday: 11:00, 17:00, Monday: 10:00, 21:00, Tuesday: 10:00, 21:00, Wednesday: 10:00, 21:00, Thursday: 10:00, 21:00, Friday: 10:00, 21:00, Saturday: 9:30, 18:00","5015 111 Street N.W.  Edmonton,  AB T6H 4M6"
https://thaiexpress.ca/wp-content/plugins/superstorefinder-wp/ssf-wp-xml.php?wpml_lang=en&t=1564582064002,Spring TX,<INACCESSIBLE>,<INACCESSIBLE>,<INACCESSIBLE>,<INACCESSIBLE>,US,<MISSING>,2812016442,<MISSING>,30.0886812,-95.5212992,"Sunday: 11:00, 21:30, Monday: 11:00, 21:30, Tuesday: 11:00, 21:30, Wednesday: 11:00, 21:30, Thursday: 11:00, 21:30, Friday: 11:00, 21:30, Saturday: 11:00, 21:30","6615N. Grand Parkway W.&#44; Suite 101  Spring,  TX 77839"
https://thaiexpress.ca/wp-content/plugins/superstorefinder-wp/ssf-wp-xml.php?wpml_lang=en&t=1564582064002,Square One,<INACCESSIBLE>,<INACCESSIBLE>,<INACCESSIBLE>,<INACCESSIBLE>,US,<MISSING>,9052773672,<MISSING>,43.5930784,-79.6424911,"Sunday: 11:00, 19:00, Monday: 10:00, 21:00, Tuesday: 10:00, 21:00, Wednesday: 10:00, 21:00, Thursday: 10:00, 21:00, Friday: 10:00, 21:00, Saturday: 09:30, 21:00","100 City Centre Drive  Mississauga,  ON L5B 2C9"
https://thaiexpress.ca/wp-content/plugins/superstorefinder-wp/ssf-wp-xml.php?wpml_lang=en&t=1564582064002,St-Antoine,<INACCESSIBLE>,<INACCESSIBLE>,<INACCESSIBLE>,<INACCESSIBLE>,US,<MISSING>,4504318008,<MISSING>,45.7634789,-73.9933304,"Sunday: 11:00, 21:00, Monday: 11:00, 21:30, Tuesday: 11:00, 21:30, Wednesday: 11:00, 21:30, Thursday: 11:00, 21:30, Friday: 11:00, 21:30, Saturday: 11:00, 21:00","471 boulevard des Laurentides  Saint-Jerome,  QC J7Z 4L9"
https://thaiexpress.ca/wp-content/plugins/superstorefinder-wp/ssf-wp-xml.php?wpml_lang=en&t=1564582064002,St-Canut,<INACCESSIBLE>,<INACCESSIBLE>,<INACCESSIBLE>,<INACCESSIBLE>,US,<MISSING>,4504327702,<MISSING>,45.70387,-74.0942436,"Sunday: 12:00, 20:00, Monday: 11:00, 20:00, Tuesday: 11:00, 20:00, Wednesday: 11:00, 20:00, Thursday: 11:00, 21:00, Friday: 11:00, 21:00, Saturday: 11:00, 20:00","13845 chemin Saint-Simon Suite 106  Mirabel,  QC J7N 1P3"
https://thaiexpress.ca/wp-content/plugins/superstorefinder-wp/ssf-wp-xml.php?wpml_lang=en&t=1564582064002,St-Charles,<INACCESSIBLE>,<INACCESSIBLE>,<INACCESSIBLE>,<INACCESSIBLE>,US,<MISSING>,5146940037,<MISSING>,45.4489159,-73.8559302,"Sunday: 10:00, 10:00, Monday: 10:00, 10:00, Tuesday: 10:00, 10:00, Wednesday: 10:00, 10:00, Thursday: 10:00, 10:00, Friday: 10:00, 10:00, Saturday: 10:00, 10:00","3006 St-Charles Boulevard&#44; #2  Kirkland,  QC  H9H 3B7"
https://thaiexpress.ca/wp-content/plugins/superstorefinder-wp/ssf-wp-xml.php?wpml_lang=en&t=1564582064002,St-Denis Mont-Royal,<INACCESSIBLE>,<INACCESSIBLE>,<INACCESSIBLE>,<INACCESSIBLE>,US,<MISSING>,5144479349,<MISSING>,45.5240254,-73.5826696,"Sunday: 11:00, 22:00, Monday: 11:00, 22:00, Tuesday: 11:00, 22:00, Wednesday: 11:00, 22:00, Thursday: 11:00, 22:00, Friday: 11:00, 22:00, Saturday: 11:00, 22:00","4497 St-Denis  Montreal,  QC H2J 2L2"
https://thaiexpress.ca/wp-content/plugins/superstorefinder-wp/ssf-wp-xml.php?wpml_lang=en&t=1564582064002,St-Denis/De Maisonneuve,<INACCESSIBLE>,<INACCESSIBLE>,<INACCESSIBLE>,<INACCESSIBLE>,US,<MISSING>,5149036662,<MISSING>,45.5148967,-73.5621983,"Sunday: 11:00, 23:00, Monday: 11:00, 23:00, Tuesday: 11:00, 23:00, Wednesday: 11:00, 23:00, Thursday: 11:00, 23:00, Friday: 11:00, 00:00, Saturday: 11:00, 00:00","1581 rue Saint-Denis  Montreal,  QC H2X 3K3"
https://thaiexpress.ca/wp-content/plugins/superstorefinder-wp/ssf-wp-xml.php?wpml_lang=en&t=1564582064002,St-Germain-de-Grantham,<INACCESSIBLE>,<INACCESSIBLE>,<INACCESSIBLE>,<INACCESSIBLE>,US,<MISSING>,8197300072,<MISSING>,45.8540004,-72.5801656,"Sunday: 10:00, 21:00, Monday: 10:00, 21:00, Tuesday: 10:00, 21:00, Wednesday: 10:00, 21:00, Thursday: 10:00, 22:00, Friday: 10:00, 22:00, Saturday: 10:00, 21:00","348 chemin Yamaska  St-Germain-de-Grantham,  QC J0C 1K0"
https://thaiexpress.ca/wp-content/plugins/superstorefinder-wp/ssf-wp-xml.php?wpml_lang=en&t=1564582064002,St-Jean-Sur-Richelieu,<INACCESSIBLE>,<INACCESSIBLE>,<INACCESSIBLE>,<INACCESSIBLE>,US,<MISSING>,4503767007,<MISSING>,45.3197651,-73.2636291,"Sunday: 10:00, 22:00, Monday: 10:00, 22:00, Tuesday: 10:00, 22:00, Wednesday: 10:00, 22:00, Thursday: 10:00, 22:00, Friday: 10:00, 22:00, Saturday: 10:00, 22:00","651 boulevard Du Seminaire Nord  Saint-Jean-Sur-Richelieu,  QC J3B 5M2"
https://thaiexpress.ca/wp-content/plugins/superstorefinder-wp/ssf-wp-xml.php?wpml_lang=en&t=1564582064002,St-Laurent -Cremazie,<INACCESSIBLE>,<INACCESSIBLE>,<INACCESSIBLE>,<INACCESSIBLE>,US,<MISSING>,5143891188,<MISSING>,45.541797,-73.6433837,"Sunday: 11:00, 21:00, Monday: 11:00, 21:00, Tuesday: 11:00, 21:00, Wednesday: 11:00, 21:00, Thursday: 11:00, 21:00, Friday: 11:00, 21:00, Saturday: 11:00, 21:00","8780 boulevard Saint-Laurent local 7  Montreal,  QC H2N 1M4"
https://thaiexpress.ca/wp-content/plugins/superstorefinder-wp/ssf-wp-xml.php?wpml_lang=en&t=1564582064002,St. Laurent Centre,<INACCESSIBLE>,<INACCESSIBLE>,<INACCESSIBLE>,<INACCESSIBLE>,US,<MISSING>,6133214403,<MISSING>,45.4219466,-75.6387057,"Sunday: 11:00, 17:00, Monday: 11:00, 21:00, Tuesday: 11:00, 21:00, Wednesday: 11:00, 21:00, Thursday: 11:00, 21:00, Friday: 11:00, 21:00, Saturday: 11:00, 18:00","1200 St. Laurent Boulevard  Ottawa,  ON K1K 3B8"
https://thaiexpress.ca/wp-content/plugins/superstorefinder-wp/ssf-wp-xml.php?wpml_lang=en&t=1564582064002,St. Vital,<INACCESSIBLE>,<INACCESSIBLE>,<INACCESSIBLE>,<INACCESSIBLE>,US,<MISSING>,2042548555,<MISSING>,49.828864,-97.1104648,"Sunday: 11:00, 18:00, Monday: 10:00, 21:00, Tuesday: 10:00, 21:00, Wednesday: 10:00, 21:00, Thursday: 10:00, 21:00, Friday: 10:00, 21:00, Saturday: 9:30, 18:00","1225 St. Mary  Winnipeg,  MB R2M 5E5"
https://thaiexpress.ca/wp-content/plugins/superstorefinder-wp/ssf-wp-xml.php?wpml_lang=en&t=1564582064002,Ste-Agathe,<INACCESSIBLE>,<INACCESSIBLE>,<INACCESSIBLE>,<INACCESSIBLE>,US,<MISSING>,8193238787,<MISSING>,46.0457895,-74.2774564,"Sunday: 11:00, 20:00, Monday: 11:00, 20:00, Tuesday: 11:00, 20:00, Wednesday: 11:00, 20:00, Thursday: 11:00, 20:00, Friday: 11:00, 20:00, Saturday: 11:00, 20:00","200 rue Principale  Sainte-Agathe-Des-Monts,  QC J8C 1K6"
https://thaiexpress.ca/wp-content/plugins/superstorefinder-wp/ssf-wp-xml.php?wpml_lang=en&t=1564582064002,Stone Road Mall,<INACCESSIBLE>,<INACCESSIBLE>,<INACCESSIBLE>,<INACCESSIBLE>,US,<MISSING>,5198242115,<MISSING>,43.5182747,-80.2387533,"Sunday: 11:00, 18:00, Monday: 11:00, 21:00, Tuesday: 11:00, 21:00, Wednesday: 11:00, 21:00, Thursday: 11:00, 21:00, Friday: 11:00, 21:00, Saturday: 11:00, 19:00","435 Stone Road West  Guelph,  ON N1G 2X6"
https://thaiexpress.ca/wp-content/plugins/superstorefinder-wp/ssf-wp-xml.php?wpml_lang=en&t=1564582064002,Stonegate Plaza,<INACCESSIBLE>,<INACCESSIBLE>,<INACCESSIBLE>,<INACCESSIBLE>,US,<MISSING>,4032932811,<MISSING>,51.1543428,-113.9985195,"Sunday: 12:00, 20:00, Monday: 11:00, 21:00, Tuesday: 11:00, 21:00, Wednesday: 11:00, 21:00, Thursday: 11:00, 21:00, Friday: 11:00, 21:00, Saturday: 11:00, 21:00","404-2550 Country Hills Boulevard NE  Calagary,  AB T3N 1E4"
https://thaiexpress.ca/wp-content/plugins/superstorefinder-wp/ssf-wp-xml.php?wpml_lang=en&t=1564582064002,Summerside,<INACCESSIBLE>,<INACCESSIBLE>,<INACCESSIBLE>,<INACCESSIBLE>,US,<MISSING>,9024368731,<MISSING>,46.4164086,-63.7800983,"Sunday: 11:00, 22:00, Monday: 11:00, 22:00, Tuesday: 11:00, 22:00, Wednesday: 11:00, 22:00, Thursday: 11:00, 22:00, Friday: 11:00, 22:00, Saturday: 11:00, 22:00","519 Granville Street  Granville,  PEI C1N 5J4"
https://thaiexpress.ca/wp-content/plugins/superstorefinder-wp/ssf-wp-xml.php?wpml_lang=en&t=1564582064002,Suncor Energy Centre,<INACCESSIBLE>,<INACCESSIBLE>,<INACCESSIBLE>,<INACCESSIBLE>,US,<MISSING>,4032103328,<MISSING>,51.0479184,-114.0644599,"Sunday: Closed, Monday: 10:00, 18:00, Tuesday: 10:00, 18:00, Wednesday: 10:00, 18:00, Thursday: 10:00, 18:00, Friday: 10:00, 17:00, Saturday: Closed","150  6th Avenue S.W. #215  Calgary,  AB T2P 3Y6"
https://thaiexpress.ca/wp-content/plugins/superstorefinder-wp/ssf-wp-xml.php?wpml_lang=en&t=1564582064002,Sunridge Mall,<INACCESSIBLE>,<INACCESSIBLE>,<INACCESSIBLE>,<INACCESSIBLE>,US,<MISSING>,4034510818,<MISSING>,51.0741829,-113.98543,"Sunday: 10:00, 17:00, Monday: 10:00, 21:00, Tuesday: 10:00, 21:00, Wednesday: 10:00, 21:00, Thursday: 10:00, 21:00, Friday: 10:00, 21:00, Saturday: 10:00, 20:00","2525 36th Street N.E. #F106  Calgary,  AB T1Y 5T4"
https://thaiexpress.ca/wp-content/plugins/superstorefinder-wp/ssf-wp-xml.php?wpml_lang=en&t=1564582064002,Thai Express (Britannia Plaza),<INACCESSIBLE>,<INACCESSIBLE>,<INACCESSIBLE>,<INACCESSIBLE>,US,<MISSING>,6135965535,<MISSING>,45.363144,-75.790626,"Sunday: 11:00, 21:00, Monday: 11:00, 21:00, Tuesday: 11:00, 21:00, Wednesday: 11:00, 21:00, Thursday: 11:00, 21:00, Friday: 11:00, 21:00, Saturday: 11:00, 21:00","1465 Richmond Road Britannia Plaza Unit #300  Ottawa,  ON K2B 6R9"
https://thaiexpress.ca/wp-content/plugins/superstorefinder-wp/ssf-wp-xml.php?wpml_lang=en&t=1564582064002,Thai Express (Grassland),<INACCESSIBLE>,<INACCESSIBLE>,<INACCESSIBLE>,<INACCESSIBLE>,US,<MISSING>,3065650666,<MISSING>,50.4065822,-104.649314,"Sunday: 11:00, 21:00, Monday: 11:00, 21:01, Tuesday: 11:00, 21:02, Wednesday: 11:00, 21:03, Thursday: 11:00, 21:04, Friday: 11:00, 21:05, Saturday: 11:00, 21:06","4830 Gordon Road Unit 165  Regina,  SK S4W 0B7"
https://thaiexpress.ca/wp-content/plugins/superstorefinder-wp/ssf-wp-xml.php?wpml_lang=en&t=1564582064002,Thai Express (Unipetro),<INACCESSIBLE>,<INACCESSIBLE>,<INACCESSIBLE>,<INACCESSIBLE>,US,<MISSING>,9054554105,<MISSING>,43.6272267,-79.7750531,"Sunday: 11:00, 10:00, Monday: 10:00, 9:00, Tuesday: 9:00, Wednesday: 10:00, 9:00, Thursday: 10:00, 9:00, Friday: 10:00, 10:00, Saturday: 11:00, 10:00","7965 Mississauga Rd.  Brampton,  ON L6Y 0B9"
https://thaiexpress.ca/wp-content/plugins/superstorefinder-wp/ssf-wp-xml.php?wpml_lang=en&t=1564582064002,The Core Shopping Centre,<INACCESSIBLE>,<INACCESSIBLE>,<INACCESSIBLE>,<INACCESSIBLE>,US,<MISSING>,4032379966,<MISSING>,51.0461119,-114.0709288,"Sunday: 12:00, 17:00, Monday: 10:00, 18:00, Tuesday: 10:00, 18:00, Wednesday: 10:00, 18:00, Thursday: 10:00, 20:00, Friday: 10:00, 20:00, Saturday: 11:00, 18:00","751 3rd Street S.W.  Calgary,  AB T2P 4K8"
https://thaiexpress.ca/wp-content/plugins/superstorefinder-wp/ssf-wp-xml.php?wpml_lang=en&t=1564582064002,Thetford Mines,<INACCESSIBLE>,<INACCESSIBLE>,<INACCESSIBLE>,<INACCESSIBLE>,US,<MISSING>,4183383876,<MISSING>,46.097039,-71.321133,"Sunday: 11:00, 20:00, Monday: 11:00, 20:00, Tuesday: 11:00, 20:00, Wednesday: 11:00, 20:30, Thursday: 11:00, 20:30, Friday: 11:00, 20:30, Saturday: 11:00, 20:30","520 boulevard Frontenac Ouest local 108  Thetford Mines,  QC G6G 5V9"
https://thaiexpress.ca/wp-content/plugins/superstorefinder-wp/ssf-wp-xml.php?wpml_lang=en&t=1564582064002,Toronto Pearson International Airport,<INACCESSIBLE>,<INACCESSIBLE>,<INACCESSIBLE>,<INACCESSIBLE>,US,<MISSING>,4.16776E+14,<MISSING>,43.68047,-79.6117275,"Sunday: 08:00, 12:00, Monday: 08:00, 12:00, Tuesday: 08:00, 12:00, Wednesday: 08:00, 12:00, Thursday: 08:00, 12:00, Friday: 08:00, 12:00, Saturday: 08:00, 12:00","6301 Silver Dart Drive Terminal 1  Mississauga,  ON L4W 1S9"
https://thaiexpress.ca/wp-content/plugins/superstorefinder-wp/ssf-wp-xml.php?wpml_lang=en&t=1564582064002,Tour de la Banque Nationale,<INACCESSIBLE>,<INACCESSIBLE>,<INACCESSIBLE>,<INACCESSIBLE>,US,<MISSING>,5148752665,<MISSING>,45.5010233,-73.564439,"Sunday: Closed, Monday: 11:00, 17:00, Tuesday: 11:00, 17:00, Wednesday: 11:00, 17:00, Thursday: 11:00, 17:00, Friday: 11:00, 17:00, Saturday: Closed","1001 boulevard Robert-Bourassa Local C-28  Montreal,  QC H3B 4L4"
https://thaiexpress.ca/wp-content/plugins/superstorefinder-wp/ssf-wp-xml.php?wpml_lang=en&t=1564582064002,Tour de la Banque Nationale,<INACCESSIBLE>,<INACCESSIBLE>,<INACCESSIBLE>,<INACCESSIBLE>,US,<MISSING>,5148752665,<MISSING>,45.5010233,-73.564439,"Sunday: Closed, Monday: 11:00, 5:00, Tuesday: 11:00, 5:00, Wednesday: 11:00, 5:00, Thursday: 11:00, 5:00, Friday: 11:00, 5:00, Saturday: 11:00, 5:00","Local C-28&#44;&#44; 700 de la Gauchetière Tower&#44; 1001 Blvd. Robert-Bourassa Local C-28&#44;  Montreal,  QC H3B 4L4"
https://thaiexpress.ca/wp-content/plugins/superstorefinder-wp/ssf-wp-xml.php?wpml_lang=en&t=1564582064002,Trainyards,<INACCESSIBLE>,<INACCESSIBLE>,<INACCESSIBLE>,<INACCESSIBLE>,US,<MISSING>,6137894949,<MISSING>,45.4119768,-75.6460703,"Sunday: 11:00, 21:00, Monday: 11:00, 21:00, Tuesday: 11:00, 21:00, Wednesday: 11:00, 21:00, Thursday: 11:00, 22:00, Friday: 11:00, 22:00, Saturday: 11:00, 21:00","525 Industrial Avenue  #3 Ottawa,  ON K1G 0Z1"
https://thaiexpress.ca/wp-content/plugins/superstorefinder-wp/ssf-wp-xml.php?wpml_lang=en&t=1564582064002,Trent University,<INACCESSIBLE>,<INACCESSIBLE>,<INACCESSIBLE>,<INACCESSIBLE>,US,<MISSING>,7.05748E+13,<MISSING>,44.3568962,-78.2902191,"Sunday: 11:00, 21:00, Monday: 11:00, 21:00, Tuesday: 11:00, 21:00, Wednesday: 11:00, 21:00, Thursday: 11:00, 22:00, Friday: 11:00, 22:00, Saturday: 11:00, 21:00","1600 West Bank Drive  Peterborough,  ON K9J 7B8"
https://thaiexpress.ca/wp-content/plugins/superstorefinder-wp/ssf-wp-xml.php?wpml_lang=en&t=1564582064002,Truro,<INACCESSIBLE>,<INACCESSIBLE>,<INACCESSIBLE>,<INACCESSIBLE>,US,<MISSING>,9028958288,<MISSING>,45.368161,-63.3145878,"Sunday: 11:00, 22:00, Monday: 11:00, 22:00, Tuesday: 11:00, 22:00, Wednesday: 11:00, 22:00, Thursday: 11:00, 22:00, Friday: 11:00, 22:00, Saturday: 11:00, 22:00","69 Robie Street  Truro,  NS B2N 1K8"
https://thaiexpress.ca/wp-content/plugins/superstorefinder-wp/ssf-wp-xml.php?wpml_lang=en&t=1564582064002,Unit 18&#44; 34 Southridge Drive,<INACCESSIBLE>,<INACCESSIBLE>,<INACCESSIBLE>,<INACCESSIBLE>,US,<MISSING>,4039952121,<MISSING>,50.713711,-113.9769186,"Sunday: 10:00, 21:00, Monday: 10:00, 21:00, Tuesday: 10:00, 21:00, Wednesday: 10:00, 21:00, Thursday: 10:00, 21:00, Friday: 10:00, 21:00, Saturday: 11:00, 21:00","Unit 18&#44; 34 Southridge Drive  Okotoks,  AB T1S 2G5"
https://thaiexpress.ca/wp-content/plugins/superstorefinder-wp/ssf-wp-xml.php?wpml_lang=en&t=1564582064002,Universite de Sherbrooke,<INACCESSIBLE>,<INACCESSIBLE>,<INACCESSIBLE>,<INACCESSIBLE>,US,<MISSING>,4506518880,<MISSING>,45.5248244,-73.5213151,"Sunday: 11:00, 18:00, Monday: 11:00, 21:00, Tuesday: 11:00, 21:00, Wednesday: 11:00, 21:00, Thursday: 11:00, 21:00, Friday: 11:00, 21:00, Saturday: 11:00, 18:00","150 Place Charles-Le Moyne  Longueuil,  QC J4K 0A8"
https://thaiexpress.ca/wp-content/plugins/superstorefinder-wp/ssf-wp-xml.php?wpml_lang=en&t=1564582064002,University Avenue,<INACCESSIBLE>,<INACCESSIBLE>,<INACCESSIBLE>,<INACCESSIBLE>,US,<MISSING>,4162041592,<MISSING>,43.6558353,-79.3881303,"Monday: 10:00, 19:00, Tuesday: 10:00, 19:00, Wednesday: 10:00, 19:00, Thursday: 10:00, 19:00, Friday: 10:00, 19:00, Saturday: Closed, Sunday: Closed","505 University Avenue  Toronto,  ON M5G 1H4"
https://thaiexpress.ca/wp-content/plugins/superstorefinder-wp/ssf-wp-xml.php?wpml_lang=en&t=1564582064002,Varennes,<INACCESSIBLE>,<INACCESSIBLE>,<INACCESSIBLE>,<INACCESSIBLE>,US,<MISSING>,4509851220,<MISSING>,45.6544272,-73.4204802,"Sunday: 11:00, 20:00, Monday: 11:00, 20:00, Tuesday: 11:00, 20:00, Wednesday: 11:00, 20:00, Thursday: 11:00, 21:00, Friday: 11:00, 21:00, Saturday: 11:00, 20:00","536 boulevard Lionel-Boulet  Varennes,  QC J3X 1P7"
https://thaiexpress.ca/wp-content/plugins/superstorefinder-wp/ssf-wp-xml.php?wpml_lang=en&t=1564582064002,Victoriaville,<INACCESSIBLE>,<INACCESSIBLE>,<INACCESSIBLE>,<INACCESSIBLE>,US,<MISSING>,8196040731,<MISSING>,46.0564025,-71.9407398,"Sunday: 11:00, 21:00, Monday: 11:00, 21:00, Tuesday: 11:00, 21:00, Wednesday: 11:00, 21:00, Thursday: 11:00, 22:00, Friday: 11:00, 22:00, Saturday: 11:00, 22:00","481 boulevard Jutras Est  Victoriaville,  QC G6P 7H4"
https://thaiexpress.ca/wp-content/plugins/superstorefinder-wp/ssf-wp-xml.php?wpml_lang=en&t=1564582064002,Village Lachine,<INACCESSIBLE>,<INACCESSIBLE>,<INACCESSIBLE>,<INACCESSIBLE>,US,<MISSING>,5146372999,<MISSING>,45.4401705,-73.692486,"Sunday: 11:00, 21:00, Monday: 11:00, 21:00, Tuesday: 11:00, 21:00, Wednesday: 11:00, 21:00, Thursday: 11:00, 21:00, Friday: 11:00, 21:00, Saturday: 11:00, 21:00","637 32e avenue  Lachine,  QC H8T 3G6"
https://thaiexpress.ca/wp-content/plugins/superstorefinder-wp/ssf-wp-xml.php?wpml_lang=en&t=1564582064002,Vogell Road,<INACCESSIBLE>,<INACCESSIBLE>,<INACCESSIBLE>,<INACCESSIBLE>,US,<MISSING>,9057373232,<MISSING>,43.8643608,-79.3834238,"Sunday: 12:00, 20:00, Monday: 11:00, 20:00, Tuesday: 11:00, 20:00, Wednesday: 11:00, 20:00, Thursday: 11:00, 21:00, Friday: 11:00, 21:00, Saturday: 12:00, 20:00","16 Vogell Road  Richmond Hill,  ON L4B 3K4"
https://thaiexpress.ca/wp-content/plugins/superstorefinder-wp/ssf-wp-xml.php?wpml_lang=en&t=1564582064002,Waterfront Centre,<INACCESSIBLE>,<INACCESSIBLE>,<INACCESSIBLE>,<INACCESSIBLE>,US,<MISSING>,6046698038,<MISSING>,49.2867336,-123.1123927,"Sunday: 11:00, 18:00, Monday: 11:00, 19:00, Tuesday: 11:00, 19:00, Wednesday: 11:00, 19:00, Thursday: 11:00, 19:00, Friday: 11:00, 19:00, Saturday: 11:00, 18:00","200 Granville Street  Vancouver,  BC V6C 1S4"
https://thaiexpress.ca/wp-content/plugins/superstorefinder-wp/ssf-wp-xml.php?wpml_lang=en&t=1564582064002,West Edmonton Mall,<INACCESSIBLE>,<INACCESSIBLE>,<INACCESSIBLE>,<INACCESSIBLE>,US,<MISSING>,7803410773,<MISSING>,53.5232325,-113.6267528,"Sunday: 11:00, 18:00, Monday: 11:00, 21:00, Tuesday: 11:00, 21:00, Wednesday: 11:00, 21:00, Thursday: 11:00, 21:00, Friday: 11:00, 21:00, Saturday: 11:00, 21:00","1562 8882 170 Street North  West Edmonton,  AB T5T 4J2"
https://thaiexpress.ca/wp-content/plugins/superstorefinder-wp/ssf-wp-xml.php?wpml_lang=en&t=1564582064002,West Edmonton Mall 2,<INACCESSIBLE>,<INACCESSIBLE>,<INACCESSIBLE>,<INACCESSIBLE>,US,<MISSING>,7803414888,<MISSING>,53.5229628,-113.6196718,"Sunday: 11:00, 18:00, Monday: 11:00, 21:00, Tuesday: 11:00, 21:00, Wednesday: 11:00, 21:00, Thursday: 11:00, 21:00, Friday: 11:00, 21:00, Saturday: 11:00, 21:00","1866-8882 170 Street Local G107  Edmonton,  AB T5T 3J7"
https://thaiexpress.ca/wp-content/plugins/superstorefinder-wp/ssf-wp-xml.php?wpml_lang=en&t=1564582064002,Westmorland NB,<INACCESSIBLE>,<INACCESSIBLE>,<INACCESSIBLE>,<INACCESSIBLE>,US,<MISSING>,5066347979,<MISSING>,45.3105774,-66.0144369,"Sunday: 11:00, 20:00, Monday: 11:00, 21:00, Tuesday: 11:00, 21:00, Wednesday: 11:00, 21:00, Thursday: 11:00, 22:00, Friday: 11:00, 22:00, Saturday: 11:00, 22:00","533 Westmorland Road  St John,  NB E2J 2G5"
https://thaiexpress.ca/wp-content/plugins/superstorefinder-wp/ssf-wp-xml.php?wpml_lang=en&t=1564582064002,Westmount Square,<INACCESSIBLE>,<INACCESSIBLE>,<INACCESSIBLE>,<INACCESSIBLE>,US,<MISSING>,5142238119,<MISSING>,45.4875346,-73.5875203,"Sunday: Closed, Monday: 11:00, 18:00, Tuesday: 11:00, 18:00, Wednesday: 11:00, 18:00, Thursday: 11:00, 18:00, Friday: 11:00, 18:00, Saturday: 11:00, 16:00","1 Westmount Square  Montreal,  QC H3Z 2P9"
https://thaiexpress.ca/wp-content/plugins/superstorefinder-wp/ssf-wp-xml.php?wpml_lang=en&t=1564582064002,Weston &amp; St Clair,<INACCESSIBLE>,<INACCESSIBLE>,<INACCESSIBLE>,<INACCESSIBLE>,US,<MISSING>,4166041888,<MISSING>,43.674046,-79.4693489,"Sunday: 11:00, 21:00, Monday: 11:00, 21:00, Tuesday: 11:00, 21:00, Wednesday: 11:00, 21:00, Thursday: 11:00, 21:30, Friday: 11:00, 21:30, Saturday: 11:00, 22:00","70 Weston Road  Toronto,  ON M6N 0A7"
https://thaiexpress.ca/wp-content/plugins/superstorefinder-wp/ssf-wp-xml.php?wpml_lang=en&t=1564582064002,White Oaks Mall,<INACCESSIBLE>,<INACCESSIBLE>,<INACCESSIBLE>,<INACCESSIBLE>,US,<MISSING>,5196681888,<MISSING>,42.932052,-81.2211378,"Sunday: 11:00, 17:00, Monday: 10:00, 18:00, Tuesday: 10:00, 18:00, Wednesday: 10:00, 18:00, Thursday: 10:00, 18:00, Friday: 10:00, 18:00, Saturday: 10:00, 18:00","1104 Wellington Road  London,  ON N6E 1V4"
https://thaiexpress.ca/wp-content/plugins/superstorefinder-wp/ssf-wp-xml.php?wpml_lang=en&t=1564582064002,Willowbrook Shopping Centre,<INACCESSIBLE>,<INACCESSIBLE>,<INACCESSIBLE>,<INACCESSIBLE>,US,<MISSING>,6044272247,<MISSING>,49.1147807,-122.6750018,"Sunday: 11:00, 18:00, Monday: 11:00, 18:00, Tuesday: 11:00, 18:00, Wednesday: 11:00, 21:00, Thursday: 11:00, 21:00, Friday: 11:00, 21:00, Saturday: 11:00, 18:00","150 -19705 Fraser Highway  Langley,  BC V3A 7E9"
https://thaiexpress.ca/wp-content/plugins/superstorefinder-wp/ssf-wp-xml.php?wpml_lang=en&t=1564582064002,Woman College Place,<INACCESSIBLE>,<INACCESSIBLE>,<INACCESSIBLE>,<INACCESSIBLE>,US,<MISSING>,4169219222,<MISSING>,43.6615921,-79.3869593,"Sunday: Closed, Monday: 10:00, 18:00, Tuesday: 10:00, 18:00, Wednesday: 10:00, 18:00, Thursday: 10:00, 18:00, Friday: 10:00, 18:00, Saturday: Closed","76 Grenville Street Unit 3  Toronto,  ON M5S 1B2"
https://thaiexpress.ca/wp-content/plugins/superstorefinder-wp/ssf-wp-xml.php?wpml_lang=en&t=1564582064002,Woodbine Centre,<INACCESSIBLE>,<INACCESSIBLE>,<INACCESSIBLE>,<INACCESSIBLE>,US,<MISSING>,4166798158,<MISSING>,43.7202592,-79.6003615,"Sunday: 11:00, 17:00, Monday: 11:00, 21:00, Tuesday: 11:00, 21:00, Wednesday: 11:00, 21:00, Thursday: 11:00, 21:00, Friday: 11:00, 21:00, Saturday: 11:00, 18:00","500 Rexdale Boulevard  Etobicoke,  ON M9W 6K5"
https://thaiexpress.ca/wp-content/plugins/superstorefinder-wp/ssf-wp-xml.php?wpml_lang=en&t=1564582064002,Woodhill Centre,<INACCESSIBLE>,<INACCESSIBLE>,<INACCESSIBLE>,<INACCESSIBLE>,US,<MISSING>,9057998388,<MISSING>,43.7445905,-79.6964138,"Sunday: 11:00, 21:00, Monday: 11:00, 21:00, Tuesday: 11:00, 21:00, Wednesday: 11:00, 21:00, Thursday: 11:00, 22:00, Friday: 11:00, 22:00, Saturday: 11:00, 21:00","9045 Airport Road  Brampton,  ON L6S 0B8"
https://thaiexpress.ca/wp-content/plugins/superstorefinder-wp/ssf-wp-xml.php?wpml_lang=en&t=1564582064002,World Exchange Plaza,<INACCESSIBLE>,<INACCESSIBLE>,<INACCESSIBLE>,<INACCESSIBLE>,US,<MISSING>,6132390329,<MISSING>,45.4216242,-75.6974725,"Sunday: Closed, Monday: 11:00, 16:00, Tuesday: 11:00, 16:00, Wednesday: 11:00, 16:00, Thursday: 11:00, 16:00, Friday: 11:00, 16:00, Saturday: Closed","111 Albert Street  Ottawa,  ON K1P 1A5"
https://thaiexpress.ca/wp-content/plugins/superstorefinder-wp/ssf-wp-xml.php?wpml_lang=en&t=1564582064002,Yamachiche,<INACCESSIBLE>,<INACCESSIBLE>,<INACCESSIBLE>,<INACCESSIBLE>,US,<MISSING>,8192288881,<MISSING>,46.2769359,-72.846269,"Sunday: 08:00, 22:00, Monday: 08:00, 20:00, Tuesday: 08:00, 20:00, Wednesday: 08:00, 20:00, Thursday: 08:00, 22:00, Friday: 08:00, 22:00, Saturday: 08:00, 22:00","14 rue Sainte-Anne  Yamachiche,  QC G0X 3L0"
https://thaiexpress.ca/wp-content/plugins/superstorefinder-wp/ssf-wp-xml.php?wpml_lang=en&t=1564582064002,Yonge Sheppard Centre,<INACCESSIBLE>,<INACCESSIBLE>,<INACCESSIBLE>,<INACCESSIBLE>,US,<MISSING>,4167339775,<MISSING>,43.7625088,-79.4105316,"Sunday: Closed, Monday: 11:00, 20:00, Tuesday: 11:00, 20:00, Wednesday: 11:00, 20:00, Thursday: 11:00, 20:00, Friday: 11:00, 20:00, Saturday: 11:00, 20:00","4841 Yonge Street Unit 207  North York,  ON M2N 5X2"
https://thaiexpress.ca/wp-content/plugins/superstorefinder-wp/ssf-wp-xml.php?wpml_lang=en&t=1564582064002,York Lanes,<INACCESSIBLE>,<INACCESSIBLE>,<INACCESSIBLE>,<INACCESSIBLE>,US,<MISSING>,4167365108,<MISSING>,43.7780455,-79.495472,"Sunday: 11:00, 22:00, Monday: 10:00, 23:00, Tuesday: 10:00, 23:00, Wednesday: 10:00, 23:00, Thursday: 10:00, 23:00, Friday: 10:00, 23:00, Saturday: 11:00, 22:00","4700 Keele Street  Toronto,  ON M3J 1P3"
https://thaiexpress.ca/wp-content/plugins/superstorefinder-wp/ssf-wp-xml.php?wpml_lang=en&t=1564582064002,York Mills Centre,<INACCESSIBLE>,<INACCESSIBLE>,<INACCESSIBLE>,<INACCESSIBLE>,US,<MISSING>,6474270777,<MISSING>,43.7448718,-79.4062892,"Sunday: Closed, Monday: 9:00, 19:00, Tuesday: 9:00, 19:00, Wednesday: 9:00, 19:00, Thursday: 9:00, 19:00, Friday: 9:00, 19:00, Saturday: 9:00, 19:00","4025 Yonge Street  Toronto,  ON M2P 2E3"
https://thaiexpress.ca/wp-content/plugins/superstorefinder-wp/ssf-wp-xml.php?wpml_lang=en&t=1564582064002,Yorkdale Shopping Centre,<INACCESSIBLE>,<INACCESSIBLE>,<INACCESSIBLE>,<INACCESSIBLE>,US,<MISSING>,6473516688,<MISSING>,43.7246843,-79.4541729,"Sunday: 11:00, 19:00, Monday: 10:00, 21:00, Tuesday: 10:00, 21:00, Wednesday: 10:00, 21:00, Thursday: 10:00, 21:00, Friday: 10:00, 21:00, Saturday: 09:30, 21:00","3401 Dufferin Street  Toronto,  ON M6A 2T9"
