"locator_domain","location_name","street_address","city","state","zip","country_code","store_number","phone","location_type","latitude","longitude","hours_of_operation","page_url"
"https://www.chemicalbank.com/","Elkhart","303 South Third St","Elkhart","IN","46516","US","221259","(574) 295-9600","ATM","41.68415939209777","-85.97538694739342","<INACCESSIBLE>","https://www.chemicalbank.com/Locations"
"https://www.chemicalbank.com/","Goshen","511 West Lincoln Ave","Goshen","IN","46526","US","221260","(574) 533-2006","ATM","41.58678264663316","-85.84378704428673","<INACCESSIBLE>","https://www.chemicalbank.com/Locations"
"https://www.chemicalbank.com/","Albion -  Office","1301 N. Eaton Street","Albion","MI","49224-4008","US","221324","(517) 629-9178","ATM","42.2571","-84.7565","<INACCESSIBLE>","https://www.chemicalbank.com/Locations"
"https://www.chemicalbank.com/","Algonac","301 Summer Street","Algonac","MI","48001","US","221247","(810) 794-4958","ATM","42.61742331758908","-82.53205284476274","<INACCESSIBLE>","https://www.chemicalbank.com/Locations"
"https://www.chemicalbank.com/","Allegan -  Office","236 Hubbard Street","Allegan","MI","49010-1321","US","221291","(269) 673-6691","ATM","42.5278","-85.8506","<INACCESSIBLE>","https://www.chemicalbank.com/Locations"
"https://www.chemicalbank.com/","Allendale -  Office","5980 Lake Michigan Dr.","Allendale","MI","49401","US","221146","(616) 588-3810","ATM","42.972065999999","-85.93370899999","<INACCESSIBLE>","https://www.chemicalbank.com/Locations"
"https://www.chemicalbank.com/","Alpena -  M-32 Office","1324 M-32 West","Alpena","MI","49707-8105","US","221159","(989) 358-1780","ATM","45.061536","-83.478346","<INACCESSIBLE>","https://www.chemicalbank.com/Locations"
"https://www.chemicalbank.com/","Ann Arbor","2950 S State St","Ann Arbor","MI","48104","US","221268","(734) 887-3100","ATM","42.24468309837637","-83.7404128164053","<INACCESSIBLE>","https://www.chemicalbank.com/Locations"
"https://www.chemicalbank.com/","Au Gres -  Office","144 W. Huron Road","Au Gres","MI","48703-0168","US","221296","(989) 876-8141","ATM","44.0485","-83.697","<INACCESSIBLE>","https://www.chemicalbank.com/Locations"
"https://www.chemicalbank.com/","Auburn -  Office","232 W. Midland Road","Auburn","MI","48611-9411","US","221299","(989) 662-4421","ATM","43.6036","-84.0727","<INACCESSIBLE>","https://www.chemicalbank.com/Locations"
"https://www.chemicalbank.com/","Auburn Hills","1984 N Opdyke Rd","Auburn Hills","MI","48326","US","221275","(248) 370-8200","ATM","42.67097008114257","-83.24542790651321","<INACCESSIBLE>","https://www.chemicalbank.com/Locations"
"https://www.chemicalbank.com/","Bad Axe","833 N VanDyke","Bad Axe","MI","48413","US","221254","(989) 269-9211","ATM","43.81496282202787","-83.00140857696533","<INACCESSIBLE>","https://www.chemicalbank.com/Locations"
"https://www.chemicalbank.com/","Baroda -  Office","9061 First Street","Baroda","MI","49101","US","221307","(269) 422-1106","ATM","41.9547","-86.4855","<INACCESSIBLE>","https://www.chemicalbank.com/Locations"
"https://www.chemicalbank.com/","Battle Creek -  Pennfield Office","1295 Capital Ave NE","Battle Creek","MI","49017-5425","US","221171","(269) 968-2292","ATM","42.339533","-85.154705","<INACCESSIBLE>","https://www.chemicalbank.com/Locations"
"https://www.chemicalbank.com/","Battle Creek -  Riverside Office","290 Columbia Ave","Battle Creek","MI","49015-4409","US","221170","(269) 968-9139","ATM","42.298503","-85.187964","<INACCESSIBLE>","https://www.chemicalbank.com/Locations"
"https://www.chemicalbank.com/","Battle Creek -  Urbandale Office","1 Bedford Rd N","Battle Creek","MI","49037-1839","US","221172","(269) 968-6267","ATM","42.344354","-85.23015","<INACCESSIBLE>","https://www.chemicalbank.com/Locations"
"https://www.chemicalbank.com/","Bay City - Bangor Township Office","3533 East Wilder Road","Bay City","MI","48706-2129","US","221303","(989) 894-9898","ATM","43.6239","-83.9133","<INACCESSIBLE>","https://www.chemicalbank.com/Locations"
"https://www.chemicalbank.com/","Bay City -  Main Rivers Edge","21 E Main St.","Bay City","MI","48708-5662","US","221301","(989) 895-8521","ATM","43.59117084061188","-83.89340727682111","<INACCESSIBLE>","https://www.chemicalbank.com/Locations"
"https://www.chemicalbank.com/","Bay City - Seventh Street Auto Bank","600 Washington Avenue","Bay City","MI","48708-5716","US","221300","(989) 894-9865","ATM","43.5961","-83.888","<INACCESSIBLE>","https://www.chemicalbank.com/Locations"
"https://www.chemicalbank.com/","Bay City - West Side Office","314 E. Midland St.","Bay City","MI","48706-4689","US","221302","(989) 894-9877","ATM","43.6019","-83.9034","<INACCESSIBLE>","https://www.chemicalbank.com/Locations"
"https://www.chemicalbank.com/","Beaverton -  Office","190 S. Ross Street","Beaverton","MI","48612-0526","US","221333","(989) 435-7721","ATM","43.8815","-84.4855","<INACCESSIBLE>","https://www.chemicalbank.com/Locations"
"https://www.chemicalbank.com/","Beaverton - Edenville ATM","5777 South M-30","Beaverton","MI","48612","US","221351","<MISSING>","ATM","43.823890767895065","-84.38176595764162","<INACCESSIBLE>","https://www.chemicalbank.com/Locations"
"https://www.chemicalbank.com/","Belding -  Office","102 W. Main Street","Belding","MI","48809-1672","US","221336","(616) 794-2100","ATM","43.0979","-85.2288","<INACCESSIBLE>","https://www.chemicalbank.com/Locations"
"https://www.chemicalbank.com/","Belmont -  Office","6011A West River Road NE","Belmont","MI","49306-8866","US","221342","(616) 447-7400","ATM","43.0652","-85.6132","<INACCESSIBLE>","https://www.chemicalbank.com/Locations"
"https://www.chemicalbank.com/","Benton Harbor -  Downtown","433 West Main Street","Benton Harbor","MI","49022-5023","US","221308","(269) 927-1084","ATM","42.1138","-86.4646","<INACCESSIBLE>","https://www.chemicalbank.com/Locations"
"https://www.chemicalbank.com/","Benton Harbor - Fairplain Office","834 Nickerson Avenue","Benton Harbor","MI","49022-6320","US","221310","(269) 926-2248","ATM","42.0746","-86.4384","<INACCESSIBLE>","https://www.chemicalbank.com/Locations"
"https://www.chemicalbank.com/","Benton Harbor - Lake Michigan College ATM","2755 E. Napier Ave.","Benton Harbor","MI","49022","US","221190","<MISSING>","ATM","42.09670785845454","-86.39275275170803","<INACCESSIBLE>","https://www.chemicalbank.com/Locations"
"https://www.chemicalbank.com/","Benton Harbor - Meijers Pipestone","1920 Pipestone Rd","Benton Harbor","MI","49022","US","221189","<MISSING>","ATM","42.08235512884842","-86.42179101705551","<INACCESSIBLE>","https://www.chemicalbank.com/Locations"
"https://www.chemicalbank.com/","Benton Harbor - Orchards Office","1882 Pipestone Road","Benton Harbor","MI","49022-2304","US","221309","(269) 925-2276","ATM","42.0849","-86.4196","<INACCESSIBLE>","https://www.chemicalbank.com/Locations"
"https://www.chemicalbank.com/","Berrien Springs -  Office","9190 US Highway 31","Berrien Springs","MI","49103","US","221311","(269) 471-7749","ATM","41.9536","-86.3528","<INACCESSIBLE>","https://www.chemicalbank.com/Locations"
"https://www.chemicalbank.com/","Berrien Springs - Pri-Mart Quick Shop","8736 US 31","Berrien Springs","MI","49103","US","221213","<MISSING>","ATM","41.89538235019281","-86.3181015104056","<INACCESSIBLE>","https://www.chemicalbank.com/Locations"
"https://www.chemicalbank.com/","Big Rapids -  Main Office","125 N. Michigan Avenue","Big Rapids","MI","49307-1464","US","221349","(231) 796-9944","ATM","43.699403922215914","-85.48225297362808","<INACCESSIBLE>","https://www.chemicalbank.com/Locations"
"https://www.chemicalbank.com/","Big Rapids -  Southland Office","104 Perry Avenue","Big Rapids","MI","49307-2240","US","221348","(231) 796-0801","ATM","43.6879025690366","-85.48462956085205","<INACCESSIBLE>","https://www.chemicalbank.com/Locations"
"https://www.chemicalbank.com/","Birmingham","980 South Old Woodward","Birmingham","MI","48009","US","221261","(248) 647-1026","ATM","42.539757176919835","-83.20759400725364","<INACCESSIBLE>","https://www.chemicalbank.com/Locations"
"https://www.chemicalbank.com/","Bloomingdale -  ATM","101 Spring Street","Bloomingdale","MI","49026","US","221136","<MISSING>","ATM","42.38408227010893","-85.95766093254087","<INACCESSIBLE>","https://www.chemicalbank.com/Locations"
"https://www.chemicalbank.com/","Brighton","8700 North 2nd St","Brighton","MI","48116","US","221267","(810) 220-1199","ATM","42.53706740999743","-83.78725558519363","<INACCESSIBLE>","https://www.chemicalbank.com/Locations"
"https://www.chemicalbank.com/","Buchanan -  Office","128 Main Street","Buchanan","MI","49107-1455","US","221312","(269) 695-3815","ATM","41.8277","-86.3601","<INACCESSIBLE>","https://www.chemicalbank.com/Locations"
"https://www.chemicalbank.com/","Byron Center -  Office","2445 84th Street SW","Byron Center","MI","49315","US","221147","(616) 588-3801","ATM","42.812508000000","-85.72368600000","<INACCESSIBLE>","https://www.chemicalbank.com/Locations"
"https://www.chemicalbank.com/","Cadillac -  Downtown Office","302 S. Mitchell Street","Cadillac","MI","49601-1832","US","221141","(231) 775-6151","ATM","44.25058069266293","-85.39984291534426","<INACCESSIBLE>","https://www.chemicalbank.com/Locations"
"https://www.chemicalbank.com/","Cadillac -  NE Office","1408 North Mitchell Street","Cadillac","MI","49601-1129","US","221140","(231) 775-8588","ATM","44.2705","-85.4063","<INACCESSIBLE>","https://www.chemicalbank.com/Locations"
"https://www.chemicalbank.com/","Caledonia -  Office","627 E. Main Street","Caledonia","MI","49316-7571","US","221343","(616) 891-8113","ATM","42.7895","-85.5083","<INACCESSIBLE>","https://www.chemicalbank.com/Locations"
"https://www.chemicalbank.com/","Caro -  Autobank","150 E. Burnside Street","Caro","MI","48723","US","221134","(989) 673-3184","ATM","43.4897","-83.394","<INACCESSIBLE>","https://www.chemicalbank.com/Locations"
"https://www.chemicalbank.com/","Caro -  Main Office","240 N. State Street","Caro","MI","48723-1561","US","221133","(989) 673-3184","ATM","43.489942810469294","-83.39473906745911","<INACCESSIBLE>","https://www.chemicalbank.com/Locations"
"https://www.chemicalbank.com/","Carson City -  Office","10795 E. Carson City Road","Carson City","MI","48811-9560","US","221359","(989) 584-3105","ATM","43.177454767144134","-84.86049855155943","<INACCESSIBLE>","https://www.chemicalbank.com/Locations"
"https://www.chemicalbank.com/","Cass City -  Office","6363 Main Street","Cass City","MI","48726-1122","US","221135","(989) 872-4338","ATM","43.601163157011726","-83.1774421005249","<INACCESSIBLE>","https://www.chemicalbank.com/Locations"
"https://www.chemicalbank.com/","Charlevoix","1425 Bridge Street","Charlevoix","MI","49720","US","221174","(231) 547-6561","ATM","45.30501594077384","-85.26011824607849","<INACCESSIBLE>","https://www.chemicalbank.com/Locations"
"https://www.chemicalbank.com/","Clare - Cid's Marathon ATM","10197 S. Clare Ave.","Clare","MI","48617","US","221188","<MISSING>","ATM","43.8407174978002","-84.76810007393362","<INACCESSIBLE>","https://www.chemicalbank.com/Locations"
"https://www.chemicalbank.com/","Clare -  Main Office","807 N. McEwan Street","Clare","MI","48617-0710","US","221328","(989) 386-3411","ATM","43.8216","-84.7685","<INACCESSIBLE>","https://www.chemicalbank.com/Locations"
"https://www.chemicalbank.com/","Coldwater -  Autobank","24 Grand St","Coldwater","MI","49036","US","221205","(517) 278-7256","ATM","41.94260309892871","-85.00087335705757","<INACCESSIBLE>","https://www.chemicalbank.com/Locations"
"https://www.chemicalbank.com/","Coldwater - Willowbrook","375 N. Willowbrook Rd","Coldwater","MI","49036","US","221207","(517) 278-4566","ATM","41.95147703662294","-84.97126714560784","<INACCESSIBLE>","https://www.chemicalbank.com/Locations"
"https://www.chemicalbank.com/","Coleman -  Office","375 E. Railway Street","Coleman","MI","48618-9790","US","221350","(989) 465-6121","ATM","43.75622398922518","-84.58522833862304","<INACCESSIBLE>","https://www.chemicalbank.com/Locations"
"https://www.chemicalbank.com/","Coloma -  Auto Bank","6540 Paw Paw Avenue","Coloma","MI","49038-8805","US","221313","(269) 468-4482","ATM","42.1932","-86.301","<INACCESSIBLE>","https://www.chemicalbank.com/Locations"
"https://www.chemicalbank.com/","Coloma -  Office","209 N. Paw Paw Street","Coloma","MI","49038-9589","US","221314","(269) 468-3170","ATM","42.188","-86.3061","<INACCESSIBLE>","https://www.chemicalbank.com/Locations"
"https://www.chemicalbank.com/","Corunna -  Office","310 N. Shiawassee Street","Corunna","MI","48817-1440","US","221131","(989) 743-8573","ATM","42.9821","-84.1178","<INACCESSIBLE>","https://www.chemicalbank.com/Locations"
"https://www.chemicalbank.com/","Crystal -  ATM","101 N. Main Street","Crystal","MI","48818","US","221360","<MISSING>","ATM","43.2632","-84.9148","<INACCESSIBLE>","https://www.chemicalbank.com/Locations"
"https://www.chemicalbank.com/","Davison","727 S State Rd","Davison","MI","48423","US","221241","(810) 653-5383","ATM","43.02239315242937","-83.51718932390213","<INACCESSIBLE>","https://www.chemicalbank.com/Locations"
"https://www.chemicalbank.com/","Detroit","333 W Fort Street","Detroit","MI","48226","US","221278","(313) 967-9700","ATM","42.32916480889494","-83.05022209882742","<INACCESSIBLE>","https://www.chemicalbank.com/Locations"
"https://www.chemicalbank.com/","Dorr -  Office","1604 142nd Ave","Dorr","MI","49323","US","221149","(616) 588-3804","ATM","42.724879000000","-85.702579","<INACCESSIBLE>","https://www.chemicalbank.com/Locations"
"https://www.chemicalbank.com/","Dorr - Sandy Pines ATM","3681 28th St","Dorr","MI","49323","US","221191","<MISSING>","ATM","42.685971142192514","-85.81959955394268","<INACCESSIBLE>","https://www.chemicalbank.com/Locations"
"https://www.chemicalbank.com/","Dowagiac -  Office","114 Commercial Street","Dowagiac","MI","49047","US","221173","(269) 782-2337","ATM","41.9826","-86.1093","<INACCESSIBLE>","https://www.chemicalbank.com/Locations"
"https://www.chemicalbank.com/","Dowagiac - Sister Lakes ATM","67900 State Route 152","Dowagiac","MI","49047","US","221142","<MISSING>","ATM","42.08611849198366","-86.20411235847473","<INACCESSIBLE>","https://www.chemicalbank.com/Locations"
"https://www.chemicalbank.com/","East Lansing -  LPO","3496 East Lake Lansing Rd, Ste 150","East Lansing","MI","48823","US","221208","<MISSING>","ATM","42.76080642659026","-84.51237201690674","<INACCESSIBLE>","https://www.chemicalbank.com/Locations"
"https://www.chemicalbank.com/","East Tawas -  ATM","228 Newman St","East Tawas","MI","48730-1212","US","221169","<MISSING>","ATM","44.281053","-83.490877","<INACCESSIBLE>","https://www.chemicalbank.com/Locations"
"https://www.chemicalbank.com/","Eau Claire -  ATM","6534 Main Street","Eau Claire","MI","49111-5129","US","221315","<MISSING>","ATM","41.9851","-86.2995","<INACCESSIBLE>","https://www.chemicalbank.com/Locations"
"https://www.chemicalbank.com/","Edmore -  Office","400 E. Main Street","Edmore","MI","48829","US","221361","(989) 427-5121","ATM","43.408","-85.0403","<INACCESSIBLE>","https://www.chemicalbank.com/Locations"
"https://www.chemicalbank.com/","Edwardsburg -  Office","68955 M-62","Edwardsburg","MI","49112-9226","US","221327","(269) 663-3343","ATM","41.7992","-86.0781","<INACCESSIBLE>","https://www.chemicalbank.com/Locations"
"https://www.chemicalbank.com/","Elk Rapids","97 River Street","Elk Rapids","MI","49629","US","221175","(231) 264-5512","ATM","44.89855894519223","-85.4106064796448","<INACCESSIBLE>","https://www.chemicalbank.com/Locations"
"https://www.chemicalbank.com/","Essexville - Hampton Township Office","3101 Center Avenue","Essexville","MI","48732-1751","US","221304","(989) 894-2045","ATM","43.5944","-83.8433","<INACCESSIBLE>","https://www.chemicalbank.com/Locations"
"https://www.chemicalbank.com/","Evart -  Office","9568 US-10","Evart","MI","49631","US","221119","(231) 734-5532","ATM","43.90116383322481","-85.27735423278807","<INACCESSIBLE>","https://www.chemicalbank.com/Locations"
"https://www.chemicalbank.com/","Farmington -  Downtown","33205 Grand River Ave","Farmington","MI","48336","US","221266","(248) 615-0407","ATM","42.46379987951765","-83.37482370436191","<INACCESSIBLE>","https://www.chemicalbank.com/Locations"
"https://www.chemicalbank.com/","Farmington Hills - Farmington Halsted","37386 W 12 Mile Rd","Farmington Hills","MI","48331","US","221265","(248) 848-9030","ATM","42.498278709729924","-83.41664537787437","<INACCESSIBLE>","https://www.chemicalbank.com/Locations"
"https://www.chemicalbank.com/","Fennville -  ATM","125 S. Maple Street","Fennville","MI","49408-9354","US","221292","<MISSING>","ATM","42.59348523592409","-86.10418796539306","<INACCESSIBLE>","https://www.chemicalbank.com/Locations"
"https://www.chemicalbank.com/","Fenton -  Loan Production Office","3309 W Silver Lake Rd, Ste C","Fenton","MI","48430","US","221287","(810) 616-4000","ATM","42.80413868038783","-83.73672544956207","<INACCESSIBLE>","https://www.chemicalbank.com/Locations"
"https://www.chemicalbank.com/","Flint - Bristol Road Office","3501 South Linden Road","Flint","MI","48507-3011","US","221332","(810) 733-6330","ATM","42.9753","-83.7718","<INACCESSIBLE>","https://www.chemicalbank.com/Locations"
"https://www.chemicalbank.com/","Flint - Fenton Rd","6120 Fenton Rd","Flint","MI","48507","US","221242","(810) 232-3810","ATM","42.94086693467944","-83.6923449486494","<INACCESSIBLE>","https://www.chemicalbank.com/Locations"
"https://www.chemicalbank.com/","Flint - Genesee","3213 N Genesee Rd","Flint","MI","48506","US","221239","(810) 736-0440","ATM","43.053208268052394","-83.61641831696033","<INACCESSIBLE>","https://www.chemicalbank.com/Locations"
"https://www.chemicalbank.com/","Flint - Pierson Road Office","4346 West Pierson Road","Flint","MI","48504-1332","US","221331","(810) 732-1200","ATM","43.0607","-83.7672","<INACCESSIBLE>","https://www.chemicalbank.com/Locations"
"https://www.chemicalbank.com/","Flushing","220 E Main St","Flushing","MI","48433","US","221240","(810) 659-7712","ATM","43.0628205494009","-83.85335862636566","<INACCESSIBLE>","https://www.chemicalbank.com/Locations"
"https://www.chemicalbank.com/","Fort Gratiot","4778 24th Avenue","Fort Gratiot","MI","48059","US","221248","(810) 385-2672","ATM","43.0466460248787","-82.45648160576826","<INACCESSIBLE>","https://www.chemicalbank.com/Locations"
"https://www.chemicalbank.com/","Freeland","230 N. Main Street","Freeland","MI","48623-0107","US","221123","(989) 695-2060","ATM","43.5266","-84.1236","<INACCESSIBLE>","https://www.chemicalbank.com/Locations"
"https://www.chemicalbank.com/","Freeland - MBS International Airport ATM","9200 Garfield Rd","Freeland","MI","48623","US","221178","<MISSING>","ATM","43.5336803841699","-84.09007719755175","<INACCESSIBLE>","https://www.chemicalbank.com/Locations"
"https://www.chemicalbank.com/","Fremont -  Office","211 W. Main Street","Fremont","MI","49412-1139","US","221118","(231) 924-5600","ATM","43.4672","-85.9494","<INACCESSIBLE>","https://www.chemicalbank.com/Locations"
"https://www.chemicalbank.com/","Gaylord -  Main Office","521 W Main St","Gaylord","MI","49735-1860","US","221160","(989) 732-3502","ATM","45.027333","-84.680061","<INACCESSIBLE>","https://www.chemicalbank.com/Locations"
"https://www.chemicalbank.com/","Gaylord -  South","2091 S. Otsego Avenue","Gaylord","MI","49735-9422","US","221200","(989) 732-5540","ATM","45.0015825259827","-84.67645280063152","<INACCESSIBLE>","https://www.chemicalbank.com/Locations"
"https://www.chemicalbank.com/","Gladwin -  Office","1016 E. Cedar Avenue","Gladwin","MI","48624-7000","US","221334","(989) 426-4547","ATM","43.9804","-84.476","<INACCESSIBLE>","https://www.chemicalbank.com/Locations"
"https://www.chemicalbank.com/","Grand Haven -  Downtown","333 Washington Ave","Grand Haven","MI","49417","US","221258","(616) 846-1930","ATM","43.06329624935533","-86.22802153229713","<INACCESSIBLE>","https://www.chemicalbank.com/Locations"
"https://www.chemicalbank.com/","Grand Rapids - Bridge Street Office","910 Bridge Street NW","Grand Rapids","MI","49504-5538","US","221344","(616) 459-7254","ATM","42.9707","-85.6902","<INACCESSIBLE>","https://www.chemicalbank.com/Locations"
"https://www.chemicalbank.com/","Grand Rapids - Cascade Office","6275 28th Street S.E.","Grand Rapids","MI","49546-6970","US","221346","(616) 975-7700","ATM","42.9133","-85.5122","<INACCESSIBLE>","https://www.chemicalbank.com/Locations"
"https://www.chemicalbank.com/","Grand Rapids - Cutlerville Office","6455 Division Avenue South","Grand Rapids","MI","49548","US","221148","(616) 588-3803","ATM","42.84704100891391","-85.66430630554725","<INACCESSIBLE>","https://www.chemicalbank.com/Locations"
"https://www.chemicalbank.com/","Grand Rapids - East Paris Office","4024 Park East Court SE","Grand Rapids","MI","49546","US","221150","(616) 588-3814","ATM","42.935006999999","-85.56881199999","<INACCESSIBLE>","https://www.chemicalbank.com/Locations"
"https://www.chemicalbank.com/","Grand Rapids -  Downtown","150 Ottawa NE","Grand Rapids","MI","49503","US","221211","(616) 454-0156","ATM","42.96120231371734","-85.67053109407425","<INACCESSIBLE>","https://www.chemicalbank.com/Locations"
"https://www.chemicalbank.com/","Grand Rapids - Walker Main Office","2185 3 Mile Road NW","Grand Rapids","MI","49544","US","221345","(616) 785-2548","ATM","43.0152","-85.7231","<INACCESSIBLE>","https://www.chemicalbank.com/Locations"
"https://www.chemicalbank.com/","Grandville -  Office","4495 Wilson Ave","Grandville","MI","49418","US","221151","(616) 588-3807","ATM","42.882725000000","-85.76277399999","<INACCESSIBLE>","https://www.chemicalbank.com/Locations"
"https://www.chemicalbank.com/","Grayling -  Main Office","2500 I-75 Business Loop","Grayling","MI","49738-0686","US","221330","(989) 348-6511","ATM","44.6496","-84.7087","<INACCESSIBLE>","https://www.chemicalbank.com/Locations"
"https://www.chemicalbank.com/","Greenville -  Office","1311 W. Washington Street","Greenville","MI","48838-2191","US","221362","(616) 754-4629","ATM","43.1772","-85.2711","<INACCESSIBLE>","https://www.chemicalbank.com/Locations"
"https://www.chemicalbank.com/","Grosse Pointe Farms","99 Kercheval Ave","Grosse Pointe Farms","MI","48326","US","221280","(313) 647-0666","ATM","42.395495358049395","-82.9029855877161","<INACCESSIBLE>","https://www.chemicalbank.com/Locations"
"https://www.chemicalbank.com/","Grosse Pointe Woods","20276 Mack Avenue","Grosse Pointe Woods","MI","48326","US","221279","(313) 640-9051","ATM","42.436560443670935","-82.90752857923507","<INACCESSIBLE>","https://www.chemicalbank.com/Locations"
"https://www.chemicalbank.com/","Hale -  Office","114 N Washington St","Hale","MI","48739-8518","US","221165","(989) 728-2051","ATM","44.378091","-83.804889","<INACCESSIBLE>","https://www.chemicalbank.com/Locations"
"https://www.chemicalbank.com/","Hamilton -  Office","3614 M-40","Hamilton","MI","49419","US","221152","(269) 857-9000","ATM","42.682822000000","-86.01232899999","<INACCESSIBLE>","https://www.chemicalbank.com/Locations"
"https://www.chemicalbank.com/","Hamtramck","9252 Joseph Campau St","Hamtramck","MI","48212","US","221277","(313) 875-2000","ATM","42.39362047088919","-83.05542357265955","<INACCESSIBLE>","https://www.chemicalbank.com/Locations"
"https://www.chemicalbank.com/","Harbor Beach","106 South Huron Ave","Harbor Beach","MI","48441","US","221256","(989) 479-3255","ATM","43.84449013285324","-82.65126831829542","<INACCESSIBLE>","https://www.chemicalbank.com/Locations"
"https://www.chemicalbank.com/","Harrison -  North Office","3245 N Clare Ave","Harrison","MI","48625-9380","US","221329","(989) 539-2111","ATM","44.036","-84.8084","<INACCESSIBLE>","https://www.chemicalbank.com/Locations"
"https://www.chemicalbank.com/","Hartford -  Office","18 N. Center Street","Hartford","MI","49057-1135","US","221137","(269) 621-3196","ATM","42.20786291487662","-86.16698583068847","<INACCESSIBLE>","https://www.chemicalbank.com/Locations"
"https://www.chemicalbank.com/","Hastings -  Office","241 W. State Street","Hastings","MI","49058-1845","US","221298","(269) 945-3437","ATM","42.6489","-85.2897","<INACCESSIBLE>","https://www.chemicalbank.com/Locations"
"https://www.chemicalbank.com/","Hillman -  Office","118 State St","Hillman","MI","49746-8275","US","221163","(989) 742-4587","ATM","45.061294","-83.900761","<INACCESSIBLE>","https://www.chemicalbank.com/Locations"
"https://www.chemicalbank.com/","Hillsdale","1 W. Carleton Rd","Hillsdale","MI","49242","US","221206","(517) 439-1790","ATM","41.925345432552845","-84.63557258248329","<INACCESSIBLE>","https://www.chemicalbank.com/Locations"
"https://www.chemicalbank.com/","Holland -  Downtown","150 Central Ave","Holland","MI","49423","US","221210","(616) 393-0211","ATM","42.79143024857996","-86.1076171696186","<INACCESSIBLE>","https://www.chemicalbank.com/Locations"
"https://www.chemicalbank.com/","Holland -  North Office","177 North River Avenue","Holland","MI","49424-2152","US","221293","(616) 394-7304","ATM","42.803","-86.1132","<INACCESSIBLE>","https://www.chemicalbank.com/Locations"
"https://www.chemicalbank.com/","Holland - Riley Street Office","12368 Riley Street","Holland","MI","49424-9219","US","221143","(616) 738-2021","ATM","42.8265","-86.0852","<INACCESSIBLE>","https://www.chemicalbank.com/Locations"
"https://www.chemicalbank.com/","Houghton Lake -  East Office","2263 West Houghton Lake Drive","Houghton Lake","MI","48629-8234","US","221161","(989) 366-1508","ATM","44.298378","-84.652209","<INACCESSIBLE>","https://www.chemicalbank.com/Locations"
"https://www.chemicalbank.com/","Houghton Lake -  West Office","7409 W. Houghton Lake Drive","Houghton Lake","MI","48629","US","221121","(989) 422-5111","ATM","44.3222","-84.7747","<INACCESSIBLE>","https://www.chemicalbank.com/Locations"
"https://www.chemicalbank.com/","Hudsonville -  Office","4595 32nd Avenue","Hudsonville","MI","49426","US","221153","(616) 588-3805","ATM","42.854109999999","-85.86208999999","<INACCESSIBLE>","https://www.chemicalbank.com/Locations"
"https://www.chemicalbank.com/","Imlay City","715 S Cedar Street","Imlay City","MI","48444","US","221251","(810) 724-0518","ATM","43.01557560634942","-83.07107158005237","<INACCESSIBLE>","https://www.chemicalbank.com/Locations"
"https://www.chemicalbank.com/","Jamestown -  Office","3208 24th Avenue","Jamestown","MI","49427","US","221154","(616) 588-3802","ATM","42.826120000000","-85.841403","<INACCESSIBLE>","https://www.chemicalbank.com/Locations"
"https://www.chemicalbank.com/","Jenison -  Office","1963 Baldwin Street","Jenison","MI","49428","US","221155","(616) 588-3812","ATM","42.907910000000","-85.83112900000","<INACCESSIBLE>","https://www.chemicalbank.com/Locations"
"https://www.chemicalbank.com/","Kalamazoo -  Downtown Office","155 W Michigan Ave","Kalamazoo","MI","49007-5806","US","221339","(269) 381-7960","ATM","42.2935","-85.581","<INACCESSIBLE>","https://www.chemicalbank.com/Locations"
"https://www.chemicalbank.com/","Kalamazoo -  Midtown","1910 Parkview Ave","Kalamazoo","MI","49008","US","221285","(269) 382-0161","ATM","42.259638008324494","-85.61225641518831","<INACCESSIBLE>","https://www.chemicalbank.com/Locations"
"https://www.chemicalbank.com/","Kalamazoo - West ","6080 W. Main Street","Kalamazoo","MI","49009-8919","US","221338","(269) 544-2156","ATM","42.296","-85.6698","<INACCESSIBLE>","https://www.chemicalbank.com/Locations"
"https://www.chemicalbank.com/","Kalkaska","112 S. Cedar Street","Kalkaska","MI","49646","US","221176","(231) 258-8683","ATM","44.735398490652074","-85.17454974353313","<INACCESSIBLE>","https://www.chemicalbank.com/Locations"
"https://www.chemicalbank.com/","Kawkawlin -  Office","100 East Chippewa Road","Kawkawlin","MI","48631-9205","US","221305","(989) 686-5700","ATM","43.6511","-83.9428","<INACCESSIBLE>","https://www.chemicalbank.com/Locations"
"https://www.chemicalbank.com/","Kentwood -  Office","6225 Kalamazoo Ave SE","Kentwood","MI","49508","US","221156","(616) 588-3811","ATM","42.851498185062226","-85.6253792539573","<INACCESSIBLE>","https://www.chemicalbank.com/Locations"
"https://www.chemicalbank.com/","Kingsley","111 N. Brownson Ave","Kingsley","MI","49649","US","221177","(231) 263-5263","ATM","44.585363604838406","-85.5363180488348","<INACCESSIBLE>","https://www.chemicalbank.com/Locations"
"https://www.chemicalbank.com/","Lake City -  Office","127 S. Main Street","Lake City","MI","49651-9046","US","221357","(231) 839-4328","ATM","44.3339","-85.2145","<INACCESSIBLE>","https://www.chemicalbank.com/Locations"
"https://www.chemicalbank.com/","Lakeview -  Office","9650 N. Greenville Road","Lakeview","MI","48850-9107","US","221363","(989) 352-7670","ATM","43.4338","-85.2648","<INACCESSIBLE>","https://www.chemicalbank.com/Locations"
"https://www.chemicalbank.com/","Lapeer","567 E Genesee St","Lapeer","MI","48446","US","221252","(810) 245-4509","ATM","43.05148741317914","-83.29924240708357","<INACCESSIBLE>","https://www.chemicalbank.com/Locations"
"https://www.chemicalbank.com/","Lexington","5536 Main St","Lexington","MI","48450","US","221253","(810) 359-7947","ATM","43.267406996417094","-82.53103896975517","<INACCESSIBLE>","https://www.chemicalbank.com/Locations"
"https://www.chemicalbank.com/","Livonia","17900 Haggerty Rd","Livonia","MI","48152","US","221269","(734) 805-4600","ATM","42.41642036739343","-83.43102067708969","<INACCESSIBLE>","https://www.chemicalbank.com/Locations"
"https://www.chemicalbank.com/","Ludington -  Downtown","101 East Court Street","Ludington","MI","49431-1777","US","221192","(231) 845-5172","ATM","43.95683437952436","-86.44758515059948","<INACCESSIBLE>","https://www.chemicalbank.com/Locations"
"https://www.chemicalbank.com/","Ludington -  East","3965 W. US Highway 10","Ludington","MI","49431-7613","US","221193","(231) 845-7396","ATM","43.955602501885096","-86.37803493453248","<INACCESSIBLE>","https://www.chemicalbank.com/Locations"
"https://www.chemicalbank.com/","Madison Heights","1800 E 12 Mile Rd","Madison Heights","MI","48071","US","221274","(248) 548-2900","ATM","42.50475002618981","-83.08686643838865","<INACCESSIBLE>","https://www.chemicalbank.com/Locations"
"https://www.chemicalbank.com/","Manistee -  First Street","325 First Street","Manistee","MI","49660-1701","US","221194","(231) 723-6000","ATM","44.24568225246698","-86.31928034126758","<INACCESSIBLE>","https://www.chemicalbank.com/Locations"
"https://www.chemicalbank.com/","Marine City","210 S Parker Street","Marine City","MI","48039","US","221249","(810) 765-3501","ATM","42.71849024757939","-82.50106662511825","<INACCESSIBLE>","https://www.chemicalbank.com/Locations"
"https://www.chemicalbank.com/","Marlette -  Office","2592 S. Van Dyke","Marlette","MI","48453-9762","US","221127","(989) 635-3556","ATM","43.341","-83.0846","<INACCESSIBLE>","https://www.chemicalbank.com/Locations"
"https://www.chemicalbank.com/","Marshall -  Downtown Office","107 N. Park Ave","Marshall","MI","49068-1521","US","221326","(269) 781-5103","ATM","42.27270976474856","-84.96369036874779","<INACCESSIBLE>","https://www.chemicalbank.com/Locations"
"https://www.chemicalbank.com/","Marshall -  Main Office","115 West Drive South","Marshall","MI","49068-1482","US","221325","(269) 781-6880","ATM","42.271","-84.9837","<INACCESSIBLE>","https://www.chemicalbank.com/Locations"
"https://www.chemicalbank.com/","Marysville","2015 Gratiot Boulevard","Marysville","MI","48040","US","221250","(810) 364-5757","ATM","42.91586759262158","-82.4849733710289","<INACCESSIBLE>","https://www.chemicalbank.com/Locations"
"https://www.chemicalbank.com/","McBain -  Office","101 N. Roland Street","McBain","MI","49657-9683","US","221358","(231) 825-2451","ATM","44.1923","-85.2106","<INACCESSIBLE>","https://www.chemicalbank.com/Locations"
"https://www.chemicalbank.com/","Middleville -  Office","303 Arlington Street","Middleville","MI","49333-8541","US","221347","(269) 795-3361","ATM","42.713173428555336","-85.47046478042603","<INACCESSIBLE>","https://www.chemicalbank.com/Locations"
"https://www.chemicalbank.com/","Midland - Bullock Creek ATM","1505 Poseyville Rd","Midland","MI","48640","US","221212","<MISSING>","ATM","43.56876614269721","-84.24805976450443","<INACCESSIBLE>","https://www.chemicalbank.com/Locations"
"https://www.chemicalbank.com/","Midland - Circle Office","2910 South Jefferson Avenue","Midland","MI","48640-4526","US","221354","(989) 839-5252","ATM","43.62508151138566","-84.2267785423279","<INACCESSIBLE>","https://www.chemicalbank.com/Locations"
"https://www.chemicalbank.com/","Midland - Currie Golf Course ATM- Clubhouse","1300 Currie Parkway","Midland","MI","48640","US","221184","<MISSING>","ATM","43.61665015845533","-84.26309488713741","<INACCESSIBLE>","https://www.chemicalbank.com/Locations"
"https://www.chemicalbank.com/","Midland - Dow Diamond ATM","825 E. Main St.","Midland","MI","48640","US","221186","<MISSING>","ATM","43.60891918579949","-84.2365088313818","<INACCESSIBLE>","https://www.chemicalbank.com/Locations"
"https://www.chemicalbank.com/","Midland - Larkin Office","6711 N. Jefferson Ave.","Midland","MI","48642","US","221352","(989) 839-5317","ATM","43.6581","-84.2275","<INACCESSIBLE>","https://www.chemicalbank.com/Locations"
"https://www.chemicalbank.com/","Midland -  Civic Arena ATM","405 Fast Ice Dr.","Midland","MI","48640","US","221185","<MISSING>","ATM","43.6029731762606","-84.17531289160251","<INACCESSIBLE>","https://www.chemicalbank.com/Locations"
"https://www.chemicalbank.com/","Midland -  County Fairgrounds ATM","6905 Eastman Ave","Midland","MI","48640","US","221180","<MISSING>","ATM","43.65908240101048","-84.25423288020892","<INACCESSIBLE>","https://www.chemicalbank.com/Locations"
"https://www.chemicalbank.com/","Midland -  Hospital ATM","4005 Orchard Dr","Midland","MI","48670","US","221187","<MISSING>","ATM","43.63571748598592","-84.25798796117306","<INACCESSIBLE>","https://www.chemicalbank.com/Locations"
"https://www.chemicalbank.com/","Midland -  Main Drive Thru","310 East Larkin St.","Midland","MI","48640-6511","US","221144","(989) 839-5277","ATM","43.612247839941325","-84.24291729927063","<INACCESSIBLE>","https://www.chemicalbank.com/Locations"
"https://www.chemicalbank.com/","Midland -  Main Office","333 E. Main Street","Midland","MI","48640-6511","US","221353","(989) 839-5219","ATM","43.6119","-84.2435","<INACCESSIBLE>","https://www.chemicalbank.com/Locations"
"https://www.chemicalbank.com/","Midland - Northwest Office","2106 N. Saginaw Road","Midland","MI","48640-2660","US","221355","(989) 839-5234","ATM","43.6415","-84.2517","<INACCESSIBLE>","https://www.chemicalbank.com/Locations"
"https://www.chemicalbank.com/","Midland - Northwood University Miner Hall ATM","4000 Whiting Dr","Midland","MI","48860","US","221179","<MISSING>","ATM","43.629607649250985","-84.27534118294716","<INACCESSIBLE>","https://www.chemicalbank.com/Locations"
"https://www.chemicalbank.com/","Midland - Valley Lanes ATM","5021 Bay City Rd","Midland","MI","48642","US","221181","<MISSING>","ATM","43.6053388320342","-84.16636638343334","<INACCESSIBLE>","https://www.chemicalbank.com/Locations"
"https://www.chemicalbank.com/","Morrice -  Office","318 N. Main Street","Morrice","MI","48857","US","221128","(517) 625-8553","ATM","42.8379","-84.1777","<INACCESSIBLE>","https://www.chemicalbank.com/Locations"
"https://www.chemicalbank.com/","Mt Clemens","100 North Main St","Mt Clemens","MI","48043","US","221271","(586) 783-4500","ATM","42.59948320537723","-82.87607297301298","<INACCESSIBLE>","https://www.chemicalbank.com/Locations"
"https://www.chemicalbank.com/","Mt. Pleasant - Mission Street Office","1908 S. Mission Street","Mt. Pleasant","MI","48858-4423","US","221337","(989) 772-5902","ATM","43.5837","-84.7677","<INACCESSIBLE>","https://www.chemicalbank.com/Locations"
"https://www.chemicalbank.com/","Muskegon","281 Seminole Rd","Muskegon","MI","49444","US","221281","(231) 737-4431","ATM","43.18813344578604","-86.2518690526486","<INACCESSIBLE>","https://www.chemicalbank.com/Locations"
"https://www.chemicalbank.com/","Niles -  Main Office","407 E. Main Street","Niles","MI","49120-2307","US","221316","(269) 683-2010","ATM","41.83","-86.2548","<INACCESSIBLE>","https://www.chemicalbank.com/Locations"
"https://www.chemicalbank.com/","Niles -  South ATM","1835 S. 11th Street","Niles","MI","49120-4205","US","221317","<MISSING>","ATM","41.7996","-86.2481","<INACCESSIBLE>","https://www.chemicalbank.com/Locations"
"https://www.chemicalbank.com/","Oscoda -  Office","4452 County Highway F41","Oscoda","MI","48750-1637","US","221166","(989) 739-1148","ATM","44.418198","-83.330417","<INACCESSIBLE>","https://www.chemicalbank.com/Locations"
"https://www.chemicalbank.com/","Owosso - Hometown Markets ATM","1119 W Main St","Owosso","MI","48867","US","221214","<MISSING>","ATM","42.99742938254965","-84.1860879957676","<INACCESSIBLE>","https://www.chemicalbank.com/Locations"
"https://www.chemicalbank.com/","Owosso -  East Office","1345 E. Main Street","Owosso","MI","48867-9039","US","221129","(989) 725-3631","ATM","42.998276647268575","-84.14558460845944","<INACCESSIBLE>","https://www.chemicalbank.com/Locations"
"https://www.chemicalbank.com/","Owosso -  Main Office","100 E. Main Street","Owosso","MI","48867-3133","US","221132","(989) 729-6624","ATM","42.9974","-84.1705","<INACCESSIBLE>","https://www.chemicalbank.com/Locations"
"https://www.chemicalbank.com/","Owosso -  South Auto Bank","301 S. Washington Street","Owosso","MI","48867-2903","US","221130","(989) 725-3639","ATM","42.9954","-84.1705","<INACCESSIBLE>","https://www.chemicalbank.com/Locations"
"https://www.chemicalbank.com/","Paw Paw -  Office","212 S. Kalamazoo Street","Paw Paw","MI","49079-1526","US","221340","(269) 657-2511","ATM","42.2159874876714","-85.89141994113925","<INACCESSIBLE>","https://www.chemicalbank.com/Locations"
"https://www.chemicalbank.com/","Petoskey -  North","406 Bay St","Petoskey","MI","49770","US","221209","(231) 487-1765","ATM","45.37567399676832","-84.95476752519607","<INACCESSIBLE>","https://www.chemicalbank.com/Locations"
"https://www.chemicalbank.com/","Petoskey -  South","919 Spring St","Petoskey","MI","49770-2854","US","221195","(231) 347-5531","ATM","45.36550018246628","-84.97005678713321","<INACCESSIBLE>","https://www.chemicalbank.com/Locations"
"https://www.chemicalbank.com/","Pinconning -  Office","3858 North M-13","Pinconning","MI","48650-0511","US","221306","(989) 879-5888","ATM","43.8653","-83.9662","<INACCESSIBLE>","https://www.chemicalbank.com/Locations"
"https://www.chemicalbank.com/","Plymouth -  LPO","815 Church St","Plymouth","MI","48170","US","221283","(734) 805-4613","ATM","42.37300391395905","-83.47006022930145","<INACCESSIBLE>","https://www.chemicalbank.com/Locations"
"https://www.chemicalbank.com/","Port Huron - Hancock","1527 Hancock St","Port Huron","MI","48060","US","221243","(810) 985-5181","ATM","43.002106448707266","-82.43834048509598","<INACCESSIBLE>","https://www.chemicalbank.com/Locations"
"https://www.chemicalbank.com/","Port Huron - Water Street","525 Water Street","Port Huron","MI","48060","US","221244","(810) 990-1850","ATM","42.975520360166975","-82.42537871003156","<INACCESSIBLE>","https://www.chemicalbank.com/Locations"
"https://www.chemicalbank.com/","Port Huron Township - Port Huron West","3136 Lapeer Road","Port Huron Township","MI","48060","US","221245","(810) 984-1578","ATM","42.97910658703193","-82.46258832514286","<INACCESSIBLE>","https://www.chemicalbank.com/Locations"
"https://www.chemicalbank.com/","Portage -  Office","8025 Creekside Drive","Portage","MI","49024-5371","US","221341","(269) 324-7099","ATM","42.2006","-85.6012","<INACCESSIBLE>","https://www.chemicalbank.com/Locations"
"https://www.chemicalbank.com/","Reed City -  Office","840 S. Chestnut Street","Reed City","MI","49677-8250","US","221120","(231) 832-3211","ATM","43.8667","-85.5097","<INACCESSIBLE>","https://www.chemicalbank.com/Locations"
"https://www.chemicalbank.com/","Rochester -  Hills","440 Main St","Rochester","MI","48307","US","221276","(248) 608-5100","ATM","42.681918304250914","-83.13363142311573","<INACCESSIBLE>","https://www.chemicalbank.com/Locations"
"https://www.chemicalbank.com/","Rogers City -  Office","111 W. Michigan Ave","Rogers City","MI","49779-1637","US","221162","(989) 734-2161","ATM","45.420341","-83.816905","<INACCESSIBLE>","https://www.chemicalbank.com/Locations"
"https://www.chemicalbank.com/","Roscommon -  Office","505 N. Fifth Street","Roscommon","MI","48653-9330","US","221122","(989) 275-8941","ATM","44.5025","-84.5995","<INACCESSIBLE>","https://www.chemicalbank.com/Locations"
"https://www.chemicalbank.com/","Rose City -  Office","508 S Bennett","Rose City","MI","48654-9508","US","221164","(989) 685-2461","ATM","44.418229","-84.116282","<INACCESSIBLE>","https://www.chemicalbank.com/Locations"
"https://www.chemicalbank.com/","Saginaw -  Fashion Square","4955 Bay Road","Saginaw","MI","48604-2523","US","221125","(989) 790-1202","ATM","43.4789","-83.9756","<INACCESSIBLE>","https://www.chemicalbank.com/Locations"
"https://www.chemicalbank.com/","Saginaw -  Gratiot Rd.","5420 Gratiot Road","Saginaw","MI","48638-6040","US","221126","(989) 799-6821","ATM","43.4155","-84.0263","<INACCESSIBLE>","https://www.chemicalbank.com/Locations"
"https://www.chemicalbank.com/","Saginaw -  Midland Rd.","2300 Midland Road","Saginaw","MI","48603-3442","US","221124","(989) 793-5350","ATM","43.4422","-84.0486","<INACCESSIBLE>","https://www.chemicalbank.com/Locations"
"https://www.chemicalbank.com/","Saginaw -  Old Town","100 S. Michigan Ave","Saginaw","MI","48602","US","221145","(989) 791-0361","ATM","43.417055","-83.964733","<INACCESSIBLE>","https://www.chemicalbank.com/Locations"
"https://www.chemicalbank.com/","Sandusky","629 W Sanilac Road","Sandusky","MI","48471","US","221257","(810) 648-3322","ATM","43.42031284962576","-82.85484932363039","<INACCESSIBLE>","https://www.chemicalbank.com/Locations"
"https://www.chemicalbank.com/","Sanford -  Office","256 W. Saginaw Road","Sanford","MI","48657-9764","US","221356","(989) 687-5531","ATM","43.6707","-84.3775","<INACCESSIBLE>","https://www.chemicalbank.com/Locations"
"https://www.chemicalbank.com/","Saugatuck -  Office","249 Mason Street","Saugatuck","MI","49453","US","221294","(269) 857-2116","ATM","42.6555","-86.2035","<INACCESSIBLE>","https://www.chemicalbank.com/Locations"
"https://www.chemicalbank.com/","Sebewaing","668 Unionville Rd","Sebewaing","MI","48759","US","221255","(989) 883-2400","ATM","43.723680365059614","-83.44613425433636","<INACCESSIBLE>","https://www.chemicalbank.com/Locations"
"https://www.chemicalbank.com/","Shelby Township - Shelby","50787 Corporate Dr","Shelby Township","MI","48315","US","221270","(586) 739-4033","ATM","42.66913056280664","-83.0113434791565","<INACCESSIBLE>","https://www.chemicalbank.com/Locations"
"https://www.chemicalbank.com/","South Haven -  Office","433 Phoenix Street","South Haven","MI","49090-1309","US","221138","(269) 639-1009","ATM","42.4033","-86.2748","<INACCESSIBLE>","https://www.chemicalbank.com/Locations"
"https://www.chemicalbank.com/","South Haven - Suburban Office","73881 M-43","South Haven","MI","49090-7734","US","221139","(269) 637-0950","ATM","42.38556418280691","-86.26164006347653","<INACCESSIBLE>","https://www.chemicalbank.com/Locations"
"https://www.chemicalbank.com/","Southfield","24805 W Twelve Mile Rd","Southfield","MI","48034","US","221262","(248) 358-9540","ATM","42.5006275438095","-83.28945904970169","<INACCESSIBLE>","https://www.chemicalbank.com/Locations"
"https://www.chemicalbank.com/","St Johns -  LPO","1000 E Sturgis St","St Johns","MI","48879","US","221282","(989) 316-7227","ATM","42.99387365209907","-84.54306185245508","<INACCESSIBLE>","https://www.chemicalbank.com/Locations"
"https://www.chemicalbank.com/","St. Clair","270 Clinton Ave","St. Clair","MI","48079","US","221246","(810) 329-4705","ATM","42.82139806923886","-82.48783931136131","<INACCESSIBLE>","https://www.chemicalbank.com/Locations"
"https://www.chemicalbank.com/","St. Joseph - Cleveland Avenue Office","2600 S. Cleveland Avenue","St. Joseph","MI","49085-3002","US","221320","(269) 428-3321","ATM","42.0725","-86.4951","<INACCESSIBLE>","https://www.chemicalbank.com/Locations"
"https://www.chemicalbank.com/","St. Joseph - Court Place Office","720 Pleasant Street","St. Joseph","MI","49085-1242","US","221321","(269) 983-8089","ATM","42.10832469044816","-86.47977103756665","<INACCESSIBLE>","https://www.chemicalbank.com/Locations"
"https://www.chemicalbank.com/","St. Joseph - Main Street Auto Bank","300 Main Street","St. Joseph","MI","49085-1233","US","221319","(269) 927-2251","ATM","42.109005969555135","-86.48104408102034","<INACCESSIBLE>","https://www.chemicalbank.com/Locations"
"https://www.chemicalbank.com/","St. Joseph - Southtown Auto Bank","2017 Niles Road","St. Joseph","MI","49085-2505","US","221318","(269) 982-7351","ATM","42.0815","-86.4848","<INACCESSIBLE>","https://www.chemicalbank.com/Locations"
"https://www.chemicalbank.com/","St. Louis -  Office","111 W. Saginaw Street","St. Louis","MI","48880-1530","US","221335","(989) 681-2101","ATM","43.4091","-84.6075","<INACCESSIBLE>","https://www.chemicalbank.com/Locations"
"https://www.chemicalbank.com/","Standish -  Office","220 S. Main Street","Standish","MI","48658-0696","US","221297","(989) 846-9506","ATM","43.9808","-83.9599","<INACCESSIBLE>","https://www.chemicalbank.com/Locations"
"https://www.chemicalbank.com/","Stanton -  Drive Thru","401 N State St","Stanton","MI","48888","US","221365","(989) 831-5221","ATM","43.296","-85.0849","<INACCESSIBLE>","https://www.chemicalbank.com/Locations"
"https://www.chemicalbank.com/","Stanton -  Main Office","110 E. Main Street","Stanton","MI","48888","US","221364","(989) 831-5221","ATM","43.29236095433477","-85.0809030330658","<INACCESSIBLE>","https://www.chemicalbank.com/Locations"
"https://www.chemicalbank.com/","Sterling Heights","3801 E Metropolitan Parkway","Sterling Heights","MI","48310","US","221272","(586) 939-2834","ATM","42.56515750540582","-83.07135857641697","<INACCESSIBLE>","https://www.chemicalbank.com/Locations"
"https://www.chemicalbank.com/","Stevensville - Lakeshore Office","1711 W. John Beers Road","Stevensville","MI","49127-9403","US","221322","(269) 556-9328","ATM","42.0146","-86.4953","<INACCESSIBLE>","https://www.chemicalbank.com/Locations"
"https://www.chemicalbank.com/","Suttons Bay -  Downtown","212 North St. Joseph Street","Suttons Bay","MI","49682","US","221196","(231) 271-5993","ATM","44.97636226810915","-85.65093420445919","<INACCESSIBLE>","https://www.chemicalbank.com/Locations"
"https://www.chemicalbank.com/","Suttons Bay -  South","105 W. Fourth St","Suttons Bay","MI","49682","US","221197","(231) 271-1230","ATM","44.97055168975113","-85.65061569213867","<INACCESSIBLE>","https://www.chemicalbank.com/Locations"
"https://www.chemicalbank.com/","Tawas City -  Office","17 E M-55","Tawas City","MI","48763-9362","US","221167","(989) 362-8621","ATM","44.273894","-83.509674","<INACCESSIBLE>","https://www.chemicalbank.com/Locations"
"https://www.chemicalbank.com/","Three Oaks -  Office","11 East Linden Street","Three Oaks","MI","49128-2101","US","221323","(269) 756-9539","ATM","41.7999","-86.6093","<INACCESSIBLE>","https://www.chemicalbank.com/Locations"
"https://www.chemicalbank.com/","Traverse City - Chums Corners","4205 U.S. 31 S","Traverse City","MI","49685-7996","US","221198","(231) 943-7700","ATM","44.671553698250655","-85.65954141318798","<INACCESSIBLE>","https://www.chemicalbank.com/Locations"
"https://www.chemicalbank.com/","Traverse City - Fourteenth Street","613 W. Fourteenth Street","Traverse City","MI","49684","US","221201","(231) 922-8078","ATM","44.75157738429898","-85.63335366547107","<INACCESSIBLE>","https://www.chemicalbank.com/Locations"
"https://www.chemicalbank.com/","Traverse City - Garfield Avenue ","625 S. Garfield Avenue","Traverse City","MI","49686","US","221202","(231) 947-5490","ATM","44.75578020274806","-85.59464000165462","<INACCESSIBLE>","https://www.chemicalbank.com/Locations"
"https://www.chemicalbank.com/","Traverse City -  Downtown","203 S. Union Street","Traverse City","MI","49684","US","221199","(231) 947-0490","ATM","44.7625214070376","-85.62368497252464","<INACCESSIBLE>","https://www.chemicalbank.com/Locations"
"https://www.chemicalbank.com/","Traverse City -  Front Street ATM","107 E Front St","Traverse City","MI","49684","US","221203","<MISSING>","ATM","44.76420206227476","-85.62319546937942","<INACCESSIBLE>","https://www.chemicalbank.com/Locations"
"https://www.chemicalbank.com/","Traverse City -  West Bay","13936 S West Bay Shore Dr","Traverse City","MI","49684","US","221204","(231) 944-1600","ATM","44.77635322059609","-85.64251609146595","<INACCESSIBLE>","https://www.chemicalbank.com/Locations"
"https://www.chemicalbank.com/","Troy","2301 W Big Beaver Rd","Troy","MI","48084","US","221263","(248) 244-6800","ATM","42.56063055183226","-83.1782928854227","<INACCESSIBLE>","https://www.chemicalbank.com/Locations"
"https://www.chemicalbank.com/","University Center - Delta College - Brix Yard ATM","1961 Delta Rd","University Center","MI","48210","US","221182","<MISSING>","ATM","43.55774144808391","-83.98581034541132","<INACCESSIBLE>","https://www.chemicalbank.com/Locations"
"https://www.chemicalbank.com/","University Center - Delta College - Founders Hall ATM","1961 Delta Rd","University Center","MI","48710","US","221183","<MISSING>","ATM","43.557741263522224","-83.98581348359585","<INACCESSIBLE>","https://www.chemicalbank.com/Locations"
"https://www.chemicalbank.com/","Warren","14801 12 Mile Rd","Warren","MI","48088","US","221273","(586) 777-7010","ATM","42.508899918256034","-82.9733258485794","<INACCESSIBLE>","https://www.chemicalbank.com/Locations"
"https://www.chemicalbank.com/","Wayland - Gun Lake ATM","12850 M-179 Highway","Wayland","MI","49348-9318","US","221295","<MISSING>","ATM","42.631","-85.5353","<INACCESSIBLE>","https://www.chemicalbank.com/Locations"
"https://www.chemicalbank.com/","Wayland -  Office","1146 W. Superior St","Wayland","MI","49348","US","221157","(269) 864-7020","ATM","42.673095000000","-85.65810500000","<INACCESSIBLE>","https://www.chemicalbank.com/Locations"
"https://www.chemicalbank.com/","West Bloomfield","7950 W Maple Rd","West Bloomfield","MI","48322","US","221264","(248) 669-5133","ATM","42.541409814228565","-83.43718171119695","<INACCESSIBLE>","https://www.chemicalbank.com/Locations"
"https://www.chemicalbank.com/","West Branch -  Office","700 W Houghton Ave","West Branch","MI","48661-1230","US","221168","(989) 345-3930","ATM","44.276259","-84.243913","<INACCESSIBLE>","https://www.chemicalbank.com/Locations"
"https://www.chemicalbank.com/","Zeeland -  North Office","9581 Riley St","Zeeland","MI","49464","US","221158","(616) 237-8060","ATM","42.827886999999","-86.01889900000","<INACCESSIBLE>","https://www.chemicalbank.com/Locations"
"https://www.chemicalbank.com/","Austintown","101 S Canfield-Niles Rd","Austintown","OH","44515","US","221224","(330) 314-1360","ATM","41.098710037143256","-80.76314941048616","<INACCESSIBLE>","https://www.chemicalbank.com/Locations"
"https://www.chemicalbank.com/","Boardman","724 Boardman-Poland Rd","Boardman","OH","44512","US","221225","(330) 965-6972","ATM","41.02488119448388","-80.6419537961483","<INACCESSIBLE>","https://www.chemicalbank.com/Locations"
"https://www.chemicalbank.com/","Canfield - Seville","3801 Boardman-Canfield Rd","Canfield","OH","44406","US","221226","(330) 533-8530","ATM","41.02413501560116","-80.71586407721048","<INACCESSIBLE>","https://www.chemicalbank.com/Locations"
"https://www.chemicalbank.com/","Canton -  Loan Production Office","4004 Whipple Ave NW Suite 201","Canton","OH","44718","US","221290","<MISSING>","ATM","40.84281635352501","-81.42393346054689","<INACCESSIBLE>","https://www.chemicalbank.com/Locations"
"https://www.chemicalbank.com/","Cincinnati -  Loan Production Office","7373 Beechmont Ave, Ste 100","Cincinnati","OH","45230","US","221289","(513) 232-0800","ATM","39.07242635393344","-84.35321241617203","<INACCESSIBLE>","https://www.chemicalbank.com/Locations"
"https://www.chemicalbank.com/","Cleveland -  - LPO","3900 Park East Drive","Cleveland","OH","44122","US","221286","<MISSING>","ATM","41.457230456449935","-81.49403795599943","<INACCESSIBLE>","https://www.chemicalbank.com/Locations"
"https://www.chemicalbank.com/","Cortland","325 South High Street","Cortland","OH","44410","US","221236","(330) 314-1275","ATM","41.32415840574082","-80.72731912136078","<INACCESSIBLE>","https://www.chemicalbank.com/Locations"
"https://www.chemicalbank.com/","Dayton -  Loan Production Office","170 E Spring Valley Pike, Ste B","Dayton","OH","45458","US","221288","(937) 436-5020","ATM","39.61294950602774","-84.15706247091293","<INACCESSIBLE>","https://www.chemicalbank.com/Locations"
"https://www.chemicalbank.com/","Elyria -  Downtown","200 Middle Avenue","Elyria","OH","44035","US","221216","(440) 406-5100","ATM","41.36638409972967","-82.10673563182354","<INACCESSIBLE>","https://www.chemicalbank.com/Locations"
"https://www.chemicalbank.com/","Elyria -  Drive Thru","860 East Broad Street","Elyria","OH","44035","US","221217","(440) 406-5086","ATM","41.36517528499401","-82.0801623165608","<INACCESSIBLE>","https://www.chemicalbank.com/Locations"
"https://www.chemicalbank.com/","Elyria - Midway Mall","361 Midway Boulevard","Elyria","OH","44035","US","221218","(440) 406-5080","ATM","41.398918039004506","-82.11004614830023","<INACCESSIBLE>","https://www.chemicalbank.com/Locations"
"https://www.chemicalbank.com/","Elyria - North Abbe","111 Antioch Dr","Elyria","OH","44035","US","221219","(440) 406-5070","ATM","41.41611474109786","-82.07785293459892","<INACCESSIBLE>","https://www.chemicalbank.com/Locations"
"https://www.chemicalbank.com/","Grafton","351 North Main St","Grafton","OH","44044","US","221220","(440) 406-5075","ATM","41.288570097810734","-82.06534244120121","<INACCESSIBLE>","https://www.chemicalbank.com/Locations"
"https://www.chemicalbank.com/","New Middletown","10416 Main St","New Middletown","OH","44442","US","221227","(330) 314-1390","ATM","40.966889802867406","-80.56320145726204","<INACCESSIBLE>","https://www.chemicalbank.com/Locations"
"https://www.chemicalbank.com/","Niles - Youngstown","6002 Youngstown Warren Rd","Niles","OH","44446","US","221237","(330) 314-1285","ATM","41.20661231090965","-80.74284911155706","<INACCESSIBLE>","https://www.chemicalbank.com/Locations"
"https://www.chemicalbank.com/","North Olmsted -  Loan Production Office Only","24950 Country Club Blvd, Ste 107","North Olmsted","OH","44070","US","221284","(440) 779-0807","ATM","41.41443465098809","-81.90478205680847","<INACCESSIBLE>","https://www.chemicalbank.com/Locations"
"https://www.chemicalbank.com/","North Ridgeville","35423 Center Ridge Rd","North Ridgeville","OH","44039","US","221222","(440) 406-5065","ATM","41.391592480280785","-82.0119302719832","<INACCESSIBLE>","https://www.chemicalbank.com/Locations"
"https://www.chemicalbank.com/","Poland","2 South Main Street","Poland","OH","44514","US","221228","(330) 314-1395","ATM","41.023994884793424","-80.6145671010018","<INACCESSIBLE>","https://www.chemicalbank.com/Locations"
"https://www.chemicalbank.com/","Ravenna","999 E Main St","Ravenna","OH","44266","US","221221","(330) 298-0510","ATM","41.15774755853607","-81.22541673481458","<INACCESSIBLE>","https://www.chemicalbank.com/Locations"
"https://www.chemicalbank.com/","Rootstown","4183 Tallmadge Rd","Rootstown","OH","44272","US","221223","(330) 298-2030","ATM","41.099556431894534","-81.24230325222015","<INACCESSIBLE>","https://www.chemicalbank.com/Locations"
"https://www.chemicalbank.com/","Solon","34050 Solon Rd","Solon","OH","44139","US","221215","(440) 914-0683","ATM","41.39218859622164","-81.43646903336048","<INACCESSIBLE>","https://www.chemicalbank.com/Locations"
"https://www.chemicalbank.com/","Warren - Champion","4460 Mahoning Avenue NW","Warren","OH","44483","US","221229","(330) 314-1300","ATM","41.28153697860005","-80.84436871111393","<INACCESSIBLE>","https://www.chemicalbank.com/Locations"
"https://www.chemicalbank.com/","Warren - Elm Road","2001  Elm Road NE","Warren","OH","44483","US","221230","(330) 314-1280","ATM","41.253267362236905","-80.79403035342693","<INACCESSIBLE>","https://www.chemicalbank.com/Locations"
"https://www.chemicalbank.com/","Warren - Howland","8226 East Market Street","Warren","OH","44484","US","221231","(330) 314-1290","ATM","41.2379634307305","-80.74234686791902","<INACCESSIBLE>","https://www.chemicalbank.com/Locations"
"https://www.chemicalbank.com/","Warren -  Downtown","185 East Market St","Warren","OH","44481","US","221238","(330) 314-1270","ATM","41.23633975535836","-80.81636309623712","<INACCESSIBLE>","https://www.chemicalbank.com/Locations"
"https://www.chemicalbank.com/","Youngstown - Central Square","44 E Federal Plaza","Youngstown","OH","44503","US","221232","(330) 314-1370","ATM","41.09930478850483","-80.6494203954934","<INACCESSIBLE>","https://www.chemicalbank.com/Locations"
"https://www.chemicalbank.com/","Youngstown - Cornersburg","3516 S Meridian Rd","Youngstown","OH","44511","US","221233","(330) 314-1375","ATM","41.06434427812746","-80.7114478200674","<INACCESSIBLE>","https://www.chemicalbank.com/Locations"
"https://www.chemicalbank.com/","Youngstown - Liberty","4682 Belmont Ave","Youngstown","OH","44505","US","221234","(330) 314-1410","ATM","41.165721827652064","-80.66482096910465","<INACCESSIBLE>","https://www.chemicalbank.com/Locations"
"https://www.chemicalbank.com/","Youngstown - Newport","3900 Market Street","Youngstown","OH","44512","US","221235","(330) 314-1380","ATM","41.0606438497373","-80.66232919692987","<INACCESSIBLE>","https://www.chemicalbank.com/Locations"
