"city","country_code","hours_of_operation","latitude","location_name","location_type","locator_domain","longitude","page_url","phone","state","store_number","street_address","zip"
"Williston","<MISSING>","monday: 11AM-9PM; tuesday: 11AM-9PM; wednesday: 11AM-9PM; thursday: 11AM-9PM; friday: 11AM-9:30PM; saturday: 11AM-9:30PM; sunday: 11AM-9PM","44.448582","Friendly's Williston","store-item","https://www.friendlysrestaurants.com","-73.110182","https://www.friendlysrestaurants.com/?post_type=store-item&p=15569?id=","802-879-1404","VT","1082","5876 Williston Road","05495"
"Hackettstown","<MISSING>","monday: 11AM-9:30PM; tuesday: 11AM-9:30PM; wednesday: 11AM-9:30PM; thursday: 11AM-9:30PM; friday: 11AM-9:30PM; saturday: 11AM-9:30PM; sunday: 11AM-9:30PM","40.8369","Friendly's Hackettstown","store-item","https://www.friendlysrestaurants.com","-74.8236","https://www.friendlysrestaurants.com/?post_type=store-item&p=15572?id=","908-852-4191","NJ","664","304 Mountain Avenue","07840"
"Shirley","<MISSING>","monday: 11AM-11PM; tuesday: 11AM-11PM; wednesday: 11AM-11PM; thursday: 11AM-11PM; friday: 11AM-12AM; saturday: 9AM-12AM; sunday: 9AM-11PM","40.8017","Friendly's Shirley","store-item","https://www.friendlysrestaurants.com","-72.8629","https://www.friendlysrestaurants.com/?post_type=store-item&p=15574?id=","631-772-1860","NY","7640","940 Montauk Highway","11967"
"Baltimore","<MISSING>","monday: 8AM-10PM; tuesday: 8AM-10PM; wednesday: 8AM-10PM; thursday: 8AM-10PM; friday: 8AM-10PM; saturday: 8AM-10PM; sunday: 8AM-10PM","39.4114","Friendly's Baltimore","store-item","https://www.friendlysrestaurants.com","-76.4651","https://www.friendlysrestaurants.com/?post_type=store-item&p=15575?id=","410-256-2120","MD","7012","9551 Bel Air Road","21236"
"Tannersville","<MISSING>","monday: 8AM-10PM; tuesday: 8AM-10PM; wednesday: 8AM-10PM; thursday: 8AM-10PM; friday: 8AM-11PM; saturday: 8AM-11PM; sunday: 8AM-10PM","41.0398","Friendly's Tannersville","store-item","https://www.friendlysrestaurants.com","-75.3057","https://www.friendlysrestaurants.com/?post_type=store-item&p=15576?id=","570-619-8877","PA","7320","2942 Route 611","18372"
"Sicklerville","<MISSING>","monday: 11AM-11PM; tuesday: 11AM-11PM; wednesday: 11AM-11PM; thursday: 11AM-11PM; friday: 11AM-11PM; saturday: 11AM-11PM; sunday: 11AM-11PM","39.7295","Friendly's Sicklerville","store-item","https://www.friendlysrestaurants.com","-75.0126","https://www.friendlysrestaurants.com/?post_type=store-item&p=15577?id=","856-262-2371","NJ","7776","647 Cross Keys Road","08081"
"Hadley","<MISSING>","monday: 11AM-8PM; tuesday: 11AM-8PM; wednesday: 11AM-8PM; thursday: 11AM-8PM; friday: 11AM-8PM; saturday: 11AM-8PM; sunday: 11AM-8PM","42.3639","Friendly's Hadley","store-item","https://www.friendlysrestaurants.com","-72.5377","https://www.friendlysrestaurants.com/?post_type=store-item&p=15579?id=","413-253-7640","MA","7552","455 Russell Street Route 9","01035"
"Hagerstown","<MISSING>","monday: 8AM-10PM; tuesday: 8AM-10PM; wednesday: 8AM-10PM; thursday: 8AM-10PM; friday: 8AM-10PM; saturday: 8AM-10PM; sunday: 8AM-10PM","39.6652","Friendly's Hagerstown","store-item","https://www.friendlysrestaurants.com","-77.6997","https://www.friendlysrestaurants.com/?post_type=store-item&p=15580?id=","301-733-9570","MD","7810","12814-A Shank Farm Way","21742"
"Plainville","<MISSING>","monday: 12PM-9PM; tuesday: 12PM-9PM; wednesday: 12PM-9PM; thursday: 12PM-9PM; friday: 12PM-9PM; saturday: 12PM-9PM; sunday: 12PM-9PM","41.6762","Friendly's Plainville","store-item","https://www.friendlysrestaurants.com","-72.8419","https://www.friendlysrestaurants.com/?post_type=store-item&p=15582?id=","860-410-9703","CT","1251","230 New Britain Avenue","06062"
"Springfield","<MISSING>","monday: 11AM-9PM; tuesday: 11AM-9PM; wednesday: 11AM-9PM; thursday: 11AM-9PM; friday: 11AM-9PM; saturday: 11AM-9PM; sunday: 11AM-9PM","42.1456","Friendly's Springfield","store-item","https://www.friendlysrestaurants.com","-72.4832","https://www.friendlysrestaurants.com/?post_type=store-item&p=15583?id=","413-543-1286","MA","832","1811 Boston Road","01129"
"East Stroudsburg","<MISSING>","monday: 9AM-9PM; tuesday: 9AM-9PM; wednesday: 9AM-9PM; thursday: 9AM-9PM; friday: 9AM-9PM; saturday: 9AM-9PM; sunday: 9AM-9PM","40.9921","Friendly's East Stroudsburg","store-item","https://www.friendlysrestaurants.com","-75.1856","https://www.friendlysrestaurants.com/?post_type=store-item&p=15584?id=","570-426-1600","PA","7347","115 Brown Street","18301"
"Fall River","<MISSING>","monday: 11AM-9PM; tuesday: 11AM-9PM; wednesday: 11AM-9PM; thursday: 11AM-9PM; friday: 11AM-9PM; saturday: 11AM-9PM; sunday: 11AM-9PM","41.675995","Friendly's Fall River","store-item","https://www.friendlysrestaurants.com","-71.162936","https://www.friendlysrestaurants.com/?post_type=store-item&p=15585?id=","508-673-0891","MA","689","135 Marianno S. Bishop Boulevard","02722"
"Dunmore","<MISSING>","monday: 8AM-9PM; tuesday: 8AM-9PM; wednesday: 8AM-9PM; thursday: 8AM-9PM; friday: 8AM-10PM; saturday: 8AM-10PM; sunday: 8AM-9PM","41.428819","Friendly's Dunmore","store-item","https://www.friendlysrestaurants.com","-75.622946","https://www.friendlysrestaurants.com/?post_type=store-item&p=15586?id=","570-961-1565","PA","4005","708 North Blakely Street","18512"
"Lancaster","<MISSING>","monday: 11AM-10PM; tuesday: 11AM-10PM; wednesday: 11AM-10PM; thursday: 11AM-10PM; friday: 11AM-11PM; saturday: 8AM-11PM; sunday: 8AM-10PM","40.0293","Friendly's Lancaster","store-item","https://www.friendlysrestaurants.com","-76.2296","https://www.friendlysrestaurants.com/?post_type=store-item&p=15587?id=","717-299-6184","PA","7364","2150 Lincoln Highway East","17602"
"Lebanon","<MISSING>","monday: 12PM-9:30PM; tuesday: 12PM-9:30PM; wednesday: 12PM-9:30PM; thursday: 12PM-9:30PM; friday: 12PM-9:30PM; saturday: 12PM-9:30PM; sunday: 12PM-9:30PM","40.314013","Friendly's Lebanon","store-item","https://www.friendlysrestaurants.com","-76.424808","https://www.friendlysrestaurants.com/?post_type=store-item&p=15590?id=","717-274-9540","PA","1237","1701 Quentin Road","17042"
"Indian Harbor Beach","<MISSING>","monday: 9AM-10PM; tuesday: 9AM-10PM; wednesday: 9AM-10PM; thursday: 9AM-10PM; friday: 9AM-10PM; saturday: 8AM-10PM; sunday: 8AM-10PM","28.1382","Friendly's Indian Harbor Beach","store-item","https://www.friendlysrestaurants.com","-80.5815","https://www.friendlysrestaurants.com/?post_type=store-item&p=15591?id=","321-777-5035","FL","7695","1011 E. Eau Gallie Boulevard","32937"
"Commack","<MISSING>","monday: 11AM-11PM; tuesday: 11AM-11PM; wednesday: 11AM-11PM; thursday: 11AM-11PM; friday: 11AM-12AM; saturday: 11AM-12AM; sunday: 11AM-11PM","40.8445","Friendly's Commack","store-item","https://www.friendlysrestaurants.com","-73.2788","https://www.friendlysrestaurants.com/?post_type=store-item&p=15596?id=","631-499-7330","NY","7622","2151 Jericho Turnpike","11725"
"Ithaca","<MISSING>","monday: 12PM-9:30PM; tuesday: 12PM-9:30PM; wednesday: 12PM-9:30PM; thursday: 12PM-9:30PM; friday: 12PM-9:30PM; saturday: 12PM-9:30PM; sunday: 12PM-9:30PM","42.4834","Friendly's Ithaca","store-item","https://www.friendlysrestaurants.com","-76.4823","https://www.friendlysrestaurants.com/?post_type=store-item&p=15598?id=","607-257-5797","NY","7450","2309 N. Triphammer Road","14850"
"Glen Burnie","<MISSING>","monday: 11AM-9PM; tuesday: 11AM-9PM; wednesday: 11AM-9PM; thursday: 11AM-9PM; friday: 11AM-10PM; saturday: 11AM-10PM; sunday: 11AM-9PM","39.179243","Friendly's Glen Burnie","store-item","https://www.friendlysrestaurants.com","-76.61578","https://www.friendlysrestaurants.com/?post_type=store-item&p=15599?id=","410-761-7362","MD","7015","7134 Gov. Ritchie Highway","21061"
"Deptford","<MISSING>","monday: 11AM-11PM; tuesday: 11AM-11PM; wednesday: 11AM-11PM; thursday: 11AM-11PM; friday: 11AM-11PM; saturday: 11AM-11PM; sunday: 11AM-11PM","39.829008","Friendly's Deptford","store-item","https://www.friendlysrestaurants.com","-75.09008","https://www.friendlysrestaurants.com/?post_type=store-item&p=15600?id=","856-232-1212","NJ","7775","1220 Hurffville Road","08096"
"West Springfield","<MISSING>","monday: 11AM-9PM; tuesday: 11AM-9PM; wednesday: 11AM-9PM; thursday: 11AM-9PM; friday: 11AM-9PM; saturday: 11AM-9PM; sunday: 11AM-9PM","42.1338","Friendly's West Springfield","store-item","https://www.friendlysrestaurants.com","-72.6263","https://www.friendlysrestaurants.com/?post_type=store-item&p=15604?id=","413-733-9062","MA","847","1094 Riverdale Road","01089"
"Leominster","<MISSING>","monday: 11AM-9PM; tuesday: 11AM-9PM; wednesday: 11AM-9PM; thursday: 11AM-9PM; friday: 11AM-9PM; saturday: 11AM-9PM; sunday: 11AM-9PM","42.5477","Friendly's Leominster","store-item","https://www.friendlysrestaurants.com","-71.7621","https://www.friendlysrestaurants.com/?post_type=store-item&p=15606?id=","978-537-9787","MA","1087","482 North Main Street","01453"
"Myrtle Beach","<MISSING>","monday: 7AM-10:30PM; tuesday: 7AM-10:30PM; wednesday: 7AM-10:30PM; thursday: 7AM-10:30PM; friday: 7AM-11PM; saturday: 7AM-11PM; sunday: 7AM-10:30PM","33.7225","Friendly's Myrtle Beach","store-item","https://www.friendlysrestaurants.com","-78.8485","https://www.friendlysrestaurants.com/?post_type=store-item&p=15610?id=","843-497-6665","SC","7319","4705 N Kings Highway","29577"
"Camp Hill","<MISSING>","monday: 12PM-9:30PM; tuesday: 12PM-9:30PM; wednesday: 12PM-9:30PM; thursday: 12PM-9:30PM; friday: 12PM-9:30PM; saturday: 12PM-9:30PM; sunday: 12PM-9:30PM","40.2394","Friendly's Camp Hill","store-item","https://www.friendlysrestaurants.com","-76.9338","https://www.friendlysrestaurants.com/?post_type=store-item&p=15611?id=","717-975-9611","PA","1202","3125 Market Street","17011"
"Orlando","<MISSING>","monday: 10AM-10PM; tuesday: 10AM-10PM; wednesday: 10AM-10PM; thursday: 10AM-10PM; friday: 10AM-11PM; saturday: 10AM-11PM; sunday: 10AM-10PM","28.4397","Friendly's Orlando","store-item","https://www.friendlysrestaurants.com","-81.4716","https://www.friendlysrestaurants.com/?post_type=store-item&p=15615?id=","407-345-1655","FL","7689","8718 International Drive","32819"
"York","<MISSING>","monday: 8AM-11PM; tuesday: 8AM-11PM; wednesday: 8AM-11PM; thursday: 8AM-11PM; friday: 8AM-11PM; saturday: 8AM-11PM; sunday: 8AM-11PM","39.9828","Friendly's York","store-item","https://www.friendlysrestaurants.com","-76.7436","https://www.friendlysrestaurants.com/?post_type=store-item&p=15616?id=","717-843-2381","PA","7362","423 Loucks Road","17404"
"Easton","<MISSING>","monday: 8AM-9PM; tuesday: 8AM-9PM; wednesday: 8AM-9PM; thursday: 8AM-9PM; friday: 8AM-10PM; saturday: 8AM-10PM; sunday: 8AM-9PM","40.6762","Friendly's Easton","store-item","https://www.friendlysrestaurants.com","-75.2625","https://www.friendlysrestaurants.com/?post_type=store-item&p=15617?id=","610-258-4360","PA","7672","3099 William Penn Highway","18042"
"Hockessin","<MISSING>","monday: 11AM-10PM; tuesday: 11AM-10PM; wednesday: 11AM-10PM; thursday: 11AM-10PM; friday: 11AM-11PM; saturday: 8AM-11PM; sunday: 8AM-10PM","39.7766","Friendly's Hockessin","store-item","https://www.friendlysrestaurants.com","-75.7132","https://www.friendlysrestaurants.com/?post_type=store-item&p=15620?id=","302-239-3100","DE","7793","80 Lantana Drive","19707"
"Smithtown","<MISSING>","monday: 11AM-11PM; tuesday: 11AM-11PM; wednesday: 11AM-11PM; thursday: 11AM-11PM; friday: 11AM-12AM; saturday: 11AM-12AM; sunday: 11AM-11PM","40.8371","Friendly's Smithtown","store-item","https://www.friendlysrestaurants.com","-73.1853","https://www.friendlysrestaurants.com/?post_type=store-item&p=15621?id=","631-361-4974","NY","7629","220 Mount Pleasant Road","11787"
"Morrisville","<MISSING>","monday: 11AM-9PM; tuesday: 11AM-9PM; wednesday: 11AM-9PM; thursday: 11AM-9PM; friday: 11AM-10PM; saturday: 11AM-10PM; sunday: 11AM-9PM","40.208009","Friendly's Morrisville","store-item","https://www.friendlysrestaurants.com","-74.801018","https://www.friendlysrestaurants.com/?post_type=store-item&p=15624?id=","215-295-8243","PA","362","897 West Trenton Avenue","19067"
"Chicopee","<MISSING>","monday: 11AM-9PM; tuesday: 11AM-9PM; wednesday: 11AM-9PM; thursday: 11AM-9PM; friday: 11AM-9PM; saturday: 11AM-9PM; sunday: 11AM-9PM","42.1723","Friendly's Chicopee","store-item","https://www.friendlysrestaurants.com","-72.5761","https://www.friendlysrestaurants.com/?post_type=store-item&p=15625?id=","413-592-4221","MA","816","529 Memorial Drive","01020"
"Lancaster","<MISSING>","monday: 8AM-11PM; tuesday: 8AM-11PM; wednesday: 8AM-11PM; thursday: 8AM-11PM; friday: 8AM-11PM; saturday: 8AM-11PM; sunday: 8AM-11PM","40.0625","Friendly's Lancaster","store-item","https://www.friendlysrestaurants.com","-76.3054","https://www.friendlysrestaurants.com/?post_type=store-item&p=15626?id=","717-393-3369","PA","7328","1521 Oregon Pike","17601"
"East Longmeadow","<MISSING>","monday: 11AM-9PM; tuesday: 11AM-9PM; wednesday: 11AM-9PM; thursday: 11AM-9PM; friday: 11AM-9PM; saturday: 11AM-9PM; sunday: 11AM-9PM","42.0796","Friendly's East Longmeadow","store-item","https://www.friendlysrestaurants.com","-72.5335","https://www.friendlysrestaurants.com/?post_type=store-item&p=15631?id=","413-781-0839","MA","25","562 North Main Street","01028"
"Pottsville","<MISSING>","monday: CLOSED-CLOSED; tuesday: CLOSED-CLOSED; wednesday: CLOSED-CLOSED; thursday: CLOSED-CLOSED; friday: CLOSED-CLOSED; saturday: CLOSED-CLOSED; sunday: CLOSED-CLOSED","40.7048","Friendly's Pottsville","store-item","https://www.friendlysrestaurants.com","-76.1923","https://www.friendlysrestaurants.com/?post_type=store-item&p=15634?id=","570-429-1199","PA","7779","7340 Fairlane Mall-Route 61 N","17901"
"Medford","<MISSING>","monday: 11AM-11PM; tuesday: 11AM-11PM; wednesday: 11AM-11PM; thursday: 11AM-11PM; friday: 11AM-12AM; saturday: 11AM-12AM; sunday: 11AM-11PM","40.817599","Friendly's Medford","store-item","https://www.friendlysrestaurants.com","-73.000107","https://www.friendlysrestaurants.com/?post_type=store-item&p=15639?id=","631-448-7722","NY","7631","700-80 Route 101","11763"
"Middletown","<MISSING>","monday: 8AM-10PM; tuesday: 8AM-10PM; wednesday: 8AM-10PM; thursday: 8AM-10PM; friday: 8AM-11PM; saturday: 8AM-11PM; sunday: 8AM-10PM","39.4542","Friendly's Middletown","store-item","https://www.friendlysrestaurants.com","-75.6875","https://www.friendlysrestaurants.com/?post_type=store-item&p=15640?id=","302-376-5811","DE","7765","350 Dove Run Centre Drive","19709"
"Newton","<MISSING>","monday: 11AM-9PM; tuesday: 11AM-9PM; wednesday: 11AM-9PM; thursday: 11AM-9PM; friday: 11AM-9PM; saturday: 11AM-9PM; sunday: 11AM-8PM","41.1013","Friendly's Newton","store-item","https://www.friendlysrestaurants.com","-74.7294","https://www.friendlysrestaurants.com/?post_type=store-item&p=15641?id=","973-579-9009","NJ","7794","9 Hampton House Road Route 206","07860"
"Riverhead","<MISSING>","monday: 11AM-11PM; tuesday: 11AM-11PM; wednesday: 11AM-11PM; thursday: 11AM-11PM; friday: 11AM-12AM; saturday: 9AM-12AM; sunday: 9AM-11PM","40.9336","Friendly's Riverhead","store-item","https://www.friendlysrestaurants.com","-72.6718","https://www.friendlysrestaurants.com/?post_type=store-item&p=15643?id=","631-727-5139","NY","7626","949 Old Country Road","11901"
"Pottstown","<MISSING>","monday: 8AM-11PM; tuesday: 8AM-11PM; wednesday: 8AM-11PM; thursday: 8AM-11PM; friday: 8AM-11PM; saturday: 8AM-11PM; sunday: 8AM-11PM","40.2548","Friendly's Pottstown","store-item","https://www.friendlysrestaurants.com","-75.6598","https://www.friendlysrestaurants.com/?post_type=store-item&p=15645?id=","610-705-4404","PA","7361","200 Shoemaker Road","19464"
"Johnstown","<MISSING>","monday: 11AM-10PM; tuesday: 11AM-10PM; wednesday: 11AM-10PM; thursday: 11AM-10PM; friday: 11AM-10PM; saturday: 11AM-10PM; sunday: 11AM-10PM","43.0162","Friendly's Johnstown","store-item","https://www.friendlysrestaurants.com","-74.3608","https://www.friendlysrestaurants.com/?post_type=store-item&p=15646?id=","518-762-2727","NY","883","248 North Comrie Avenue","12095"
"Glassboro","<MISSING>","monday: 8AM-9PM; tuesday: 8AM-9PM; wednesday: 8AM-9PM; thursday: 8AM-9PM; friday: 8AM-10PM; saturday: 8AM-10PM; sunday: 8AM-9PM","39.7241","Friendly's Glassboro","store-item","https://www.friendlysrestaurants.com","-75.1158","https://www.friendlysrestaurants.com/?post_type=store-item&p=15647?id=","856-589-2488","NJ","799","1100 North Delsea Drive","08028"
"Southington","<MISSING>","monday: 11AM-9PM; tuesday: 11AM-9PM; wednesday: 11AM-9PM; thursday: 11AM-9PM; friday: 11AM-9PM; saturday: 11AM-9PM; sunday: 11AM-9PM","41.6269","Friendly's Southington","store-item","https://www.friendlysrestaurants.com","-72.8741","https://www.friendlysrestaurants.com/?post_type=store-item&p=15649?id=","860-621-0306","CT","916","408 Queen Street","06489"
"Dover","<MISSING>","monday: 11AM-9PM; tuesday: 11AM-9PM; wednesday: 11AM-9PM; thursday: 11AM-9PM; friday: 11AM-10PM; saturday: 11AM-10PM; sunday: 11AM-9PM","39.1711","Friendly's Dover","store-item","https://www.friendlysrestaurants.com","-75.5196","https://www.friendlysrestaurants.com/?post_type=store-item&p=15650?id=","302-678-3999","DE","7011","318 North Dupont Highway","19901"
"Norwood","<MISSING>","monday: 11AM-9PM; tuesday: 11AM-9PM; wednesday: 11AM-9PM; thursday: 11AM-9PM; friday: 11AM-9PM; saturday: 11AM-9PM; sunday: 11AM-9PM","42.162153","Friendly's Norwood","store-item","https://www.friendlysrestaurants.com","-71.200466","https://www.friendlysrestaurants.com/?post_type=store-item&p=15656?id=","781-769-7583","MA","733","1469 Providence Highway","02062"
"Wyomissing","<MISSING>","monday: 11AM-10PM; tuesday: 11AM-10PM; wednesday: 11AM-10PM; thursday: 11AM-10PM; friday: 11AM-11PM; saturday: 11AM-11PM; sunday: 11AM-10PM","40.3414","Friendly's Wyomissing","store-item","https://www.friendlysrestaurants.com","-75.9577","https://www.friendlysrestaurants.com/?post_type=store-item&p=15661?id=","610-375-3688","PA","7675","400 North Park Avenue","19610"
"Lancaster","<MISSING>","monday: 8AM-10PM; tuesday: 8AM-10PM; wednesday: 8AM-10PM; thursday: 8AM-10PM; friday: 8AM-10PM; saturday: 8AM-10PM; sunday: 8AM-10PM","40.055016","Friendly's Lancaster","store-item","https://www.friendlysrestaurants.com","-76.39877","https://www.friendlysrestaurants.com/?post_type=store-item&p=15666?id=","717-898-8457","PA","7329","578 Centerville Road","17601"
"Peabody","<MISSING>","monday: 11AM-9PM; tuesday: 11AM-9PM; wednesday: 11AM-9PM; thursday: 11AM-9PM; friday: 11AM-9PM; saturday: 11AM-9PM; sunday: 11AM-9PM","42.5473","Friendly's Peabody","store-item","https://www.friendlysrestaurants.com","-70.9498","https://www.friendlysrestaurants.com/?post_type=store-item&p=15667?id=","978-532-1445","MA","725","250 Andover Street","01960"
"Wilkes Barre","<MISSING>","monday: 8AM-9PM; tuesday: 8AM-9PM; wednesday: 8AM-9PM; thursday: 8AM-9PM; friday: 8AM-10PM; saturday: 8AM-10PM; sunday: 8AM-9PM","41.2505","Friendly's Wilkes Barre","store-item","https://www.friendlysrestaurants.com","-75.8424","https://www.friendlysrestaurants.com/?post_type=store-item&p=15669?id=","570-824-6929","PA","927","778 Kidder Street","18702"
"Baldwin","<MISSING>","monday: 11AM-11PM; tuesday: 11AM-11PM; wednesday: 11AM-11PM; thursday: 11AM-11PM; friday: 11AM-12AM; saturday: 11AM-12AM; sunday: 11AM-11PM","40.6515","Friendly's Baldwin","store-item","https://www.friendlysrestaurants.com","-73.6071","https://www.friendlysrestaurants.com/?post_type=store-item&p=15675?id=","516-546-2480","NY","7618","945 Merrick Road","11510"
"Gardner","<MISSING>","monday: 11AM-9PM; tuesday: 11AM-9PM; wednesday: 11AM-9PM; thursday: 11AM-9PM; friday: 11AM-9PM; saturday: 11AM-9PM; sunday: 11AM-9PM","42.5663","Friendly's Gardner","store-item","https://www.friendlysrestaurants.com","-71.9793","https://www.friendlysrestaurants.com/?post_type=store-item&p=15676?id=","978-630-1821","MA","859","18 Pearson Boulevard","01440"
"Massapequa Park","<MISSING>","monday: 11AM-11PM; tuesday: 11AM-11PM; wednesday: 11AM-11PM; thursday: 11AM-11PM; friday: 11AM-12AM; saturday: 11AM-12AM; sunday: 11AM-11PM","40.6769","Friendly's Massapequa Park","store-item","https://www.friendlysrestaurants.com","-73.4574","https://www.friendlysrestaurants.com/?post_type=store-item&p=15677?id=","516-541-3757","NY","7638","4812 Sunrise Highway","11762"
"Trexlertown","<MISSING>","monday: 11AM-10PM; tuesday: 11AM-10PM; wednesday: 11AM-10PM; thursday: 11AM-10PM; friday: 11AM-10PM; saturday: 11AM-10PM; sunday: 11AM-10PM","40.5517","Friendly's Trexlertown","store-item","https://www.friendlysrestaurants.com","-75.5931","https://www.friendlysrestaurants.com/?post_type=store-item&p=15678?id=","610-395-1917","PA","7670","6894 Hamilton Blvd. P.O. Box 859","18087"
"Marlton","<MISSING>","monday: 11AM-11PM; tuesday: 11AM-11PM; wednesday: 11AM-11PM; thursday: 11AM-11PM; friday: 11AM-11PM; saturday: 11AM-11PM; sunday: 11AM-11PM","39.894522","Friendly's Marlton","store-item","https://www.friendlysrestaurants.com","-74.930078","https://www.friendlysrestaurants.com/?post_type=store-item&p=15680?id=","856-596-8286","NJ","7774","Route 70 West","08053"
"Swansea","<MISSING>","monday: 12PM-9PM; tuesday: 12PM-9PM; wednesday: 12PM-9PM; thursday: 12PM-9PM; friday: 12PM-9PM; saturday: 12PM-9PM; sunday: 12PM-9PM","41.748741","Friendly's Swansea","store-item","https://www.friendlysrestaurants.com","-71.213033","https://www.friendlysrestaurants.com/?post_type=store-item&p=15682?id=","508-676-9694","MA","814","748 G.A.R. Highway Route 6","02777"
"Norristown","<MISSING>","monday: 11AM-10PM; tuesday: 11AM-10PM; wednesday: 11AM-10PM; thursday: 11AM-10PM; friday: 11AM-10PM; saturday: 11AM-10PM; sunday: 11AM-10PM","40.1453","Friendly's Norristown","store-item","https://www.friendlysrestaurants.com","-75.3212","https://www.friendlysrestaurants.com/?post_type=store-item&p=15683?id=","610-275-0696","PA","897","150 W. Germantown Pike","19401"
"South Weymouth","<MISSING>","monday: 11AM-9PM; tuesday: 11AM-9PM; wednesday: 11AM-9PM; thursday: 11AM-9PM; friday: 11AM-9PM; saturday: 11AM-9PM; sunday: 11AM-9PM","42.1698","Friendly's South Weymouth","store-item","https://www.friendlysrestaurants.com","-70.9556","https://www.friendlysrestaurants.com/?post_type=store-item&p=15684?id=","781-337-8877","MA","520","1021 Main Street","02190"
"Robbinsville","<MISSING>","monday: 11AM-9PM; tuesday: 11AM-9PM; wednesday: 11AM-9PM; thursday: 11AM-9PM; friday: 11AM-9PM; saturday: 11AM-9PM; sunday: 11AM-9PM","40.2236","Friendly's Robbinsville","store-item","https://www.friendlysrestaurants.com","-74.6353","https://www.friendlysrestaurants.com/?post_type=store-item&p=15685?id=","609-426-9203","NJ","7679","1031 Washington Boulevard","08691"
"Middleboro","<MISSING>","monday: 11AM-9PM; tuesday: 11AM-9PM; wednesday: 11AM-9PM; thursday: 11AM-9PM; friday: 11AM-9PM; saturday: 11AM-9PM; sunday: 11AM-9PM","41.9022","Friendly's Middleboro","store-item","https://www.friendlysrestaurants.com","-70.9602","https://www.friendlysrestaurants.com/?post_type=store-item&p=15686?id=","508-947-3900","MA","1217","40 Bedford Road","02346"
"Windsor Locks","<MISSING>","monday: 11AM-9PM; tuesday: 11AM-9PM; wednesday: 11AM-9PM; thursday: 11AM-9PM; friday: 11AM-9PM; saturday: 11AM-9PM; sunday: 11AM-9PM","41.9233","Friendly's Windsor Locks","store-item","https://www.friendlysrestaurants.com","-72.6695","https://www.friendlysrestaurants.com/?post_type=store-item&p=15687?id=","860-623-4722","CT","788","2 Corporate Drive","06096"
"Rehoboth Beach","<MISSING>","monday: 11AM-9PM; tuesday: 11AM-9PM; wednesday: 11AM-9PM; thursday: 11AM-9PM; friday: 11AM-10PM; saturday: 11AM-10PM; sunday: 11AM-9PM","38.729128","Friendly's Rehoboth Beach","store-item","https://www.friendlysrestaurants.com","-75.130719","https://www.friendlysrestaurants.com/?post_type=store-item&p=15688?id=","302-645-1779","DE","7033","19022 Coastal Highway","19971"
"Convent Station","<MISSING>","monday: 11AM-9:30PM; tuesday: 11AM-9:30PM; wednesday: 11AM-9:30PM; thursday: 11AM-9:30PM; friday: 9AM-9:30PM; saturday: 9AM-9:30PM; sunday: 9AM-9:30PM","40.7888","Friendly's Convent Station","store-item","https://www.friendlysrestaurants.com","-74.4558","https://www.friendlysrestaurants.com/?post_type=store-item&p=15689?id=","973-267-2456","NJ","286","192 Madison Avenue","07961"
"Auburn","<MISSING>","monday: 11AM-9PM; tuesday: 11AM-9PM; wednesday: 11AM-9PM; thursday: 11AM-9PM; friday: 11AM-9PM; saturday: 11AM-9PM; sunday: 11AM-9PM","42.1834","Friendly's Auburn","store-item","https://www.friendlysrestaurants.com","-71.8586","https://www.friendlysrestaurants.com/?post_type=store-item&p=15691?id=","508-832-3102","MA","3","697 Southbridge Street","01501"
"East Boston","<MISSING>","monday: CLOSED-CLOSED; tuesday: CLOSED-CLOSED; wednesday: CLOSED-CLOSED; thursday: CLOSED-CLOSED; friday: CLOSED-CLOSED; saturday: CLOSED-CLOSED; sunday: CLOSED-CLOSED","42.366075","Friendly's East Boston","store-item","https://www.friendlysrestaurants.com","-71.020461","https://www.friendlysrestaurants.com/?post_type=store-item&p=15692?id=","617-561-6478","MA","7811","Terminal A - Logan Airport","02128"
"Springfield","<MISSING>","monday: CLOSED-CLOSED; tuesday: CLOSED-CLOSED; wednesday: CLOSED-CLOSED; thursday: CLOSED-CLOSED; friday: CLOSED-CLOSED; saturday: CLOSED-CLOSED; sunday: CLOSED-CLOSED","39.915099","Friendly's Springfield","store-item","https://www.friendlysrestaurants.com","-75.351996","https://www.friendlysrestaurants.com/?post_type=store-item&p=15693?id=","610-328-1564","PA","489","1250 Baltimore Pike","19064"
"Florence","<MISSING>","monday: 11AM-8PM; tuesday: 11AM-8PM; wednesday: 11AM-8PM; thursday: 11AM-8PM; friday: 11AM-8PM; saturday: 11AM-8PM; sunday: 11AM-8PM","42.319449","Friendly's Florence","store-item","https://www.friendlysrestaurants.com","-72.629207","https://www.friendlysrestaurants.com/?post_type=store-item&p=15695?id=","413-584-1772","MA","7553","54-56 Main Street","01062"
"Lake Ronkonkoma","<MISSING>","monday: 11AM-11PM; tuesday: 11AM-11PM; wednesday: 11AM-11PM; thursday: 11AM-11PM; friday: 11AM-12AM; saturday: 11AM-12AM; sunday: 11AM-11PM","40.8283","Friendly's Lake Ronkonkoma","store-item","https://www.friendlysrestaurants.com","-73.1075","https://www.friendlysrestaurants.com/?post_type=store-item&p=15696?id=","631-981-6659","NY","7611","553 Hawkins Avenue","11779"
"Bloomfield","<MISSING>","monday: 11AM-9:30PM; tuesday: 11AM-9:30PM; wednesday: 11AM-9:30PM; thursday: 11AM-9:30PM; friday: 11AM-9:30PM; saturday: 11AM-9:30PM; sunday: 11AM-9:30PM","40.8327","Friendly's Bloomfield","store-item","https://www.friendlysrestaurants.com","-74.1808","https://www.friendlysrestaurants.com/?post_type=store-item&p=15697?id=","973-338-8669","NJ","237","1243 Broad Street","07003"
"Langhorne","<MISSING>","monday: 11AM-9PM; tuesday: 11AM-9PM; wednesday: 11AM-9PM; thursday: 11AM-9PM; friday: 11AM-10PM; saturday: 11AM-10PM; sunday: 11AM-9PM","40.1714","Friendly's Langhorne","store-item","https://www.friendlysrestaurants.com","-74.8924","https://www.friendlysrestaurants.com/?post_type=store-item&p=15698?id=","215-752-5162","PA","727","1462 East Lincoln Highway","19047"
"New Hartford","<MISSING>","monday: 11AM-10PM; tuesday: 11AM-10PM; wednesday: 11AM-10PM; thursday: 11AM-10PM; friday: 11AM-10PM; saturday: 11AM-10PM; sunday: 11AM-10PM","43.0943","Friendly's New Hartford","store-item","https://www.friendlysrestaurants.com","-75.2756","https://www.friendlysrestaurants.com/?post_type=store-item&p=15703?id=","315-733-4508","NY","7473","1700 Burrstone Road","13413"
"Bel Air","<MISSING>","monday: 11AM-7PM; tuesday: 11AM-7PM; wednesday: 11AM-7PM; thursday: 11AM-7PM; friday: 11AM-7PM; saturday: 11AM-7PM; sunday: 11AM-5PM","39.5253","Friendly's Bel Air","store-item","https://www.friendlysrestaurants.com","-76.3564","https://www.friendlysrestaurants.com/?post_type=store-item&p=15704?id=","410-838-8565","MD","7003","642-A Harford Mall","21014"
"Webster","<MISSING>","monday: 11AM-9PM; tuesday: 11AM-9PM; wednesday: 11AM-9PM; thursday: 11AM-9PM; friday: 11AM-9PM; saturday: 11AM-9PM; sunday: 11AM-9PM","42.0603","Friendly's Webster","store-item","https://www.friendlysrestaurants.com","-71.8652","https://www.friendlysrestaurants.com/?post_type=store-item&p=15705?id=","508-943-8533","MA","87","129 East Main Street","01570"
"Sayville","<MISSING>","monday: 11AM-11PM; tuesday: 11AM-11PM; wednesday: 11AM-11PM; thursday: 11AM-11PM; friday: 11AM-12AM; saturday: 11AM-12AM; sunday: 11AM-11PM","40.7386","Friendly's Sayville","store-item","https://www.friendlysrestaurants.com","-73.0784","https://www.friendlysrestaurants.com/?post_type=store-item&p=15706?id=","631-589-6188","NY","7619","210 Montauk Highway","11782"
"Newark","<MISSING>","monday: 11AM-10PM; tuesday: 11AM-10PM; wednesday: 11AM-10PM; thursday: 11AM-10PM; friday: 11AM-11PM; saturday: 11AM-11PM; sunday: 11AM-10PM","39.6509","Friendly's Newark","store-item","https://www.friendlysrestaurants.com","-75.7486","https://www.friendlysrestaurants.com/?post_type=store-item&p=15708?id=","302-369-8911","DE","7035","1115 South College Avenue","19713"
"Attleboro","<MISSING>","monday: 11AM-9PM; tuesday: 11AM-9PM; wednesday: 11AM-9PM; thursday: 11AM-9PM; friday: 11AM-9PM; saturday: 11AM-9PM; sunday: 11AM-9PM","41.9304","Friendly's Attleboro","store-item","https://www.friendlysrestaurants.com","-71.3527","https://www.friendlysrestaurants.com/?post_type=store-item&p=15711?id=","508-761-9104","MA","1232","10 Washington Street Route 1","02703"
"Plymouth","<MISSING>","monday: 11AM-9PM; tuesday: 11AM-9PM; wednesday: 11AM-9PM; thursday: 11AM-9PM; friday: 11AM-9PM; saturday: 11AM-9PM; sunday: 11AM-9PM","41.9292","Friendly's Plymouth","store-item","https://www.friendlysrestaurants.com","-70.6576","https://www.friendlysrestaurants.com/?post_type=store-item&p=15712?id=","508-746-2942","MA","1264","47 Long Pond Road","02360"
"Bensalem","<MISSING>","monday: 11AM-10PM; tuesday: 11AM-10PM; wednesday: 11AM-10PM; thursday: 11AM-10PM; friday: 11AM-10PM; saturday: 11AM-10PM; sunday: 11AM-10PM","40.1043","Friendly's Bensalem","store-item","https://www.friendlysrestaurants.com","-74.9497","https://www.friendlysrestaurants.com/?post_type=store-item&p=15713?id=","215-244-1080","PA","898","2369 Street Road","19020"
"Horseheads","<MISSING>","monday: 12PM-9:30PM; tuesday: 12PM-9:30PM; wednesday: 12PM-9:30PM; thursday: 12PM-9:30PM; friday: 12PM-9:30PM; saturday: 12PM-9:30PM; sunday: 12PM-9:30PM","42.162158","Friendly's Horseheads","store-item","https://www.friendlysrestaurants.com","-76.839978","https://www.friendlysrestaurants.com/?post_type=store-item&p=15715?id=","607-739-9800","NY","7467","2669 Corning Road","14845"
"Old Bridge","<MISSING>","monday: 11AM-9PM; tuesday: 11AM-9PM; wednesday: 11AM-9PM; thursday: 11AM-9PM; friday: 11AM-9PM; saturday: 11AM-9PM; sunday: 11AM-9PM","40.3836","Friendly's Old Bridge","store-item","https://www.friendlysrestaurants.com","-74.3102","https://www.friendlysrestaurants.com/?post_type=store-item&p=15722?id=","732-360-9909","NJ","7731","180 Ferry Road","08857"
"Miller Place","<MISSING>","monday: 11AM-11PM; tuesday: 11AM-11PM; wednesday: 11AM-11PM; thursday: 11AM-11PM; friday: 11AM-12AM; saturday: 11AM-12AM; sunday: 11AM-11PM","40.9422","Friendly's Miller Place","store-item","https://www.friendlysrestaurants.com","-72.9915","https://www.friendlysrestaurants.com/?post_type=store-item&p=15723?id=","631-473-2046","NY","7628","275 Route 25A","11764"
"Norwich","<MISSING>","monday: 11AM-9PM; tuesday: 11AM-9PM; wednesday: 11AM-9PM; thursday: 11AM-9PM; friday: 11AM-9PM; saturday: 11AM-9PM; sunday: 11AM-9PM","41.552043","Friendly's Norwich","store-item","https://www.friendlysrestaurants.com","-72.103083","https://www.friendlysrestaurants.com/?post_type=store-item&p=15725?id=","860-886-1083","CT","228","105 West Town Street","06360"
"Clark","<MISSING>","monday: 11AM-9PM; tuesday: 11AM-9PM; wednesday: 11AM-9PM; thursday: 11AM-9PM; friday: 11AM-9PM; saturday: 11AM-9PM; sunday: 11AM-9PM","40.6353","Friendly's Clark","store-item","https://www.friendlysrestaurants.com","-74.3005","https://www.friendlysrestaurants.com/?post_type=store-item&p=15728?id=","908-276-2752","NJ","175","1463 Raritan Road","07066"
"Stony Brook","<MISSING>","monday: 11AM-11PM; tuesday: 11AM-11PM; wednesday: 11AM-11PM; thursday: 11AM-11PM; friday: 11AM-12AM; saturday: 11AM-12AM; sunday: 11AM-11PM","40.8742","Friendly's Stony Brook","store-item","https://www.friendlysrestaurants.com","-73.1233","https://www.friendlysrestaurants.com/?post_type=store-item&p=15731?id=","631-751-3150","NY","7620","201 Hallock Road","11789"
"Reading","<MISSING>","monday: 8AM-10PM; tuesday: 8AM-10PM; wednesday: 8AM-10PM; thursday: 8AM-10PM; friday: 8AM-11PM; saturday: 8AM-11PM; sunday: 8AM-10PM","40.3107","Friendly's Reading","store-item","https://www.friendlysrestaurants.com","-75.9521","https://www.friendlysrestaurants.com/?post_type=store-item&p=15736?id=","610-777-1980","PA","7674","1535 Lancaster Avenue","19607"
"Blackwood","<MISSING>","monday: 11AM-7PM; tuesday: 11AM-7PM; wednesday: 11AM-7PM; thursday: 11AM-7PM; friday: 11AM-8PM; saturday: 11AM-8PM; sunday: 11AM-7PM","39.7858","Friendly's Blackwood","store-item","https://www.friendlysrestaurants.com","-75.0507","https://www.friendlysrestaurants.com/?post_type=store-item&p=15737?id=","609-760-1454","NJ","7501","100 Premium Outlets Drive - Unit 300","08012"
"Bristol","<MISSING>","monday: 11AM-9PM; tuesday: 11AM-9PM; wednesday: 11AM-9PM; thursday: 11AM-9PM; friday: 11AM-9PM; saturday: 11AM-9PM; sunday: 11AM-9PM","41.6901","Friendly's Bristol","store-item","https://www.friendlysrestaurants.com","-72.9271","https://www.friendlysrestaurants.com/?post_type=store-item&p=15738?id=","860-589-1059","CT","759","497 Farmington Avenue","06010"
"Troy","<MISSING>","monday: 11AM-10PM; tuesday: 11AM-10PM; wednesday: 11AM-10PM; thursday: 11AM-10PM; friday: 11AM-10PM; saturday: 11AM-10PM; sunday: 11AM-10PM","42.7391","Friendly's Troy","store-item","https://www.friendlysrestaurants.com","-73.6763","https://www.friendlysrestaurants.com/?post_type=store-item&p=15739?id=","518-273-2841","NY","1008","120 Hoosick Street Troy Plaza","12180"
"Johnson City","<MISSING>","monday: 11AM-10PM; tuesday: 11AM-10PM; wednesday: 11AM-10PM; thursday: 11AM-10PM; friday: 11AM-10PM; saturday: 11AM-10PM; sunday: 11AM-10PM","42.1247","Friendly's Johnson City","store-item","https://www.friendlysrestaurants.com","-75.9698","https://www.friendlysrestaurants.com/?post_type=store-item&p=15740?id=","607-729-2250","NY","7462","561 Harry L Drive","13790"
"Toms River","<MISSING>","monday: 11AM-9:30PM; tuesday: 11AM-9:30PM; wednesday: 11AM-9:30PM; thursday: 11AM-9:30PM; friday: 11AM-9:30PM; saturday: 11AM-9:30PM; sunday: 11AM-9:30PM","39.9805","Friendly's Toms River","store-item","https://www.friendlysrestaurants.com","-74.1828","https://www.friendlysrestaurants.com/?post_type=store-item&p=15741?id=","732-349-8853","NJ","789","1210 Hooper Avenue","08753"
"Newington","<MISSING>","monday: 11AM-9PM; tuesday: 11AM-9PM; wednesday: 11AM-9PM; thursday: 11AM-9PM; friday: 11AM-9PM; saturday: 11AM-9PM; sunday: 11AM-9PM","41.6541","Friendly's Newington","store-item","https://www.friendlysrestaurants.com","-72.7256","https://www.friendlysrestaurants.com/?post_type=store-item&p=15742?id=","860-666-5559","CT","1234","3420 Berlin Turnpike","06111"
"Haverhill","<MISSING>","monday: 11AM-9PM; tuesday: 11AM-9PM; wednesday: 11AM-9PM; thursday: 11AM-9PM; friday: 11AM-9PM; saturday: 11AM-9PM; sunday: 11AM-9PM","42.8091","Friendly's Haverhill","store-item","https://www.friendlysrestaurants.com","-71.1028","https://www.friendlysrestaurants.com/?post_type=store-item&p=15743?id=","978-373-6120","MA","830","1160 Main Street","01830"
"Coram","<MISSING>","monday: 11AM-11PM; tuesday: 11AM-11PM; wednesday: 11AM-11PM; thursday: 11AM-11PM; friday: 11AM-12AM; saturday: 11AM-12AM; sunday: 11AM-11PM","40.870018","Friendly's Coram","store-item","https://www.friendlysrestaurants.com","-73.005083","https://www.friendlysrestaurants.com/?post_type=store-item&p=15750?id=","631-696-3717","NY","7630","2220 Route 112","11727"
"Enfield","<MISSING>","monday: 11AM-9PM; tuesday: 11AM-9PM; wednesday: 11AM-9PM; thursday: 11AM-9PM; friday: 11AM-9PM; saturday: 11AM-9PM; sunday: 11AM-9PM","41.9974","Friendly's Enfield","store-item","https://www.friendlysrestaurants.com","-72.5845","https://www.friendlysrestaurants.com/?post_type=store-item&p=15751?id=","860-745-0723","CT","587","94 Elm Street","06082"
"Myrtle Beach","<MISSING>","monday: 7AM-10:30PM; tuesday: 7AM-10:30PM; wednesday: 7AM-10:30PM; thursday: 7AM-10:30PM; friday: 7AM-11PM; saturday: 7AM-11PM; sunday: 7AM-10:30PM","33.6806","Friendly's Myrtle Beach","store-item","https://www.friendlysrestaurants.com","-78.8931","https://www.friendlysrestaurants.com/?post_type=store-item&p=15752?id=","843-916-8636","SC","7339","506 South Ocean Blvd.","29577"
"West Lawn","<MISSING>","monday: 11AM-10PM; tuesday: 11AM-10PM; wednesday: 11AM-10PM; thursday: 11AM-10PM; friday: 11AM-11PM; saturday: 11AM-11PM; sunday: 11AM-10PM","40.325292","Friendly's West Lawn","store-item","https://www.friendlysrestaurants.com","-76.008044","https://www.friendlysrestaurants.com/?post_type=store-item&p=15754?id=","610-670-1180","PA","7676","3024A Penn Avenue","19609"
"Holyoke","<MISSING>","monday: 11AM-9PM; tuesday: 11AM-9PM; wednesday: 11AM-9PM; thursday: 11AM-9PM; friday: 11AM-9PM; saturday: 11AM-9PM; sunday: 11AM-9PM","42.2043","Friendly's Holyoke","store-item","https://www.friendlysrestaurants.com","-72.6312","https://www.friendlysrestaurants.com/?post_type=store-item&p=15755?id=","413-536-4332","MA","172","1745 Northampton Street","01040"
"Naugatuck","<MISSING>","monday: 11AM-9PM; tuesday: 11AM-9PM; wednesday: 11AM-9PM; thursday: 11AM-9PM; friday: 11AM-9PM; saturday: 11AM-9PM; sunday: 11AM-9PM","41.486367","Friendly's Naugatuck","store-item","https://www.friendlysrestaurants.com","-73.059021","https://www.friendlysrestaurants.com/?post_type=store-item&p=15756?id=","203-729-6394","CT","4220","130 Rubber Avenue","06770"
"Wilmington","<MISSING>","monday: 11AM-10PM; tuesday: 11AM-10PM; wednesday: 11AM-10PM; thursday: 11AM-10PM; friday: 9AM-10PM; saturday: 9AM-10PM; sunday: 9AM-10PM","39.8323","Friendly's Wilmington","store-item","https://www.friendlysrestaurants.com","-75.5374","https://www.friendlysrestaurants.com/?post_type=store-item&p=15757?id=","302-478-4975","DE","7792","5331 Brandywine Parkway","19803"
"Clifton Park","<MISSING>","monday: 11AM-10PM; tuesday: 11AM-10PM; wednesday: 11AM-10PM; thursday: 11AM-10PM; friday: 11AM-10PM; saturday: 11AM-10PM; sunday: 11AM-10PM","42.8635","Friendly's Clifton Park","store-item","https://www.friendlysrestaurants.com","-73.7815","https://www.friendlysrestaurants.com/?post_type=store-item&p=15758?id=","518-371-1273","NY","868","815 Route 146","12065"
"Palmer","<MISSING>","monday: 11AM-9PM; tuesday: 11AM-9PM; wednesday: 11AM-9PM; thursday: 11AM-9PM; friday: 11AM-9PM; saturday: 11AM-9PM; sunday: 11AM-9PM","42.1606","Friendly's Palmer","store-item","https://www.friendlysrestaurants.com","-72.3361","https://www.friendlysrestaurants.com/?post_type=store-item&p=15760?id=","413-283-7648","MA","62","1519 North Main Street","01069"
"Concord","<MISSING>","monday: 11AM-10PM; tuesday: 11AM-10PM; wednesday: 11AM-10PM; thursday: 11AM-10PM; friday: 11AM-10PM; saturday: 11AM-10PM; sunday: 11AM-10PM","43.216025","Friendly's Concord","store-item","https://www.friendlysrestaurants.com","-71.508083","https://www.friendlysrestaurants.com/?post_type=store-item&p=15767?id=","603-223-9784","NH","1003","147 Loudon Road","03301"
"Voorhees","<MISSING>","monday: 11AM-9PM; tuesday: 11AM-9PM; wednesday: 11AM-9PM; thursday: 11AM-9PM; friday: 11AM-9PM; saturday: 11AM-9PM; sunday: 11AM-9PM","39.8517","Friendly's Voorhees","store-item","https://www.friendlysrestaurants.com","-74.9992","https://www.friendlysrestaurants.com/?post_type=store-item&p=15769?id=","856-229-7592","NJ","7500","9103 Town Center Boulevard","08043"
"Vernon","<MISSING>","monday: 11AM-9PM; tuesday: 11AM-9PM; wednesday: 11AM-9PM; thursday: 11AM-9PM; friday: 11AM-9PM; saturday: 11AM-9PM; sunday: 11AM-9PM","41.8294","Friendly's Vernon","store-item","https://www.friendlysrestaurants.com","-72.4964","https://www.friendlysrestaurants.com/?post_type=store-item&p=15770?id=","860-871-9347","CT","729","103 Talcottville Road","06066"
"Toms River","<MISSING>","monday: 11AM-9:30PM; tuesday: 11AM-9:30PM; wednesday: 11AM-9:30PM; thursday: 11AM-9:30PM; friday: 11AM-9:30PM; saturday: 11AM-9:30PM; sunday: 11AM-9:30PM","39.9544","Friendly's Toms River","store-item","https://www.friendlysrestaurants.com","-74.1631","https://www.friendlysrestaurants.com/?post_type=store-item&p=15772?id=","732-244-6772","NJ","1053","981 Route 37 West","08753"
"Metuchen","<MISSING>","monday: 11AM-9PM; tuesday: 11AM-9PM; wednesday: 11AM-9PM; thursday: 11AM-9PM; friday: 9AM-10PM; saturday: 9AM-10PM; sunday: 9AM-9PM","40.5432","Friendly's Metuchen","store-item","https://www.friendlysrestaurants.com","-74.3636","https://www.friendlysrestaurants.com/?post_type=store-item&p=15779?id=","732-549-4790","NJ","7737","550 Middlesex Avenue","08840"
"Greenfield","<MISSING>","monday: 11AM-9PM; tuesday: 11AM-9PM; wednesday: 11AM-9PM; thursday: 11AM-9PM; friday: 11AM-9PM; saturday: 11AM-9PM; sunday: 11AM-9PM","42.5853","Friendly's Greenfield","store-item","https://www.friendlysrestaurants.com","-72.6236","https://www.friendlysrestaurants.com/?post_type=store-item&p=15781?id=","413-774-5435","MA","790","200 Mohawk Trail","01301"
"Hershey","<MISSING>","monday: 12PM-9PM; tuesday: 12PM-9PM; wednesday: 12PM-9PM; thursday: 12PM-9PM; friday: 12PM-9:30PM; saturday: 12PM-9:30PM; sunday: 12PM-9PM","40.2734","Friendly's Hershey","store-item","https://www.friendlysrestaurants.com","-76.6757","https://www.friendlysrestaurants.com/?post_type=store-item&p=15782?id=","717-533-4190","PA","756","1000 Reese Avenue","17033"
"Newark","<MISSING>","monday: 8AM-10PM; tuesday: 8AM-10PM; wednesday: 8AM-10PM; thursday: 8AM-10PM; friday: 8AM-11PM; saturday: 8AM-11PM; sunday: 8AM-10PM","39.6036","Friendly's Newark","store-item","https://www.friendlysrestaurants.com","-75.7518","https://www.friendlysrestaurants.com/?post_type=store-item&p=15783?id=","302-834-8450","DE","7061","1500 People's Plaza","19702"
"Allentown","<MISSING>","monday: 8AM-10PM; tuesday: 8AM-10PM; wednesday: 8AM-10PM; thursday: 8AM-10PM; friday: 8AM-11PM; saturday: 8AM-11PM; sunday: 8AM-10PM","40.6397","Friendly's Allentown","store-item","https://www.friendlysrestaurants.com","-75.4332","https://www.friendlysrestaurants.com/?post_type=store-item&p=15785?id=","610-264-1876","PA","7668","1836 Catasauqua Road","18103"
"East Meadow","<MISSING>","monday: 11AM-11PM; tuesday: 11AM-11PM; wednesday: 11AM-11PM; thursday: 11AM-11PM; friday: 11AM-12AM; saturday: 9AM-12AM; sunday: 9AM-11PM","40.7237","Friendly's East Meadow","store-item","https://www.friendlysrestaurants.com","-73.5683","https://www.friendlysrestaurants.com/?post_type=store-item&p=15786?id=","516-794-3191","NY","7617","1826 Hempstead Turnpike","11554"
"Sussex","<MISSING>","monday: 11AM-9PM; tuesday: 11AM-9PM; wednesday: 11AM-9PM; thursday: 11AM-9PM; friday: 11AM-9PM; saturday: 11AM-9PM; sunday: 11AM-8PM","41.203366","Friendly's Sussex","store-item","https://www.friendlysrestaurants.com","-74.600431","https://www.friendlysrestaurants.com/?post_type=store-item&p=15788?id=","973-702-9009","NJ","7795","455 State Route 23","07461"
"Olean","<MISSING>","monday: 12PM-9:30PM; tuesday: 12PM-9:30PM; wednesday: 12PM-9:30PM; thursday: 12PM-9:30PM; friday: 12PM-9:30PM; saturday: 12PM-9:30PM; sunday: 12PM-9:30PM","42.0774","Friendly's Olean","store-item","https://www.friendlysrestaurants.com","-78.4586","https://www.friendlysrestaurants.com/?post_type=store-item&p=15791?id=","716-372-2227","NY","7432","2502 W. State Street","14760"
"Agawam","<MISSING>","monday: 11AM-9PM; tuesday: 11AM-9PM; wednesday: 11AM-9PM; thursday: 11AM-9PM; friday: 11AM-9PM; saturday: 11AM-9PM; sunday: 11AM-9PM","42.0895","Friendly's Agawam","store-item","https://www.friendlysrestaurants.com","-72.6362","https://www.friendlysrestaurants.com/?post_type=store-item&p=15793?id=","413-786-4466","MA","1","190 Springfield Street","01001"
"Harrisburg","<MISSING>","monday: 8AM-10PM; tuesday: 8AM-10PM; wednesday: 8AM-10PM; thursday: 8AM-10PM; friday: 8AM-11PM; saturday: 8AM-11PM; sunday: 8AM-10PM","40.2449","Friendly's Harrisburg","store-item","https://www.friendlysrestaurants.com","-76.8063","https://www.friendlysrestaurants.com/?post_type=store-item&p=15794?id=","717-695-2138","PA","7365","4601 High Pointe Boulevard","17111"
"Cortland","<MISSING>","monday: 12PM-9:30PM; tuesday: 12PM-9:30PM; wednesday: 12PM-9:30PM; thursday: 12PM-9:30PM; friday: 12PM-9:30PM; saturday: 12PM-9:30PM; sunday: 12PM-9:30PM","42.6082","Friendly's Cortland","store-item","https://www.friendlysrestaurants.com","-76.1675","https://www.friendlysrestaurants.com/?post_type=store-item&p=15795?id=","607-756-9805","NY","7453","170 Clinton Avenue","13045"
"Gettysburg","<MISSING>","monday: 12PM-9PM; tuesday: 12PM-9PM; wednesday: 12PM-9PM; thursday: 12PM-9PM; friday: 12PM-9:30PM; saturday: 12PM-9:30PM; sunday: 12PM-9PM","39.8186","Friendly's Gettysburg","store-item","https://www.friendlysrestaurants.com","-77.2355","https://www.friendlysrestaurants.com/?post_type=store-item&p=15797?id=","717-337-1426","PA","982","445 Steinwehr Avenue","17325"
"Queensbury","<MISSING>","monday: 11AM-10PM; tuesday: 11AM-10PM; wednesday: 11AM-10PM; thursday: 11AM-10PM; friday: 11AM-10PM; saturday: 11AM-10PM; sunday: 11AM-10PM","43.3291","Friendly's Queensbury","store-item","https://www.friendlysrestaurants.com","-73.6789","https://www.friendlysrestaurants.com/?post_type=store-item&p=15798?id=","518-792-1338","NY","842","558 Aviation Road","12804"
"Hillsdale","<MISSING>","monday: 11AM-9:30PM; tuesday: 11AM-9:30PM; wednesday: 11AM-9:30PM; thursday: 11AM-9:30PM; friday: 11AM-9:30PM; saturday: 11AM-9:30PM; sunday: 11AM-9:30PM","41.0024","Friendly's Hillsdale","store-item","https://www.friendlysrestaurants.com","-74.0427","https://www.friendlysrestaurants.com/?post_type=store-item&p=15801?id=","201-666-8522","NJ","211","441 Hillsdale Avenue","07642"
"Liverpool","<MISSING>","monday: 11AM-10PM; tuesday: 11AM-10PM; wednesday: 11AM-10PM; thursday: 11AM-10PM; friday: 11AM-10PM; saturday: 11AM-10PM; sunday: 11AM-10PM","43.1863","Friendly's Liverpool","store-item","https://www.friendlysrestaurants.com","-76.2451","https://www.friendlysrestaurants.com/?post_type=store-item&p=15802?id=","315-546-0217","NY","7476","3873 State Route 31, Suite 100","13090"
"Avon","<MISSING>","monday: 12PM-9PM; tuesday: 12PM-9PM; wednesday: 12PM-9PM; thursday: 12PM-9PM; friday: 12PM-9PM; saturday: 12PM-9PM; sunday: 12PM-9PM","41.8147","Friendly's Avon","store-item","https://www.friendlysrestaurants.com","-72.8615","https://www.friendlysrestaurants.com/?post_type=store-item&p=15806?id=","860-674-0702","CT","4239","347 West Main Street","06001"
"Pittsfield","<MISSING>","monday: 11AM-9PM; tuesday: 11AM-9PM; wednesday: 11AM-9PM; thursday: 11AM-9PM; friday: 11AM-9PM; saturday: 11AM-9PM; sunday: 11AM-9PM","42.468047","Friendly's Pittsfield","store-item","https://www.friendlysrestaurants.com","-73.203906","https://www.friendlysrestaurants.com/?post_type=store-item&p=15807?id=","413-443-0282","MA","870","841 Dalton Avenue","01201"
"North Dartmouth","<MISSING>","monday: 11AM-9PM; tuesday: 11AM-9PM; wednesday: 11AM-9PM; thursday: 11AM-9PM; friday: 11AM-9PM; saturday: 11AM-9PM; sunday: 11AM-9PM","41.6392","Friendly's North Dartmouth","store-item","https://www.friendlysrestaurants.com","-70.9878","https://www.friendlysrestaurants.com/?post_type=store-item&p=15808?id=","508-994-9657","MA","852","307 State Road","02747"
"Cornwells Heights","<MISSING>","monday: CLOSED-CLOSED; tuesday: CLOSED-CLOSED; wednesday: CLOSED-CLOSED; thursday: CLOSED-CLOSED; friday: CLOSED-CLOSED; saturday: CLOSED-CLOSED; sunday: CLOSED-CLOSED","40.1324","Friendly's Cornwells Heights","store-item","https://www.friendlysrestaurants.com","-74.9632","https://www.friendlysrestaurants.com/?post_type=store-item&p=15809?id=","215-357-2743","PA","576","106 Neshaminy Mall","19020"
"Westfield","<MISSING>","monday: 11AM-9PM; tuesday: 11AM-9PM; wednesday: 11AM-9PM; thursday: 11AM-9PM; friday: 11AM-9PM; saturday: 11AM-9PM; sunday: 11AM-9PM","42.1419","Friendly's Westfield","store-item","https://www.friendlysrestaurants.com","-72.7326","https://www.friendlysrestaurants.com/?post_type=store-item&p=15812?id=","413-562-0625","MA","1046","21 Southampton Road","01085"
"Glen Burnie","<MISSING>","monday: 11AM-9PM; tuesday: 11AM-9PM; wednesday: 11AM-9PM; thursday: 11AM-9PM; friday: 11AM-9PM; saturday: 11AM-9PM; sunday: 11AM-9PM","39.158989","Friendly's Glen Burnie","store-item","https://www.friendlysrestaurants.com","-76.628685","https://www.friendlysrestaurants.com/?post_type=store-item&p=15813?id=","410-768-4910","MD","7007","412 Crain Highway SW","21061"
"Horsham","<MISSING>","monday: 11AM-9PM; tuesday: 11AM-9PM; wednesday: 11AM-9PM; thursday: 11AM-9PM; friday: 11AM-10PM; saturday: 11AM-10PM; sunday: 11AM-9PM","40.1734","Friendly's Horsham","store-item","https://www.friendlysrestaurants.com","-75.1277","https://www.friendlysrestaurants.com/?post_type=store-item&p=15818?id=","215-674-8677","PA","824","168 Easton Road Route 611","19044"
"North Haven","<MISSING>","monday: 11AM-9PM; tuesday: 11AM-9PM; wednesday: 11AM-9PM; thursday: 11AM-9PM; friday: 11AM-9PM; saturday: 11AM-9PM; sunday: 11AM-9PM","41.3532","Friendly's North Haven","store-item","https://www.friendlysrestaurants.com","-72.8721","https://www.friendlysrestaurants.com/?post_type=store-item&p=15819?id=","203-234-8528","CT","1265","140 Universal Drive North","06473"
"East Islip","<MISSING>","monday: 11AM-11PM; tuesday: 11AM-11PM; wednesday: 11AM-11PM; thursday: 11AM-11PM; friday: 11AM-12AM; saturday: 11AM-12AM; sunday: 11AM-11PM","40.7451","Friendly's East Islip","store-item","https://www.friendlysrestaurants.com","-73.1427","https://www.friendlysrestaurants.com/?post_type=store-item&p=15820?id=","631-581-2466","NY","7603","50 Montauk Highway","11730"
"South Portland","<MISSING>","monday: 11AM-10PM; tuesday: 11AM-10PM; wednesday: 11AM-10PM; thursday: 11AM-10PM; friday: 11AM-10PM; saturday: 11AM-10PM; sunday: 11AM-10PM","43.6387","Friendly's South Portland","store-item","https://www.friendlysrestaurants.com","-70.3342","https://www.friendlysrestaurants.com/?post_type=store-item&p=15821?id=","207-774-7442","ME","1065","210 Maine Mall Road","04106"
"North Myrtle Beach","<MISSING>","monday: 7AM-10:30PM; tuesday: 7AM-10:30PM; wednesday: 7AM-10:30PM; thursday: 7AM-10:30PM; friday: 7AM-10:30PM; saturday: 7AM-10:30PM; sunday: 7AM-10:30PM","33.8303","Friendly's North Myrtle Beach","store-item","https://www.friendlysrestaurants.com","-78.6769","https://www.friendlysrestaurants.com/?post_type=store-item&p=15822?id=","843-249-6665","SC","7570","210 North Kings Highway","29582"
"Elmwood Park","<MISSING>","monday: 9AM-8PM; tuesday: 9AM-8PM; wednesday: 9AM-8PM; thursday: 9AM-8PM; friday: 9AM-8PM; saturday: 8AM-8PM; sunday: 8AM-8PM","40.8927","Friendly's Elmwood Park","store-item","https://www.friendlysrestaurants.com","-74.1148","https://www.friendlysrestaurants.com/?post_type=store-item&p=15823?id=","201-797-5353","NJ","7334","240 Rte 46 East","07407"
"Baltimore","<MISSING>","monday: 11AM-9PM; tuesday: 11AM-9PM; wednesday: 11AM-9PM; thursday: 11AM-9PM; friday: 11AM-9PM; saturday: 11AM-9PM; sunday: 11AM-9PM","39.2602","Friendly's Baltimore","store-item","https://www.friendlysrestaurants.com","-76.5095","https://www.friendlysrestaurants.com/?post_type=store-item&p=15825?id=","410-282-2981","MD","7010","1579 Merritt Boulevard","21222"
"Danville","<MISSING>","monday: 8AM-9PM; tuesday: 8AM-9PM; wednesday: 8AM-9PM; thursday: 8AM-9PM; friday: 8AM-9PM; saturday: 8AM-9PM; sunday: 8AM-9PM","40.9938","Friendly's Danville","store-item","https://www.friendlysrestaurants.com","-76.6383","https://www.friendlysrestaurants.com/?post_type=store-item&p=15826?id=","570-275-7657","PA","4007","310 Red Roof Road","17821"
"Pasadena","<MISSING>","monday: 11AM-9PM; tuesday: 11AM-9PM; wednesday: 11AM-9PM; thursday: 11AM-9PM; friday: 11AM-10PM; saturday: 11AM-10PM; sunday: 11AM-9PM","39.1218","Friendly's Pasadena","store-item","https://www.friendlysrestaurants.com","-76.5142","https://www.friendlysrestaurants.com/?post_type=store-item&p=15827?id=","410-437-6085","MD","7028","4189 Mountain Road","21122"
"Pembroke","<MISSING>","monday: 11AM-9PM; tuesday: 11AM-9PM; wednesday: 11AM-9PM; thursday: 11AM-9PM; friday: 11AM-9PM; saturday: 11AM-9PM; sunday: 11AM-9PM","42.1084","Friendly's Pembroke","store-item","https://www.friendlysrestaurants.com","-70.7706","https://www.friendlysrestaurants.com/?post_type=store-item&p=15828?id=","781-826-7840","MA","1027","146 Church Street","02359"
"Cinnaminson","<MISSING>","monday: 11AM-9PM; tuesday: 11AM-9PM; wednesday: 11AM-9PM; thursday: 11AM-9PM; friday: 11AM-10PM; saturday: 11AM-10PM; sunday: 11AM-9PM","39.9937","Friendly's Cinnaminson","store-item","https://www.friendlysrestaurants.com","-74.9999","https://www.friendlysrestaurants.com/?post_type=store-item&p=15830?id=","856-829-4501","NJ","752","505 Route 130","08077"
"Merrimack","<MISSING>","monday: 11AM-10PM; tuesday: 11AM-10PM; wednesday: 11AM-10PM; thursday: 11AM-10PM; friday: 11AM-10PM; saturday: 11AM-10PM; sunday: 11AM-10PM","42.804438","Friendly's Merrimack","store-item","https://www.friendlysrestaurants.com","-71.54665","https://www.friendlysrestaurants.com/?post_type=store-item&p=18618?id=","603-594-0239","NH","1272","710 Milford Road","03054"
"Mineola","<MISSING>","monday: 11AM-11PM; tuesday: 11AM-11PM; wednesday: 11AM-11PM; thursday: 11AM-11PM; friday: 11AM-12AM; saturday: 11AM-12AM; sunday: 11AM-11PM","40.7481","Friendly's Mineola","store-item","https://www.friendlysrestaurants.com","-73.6453","https://www.friendlysrestaurants.com/?post_type=store-item&p=18624?id=","516-294-0393","NY","7607","230 Jericho Turnpike","11501"
"Marlborough","<MISSING>","monday: 11AM-9PM; tuesday: 11AM-9PM; wednesday: 11AM-9PM; thursday: 11AM-9PM; friday: 11AM-9PM; saturday: 11AM-9PM; sunday: 11AM-9PM","42.337899","Friendly's Marlborough","store-item","https://www.friendlysrestaurants.com","-71.590089","https://www.friendlysrestaurants.com/?post_type=store-item&p=62038?id=","(508) 251-1006","MA","1273","157 Apex Drive","01752"
