"locator_domain","page_url","location_name","street_address","city","state","zip","country_code","store_number","phone","location_type","latitude","longitude","hours_of_operation"
"drmarklynn.com","<MISSING>","Village on Pooler Parkway","276 Pooler Pkwy, Ste B","Pooler","GA","31322","US","534","912.330.8884","<MISSING>","32.1409309","-81.2500883","<MISSING>"
"drmarklynn.com","<MISSING>","Gainesville","671 Dawsonville Highway","Gainesville","GA","30501","US","545","770.297.3583","<MISSING>","34.2952002","-83.85104419999999","<MISSING>"
"drmarklynn.com","<MISSING>","West Carmel Marketplace","9893 N Michigan Rd, Ste 100","Carmel","IN","46032","US","588","317.872.3451","<MISSING>","39.9321404","-86.23183639999999","<MISSING>"
"drmarklynn.com","<MISSING>","Eastland Mall","800 N Green River Rd, Space 205","Evansville","IN","47715","US","594","812.475.1946","<MISSING>","37.9846673","-87.4959867","<MISSING>"
"drmarklynn.com","<MISSING>","Gwinett","2131 Pleasant Hill Rd NW, Ste 152","Duluth","GA","30096","US","472","678.475.0500","<MISSING>","33.9556944","-84.13432540000001","<MISSING>"
"drmarklynn.com","<MISSING>","Southgate","5220 Frederica St","Owensboro","KY","42301","US","549","270.684.1174","<MISSING>","37.716396","-87.12631999999999","<MISSING>"
"drmarklynn.com","<MISSING>","Clarksville","1030 Veterans Pkwy","Clarksville","IN","47129","US","550","812.282.2020","<MISSING>","38.3250198","-85.76638419999999","<MISSING>"
"drmarklynn.com","<MISSING>","Hamilton Place Mall","2100 Hamilton Place Blvd, #167","Chattanooga","TN","37421","US","597","423.892.7166","<MISSING>","35.0303484","-85.1596835","<MISSING>"
"drmarklynn.com","<MISSING>","Village Park Plaza","1950 Greyhound Pass, Ste 2","Carmel","IN","46033","US","593","317.569.0860","<MISSING>","40.0054633","-86.1242446","<MISSING>"
"drmarklynn.com","<MISSING>","Columbus Park Crossing","6783 Veterans Pkwy Suite 100","Columbus","GA","31909","US","489","706.323.0260","<MISSING>","32.5457864","-84.9528589","<MISSING>"
"drmarklynn.com","<MISSING>","Northlake Mall","4153 LaVista Rd, Ste C","Tucker","GA","30084","US","471","770.939.8828","<MISSING>","33.8460501","-84.248829","<MISSING>"
"drmarklynn.com","<MISSING>","Etown","1609 N Dixie Ave Ste 100","Elizabethtown","KY","42701","US","555","270.765.7372","<MISSING>","37.7295886","-85.8842007","<MISSING>"
"drmarklynn.com","<MISSING>","Colonial Towne Park","841 Industrial Blvd","Smyrna","TN","37167","US","581","615.220.6108","<MISSING>","35.97995","-86.56700409999999","<MISSING>"
"drmarklynn.com","<MISSING>","Cool Springs","8113 Moores Lane, Ste 1800","Brentwood","TN","37027","US","561","615.309.5050","<MISSING>","35.9652569","-86.8010765","<MISSING>"
"drmarklynn.com","<MISSING>","Cumberland Mall","1245 Cumberland Mall","Altanta","GA","30339","US","474","770.434.0440","<MISSING>","33.8801743","-84.47075889999999","<MISSING>"
"drmarklynn.com","<MISSING>","Henry Town Center","1862 Jonesboro Rd","McDonough","GA","30253","US","486","678.432.1584","<MISSING>","33.4661726","-84.2182206","<MISSING>"
"drmarklynn.com","<MISSING>","Fishers Corner Shoppes II","11781 Commercial Dr","Fishers","IN","46038","US","596","317.913.0735","<MISSING>","39.96005","-86.01204000000001","<MISSING>"
"drmarklynn.com","<MISSING>","Ashley Park","324 Newnan Crossing Bypass","Newnan","GA","30265","US","487","678.423.3927","<MISSING>","33.3899001","-84.7624869","<MISSING>"
"drmarklynn.com","<MISSING>","Hickory Hollow","5304-J Mt View Rd","Antioch","TN","37013","US","556","615.731.2701","<MISSING>","36.04836969999999","-86.64906479999999","<MISSING>"
"drmarklynn.com","<MISSING>","Springhill","2012 Crossings Circle Suite B","Springhill","TN","37174","US","1343","(931) 489-9151","<MISSING>","35.7410053","-86.9421461","<MISSING>"
"drmarklynn.com","<MISSING>","The Paddocks at Mt. Juliet","20 Old Pleasant Grove Rd, Ste 200","Mt. Juliet","TN","37122","US","579","615.758.3833","<MISSING>","36.1751224","-86.5136382","<MISSING>"
"drmarklynn.com","<MISSING>","Cartersville","50 Main Street Market Place SE Ste 100","Cartersville","GA","30121","US","1331","770.382.6379","<MISSING>","34.1729389","-84.7794902","<MISSING>"
"drmarklynn.com","<MISSING>","Castleton Square Mall","6020 E 82nd St, Space 810","Indianapolis","IN","46250","US","587","317.842.2018","<MISSING>","39.9092285","-86.06538619999999","<MISSING>"
"drmarklynn.com","<MISSING>","Athens Place","1805 Epps Bridge Parkway, Ste 105","Athens","GA","30606","US","540","706.352.2282","<MISSING>","33.9165654","-83.4450339","<MISSING>"
"drmarklynn.com","<MISSING>","Rivergate Mall","1000 Rivergate Pkwy, #1560","Goodlettsville","TN","37072","US","165","615.859.7447","<MISSING>","36.302848","-86.699942","<MISSING>"
"drmarklynn.com","<MISSING>","Camp Creek Marketplace","3360 Shelby Lane, Ste 1010","East Point","GA","30344","US","484","404.344.0274","<MISSING>","33.6575048","-84.5005937","<MISSING>"
"drmarklynn.com","<MISSING>","Rivergate","1701 Gallatin Rd","Madison","TN","37115","US","560","615.868.2000","<MISSING>","36.2936506","-86.70141459999999","<MISSING>"
"drmarklynn.com","<MISSING>","Pavilion of Turkey Creek","10930 Parkside Dr","Knoxville","TN","37934","US","589","865.671.1188","<MISSING>","35.9021699","-84.1483715","<MISSING>"
"drmarklynn.com","<MISSING>","The Crossing at Indian Lake Village","254 Indian Lake Blvd, Ste 100","Hendersonville","TN","37075","US","580","615.822.0446","<MISSING>","36.3263087","-86.594684","<MISSING>"
"drmarklynn.com","<MISSING>","Murfreesboro","115 Mall Circle Dr, Ste A","Murfreesboro","TN","37129","US","558","615.895.7090","<MISSING>","35.8467552","-86.42125","<MISSING>"
"drmarklynn.com","<MISSING>","Centre East Shoppes","10777 E Washington St, Ste A","Indianapolis","IN","46229","US","586","317.897.0480","<MISSING>","39.7750475","-85.9754011","<MISSING>"
"drmarklynn.com","<MISSING>","Presidential Market","1905 Scenic Hwy, Ste 1130","Snellville","GA","30078","US","482","678.344.9954","<MISSING>","33.8766585","-84.0147767","<MISSING>"
"drmarklynn.com","<MISSING>","Fayette Pavilion","165 Pavilion Pkwy","Fayetteville","GA","30214","US","481","678.817.4875","<MISSING>","33.4818232","-84.44546299999999","<MISSING>"
"drmarklynn.com","<MISSING>","Cumming Station","1530 Market Place Blvd, Ste D","Cumming","GA","30041","US","488","678.513.8541","<MISSING>","34.1866905","-84.1319354","<MISSING>"
"drmarklynn.com","<MISSING>","Jackson Plaza","377 West Jackson St, #D-1","Cookeville","TN","38501","US","573","931.525.1268","<MISSING>","36.1569149","-85.5156554","<MISSING>"
"drmarklynn.com","<MISSING>","Cool Springs Mall","1800 Galleria Blvd, #1330","Franklin","TN","37064","US","163","615.771.7382","<MISSING>","35.957118","-86.8135382","<MISSING>"
"drmarklynn.com","<MISSING>","Nashville West","6800 Charlotte Pike, Ste 110","Nashville","TN","37209","US","577","615.354.5807","<MISSING>","36.1350751","-86.8884863","<MISSING>"
"drmarklynn.com","<MISSING>","Ridgeway Trace","5849 Poplar Ave Ste 109","Memphis","TN","38119","US","173","901.767.2309","<MISSING>","35.1019244","-89.8661868","<MISSING>"
"drmarklynn.com","<MISSING>","Honey Creek Marketplace","4440 S US Highway 41 Ste 102","Terre Haute","IN","47802","US","844","812.232.2988","<MISSING>","39.41319439999999","-87.4140506","<MISSING>"
"drmarklynn.com","<MISSING>","Poplar Square Shopping Center","231 New Byhalia Rd Ste 100","Collierville","TN","38017","US","172","901.854.6798","<MISSING>","35.0473605","-89.6896132","<MISSING>"
"drmarklynn.com","<MISSING>","Shoppes at River Crossing","5080 Riverside Dr, Ste 326","Macon","GA","31210","US","848","478.477.0323","<MISSING>","32.9274912","-83.7152838","<MISSING>"
"drmarklynn.com","<MISSING>","Highland Meijer Plaza","10140 Indianapolis Blvd Suite C","Highland","IN","46322","US","864","219.924.3919","<MISSING>","41.52816490000001","-87.4719279","<MISSING>"
"drmarklynn.com","<MISSING>","Greenwood Park Mall","1251 US 31 N, Ste K03A","Greenwood","IN","46142","US","592","317.883.0419","<MISSING>","39.6329467","-86.12040809999999","<MISSING>"
"drmarklynn.com","<MISSING>","Warner Robins Station","2745 Watson Blvd","Warner Robins","GA","31088","US","535","478.953.1993","<MISSING>","32.6178222","-83.6755701","<MISSING>"
"drmarklynn.com","<MISSING>","Teal Plaza Outlet","2141 Sagamore Pkwy South","Lafayette","IN","47905","US","873","765.446.8010","<MISSING>","40.3966747","-86.8559312","<MISSING>"
"drmarklynn.com","<MISSING>","The Columns","1150 Vann Drive","Jackson","TN","38305","US","174","731.668.3806","<MISSING>","35.6652331","-88.85830620000002","<MISSING>"
"drmarklynn.com","<MISSING>","Westfield Southlake","1908 Southlake Mall, Unit AL104","Merrillville","IN","46410","US","832","219.791.0951","<MISSING>","41.4683973","-87.3120383","<MISSING>"
"drmarklynn.com","<MISSING>","Canton Marketplace","1810 Cumming Hwy, Space F-1010","Canton","GA","30114","US","483","770.704.9666","<MISSING>","34.2339039","-84.4558256","<MISSING>"
"drmarklynn.com","<MISSING>","The Mall at Stonecrest","2929 Turner Hill Rd, Space 2625","Lithonia","GA","30038","US","470","770.482.5050","<MISSING>","33.698691","-84.0952243","<MISSING>"
"drmarklynn.com","<MISSING>","Southcrest Market","338 Goodman Rd W","Southaven","MS","38671","US","268","662.349.1139","<MISSING>","34.9632996","-89.9957349","<MISSING>"
"drmarklynn.com","<MISSING>","North Point Village","7300 North Point Parkway Ste 122","Alpharetta","GA","30022","US","119","770.752.0763","<MISSING>","34.043244","-84.3003164","<MISSING>"
"drmarklynn.com","<MISSING>","Market Walk Shopping Center","318 Mall Blvd, Ste 600, Unit A","Savannah","GA","31406","US","533","912.356.3833","<MISSING>","32.0051978","-81.11253669999999","<MISSING>"
"drmarklynn.com","<MISSING>","McIntosh Village","2735 West Hwy 54","Peachtree City","GA","30269","US","607","678.364.0340","<MISSING>","33.3971826","-84.6001737","<MISSING>"
"drmarklynn.com","<MISSING>","Arbor Place","1550 Arbor Place Mall","Douglasville","GA","30135","US","479","770.852.1002","<MISSING>","33.728246","-84.744361","<MISSING>"
"drmarklynn.com","<MISSING>","The Meadows","5307 Highway 153 Suite 101","Hixson","TN","37343","US","599","423.877.3309","<MISSING>","35.1278034","-85.2429348","<MISSING>"
"drmarklynn.com","<MISSING>","Hamilton Town Center","14139 Towne Center Blvd  No  550","Noblesville","IN","46060","US","609","317.770.1018","<MISSING>","39.9943708","-85.93259979999999","<MISSING>"
"drmarklynn.com","<MISSING>","Town Center at Cobb","400 Barrett Parkway, Ste 158","Kennesaw","GA","30144","US","473","770.429.1660","<MISSING>","34.0177634","-84.5643676","<MISSING>"
"drmarklynn.com","<MISSING>","Avon Commons","10447 E US Hwy 36","Avon","IN","46123","US","585","317.273.1702","<MISSING>","39.7633513","-86.40074969999999","<MISSING>"
"drmarklynn.com","<MISSING>","Hampton","2801 Wilma Rudolph Blvd Ste 475","Clarksville","TN","37040","US","557","931.553.8033","<MISSING>","36.5883448","-87.28761469999999","<MISSING>"
"drmarklynn.com","<MISSING>","Florence","7727 Mall Road Suite B","Florence","KY","41042","US","606","859.282.1751","<MISSING>","38.9965254","-84.6547263","<MISSING>"
"drmarklynn.com","<MISSING>","Campbell Crossing","4135 Ft Campbell Boulevard","Hopkinsville","KY","42240","US","600","270.887.5765","<MISSING>","36.8305998","-87.47319499999999","<MISSING>"
"drmarklynn.com","<MISSING>","Paducah","3910 Hinkleville Rd","Paducah","KY","42001","US","567","270.443.2090","<MISSING>","37.07951","-88.67448399999999","<MISSING>"
"drmarklynn.com","<MISSING>","Cape","3042 William St","Cape Girardeau","MO","63701","US","568","573.339.2008","<MISSING>","37.3013997","-89.5703176","<MISSING>"
"drmarklynn.com","<MISSING>","Springhurst Town Center","3571 Springhurst Blvd","Louisville","KY","40241","US","572","502.339.7323","<MISSING>","38.29915","-85.5600601","<MISSING>"
"drmarklynn.com","<MISSING>","Richmond Centre","2115 Lantern Ridge Dr, Ste U500","Richmond","KY","40475","US","576","859.625.1004","<MISSING>","37.7388288","-84.3280547","<MISSING>"
"drmarklynn.com","<MISSING>","Cherry Blossom","450 Connector Road","Georgetown","KY","40324","US","595","502.868.9870","<MISSING>","38.229193","-84.5354475","<MISSING>"
"drmarklynn.com","<MISSING>","Festival at Jefferson Court","4655 Outer Loop","Louisville","KY","40219","US","551","502.966.2020","<MISSING>","38.1393982","-85.686277","<MISSING>"
"drmarklynn.com","<MISSING>","Dupont","1001 Breckinridge Lane","Louisville","KY","40207","US","553","502.893.2015","<MISSING>","38.23359","-85.6376969","<MISSING>"
"drmarklynn.com","<MISSING>","Wesley Commons","2202 State St","New Albany","IN","47150","US","582","812.941.0476","<MISSING>","38.306534","-85.84079","<MISSING>"
"drmarklynn.com","<MISSING>","Middletown","13210 Shelbyville Rd, Ste 101","Middletown","KY","40223","US","578","502.244.9198","<MISSING>","38.2421694","-85.5109227","<MISSING>"
"drmarklynn.com","<MISSING>","Bowling Green","2608 Scottsville Rd","Bowling Green","KY","42104","US","563","270.782.2025","<MISSING>","36.9507758","-86.42430639999999","<MISSING>"
"drmarklynn.com","<MISSING>","Dixie","5224 Dixie Hwy","Louisville","KY","40216","US","554","502.449.2080","<MISSING>","38.1626068","-85.8326354","<MISSING>"
"drmarklynn.com","<MISSING>","The Fern Creek Shops","7945 Bardstown Rd","Louisville","KY","40291","US","583","502.231.4061","<MISSING>","38.132214","-85.577934","<MISSING>"
"drmarklynn.com","<MISSING>","Hamburg Pavilion","2312 Sir Barton Way, Ste 170","Lexington","KY","40509","US","574","859.543.8383","<MISSING>","38.0237154","-84.4224366","<MISSING>"
"drmarklynn.com","<MISSING>","Nick Rd","3695 Nicholasville Rd, Ste 150","Lexington","KY","40503","US","562","859.273.4443","<MISSING>","37.984765","-84.5273796","<MISSING>"
"drmarklynn.com","<MISSING>","Frankfort","111 Jett Blvd, Ste 100","Frankfort","KY","40601","US","584","502.695.6310","<MISSING>","38.1753502","-84.8140351","<MISSING>"
"drmarklynn.com","<MISSING>","Market","100 W Market St","Louisville","KY","40202","US","552","502.587.8488","<MISSING>","38.2544964","-85.7523246","<MISSING>"
"drmarklynn.com","<MISSING>","Somerset Pad","2007 S Highway 27 Suite A","Somerset","KY","42501","US","870","606.678.9953","<MISSING>","37.0661056","-84.6204863","<MISSING>"
"drmarklynn.com","<MISSING>","Ashland Town Center","500 Winchester Ave Ste 810","Ashland","KY","41101","US","403","606.324.3672","<MISSING>","38.4833032","-82.653408","<MISSING>"
"drmarklynn.com","<MISSING>","West Town Mall","7600 Kingston Pike, Space 1110-A","Knoxville","TN","37919","US","570","865.531.3295","<MISSING>","35.9232587","-84.0411731","<MISSING>"
"drmarklynn.com","<MISSING>","Knoxville Center Mall","2960 Miller Place Way","Knoxville","TN","37924","US","571","865.525.9520","<MISSING>","36.03287","-83.87052","<MISSING>"
"drmarklynn.com","<MISSING>","Bristol","1262 Volunteer Pwy","Bristol","TN","37620","US","566","423.989.3737","<MISSING>","36.5649464","-82.20558079999999","<MISSING>"
"drmarklynn.com","<MISSING>","Johnson City","3101 Browns Mill Rd Suite 1","Johnson City","TN","37604","US","564","423.282.1100","<MISSING>","36.3574572","-82.39573659999999","<MISSING>"
"drmarklynn.com","<MISSING>","Kingsport","1008 Indian Trail Dr","Kingsport","TN","37660","US","565","423.247.2020","<MISSING>","36.5476088","-82.51439789999999","<MISSING>"
"drmarklynn.com","<MISSING>","Greenhills","3904 Hillsboro Pike, Ste C","Nashville","TN","37215","US","559","615.292.2040","<MISSING>","36.105305","-86.81361299999999","<MISSING>"
