"locator_domain","location_name","street_address","city","state","zip","country_code","store_number","phone","location_type","latitude","longitude","hours_of_operation","page_url"
"https://secondcup.com","Innes Rd & Belcourt Dr","3838 Innes Road","Orleans","ON","K1W 0C8","CA","<MISSING>","613-837-7878","Cafe","<MISSING>","<MISSING>","Monday 6:00 am 09:00 pm Tuesday 6:00 am 09:00 pm Wednesday 6:00 am 09:00 pm Thursday 6:00 am 09:00 pm Friday 6:00 am 09:00 pm Saturday 6:00 am 09:00 pm Sunday 6:00 am 09:00 pm","https://secondcup.com/location/innes-rd-belcourt-dr"
"https://secondcup.com","10th Line","1779, 10th Line Road, Unit 5","Orleans","ON","K1E 3X2","CA","<MISSING>","613-830-9660","Cafe","<MISSING>","<MISSING>","Monday 6:00 am 10:00 pm Tuesday 6:00 am 10:00 pm Wednesday 6:00 am 10:00 pm Thursday 6:00 am 10:00 pm Friday 6:00 am 10:00 pm Saturday 7:30 am 09:00 pm Sunday 7:30 am 08:00 pm","https://secondcup.com/location/10th-line"
"https://secondcup.com","Place D'Orleans","110 Place D'Orleans Dr.","Ottawa","ON","K1C 2L9","CA","<MISSING>","613- 824-1925","Cafe","<MISSING>","<MISSING>","Monday 11:00 am 07:00 pm Tuesday 11:00 am 07:00 pm Wednesday 11:00 am 07:00 pm Thursday 11:00 am 07:00 pm Friday 11:00 am 07:00 pm Saturday 10:00 am 06:00 pm Sunday 11:00 am 05:00 pm","https://secondcup.com/location/place-dorleans"
"https://secondcup.com","St. Laurent Shopping Mall","1200 St. Laurent Blvd.,  K7 (Kiosk)","Ottawa","ON","K1K 3B8","CA","<MISSING>","613-745-9651","Cafe","<MISSING>","<MISSING>","Monday 7:00 am 09:00 pm Tuesday 7:00 am 09:00 pm Wednesday 7:00 am 09:00 pm Thursday 7:00 am 09:00 pm Friday 7:00 am 09:00 pm Saturday 8:00 am 09:00 pm Sunday 10:30 am 05:00 pm","https://secondcup.com/location/st-laurent-shopping-mall"
"https://secondcup.com","Ottawa Esso","<MISSING>","<MISSING>","<MISSING>","<MISSING>","CA","<MISSING>","613-562-4512","Cafe","<MISSING>","<MISSING>","Monday 6:00 am 09:30 pm Tuesday 6:00 am 09:30 pm Wednesday 6:00 am 09:30 pm Thursday 6:00 am 09:30 pm Friday 6:00 am 09:30 pm Saturday 6:00 am 09:30 pm Sunday 7:00 am 09:00 pm","https://secondcup.com/location/ottawa-esso"
"https://secondcup.com","1351 Ste Catherine St. East","1351 Ste Catherine St. E.","Montreal","QC","H2L 2H7","CA","<MISSING>","514-524-4004","Cafe","<MISSING>","<MISSING>","Monday 6:30 am 11:00 pm Tuesday 6:30 am 11:00 pm Wednesday 6:30 am 11:00 pm Thursday 6:30 am 11:00 pm Friday 6:30 am 11:00 pm Saturday 7:00 am 12:00 am Sunday 7:00 am 12:00 am","https://secondcup.com/location/1351-ste-catherine-st-east"
"https://secondcup.com","1551 St Denis","1551 St. Denis","Montreal","QC","H2X 3K3","CA","<MISSING>","514-843-7264","Cafe","<MISSING>","<MISSING>","Monday 6:00 am 12:00 am Tuesday 6:00 am 12:00 am Wednesday 6:00 am 12:00 am Thursday 6:00 am 12:00 am Friday 6:00 am 12:30 am Saturday 6:00 am 12:30 am Sunday 7:00 am 12:00 am","https://secondcup.com/location/1551-st-denis"
"https://secondcup.com","Central Station","895 La Gauchetiere Ouest","Montreal","QC","H3B 4G1","CA","<MISSING>","438-387-6387","Cafe","<MISSING>","<MISSING>","Monday 5:30 am 11:00 pm Tuesday 5:30 am 11:00 pm Wednesday 5:30 am 11:00 pm Thursday 5:30 am 11:00 pm Friday 5:30 am 11:00 pm Saturday 6:30 am 08:00 pm Sunday 6:30 am 08:00 pm","https://secondcup.com/location/central-station"
"https://secondcup.com","Phillips Square","1235 Phillips Square","Montreal","QC","H3B 3E9","CA","<MISSING>","514-842-4040","Cafe","<MISSING>","<MISSING>","Monday 6:30 am 10:00 pm Tuesday 6:30 am 10:00 pm Wednesday 6:30 am 11:00 pm Thursday 6:30 am 11:00 pm Friday 6:30 am 11:00 am Saturday 6:30 am 11:00 am Sunday 7:30 am 10:00 pm","https://secondcup.com/location/phillips-square"
"https://secondcup.com","Nun's Island","7 Place du Commerce, Unit 101","Montreal","QC","H3E 2B5","CA","<MISSING>","514-769-2992","Cafe","<MISSING>","<MISSING>","Monday 6:00 am 11:00 pm Tuesday 6:00 am 11:00 pm Wednesday 6:00 am 11:00 pm Thursday 6:00 am 11:00 pm Friday 6:00 am 11:00 pm Saturday 7:00 am 11:00 pm Sunday 7:00 am 11:00 pm","https://secondcup.com/location/nuns-island"
"https://secondcup.com","Killarney Crossing","2803 17th Avenue S.W.","Calgary","AB","T3E 0A8","CA","<MISSING>","403-879-9912","Cafe","<MISSING>","<MISSING>","Monday 6:00 am 09:00 pm Tuesday 6:00 am 09:00 pm Wednesday 6:00 am 09:00 pm Thursday 6:00 am 09:00 pm Friday 6:00 am 09:00 pm Saturday 7:00 am 09:00 pm Sunday 7:00 am 09:00 pm","https://secondcup.com/location/killarney-crossing"
"https://secondcup.com","Landmark Centre","500 17 Ave SW","Calgary","AB","T2S 0B1","CA","<MISSING>","403-244-1353","Cafe","<MISSING>","<MISSING>","Monday 7:00 am 09:00 pm Tuesday 7:00 am 09:00 pm Wednesday 7:00 am 09:00 pm Thursday 7:00 am 09:00 pm Friday 7:00 am 09:00 pm Saturday 8:00 am 09:00 pm Sunday 8:00 am 09:00 pm","https://secondcup.com/location/landmark-centre"
"https://secondcup.com","Opus Office Tower","607 8th Avenue SW","Calgary","AB","T2P 0A7","CA","<MISSING>","403-234-8275","Cafe","<MISSING>","<MISSING>","Monday 6:00 am 04:00 pm Tuesday 6:00 am 04:00 pm Wednesday 6:00 am 04:00 pm Thursday 6:00 am 04:00 pm Friday 6:00 am 04:00 pm","https://secondcup.com/location/opus-office-tower"
"https://secondcup.com","Calgary Law Courts","601-5 ST  SW","Calgary","AB","T2P 5P7","CA","<MISSING>","403-515-0072","Cafe","<MISSING>","<MISSING>","Monday 7:00 am 03:00 pm Tuesday 7:00 am 03:00 pm Wednesday 7:00 am 03:00 pm Thursday 7:00 am 03:00 pm Friday 7:00 am 03:00 pm","https://secondcup.com/location/calgary-law-courts"
"https://secondcup.com","Gulf Canada Square","240, 401-9th Avenue SW","Calgary","AB","T2P 3C5","CA","<MISSING>","403-263-1955","Cafe","<MISSING>","<MISSING>","Monday 5:30 am 04:00 pm Tuesday 5:30 am 04:00 pm Wednesday 5:30 am 04:00 pm Thursday 5:30 am 04:00 pm Friday 5:30 am 04:00 pm","https://secondcup.com/location/gulf-canada-square"
"https://secondcup.com","Bramalea City Centre","25 Peel Centre Drive, Unit 316","Brampton","ON","L6T 3R5","CA","<MISSING>","905-791-4085","Cafe","<MISSING>","<MISSING>","Monday 7:30 am 09:00 pm Tuesday 7:30 am 09:00 pm Wednesday 7:30 am 09:00 pm Thursday 7:30 am 09:00 pm Friday 7:30 am 09:00 pm Saturday 8:30 am 09:00 pm Sunday 8:30 am 07:00 pm","https://secondcup.com/location/bramalea-city-centre"
"https://secondcup.com","Hurontario & County Court","7700 Hurontario Street, Building E","Brampton","ON","L6Y 4M3","CA","<MISSING>","905-230-1077","Cafe","<MISSING>","<MISSING>","Monday 7:00 am 11:00 pm Tuesday 7:00 am 11:00 pm Wednesday 7:00 am 11:00 pm Thursday 7:00 am 11:00 pm Friday 7:00 am 11:00 pm Saturday 7:00 am 11:00 pm Sunday 7:00 am 11:00 pm","https://secondcup.com/location/hurontario-county-court"
"https://secondcup.com","Brampton Corners (Toto)","74 Quarry Edge Drive","Brampton","ON","L6V 4K2","CA","<MISSING>","905-452-7714","Cafe","<MISSING>","<MISSING>","Monday 6:30 am 10:00 pm Tuesday 6:30 am 10:00 pm Wednesday 6:30 am 10:00 pm Thursday 6:30 am 10:00 pm Friday 6:30 am 10:00 pm Saturday 7:00 am 10:00 pm Sunday 7:00 am 10:00 pm","https://secondcup.com/location/brampton-corners-toto"
"https://secondcup.com","Heartland Centre","5985 Mavis Road","Mississauga","ON","L5R 3T7","CA","<MISSING>","905-507-9800","Cafe","<MISSING>","<MISSING>","Monday 7:30 am 11:00 pm Tuesday 7:30 am 11:00 pm Wednesday 7:30 am 11:00 pm Thursday 7:30 am 11:00 pm Friday 7:30 am 11:00 pm Saturday 7:30 am 11:00 pm Sunday 7:30 am 11:00 pm","https://secondcup.com/location/heartland-centre"
"https://secondcup.com","Eglinton & Wincott","265 Wincott Drive","Toronto","ON","M9R 2R7","CA","<MISSING>","416-235-0333","Cafe","<MISSING>","<MISSING>","Monday 6:00 am 10:30 pm Tuesday 6:00 am 10:30 pm Wednesday 6:00 am 10:30 pm Thursday 6:00 am 10:30 pm Friday 6:00 am 10:30 pm Saturday 7:00 am 10:30 pm Sunday 7:00 am 10:00 pm","https://secondcup.com/location/eglinton-wincott"
"https://secondcup.com","Loyola","7335-7345 Sherbrooke St. West","Montreal","QC","H4B 1R9","CA","<MISSING>","514-481-7236","Cafe","<MISSING>","<MISSING>","Monday 6:30 am 10:00 pm Tuesday 6:30 am 10:00 pm Wednesday 6:30 am 10:00 pm Thursday 6:30 am 10:00 pm Friday 6:30 am 10:00 pm Saturday 7:00 am 10:00 pm Sunday 7:00 am 10:00 pm","https://secondcup.com/location/loyola"
"https://secondcup.com","5550 Monkland Avenue","5550 Monkland Avenue","Montreal","QC","H4A 1C9","CA","<MISSING>","514-369-8999","Cafe","<MISSING>","<MISSING>","Monday 6:00 am 11:00 pm Tuesday 6:00 am 11:00 pm Wednesday 6:00 am 11:00 pm Thursday 6:00 am 11:00 pm Friday 6:00 am 11:00 pm Saturday 7:00 am 11:00 pm Sunday 7:00 am 11:00 pm","https://secondcup.com/location/5550-monkland-avenue"
"https://secondcup.com","5071 Queen Mary","5071 Queen Mary Road","Montreal","QC","H3W 1X4","CA","<MISSING>","5147391989","Cafe","<MISSING>","<MISSING>","Monday 5:30 am 12:00 am Tuesday 5:30 am 12:00 am Wednesday 5:30 am 12:00 am Thursday 5:30 am 12:00 am Friday 5:30 am 12:00 am Saturday 6:00 am 12:00 am Sunday 7:00 am 12:00 am","https://secondcup.com/location/5071-queen-mary"
"https://secondcup.com","Van Horne & Victoria","4795 Ave Van Horne","Montreal","QC","H3W 1H8","CA","<MISSING>","514-419-1098","Cafe","<MISSING>","<MISSING>","Monday 6:00 am 11:00 pm Tuesday 6:00 am 11:00 pm Wednesday 6:00 am 11:00 pm Thursday 6:00 am 11:00 pm Friday 6:00 am 11:00 pm Saturday 6:00 am 11:00 pm Sunday 6:00 am 11:00 pm","https://secondcup.com/location/van-horne-victoria"
"https://secondcup.com","5206 Cotes des Neiges","5206 Cotes des Neiges","Montreal","QC","H3T 1X8","CA","<MISSING>","514-733-2710","Cafe","<MISSING>","<MISSING>","Monday 6:00 am 12:00 am Tuesday 6:00 am 12:00 am Wednesday 6:00 am 12:00 am Thursday 6:00 am 12:00 am Friday 6:00 am 12:00 am Saturday 6:00 am 12:00 am Sunday 6:00 am 12:00 am","https://secondcup.com/location/5206-cotes-des-neiges"
"https://secondcup.com","Saint Basile Le Grand","185 boul Sir Wilfred Laurier","Saint Basile Le Grand","QC","J3N 1R1","CA","<MISSING>","<MISSING>","Cafe","<MISSING>","<MISSING>","Monday 6:00 am 10:30 pm Tuesday 6:00 am 10:30 pm Wednesday 6:00 am 10:30 pm Thursday 6:00 am 10:30 pm Friday 6:00 am 10:30 pm Saturday 6:30 am 10:30 pm Sunday 6:30 am 10:00 pm","https://secondcup.com/location/saint-basile-le-grand"
"https://secondcup.com","Ste-Julie","1800 Chemin du Fer-a-Cheval, Suite: 102","Ste-Julie","QC","J3E 1G2","CA","<MISSING>","450-922-2625","Cafe","<MISSING>","<MISSING>","Monday 6:00 am 10:30 pm Tuesday 6:00 am 10:30 pm Wednesday 6:00 am 10:30 pm Thursday 6:00 am 10:30 pm Friday 6:00 am 10:30 pm Saturday 7:00 am 10:30 pm Sunday 7:00 am 10:30 pm","https://secondcup.com/location/ste-julie"
"https://secondcup.com","St Bruno Village","1308 Rue Roberval","St Bruno","QC","J3V 5J1","CA","<MISSING>","450-653-9008","Cafe","<MISSING>","<MISSING>","Monday 6:00 am 10:00 pm Tuesday 6:00 am 10:00 pm Wednesday 6:00 am 10:00 pm Thursday 6:00 am 10:00 pm Friday 6:00 am 10:00 pm Saturday 6:00 am 10:00 pm Sunday 7:00 am 10:00 pm","https://secondcup.com/location/st-bruno-village"
"https://secondcup.com","Promenade St Bruno","101 Boul., De Promenades St Bruno","St Bruno","QC","J3V 5K2","CA","<MISSING>","450-653-8682","Cafe","<MISSING>","<MISSING>","Monday 7:00 am 09:30 pm Tuesday 7:00 am 09:30 pm Wednesday 7:00 am 09:30 pm Thursday 7:00 am 09:30 pm Friday 7:00 am 09:30 pm Saturday 7:00 am 05:30 pm Sunday 7:00 am 05:30 pm","https://secondcup.com/location/promenade-st-bruno"
"https://secondcup.com","Carrefour St Hubert","5964 Boulevard Cousineau","St-Hubert","QC","J3Y 7R9","CA","<MISSING>","450-443-6869","Cafe","<MISSING>","<MISSING>","Monday 6:00 am 10:00 pm Tuesday 6:00 am 10:00 pm Wednesday 6:00 am 10:00 pm Thursday 6:00 am 10:00 pm Friday 6:00 am 10:00 pm Saturday 7:00 am 10:00 pm Sunday 7:00 am 10:00 pm","https://secondcup.com/location/carrefour-st-hubert"
"https://secondcup.com","Stavanger Plaza","9 Stavanger Drive","St. Johns","NL","A1A 5E8","CA","<MISSING>","709-722-2008","Cafe","<MISSING>","<MISSING>","Monday 7:00 am 11:00 pm Tuesday 7:00 am 10:00 pm Wednesday 7:00 am 10:00 pm Thursday 7:00 am 10:00 pm Friday 7:00 am 11:00 pm Saturday 8:00 am 11:00 pm Sunday 8:00 am 10:00 pm","https://secondcup.com/location/stavanger-plaza"
"https://secondcup.com","Avalon Mall","48  Kenmount Road","St. Johns","NL","A1B 1W3","CA","<MISSING>","709-726-4283","Cafe","<MISSING>","<MISSING>","Monday 8:00 am 09:30 pm Tuesday 8:00 am 09:30 pm Wednesday 8:00 am 09:30 pm Thursday 8:00 am 09:30 pm Friday 8:00 am 09:30 pm Saturday 8:00 am 09:30 pm Sunday 11:00 am 05:00 pm","https://secondcup.com/location/avalon-mall"
"https://secondcup.com","York Mills Gardens","808 York Mills Road","Toronto","ON","M3B 1X8","CA","<MISSING>","416-383-1243","Cafe","<MISSING>","<MISSING>","Monday 7:00 am 10:00 pm Tuesday 7:00 am 10:00 pm Wednesday 7:00 am 10:00 pm Thursday 7:00 am 10:00 pm Friday 7:00 am 10:00 pm Saturday 7:00 am 10:00 pm Sunday 7:00 am 10:00 pm","https://secondcup.com/location/york-mills-gardens"
"https://secondcup.com","Sunnybrook Hospital","2075 Bayview Ave., Office-EG 38, Food Service","Toronto","ON","M4N 3M5","CA","<MISSING>","416-480-6100","Cafe","<MISSING>","<MISSING>","Monday 12:00 am 11:59 pm Tuesday 12:00 am 11:59 pm Wednesday 12:00 am 11:59 pm Thursday 12:00 am 11:59 pm Friday 12:00 am 11:59 pm Saturday 12:00 am 11:59 pm Sunday 12:00 am 11:59 pm","https://secondcup.com/location/sunnybrook-hospital"
"https://secondcup.com","York Mills Shopping Centre","311 York Mills Road","Toronto","ON","M2L 2A8","CA","<MISSING>","416-444-1730","Cafe","<MISSING>","<MISSING>","Monday 6:30 am 09:00 pm Tuesday 6:00 am 10:00 pm Wednesday 6:00 am 10:00 pm Thursday 6:00 am 10:00 pm Friday 6:00 am 10:00 pm Saturday 6:30 am 09:00 pm Sunday 6:30 am 09:00 pm","https://secondcup.com/location/york-mills-shopping-centre"
"https://secondcup.com","355 Danforth Avenue","355 Danforth Avenue","Toronto","ON","M4K 1N7","CA","<MISSING>","416-466-6295","Cafe","<MISSING>","<MISSING>","Monday 6:00 am 11:00 pm Tuesday 6:00 am 11:00 pm Wednesday 6:00 am 11:00 pm Thursday 6:00 am 11:00 pm Friday 6:00 am 11:00 pm Saturday 7:00 am 11:00 pm Sunday 7:00 am 11:00 pm","https://secondcup.com/location/355-danforth-avenue"
"https://secondcup.com","40 Eglinton Avenue East (Temporarily Closed)","40 Eglinton Avenue East","Toronto","ON","M4P 3A2","CA","<MISSING>","416-545-1616","Cafe","<MISSING>","<MISSING>","Monday 6:00 am 08:00 pm Tuesday 6:00 am 08:00 pm Wednesday 6:00 am 08:00 pm Thursday 6:00 am 08:00 pm Friday 6:00 am 08:00 pm Saturday 7:00 am 08:00 pm Sunday 8:00 am 06:00 pm","https://secondcup.com/location/40-eglinton-avenue-east-temporarily-closed"
"https://secondcup.com","3801 St Laurent Blvd","3801 St. Laurent Blvd.","Montreal","QC","H2W 1V9","CA","<MISSING>","514-564-9270","Cafe","<MISSING>","<MISSING>","Monday 6:00 am 11:00 pm Tuesday 6:00 am 11:00 pm Wednesday 6:00 am 11:00 pm Thursday 6:00 am 12:00 am Friday 6:00 am 12:00 am Saturday 6:00 am 12:00 am Sunday 6:00 am 11:00 pm","https://secondcup.com/location/3801-st-laurent-blvd"
"https://secondcup.com","McGill University","1205 Docteur Penfield","Montreal","QC","H3A 1B1","CA","<MISSING>","514-398 4400","Cafe","<MISSING>","<MISSING>","Monday 8:00 am 05:00 pm Tuesday 8:00 am 05:00 pm Wednesday 8:00 am 05:00 pm Thursday 8:00 am 05:00 pm Friday 8:00 am 05:00 pm","https://secondcup.com/location/mcgill-university"
"https://secondcup.com","McGill Metro","2020 Boul. Robert-Bourassa","Montreal","QC","H3A 2A5","CA","<MISSING>","514-985-6628","Cafe","<MISSING>","<MISSING>","Monday 6:00 am 07:00 pm Tuesday 6:00 am 07:00 pm Wednesday 6:00 am 07:00 pm Thursday 6:00 am 08:00 pm Friday 6:00 am 08:00 pm Saturday 9:00 am 05:00 pm","https://secondcup.com/location/mcgill-metro"
"https://secondcup.com","2200 McGill College Avenue","2200 McGill College Avenue","Montreal","QC","H3A 3P8","CA","<MISSING>","514-843-4567","Cafe","<MISSING>","<MISSING>","Monday 12:00 am 11:59 pm Tuesday 12:00 am 11:59 pm Wednesday 12:00 am 11:59 pm Thursday 12:00 am 11:59 pm Friday 12:00 am 11:59 pm Saturday 12:00 am 11:59 pm Sunday 12:00 am 11:59 pm","https://secondcup.com/location/2200-mcgill-college-avenue"
"https://secondcup.com","St. Vital Centre","1225 St. Mary's Road, Unit 101A","Winnipeg","MB","R2M 5E5","CA","<MISSING>","204-255-2841","Cafe","<MISSING>","<MISSING>","Monday 8:00 am 09:00 pm Tuesday 8:00 am 09:00 pm Wednesday 8:00 am 09:00 pm Thursday 8:00 am 09:00 pm Friday 8:00 am 09:00 pm Saturday 8:00 am 06:00 pm Sunday 11:00 am 06:00 pm","https://secondcup.com/location/st-vital-centre"
"https://secondcup.com","254 Edmonton Street","254 Edmonton Street","Winnipeg","MB","R3C 3Y4","CA","<MISSING>","204-956-7535","Cafe","<MISSING>","<MISSING>","Monday 6:30 am 09:00 pm Tuesday 6:30 am 09:00 pm Wednesday 6:30 am 09:00 pm Thursday 6:30 am 09:00 pm Friday 6:30 am 09:00 pm Saturday 8:00 am 08:00 pm Sunday 8:00 am 05:00 pm","https://secondcup.com/location/254-edmonton-street"
"https://secondcup.com","Kildonan Place","1555 Regent Avenue","Winnipeg","MB","R2C 4J2","CA","<MISSING>","204-654-0649","Cafe","<MISSING>","<MISSING>","Monday 8:00 am 09:00 pm Tuesday 8:00 am 09:00 pm Wednesday 8:00 am 09:00 pm Thursday 8:00 am 09:00 pm Friday 8:00 am 09:00 pm Saturday 8:00 am 06:00 pm Sunday 11:00 am 06:00 pm","https://secondcup.com/location/kildonan-place"
"https://secondcup.com","Polo Park","1485 Portage Avenue, Unit 163","Winnipeg","MB","R3G 0W4","CA","<MISSING>","204-772-1903","Cafe","<MISSING>","<MISSING>","Monday 7:00 am 09:00 pm Tuesday 7:00 am 09:00 pm Wednesday 7:00 am 09:00 pm Thursday 7:00 am 09:00 pm Friday 7:00 am 09:00 pm Saturday 8:00 am 06:00 pm Sunday 10:00 am 06:00 pm","https://secondcup.com/location/polo-park"
"https://secondcup.com","B.C. Children's Hospital","4500 Oak Street","Vancouver","BC","V6H 3N1","CA","<MISSING>","604-875-2735","Cafe","<MISSING>","<MISSING>","Monday 6:30 am 10:00 pm Tuesday 6:30 am 10:00 pm Wednesday 6:30 am 10:00 pm Thursday 6:30 am 10:00 pm Friday 6:30 am 08:00 pm Saturday 6:30 am 08:00 pm Sunday 6:30 am 08:00 pm","https://secondcup.com/location/bc-childrens-hospital"
"https://secondcup.com","Bentall Centre","312-595 Burrard St., Box 49112","Vancouver","BC","V7X 1A8","CA","<MISSING>","604-688-1735","Cafe","<MISSING>","<MISSING>","Monday 5:30 am 05:30 pm Tuesday 5:30 am 05:30 pm Wednesday 5:30 am 05:30 pm Thursday 5:30 am 05:30 pm Friday 5:30 am 05:30 pm","https://secondcup.com/location/bentall-centre"
"https://secondcup.com","Surrey Memorial Hospital","13750 - 96TH AVENUE","Surrey","BC","V3V 1Z2","CA","<MISSING>","604-583-5253","Cafe","<MISSING>","<MISSING>","Monday 12:00 am 11:59 pm Tuesday 12:00 am 11:59 pm Wednesday 12:00 am 11:59 pm Thursday 12:00 am 11:59 pm Friday 12:00 am 11:59 pm Saturday 12:00 am 11:59 pm Sunday 12:00 am 11:59 pm","https://secondcup.com/location/surrey-memorial-hospital"
"https://secondcup.com","Hillcrest Mall","9350 Yonge Street, Unit H20B","Richmond Hill","ON","L4C 5G2","CA","<MISSING>","905-770-3476","Cafe","<MISSING>","<MISSING>","Monday 8:00 am 09:00 pm Tuesday 8:00 am 09:00 pm Wednesday 8:00 am 09:00 pm Thursday 8:00 am 09:00 pm Friday 8:00 am 09:00 pm Saturday 8:30 am 09:00 pm Sunday 10:00 am 07:00 pm","https://secondcup.com/location/hillcrest-mall"
"https://secondcup.com","800 Steeles Avenue West (Main Exchange)","800 Steeles Avenue West, Unit P040 (Unit 4)","Vaughan","ON","L4J 7L2","CA","<MISSING>","289-597-2754","Cafe","<MISSING>","<MISSING>","Monday 7:00 am 11:00 pm Tuesday 7:00 am 11:00 pm Wednesday 7:00 am 11:00 pm Thursday 7:00 am 11:00 pm Friday 7:00 am 11:00 pm Saturday 7:00 am 11:00 pm Sunday 7:00 am 11:00 pm","https://secondcup.com/location/800-steeles-avenue-west-main-exchange"
"https://secondcup.com","1567 Steeles Avenue East","1567 Steeles Avenue East","Toronto","ON","M2M 3Y7","CA","<MISSING>","416-225-7300","Cafe","<MISSING>","<MISSING>","Monday 6:45 am 10:00 pm Tuesday 6:45 am 10:00 pm Wednesday 6:45 am 10:00 pm Thursday 6:45 am 10:00 pm Friday 6:45 am 10:00 pm Saturday 6:45 am 10:00 pm Sunday 6:45 am 10:00 pm","https://secondcup.com/location/1567-steeles-avenue-east"
"https://secondcup.com","North York City Centre","5150 Yonge Street","Toronto","ON","M2N 6L8","CA","<MISSING>","416-792-6140","Cafe","<MISSING>","<MISSING>","Monday 6:00 am 06:30 pm Tuesday 6:00 am 06:30 pm Wednesday 6:00 am 06:30 pm Thursday 6:00 am 06:30 pm Friday 6:00 am 06:30 pm Saturday 8:00 am 05:30 pm Sunday 9:00 am 05:30 pm","https://secondcup.com/location/north-york-city-centre"
"https://secondcup.com","Empress Walk","5095 Yonge Street","Toronto","ON","M2N 6Z4","CA","<MISSING>","416-227-9332","Cafe","<MISSING>","<MISSING>","Monday 7:00 am 11:00 pm Tuesday 7:00 am 11:00 pm Wednesday 7:00 am 11:00 pm Thursday 7:00 am 11:00 pm Friday 7:00 am 11:00 pm Saturday 7:00 am 11:00 pm Sunday 7:00 am 11:00 pm","https://secondcup.com/location/empress-walk"
"https://secondcup.com","Forest Hill Village","415 Spadina Road","Toronto","ON","M5P 2W3","CA","<MISSING>","416-544-9196","Cafe","<MISSING>","<MISSING>","Monday 6:00 am 09:00 pm Tuesday 6:00 am 10:00 pm Wednesday 6:00 am 10:00 pm Thursday 6:00 am 10:00 pm Friday 6:00 am 10:00 pm Saturday 7:00 am 10:00 pm Sunday 7:00 am 09:00 pm","https://secondcup.com/location/forest-hill-village"
"https://secondcup.com","1881 Yonge Street","1881 Yonge Street","Toronto","ON","M4S 1Y6","CA","<MISSING>","416-481-3434","Cafe","<MISSING>","<MISSING>","Monday 6:00 am 08:00 pm Tuesday 6:00 am 08:00 pm Wednesday 6:00 am 08:00 pm Thursday 6:00 am 08:00 pm Friday 6:00 am 08:00 pm Saturday 7:00 am 08:00 pm Sunday 7:00 am 08:00 pm","https://secondcup.com/location/1881-yonge-street"
"https://secondcup.com","60 Bloor Street West","60 Bloor Street West","Toronto","ON","M4W 3B8","CA","<MISSING>","416-964-1818","Cafe","<MISSING>","<MISSING>","Monday 6:30 am 07:00 pm Tuesday 6:30 am 07:00 pm Wednesday 6:30 am 07:00 pm Thursday 6:30 am 07:00 pm Friday 6:30 am 07:00 pm Saturday 8:30 am 05:00 am Sunday 8:30 am 05:00 pm","https://secondcup.com/location/60-bloor-street-west"
"https://secondcup.com","Canada Square","2200 Yonge Street, Subway Level, Unit #1","Toronto","ON","M4S 2C6","CA","<MISSING>","416-483-7238","Cafe","<MISSING>","<MISSING>","Monday 7:00 am 11:00 pm Tuesday 7:00 am 11:00 pm Wednesday 7:00 am 11:00 pm Thursday 7:00 am 11:00 pm Friday 7:00 am 11:00 pm Saturday 7:00 am 11:00 pm Sunday 7:00 am 11:00 pm","https://secondcup.com/location/canada-square"
"https://secondcup.com","324 Bloor Street West","324 Bloor Street West","Toronto","ON","M5S 1W5","CA","<MISSING>","647-342-5115","Cafe","<MISSING>","<MISSING>","Monday 6:30 am 07:00 pm Tuesday 6:30 am 07:00 pm Wednesday 6:30 am 07:00 pm Thursday 6:30 am 07:00 pm Friday 6:30 am 07:00 pm Saturday 6:30 am 07:00 pm Sunday 6:30 am 07:00 pm","https://secondcup.com/location/324-bloor-street-west"
"https://secondcup.com","1166 Ste Catherine","1166 Ste Catherine Street West","Montreal","QC","H3B 1K1","CA","<MISSING>","514-866-8585","Cafe","<MISSING>","<MISSING>","Monday 12:00 am 11:59 pm Tuesday 12:00 am 11:59 pm Wednesday 12:00 am 11:59 pm Thursday 12:00 am 11:59 pm Friday 12:00 am 11:59 pm Saturday 12:00 am 11:59 pm Sunday 12:00 am 11:59 pm","https://secondcup.com/location/1166-ste-catherine"
"https://secondcup.com","Sheppard Center","4841 Yonge St.","Toronto","ON","M2N 5X2","CA","<MISSING>","416-224-5160","Cafe","<MISSING>","<MISSING>","Monday 6:00 am 07:00 pm Tuesday 6:00 am 07:00 pm Wednesday 6:00 am 07:00 pm Thursday 6:00 am 07:00 pm Friday 6:00 am 07:00 pm Saturday 9:00 am 04:00 pm","https://secondcup.com/location/sheppard-center"
"https://secondcup.com","Fairview Pointe Claire","6801 Trans Canada Hwy, Unit Z-20","Montreal","QC","H9R 5J1","CA","<MISSING>","514-428-9090","Cafe","<MISSING>","<MISSING>","Monday 7:30 am 09:30 pm Tuesday 7:30 am 09:30 pm Wednesday 7:30 am 09:30 pm Thursday 7:30 am 09:30 pm Friday 7:30 am 09:30 pm Saturday 8:00 am 05:00 pm Sunday 9:00 am 05:00 pm","https://secondcup.com/location/fairview-pointe-claire"
"https://secondcup.com","Centennial Plaza","3365 Boul. Des Sources, DDO","Montreal","QC","H9B 1Z8","CA","<MISSING>","514-685-4421","Cafe","<MISSING>","<MISSING>","Monday 6:00 am 11:00 pm Tuesday 6:00 am 11:00 pm Wednesday 6:00 am 11:00 pm Thursday 6:00 am 11:00 pm Friday 6:00 am 11:00 pm Saturday 6:00 am 11:00 pm Sunday 6:00 am 11:00 pm","https://secondcup.com/location/centennial-plaza"
"https://secondcup.com","486 Hazeldean Rd.","486 Hazeldean Rd.","Kanata","ON","K2L 1V4","CA","<MISSING>","343-545-0722","Cafe","<MISSING>","<MISSING>","Monday 6:30 am 10:00 pm Tuesday 6:30 am 10:00 pm Wednesday 6:30 am 10:00 pm Thursday 6:30 am 10:00 pm Friday 6:30 am 10:00 pm Saturday 7:30 am 10:00 pm Sunday 7:30 am 10:00 pm","https://secondcup.com/location/486-hazeldean-rd"
"https://secondcup.com","Bayshore Shopping Centre","100 Bayshore Drive, Level 1 Bayshore Shopping Centre","Ottawa","ON","K2B 8C1","CA","<MISSING>","613-890-0401","Cafe","<MISSING>","<MISSING>","Monday 8:00 am 09:30 pm Tuesday 8:00 am 09:30 pm Wednesday 8:00 am 09:30 pm Thursday 8:00 am 09:30 pm Friday 8:00 am 09:30 pm Saturday 8:00 am 09:30 pm Sunday 9:00 am 06:00 pm","https://secondcup.com/location/bayshore-shopping-centre"
"https://secondcup.com","Carlingwood Shopping Centre","2121 Carling Avenue, B2","Ottawa","ON","K2A 1H2","CA","<MISSING>","613-722-1518","Cafe","<MISSING>","<MISSING>","Monday 8:00 am 09:00 pm Tuesday 8:00 am 09:00 pm Wednesday 8:00 am 09:00 pm Thursday 8:00 am 09:00 pm Friday 8:00 am 09:00 pm Saturday 8:00 am 07:00 pm Sunday 9:00 am 06:00 pm","https://secondcup.com/location/carlingwood-shopping-centre"
"https://secondcup.com","Westgate Shopping Centre","1309 Carling Avenue","Ottawa","ON","K1Z 7L3","CA","<MISSING>","613-600-0401","Cafe","<MISSING>","<MISSING>","Monday 7:00 am 07:00 pm Tuesday 7:00 am 07:00 pm Wednesday 7:00 am 07:00 am Thursday 7:00 am 07:00 am Friday 7:00 am 07:00 pm Saturday 8:00 am 06:00 pm Sunday 9:00 am 05:00 pm","https://secondcup.com/location/westgate-shopping-centre"
"https://secondcup.com","Viewmont Centre (Merivale Shopping Centre)","1715 Merivale Rd.","Nepean","ON","K2G 3J8","CA","<MISSING>","613-727-2222","Cafe","<MISSING>","<MISSING>","Monday 6:00 am 10:00 pm Tuesday 6:00 am 10:00 pm Wednesday 6:00 am 10:00 pm Thursday 6:00 am 10:00 pm Friday 6:00 am 10:00 pm Saturday 6:00 am 10:00 pm Sunday 6:00 am 10:00 pm","https://secondcup.com/location/viewmont-centre-merivale-shopping-centre"
"https://secondcup.com","Shediac","284 Main Street","Shediac","NB","E4P 2E3","CA","<MISSING>","506-351-0122","Cafe","<MISSING>","<MISSING>","Monday 6:00 am 09:00 pm Tuesday 6:00 am 09:00 pm Wednesday 6:00 am 09:00 pm Thursday 6:00 am 09:00 pm Friday 6:00 am 09:00 pm Saturday 6:30 am 09:00 pm Sunday 6:30 am 09:00 pm","https://secondcup.com/location/shediac"
"https://secondcup.com","Dieppe boulevard","800 Dieppe Blvd","Dieppe","NB","E1A 9G5","CA","<MISSING>","506-204-8126","Cafe","<MISSING>","<MISSING>","Monday 6:00 am 10:00 pm Tuesday 6:00 am 10:00 pm Wednesday 6:00 am 10:00 pm Thursday 6:00 am 10:00 pm Friday 6:00 am 10:00 pm Saturday 6:00 am 10:00 pm Sunday 7:00 am 10:00 pm","https://secondcup.com/location/dieppe-boulevard"
"https://secondcup.com","Champlain Place","477 Paul St.","Dieppe","NB","E1A 4X5","CA","<MISSING>","506-388-8889","Cafe","<MISSING>","<MISSING>","Monday 10:00 am 07:00 pm Tuesday 10:00 am 07:00 pm Wednesday 7:00 am 07:00 pm Thursday 10:00 am 07:00 pm Friday 10:00 am 07:00 pm Saturday 10:00 am 07:00 pm Sunday 10:00 am 06:00 pm","https://secondcup.com/location/champlain-place"
"https://secondcup.com","Gorge Road","15 Gorge Road","Moncton","NB","E1G 0Y4","CA","<MISSING>","506-855-2402","Cafe","<MISSING>","<MISSING>","Monday 6:30 am 10:00 pm Tuesday 6:30 am 10:00 pm Wednesday 6:30 am 10:00 pm Thursday 6:30 am 10:00 pm Friday 6:30 am 10:00 pm Saturday 7:00 am 10:00 pm Sunday 7:00 am 10:00 pm","https://secondcup.com/location/gorge-road"
"https://secondcup.com","Lime Ridge Mall","999 Upper Wentworth Street","Hamilton","ON","L9A 4X5","CA","<MISSING>","905-385-5918","Cafe","<MISSING>","<MISSING>","Monday 8:00 am 09:00 pm Tuesday 8:00 am 09:00 pm Wednesday 8:00 am 09:00 pm Thursday 8:00 am 09:00 pm Friday 8:00 am 09:00 pm Saturday 8:00 am 06:00 pm Sunday 9:30 am 05:00 pm","https://secondcup.com/location/lime-ridge-mall"
"https://secondcup.com","Westdale","1004 King Street West","Hamilton","ON","L8S 1L1","CA","<MISSING>","905-540-4839","Cafe","<MISSING>","<MISSING>","Monday 6:30 am 10:00 pm Tuesday 6:30 am 10:00 pm Wednesday 6:30 am 10:00 pm Thursday 6:30 am 10:00 pm Friday 6:30 am 10:00 pm Saturday 6:30 am 10:00 pm Sunday 6:30 am 10:00 pm","https://secondcup.com/location/westdale"
"https://secondcup.com","CLOSED - 1405 Upper James St.","1405 Upper James Street","Hamilton","ON","L9B 1K2","CA","<MISSING>","905-381-9270","Cafe","<MISSING>","<MISSING>","<MISSING>","https://secondcup.com/location/closed-1405-upper-james-st"
"https://secondcup.com","McMaster University","1280 Main Street West","Hamilton","ON","L8S 4K1","CA","<MISSING>","(905) 525-9140","Cafe","<MISSING>","<MISSING>","Monday 8:00 am 07:30 pm Tuesday 8:00 am 07:30 pm Wednesday 8:00 am 07:30 pm Thursday 8:00 am 07:30 pm Friday 8:00 am 05:00 pm","https://secondcup.com/location/mcmaster-university"
"https://secondcup.com","901 Brant Street","901 Brant Street","Burlington","ON","L7R 2J6","CA","<MISSING>","905-631-7627","Cafe","<MISSING>","<MISSING>","Monday 6:30 am 09:00 pm Tuesday 6:30 am 09:00 pm Wednesday 6:30 am 09:00 pm Thursday 6:30 am 09:00 pm Friday 6:30 am 09:00 pm Saturday 7:30 am 09:00 pm Sunday 7:30 am 09:00 pm","https://secondcup.com/location/901-brant-street"
"https://secondcup.com","Gasoline Alley","129 Leva Avenue, Unit 110","Red Deer","AB","T4E 1B9","CA","<MISSING>","587-273-2684","Cafe","<MISSING>","<MISSING>","Monday 6:00 am 09:00 pm Tuesday 6:00 am 09:00 pm Wednesday 6:00 am 09:00 pm Thursday 6:00 am 10:00 pm Friday 6:00 am 10:00 pm Saturday 6:00 am 10:00 pm Sunday 8:00 am 09:00 pm","https://secondcup.com/location/gasoline-alley"
"https://secondcup.com","Southpointe Common","Bay 101, 2004 - 50th Avenue","Red Deer","AB","T4R 3A2","CA","<MISSING>","403-342-9557","Cafe","<MISSING>","<MISSING>","Monday 7:00 am 11:00 pm Tuesday 7:00 am 11:00 pm Wednesday 7:00 am 11:00 pm Thursday 7:00 am 11:00 pm Friday 7:00 am 11:00 pm Saturday 7:00 am 11:00 pm Sunday 8:00 am 09:00 pm","https://secondcup.com/location/southpointe-common"
"https://secondcup.com","Wilson & Dufferin","693 Wilson Avenue (Downsview)","North York","ON","M3K 1E3","CA","<MISSING>","416-630-1894","Cafe","<MISSING>","<MISSING>","Monday 6:30 am 10:00 pm Tuesday 6:30 am 10:00 pm Wednesday 6:30 am 10:00 pm Thursday 6:30 am 10:00 pm Friday 6:30 am 10:00 pm Saturday 7:00 am 10:00 pm Sunday 7:00 am 10:00 pm","https://secondcup.com/location/wilson-dufferin"
"https://secondcup.com","Yorkdale Shopping Centre","3401 Dufferin Street, Box 37","Toronto","ON","M6A 2T9","CA","<MISSING>","416-597-1001","Cafe","<MISSING>","<MISSING>","Monday 7:30 am 09:15 pm Tuesday 7:30 am 09:15 pm Wednesday 7:30 am 09:15 pm Thursday 7:30 am 09:15 pm Friday 7:30 am 09:15 pm Saturday 7:30 am 09:15 pm Sunday 9:00 am 07:15 pm","https://secondcup.com/location/yorkdale-shopping-centre"
"https://secondcup.com","Complexe IGA des Sources - Cap rouge","810 Route Jean-Gauvin, suite 100","Quebec","QC","G1X 0B6","CA","<MISSING>","418-948-8490","Cafe","<MISSING>","<MISSING>","Monday 6:00 am 10:00 pm Tuesday 6:00 am 10:00 pm Wednesday 6:00 am 10:00 pm Thursday 6:00 am 10:00 pm Friday 6:00 am 10:00 pm Saturday 7:00 am 09:00 pm Sunday 7:00 am 09:00 pm","https://secondcup.com/location/complexe-iga-des-sources-cap-rouge"
"https://secondcup.com","Place Navilles","3400 Chemin Quatre Bourgeois","Quebec","QC","G1W 2L3","CA","<MISSING>","418-650-6455","Cafe","<MISSING>","<MISSING>","Monday 6:00 am 11:00 pm Tuesday 6:00 am 11:00 pm Wednesday 6:00 am 11:00 pm Thursday 6:00 am 11:00 pm Friday 6:00 am 11:00 pm Saturday 6:30 am 11:30 pm Sunday 6:30 am 11:30 pm","https://secondcup.com/location/place-navilles"
"https://secondcup.com","Place Laurier","2700 Boul. Laurier","Quebec","QC","G1V 2L8","CA","<MISSING>","418-659-6888","Cafe","<MISSING>","<MISSING>","Monday 7:30 am 06:00 pm Tuesday 7:30 am 06:00 pm Wednesday 7:30 am 06:00 pm Thursday 7:30 am 09:00 pm Friday 7:30 am 09:00 pm Saturday 7:30 am 05:00 pm Sunday 12:00 am 05:00 pm","https://secondcup.com/location/place-laurier"
"https://secondcup.com","Place d'Youville","800 Place d'Youville","Quebec","QC","G1R 3P4","CA","<MISSING>","418-694-0808","Cafe","<MISSING>","<MISSING>","Monday 6:30 am 09:00 pm Tuesday 6:30 am 09:00 pm Wednesday 6:30 am 09:00 pm Thursday 6:30 am 09:00 pm Friday 6:30 am 09:00 pm Saturday 7:00 am 09:00 pm Sunday 7:00 am 09:00 pm","https://secondcup.com/location/place-dyouville"
"https://secondcup.com","Centre Pierrefonds","14845 Boulevard Pierrefonds","Montreal","QC","H9H 4M5","CA","<MISSING>","514-626-0570","Cafe","<MISSING>","<MISSING>","Monday 6:30 am 10:00 pm Tuesday 6:30 am 10:00 pm Wednesday 6:30 am 10:00 pm Thursday 6:30 am 10:00 pm Friday 6:30 am 10:00 pm Saturday 7:00 am 11:00 pm Sunday 7:00 am 10:00 pm","https://secondcup.com/location/centre-pierrefonds"
"https://secondcup.com","Marcel Laurin","1555 Marcel Laurin","St Laurent","QC","H4R 0B7","CA","<MISSING>","514-748-5005","Cafe","<MISSING>","<MISSING>","Monday 6:30 am 11:00 pm Tuesday 6:30 am 11:00 pm Wednesday 6:30 am 11:00 pm Thursday 6:30 am 11:00 pm Friday 6:30 am 11:00 pm Saturday 6:30 am 11:00 pm Sunday 6:30 am 11:00 pm","https://secondcup.com/location/marcel-laurin"
"https://secondcup.com","Mega Centre Laval","1084 Desserte Ouest","Laval","QC","H7X 4C9","CA","<MISSING>","450-689-6287","Cafe","<MISSING>","<MISSING>","Monday 6:15 am 10:00 pm Tuesday 6:15 am 10:00 pm Wednesday 6:15 am 10:00 pm Thursday 6:15 am 10:00 pm Friday 6:15 am 10:00 pm Saturday 7:15 am 10:00 pm Sunday 7:15 am 10:00 pm","https://secondcup.com/location/mega-centre-laval"
"https://secondcup.com","St. Clair Beach Shopping Centre","13462 Tecumseh Road","St. Clair Beach","ON","N8N 3N7","CA","<MISSING>","519-735-9293","Cafe","<MISSING>","<MISSING>","Monday 7:00 am 10:00 pm Tuesday 7:00 am 10:00 pm Wednesday 7:00 am 10:00 pm Thursday 7:00 am 10:00 pm Friday 7:00 am 10:00 pm Saturday 7:00 am 10:00 pm Sunday 8:00 am 09:00 pm","https://secondcup.com/location/st-clair-beach-shopping-centre"
"https://secondcup.com","Markham Uptown","3985 Highway #7 East, Unit #1","Markham","ON","L3R 2A2","CA","<MISSING>","905-604-2230","Cafe","<MISSING>","<MISSING>","Monday 7:00 am 09:00 pm Tuesday 7:00 am 09:00 pm Wednesday 7:00 am 09:00 pm Thursday 7:00 am 09:00 pm Friday 7:00 am 09:00 pm Saturday 7:00 am 09:00 pm Sunday 8:00 am 08:00 pm","https://secondcup.com/location/markham-uptown"
"https://secondcup.com","Markville Mall","5000 Highway 7, Unit 0411A","Markham","ON","L3R 4M9","CA","<MISSING>","416-737-7321","Cafe","<MISSING>","<MISSING>","Monday 9:00 am 09:00 pm Tuesday 9:00 am 09:00 pm Wednesday 9:00 am 09:00 pm Thursday 9:00 am 09:00 pm Friday 9:00 am 09:00 pm Saturday 9:00 am 09:00 pm Sunday 9:30 am 07:00 pm","https://secondcup.com/location/markville-mall"
"https://secondcup.com","Woodland Hills Centre","18040 Yonge Street","Newmarket","ON","L3Y 8S4","CA","<MISSING>","905-836-6767","Cafe","<MISSING>","<MISSING>","Monday 6:00 am 10:00 pm Tuesday 6:00 am 10:00 pm Wednesday 6:00 am 10:00 pm Thursday 6:00 am 10:00 pm Friday 6:00 am 10:00 pm Saturday 7:00 am 10:00 pm Sunday 7:00 am 10:00 pm","https://secondcup.com/location/woodland-hills-centre"
"https://secondcup.com","392 Boul. Labelle","392 Boulevard Labelle","Rosemere","QC","J7A 3R8","CA","<MISSING>","450-433-8484","Cafe","<MISSING>","<MISSING>","Monday 6:00 am 10:00 pm Tuesday 6:00 am 10:00 pm Wednesday 6:00 am 10:00 pm Thursday 6:00 am 10:00 pm Friday 6:00 am 10:00 pm Saturday 7:00 am 10:00 pm Sunday 7:00 am 10:00 pm","https://secondcup.com/location/392-boul-labelle"
"https://secondcup.com","Galeries Rive Nord","100  Brien Boulevard","Repentigny","QC","J6A 5N4","CA","<MISSING>","579-635-1422","Cafe","<MISSING>","<MISSING>","Monday 8:00 am 07:00 pm Tuesday 8:00 am 07:00 pm Wednesday 8:00 am 07:00 pm Thursday 8:00 am 07:00 pm Friday 8:00 am 07:00 pm Saturday 8:00 am 05:00 pm Sunday 8:00 am 05:00 pm","https://secondcup.com/location/galeries-rive-nord"
"https://secondcup.com","Carrefour Laval","3035 Boul., Le Carrefour, Unit Z024","Laval","QC","H7T 1C7","CA","<MISSING>","450-688-8149","Cafe","<MISSING>","<MISSING>","Monday 8:00 am 09:30 pm Tuesday 8:00 am 09:30 pm Wednesday 8:00 am 09:30 pm Thursday 8:00 am 09:30 pm Friday 8:00 am 09:30 pm Saturday 8:00 am 05:30 pm Sunday 8:00 am 05:30 pm","https://secondcup.com/location/carrefour-laval"
"https://secondcup.com","Galeries d'Anjou","7999 Boulevard des Galeries-d'Anjou","Anjou","QC","H1M 1W6","CA","<MISSING>","514-351-7771","Cafe","<MISSING>","<MISSING>","Monday 8:30 am 09:00 pm Tuesday 8:30 am 09:00 pm Wednesday 8:30 am 09:00 pm Thursday 8:30 am 09:00 pm Friday 8:30 am 09:00 pm Saturday 8:00 am 05:00 pm Sunday 8:30 am 05:00 pm","https://secondcup.com/location/galeries-danjou"
"https://secondcup.com","Place Versailles","7275 Sherbrooke Street E, Suite 193","Montreal","QC","H1N 1E9","CA","<MISSING>","438-824-9595","Cafe","<MISSING>","<MISSING>","Monday 7:00 am 09:00 pm Tuesday 7:00 am 09:00 pm Wednesday 7:00 am 09:00 pm Thursday 7:00 am 09:00 pm Friday 7:00 am 09:00 pm Saturday 8:30 am 05:00 pm Sunday 8:30 am 05:00 pm","https://secondcup.com/location/place-versailles"
"https://secondcup.com","1275 Bernard Avenue","1275 Bernard Avenue","Outremont","QC","H2V 1V8","CA","<MISSING>","514-271-6624","Cafe","<MISSING>","<MISSING>","Monday 7:00 am 10:00 pm Tuesday 7:00 am 10:00 pm Wednesday 7:00 am 10:00 pm Thursday 7:00 am 10:00 pm Friday 7:00 am 11:00 pm Saturday 7:00 am 11:00 pm Sunday 7:00 am 10:00 pm","https://secondcup.com/location/1275-bernard-avenue"
"https://secondcup.com","Montreal Jewish General Hospital, Pavilion K","3755 Chemin de la Cote Ste. Catherine, Pavilion K","Montreal","QC","H3T 1E2","CA","<MISSING>","514-340-1448","Cafe","<MISSING>","<MISSING>","Monday 7:00 am 09:00 pm Tuesday 7:00 am 09:00 pm Wednesday 7:00 am 09:00 pm Thursday 7:00 am 09:00 pm Friday 7:00 am 12:00 am Sunday 7:00 am 09:00 pm","https://secondcup.com/location/montreal-jewish-general-hospital-pavilion-k"
"https://secondcup.com","Montreal Jewish General Hospital, Pavillion E","3755 Chemin de la Cote, Ste. Catherine, Pavilion E","Montreal","QC","H3T 1E2","CA","<MISSING>","514-340-1448","Cafe","<MISSING>","<MISSING>","Monday 7:00 am 05:00 pm Tuesday 7:00 am 05:00 pm Wednesday 7:00 am 05:00 pm Thursday 7:00 am 05:00 pm Friday 7:00 am 12:00 am Sunday 7:00 am 05:00 pm","https://secondcup.com/location/montreal-jewish-general-hospital-pavillion-e"
"https://secondcup.com","Montreal Jewish General Hospital, Pavillion B","3755 Chemin de la Cote Ste Catherine, Pavillion B","Montreal","QC","H3T 1E2","CA","<MISSING>","514-340-1483","Cafe","<MISSING>","<MISSING>","Monday 12:00 am 11:59 pm Tuesday 12:00 am 11:59 pm Wednesday 12:00 am 11:59 pm Thursday 12:00 am 11:59 pm Friday 12:00 am 11:59 pm Saturday 12:00 am 11:59 pm Sunday 12:00 am 11:59 pm","https://secondcup.com/location/montreal-jewish-general-hospital-pavillion-b"
"https://secondcup.com","Centennial College","941 Progress Ave","Toronto","ON","M1G 3T8","CA","<MISSING>","<MISSING>","Cafe","<MISSING>","<MISSING>","Monday 8:00 am 05:00 pm Tuesday 8:00 am 05:00 pm Wednesday 8:00 am 05:00 pm Thursday 8:00 am 05:00 pm Friday 8:00 am 05:00 pm","https://secondcup.com/location/centennial-college"
"https://secondcup.com","Steeple Hill Shopping Centre","650 Kingston Road, Unit 106, Bldg. D","Pickering","ON","L1V 1A6","CA","<MISSING>","905-421-9511","Cafe","<MISSING>","<MISSING>","Monday 6:00 am 10:00 pm Tuesday 6:00 am 10:00 pm Wednesday 6:00 am 10:00 pm Thursday 6:00 am 10:00 pm Friday 6:00 am 10:00 pm Saturday 6:30 am 10:00 pm Sunday 7:00 am 10:00 pm","https://secondcup.com/location/steeple-hill-shopping-centre"
"https://secondcup.com","Main Street, Markham","60 Main St. N Unit #10","Markham","ON","L3P 1C5","CA","<MISSING>","905-554-3666","Cafe","<MISSING>","<MISSING>","Monday 6:45 am 10:00 pm Tuesday 6:45 am 10:00 pm Wednesday 6:45 am 10:00 pm Thursday 6:45 am 10:00 pm Friday 6:45 am 11:00 pm Saturday 7:45 am 11:00 pm Sunday 7:45 am 10:00 pm","https://secondcup.com/location/main-street-markham"
"https://secondcup.com","Wilfrid Laurier University","75 University Avenue West","Waterloo","ON","N2L 3C5","CA","<MISSING>","519-884-0171","Cafe","<MISSING>","<MISSING>","Monday 8:30 am 09:00 pm Tuesday 8:30 am 09:00 pm Wednesday 8:30 am 09:00 pm Thursday 8:30 am 09:00 pm Friday 8:30 am 03:00 pm","https://secondcup.com/location/wilfrid-laurier-university"
"https://secondcup.com","Campus Court","150 University Avenue West","Waterloo","ON","N2L 3E4","CA","<MISSING>","519-885-2125","Cafe","<MISSING>","<MISSING>","Monday 7:00 am 11:00 pm Tuesday 7:00 am 11:00 pm Wednesday 7:00 am 11:00 pm Thursday 7:00 am 11:00 pm Friday 7:00 am 11:00 pm Saturday 7:00 am 11:00 pm Sunday 7:00 am 11:00 pm","https://secondcup.com/location/campus-court"
"https://secondcup.com","369 Gordon Street","369 Gordon Street","Guelph","ON","N1G 1X8","CA","<MISSING>","519-265-7447","Cafe","<MISSING>","<MISSING>","Monday 6:30 am 11:00 pm Tuesday 6:30 am 11:00 pm Wednesday 6:30 am 11:00 pm Thursday 6:30 am 11:00 pm Friday 6:30 am 10:00 pm Saturday 6:30 am 10:00 pm Sunday 6:30 am 10:00 pm","https://secondcup.com/location/369-gordon-street"
"https://secondcup.com","University of Guelph, A.H.L Pathobiology","Hospitality Services Department, Drew Hall, 50 Stone Road East","Guelph","ON","N1G 1X8","CA","<MISSING>","519-824-4120","Cafe","<MISSING>","<MISSING>","Monday 8:00 am 04:00 pm Tuesday 8:00 am 04:00 pm Wednesday 8:00 am 04:00 pm Thursday 8:00 am 04:00 pm Friday 8:00 am 04:00 pm","https://secondcup.com/location/university-guelph-ahl-pathobiology"
"https://secondcup.com","University of Guelph","Hospitality Services Department, Drew Hall, 50 Stone Road East","Guelph","ON","N1G 2W1","CA","<MISSING>","519-824-4120","Cafe","<MISSING>","<MISSING>","Monday 8:00 am 07:00 pm Tuesday 8:00 am 07:00 pm Wednesday 8:00 am 07:00 am Thursday 8:00 am 07:00 am Friday 8:00 am 04:00 pm","https://secondcup.com/location/university-guelph"
"https://secondcup.com","Toronto Premium Outlets","13850 Steeles Ave. Unit 866","Halton Hills","ON","L7G 0J1","CA","<MISSING>","<MISSING>","Cafe","<MISSING>","<MISSING>","Monday 8:00 am 09:00 pm Tuesday 8:00 am 09:00 pm Wednesday 8:00 am 09:00 pm Thursday 8:00 am 09:00 pm Friday 8:00 am 09:00 pm Saturday 8:00 am 09:00 pm Sunday 9:30 am 07:00 pm","https://secondcup.com/location/toronto-premium-outlets"
"https://secondcup.com","Credit Valley Hospital","2220 Eglinton Avenue West, Unit 12","Mississauga","ON","L5M 2N1","CA","<MISSING>","905-820-1961","Cafe","<MISSING>","<MISSING>","Monday 6:00 am 09:30 pm Tuesday 6:00 am 09:30 pm Wednesday 6:00 am 09:30 pm Thursday 6:00 am 09:30 pm Friday 6:00 am 09:30 pm Saturday 6:30 am 09:00 pm Sunday 6:30 am 09:00 pm","https://secondcup.com/location/credit-valley-hospital"
"https://secondcup.com","U of T -  Mississauga","3359 Mississauga Rd North, South Building","Mississauga","ON","L5L 1C6","CA","<MISSING>","416-506-1537","Cafe","<MISSING>","<MISSING>","Monday 7:30 am 07:00 pm Tuesday 7:30 am 07:00 pm Wednesday 7:30 am 07:00 pm Thursday 7:30 am 07:00 pm Friday 7:30 am 03:30 pm","https://secondcup.com/location/u-t-mississauga"
"https://secondcup.com","U of T Mississauga Instructional Centre","3359 Mississauga Road North","Mississauga","ON","L5L 1C6","CA","<MISSING>","416-506-1537","Cafe","<MISSING>","<MISSING>","Monday 8:30 am 07:00 pm Tuesday 8:30 am 07:00 pm Wednesday 8:30 am 07:00 pm Thursday 8:30 am 07:00 pm Friday 7:30 am 04:00 pm","https://secondcup.com/location/u-t-mississauga-instructional-centre"
"https://secondcup.com","Lawrence Plaza","490 Lawrence Avenue West","Toronto","ON","M6A 1A1","CA","<MISSING>","416-256-0288","Cafe","<MISSING>","<MISSING>","Monday 6:30 am 10:00 pm Tuesday 6:30 am 10:00 pm Wednesday 6:30 am 10:00 pm Thursday 6:30 am 10:00 pm Friday 6:30 am 10:00 pm Saturday 7:00 am 11:00 pm Sunday 7:00 am 10:00 pm","https://secondcup.com/location/lawrence-plaza"
"https://secondcup.com","Stockyards","60 Weston Road, Unit 107","Toronto","ON","M6N 0A7","CA","<MISSING>","416 766-1212","Cafe","<MISSING>","<MISSING>","Monday 6:30 am 10:00 pm Tuesday 6:30 am 10:00 pm Wednesday 6:30 am 10:00 pm Thursday 6:30 am 10:00 pm Friday 6:30 am 10:00 pm Saturday 6:30 am 10:00 pm Sunday 7:00 am 09:00 pm","https://secondcup.com/location/stockyards"
"https://secondcup.com","2592 Yonge Street","2592 Yonge Street","Toronto","ON","M4P 2J1","CA","<MISSING>","416-487-8882","Cafe","<MISSING>","<MISSING>","Monday 6:00 am 10:00 pm Tuesday 6:00 am 10:00 pm Wednesday 6:00 am 10:00 pm Thursday 6:00 am 10:00 pm Friday 6:00 am 10:00 pm Saturday 6:30 am 10:00 pm Sunday 6:30 am 10:00 pm","https://secondcup.com/location/2592-yonge-street"
"https://secondcup.com","Saskatoon","128 21st Street","Saskatoon","SK","S7K 0B6","CA","<MISSING>","306-974-6600","Cafe","<MISSING>","<MISSING>","Monday 6:00 am 09:00 pm Tuesday 6:00 am 09:00 pm Wednesday 6:00 am 09:00 pm Thursday 6:00 am 09:00 pm Friday 6:00 am 10:00 pm Saturday 7:00 am 10:00 pm Sunday 7:00 am 09:00 pm","https://secondcup.com/location/saskatoon"
"https://secondcup.com","Bloor & Windermere","2340 Bloor Street West","Toronto","ON","M6S 1P3","CA","<MISSING>","416-767-9661","Cafe","<MISSING>","<MISSING>","Monday 6:30 am 09:00 pm Tuesday 6:30 am 09:00 pm Wednesday 6:30 am 09:00 pm Thursday 6:30 am 09:00 pm Friday 6:30 am 09:00 pm Saturday 6:30 am 09:00 pm Sunday 7:00 am 09:00 pm","https://secondcup.com/location/bloor-windermere"
"https://secondcup.com","St. Joseph's Hospital","30 The Queensway","Toronto","ON","M6R 1B5","CA","<MISSING>","416-530-6091","Cafe","<MISSING>","<MISSING>","Monday 6:00 am 11:00 pm Tuesday 6:00 am 11:00 pm Wednesday 6:00 am 11:00 pm Thursday 6:00 am 11:00 pm Friday 6:00 am 11:00 pm Saturday 6:00 am 11:00 pm Sunday 6:00 am 11:00 pm","https://secondcup.com/location/st-josephs-hospital"
"https://secondcup.com","3008A Bloor Street West","3008A Bloor Street West","Toronto","ON","M8X 1C2","CA","<MISSING>","416-233-4448","Cafe","<MISSING>","<MISSING>","Monday 6:30 am 09:00 pm Tuesday 6:30 am 09:00 pm Wednesday 6:30 am 09:00 pm Thursday 6:30 am 09:00 pm Friday 6:30 am 09:00 pm Saturday 6:30 am 09:00 pm Sunday 7:00 am 09:00 pm","https://secondcup.com/location/3008a-bloor-street-west"
"https://secondcup.com","Humbertown Shopping Centre","270 The Kingsway","Toronto","ON","M9A 3A2","CA","<MISSING>","416-239-2633","Cafe","<MISSING>","<MISSING>","Monday 6:30 am 11:00 pm Tuesday 6:30 am 11:00 pm Wednesday 6:30 am 11:00 pm Thursday 6:30 am 11:00 pm Friday 6:30 am 11:00 pm Saturday 6:30 am 11:00 pm Sunday 7:00 am 11:00 pm","https://secondcup.com/location/humbertown-shopping-centre"
"https://secondcup.com","1648 Mont Royal Est","1648 Mont Royal Est","Montreal","QC","H2J 1Z5","CA","<MISSING>","514-525-9223","Cafe","<MISSING>","<MISSING>","Monday 5:30 am 12:00 am Tuesday 5:30 am 12:00 am Wednesday 5:30 am 12:00 am Thursday 5:30 am 12:00 am Friday 5:30 am 12:00 am Saturday 5:30 am 12:00 am Sunday 5:30 am 12:00 am","https://secondcup.com/location/1648-mont-royal-est"
"https://secondcup.com","Barrhaven Town Centre","3170 Greenbank Road, Unit 1","Napean","ON","K2J 4B1","CA","<MISSING>","613-825-7776","Cafe","<MISSING>","<MISSING>","Monday 7:00 am 09:00 pm Tuesday 7:00 am 09:00 pm Wednesday 7:00 am 09:00 pm Thursday 7:00 am 09:00 pm Friday 7:00 am 09:00 pm Saturday 7:00 am 09:00 pm Sunday 8:00 am 09:00 pm","https://secondcup.com/location/barrhaven-town-centre"
"https://secondcup.com","Hunt Club Place","214 Hunt Club Road","Ottawa","ON","K1V 1C1","CA","<MISSING>","613-736-6699","Cafe","<MISSING>","<MISSING>","Monday 6:00 am 10:00 pm Tuesday 6:00 am 10:00 pm Wednesday 6:00 am 10:00 pm Thursday 6:00 am 10:00 pm Friday 6:00 am 10:00 pm Saturday 7:00 am 10:00 pm Sunday 7:30 am 09:30 pm","https://secondcup.com/location/hunt-club-place"
"https://secondcup.com","Heron Park","1440 Bank St","Ottawa","ON","K1H7Z2","CA","<MISSING>","613-890-7287","Cafe","<MISSING>","<MISSING>","Monday 7:00 am 12:00 pm Tuesday 7:00 am 12:00 pm Wednesday 7:00 am 12:00 pm Thursday 7:00 am 12:00 pm Friday 7:00 am 12:00 pm Saturday 7:00 am 12:00 pm Sunday 7:00 am 12:00 pm","https://secondcup.com/location/heron-park"
"https://secondcup.com","Belleville (Esso)","395 Bell Blvd.","Belleville","ON","K8P 5H8","CA","<MISSING>","613-962-3526","Cafe","<MISSING>","<MISSING>","Monday 7:00 am 10:00 pm Tuesday 7:00 am 10:00 pm Wednesday 7:00 am 10:00 pm Thursday 7:00 am 10:00 pm Friday 7:00 am 10:00 pm Saturday 7:00 am 10:00 pm Sunday 7:00 am 10:00 pm","https://secondcup.com/location/belleville-esso"
"https://secondcup.com","544 Church Street","544 Church Street","Toronto","ON","M4Y 2E1","CA","<MISSING>","416-966-2981","Cafe","<MISSING>","<MISSING>","Monday 7:00 am 11:30 pm Tuesday 7:00 am 11:30 pm Wednesday 7:00 am 11:30 pm Thursday 7:00 am 11:30 pm Friday 7:00 am 01:00 am Saturday 7:00 am 01:00 am Sunday 7:00 am 11:00 pm","https://secondcup.com/location/544-church-street"
"https://secondcup.com","1000 Bay Street","1000 Bay Street unit 101","Toronto","ON","M5S 3A5","CA","<MISSING>","647-349-9093","Cafe","<MISSING>","<MISSING>","Monday 7:00 am 10:00 pm Tuesday 7:00 am 10:00 pm Wednesday 7:00 am 10:00 pm Thursday 7:00 am 10:00 pm Friday 7:00 am 10:00 pm Saturday 7:00 am 10:00 pm Sunday 7:00 am 11:00 pm","https://secondcup.com/location/1000-bay-street"
"https://secondcup.com","475 Yonge Street","475 Yonge Street","Toronto","ON","M4Y 1X7","CA","<MISSING>","416-935-0452","Cafe","<MISSING>","<MISSING>","Monday 7:00 am 11:00 pm Tuesday 7:00 am 11:00 pm Wednesday 7:00 am 11:00 pm Thursday 7:00 am 11:00 pm Friday 7:00 am 12:00 am Saturday 7:00 am 12:00 am Sunday 7:00 am 11:00 pm","https://secondcup.com/location/475-yonge-street"
"https://secondcup.com","777 Bay Street","777 Bay Street, Suite C-214","Toronto","ON","M5G 2C8","CA","<MISSING>","647-351-8747","Cafe","<MISSING>","<MISSING>","Monday 6:30 am 06:00 pm Tuesday 6:30 am 06:00 pm Wednesday 6:30 am 06:00 pm Thursday 6:30 am 06:00 pm Friday 6:30 am 06:00 pm","https://secondcup.com/location/777-bay-street"
"https://secondcup.com","Taunton Gardens","304 Taunton Road East","Whitby","ON","L1R 2K5","CA","<MISSING>","905-655-7838","Cafe","<MISSING>","<MISSING>","Monday 7:00 am 09:00 pm Tuesday 7:00 am 09:00 pm Wednesday 7:00 am 09:00 pm Thursday 7:00 am 09:00 pm Friday 7:00 am 09:00 pm Saturday 8:00 am 08:00 pm Sunday 8:00 am 08:00 pm","https://secondcup.com/location/taunton-gardens"
"https://secondcup.com","L'Ile Perrot","471 Grand Boulevard","L'Ile Perrot","QC","J7V 4X4","CA","<MISSING>","514-453-7070","Cafe","<MISSING>","<MISSING>","Monday 6:00 am 09:00 pm Tuesday 6:00 am 09:00 pm Wednesday 6:00 am 09:00 pm Thursday 6:00 am 09:00 pm Friday 6:00 am 09:00 pm Saturday 7:00 am 09:00 pm Sunday 7:00 am 09:00 pm","https://secondcup.com/location/lile-perrot"
"https://secondcup.com","Square One","100 City Centre Drive","Mississauga","ON","L5B 2C9","CA","<MISSING>","905-279-0069","Cafe","<MISSING>","<MISSING>","Monday 8:00 am 09:00 pm Tuesday 8:00 am 09:00 pm Wednesday 8:00 am 09:00 pm Thursday 8:00 am 09:00 pm Friday 8:00 am 09:00 pm Saturday 8:00 am 09:00 pm Sunday 9:30 am 07:00 pm","https://secondcup.com/location/square-one"
"https://secondcup.com","Living Arts","4100 Living Arts Drive, Unit 2","Mississauga","ON","L5B 0C3","CA","<MISSING>","905-232-2842","Cafe","<MISSING>","<MISSING>","Monday 7:00 am 10:00 am Tuesday 7:00 am 10:00 pm Wednesday 7:00 am 10:00 pm Thursday 7:00 am 10:00 pm Friday 7:00 am 10:00 pm Saturday 7:00 am 10:00 pm Sunday 7:00 am 10:00 pm","https://secondcup.com/location/living-arts"
"https://secondcup.com","Mavis & Central Parkway","727 Central Parkway West","Mississauga","ON","L5B 4L1","CA","<MISSING>","905-804-0800","Cafe","<MISSING>","<MISSING>","Monday 6:00 am 11:00 pm Tuesday 6:00 am 11:00 pm Wednesday 6:00 am 11:00 pm Thursday 6:00 am 11:00 pm Friday 6:00 am 11:00 pm Saturday 7:00 am 11:00 pm Sunday 7:00 am 11:00 pm","https://secondcup.com/location/mavis-central-parkway"
"https://secondcup.com","Mississauga Market Place","4553 Hurontario Street, Unit E-2","Mississauga","ON","L4Z 3M1","CA","<MISSING>","905-502-8227","Cafe","<MISSING>","<MISSING>","Monday 6:00 am 10:00 pm Tuesday 6:00 am 10:00 pm Wednesday 6:00 am 10:00 pm Thursday 6:00 am 10:00 pm Friday 6:00 am 11:00 pm Saturday 6:00 am 11:00 pm Sunday 7:00 am 10:00 pm","https://secondcup.com/location/mississauga-market-place"
"https://secondcup.com","91 Lakeshore Road East","91 Lakeshore Road East","Mississauga","ON","L5G 1E2","CA","<MISSING>","905-990-8747","Cafe","<MISSING>","<MISSING>","Monday 6:30 am 09:00 pm Tuesday 6:30 am 09:00 pm Wednesday 6:30 am 09:00 pm Thursday 6:30 am 09:00 pm Friday 6:30 am 09:30 pm Saturday 7:00 am 09:30 pm Sunday 7:00 am 09:00 pm","https://secondcup.com/location/91-lakeshore-road-east"
"https://secondcup.com","Park Royal South","100  Park Royal Mall South, Unit K006","West Vancouver","BC","V7T 1A1","CA","<MISSING>","604-913-8433","Cafe","<MISSING>","<MISSING>","Monday 9:30 am 07:00 pm Tuesday 9:30 am 07:00 pm Wednesday 9:30 am 09:00 am Thursday 9:30 am 09:00 am Friday 9:30 am 09:00 am Saturday 9:30 am 07:00 pm Sunday 10:30 am 06:00 pm","https://secondcup.com/location/park-royal-south"
"https://secondcup.com","Peter Lougheed Hospital","3500 - 26th Avenue NE","Calgary","AB","T1Y 6J4","CA","<MISSING>","403-219-3020","Cafe","<MISSING>","<MISSING>","Monday 5:30 am 09:00 pm Tuesday 5:30 am 09:00 pm Wednesday 5:30 am 09:00 pm Thursday 5:30 am 09:00 pm Friday 5:30 am 09:00 pm Saturday 6:30 am 08:00 pm Sunday 6:30 am 08:00 pm","https://secondcup.com/location/peter-lougheed-hospital"
"https://secondcup.com","Sunridge Corner","3192 Sunridge Boulevard N.E.","Calgary","AB","T1Y 7G6","CA","<MISSING>","403-250-3557","Cafe","<MISSING>","<MISSING>","Monday 6:30 am 09:30 pm Tuesday 6:30 am 09:30 pm Wednesday 6:30 am 09:30 pm Thursday 6:30 am 09:30 pm Friday 6:30 am 10:00 pm Saturday 7:00 am 10:00 pm Sunday 8:00 am 08:00 pm","https://secondcup.com/location/sunridge-corner"
"https://secondcup.com","Fifth Avenue Place 1","425 - 1st Street  SW, Unit 213","Calgary","AB","T2P 3L8","CA","<MISSING>","403-262-5322","Cafe","<MISSING>","<MISSING>","Monday 6:00 am 03:00 pm Tuesday 6:00 am 03:00 pm Wednesday 6:00 am 03:00 pm Thursday 6:00 am 03:00 pm Friday 6:00 am 03:00 pm","https://secondcup.com/location/fifth-avenue-place-1"
"https://secondcup.com","Calgary Eaton Centre","#113 - 751 3rd Street SW","Calgary","AB","T2P 4K8","CA","<MISSING>","403-266-4364","Cafe","<MISSING>","<MISSING>","Monday 6:00 am 06:00 pm Tuesday 6:00 am 06:00 pm Wednesday 6:00 am 06:00 pm Thursday 6:00 am 08:00 pm Friday 6:00 am 08:00 pm Saturday 9:00 am 06:00 pm Sunday 11:00 am 05:00 pm","https://secondcup.com/location/calgary-eaton-centre"
"https://secondcup.com","Toronto Western Hospital","399 Bathurst Street","Toronto","ON","M5T 2S8","CA","<MISSING>","416-364-7872","Cafe","<MISSING>","<MISSING>","Monday 6:00 am 06:30 pm Tuesday 6:00 am 06:30 pm Wednesday 6:00 am 06:30 am Thursday 6:00 am 06:30 am Friday 6:00 am 06:30 pm","https://secondcup.com/location/toronto-western-hospital"
"https://secondcup.com","700 King Street West","Unit #4 700 King Street West","Toronto","ON","M5V 2Y6","CA","<MISSING>","416-203-7711","Cafe","<MISSING>","<MISSING>","Monday 6:00 am 10:00 pm Tuesday 6:00 am 10:00 pm Wednesday 6:00 am 10:00 pm Thursday 6:00 am 10:00 pm Friday 6:00 am 10:00 pm Saturday 7:00 am 10:00 pm Sunday 7:00 am 09:30 pm","https://secondcup.com/location/700-king-street-west"
"https://secondcup.com","Ottawa General Hospital","501 Smyth road, Main entrance","Ottawa","ON","K1H 8L6","CA","<MISSING>","613-599-2399","Cafe","<MISSING>","<MISSING>","Monday 6:00 am 10:00 pm Tuesday 6:00 am 10:00 pm Wednesday 6:00 am 10:00 pm Thursday 6:00 am 10:00 pm Friday 6:00 am 10:00 pm Saturday 6:00 am 10:00 pm Sunday 6:00 am 10:00 pm","https://secondcup.com/location/ottawa-general-hospital"
"https://secondcup.com","Fort McMurray","1 C.A. Knight Way (In Recreation Centre)","Fort McMurray","AB","T9H 5C5","CA","<MISSING>","780-788-7200","Cafe","<MISSING>","<MISSING>","Monday 6:00 am 10:00 pm Tuesday 6:00 am 10:00 pm Wednesday 6:00 am 10:00 pm Thursday 6:00 am 10:00 pm Friday 6:00 am 10:00 pm Saturday 7:00 am 10:00 pm Sunday 7:00 am 10:00 pm","https://secondcup.com/location/fort-mcmurray"
"https://secondcup.com","Carleton University - Canal Building","1125 Colonel By Drive, Residence Commons Building, Room 124","Ottawa","ON","K1S 5B6","CA","<MISSING>","613-520-2600","Cafe","<MISSING>","<MISSING>","Monday 8:00 am 06:00 pm Tuesday 8:00 am 06:00 pm Wednesday 8:00 am 06:00 pm Thursday 8:00 am 06:00 pm Friday 8:00 am 04:00 pm","https://secondcup.com/location/carleton-university-canal-building"
"https://secondcup.com","Ottawa Civic Hospital","1053 Carling Ave.","Ottawa","ON","K1Y 4E9","CA","<MISSING>","613-761-4579","Cafe","<MISSING>","<MISSING>","Monday 6:30 am 08:00 pm Tuesday 6:30 am 08:00 pm Wednesday 6:30 am 08:00 pm Thursday 6:30 am 08:00 pm Friday 6:30 am 08:00 pm Saturday 6:30 am 08:00 pm Sunday 6:30 am 08:00 pm","https://secondcup.com/location/ottawa-civic-hospital"
"https://secondcup.com","Morisset Library","Morisset Hall, University of Ottawa, 65 University Private","Ottawa","ON","K1N 6N5","CA","<MISSING>","613-562-5800","Cafe","<MISSING>","<MISSING>","Monday 7:00 am 08:00 pm Tuesday 7:00 am 08:00 pm Wednesday 7:00 am 08:00 pm Thursday 7:00 am 08:00 pm Friday 7:00 am 06:00 pm","https://secondcup.com/location/morisset-library"
"https://secondcup.com","Braeside Shopping Centre","1919 Southland Drive SW","Calgary","AB","T2W 0K1","CA","<MISSING>","403-255-7414","Cafe","<MISSING>","<MISSING>","Monday 6:00 am 09:00 pm Tuesday 6:00 am 09:00 pm Wednesday 6:00 am 09:00 pm Thursday 6:00 am 09:00 pm Friday 6:00 am 09:00 pm Saturday 7:00 am 09:00 pm Sunday 7:00 am 09:00 pm","https://secondcup.com/location/braeside-shopping-centre"
"https://secondcup.com","Shawnessy Town Centre","#130 - 296 Shawville Blvd. SE","Calgary","AB","T2Y 3S4","CA","<MISSING>","587-481-8254","Cafe","<MISSING>","<MISSING>","Monday 6:30 am 09:00 pm Tuesday 6:30 am 09:00 pm Wednesday 6:30 am 09:00 pm Thursday 6:30 am 09:00 pm Friday 6:30 am 09:00 pm Saturday 7:30 am 09:00 pm Sunday 7:30 am 09:00 pm","https://secondcup.com/location/shawnessy-town-centre"
"https://secondcup.com","Chinook Centre","6455 MacLeod Trail SW., Unit#203A","Calgary","AB","T2H 0K9","CA","<MISSING>","403-640-2966","Cafe","<MISSING>","<MISSING>","Monday 7:00 am 09:00 pm Tuesday 7:00 am 09:00 pm Wednesday 7:00 am 09:00 pm Thursday 7:00 am 09:00 pm Friday 7:00 am 09:00 pm Saturday 7:00 am 09:00 pm Sunday 9:00 am 07:00 pm","https://secondcup.com/location/chinook-centre"
"https://secondcup.com","McKenzie Towne Centre","30 High Street SE","Calgary","AB","T2Z 3T8","CA","<MISSING>","403-257-2809","Cafe","<MISSING>","<MISSING>","Monday 6:30 am 09:00 pm Tuesday 6:30 am 09:00 pm Wednesday 6:30 am 09:00 pm Thursday 6:30 am 09:00 pm Friday 6:30 am 09:00 pm Saturday 7:00 am 09:00 pm Sunday 8:00 am 08:00 pm","https://secondcup.com/location/mckenzie-towne-centre"
"https://secondcup.com","Mahogany Village","7 Mahagony Plaza SE unit 950","Calgary","AB","T3M 2P8","CA","<MISSING>","403-726-6846","Cafe","<MISSING>","<MISSING>","Monday 6:30 am 08:00 pm Tuesday 6:30 am 08:00 pm Wednesday 6:30 am 08:00 pm Thursday 6:30 am 08:00 pm Friday 6:30 am 08:00 pm Saturday 8:00 am 08:00 pm Sunday 8:00 am 07:00 pm","https://secondcup.com/location/mahogany-village"
"https://secondcup.com","5542 Rochdale Blvd.","5542 Rochdale Blvd.","Regina","SK","S4X 4P1","CA","<MISSING>","306-584-9411","Cafe","<MISSING>","<MISSING>","Monday 6:30 am 10:00 pm Tuesday 6:30 am 10:00 pm Wednesday 6:30 am 10:00 pm Thursday 6:00 am 10:00 pm Friday 6:00 am 10:00 pm Saturday 7:00 am 10:00 pm Sunday 8:00 am 09:00 pm","https://secondcup.com/location/5542-rochdale-blvd"
"https://secondcup.com","Quance Street","1000-2101 Quance Street","Regina","SK","S4V 3L9","CA","<MISSING>","306-585-2287","Cafe","<MISSING>","<MISSING>","Monday 6:30 am 10:00 pm Tuesday 6:30 am 10:00 pm Wednesday 6:30 am 10:00 pm Thursday 6:30 am 10:00 pm Friday 6:30 am 10:00 pm Saturday 7:00 am 09:00 pm Sunday 7:00 am 09:00 pm","https://secondcup.com/location/quance-street"
"https://secondcup.com","La Tour du Faubourg","1602 Ste Catherine West, Unit C","Montreal","QC","H3H 2S7","CA","<MISSING>","514-939-3237","Cafe","<MISSING>","<MISSING>","Monday 6:00 am 11:00 pm Tuesday 6:00 am 11:00 pm Wednesday 6:00 am 11:00 pm Thursday 6:00 am 11:00 pm Friday 6:00 am 12:30 am Saturday 12:00 am 11:59 pm Sunday 6:30 am 11:00 pm","https://secondcup.com/location/la-tour-du-faubourg"
"https://secondcup.com","Market Mall","3625 Shaganappi Trail NW, PO Box 148","Calgary","AB","T3A 0E2","CA","<MISSING>","403-286-2060","Cafe","<MISSING>","<MISSING>","Monday 10:00 am 07:00 pm Tuesday 10:00 am 07:00 pm Wednesday 10:00 am 07:00 pm Thursday 10:00 am 07:00 pm Friday 10:00 am 07:00 pm Saturday 10:00 am 07:00 pm Sunday 10:00 am 06:00 pm","https://secondcup.com/location/market-mall"
"https://secondcup.com","North Hill Station","2025 - 16th Avenue NW","Calgary","AB","T2M 0M3","CA","<MISSING>","403-338-8596","Cafe","<MISSING>","<MISSING>","Monday 6:30 am 09:00 pm Tuesday 6:30 am 09:00 pm Wednesday 6:30 am 09:00 pm Thursday 6:30 am 09:00 pm Friday 6:30 am 09:00 pm Saturday 7:30 am 09:00 pm Sunday 7:30 am 09:00 pm","https://secondcup.com/location/north-hill-station"
"https://secondcup.com","SAIT (Southern Alberta Institute of Technology)","1301-16TH Ave. N.W.","Calgary","AB","T2M 0L4","CA","<MISSING>","403-210-4252","Cafe","<MISSING>","<MISSING>","Monday 6:00 am 06:00 pm Tuesday 6:00 am 06:00 pm Wednesday 6:00 am 06:00 pm Thursday 6:00 am 06:00 pm Friday 6:00 am 06:00 pm","https://secondcup.com/location/sait-southern-alberta-institute-technology"
"https://secondcup.com","Kensington (Preston Place)","338 - 10th Street NW","Calgary","AB","T2N 1V8","CA","<MISSING>","403-410-3913","Cafe","<MISSING>","<MISSING>","Monday 7:00 am 09:00 pm Tuesday 7:00 am 09:00 pm Wednesday 7:00 am 09:00 pm Thursday 7:00 am 09:00 pm Friday 7:00 am 10:00 pm Saturday 7:00 am 10:00 pm Sunday 7:00 am 09:00 pm","https://secondcup.com/location/kensington-preston-place"
"https://secondcup.com","Hollick Kenyon","5225-167 Avenue NW","Edmonton","AB","T5Y 0L2","CA","<MISSING>","780-406-8434","Cafe","<MISSING>","<MISSING>","Monday 6:00 am 09:00 pm Tuesday 6:00 am 09:00 pm Wednesday 6:00 am 09:00 pm Thursday 6:00 am 10:00 pm Friday 6:00 am 10:00 pm Saturday 7:30 am 10:00 pm Sunday 8:00 am 09:00 pm","https://secondcup.com/location/hollick-kenyon"
"https://secondcup.com","Millenium Place","2000 Premier Way","Sherwood Park","AB","T8H 2G4","CA","<MISSING>","780-449-7133","Cafe","<MISSING>","<MISSING>","Monday 7:15 am 09:00 pm Tuesday 7:15 am 09:00 pm Wednesday 7:15 am 09:00 pm Thursday 7:15 am 09:00 pm Friday 7:15 am 09:00 pm Saturday 7:15 am 09:00 pm Sunday 7:15 am 09:00 pm","https://secondcup.com/location/millenium-place"
"https://secondcup.com","Sherwood Town Square","190, 390 Baseline Road","Sherwood Park","AB","T8H 1X1","CA","<MISSING>","780-449-2880","Cafe","<MISSING>","<MISSING>","Monday 6:00 am 09:00 pm Tuesday 6:00 am 09:00 pm Wednesday 6:00 am 09:00 pm Thursday 6:00 am 09:00 pm Friday 6:00 am 09:00 pm Saturday 7:00 am 09:00 pm Sunday 7:00 am 09:00 pm","https://secondcup.com/location/sherwood-town-square"
"https://secondcup.com","101st & Gretzky - Capilano Corner","7477 - 101st Avenue NW","Edmonton","AB","T6A 3Z5","CA","<MISSING>","780-485-2561","Cafe","<MISSING>","<MISSING>","Monday 5:30 am 10:00 pm Tuesday 5:30 am 10:00 pm Wednesday 5:30 am 10:00 pm Thursday 5:30 am 10:00 pm Friday 5:30 am 10:00 pm Saturday 6:30 am 10:00 pm Sunday 6:30 am 10:00 pm","https://secondcup.com/location/101st-gretzky-capilano-corner"
"https://secondcup.com","Kingsway Mall","109th Street Unit 180","Edmonton","AB","T5G 3A6","CA","<MISSING>","587-490-7538","Cafe","<MISSING>","<MISSING>","Monday 10:00 am 07:00 pm Tuesday 10:00 am 07:00 pm Wednesday 10:00 am 07:00 pm Thursday 10:00 am 07:00 pm Friday 10:00 am 07:00 pm Saturday 10:00 am 06:00 pm Sunday 10:00 am 05:00 pm","https://secondcup.com/location/kingsway-mall"
"https://secondcup.com","1235 Wellington Street West","1235 Wellington Street West","Ottawa","ON","K1Y 3A3","CA","<MISSING>","<MISSING>","Cafe","<MISSING>","<MISSING>","Monday 6:00 am 09:00 pm Tuesday 6:00 am 09:00 pm Wednesday 6:00 am 09:00 pm Thursday 6:00 am 09:00 pm Friday 6:00 am 09:00 pm Saturday 7:00 am 09:00 pm Sunday 7:00 am 09:00 pm","https://secondcup.com/location/1235-wellington-street-west"
"https://secondcup.com","Prospect Street","973 Prospect Street","Fredericton","NB","E3B 2T7","CA","<MISSING>","506-455-3048","Cafe","<MISSING>","<MISSING>","Monday 6:30 am 10:00 pm Tuesday 6:30 am 10:00 pm Wednesday 6:30 am 10:00 pm Thursday 6:30 am 10:00 pm Friday 6:30 am 10:00 pm Saturday 7:30 am 10:00 pm Sunday 8:00 am 10:00 pm","https://secondcup.com/location/prospect-street"
"https://secondcup.com","Citadel Theatre","9828 - 101A Avenue NW","Edmonton","AB","T5J3C6","CA","<MISSING>","780-428-3340","Cafe","<MISSING>","<MISSING>","Monday 6:30 am 04:00 pm Tuesday 6:30 am 04:00 pm Wednesday 6:30 am 04:00 pm Thursday 6:30 am 04:00 pm Friday 6:30 am 04:00 pm","https://secondcup.com/location/citadel-theatre"
"https://secondcup.com","Oliver Square","11640  - 104th Avenue","Edmonton","AB","T5K 2T7","CA","<MISSING>","780-451-2326","Cafe","<MISSING>","<MISSING>","Monday 7:00 am 10:00 pm Tuesday 7:00 am 10:00 pm Wednesday 7:00 am 10:00 pm Thursday 7:00 am 10:00 pm Friday 7:00 am 10:00 pm Saturday 7:00 am 11:00 am Sunday 7:00 am 10:00 pm","https://secondcup.com/location/oliver-square"
"https://secondcup.com","Telus Plaza Concourse","10025 Jasper Avenue, Unit 33","Edmonton","AB","T5J 1S6","CA","<MISSING>","780-420-1388","Cafe","<MISSING>","<MISSING>","Monday 6:30 am 05:00 pm Tuesday 6:30 am 05:00 pm Wednesday 6:30 am 05:00 pm Thursday 6:30 am 05:00 pm Friday 6:30 am 05:00 pm","https://secondcup.com/location/telus-plaza-concourse"
"https://secondcup.com","Whyte Avenue","10402 - 82nd Whyte Avenue","Edmonton","AB","T6E 2A2","CA","<MISSING>","587-759-3736","Cafe","<MISSING>","<MISSING>","Monday 6:00 am 09:00 pm Tuesday 6:00 am 09:00 pm Wednesday 6:00 am 09:00 pm Thursday 6:00 am 09:00 pm Friday 6:00 am 10:00 pm Saturday 6:00 am 10:00 pm Sunday 7:00 am 09:00 pm","https://secondcup.com/location/whyte-avenue"
"https://secondcup.com","Varscona","10620 - 82nd Avenue NW","Edmonton","AB","T6E 2A7","CA","<MISSING>","780-436-2021","Cafe","<MISSING>","<MISSING>","Monday 6:00 am 08:00 pm Tuesday 6:00 am 08:00 pm Wednesday 6:00 am 08:00 pm Thursday 6:00 am 08:00 pm Friday 6:00 am 08:00 pm Saturday 6:00 am 08:00 pm Sunday 6:00 am 08:00 pm","https://secondcup.com/location/varscona"
"https://secondcup.com","Jewish Community Centre","750 Spadina Avenue, Unit #5","Toronto","ON","M5S 2J2","CA","<MISSING>","647-347-2462","Cafe","<MISSING>","<MISSING>","Monday 7:00 am 11:00 pm Tuesday 7:00 am 11:00 pm Wednesday 7:00 am 11:00 pm Thursday 7:00 am 11:00 pm Friday 7:00 am 11:00 pm Saturday 8:00 am 07:00 pm Sunday 8:00 am 07:00 pm","https://secondcup.com/location/jewish-community-centre"
"https://secondcup.com","U of T - Woodsworth","119 St. George Street","Toronto","ON","M5S 1A5","CA","<MISSING>","416-847-0449","Cafe","<MISSING>","<MISSING>","Monday 7:00 am 06:00 pm Tuesday 7:00 am 06:00 pm Wednesday 7:00 am 06:00 pm Thursday 7:00 am 06:00 pm Friday 7:00 am 05:00 pm","https://secondcup.com/location/u-t-woodsworth"
"https://secondcup.com","U of T - Rotman","105 St. George Street","Toronto","ON","M5S 3E6","CA","<MISSING>","416-847-0448","Cafe","<MISSING>","<MISSING>","Monday 6:00 am 07:00 pm Tuesday 6:00 am 07:00 pm Wednesday 6:00 am 07:00 pm Thursday 6:00 am 07:00 pm Friday 6:00 am 07:00 pm Saturday 6:00 am 07:00 pm Sunday 6:00 am 07:00 pm","https://secondcup.com/location/u-t-rotman"
"https://secondcup.com","U of T (66 Harbord Street)","66 Harbord Street","Toronto","ON","M5S 1G2","CA","<MISSING>","416-596-9877","Cafe","<MISSING>","<MISSING>","Monday 7:00 am 08:00 pm Tuesday 7:00 am 08:00 pm Wednesday 7:00 am 08:00 pm Thursday 7:00 am 08:00 pm Friday 7:00 am 08:00 pm Saturday 9:00 am 07:00 pm Sunday 9:00 am 07:00 pm","https://secondcup.com/location/u-t-66-harbord-street"
"https://secondcup.com","Sunnyside Mall","1595 Bedford Highway, Suite 198","Bedford","NS","B4A 3Y4","CA","<MISSING>","902-835-9905","Cafe","<MISSING>","<MISSING>","Monday 7:00 am 09:30 pm Tuesday 7:00 am 09:30 pm Wednesday 7:00 am 09:30 pm Thursday 7:00 am 09:30 pm Friday 7:00 am 09:30 pm Saturday 7:30 am 09:00 pm Sunday 7:30 am 08:00 pm","https://secondcup.com/location/sunnyside-mall"
"https://secondcup.com","Larry Uteck","64 Dellridge Lane","Bedford","NS","B4A 0H2","CA","<MISSING>","902-406-3450","Cafe","<MISSING>","<MISSING>","Monday 7:00 am 09:00 pm Tuesday 7:00 am 09:00 pm Wednesday 7:00 am 09:00 pm Thursday 7:00 am 09:00 pm Friday 7:00 am 09:00 pm Saturday 8:00 am 05:00 pm Sunday 8:00 am 05:00 pm","https://secondcup.com/location/larry-uteck"
"https://secondcup.com","Dartmouth Crossing","49 Gale Terrace","Dartmouth","NS","B3B 0C5","CA","<MISSING>","902-481-9603","Cafe","<MISSING>","<MISSING>","Monday 7:00 am 09:00 pm Tuesday 7:00 am 09:00 pm Wednesday 7:00 am 09:00 pm Thursday 7:00 am 09:00 pm Friday 7:00 am 09:00 pm Saturday 7:30 am 09:00 pm Sunday 8:30 am 07:00 pm","https://secondcup.com/location/dartmouth-crossing"
"https://secondcup.com","Bayers Lake","185 Chain Lake Drive","Halifax","NS","B3S 1C1","CA","<MISSING>","902-876-2592","Cafe","<MISSING>","<MISSING>","Monday 6:30 am 10:00 pm Tuesday 6:30 am 10:00 pm Wednesday 6:30 am 10:00 pm Thursday 6:30 am 10:30 pm Friday 6:30 am 10:30 pm Saturday 7:00 am 10:30 pm Sunday 7:30 am 10:00 pm","https://secondcup.com/location/bayers-lake"
"https://secondcup.com","Halifax Shopping Centre","7001 Mumford Road, Unit 239","Halifax","NS","B3L 2H8","CA","<MISSING>","902-407-2811","Cafe","<MISSING>","<MISSING>","Monday 7:00 am 09:00 pm Tuesday 7:00 am 09:00 pm Wednesday 7:00 am 09:00 pm Thursday 7:00 am 09:00 pm Friday 7:00 am 09:00 pm Saturday 7:00 am 09:00 pm Sunday 10:00 am 06:00 pm","https://secondcup.com/location/halifax-shopping-centre"
"https://secondcup.com","Coronation Corner","11128 - 142 Street NW","Edmonton","AB","T5M 4G5","CA","<MISSING>","780-452-1304","Cafe","<MISSING>","<MISSING>","Monday 7:00 am 09:00 pm Tuesday 7:00 am 09:00 pm Wednesday 7:00 am 09:00 pm Thursday 7:00 am 09:00 pm Friday 7:00 am 09:00 pm Saturday 8:00 am 09:00 pm Sunday 8:00 am 09:00 pm","https://secondcup.com/location/coronation-corner"
"https://secondcup.com","South Edmonton Common","9832 - 22 Avenue NW","Edmonton","AB","T6N 1J7","CA","<MISSING>","780-490-7779","Cafe","<MISSING>","<MISSING>","Monday 7:00 am 09:00 pm Tuesday 7:00 am 09:00 pm Wednesday 7:00 am 09:00 pm Thursday 7:00 am 09:00 pm Friday 7:00 am 09:00 pm Saturday 8:00 am 09:00 pm Sunday 8:00 am 08:00 pm","https://secondcup.com/location/south-edmonton-common"
"https://secondcup.com","Terwillegar Recreational Centre","2051 Leger Road NW","Edmonton","AB","T6R 0R9","CA","<MISSING>","780-430-7664","Cafe","<MISSING>","<MISSING>","Monday 6:30 am 10:00 pm Tuesday 6:30 am 10:00 pm Wednesday 6:30 am 10:00 pm Thursday 6:30 am 10:00 pm Friday 6:30 am 10:00 pm Saturday 6:30 am 10:00 pm Sunday 6:30 am 10:00 pm","https://secondcup.com/location/terwillegar-recreational-centre"
"https://secondcup.com","Riverbend Square","478 Riverbend Square","Edmonton","AB","T6R 2X2","CA","<MISSING>","780-439-5735","Cafe","<MISSING>","<MISSING>","Monday 6:30 am 09:00 pm Tuesday 6:30 am 09:00 pm Wednesday 6:30 am 09:00 pm Thursday 6:30 am 09:00 pm Friday 6:30 am 09:00 pm Saturday 7:30 am 09:00 pm Sunday 7:30 am 09:00 pm","https://secondcup.com/location/riverbend-square"
"https://secondcup.com","Gateway Plaza","3414 Gateway Blvd NW","Edmonton","AB","T6J 6R5","CA","<MISSING>","780-463-1514","Cafe","<MISSING>","<MISSING>","Monday 6:00 am 09:00 pm Tuesday 6:00 am 09:00 pm Wednesday 6:00 am 09:00 pm Thursday 6:00 am 09:00 pm Friday 6:00 am 09:00 pm Saturday 8:00 am 09:00 pm Sunday 8:00 am 08:00 pm","https://secondcup.com/location/gateway-plaza"
"https://secondcup.com","Meadowlark Mall","15830 - 87th Avenue NW","Edmonton","AB","T5R 5Z1","CA","<MISSING>","780-443-0688","Cafe","<MISSING>","<MISSING>","Monday 6:00 am 10:00 pm Tuesday 6:00 am 10:00 pm Wednesday 6:00 am 10:00 pm Thursday 6:00 am 10:00 pm Friday 6:00 am 10:00 pm Saturday 7:00 am 10:00 pm Sunday 7:00 am 10:00 pm","https://secondcup.com/location/meadowlark-mall"
"https://secondcup.com","West Edmonton Mall","8882 - 170th St.,  Box#1836","Edmonton","AB","T5T 3J7","CA","<MISSING>","780-444-0997","Cafe","<MISSING>","<MISSING>","Monday 9:00 am 07:00 pm Tuesday 9:00 am 07:00 pm Wednesday 9:00 am 07:00 pm Thursday 9:00 am 07:00 pm Friday 9:00 am 07:00 pm Saturday 11:00 am 06:00 pm Sunday 11:00 am 06:00 pm","https://secondcup.com/location/west-edmonton-mall"
"https://secondcup.com","1 Springfield Road","1 Springfield Road","Ottawa","ON","K1M 1C8","CA","<MISSING>","613-748-3017","Cafe","<MISSING>","<MISSING>","Monday 6:30 am 10:00 pm Tuesday 6:30 am 10:00 pm Wednesday 6:30 am 10:00 pm Thursday 6:30 am 10:00 pm Friday 6:30 am 10:00 pm Saturday 7:00 am 10:00 pm Sunday 7:00 am 10:00 pm","https://secondcup.com/location/1-springfield-road"
"https://secondcup.com","171 Rideau Street","171 Rideau Street","Ottawa","ON","K1N 9P1","CA","<MISSING>","613-241-8101","Cafe","<MISSING>","<MISSING>","Monday 6:30 am 09:00 pm Tuesday 6:30 am 09:00 pm Wednesday 6:30 am 09:00 pm Thursday 6:30 am 09:00 pm Friday 6:30 am 09:00 pm Saturday 7:00 am 09:00 pm Sunday 7:00 am 09:00 pm","https://secondcup.com/location/171-rideau-street"
"https://secondcup.com","National Art Gallery","380 Sussex Dr","Ottawa","ON","K1N 9N4","CA","<MISSING>","<MISSING>","Cafe","<MISSING>","<MISSING>","Monday 8:00 am 06:30 pm Tuesday 8:00 am 06:30 pm Wednesday 8:00 am 06:30 pm Thursday 8:00 am 08:30 pm Friday 8:00 am 06:30 pm Saturday 10:00 am 06:30 pm Sunday 10:00 am 06:30 pm","https://secondcup.com/location/national-art-gallery"
"https://secondcup.com","University of Ottawa","153 Laurier Avenue East","Ottawa","ON","K1N 6N8","CA","<MISSING>","613-232-6921","Cafe","<MISSING>","<MISSING>","Monday 6:30 am 11:00 pm Tuesday 6:30 am 11:00 pm Wednesday 6:30 am 11:00 pm Thursday 6:30 am 11:00 pm Friday 6:30 am 11:00 pm Saturday 7:00 am 11:00 pm Sunday 7:00 am 11:00 pm","https://secondcup.com/location/university-ottawa"
"https://secondcup.com","Rideau Centre","50 Rideau Street","Ottawa","ON","K1N 9J7","CA","<MISSING>","613-230-7291","Cafe","<MISSING>","<MISSING>","Monday 10:00 am 07:00 pm Tuesday 10:00 am 07:00 pm Wednesday 10:00 am 07:00 pm Thursday 10:00 am 07:00 pm Friday 10:00 am 07:00 pm Saturday 10:00 am 07:00 pm Sunday 10:00 am 06:00 pm","https://secondcup.com/location/rideau-centre"
"https://secondcup.com","245 Lakeshore Rd E","245 Lakeshore Rd E","Oakville","ON","L6J 1H9","CA","<MISSING>","905-815-1775","Cafe","<MISSING>","<MISSING>","Monday 6:30 am 08:00 pm Tuesday 6:30 am 08:00 pm Wednesday 6:30 am 08:00 pm Thursday 6:30 am 08:00 pm Friday 6:30 am 08:00 pm Saturday 6:30 am 09:00 pm Sunday 6:30 am 08:00 pm","https://secondcup.com/location/245-lakeshore-rd-e"
"https://secondcup.com","65 Front Street East","65 Front St. East","Toronto","ON","M5E 1B5","CA","<MISSING>","416-364-3888","Cafe","<MISSING>","<MISSING>","Monday 7:00 am 10:00 pm Tuesday 7:00 am 10:00 pm Wednesday 7:00 am 10:00 pm Thursday 7:00 am 10:00 pm Friday 7:00 am 11:00 am Saturday 7:00 am 11:00 am Sunday 7:00 am 10:00 pm","https://secondcup.com/location/65-front-street-east"
"https://secondcup.com","St. Michael's Hospital","30 Bond Street","Toronto","ON","M5B 1W8","CA","<MISSING>","416-864-6060","Cafe","<MISSING>","<MISSING>","Monday 12:00 am 11:59 pm Tuesday 12:00 am 11:59 pm Wednesday 12:00 am 11:59 pm Thursday 12:00 am 11:59 pm Friday 12:00 am 11:59 pm Saturday 12:00 am 11:59 pm Sunday 12:00 am 11:59 pm","https://secondcup.com/location/st-michaels-hospital"
"https://secondcup.com","Calgary Signal Hill","5644 Signal Hill Centre SW","Calgary","AB","T3H 3P8","CA","<MISSING>","403-242-8400","Cafe","<MISSING>","<MISSING>","Monday 6:00 am 10:00 pm Tuesday 6:00 am 10:00 pm Wednesday 6:00 am 10:00 pm Thursday 6:00 am 10:00 pm Friday 6:00 am 10:00 pm Saturday 6:00 am 10:00 pm Sunday 6:00 am 10:00 pm","https://secondcup.com/location/calgary-signal-hill"
"https://secondcup.com","University Terrace","Unit # 110, 8303 112th Street NW","Edmonton","AB","T6G 1K4","CA","<MISSING>","780-436-4343","Cafe","<MISSING>","<MISSING>","Monday 6:00 am 09:00 pm Tuesday 6:00 am 09:00 pm Wednesday 6:00 am 09:00 pm Thursday 6:00 am 09:00 pm Friday 6:00 am 09:00 pm Saturday 7:00 am 09:00 pm Sunday 7:00 am 09:00 pm","https://secondcup.com/location/university-terrace"
"https://secondcup.com","University of Alberta-Business Building","112St Saskatchewan Dr.","Edmonton","AB","T6G 2E9","CA","<MISSING>","780-231-0287","Cafe","<MISSING>","<MISSING>","Monday 7:00 am 06:00 pm Tuesday 7:00 am 06:00 pm Wednesday 7:00 am 06:00 pm Thursday 7:00 am 06:00 pm Friday 7:00 am 06:00 pm","https://secondcup.com/location/university-alberta-business-building"
"https://secondcup.com","11210 Jasper Ave (Temporarily Closed)","11210 Jasper Avenue","Edmonton","AB","T5K 2V2","CA","<MISSING>","780-421-4480","Cafe","<MISSING>","<MISSING>","Monday 6:00 am 09:00 pm Tuesday 6:00 am 09:00 pm Wednesday 6:00 am 09:00 pm Thursday 6:00 am 09:00 pm Friday 6:00 am 09:00 pm Saturday 7:00 am 09:00 pm Sunday 7:00 am 09:00 pm","https://secondcup.com/location/11210-jasper-ave-temporarily-closed"
"https://secondcup.com","1050 Islington Ave.","1050 Islington Ave.","Toronto","ON","M8Z 4R6","CA","<MISSING>","416-233-9646","Cafe","<MISSING>","<MISSING>","Monday 5:30 am 10:00 pm Tuesday 5:30 am 10:00 pm Wednesday 5:30 am 10:00 pm Thursday 5:30 am 10:00 pm Friday 5:30 am 10:00 pm Saturday 7:00 am 10:00 pm Sunday 7:00 am 10:00 pm","https://secondcup.com/location/1050-islington-ave"
"https://secondcup.com","Telus Tower","123 Bank Street / 215 Slater Street","Ottawa","ON","K1P 5N5","CA","<MISSING>","613-233-0647","Cafe","<MISSING>","<MISSING>","Monday 5:30 am 06:00 pm Tuesday 5:30 am 06:00 pm Wednesday 5:30 am 06:00 am Thursday 5:30 am 06:00 am Friday 5:30 am 06:00 pm Saturday 8:00 am 05:00 pm","https://secondcup.com/location/telus-tower"
"https://secondcup.com","Commerce Court","25 King Street West, P.O. Box 183","Toronto","ON","M5L 1E7","CA","<MISSING>","416-947-9748","Cafe","<MISSING>","<MISSING>","Monday 6:00 am 06:00 pm Tuesday 6:00 am 06:00 pm Wednesday 6:00 am 06:00 pm Thursday 6:00 am 06:00 pm Friday 6:00 am 06:00 pm","https://secondcup.com/location/commerce-court"
"https://secondcup.com","Bay Adelaide Centre","333 Bay Street Unit C11-12","Toronto","ON","M5H 2R2","CA","<MISSING>","416-866-2110","Cafe","<MISSING>","<MISSING>","Monday 6:00 am 05:00 pm Tuesday 6:00 am 05:00 pm Wednesday 6:00 am 05:00 pm Thursday 6:00 am 05:00 pm Friday 6:00 am 05:00 pm","https://secondcup.com/location/bay-adelaide-centre"
"https://secondcup.com","Scotia Plaza II","40 King Street West, PO Box 102","Toronto","ON","M5H 3Y2","CA","<MISSING>","416-203-6100","Cafe","<MISSING>","<MISSING>","Monday 6:00 am 06:00 pm Tuesday 6:00 am 06:00 pm Wednesday 6:00 am 06:00 pm Thursday 6:00 am 06:00 pm Friday 6:00 am 06:00 pm","https://secondcup.com/location/scotia-plaza-ii"
"https://secondcup.com","Centrebeam Place","16 King St","Saint John","NB","E2L 1G2","CA","<MISSING>","506-642-9671","Cafe","<MISSING>","<MISSING>","Monday 6:30 am 09:00 pm Tuesday 6:30 am 09:00 pm Wednesday 6:30 am 09:00 pm Thursday 6:30 am 09:00 pm Friday 6:30 am 09:00 pm Saturday 7:30 am 09:00 pm Sunday 7:30 am 07:00 pm","https://secondcup.com/location/centrebeam-place"
"https://secondcup.com","East Point Shopping - Indigo","41A Fashion Drive","Saint John","NB","E2J 0A7","CA","<MISSING>","506-672-9718","Cafe","<MISSING>","<MISSING>","Monday 6:30 am 09:00 pm Tuesday 6:30 am 09:00 pm Wednesday 6:30 am 09:00 pm Thursday 6:30 am 09:00 pm Friday 6:30 am 09:00 pm Saturday 7:30 am 09:00 pm Sunday 8:30 am 06:30 pm","https://secondcup.com/location/east-point-shopping-indigo"
"https://secondcup.com","Millenium Drive","8 Millenium Drive","Quispamsis","NB","E2E 4B1","CA","<MISSING>","506-849-9678","Cafe","<MISSING>","<MISSING>","Monday 6:00 am 09:00 pm Tuesday 6:00 am 09:00 pm Wednesday 6:00 am 09:00 pm Thursday 6:00 am 09:00 pm Friday 6:00 am 09:00 pm Saturday 6:30 am 09:00 pm Sunday 6:30 am 09:00 pm","https://secondcup.com/location/millenium-drive"
"https://secondcup.com","Signature Place","8902 - 149th Street NW","Edmonton","AB","T5R 1B5","CA","<MISSING>","780 484 0109","Cafe","<MISSING>","<MISSING>","Monday 6:30 am 10:00 pm Tuesday 6:30 am 09:00 pm Wednesday 6:30 am 09:00 pm Thursday 6:30 am 09:00 pm Friday 6:30 am 09:00 pm Saturday 7:00 am 09:00 pm Sunday 7:00 am 09:00 pm","https://secondcup.com/location/signature-place"
"https://secondcup.com","Portland Street","660 Portland Street","Dartmouth","NS","B2W 2M8","CA","<MISSING>","902-434-6278","Cafe","<MISSING>","<MISSING>","Monday 6:30 am 09:30 pm Tuesday 6:30 am 09:30 pm Wednesday 6:30 am 09:30 pm Thursday 6:30 am 09:30 pm Friday 6:30 am 09:30 pm Saturday 7:00 am 09:30 pm Sunday 7:30 am 09:00 pm","https://secondcup.com/location/portland-street"
"https://secondcup.com","Dalhousie University Sciences","6225 University Avenue","Halifax","NS","B3H 3H8","CA","<MISSING>","902-494-3690","Cafe","<MISSING>","<MISSING>","Monday 7:30 am 05:30 pm Tuesday 7:30 am 05:30 pm Wednesday 7:30 am 05:30 pm Thursday 7:30 am 05:30 pm Friday 7:30 am 04:00 pm","https://secondcup.com/location/dalhousie-university-sciences"
"https://secondcup.com","Dalhousie University 1 - Killiam","6225 University Avenue","Halifax","NS","B3H 3H8","CA","<MISSING>","902-494-2335","Cafe","<MISSING>","<MISSING>","Monday 7:30 am 12:00 am Tuesday 7:30 am 12:00 am Wednesday 7:30 am 12:00 am Thursday 7:30 am 12:00 am Friday 7:30 am 10:00 pm Saturday 8:00 am 10:00 pm Sunday 10:00 am 08:00 pm","https://secondcup.com/location/dalhousie-university-1-killiam"
"https://secondcup.com","CrossIron Mills Shopping Centre","261055 CrossIron Blvd, #532","Rocky View","AB","T4A 0G3","CA","<MISSING>","403-274-4668","Cafe","<MISSING>","<MISSING>","Monday 8:30 am 09:00 pm Tuesday 8:30 am 09:00 pm Wednesday 8:30 am 09:00 pm Thursday 8:30 am 09:00 pm Friday 8:30 am 09:00 pm Saturday 9:00 am 09:00 pm Sunday 10:00 am 06:00 pm","https://secondcup.com/location/crossiron-mills-shopping-centre"
"https://secondcup.com","Canadian Western Bank","10309 Jasper Avenue NW","Edmonton","AB","T5J 3N6","CA","<MISSING>","780-424-7468","Cafe","<MISSING>","<MISSING>","Monday 6:00 am 08:00 pm Tuesday 6:00 am 08:00 pm Wednesday 6:00 am 08:00 pm Thursday 6:00 am 08:00 pm Friday 6:00 am 08:00 pm Saturday 7:00 am 07:00 pm Sunday 7:00 am 06:00 pm","https://secondcup.com/location/canadian-western-bank"
"https://secondcup.com","Carrefour de Versant","1520 Blvd Greber","Gatineau","QC","J8R 0E1","CA","<MISSING>","819-205-6087","Cafe","<MISSING>","<MISSING>","Monday 6:00 am 10:00 pm Tuesday 6:00 am 10:00 pm Wednesday 6:00 am 10:00 pm Thursday 6:00 am 10:00 pm Friday 6:00 am 10:00 pm Saturday 6:00 am 10:00 pm Sunday 7:00 am 10:00 pm","https://secondcup.com/location/carrefour-de-versant"
"https://secondcup.com","Promenades de Gatineau","1100 Boul. Maloney Ouest","Gatineau","QC","J8T 6G3","CA","<MISSING>","819-246-2040","Cafe","<MISSING>","<MISSING>","Monday 7:00 am 06:00 pm Tuesday 7:00 am 06:00 pm Wednesday 7:00 am 09:00 am Thursday 7:00 am 09:00 am Friday 7:00 am 09:00 am Saturday 8:00 am 06:00 pm Sunday 9:00 am 05:00 pm","https://secondcup.com/location/promenades-de-gatineau"
"https://secondcup.com","22 Eddy St","22 Eddy St, Unit 120","Gatineau","QC","J8X 2V9","CA","<MISSING>","819-595-0110","Cafe","<MISSING>","<MISSING>","Monday 6:30 am 10:00 pm Tuesday 6:30 am 10:00 pm Wednesday 6:30 am 10:00 pm Thursday 6:30 am 11:00 pm Friday 6:30 am 11:00 pm Saturday 7:30 am 11:00 pm Sunday 7:30 am 10:00 pm","https://secondcup.com/location/22-eddy-st"
"https://secondcup.com","Canadian Museum of History","100 Laurier Street","Gatineau","QC","K1A 0M8","CA","<MISSING>","<MISSING>","Cafe","<MISSING>","<MISSING>","Monday 7:00 am 05:00 pm Tuesday 7:00 am 05:00 pm Wednesday 7:00 am 05:00 pm Thursday 7:00 am 08:00 pm Friday 7:00 am 05:00 pm Saturday 8:30 am 05:00 pm Sunday 8:30 am 05:00 pm","https://secondcup.com/location/canadian-museum-history"
"https://secondcup.com","Inglewood Town Square","19 Bellrose Drive, Ste. 30","St. Albert","AB","T8N 5E1","CA","<MISSING>","780-458-8163","Cafe","<MISSING>","<MISSING>","Monday 6:30 am 10:00 pm Tuesday 6:30 am 10:00 pm Wednesday 6:30 am 10:00 pm Thursday 6:30 am 10:00 pm Friday 7:00 am 10:00 pm Saturday 7:00 am 09:00 pm Sunday 7:00 am 08:00 pm","https://secondcup.com/location/inglewood-town-square"
"https://secondcup.com","99 Metcalfe Street","99 Metcalfe Street","Ottawa","ON","K1P 6L7","CA","<MISSING>","613-788-6996","Cafe","<MISSING>","<MISSING>","Monday 6:00 am 09:00 pm Tuesday 6:00 am 09:00 pm Wednesday 6:00 am 09:00 pm Thursday 6:00 am 09:00 pm Friday 6:00 am 09:00 pm Saturday 7:00 am 07:00 pm Sunday 7:00 am 07:00 pm","https://secondcup.com/location/99-metcalfe-street"
"https://secondcup.com","World Exchange Plaza","111 Albert St., PO Box 121, Suite #107","Ottawa","ON","K1P 1A5","CA","<MISSING>","613-232-9768","Cafe","<MISSING>","<MISSING>","Monday 7:00 am 05:30 pm Tuesday 7:00 am 05:30 pm Wednesday 7:00 am 05:30 pm Thursday 7:00 am 05:30 pm Friday 7:00 am 05:30 pm","https://secondcup.com/location/world-exchange-plaza"
"https://secondcup.com","Cafe Fauteaux","Chartwells, The University of Ottawa, 85 University Private, Room 110","Ottawa","ON","K1N 6N5","CA","<MISSING>","613-562-5800","Cafe","<MISSING>","<MISSING>","Monday 8:30 am 05:00 pm Tuesday 8:30 am 05:00 pm Wednesday 8:30 am 05:00 pm Thursday 8:30 am 05:00 pm Friday 8:30 am 03:00 pm","https://secondcup.com/location/cafe-fauteaux"
"https://secondcup.com","Sherway Gardens","25 The West Mall, Box#216","Toronto","ON","M9C 1B8","CA","<MISSING>","416-620-9856","Cafe","<MISSING>","<MISSING>","Monday 8:30 am 09:00 pm Tuesday 8:30 am 09:00 pm Wednesday 8:30 am 09:00 pm Thursday 8:30 am 09:00 pm Friday 8:30 am 09:00 pm Saturday 8:30 am 06:00 pm Sunday 10:00 am 06:00 pm","https://secondcup.com/location/sherway-gardens"
"https://secondcup.com","100 Jennifer Heil Way - Temporarily Closed","100 Jennifer Heil Way, Unit 48 previously Campside Road","Spruce Grove","AB","T7X 4B8","CA","<MISSING>","780-960-3721","Cafe","<MISSING>","<MISSING>","Monday 6:00 am 08:00 pm Tuesday 6:00 am 08:00 pm Wednesday 6:00 am 08:00 pm Thursday 6:00 am 08:00 pm Friday 6:00 am 08:00 pm Saturday 7:00 am 08:00 pm Sunday 7:00 am 08:00 pm","https://secondcup.com/location/100-jennifer-heil-way-temporarily-closed"
"https://secondcup.com","WEM II - Bourbon Street","8880 - 170 Street. #1695 Unit K40","Edmonton","AB","T6E 3V9","CA","<MISSING>","780-484-9872","Cafe","<MISSING>","<MISSING>","Monday 7:00 am 09:30 pm Tuesday 7:00 am 09:30 pm Wednesday 7:00 am 09:30 pm Thursday 7:00 am 09:30 pm Friday 7:00 am 10:00 pm Saturday 7:00 am 10:00 pm Sunday 7:30 am 07:00 pm","https://secondcup.com/location/wem-ii-bourbon-street"
"https://secondcup.com","Terra Losa Shopping Centre","9792 - 170th Street NW","Edmonton","AB","T5T 5L9","CA","<MISSING>","780-474-2442","Cafe","<MISSING>","<MISSING>","Monday 6:00 am 08:00 pm Tuesday 6:00 am 08:00 pm Wednesday 6:00 am 08:00 pm Thursday 6:00 am 08:00 pm Friday 6:00 am 08:00 pm Saturday 7:00 am 12:00 pm Sunday 8:00 am 07:00 pm","https://secondcup.com/location/terra-losa-shopping-centre"
"https://secondcup.com","Mayfield Common","222 Mayfield Common","Edmonton","AB","T5P 4B3","CA","<MISSING>","780-487-5810","Cafe","<MISSING>","<MISSING>","Monday 6:30 am 10:00 pm Tuesday 6:30 am 10:00 pm Wednesday 6:30 am 10:00 pm Thursday 6:30 am 10:00 pm Friday 6:30 am 10:00 pm Saturday 6:30 am 10:00 pm Sunday 6:30 am 10:00 pm","https://secondcup.com/location/mayfield-common"
"https://secondcup.com","Eastlink Centre","Unit G, 10 Knowledge Way","Grande Prairie","AB","T8W 2V9","CA","<MISSING>","780-538-4349","Cafe","<MISSING>","<MISSING>","Monday 7:00 am 09:30 pm Tuesday 7:00 am 09:30 pm Wednesday 7:00 am 09:30 pm Thursday 7:00 am 09:30 pm Friday 7:00 am 09:30 pm Saturday 7:00 am 09:30 pm Sunday 8:00 am 09:00 pm","https://secondcup.com/location/eastlink-centre"
"https://secondcup.com","Parkwood Place","1600 15th Avenue, Unit 130","Prince George","BC","V2L 3X3","CA","<MISSING>","250-562-5620","Cafe","<MISSING>","<MISSING>","Monday 6:00 am 10:00 pm Tuesday 6:00 am 10:00 pm Wednesday 6:00 am 10:00 pm Thursday 6:00 am 10:00 pm Friday 6:00 am 10:00 pm Saturday 6:30 am 10:00 pm Sunday 7:00 am 09:00 pm","https://secondcup.com/location/parkwood-place"
"https://secondcup.com","Metro Toronto Convention Centre","255 Front St. W.","Toronto","ON","M5V 2W6","CA","<MISSING>","416-979-1504","Cafe","<MISSING>","<MISSING>","Monday 6:00 am 08:30 pm Tuesday 6:00 am 08:30 pm Wednesday 6:00 am 08:30 pm Thursday 6:00 am 08:30 pm Friday 6:00 am 08:30 pm Saturday 6:00 am 09:00 pm Sunday 6:00 am 09:00 pm","https://secondcup.com/location/metro-toronto-convention-centre"
"https://secondcup.com","Simcoe Place","200 Front Street, West Concourse","Toronto","ON","M5V 3K2","CA","<MISSING>","416-979-9227","Cafe","<MISSING>","<MISSING>","Monday 6:30 am 06:00 pm Tuesday 6:30 am 06:00 pm Wednesday 6:30 am 06:00 pm Thursday 6:30 am 06:00 pm Friday 6:30 am 06:00 pm","https://secondcup.com/location/simcoe-place"
"https://secondcup.com","King & John","287-289 King Street West","Toronto","ON","M5V 1J5","CA","<MISSING>","416-340-9386","Cafe","<MISSING>","<MISSING>","Monday 6:00 am 11:00 pm Tuesday 6:00 am 11:00 pm Wednesday 6:00 am 11:00 pm Thursday 6:00 am 11:00 pm Friday 6:00 am 12:00 am Saturday 7:00 am 12:00 am Sunday 7:00 am 11:00 pm","https://secondcup.com/location/king-john"
"https://secondcup.com","The Pinnacle","39 Bay Street","Toronto","ON","M5J 3B2","CA","<MISSING>","416-941 9594","Cafe","<MISSING>","<MISSING>","Monday 6:00 am 11:00 pm Tuesday 6:00 am 11:00 pm Wednesday 6:00 am 11:00 pm Thursday 6:00 am 11:00 pm Friday 6:00 am 11:00 pm Saturday 7:00 am 11:00 am Sunday 8:00 am 11:00 pm","https://secondcup.com/location/pinnacle"
"https://secondcup.com","Lloydminster","1404 50th Avenue, Unit 5","Lloydminster","AB","T9V 2K5","CA","<MISSING>","780-875-7779","Cafe","<MISSING>","<MISSING>","Monday 5:00 am 10:00 pm Tuesday 5:00 am 10:00 pm Wednesday 5:00 am 10:00 pm Thursday 5:00 am 10:00 pm Friday 5:00 am 10:00 pm Saturday 6:00 am 10:00 pm Sunday 6:00 am 10:00 pm","https://secondcup.com/location/lloydminster"
"https://secondcup.com","Doctor's Hospital","340 College Street","Toronto","ON","M5T 3A9","CA","<MISSING>","416-966-9156","Cafe","<MISSING>","<MISSING>","Monday 6:30 am 07:00 pm Tuesday 6:30 am 07:00 pm Wednesday 6:30 am 07:00 pm Thursday 6:30 am 07:00 pm Friday 6:30 am 07:00 pm Saturday 7:00 am 06:00 pm Sunday 8:00 am 06:00 pm","https://secondcup.com/location/doctors-hospital"
"https://secondcup.com","U of T - Koffler Centre","214 College St.","Toronto","ON","M5T 2Z9","CA","<MISSING>","416-847-0443","Cafe","<MISSING>","<MISSING>","Monday 7:00 am 06:00 pm Tuesday 7:00 am 06:00 pm Wednesday 7:00 am 06:00 pm Thursday 7:00 am 06:00 pm Friday 7:00 am 05:00 pm","https://secondcup.com/location/u-t-koffler-centre"
"https://secondcup.com","179 College Street","179 College Street","Toronto","ON","M5T 1P7","CA","<MISSING>","416-595-0244","Cafe","<MISSING>","<MISSING>","Monday 7:00 am 11:00 pm Tuesday 7:00 am 11:00 pm Wednesday 7:00 am 11:00 pm Thursday 7:00 am 11:00 pm Friday 7:00 am 11:00 pm Saturday 7:00 am 11:00 pm Sunday 7:00 am 11:00 pm","https://secondcup.com/location/179-college-street"
"https://secondcup.com","307 Queen Street West","307 Queen Street West","Toronto","ON","M5V 2A4","CA","<MISSING>","416-591-9179","Cafe","<MISSING>","<MISSING>","Monday 6:30 am 08:30 pm Tuesday 6:30 am 08:30 pm Wednesday 6:30 am 08:30 pm Thursday 6:30 am 08:30 pm Friday 6:30 am 08:30 pm Saturday 8:00 am 08:00 pm Sunday 8:00 am 08:00 pm","https://secondcup.com/location/307-queen-street-west"
"https://secondcup.com","145 King Street West","145 King Street West","Toronto","ON","M5H 1J8","CA","<MISSING>","416-860-1476","Cafe","<MISSING>","<MISSING>","Monday 6:00 am 06:00 pm Tuesday 6:00 am 06:00 pm Wednesday 6:00 am 06:00 pm Thursday 6:00 am 06:00 pm Friday 6:00 am 06:00 pm","https://secondcup.com/location/145-king-street-west"
"https://secondcup.com","Hazeldean Mall","300 Eagleson Road","Kanata","ON","K2M 1C9","CA","<MISSING>","613-592-9237","Cafe","<MISSING>","<MISSING>","Monday 10:30 am 07:00 pm Tuesday 10:30 am 07:00 pm Wednesday 10:30 am 07:00 pm Thursday 10:30 am 07:00 pm Friday 10:30 am 07:00 pm Saturday 10:30 am 06:00 pm Sunday 10:00 am 05:00 pm","https://secondcup.com/location/hazeldean-mall"
"https://secondcup.com","Toronto Eaton Centre, Level One","1 Dundas Street West","Toronto","ON","M5G 1Z3","CA","<MISSING>","416-345-9452","Cafe","<MISSING>","<MISSING>","Monday 7:00 am 09:30 pm Tuesday 7:00 am 09:30 pm Wednesday 7:00 am 09:30 pm Thursday 7:00 am 09:30 pm Friday 7:00 am 09:30 pm Saturday 8:00 am 09:00 pm Sunday 9:30 am 07:00 pm","https://secondcup.com/location/toronto-eaton-centre-level-one"
"https://secondcup.com","Toronto Eaton Centre, Level 3","220 Yonge Street PO Box 3037","Toronto","ON","M5B 2H1","CA","<MISSING>","416-593-0847","Cafe","<MISSING>","<MISSING>","Monday 6:00 am 09:00 pm Tuesday 6:00 am 09:00 pm Wednesday 6:00 am 09:00 pm Thursday 6:00 am 09:00 pm Friday 6:00 am 09:00 pm Saturday 9:00 am 07:00 pm Sunday 11:00 am 06:00 pm","https://secondcup.com/location/toronto-eaton-centre-level-3"
"https://secondcup.com","U of T - Sidney Smith","100 St. George Street","Toronto","ON","M5S 2E8","CA","<MISSING>","416-593-4496","Cafe","<MISSING>","<MISSING>","Monday 7:00 am 09:00 pm Tuesday 7:00 am 09:00 pm Wednesday 7:00 am 09:00 pm Thursday 7:00 am 09:00 pm Friday 7:00 am 06:00 pm Saturday 8:30 am 04:00 pm","https://secondcup.com/location/u-t-sidney-smith"
"https://secondcup.com","Cascade Plaza","317 Banff Ave","Banff","AB","T1L 1A1","CA","<MISSING>","403 985-1355","Cafe","<MISSING>","<MISSING>","Monday 7:00 am 09:00 pm Tuesday 7:00 am 09:00 pm Wednesday 7:00 am 09:00 pm Thursday 7:00 am 09:00 pm Friday 7:00 am 09:00 pm Saturday 7:00 am 09:00 pm Sunday 7:00 am 09:00 pm","https://secondcup.com/location/cascade-plaza"
"https://secondcup.com","Mount Sinai Hospital","600 University Avenue, Room #202","Toronto","ON","M5G 1X5","CA","<MISSING>","416-586-4800","Cafe","<MISSING>","<MISSING>","Monday 12:00 am 11:59 pm Tuesday 12:00 am 11:59 pm Wednesday 12:00 am 11:59 pm Thursday 12:00 am 11:59 pm Friday 6:00 am 09:00 pm Saturday 6:00 am 09:00 pm Sunday 6:00 am 09:00 pm","https://secondcup.com/location/mount-sinai-hospital"
"https://secondcup.com","U of T -  Leslie Dan Pharmacy Building","144 College St","Toronto","ON","M5S 3M2","CA","<MISSING>","416-506-1537","Cafe","<MISSING>","<MISSING>","Monday 7:30 am 07:00 pm Tuesday 7:30 am 07:00 pm Wednesday 7:30 am 07:00 pm Thursday 7:30 am 07:00 pm Friday 7:30 am 07:00 pm","https://secondcup.com/location/u-t-leslie-dan-pharmacy-building"
