"locator_domain","location_name","street_address","city","state","zip","country_code","store_number","phone","location_type","latitude","longitude","hours_of_operation","page_url"
"https://www.extendedstayamerica.com","Birmingham - Wildwood","40 State Farm Pkwy.","Birmingham","AL","35209","US","410","+1.205.290.0102","Extended Stay America","33.454629","-86.819375","Open 24 hours a day, seven days a week","https://www.extendedstayamerica.com/hotels/al/birmingham/wildwood"
"https://www.extendedstayamerica.com","Birmingham - Inverness","101 Cahaba Park Cir.","Birmingham","AL","35242","US","409","+1.205.408.0107","Extended Stay America","33.430354","-86.705946","Open 24 hours a day, seven days a week","https://www.extendedstayamerica.com/hotels/al/birmingham/inverness"
"https://www.extendedstayamerica.com","Birmingham - Perimeter Park South","12 Perimeter Park S.","Birmingham","AL","35243","US","46","+1.205.967.3800","Extended Stay America","33.4357","-86.7239","Open 24 hours a day, seven days a week","https://www.extendedstayamerica.com/hotels/al/birmingham/perimeter-park"
"https://www.extendedstayamerica.com","Montgomery - Carmichael Rd.","5115 Carmichael Rd.","Montgomery","AL","36106","US","411","+1.334.273.0075","Extended Stay America","32.3599","-86.2174","Open 24 hours a day, seven days a week","https://www.extendedstayamerica.com/hotels/al/montgomery/carmichael-rd"
"https://www.extendedstayamerica.com","Montgomery - Eastern Blvd.","2491 Eastern Blvd.","Montgomery","AL","36117","US","547","+1.334.279.1204","Extended Stay America","32.347972","-86.221004","Open 24 hours a day, seven days a week","https://www.extendedstayamerica.com/hotels/al/montgomery/eastern-blvd"
"https://www.extendedstayamerica.com","Huntsville - U.S. Space and Rocket Center","4751 Governor's House Dr.","Huntsville","AL","35805","US","548","+1.256.830.9110","Extended Stay America","34.7125","-86.6215","Open 24 hours a day, seven days a week","https://www.extendedstayamerica.com/hotels/al/huntsville/us-space-and-rocket-center"
"https://www.extendedstayamerica.com","Chattanooga - Airport","6240 Airpark Dr.","Chattanooga","TN","37421","US","821","+1.423.892.1315","Extended Stay America","35.0344","-85.185491","Open 24 hours a day, seven days a week","https://www.extendedstayamerica.com/hotels/tn/chattanooga/airport"
"https://www.extendedstayamerica.com","Nashville - Franklin - Cool Springs","680 Bakers Bridge Ave.","Franklin","TN","37067","US","80","+1.615.771.7600","Extended Stay America","35.9605","-86.8084","Open 24 hours a day, seven days a week","https://www.extendedstayamerica.com/hotels/tn/nashville/franklin-cool-springs"
"https://www.extendedstayamerica.com","Nashville - Airport - Music City","727 McGavock Pike","Nashville","TN","37214","US","77","+1.615.316.9020","Extended Stay America","36.1487","-86.6838","Open 24 hours a day, seven days a week","https://www.extendedstayamerica.com/hotels/tn/nashville/airport-music-city"
"https://www.extendedstayamerica.com","Nashville - Brentwood","9025 Church St. E.","Brentwood","TN","37027","US","481","+1.615.373.4272","Extended Stay America","36.033517","-86.7809","Open 24 hours a day, seven days a week","https://www.extendedstayamerica.com/hotels/tn/nashville/brentwood"
"https://www.extendedstayamerica.com","Nashville - Brentwood - South","9020 Church St. E.","Brentwood","TN","37027","US","824","<MISSING>","Extended Stay America","36.033541","-86.781242","Open 24 hours a day, seven days a week","https://www.extendedstayamerica.com/hotels/tn/nashville/brentwood-south"
"https://www.extendedstayamerica.com","Nashville - Vanderbilt","3311 West End Ave.","Nashville","TN","37203","US","818","+1.615.383.7490","Extended Stay America","36.140805","-86.8176","Open 24 hours a day, seven days a week","https://www.extendedstayamerica.com/hotels/tn/nashville/vanderbilt"
"https://www.extendedstayamerica.com","Nashville - Airport - Elm Hill Pike","2511 Elm Hill Pike","Nashville","TN","37214","US","479","<MISSING>","Extended Stay America","36.152174","-86.680804","Open 24 hours a day, seven days a week","https://www.extendedstayamerica.com/hotels/tn/nashville/airport-elm-hill-pike"
"https://www.extendedstayamerica.com","Nashville - Airport","2525 Elm Hill Pike","Nashville","TN","37214","US","817","+1.615.883.7667","Extended Stay America","36.152109","-86.680244","Open 24 hours a day, seven days a week","https://www.extendedstayamerica.com/hotels/tn/nashville/airport"
"https://www.extendedstayamerica.com","Mobile - Spring Hill","508 Spring Hill Plaza Ct.","Mobile","AL","36608","US","549","+1.251.344.2514","Extended Stay America","30.70416","-88.1244","Open 24 hours a day, seven days a week","https://www.extendedstayamerica.com/hotels/al/mobile/spring-hill"
"https://www.extendedstayamerica.com","Pensacola - University Mall","809 Bloodworth Ln.","Pensacola","FL","32504","US","630","+1.850.473.9323","Extended Stay America","30.499663","-87.2214","Open 24 hours a day, seven days a week","https://www.extendedstayamerica.com/hotels/fl/pensacola/university-mall"
"https://www.extendedstayamerica.com","Columbus - Bradley Park","1721 Rollins Way","Columbus","GA","31904","US","632","+1.706.653.9938","Extended Stay America","32.536","-84.9697","Open 24 hours a day, seven days a week","https://www.extendedstayamerica.com/hotels/ga/columbus/bradley-park"
"https://www.extendedstayamerica.com","Columbus - Airport","5020 Armour Rd.","Columbus","GA","31904","US","639","+1.706.653.0131","Extended Stay America","32.513384","-84.9537","Open 24 hours a day, seven days a week","https://www.extendedstayamerica.com/hotels/ga/columbus/airport"
"https://www.extendedstayamerica.com","Anchorage - Midtown","700 East 34th Avenue","Anchorage","AK","99503","US","960","+1.907.646.4208","Extended Stay America","61.1895","-149.8709","Open 24 hours a day, seven days a week","https://www.extendedstayamerica.com/hotels/ak/anchorage/midtown"
"https://www.extendedstayamerica.com","Anchorage - Downtown","108 East 8th Avenue","Anchorage","AK","99501","US","965","+1.907.868.1605","Extended Stay America","61.2146","-149.8831","Open 24 hours a day, seven days a week","https://www.extendedstayamerica.com/hotels/ak/anchorage/downtown"
"https://www.extendedstayamerica.com","Fairbanks - Old Airport Way","4580  Old Airport Way","Fairbanks","AK","99709","US","964","+1.907.457.2288","Extended Stay America","64.8354","-147.8226","Open 24 hours a day, seven days a week","https://www.extendedstayamerica.com/hotels/ak/fairbanks/old-airport-way"
"https://www.extendedstayamerica.com","Juneau - Shell Simmons Drive","1800 Shell Simmons Drive","Juneau","AK","99801","US","963","+1.907.790.6435","Extended Stay America","58.3629","-134.581","Open 24 hours a day, seven days a week","https://www.extendedstayamerica.com/hotels/ak/juneau/shell-simmons-drive"
"https://www.extendedstayamerica.com","Phoenix - Chandler Downtown","2055 W Chandler Blvd","Chandler","AZ","85224","US","988","480.681.1002","Extended Stay America","33.305917","-111.876971","Open 24 hours a day, seven days a week","https://www.extendedstayamerica.com/hotels/az/phoenix/chandler-downtown"
"https://www.extendedstayamerica.com","Phoenix - Airport - Tempe","2165 W. 15th","Tempe","AZ","85281","US","122","+1.480.557.8880","Extended Stay America","33.4122","-111.972345","Open 24 hours a day, seven days a week","https://www.extendedstayamerica.com/hotels/az/phoenix/airport-tempe"
"https://www.extendedstayamerica.com","Phoenix - Biltmore","5235 N. 16th St.","Phoenix","AZ","85016","US","956","+1.602.265.6800","Extended Stay America","33.513949","-112.047484","Open 24 hours a day, seven days a week","https://www.extendedstayamerica.com/hotels/az/phoenix/biltmore"
"https://www.extendedstayamerica.com","Phoenix - Airport - E. Oak St.","4357 East Oak Street","Phoenix","AZ","85008","US","892","+1.602.225.2998","Extended Stay America","33.472998","-111.98797","Open 24 hours a day, seven days a week","https://www.extendedstayamerica.com/hotels/az/phoenix/airport-e-oak-st"
"https://www.extendedstayamerica.com","Phoenix - Airport","3421 E. Elwood St.","Phoenix","AZ","85040","US","555","+1.602.438.2900","Extended Stay America","33.4145","-112.00677","Open 24 hours a day, seven days a week","https://www.extendedstayamerica.com/hotels/az/phoenix/airport"
"https://www.extendedstayamerica.com","Phoenix - Midtown","217 West Osborn Road","Phoenix","AZ","85013","US","895","<MISSING>","Extended Stay America","33.487448","-112.0768","Open 24 hours a day, seven days a week","https://www.extendedstayamerica.com/hotels/az/phoenix/midtown"
"https://www.extendedstayamerica.com","Phoenix - Chandler","14245 S. 50th St.","Phoenix","AZ","85044","US","552","<MISSING>","Extended Stay America","33.3192","-111.976088","Open 24 hours a day, seven days a week","https://www.extendedstayamerica.com/hotels/az/phoenix/chandler"
"https://www.extendedstayamerica.com","Phoenix - Scottsdale","10660 N. 69th St.","Scottsdale","AZ","85254","US","941","+1.480.483.1333","Extended Stay America","33.583275","-111.932443","Open 24 hours a day, seven days a week","https://www.extendedstayamerica.com/hotels/az/phoenix/scottsdale"
"https://www.extendedstayamerica.com","Phoenix - Scottsdale - Old Town","3560 N. Marshall Way","Scottsdale","AZ","85251","US","106","+1.480.994.0297","Extended Stay America","33.489162","-111.928236","Open 24 hours a day, seven days a week","https://www.extendedstayamerica.com/hotels/az/phoenix/scottsdale-old-town"
"https://www.extendedstayamerica.com","Phoenix - Deer Valley","20827 N. 27th Ave.","Phoenix","AZ","85027","US","554","+1.623.879.6609","Extended Stay America","33.6754","-112.1172","Open 24 hours a day, seven days a week","https://www.extendedstayamerica.com/hotels/az/phoenix/deer-valley"
"https://www.extendedstayamerica.com","Phoenix - Scottsdale - North","15501 N. Scottsdale Rd.","Scottsdale","AZ","85254","US","553","+1.480.607.3767","Extended Stay America","33.626664","-111.925484","Open 24 hours a day, seven days a week","https://www.extendedstayamerica.com/hotels/az/phoenix/scottsdale-north"
"https://www.extendedstayamerica.com","Phoenix - Mesa","455 W. Baseline Rd.","Mesa","AZ","85210","US","556","+1.480.632.0201","Extended Stay America","33.378677","-111.842374","Open 24 hours a day, seven days a week","https://www.extendedstayamerica.com/hotels/az/phoenix/mesa"
"https://www.extendedstayamerica.com","Phoenix - Chandler - E. Chandler Blvd.","5035 E. Chandler Blvd.","Phoenix","AZ","85048","US","893","+1.480.753.6700","Extended Stay America","33.305198","-111.97499","Open 24 hours a day, seven days a week","https://www.extendedstayamerica.com/hotels/az/phoenix/e-chandler-blvd"
"https://www.extendedstayamerica.com","Phoenix - Peoria","7345 W. Bell Rd.","Peoria","AZ","85382","US","558","<MISSING>","Extended Stay America","33.638231","-112.216019","Open 24 hours a day, seven days a week","https://www.extendedstayamerica.com/hotels/az/phoenix/peoria"
"https://www.extendedstayamerica.com","Phoenix - Mesa - West","1920 W. Isabella ","Mesa","AZ","85202","US","66","+1.480.752.2266","Extended Stay America","33.382351","-111.8743","Open 24 hours a day, seven days a week","https://www.extendedstayamerica.com/hotels/az/phoenix/mesa-west"
"https://www.extendedstayamerica.com","Tucson - Grant Road","5050 E. Grant Rd.","Tucson","AZ","85712","US","557","+1.520.795.9510","Extended Stay America","32.250623","-110.88508","Open 24 hours a day, seven days a week","https://www.extendedstayamerica.com/hotels/az/tucson/grant-road"
"https://www.extendedstayamerica.com","Fayetteville - Springdale","5000 Luvene Ave.","Springdale","AR","72762","US","550","+1.479.872.1490","Extended Stay America","36.167628","-94.184805","Open 24 hours a day, seven days a week","https://www.extendedstayamerica.com/hotels/ar/fayetteville/springdale"
"https://www.extendedstayamerica.com","Springfield - South","1333 E. Kingsley St.","Springfield","MO","65804","US","726","+1.417.823.9100","Extended Stay America","37.14039","-93.2741","Open 24 hours a day, seven days a week","https://www.extendedstayamerica.com/hotels/mo/springfield/south"
"https://www.extendedstayamerica.com","Tulsa - Midtown","7901 E. 31st Ct. S.","Tulsa","OK","74145","US","473","+1.918.660.2890","Extended Stay America","36.11825","-95.88925","Open 24 hours a day, seven days a week","https://www.extendedstayamerica.com/hotels/ok/tulsa/midtown"
"https://www.extendedstayamerica.com","Tulsa - Central","3414 S. 79th E. Ave.","Tulsa","OK","74145","US","792","+1.918.664.9494","Extended Stay America","36.114089","-95.892106","Open 24 hours a day, seven days a week","https://www.extendedstayamerica.com/hotels/ok/tulsa/central"
"https://www.extendedstayamerica.com","Little Rock - West Little Rock","10800 Kanis Rd.","Little Rock","AR","72211","US","412","+1.501.227.8689","Extended Stay America","34.743099","-92.395015","Open 24 hours a day, seven days a week","https://www.extendedstayamerica.com/hotels/ar/little-rock/west-little-rock"
"https://www.extendedstayamerica.com","Little Rock - Financial Centre Parkway","600 Hardin Rd.","Little Rock","AR","72211","US","551","+1.501.954.9199","Extended Stay America","34.748318","-92.398471","Open 24 hours a day, seven days a week","https://www.extendedstayamerica.com/hotels/ar/little-rock/financial-centre-parkway"
"https://www.extendedstayamerica.com","Bakersfield - Chester Lane","3600 Chester Lane","Bakersfield","CA","93309","US","962","+1.661.328.8181","Extended Stay America","35.3653","-119.0456","Open 24 hours a day, seven days a week","https://www.extendedstayamerica.com/hotels/ca/bakersfield/chester-lane"
"https://www.extendedstayamerica.com","Bakersfield - California Avenue","3318 California Ave.","Bakersfield","CA","93304","US","587","+1.661.322.6888","Extended Stay America","35.3687","-119.0397","Open 24 hours a day, seven days a week","https://www.extendedstayamerica.com/hotels/ca/bakersfield/california-avenue"
"https://www.extendedstayamerica.com","Los Angeles - Valencia","24940 Pico Canyon Rd.","Stevenson Ranch","CA","91381","US","578","+1.661.255.1044","Extended Stay America","34.3813","-118.572","Open 24 hours a day, seven days a week","https://www.extendedstayamerica.com/hotels/ca/los-angeles/valencia"
"https://www.extendedstayamerica.com","Los Angeles - Simi Valley","2498 Stearns St.","Simi Valley","CA","93063","US","886","+1.805.584.8880","Extended Stay America","34.279698","-118.691421","Open 24 hours a day, seven days a week","https://www.extendedstayamerica.com/hotels/ca/los-angeles/simi-valley"
"https://www.extendedstayamerica.com","Santa Barbara - Calle Real","4870 Calle Real","Santa Barbara","CA","93111","US","597","+1.805.692.1882","Extended Stay America","34.442861","-119.791409","Open 24 hours a day, seven days a week","https://www.extendedstayamerica.com/hotels/ca/santa-barbara/calle-real"
"https://www.extendedstayamerica.com","Los Angeles - Northridge","19325 Londelius St.","Northridge","CA","91324","US","957","+1.818.734.1787","Extended Stay America","34.229838","-118.554148","Open 24 hours a day, seven days a week","https://www.extendedstayamerica.com/hotels/ca/los-angeles/northridge"
"https://www.extendedstayamerica.com","Los Angeles - Woodland Hills","20205 Ventura Blvd.","Woodland Hills","CA","91364","US","545","+1.818.710.1170","Extended Stay America","34.170019","-118.57345","Open 24 hours a day, seven days a week","https://www.extendedstayamerica.com/hotels/ca/los-angeles/woodland-hills"
"https://www.extendedstayamerica.com","Los Angeles - Burbank Airport","2200 Empire Ave.","Burbank","CA","91504","US","574","+1.818.567.0952","Extended Stay America","34.19177","-118.33486","Open 24 hours a day, seven days a week","https://www.extendedstayamerica.com/hotels/ca/los-angeles/burbank-airport"
"https://www.extendedstayamerica.com","Los Angeles - Glendale","1377 W. Glenoaks Blvd.","Glendale","CA","91201","US","42","+1.818.956.6665","Extended Stay America","34.167099","-118.284096","Open 24 hours a day, seven days a week","https://www.extendedstayamerica.com/hotels/ca/los-angeles/glendale"
"https://www.extendedstayamerica.com","Fresno - North","7135 N. Fresno St.","Fresno","CA","93720","US","605","+1.559.438.7105","Extended Stay America","36.8407","-119.7822","Open 24 hours a day, seven days a week","https://www.extendedstayamerica.com/hotels/ca/fresno/north"
"https://www.extendedstayamerica.com","Los Angeles - South","18602 S. Vermont Ave.","Gardena","CA","90248","US","507","+1.310.515.5139","Extended Stay America","33.861998","-118.290557","Open 24 hours a day, seven days a week","https://www.extendedstayamerica.com/hotels/ca/los-angeles/south"
"https://www.extendedstayamerica.com","Los Angeles - LAX Airport - El Segundo","1910 E. Mariposa Ave.","El Segundo","CA","90245","US","35","+1.310.607.4000","Extended Stay America","33.923538","-118.395961","Open 24 hours a day, seven days a week","https://www.extendedstayamerica.com/hotels/ca/los-angeles/lax-airport-el-segundo"
"https://www.extendedstayamerica.com","Los Angeles - LAX Airport","6531 S. Sepulveda Blvd.","Los Angeles","CA","90045","US","604","+1.310.568.9337","Extended Stay America","33.9806","-118.394663","Open 24 hours a day, seven days a week","https://www.extendedstayamerica.com/hotels/ca/los-angeles/lax-airport"
"https://www.extendedstayamerica.com","Los Angeles - Torrance Harborgate Way","19200 Harborgate Way","Torrance","CA","90501","US","544","+1.310.328.6000","Extended Stay America","33.8555","-118.30354","Open 24 hours a day, seven days a week","https://www.extendedstayamerica.com/hotels/ca/los-angeles/torrance-harbor-gateway"
"https://www.extendedstayamerica.com","Los Angeles - Monrovia","930 S. 5th Ave.","Monrovia","CA","91016","US","71","+1.626.256.6999","Extended Stay America","34.1418","-118.0205","Open 24 hours a day, seven days a week","https://www.extendedstayamerica.com/hotels/ca/los-angeles/monrovia"
"https://www.extendedstayamerica.com","Los Angeles - La Mirada","14775 Firestone Blvd.","La Mirada","CA","90638","US","568","+1.714.670.8579","Extended Stay America","33.877895","-118.016899","Open 24 hours a day, seven days a week","https://www.extendedstayamerica.com/hotels/ca/los-angeles/la-mirada"
"https://www.extendedstayamerica.com","Los Angeles - Carson","401 E. Albertoni St.","Carson","CA","90746","US","887","+1.310.323.2080","Extended Stay America","33.871448","-118.2701","Open 24 hours a day, seven days a week","https://www.extendedstayamerica.com/hotels/ca/los-angeles/carson"
"https://www.extendedstayamerica.com","Los Angeles - Arcadia","401 E. Santa Clara St.","Arcadia","CA","91006","US","593","+1.626.446.6422","Extended Stay America","34.142268","-118.0221","Open 24 hours a day, seven days a week","https://www.extendedstayamerica.com/hotels/ca/los-angeles/arcadia"
"https://www.extendedstayamerica.com","Orange County - Cypress","5990 Corporate Ave.","Cypress","CA","90630","US","26","+1.714.761.2766","Extended Stay America","33.808002","-118.028292","Open 24 hours a day, seven days a week","https://www.extendedstayamerica.com/hotels/ca/orange-county/cypress"
"https://www.extendedstayamerica.com","Los Angeles - Torrance Blvd.","3525 Torrance Blvd.","Torrance","CA","90503","US","588","+1.310.540.5442","Extended Stay America","33.837549","-118.347699","Open 24 hours a day, seven days a week","https://www.extendedstayamerica.com/hotels/ca/los-angeles/torrance-blvd"
"https://www.extendedstayamerica.com","Los Angeles - Torrance - Del Amo Circle","3995 Carson St.","Torrance","CA","90503","US","124","+1.310.543.0048","Extended Stay America","33.8313","-118.3559","Open 24 hours a day, seven days a week","https://www.extendedstayamerica.com/hotels/ca/los-angeles/torrance-del-amo-circle"
"https://www.extendedstayamerica.com","Los Angeles - Long Beach Airport","4105 E. Willow St.","Long Beach","CA","90815","US","594","+1.562.989.4601","Extended Stay America","33.80334","-118.1445","Open 24 hours a day, seven days a week","https://www.extendedstayamerica.com/hotels/ca/los-angeles/long-beach-airport"
"https://www.extendedstayamerica.com","Los Angeles - San Dimas","601 W. Bonita Ave.","San Dimas","CA","91773","US","601","+1.909.394.1022","Extended Stay America","34.106546","-117.8178","Open 24 hours a day, seven days a week","https://www.extendedstayamerica.com/hotels/ca/los-angeles/san-dimas"
"https://www.extendedstayamerica.com","Orange County - Anaheim Convention Center","1742 S. Clementine St.","Anaheim","CA","92802","US","543","+1.714.502.9988","Extended Stay America","33.805335","-117.909911","Open 24 hours a day, seven days a week","https://www.extendedstayamerica.com/hotels/ca/orange-county/anaheim"
"https://www.extendedstayamerica.com","Orange County - Huntington Beach","5050 Skylab West Cir.","Huntington Beach","CA","92647","US","599","+1.714.799.4887","Extended Stay America","33.7483","-118.0406","Open 24 hours a day, seven days a week","https://www.extendedstayamerica.com/hotels/ca/orange-county/huntington-beach"
"https://www.extendedstayamerica.com","Orange County - Brea","3050 E. Imperial Hwy.","Brea","CA","92821","US","15","+1.714.528.2500","Extended Stay America","33.911097","-117.85643","Open 24 hours a day, seven days a week","https://www.extendedstayamerica.com/hotels/ca/orange-county/brea"
"https://www.extendedstayamerica.com","Los Angeles - Chino Valley","4325 Corporate Center Ave.","Chino","CA","91710","US","885","+1.909.597.8675","Extended Stay America","33.9863","-117.7106","Open 24 hours a day, seven days a week","https://www.extendedstayamerica.com/hotels/ca/los-angeles/chino-valley"
"https://www.extendedstayamerica.com","Orange County - Katella Ave.","1635 W. Katella Ave.","Orange","CA","92867","US","569","+1.714.639.8608","Extended Stay America","33.8073","-117.8697","Open 24 hours a day, seven days a week","https://www.extendedstayamerica.com/hotels/ca/orange-county/katella-ave"
"https://www.extendedstayamerica.com","Orange County - Anaheim Hills","1031 N Link (Formerly 1031 N.Pacificenter Dr.)","Anaheim","CA","92806","US","562","+1.714.630.4006","Extended Stay America","33.853586","-117.838956","Open 24 hours a day, seven days a week","https://www.extendedstayamerica.com/hotels/ca/orange-county/anaheim-hills"
"https://www.extendedstayamerica.com","Orange County - Yorba Linda","22711 Oakcrest Cir.","Yorba Linda","CA","92887","US","576","+1.714.998.9060","Extended Stay America","33.8718","-117.741","Open 24 hours a day, seven days a week","https://www.extendedstayamerica.com/hotels/ca/orange-county/yorba-linda"
"https://www.extendedstayamerica.com","Orange County - John Wayne Airport","4881 Birch St.","Newport Beach","CA","92660","US","598","+1.949.851.2711","Extended Stay America","33.6678","-117.86113","Open 24 hours a day, seven days a week","https://www.extendedstayamerica.com/hotels/ca/orange-county/john-wayne-airport"
"https://www.extendedstayamerica.com","Los Angeles - Ontario Airport","3990 Inland Empire Blvd","Ontario","CA","91764","US","592","+1.909.944.8900","Extended Stay America","34.0704","-117.5614","Open 24 hours a day, seven days a week","https://www.extendedstayamerica.com/hotels/ca/los-angeles/ontario-airport"
"https://www.extendedstayamerica.com","Orange County - Irvine Spectrum","30 Technology Dr.","Irvine","CA","92618","US","115","+1.949.727.4228","Extended Stay America","33.64888","-117.73593","Open 24 hours a day, seven days a week","https://www.extendedstayamerica.com/hotels/ca/orange-county/irvine-spectrum"
"https://www.extendedstayamerica.com","Orange County - Lake Forest","20251 Lake Forest Dr.","Lake Forest","CA","92630","US","546","+1.949.598.1898","Extended Stay America","33.668014","-117.6619","Open 24 hours a day, seven days a week","https://www.extendedstayamerica.com/hotels/ca/orange-county/lake-forest"
"https://www.extendedstayamerica.com","Temecula - Wine Country","27622 Jefferson Ave.","Temecula","CA","92590","US","581","+1.951.587.8881","Extended Stay America","33.516756","-117.1612","Open 24 hours a day, seven days a week","https://www.extendedstayamerica.com/hotels/ca/temecula/wine-country"
"https://www.extendedstayamerica.com","San Diego - Oceanside","3190 Vista Way","Oceanside","CA","92056","US","584","+1.760.439.1499","Extended Stay America","33.1826","-117.3229","Open 24 hours a day, seven days a week","https://www.extendedstayamerica.com/hotels/ca/san-diego/oceanside"
"https://www.extendedstayamerica.com","San Diego - Carlsbad Village by the Sea","1050 Grand Ave.","Carlsbad","CA","92008","US","563","+1.760.729.9380","Extended Stay America","33.163799","-117.3443","Open 24 hours a day, seven days a week","https://www.extendedstayamerica.com/hotels/ca/san-diego/carlsbad-village-by-the-sea"
"https://www.extendedstayamerica.com","Palm Springs - Airport","1400 E. Tahquitz Canyon Way","Palm Springs","CA","92262","US","567","+1.760.416.0084","Extended Stay America","33.823257","-116.530718","Open 24 hours a day, seven days a week","https://www.extendedstayamerica.com/hotels/ca/palm-springs/airport"
"https://www.extendedstayamerica.com","Oakland - Alameda","1350 Marina Village Pkwy.","Alameda","CA","94501","US","566","+1.510.864.1333","Extended Stay America","37.787516","-122.275126","Open 24 hours a day, seven days a week","https://www.extendedstayamerica.com/hotels/ca/oakland/alameda"
"https://www.extendedstayamerica.com","Richmond - Hilltop Mall","3170 Garrity Way","Richmond","CA","94806","US","583","+1.510.222.7383","Extended Stay America","37.978133","-122.321981","Open 24 hours a day, seven days a week","https://www.extendedstayamerica.com/hotels/ca/oakland/hilltop-mall"
"https://www.extendedstayamerica.com","San Ramon - Bishop Ranch - East","2100 Camino Ramon","San Ramon","CA","94583","US","571","+1.925.242.0991","Extended Stay America","37.778099","-121.968076","Open 24 hours a day, seven days a week","https://www.extendedstayamerica.com/hotels/ca/oakland/bishop-ranch-east"
"https://www.extendedstayamerica.com","San Francisco - Belmont","120 Sem Ln.","Belmont","CA","94002","US","565","+1.650.654.0344","Extended Stay America","37.524612","-122.2669","Open 24 hours a day, seven days a week","https://www.extendedstayamerica.com/hotels/ca/oakland/belmont"
"https://www.extendedstayamerica.com","Pleasant Hill - Buskirk Ave.","3220 Buskirk Ave.","Pleasant Hill","CA","94523","US","586","+1.925.945.6788","Extended Stay America","37.9338","-122.0594","Open 24 hours a day, seven days a week","https://www.extendedstayamerica.com/hotels/ca/oakland/buskirk-ave"
"https://www.extendedstayamerica.com","San Francisco - San Mateo - SFO","1830 Gateway Dr.","San Mateo","CA","94404","US","112","<MISSING>","Extended Stay America","37.5576","-122.2805","Open 24 hours a day, seven days a week","https://www.extendedstayamerica.com/hotels/ca/oakland/san-mateo-sfo"
"https://www.extendedstayamerica.com","San Francisco - San Carlos","3 Circle Star Way","San Carlos","CA","94070","US","72","+1.650.368.2600","Extended Stay America","37.4979","-122.2407","Open 24 hours a day, seven days a week","https://www.extendedstayamerica.com/hotels/ca/oakland/san-carlos"
"https://www.extendedstayamerica.com","Union City - Dyer St.","31950 Dyer St.","Union City","CA","94587","US","585","+1.510.441.9616","Extended Stay America","37.5939","-122.0695","Open 24 hours a day, seven days a week","https://www.extendedstayamerica.com/hotels/ca/oakland/dyer-st"
"https://www.extendedstayamerica.com","San Ramon - Bishop Ranch - West","18000 San Ramon Valley Blvd.","San Ramon","CA","94583","US","116","+1.925.277.0833","Extended Stay America","37.7599","-121.968054","Open 24 hours a day, seven days a week","https://www.extendedstayamerica.com/hotels/ca/oakland/bishop-ranch-west"
"https://www.extendedstayamerica.com","Fremont - Newark","5375 Farwell Pl.","Fremont","CA","94536","US","414","+1.510.794.9693","Extended Stay America","37.5332","-122.0021","Open 24 hours a day, seven days a week","https://www.extendedstayamerica.com/hotels/ca/san-jose/newark"
"https://www.extendedstayamerica.com","Fremont - Warm Springs","46312 Mission Blvd.","Fremont","CA","94539","US","596","+1.510.979.1222","Extended Stay America","37.4927","-121.9261","Open 24 hours a day, seven days a week","https://www.extendedstayamerica.com/hotels/ca/san-jose/warm-springs"
"https://www.extendedstayamerica.com","Pleasanton - Chabot Dr.","4555 Chabot Drive","Pleasanton","CA","94588","US","942","+1.925.730.0000","Extended Stay America","37.6898","-121.901542","Open 24 hours a day, seven days a week","https://www.extendedstayamerica.com/hotels/ca/oakland/chabot-dr"
"https://www.extendedstayamerica.com","Dublin - Hacienda Dr.","4500 Dublin Blvd.","Dublin","CA","94568","US","595","+1.925.875.9556","Extended Stay America","37.705714","-121.879972","Open 24 hours a day, seven days a week","https://www.extendedstayamerica.com/hotels/ca/oakland/hacienda-dr"
"https://www.extendedstayamerica.com","San Jose - Sunnyvale","1255 Orleans Dr.","Sunnyvale","CA","94089","US","120","+1.408.734.3431","Extended Stay America","37.408837","-122.0075","Open 24 hours a day, seven days a week","https://www.extendedstayamerica.com/hotels/ca/san-jose/sunnyvale"
"https://www.extendedstayamerica.com","Livermore - Airway Blvd.","2380 Nissen Dr.","Livermore","CA","94550","US","577","+1.925.373.1700","Extended Stay America","37.6987","-121.815194","Open 24 hours a day, seven days a week","https://www.extendedstayamerica.com/hotels/ca/oakland/airway-blvd"
"https://www.extendedstayamerica.com","San Jose - Mountain View","190 E. El Camino Real ","Mountain View","CA","94040","US","75","+1.650.962.1500","Extended Stay America","37.379549","-122.07119","Open 24 hours a day, seven days a week","https://www.extendedstayamerica.com/hotels/ca/san-jose/mountain-view"
"https://www.extendedstayamerica.com","Fremont - Fremont Blvd. South","46080 Fremont Blvd.","Fremont","CA","94538","US","38","+1.510.353.1664","Extended Stay America","37.488736","-121.947072","Open 24 hours a day, seven days a week","https://www.extendedstayamerica.com/hotels/ca/san-jose/fremont-blvd-south"
"https://www.extendedstayamerica.com","San Jose - Milpitas - McCarthy Ranch","330 Cypress Dr.","Milpitas","CA","95035","US","68","+1.408.433.9700","Extended Stay America","37.422244","-121.921472","Open 24 hours a day, seven days a week","https://www.extendedstayamerica.com/hotels/ca/san-jose/milpitas-mccarthy-ranch"
"https://www.extendedstayamerica.com","San Jose - Santa Clara","2131 Gold St.","Alviso","CA","95002","US","573","+1.408.262.0401","Extended Stay America","37.4191","-121.9745","Open 24 hours a day, seven days a week","https://www.extendedstayamerica.com/hotels/ca/san-jose/santa-clara"
"https://www.extendedstayamerica.com","San Jose - Airport","55 E. Brokaw Road","San Jose","CA","95112","US","943","+1.408.453.3000","Extended Stay America","37.3745","-121.917","Open 24 hours a day, seven days a week","https://www.extendedstayamerica.com/hotels/ca/san-jose/airport"
"https://www.extendedstayamerica.com","San Jose - Milpitas","1000 Hillview Ct.","Milpitas","CA","95035","US","560","+1.408.941.9977","Extended Stay America","37.4355","-121.8923","Open 24 hours a day, seven days a week","https://www.extendedstayamerica.com/hotels/ca/san-jose/milpitas"
"https://www.extendedstayamerica.com","Fairfield - Napa Valley","1019 Oliver Rd.","Fairfield","CA","94534","US","888","+1.707.438.0932","Extended Stay America","38.2528","-122.067693","Open 24 hours a day, seven days a week","https://www.extendedstayamerica.com/hotels/ca/oakland/napa-valley"
"https://www.extendedstayamerica.com","San Jose - Downtown","1560 N. 1st St.","San Jose","CA","95112","US","110","+1.408.573.0648","Extended Stay America","37.3643","-121.9114","Open 24 hours a day, seven days a week","https://www.extendedstayamerica.com/hotels/ca/san-jose/downtown"
"https://www.extendedstayamerica.com","Stockton - Tracy","2526 Pavilion Pkwy.","Tracy","CA","95304","US","579","+1.209.832.4700","Extended Stay America","37.757127","-121.464822","Open 24 hours a day, seven days a week","https://www.extendedstayamerica.com/hotels/ca/stockton/tracy"
"https://www.extendedstayamerica.com","Sacramento - Vacaville","799 Orange Dr.","Vacaville","CA","95687","US","606","+1.707.469.1371","Extended Stay America","38.3838","-121.9375","Open 24 hours a day, seven days a week","https://www.extendedstayamerica.com/hotels/ca/sacramento/vacaville"
"https://www.extendedstayamerica.com","San Jose - Edenvale - South","6189 San Ignacio Ave.","San Jose","CA","95119","US","415","+1.408.229.9188","Extended Stay America","37.234281","-121.775374","Open 24 hours a day, seven days a week","https://www.extendedstayamerica.com/hotels/ca/san-jose/edenvale-south"
"https://www.extendedstayamerica.com","Santa Rosa - South","2600 Corby Ave.","Santa Rosa","CA","95407","US","580","+1.707.546.4808","Extended Stay America","38.4142","-122.717449","Open 24 hours a day, seven days a week","https://www.extendedstayamerica.com/hotels/ca/santa-rosa/south"
"https://www.extendedstayamerica.com","Stockton - March Lane","2844 W. March Ln.","Stockton","CA","95219","US","582","+1.209.472.7588","Extended Stay America","37.984301","-121.346507","Open 24 hours a day, seven days a week","https://www.extendedstayamerica.com/hotels/ca/stockton/march-lane"
"https://www.extendedstayamerica.com","San Jose - Edenvale - North","6199 San Ignacio Ave.","San Jose","CA","95119","US","603","+1.408.226.4499","Extended Stay America","37.2342","-121.77573","Open 24 hours a day, seven days a week","https://www.extendedstayamerica.com/hotels/ca/san-jose/edenvale-north"
"https://www.extendedstayamerica.com","San Jose - Morgan Hill","605 Jarvis Dr.","Morgan Hill","CA","95037","US","602","+1.408.779.9660","Extended Stay America","37.1492","-121.6515","Open 24 hours a day, seven days a week","https://www.extendedstayamerica.com/hotels/ca/san-jose/morgan-hill"
"https://www.extendedstayamerica.com","Sacramento - Elk Grove","2201 Longport Ct.","Elk Grove","CA","95758","US","575","+1.916.683.3753","Extended Stay America","38.4255","-121.4833","Open 24 hours a day, seven days a week","https://www.extendedstayamerica.com/hotels/ca/sacramento/elk-grove"
"https://www.extendedstayamerica.com","Sacramento - West Sacramento","795 Stillwater Rd.","West Sacramento","CA","95605","US","889","+1.916.371.1270","Extended Stay America","38.5897","-121.5568","Open 24 hours a day, seven days a week","https://www.extendedstayamerica.com/hotels/ca/sacramento/west-sacramento"
"https://www.extendedstayamerica.com","Sacramento - Northgate","3825 Rosin Ct.","Sacramento","CA","95834","US","590","+1.916.920.8199","Extended Stay America","38.636382","-121.476909","Open 24 hours a day, seven days a week","https://www.extendedstayamerica.com/hotels/ca/sacramento/northgate"
"https://www.extendedstayamerica.com","Sacramento - Arden Way","2100 Harvard St.","Sacramento","CA","95815","US","572","+1.916.921.9942","Extended Stay America","38.6088","-121.4442","Open 24 hours a day, seven days a week","https://www.extendedstayamerica.com/hotels/ca/sacramento/arden-way"
"https://www.extendedstayamerica.com","Sacramento - South Natomas","2810 Gateway Oaks Dr.","Sacramento","CA","95833","US","113","+1.916.564.7500","Extended Stay America","38.6195","-121.518231","Open 24 hours a day, seven days a week","https://www.extendedstayamerica.com/hotels/ca/sacramento/south-natomas"
"https://www.extendedstayamerica.com","Sacramento - White Rock Rd.","10721 White Rock Rd.","Rancho Cordova","CA","95670","US","564","+1.916.635.2363","Extended Stay America","38.5875","-121.288764","Open 24 hours a day, seven days a week","https://www.extendedstayamerica.com/hotels/ca/sacramento/white-rock-rd"
"https://www.extendedstayamerica.com","Sacramento - Roseville","1000 Lead Hill Blvd.","Roseville","CA","95678","US","561","+1.916.781.9001","Extended Stay America","38.7524","-121.2678","Open 24 hours a day, seven days a week","https://www.extendedstayamerica.com/hotels/ca/sacramento/roseville"
"https://www.extendedstayamerica.com","Oakland - Emeryville","3650 Mandela Pkwy.","Oakland","CA","94608","US","589","+1.510.923.1481","Extended Stay America","37.82775","-122.28872","Open 24 hours a day, seven days a week","https://www.extendedstayamerica.com/hotels/ca/oakland/emeryville"
"https://www.extendedstayamerica.com","Oakland - Alameda Airport","1260 S. Loop Rd.","Alameda","CA","94502","US","413","+1.510.769.7000","Extended Stay America","37.724719","-122.234213","Open 24 hours a day, seven days a week","https://www.extendedstayamerica.com/hotels/ca/oakland/alameda-airport"
"https://www.extendedstayamerica.com","San Rafael - Francisco Blvd. East","1775 Francisco Blvd.","San Rafael","CA","94901","US","973","+1.415.451.1887","Extended Stay America","37.9501","-122.4945","Open 24 hours a day, seven days a week","https://www.extendedstayamerica.com/hotels/ca/oakland/francisco-blvd-east"
"https://www.extendedstayamerica.com","Santa Rosa - North","100 Fountain Grove Pkwy.","Santa Rosa","CA","95403","US","559","+1.707.541.0959","Extended Stay America","38.475197","-122.7271","Open 24 hours a day, seven days a week","https://www.extendedstayamerica.com/hotels/ca/santa-rosa/north"
"https://www.extendedstayamerica.com","San Diego - Sorrento Mesa","9880 Pacific Heights Blvd.","San Diego","CA","92121","US","70","+1.858.623.0100","Extended Stay America","32.8997","-117.1892","Open 24 hours a day, seven days a week","https://www.extendedstayamerica.com/hotels/ca/san-diego/sorrento-mesa"
"https://www.extendedstayamerica.com","San Diego - Mission Valley - Stadium","3860 Murphy Canyon Rd.","San Diego","CA","92123","US","591","+1.858.292.8927","Extended Stay America","32.8115","-117.116516","Open 24 hours a day, seven days a week","https://www.extendedstayamerica.com/hotels/ca/san-diego/mission-valley-stadium"
"https://www.extendedstayamerica.com","San Diego - Hotel Circle","2087 Hotel Cir. S.","San Diego","CA","92108","US","570","+1.619.296.5570","Extended Stay America","32.759151","-117.1837","Open 24 hours a day, seven days a week","https://www.extendedstayamerica.com/hotels/ca/san-diego/hotel-circle"
"https://www.extendedstayamerica.com","San Diego - Fashion Valley","7444 Mission Valley Rd.","San Diego","CA","92108","US","76","+1.619.299.2292","Extended Stay America","32.7796","-117.1604","Open 24 hours a day, seven days a week","https://www.extendedstayamerica.com/hotels/ca/san-diego/fashion-valley"
"https://www.extendedstayamerica.com","Colorado Springs - West","5855 Corporate Dr.","Colorado Springs","CO","80919","US","608","+1.719.266.4206","Extended Stay America","38.91793","-104.8179","Open 24 hours a day, seven days a week","https://www.extendedstayamerica.com/hotels/co/colorado-springs/west"
"https://www.extendedstayamerica.com","Denver - Tech Center South - Greenwood Village","9253 E. Costilla Ave.","Greenwood Village","CO","80112","US","121","+1.303.858.1669","Extended Stay America","39.591301","-104.8806","Open 24 hours a day, seven days a week","https://www.extendedstayamerica.com/hotels/co/denver/tech-center-south-greenwood-village"
"https://www.extendedstayamerica.com","Denver - Park Meadows","8752 S. Yosemite St.","Lone Tree","CO","80124","US","611","+1.303.662.1511","Extended Stay America","39.556679","-104.882677","Open 24 hours a day, seven days a week","https://www.extendedstayamerica.com/hotels/co/denver/park-meadows"
"https://www.extendedstayamerica.com","Denver - Tech Center South","9604 E. Easter Ave.","Englewood","CO","80112","US","416","+1.303.858.0292","Extended Stay America","39.5878","-104.8785","Open 24 hours a day, seven days a week","https://www.extendedstayamerica.com/hotels/co/denver/tech-center-south"
"https://www.extendedstayamerica.com","Denver - Tech Center South - Inverness","9650 E. Geddes Ave.","Englewood","CO","80112","US","50","+1.303.708.8888","Extended Stay America","39.5842","-104.876243","Open 24 hours a day, seven days a week","https://www.extendedstayamerica.com/hotels/co/denver/tech-center-south-inverness"
"https://www.extendedstayamerica.com","Denver - Tech Center - Central","5200 S. Quebec St.","Greenwood Village","CO","80111","US","897","+1.303.220.8448","Extended Stay America","39.622525","-104.90386","Open 24 hours a day, seven days a week","https://www.extendedstayamerica.com/hotels/co/denver/tech-center-central"
"https://www.extendedstayamerica.com","Denver - Lakewood South","7393 W. Jefferson Ave.","Lakewood","CO","80235","US","610","+1.303.986.8300","Extended Stay America","39.65001","-105.078793","Open 24 hours a day, seven days a week","https://www.extendedstayamerica.com/hotels/co/denver/lakewood-south"
"https://www.extendedstayamerica.com","Denver - Aurora North","14095 East Evans Ave","Aurora","CO","80014","US","896","+1.303.337.7000","Extended Stay America","39.6789","-104.8247","Open 24 hours a day, seven days a week","https://www.extendedstayamerica.com/hotels/co/denver/aurora-north"
"https://www.extendedstayamerica.com","Denver - Aurora South","13941 E. Harvard Ave.","Aurora","CO","80014","US","48","+1.303.750.9116","Extended Stay America","39.671754","-104.826342","Open 24 hours a day, seven days a week","https://www.extendedstayamerica.com/hotels/co/denver/aurora-south"
"https://www.extendedstayamerica.com","Denver - Westminster","1291 W. 120th Ave.","Westminster","CO","80234","US","607","+1.303.280.0111","Extended Stay America","39.914119","-105.001413","Open 24 hours a day, seven days a week","https://www.extendedstayamerica.com/hotels/co/denver/westminster"
"https://www.extendedstayamerica.com","Denver - Cherry Creek","4444 Leetsdale Dr.","Glendale","CO","80246","US","19","<MISSING>","Extended Stay America","39.7106","-104.9357","Open 24 hours a day, seven days a week","https://www.extendedstayamerica.com/hotels/co/denver/cherry-creek"
"https://www.extendedstayamerica.com","Hartford - Farmington","1 Batterson Park Rd.","Farmington","CT","06032","US","417","+1.860.676.2790","Extended Stay America","41.705891","-72.798946","Open 24 hours a day, seven days a week","https://www.extendedstayamerica.com/hotels/ct/hartford/farmington"
"https://www.extendedstayamerica.com","Hartford - Manchester","340 Tolland Tpke.","Manchester","CT","06040","US","612","+1.860.643.5140","Extended Stay America","41.81047","-72.5215","Open 24 hours a day, seven days a week","https://www.extendedstayamerica.com/hotels/ct/hartford/manchester"
"https://www.extendedstayamerica.com","Hartford - Meriden","366 Bee St.","Meriden","CT","06450","US","613","+1.203.630.1927","Extended Stay America","41.53604","-72.765468","Open 24 hours a day, seven days a week","https://www.extendedstayamerica.com/hotels/ct/hartford/meriden"
"https://www.extendedstayamerica.com","Shelton - Fairfield County","945 Bridgeport Ave.","Shelton","CT","06484","US","109","+1.203.926.6868","Extended Stay America","41.262044","-73.136627","Open 24 hours a day, seven days a week","https://www.extendedstayamerica.com/hotels/ct/shelton/fairfield-county"
"https://www.extendedstayamerica.com","Providence - West Warwick","1235 Division Rd.","West Warwick","RI","02893","US","807","+1.401.885.3161","Extended Stay America","41.6629","-71.5019","Open 24 hours a day, seven days a week","https://www.extendedstayamerica.com/hotels/ri/providence/west-warwick"
"https://www.extendedstayamerica.com","Norwalk - Stamford","400 Main Ave.","Norwalk","CT","06851","US","85","+1.203.847.6888","Extended Stay America","41.144155","-73.42607","Open 24 hours a day, seven days a week","https://www.extendedstayamerica.com/hotels/ct/norwalk/stamford"
"https://www.extendedstayamerica.com","Fishkill - Westage Center","55 West Merritt Blvd.","Fishkill","NY","12524","US","769","+1.845.896.0592","Extended Stay America","41.529","-73.8967","Open 24 hours a day, seven days a week","https://www.extendedstayamerica.com/hotels/ny/fishkill/westage-center"
"https://www.extendedstayamerica.com","Providence - Warwick","245 W. Natick Rd.","Warwick","RI","02886","US","808","+1.401.732.2547","Extended Stay America","41.728215","-71.482682","Open 24 hours a day, seven days a week","https://www.extendedstayamerica.com/hotels/ri/providence/warwick"
"https://www.extendedstayamerica.com","Boston - Westborough - Computer Dr.","1800 Computer Drive","Westborough","MA","01581","US","950","+1.508.366.6100","Extended Stay America","42.289454","-71.5812","Open 24 hours a day, seven days a week","https://www.extendedstayamerica.com/hotels/ma/boston/westborough-computer-dr"
"https://www.extendedstayamerica.com","Providence - Airport","268 Metro Center Blvd.","Warwick","RI","02886","US","132","+1.401.732.6667","Extended Stay America","41.724891","-71.459153","Open 24 hours a day, seven days a week","https://www.extendedstayamerica.com/hotels/ri/providence/airport"
"https://www.extendedstayamerica.com","Boston - Marlborough","19 Northborough Rd. E.","Marlborough","MA","01752","US","59","+1.508.490.9911","Extended Stay America","42.34134","-71.58259","Open 24 hours a day, seven days a week","https://www.extendedstayamerica.com/hotels/ma/boston/marlborough"
"https://www.extendedstayamerica.com","Fishkill - Route 9","25 Merritt Blvd.","Fishkill","NY","12524","US","36","<MISSING>","Extended Stay America","41.5312","-73.8909","Open 24 hours a day, seven days a week","https://www.extendedstayamerica.com/hotels/ny/fishkill/route-9"
"https://www.extendedstayamerica.com","Boston - Westborough - Connector Road","19 Connector Rd.","Westborough","MA","01581","US","691","+1.508.616.0155","Extended Stay America","42.287937","-71.585885","Open 24 hours a day, seven days a week","https://www.extendedstayamerica.com/hotels/ma/boston/westborough-connector-road"
"https://www.extendedstayamerica.com","Boston - Westborough - East Main Street","180 East Main St.","Westborough","MA","01581","US","443","+1.508.616.9213","Extended Stay America","42.289161","-71.592875","Open 24 hours a day, seven days a week","https://www.extendedstayamerica.com/hotels/ma/boston/westborough-east-main-street"
"https://www.extendedstayamerica.com","White Plains - Elmsford","118 West Main St","Elmsford","NY","10523","US","765","+1.914.347.8073","Extended Stay America","41.052166","-73.814005","Open 24 hours a day, seven days a week","https://www.extendedstayamerica.com/hotels/ny/white-plains/elmsford"
"https://www.extendedstayamerica.com","Long Island - Melville","100 Spagnoli Rd.","Melville","NY","11747","US","764","+1.631.777.3999","Extended Stay America","40.762859","-73.423345","Open 24 hours a day, seven days a week","https://www.extendedstayamerica.com/hotels/ny/long-island/melville"
"https://www.extendedstayamerica.com","Boston - Waltham - 32 4th Ave","32 4th Ave.","Waltham","MA","02451","US","949","+1.781.622.1900","Extended Stay America","42.393639","-71.2596","Open 24 hours a day, seven days a week","https://www.extendedstayamerica.com/hotels/ma/boston/waltham-34-4th-ave"
"https://www.extendedstayamerica.com","Foxboro - Norton","280 S. Washington St.","Norton","MA","02766","US","694","+1.508.285.7800","Extended Stay America","41.962152","-71.131851","Open 24 hours a day, seven days a week","https://www.extendedstayamerica.com/hotels/ma/foxboro/norton"
"https://www.extendedstayamerica.com","Long Island - Bethpage","905 S. Oyster Bay Rd.","Bethpage","NY","11714","US","773","+1.516.349.8759","Extended Stay America","40.7582","-73.499789","Open 24 hours a day, seven days a week","https://www.extendedstayamerica.com/hotels/ny/long-island/bethpage"
"https://www.extendedstayamerica.com","Boston - Waltham - 52 4th Ave","52 4th Ave.","Waltham","MA","02451","US","129","+1.781.890.1333","Extended Stay America","42.3933","-71.2588","Open 24 hours a day, seven days a week","https://www.extendedstayamerica.com/hotels/ma/boston/52-4th-ave"
"https://www.extendedstayamerica.com","Ramsey - Upper Saddle River","112 State Hwy. 17","Ramsey","NJ","07446","US","751","+1.201.236.9996","Extended Stay America","41.045521","-74.115958","Open 24 hours a day, seven days a week","https://www.extendedstayamerica.com/hotels/nj/ramsey/upper-saddle-river"
"https://www.extendedstayamerica.com","New York City - LaGuardia Airport","18-30 Whitestone Expwy.","Whitestone","NY","11357","US","768","+1.718.357.3661","Extended Stay America","40.7832","-73.8253","Open 24 hours a day, seven days a week","https://www.extendedstayamerica.com/hotels/ny/long-island/laguardia-airport"
"https://www.extendedstayamerica.com","Boston - Braintree","20 Rockdale St.","Braintree","MA","02184","US","693","+1.781.356.8333","Extended Stay America","42.226033","-71.03104","Open 24 hours a day, seven days a week","https://www.extendedstayamerica.com/hotels/ma/boston/braintree"
"https://www.extendedstayamerica.com","Boston - Burlington","40 South Ave.","Burlington","MA","01803","US","16","+1.781.359.9099","Extended Stay America","42.480679","-71.2196","Open 24 hours a day, seven days a week","https://www.extendedstayamerica.com/hotels/ma/boston/burlington"
"https://www.extendedstayamerica.com","Boston - Woburn","831 Main","Woburn","MA","01801","US","951","+1.781.938.3737","Extended Stay America","42.503246","-71.1592","Open 24 hours a day, seven days a week","https://www.extendedstayamerica.com/hotels/ma/boston/woburn"
"https://www.extendedstayamerica.com","Albany - SUNY","1395 Washington Ave.","Albany","NY","12206","US","767","+1.518.446.0680","Extended Stay America","42.689096","-73.819312","Open 24 hours a day, seven days a week","https://www.extendedstayamerica.com/hotels/ny/albany/suny"
"https://www.extendedstayamerica.com","Secaucus - Meadowlands","1 Meadowlands Pkwy.","Secaucus","NJ","07094","US","749","+1.201.617.1711","Extended Stay America","40.7854","-74.0607","Open 24 hours a day, seven days a week","https://www.extendedstayamerica.com/hotels/nj/meadowlands/meadowlands"
"https://www.extendedstayamerica.com","Boston - Tewksbury","1910 Andover St.","Tewksbury","MA","01876","US","692","+1.978.863.9888","Extended Stay America","42.642763","-71.2287","Open 24 hours a day, seven days a week","https://www.extendedstayamerica.com/hotels/ma/boston/tewksbury"
"https://www.extendedstayamerica.com","Secaucus - New York City Area","One Plaza Dr.","Secaucus","NJ","07094","US","107","+1.201.553.9700","Extended Stay America","40.784473","-74.043137","Open 24 hours a day, seven days a week","https://www.extendedstayamerica.com/hotels/nj/meadowlands/new-york-city-area"
"https://www.extendedstayamerica.com","Meadowlands - East Rutherford","300 State Hwy., Rte. 3 E.","East Rutherford","NJ","07073","US","62","+1.201.939.8866","Extended Stay America","40.805737","-74.075629","Open 24 hours a day, seven days a week","https://www.extendedstayamerica.com/hotels/nj/meadowlands/east-rutherford"
"https://www.extendedstayamerica.com","Meadowlands - Rutherford","750 Edwin L. Ward, Sr. Memorial Hwy.","Rutherford","NJ","07070","US","759","+1.201.635.0266","Extended Stay America","40.8098","-74.0961","Open 24 hours a day, seven days a week","https://www.extendedstayamerica.com/hotels/nj/meadowlands/rutherford"
"https://www.extendedstayamerica.com","Providence - East Providence","1000 Warren Ave.","East Providence","RI","02914","US","806","+1.401.272.1661","Extended Stay America","41.807885","-71.3453","Open 24 hours a day, seven days a week","https://www.extendedstayamerica.com/hotels/ri/providence/east-providence"
"https://www.extendedstayamerica.com","Nashua - Manchester","2000 Southwood Dr.","Nashua","NH","03063","US","747","<MISSING>","Extended Stay America","42.787409","-71.498584","Open 24 hours a day, seven days a week","https://www.extendedstayamerica.com/hotels/nh/nashua/manchester"
"https://www.extendedstayamerica.com","Elizabeth - Newark Airport","45 International Blvd.","Elizabeth","NJ","07201","US","757","+1.908.355.4300","Extended Stay America","40.66359","-74.175","Open 24 hours a day, seven days a week","https://www.extendedstayamerica.com/hotels/nj/newark/newark-airport"
"https://www.extendedstayamerica.com","Hanover - Parsippany","125 Rte. 10 E.","Whippany","NJ","07981","US","45","+1.973.463.1999","Extended Stay America","40.814537","-74.398899","Open 24 hours a day, seven days a week","https://www.extendedstayamerica.com/hotels/nj/hanover/parsippany"
"https://www.extendedstayamerica.com","Newark - Woodbridge","1 Hoover Way","Woodbridge","NJ","07095","US","131","+1.732.442.8333","Extended Stay America","40.5369","-74.2969","Open 24 hours a day, seven days a week","https://www.extendedstayamerica.com/hotels/nj/edison/woodbridge"
"https://www.extendedstayamerica.com","Piscataway - Rutgers University","410 S. Randolphville Road","Piscataway","NJ","08854","US","952","+1.732.235.1000","Extended Stay America","40.549672","-74.461472","Open 24 hours a day, seven days a week","https://www.extendedstayamerica.com/hotels/nj/piscataway/rutgers-university"
"https://www.extendedstayamerica.com","Edison - Raritan Center","1 Fieldcrest Ave.","Edison","NJ","08837","US","748","+1.732.346.9366","Extended Stay America","40.5208","-74.3393","Open 24 hours a day, seven days a week","https://www.extendedstayamerica.com/hotels/nj/edison/raritan-center"
"https://www.extendedstayamerica.com","Red Bank - Middletown","329 Newman Springs Rd.","Red Bank","NJ","07701","US","754","+1.732.450.8688","Extended Stay America","40.336109","-74.089876","Open 24 hours a day, seven days a week","https://www.extendedstayamerica.com/hotels/nj/red-bank/middletown"
"https://www.extendedstayamerica.com","Somerset - Franklin","30 World's Fair Dr.","Somerset","NJ","08873","US","753","+1.732.469.8080","Extended Stay America","40.5302","-74.5186","Open 24 hours a day, seven days a week","https://www.extendedstayamerica.com/hotels/nj/somerset/franklin"
"https://www.extendedstayamerica.com","Mt. Olive - Budd Lake","71 International Dr. S.","Budd Lake","NJ","07828","US","758","+1.973.347.5522","Extended Stay America","40.892","-74.7202","Open 24 hours a day, seven days a week","https://www.extendedstayamerica.com/hotels/nj/mt-olive/budd-lake"
"https://www.extendedstayamerica.com","Princeton - South Brunswick","4230 US Rte. 1","South Brunswick","NJ","08852","US","756","+1.732.438.5010","Extended Stay America","40.378835","-74.580195","Open 24 hours a day, seven days a week","https://www.extendedstayamerica.com/hotels/nj/princeton/south-brunswick"
"https://www.extendedstayamerica.com","Princeton - West Windsor","3450 Brunswick Pike","Princeton","NJ","08540","US","755","+1.609.919.9000","Extended Stay America","40.3019","-74.6737","Open 24 hours a day, seven days a week","https://www.extendedstayamerica.com/hotels/nj/princeton/west-windsor"
"https://www.extendedstayamerica.com","Newark - Christiana - Wilmington","333 Continental Dr.","Newark","DE","19713","US","24","+1.302.283.0800","Extended Stay America","39.6872","-75.6599","Open 24 hours a day, seven days a week","https://www.extendedstayamerica.com/hotels/de/newark/christiana-wilmington"
"https://www.extendedstayamerica.com","Philadelphia - Exton","877 N. Pottstown Pike (Rte. 100)","Exton","PA","19341","US","804","+1.610.524.7185","Extended Stay America","40.05616","-75.6542","Open 24 hours a day, seven days a week","https://www.extendedstayamerica.com/hotels/pa/philadelphia/exton"
"https://www.extendedstayamerica.com","Philadelphia - Malvern - Great Valley","300 Morehall Rd., Rte. 29","Malvern","PA","19355","US","798","+1.610.240.0455","Extended Stay America","40.057","-75.5291","Open 24 hours a day, seven days a week","https://www.extendedstayamerica.com/hotels/pa/philadelphia/malvern-great-valley"
"https://www.extendedstayamerica.com","Philadelphia - Malvern - Swedesford Rd.","8 East Swedesford Rd.","Malvern","PA","19355","US","69","+1.610.695.9200","Extended Stay America","40.0548","-75.5206","Open 24 hours a day, seven days a week","https://www.extendedstayamerica.com/hotels/pa/philadelphia/malvern-swedesford-rd"
"https://www.extendedstayamerica.com","Baltimore - Bel Air - Aberdeen","1361 James Way","Bel Air","MD","21015","US","882","+1.410.273.0194","Extended Stay America","39.482942","-76.249038","Open 24 hours a day, seven days a week","https://www.extendedstayamerica.com/hotels/md/baltimore/bel-air-aberdeen"
"https://www.extendedstayamerica.com","Philadelphia - King of Prussia","400 American Ave.","King of Prussia","PA","19406","US","54","+1.610.962.9000","Extended Stay America","40.095857","-75.399975","Open 24 hours a day, seven days a week","https://www.extendedstayamerica.com/hotels/pa/philadelphia/king-of-prussia"
"https://www.extendedstayamerica.com","Philadelphia - Airport - Tinicum Blvd.","9000 Tinicum Blvd.","Philadelphia","PA","19153","US","805","+1.215.492.6766","Extended Stay America","39.8842","-75.2483","Open 24 hours a day, seven days a week","https://www.extendedstayamerica.com/hotels/pa/philadelphia/airport-tinicum-blvd"
"https://www.extendedstayamerica.com","Philadelphia - Airport - Bartram Ave.","8880 Bartram Ave.","Philadelphia","PA","19153","US","475","+1.215.365.4360","Extended Stay America","39.886536","-75.248877","Open 24 hours a day, seven days a week","https://www.extendedstayamerica.com/hotels/pa/philadelphia/airport-bartram-ave"
"https://www.extendedstayamerica.com","Philadelphia - Cherry Hill","1653 E. State Hwy. No. 70","Cherry Hill","NJ","08034","US","752","+1.856.616.1200","Extended Stay America","39.907429","-74.981321","Open 24 hours a day, seven days a week","https://www.extendedstayamerica.com/hotels/pa/philadelphia/cherry-hill"
"https://www.extendedstayamerica.com","Philadelphia - Plymouth Meeting","437 Irwins Ln.","Plymouth Meeting","PA","19462","US","802","+1.610.260.0488","Extended Stay America","40.113131","-75.28617","Open 24 hours a day, seven days a week","https://www.extendedstayamerica.com/hotels/pa/philadelphia/plymouth-meeting"
"https://www.extendedstayamerica.com","Philadelphia - Mt. Laurel - Pacilli Place","500 Diemer Dr.","Mount Laurel","NJ","08054","US","465","+1.856.608.9820","Extended Stay America","39.9172","-74.9477","Open 24 hours a day, seven days a week","https://www.extendedstayamerica.com/hotels/pa/philadelphia/mt-laurel-pacilli-place"
"https://www.extendedstayamerica.com","Philadelphia - Mt. Laurel - Crawford Place","101 Diemer Dr.","Mount Laurel","NJ","08054","US","750","+1.856.778.4100","Extended Stay America","39.9187","-74.9487","Open 24 hours a day, seven days a week","https://www.extendedstayamerica.com/hotels/pa/philadelphia/mt-laurel-crawford-place"
"https://www.extendedstayamerica.com","Philadelphia - Horsham - Welsh Rd.","114 Welsh Rd.","Horsham","PA","19044","US","796","+1.215.784.9045","Extended Stay America","40.160116","-75.14303","Open 24 hours a day, seven days a week","https://www.extendedstayamerica.com/hotels/pa/philadelphia/horsham-welsh-rd"
"https://www.extendedstayamerica.com","Baltimore - Timonium","9704 Beaver Dam Rd.","Timonium","MD","21093","US","702","+1.410.628.1088","Extended Stay America","39.4572","-76.642079","Open 24 hours a day, seven days a week","https://www.extendedstayamerica.com/hotels/md/baltimore/timonium"
"https://www.extendedstayamerica.com","Philadelphia - Horsham - Dresher Rd.","537 Dresher Rd.","Horsham","PA","19044","US","130","+1.215.956.9966","Extended Stay America","40.1751","-75.1383","Open 24 hours a day, seven days a week","https://www.extendedstayamerica.com/hotels/pa/philadelphia/horsham-dresher-rd"
"https://www.extendedstayamerica.com","Baltimore - Glen Burnie","104 Chesapeake Centre Ct.","Glen Burnie","MD","21061","US","880","+1.410.761.2708","Extended Stay America","39.1926","-76.6073","Open 24 hours a day, seven days a week","https://www.extendedstayamerica.com/hotels/md/baltimore/glen-burnie"
"https://www.extendedstayamerica.com","Philadelphia - Bensalem","3216 Tillman Dr.","Bensalem","PA","19020","US","800","+1.215.633.6900","Extended Stay America","40.113885","-74.9603","Open 24 hours a day, seven days a week","https://www.extendedstayamerica.com/hotels/pa/philadelphia/bensalem"
"https://www.extendedstayamerica.com","Baltimore - BWl Airport - International Dr.","939 International Dr.","Linthicum Heights","MD","21090","US","18","+1.410.691.2500","Extended Stay America","39.206785","-76.676578","Open 24 hours a day, seven days a week","https://www.extendedstayamerica.com/hotels/md/baltimore/bwl-airport-international-dr"
"https://www.extendedstayamerica.com","Baltimore - BWI Airport - Aero Dr.","1500 Aero Dr.","Linthicum","MD","21090","US","696","+1.410.850.0400","Extended Stay America","39.206997","-76.6774","Open 24 hours a day, seven days a week","https://www.extendedstayamerica.com/hotels/md/baltimore/bwi-airport-aero-dr"
"https://www.extendedstayamerica.com","Columbia - Columbia Parkway","8870 Columbia 100 Pkwy.","Columbia","MD","21045","US","700","+1.410.772.8800","Extended Stay America","39.2333","-76.8159","Open 24 hours a day, seven days a week","https://www.extendedstayamerica.com/hotels/md/columbia/columbia-parkway"
"https://www.extendedstayamerica.com","Columbia - Columbia Corporate Park","8890 Stanford Blvd.","Columbia","MD","21045","US","909","+1.410.872.2994","Extended Stay America","39.1917","-76.817341","Open 24 hours a day, seven days a week","https://www.extendedstayamerica.com/hotels/md/columbia/columbia-corporate-park"
"https://www.extendedstayamerica.com","Annapolis - Admiral Cochrane Drive","120 Admiral Cochrane Dr.","Annapolis","MD","21401","US","3","+1.410.571.6600","Extended Stay America","38.9765","-76.5512","Open 24 hours a day, seven days a week","https://www.extendedstayamerica.com/hotels/md/annapolis/admiral-cochrane-drive"
"https://www.extendedstayamerica.com","Annapolis - Womack Drive","1 Womack Dr.","Annapolis","MD","21401","US","879","+1.410.571.9988","Extended Stay America","38.9717","-76.5463","Open 24 hours a day, seven days a week","https://www.extendedstayamerica.com/hotels/md/annapolis/womack-drive"
"https://www.extendedstayamerica.com","Columbia - Gateway Drive","6620 Eli Whitney Dr.","Columbia","MD","21046","US","445","+1.410.312.1557","Extended Stay America","39.183603","-76.805757","Open 24 hours a day, seven days a week","https://www.extendedstayamerica.com/hotels/md/columbia/gateway-drive"
"https://www.extendedstayamerica.com","Columbia - Laurel - Ft. Meade","8550 Washington Blvd.","Jessup","MD","20794","US","881","+1.301.725.3877","Extended Stay America","39.1483","-76.8056","Open 24 hours a day, seven days a week","https://www.extendedstayamerica.com/hotels/md/columbia/laurel-ft-meade"
"https://www.extendedstayamerica.com","Allentown - Bethlehem","3050 Schoenersville Rd.","Bethlehem","PA","18017","US","799","+1.610.866.8480","Extended Stay America","40.6539","-75.4146","Open 24 hours a day, seven days a week","https://www.extendedstayamerica.com/hotels/pa/allentown/bethlehem"
"https://www.extendedstayamerica.com","Washington D.C. - Rockville","2621 Research Blvd.","Rockville","MD","20850","US","41","<MISSING>","Extended Stay America","39.105357","-77.1915","Open 24 hours a day, seven days a week","https://www.extendedstayamerica.com/hotels/dc/washington-dc/rockville"
"https://www.extendedstayamerica.com","Washington D.C. - Gaithersburg - South","201 Professional Dr.","Gaithersburg","MD","20879","US","444","+1.301.963.3539","Extended Stay America","39.16006","-77.227002","Open 24 hours a day, seven days a week","https://www.extendedstayamerica.com/hotels/dc/washington-dc/gaithersburg-south"
"https://www.extendedstayamerica.com","Washington D.C. - Germantown - Town Center","20141 Century Blvd.","Germantown","MD","20874","US","44","+1.301.515.4500","Extended Stay America","39.1863","-77.2598","Open 24 hours a day, seven days a week","https://www.extendedstayamerica.com/hotels/md/washington-dc/washington-dc-germantown-town-center"
"https://www.extendedstayamerica.com","Washington D.C. - Landover","9401 Largo Dr. W.","Landover","MD","20774","US","701","<MISSING>","Extended Stay America","38.8955","-76.8428","Open 24 hours a day, seven days a week","https://www.extendedstayamerica.com/hotels/dc/washington-dc/landover"
"https://www.extendedstayamerica.com","Frederick - Westview Dr.","5240 Westview Dr.","Frederick","MD","21703","US","699","+1.301.668.0808","Extended Stay America","39.37824","-77.412292","Open 24 hours a day, seven days a week","https://www.extendedstayamerica.com/hotels/md/frederick/westview-dr"
"https://www.extendedstayamerica.com","Washington D.C. - Gaithersburg - North","205 Professional Dr.","Gaithersburg","MD","20879","US","697","+1.301.869.9814","Extended Stay America","39.160087","-77.227023","Open 24 hours a day, seven days a week","https://www.extendedstayamerica.com/hotels/md/washington-dc/gaithersburg-north"
"https://www.extendedstayamerica.com","Washington D.C. - Germantown - Milestone","12530 Milestone Center Dr.","Germantown","MD","20876","US","695","<MISSING>","Extended Stay America","39.2016","-77.2639","Open 24 hours a day, seven days a week","https://www.extendedstayamerica.com/hotels/dc/washington-dc/germantown-milestone"
"https://www.extendedstayamerica.com","Washington D.C. - Tysons Corner","8201 Old Courthouse Rd.","Vienna","VA","22182","US","126","<MISSING>","Extended Stay America","38.912366","-77.2278","Open 24 hours a day, seven days a week","https://www.extendedstayamerica.com/hotels/va/washington-dc/tysons-corner"
"https://www.extendedstayamerica.com","Washington D.C. - Alexandria - Landmark","205 North Breckinridge Pl.","Alexandria","VA","22312","US","853","+1.703.941.9440","Extended Stay America","38.817215","-77.1395","Open 24 hours a day, seven days a week","https://www.extendedstayamerica.com/hotels/va/washington-dc/alexandria-landmark"
"https://www.extendedstayamerica.com","Washington D.C. - Alexandria - Eisenhower Ave.","200 Blue Stone Rd.","Alexandria","VA","22304","US","2","<MISSING>","Extended Stay America","38.804661","-77.090986","Open 24 hours a day, seven days a week","https://www.extendedstayamerica.com/hotels/dc/washington-dc/alexandria-eisenhower-ave"
"https://www.extendedstayamerica.com","Washington D.C. - Sterling","46001 Waterview Plaza","Sterling","VA","20166","US","856","<MISSING>","Extended Stay America","39.024","-77.409587","Open 24 hours a day, seven days a week","https://www.extendedstayamerica.com/hotels/dc/washington-dc/sterling"
"https://www.extendedstayamerica.com","Washington D.C. - Reston","12190 Sunset Hills Rd.","Reston","VA","20190","US","101","<MISSING>","Extended Stay America","38.9555","-77.3689","Open 24 hours a day, seven days a week","https://www.extendedstayamerica.com/hotels/dc/washington-dc/reston"
"https://www.extendedstayamerica.com","Washington D.C. - Falls Church - Merrifield","8281 Willow Oaks Corporate Dr.","Fairfax","VA","22031","US","73","+1.703.204.0088","Extended Stay America","38.863148","-77.229174","Open 24 hours a day, seven days a week","https://www.extendedstayamerica.com/hotels/dc/washington-dc/washington-dc-falls-church-merrifield"
"https://www.extendedstayamerica.com","Washington D.C. - Springfield","6800 Metropolitan Center Dr.","Springfield","VA","22150","US","858","<MISSING>","Extended Stay America","38.769","-77.1784","Open 24 hours a day, seven days a week","https://www.extendedstayamerica.com/hotels/dc/washington-dc/springfield"
"https://www.extendedstayamerica.com","Fort Lauderdale - Deerfield Beach","1200 F.A.U. Research Park Blvd.","Deerfield Beach","FL","33441","US","615","+1.954.428.5997","Extended Stay America","26.3028","-80.1187","Open 24 hours a day, seven days a week","https://www.extendedstayamerica.com/hotels/fl/fort-lauderdale/deerfield-beach"
"https://www.extendedstayamerica.com","Boca Raton - Commerce","501 N.W. 77th St.","Boca Raton","FL","33487","US","14","+1.561.994.2599","Extended Stay America","26.417792","-80.091085","Open 24 hours a day, seven days a week","https://www.extendedstayamerica.com/hotels/fl/boca-raton/commerce"
"https://www.extendedstayamerica.com","Fort Lauderdale - Cypress Creek - NW 6th Way","6001 NW 6th Way","Fort Lauderdale","FL","33309","US","425","+1.954.772.3155","Extended Stay America","26.201226","-80.1525","Open 24 hours a day, seven days a week","https://www.extendedstayamerica.com/hotels/fl/fort-lauderdale/cypress-creek-nw-6th-way"
"https://www.extendedstayamerica.com","Fort Lauderdale - Cypress Creek - Park North","1401 W. McNab Rd.","Pompano Beach","FL","33069","US","898","+1.954.783.1050","Extended Stay America","26.210892","-80.1427","Open 24 hours a day, seven days a week","https://www.extendedstayamerica.com/hotels/fl/fort-lauderdale/cypress-creek-park-north"
"https://www.extendedstayamerica.com","Fort Lauderdale - Tamarac","3873 W. Commercial Blvd.","Tamarac","FL","33309","US","37","+1.954.733.6644","Extended Stay America","26.186617","-80.2015","Open 24 hours a day, seven days a week","https://www.extendedstayamerica.com/hotels/fl/fort-lauderdale/fort-lauderdale-tamarac"
"https://www.extendedstayamerica.com","Fort Lauderdale - Cypress Creek - Andrews Ave.","5851 N. Andrews Ave. Ext.","Fort Lauderdale","FL","33309","US","626","+1.954.776.9447","Extended Stay America","26.198","-80.1503","Open 24 hours a day, seven days a week","https://www.extendedstayamerica.com/hotels/fl/fort-lauderdale/cypress-creek-andrews-ave"
"https://www.extendedstayamerica.com","Fort Lauderdale - Plantation","7755 SW 6th St.","Fort Lauderdale","FL","33324","US","629","+1.954.382.8888","Extended Stay America","26.1136","-80.254","Open 24 hours a day, seven days a week","https://www.extendedstayamerica.com/hotels/fl/fort-lauderdale/plantation"
"https://www.extendedstayamerica.com","Fort Lauderdale - Davie","7550 State Rd. 84","Davie","FL","33317","US","96","+1.954.476.1211","Extended Stay America","26.097272","-80.2485","Open 24 hours a day, seven days a week","https://www.extendedstayamerica.com/hotels/fl/fort-lauderdale/davie"
"https://www.extendedstayamerica.com","Fort Lauderdale  - Convention Center - Cruise Port","1450 SE 17th Street Cswy.","Fort Lauderdale","FL","33316","US","618","+1.954.761.9055","Extended Stay America","26.10048","-80.12836","Open 24 hours a day, seven days a week","https://www.extendedstayamerica.com/hotels/fl/fort-lauderdale/cruiseport-airport"
"https://www.extendedstayamerica.com","West Palm Beach - Northpoint Corporate Park","700 Northpoint Pkwy.","West Palm Beach","FL","33407","US","427","+1.561.683.5332","Extended Stay America","26.7616","-80.0942","Open 24 hours a day, seven days a week","https://www.extendedstayamerica.com/hotels/fl/west-palm-beach/northpoint-corporate-park"
"https://www.extendedstayamerica.com","Miami - Airport - Miami Springs","101 Fairway Dr.","Miami","FL","33166","US","67","+1.305.870.0448","Extended Stay America","25.808397","-80.282242","Open 24 hours a day, seven days a week","https://www.extendedstayamerica.com/hotels/fl/miami/miami-springs-airport"
"https://www.extendedstayamerica.com","Miami - Airport - Doral - 25th Street","7750 NW 25th Street","Miami","FL","33122","US","428","+1.305.716.9005","Extended Stay America","25.79687","-80.3236","Open 24 hours a day, seven days a week","https://www.extendedstayamerica.com/hotels/fl/miami/airport-doral-25th-street"
"https://www.extendedstayamerica.com","Miami - Airport - Doral - 87th Avenue South","8655 NW 21st Terrace","Miami","FL","33122","US","631","+1.786.331.7717","Extended Stay America","25.7938","-80.3363","Open 24 hours a day, seven days a week","https://www.extendedstayamerica.com/hotels/fl/miami/airport-doral-87th-avenue-south"
"https://www.extendedstayamerica.com","Miami - Airport - Doral","8720 NW 33rd St.","Miami","FL","33172","US","58","+1.305.436.1811","Extended Stay America","25.805389","-80.3377","Open 24 hours a day, seven days a week","https://www.extendedstayamerica.com/hotels/fl/miami/miami-airport-doral"
"https://www.extendedstayamerica.com","Miami - Airport - Blue Lagoon","6605 NW 7th St.","Miami","FL","33126","US","11","+1.305.260.0085","Extended Stay America","25.777761","-80.303784","Open 24 hours a day, seven days a week","https://www.extendedstayamerica.com/hotels/fl/miami/airport-blue-lagoon"
"https://www.extendedstayamerica.com","Miami - Coral Gables","3640 SW 22nd Street","Miami","FL","33145","US","623","+1.305.443.7444","Extended Stay America","25.749895","-80.253104","Open 24 hours a day, seven days a week","https://www.extendedstayamerica.com/hotels/fl/miami/coral-gables"
"https://www.extendedstayamerica.com","Miami - Downtown Brickell - Cruise Port","298 SW 15th Rd.","Miami","FL","33129","US","620","+1.305.856.3700","Extended Stay America","25.761363","-80.198948","Open 24 hours a day, seven days a week","https://www.extendedstayamerica.com/hotels/fl/miami/downtown-brickell-cruise-port"
"https://www.extendedstayamerica.com","Daytona Beach - International Speedway","255 Bill France Blvd.","Daytona Beach","FL","32114","US","421","+1.386.257.4311","Extended Stay America","29.1976","-81.0693","Open 24 hours a day, seven days a week","https://www.extendedstayamerica.com/hotels/fl/daytona-beach/international-speedway"
"https://www.extendedstayamerica.com","Orlando - Lake Mary - 1036 Greenwood Blvd","1036 Greenwood Blvd","Lake Mary","FL","32746","US","614","+1.407.833.0011","Extended Stay America","28.750387","-81.362614","Open 24 hours a day, seven days a week","https://www.extendedstayamerica.com/hotels/fl/lake-mary/lake-mary-1036"
"https://www.extendedstayamerica.com","Orlando - Lake Mary - 1040 Greenwood Blvd","1040 Greenwood Blvd.","Lake Mary","FL","32746","US","74","+1.407.829.2332","Extended Stay America","28.7501","-81.362982","Open 24 hours a day, seven days a week","https://www.extendedstayamerica.com/hotels/fl/lake-mary/lake-mary-1040"
"https://www.extendedstayamerica.com","Orlando - Altamonte Springs","302 Northlake Blvd.","Altamonte Springs","FL","32701","US","83","<MISSING>","Extended Stay America","28.6576","-81.3851","Open 24 hours a day, seven days a week","https://www.extendedstayamerica.com/hotels/fl/orlando/altamonte-springs"
"https://www.extendedstayamerica.com","Orlando - Maitland - Summit Tower Blvd.","1951 Summit Tower Blvd","Orlando","FL","32810","US","901","+1.407.659.0066","Extended Stay America","28.634105","-81.402891","Open 24 hours a day, seven days a week","https://www.extendedstayamerica.com/hotels/fl/orlando/maitland-summit"
"https://www.extendedstayamerica.com","Orlando - Maitland - 1776 Pembrook Dr.","1776 Pembrook Drive","Orlando","FL","32810","US","419","+1.407.475.1675","Extended Stay America","28.6328","-81.401853","Open 24 hours a day, seven days a week","https://www.extendedstayamerica.com/hotels/fl/orlando/maitland-1776-pembrook-dr"
"https://www.extendedstayamerica.com","Orlando - Maitland - 1760 Pembrook Dr.","1760 Pembrook Drive","Orlando","FL","32810","US","619","+1.407.667.0474","Extended Stay America","28.632972","-81.401491","Open 24 hours a day, seven days a week","https://www.extendedstayamerica.com/hotels/fl/orlando/maitland-1760-pembrook-dr"
"https://www.extendedstayamerica.com","Orlando Theme Parks - Major Blvd.","5620 Major Blvd.","Orlando","FL","32819","US","625","+1.407.351.1788","Extended Stay America","28.480525","-81.453428","Open 24 hours a day, seven days a week","https://www.extendedstayamerica.com/hotels/fl/orlando/universal-studios-major-blvd"
"https://www.extendedstayamerica.com","Orlando Theme Parks - Vineland Rd.","5610 Vineland Rd.","Orlando","FL","32819","US","424","+1.407.370.4428","Extended Stay America","28.4829","-81.4562","Open 24 hours a day, seven days a week","https://www.extendedstayamerica.com/hotels/fl/orlando/universal-studios-vineland-rd"
"https://www.extendedstayamerica.com","Orlando - Convention Center - Universal Blvd","8750 Universal Blvd.","Orlando","FL","32819","US","944","+1.407.903.1500","Extended Stay America","28.438929","-81.468133","Open 24 hours a day, seven days a week","https://www.extendedstayamerica.com/hotels/fl/orlando/convention-center-universal-blvd"
"https://www.extendedstayamerica.com","Orlando - Southpark - Commodity Circle","8687 Commodity Circle","Orlando","FL","32819","US","900","+1.407.248.8010","Extended Stay America","28.4468","-81.4306","Open 24 hours a day, seven days a week","https://www.extendedstayamerica.com/hotels/fl/orlando/southpark-commodity-circle"
"https://www.extendedstayamerica.com","Orlando - Southpark - Equity Row","4101 Equity Row","Orlando","FL","32819","US","114","+1.407.352.5577","Extended Stay America","28.4447","-81.4286","Open 24 hours a day, seven days a week","https://www.extendedstayamerica.com/hotels/fl/orlando/southpark-equity-row"
"https://www.extendedstayamerica.com","Orlando - Convention Ctr - 6443 Westwood","6443 Westwood Blvd.","Orlando","FL","32821","US","426","+1.407.351.1982","Extended Stay America","28.420103","-81.466102","Open 24 hours a day, seven days a week","https://www.extendedstayamerica.com/hotels/fl/orlando/convention-center-6443-westwood"
"https://www.extendedstayamerica.com","Orlando - Lake Buena Vista","8100 Palm Pkwy.","Orlando","FL","32836","US","945","+1.407.239.4300","Extended Stay America","28.3914","-81.496854","Open 24 hours a day, seven days a week","https://www.extendedstayamerica.com/hotels/fl/orlando/lake-buena-vista"
"https://www.extendedstayamerica.com","Orlando - Convention Center - Sports Complex","6451 Westwood Blvd.","Orlando","FL","32821","US","627","+1.407.352.3454","Extended Stay America","28.420051","-81.466364","Open 24 hours a day, seven days a week","https://www.extendedstayamerica.com/hotels/fl/orlando/convention-center-sports-complex"
"https://www.extendedstayamerica.com","Jacksonville - Lenoir Avenue South","4699 Lenoir Ave. S.","Jacksonville","FL","32216","US","422","+1.904.332.6512","Extended Stay America","30.24808","-81.598644","Open 24 hours a day, seven days a week","https://www.extendedstayamerica.com/hotels/fl/jacksonville/lenoir-avenue-south"
"https://www.extendedstayamerica.com","Jacksonville - Southside - St. Johns Towne Ctr","10020 Skinner Lake Dr. ","Jacksonville","FL","32246","US","52","+1.904.642.9911","Extended Stay America","30.252107","-81.539153","Open 24 hours a day, seven days a week","https://www.extendedstayamerica.com/hotels/fl/jacksonville/southside"
"https://www.extendedstayamerica.com","Melbourne - Airport","1701 Evans Rd.","Melbourne","FL","32904","US","418","+1.321.733.6050","Extended Stay America","28.0833","-80.6545","Open 24 hours a day, seven days a week","https://www.extendedstayamerica.com/hotels/fl/melbourne/airport"
"https://www.extendedstayamerica.com","Jacksonville - Lenoir Avenue East","6961 Lenoir Ave.","Jacksonville","FL","32216","US","628","+1.904.296.0181","Extended Stay America","30.2498","-81.5981","Open 24 hours a day, seven days a week","https://www.extendedstayamerica.com/hotels/fl/jacksonville/lenoir-avenue-east"
"https://www.extendedstayamerica.com","Jacksonville - Baymeadows","8300 Western Way","Jacksonville","FL","32256","US","5","+1.904.739.1881","Extended Stay America","30.2188","-81.567437","Open 24 hours a day, seven days a week","https://www.extendedstayamerica.com/hotels/fl/jacksonville/baymeadows"
"https://www.extendedstayamerica.com","Jacksonville - Deerwood Park","8801 Perimeter Park Blvd.","Jacksonville","FL","32216","US","899","+1.904.620.9008","Extended Stay America","30.253558","-81.555628","Open 24 hours a day, seven days a week","https://www.extendedstayamerica.com/hotels/fl/jacksonville/deerwood-park"
"https://www.extendedstayamerica.com","Jacksonville - Salisbury Rd. - Southpoint","4693 Salisbury Rd.","Jacksonville","FL","32256","US","51","+1.904.296.0661","Extended Stay America","30.247138","-81.588126","Open 24 hours a day, seven days a week","https://www.extendedstayamerica.com/hotels/fl/jacksonville/salisbury-rd"
"https://www.extendedstayamerica.com","Jacksonville - Riverwalk - Convention Center","1413 Prudential Dr.","Jacksonville","FL","32207","US","617","+1.904.396.1777","Extended Stay America","30.316256","-81.656264","Open 24 hours a day, seven days a week","https://www.extendedstayamerica.com/hotels/fl/jacksonville/riverwalk"
"https://www.extendedstayamerica.com","Gainesville - I-75","3600 SW 42nd St.","Gainesville","FL","32608","US","622","+1.352.375.0073","Extended Stay America","29.622679","-82.386357","Open 24 hours a day, seven days a week","https://www.extendedstayamerica.com/hotels/fl/gainesville/i75"
"https://www.extendedstayamerica.com","Lakeland-I-4","4360 Lakeland Park Drive","Lakeland","FL","33809","US","995","863.904.2050","Extended Stay America","28.09829","-81.95372","Open 24 hours a day, seven days a week","https://www.extendedstayamerica.com/hotels/fl/lakeland/lakeland-i-4"
"https://www.extendedstayamerica.com","Titusville - Space Center","4835 Helen Hauser Blvd","Titusville","FL","32780","US","1003","321.603.3555","Extended Stay America","28.549306","-80.853721","Open 24 hours a day, seven days a week","https://www.extendedstayamerica.com/hotels/fl/titusville/titusville-space-center"
"https://www.extendedstayamerica.com","Destin - US 98 - Emerald Coast Pkwy.","4615 Opa Locka Lane","Destin","FL","32541","US","972","+1.850.837.9830","Extended Stay America","30.3871","-86.4006","Open 24 hours a day, seven days a week","https://www.extendedstayamerica.com/hotels/fl/destin/us-98-emerald-coast-pkwy"
"https://www.extendedstayamerica.com","Tampa - Gibsonton - Riverview","10623 East Bay Road","Gibsonton","FL","33534","US","989","813.322.8355","Extended Stay America","27.848168","-82.349221","Open 24 hours a day, seven days a week","https://www.extendedstayamerica.com/hotels/fl/tampa/gibsonton-riverview"
"https://www.extendedstayamerica.com","Tampa - North - USF - Attractions","12242 Morris Bridge Rd.","Temple Terrace","FL","33637","US","616","+1.813.989.2264","Extended Stay America","28.0688","-82.3569","Open 24 hours a day, seven days a week","https://www.extendedstayamerica.com/hotels/fl/tampa/north-usf-attractions"
"https://www.extendedstayamerica.com","Tampa - Brandon","330 Grand Regency Blvd.","Brandon","FL","33510","US","13","+1.813.643.5900","Extended Stay America","27.9445","-82.3261","Open 24 hours a day, seven days a week","https://www.extendedstayamerica.com/hotels/fl/tampa/tampa-brandon"
"https://www.extendedstayamerica.com","Tampa - North Airport","5401 Beaumont Center Blvd. E.Boulevard East","Tampa","FL","33634","US","79","+1.813.243.1913","Extended Stay America","27.9965","-82.5488","Open 24 hours a day, seven days a week","https://www.extendedstayamerica.com/hotels/fl/tampa/tampa-north-airport"
"https://www.extendedstayamerica.com","Tampa - Airport - Memorial Hwy.","4811 Memorial Highway","Tampa","FL","33634","US","423","+1.813.886.5253","Extended Stay America","27.981869","-82.5477","Open 24 hours a day, seven days a week","https://www.extendedstayamerica.com/hotels/fl/tampa/airport-memorial-hwy"
"https://www.extendedstayamerica.com","Tampa - Airport - N. Westshore Blvd.","1805 N. Westshore Blvd.","Tampa","FL","33607","US","902","+1.813.637.8990","Extended Stay America","27.957752","-82.524224","Open 24 hours a day, seven days a week","https://www.extendedstayamerica.com/hotels/fl/tampa/airport-n-westshore-blvd"
"https://www.extendedstayamerica.com","Tampa - Airport - Spruce Street","4312 W. Spruce St.","Tampa","FL","33607","US","624","+1.813.873.2850","Extended Stay America","27.9594","-82.516157","Open 24 hours a day, seven days a week","https://www.extendedstayamerica.com/hotels/fl/tampa/airport-spruce-street"
"https://www.extendedstayamerica.com","Tampa - Aprile Farms","8940 E. Sligh Ave","Tampa","FL","33610","US","1004","813.454.0700","Extended Stay America","28.01068","-82.45125","Open 24 hours a day, seven days a week","https://www.extendedstayamerica.com/hotels/fl/tampa/aprile-farms"
"https://www.extendedstayamerica.com","Clearwater - Carillon Park","2311 Ulmerton Rd.","Clearwater","FL","33762","US","118","+1.727.572.4800","Extended Stay America","27.893886","-82.6653","Open 24 hours a day, seven days a week","https://www.extendedstayamerica.com/hotels/fl/tampa/carillon-park"
"https://www.extendedstayamerica.com","St. Petersburg - Clearwater - Executive Dr.","3089 Executive Dr.","Clearwater","FL","33762","US","621","+1.727.561.9032","Extended Stay America","27.894477","-82.676858","Open 24 hours a day, seven days a week","https://www.extendedstayamerica.com/hotels/fl/tampa/clearwater-airport"
"https://www.extendedstayamerica.com","Port Charlotte - I-75","24100 Beatrix Boulevard","Port Charlotte","FL","33954","US","992","941.246.0133","Extended Stay America","27.018087","-82.053856","Open 24 hours a day, seven days a week","https://www.extendedstayamerica.com/hotels/fl/port-charlotte/i-75"
"https://www.extendedstayamerica.com","Tallahassee - Killearn","1950 Raymond Diehl Rd.","Tallahassee","FL","32308","US","420","+1.850.383.1700","Extended Stay America","30.500111","-84.244564","Open 24 hours a day, seven days a week","https://www.extendedstayamerica.com/hotels/fl/tallahassee/killearn"
"https://www.extendedstayamerica.com","Atlanta - Vinings","2474 Cumberland Pkwy.","Atlanta","GA","30339","US","429","+1.770.436.1511","Extended Stay America","33.8642","-84.4769","Open 24 hours a day, seven days a week","https://www.extendedstayamerica.com/hotels/ga/atlanta/vinings"
"https://www.extendedstayamerica.com","Atlanta - Clairmont","3115 Clairmont Rd.","Atlanta","GA","30329","US","637","+1.404.679.4333","Extended Stay America","33.849431","-84.315543","Open 24 hours a day, seven days a week","https://www.extendedstayamerica.com/hotels/ga/atlanta/clairmont"
"https://www.extendedstayamerica.com","Atlanta - Buckhead","3967 Peachtree Road","Atlanta","GA","30319","US","946","+1.404.237.9100","Extended Stay America","33.8584","-84.3411","Open 24 hours a day, seven days a week","https://www.extendedstayamerica.com/hotels/ga/atlanta/lenox"
"https://www.extendedstayamerica.com","Atlanta - Marietta - Wildwood","2010 Powers Ferry Road","Atlanta","GA","30339","US","947","+1.770.933.8010","Extended Stay America","33.9035","-84.46","Open 24 hours a day, seven days a week","https://www.extendedstayamerica.com/hotels/ga/atlanta/marietta"
"https://www.extendedstayamerica.com","Atlanta - Perimeter - Peachtree Dunwoody","6330 Peachtree Dunwoody Rd. NE","Atlanta","GA","30328","US","948","+1.770.379.0111","Extended Stay America","33.9266","-84.3516","Open 24 hours a day, seven days a week","https://www.extendedstayamerica.com/hotels/ga/atlanta/perimeter-peachtree-dunwoody"
"https://www.extendedstayamerica.com","Atlanta - Cumberland Mall","3103 Sports Ave.","Smyrna","GA","30080","US","25","+1.770.432.4000","Extended Stay America","33.883216","-84.4774","Open 24 hours a day, seven days a week","https://www.extendedstayamerica.com/hotels/ga/atlanta/cumberland-mall"
"https://www.extendedstayamerica.com","Atlanta - Marietta - Powers Ferry Rd.","2239 Powers Ferry Rd.","Marietta","GA","30067","US","97","+1.770.303.0043","Extended Stay America","33.9007","-84.4489","Open 24 hours a day, seven days a week","https://www.extendedstayamerica.com/hotels/ga/atlanta/marietta-powers-ferry-rd"
"https://www.extendedstayamerica.com","Atlanta - Marietta - Windy Hill","1967 Leland Dr.","Marietta","GA","30067","US","634","+1.770.690.9477","Extended Stay America","33.9055","-84.473778","Open 24 hours a day, seven days a week","https://www.extendedstayamerica.com/hotels/ga/atlanta/marietta-windy-hill"
"https://www.extendedstayamerica.com","Atlanta - Marietta - Interstate N. Pkwy","2225 Interstate North Pkwy.","Atlanta","GA","30339","US","904","+1.770.226.0242","Extended Stay America","33.9033","-84.4657","Open 24 hours a day, seven days a week","https://www.extendedstayamerica.com/hotels/ga/atlanta/marietta-interstate-n-pkwy"
"https://www.extendedstayamerica.com","Atlanta - Morrow","2265 Mt. Zion Pkwy.","Morrow","GA","30260","US","635","+1.770.472.0727","Extended Stay America","33.5613","-84.3162","Open 24 hours a day, seven days a week","https://www.extendedstayamerica.com/hotels/ga/atlanta/morrow"
"https://www.extendedstayamerica.com","Atlanta - Perimeter - Crestline","905 Crestline Pkwy.","Atlanta","GA","30328","US","641","+1.770.396.5600","Extended Stay America","33.9273","-84.353","Open 24 hours a day, seven days a week","https://www.extendedstayamerica.com/hotels/ga/atlanta/perimeter-crestline"
"https://www.extendedstayamerica.com","Atlanta - Peachtree Corners","7065 Jimmy Carter Blvd.","Norcross","GA","30092","US","433","+1.770.582.9984","Extended Stay America","33.9458","-84.2408","Open 24 hours a day, seven days a week","https://www.extendedstayamerica.com/hotels/ga/atlanta/peachtree-corners"
"https://www.extendedstayamerica.com","Atlanta - Perimeter - Hammond Drive","1050 Hammond Dr.","Atlanta","GA","30328","US","90","+1.770.522.0025","Extended Stay America","33.91895","-84.3534","Open 24 hours a day, seven days a week","https://www.extendedstayamerica.com/hotels/ga/atlanta/perimeter-hammond-drive"
"https://www.extendedstayamerica.com","Atlanta - Kennesaw Town Center","3000 George Busbee Pkwy.","Kennesaw","GA","30144","US","636","+1.770.422.1403","Extended Stay America","34.0274","-84.5681","Open 24 hours a day, seven days a week","https://www.extendedstayamerica.com/hotels/ga/atlanta/kennesaw-town-center"
"https://www.extendedstayamerica.com","Atlanta - Alpharetta - Rock Mill Rd.","1950 Rock Mill Rd.","Alpharetta","GA","30022","US","633","+1.770.475.2676","Extended Stay America","34.0525","-84.2862","Open 24 hours a day, seven days a week","https://www.extendedstayamerica.com/hotels/ga/atlanta/alpharetta-rock-mill-rd"
"https://www.extendedstayamerica.com","Atlanta - Kennesaw Chastain Rd.","3316 Busbee Dr.","Kennesaw","GA","30144","US","430","+1.770.425.6101","Extended Stay America","34.0316","-84.5728","Open 24 hours a day, seven days a week","https://www.extendedstayamerica.com/hotels/ga/atlanta/kennesaw"
"https://www.extendedstayamerica.com","Atlanta - Gwinnett Place","3390 Venture Parkway","Duluth","GA","30096","US","974","+1.770.623.6800","Extended Stay America","34.068594","-84.266339","Open 24 hours a day, seven days a week","https://www.extendedstayamerica.com/hotels/ga/atlanta/gwinnett-place"
"https://www.extendedstayamerica.com","Atlanta - Alpharetta - Northpoint - West","3329 Old Milton Pkwy","Alpharetta","GA","30005","US","903","+1.770.569.1730","Extended Stay America","34.068594","-84.266339","Open 24 hours a day, seven days a week","https://www.extendedstayamerica.com/hotels/ga/atlanta/alpharetta-northpoint-west"
"https://www.extendedstayamerica.com","Atlanta - Duluth","3430 Venture Pkwy.","Duluth","GA","30096","US","638","+1.770.622.0270","Extended Stay America","33.955676","-84.126816","Open 24 hours a day, seven days a week","https://www.extendedstayamerica.com/hotels/ga/atlanta/duluth"
"https://www.extendedstayamerica.com","Atlanta - Alpharetta - Northpoint - East","3331 Old Milton Pkwy.","Alpharetta","GA","30005","US","431","+1.770.475.7871","Extended Stay America","34.068587","-84.266243","Open 24 hours a day, seven days a week","https://www.extendedstayamerica.com/hotels/ga/atlanta/alpharetta-northpoint-east"
"https://www.extendedstayamerica.com","Macon - North","3980 Riverside Dr.","Macon","GA","31210","US","432","<MISSING>","Extended Stay America","32.9049","-83.6902","Open 24 hours a day, seven days a week","https://www.extendedstayamerica.com/hotels/ga/macon/north"
"https://www.extendedstayamerica.com","Savannah - Pooler","500 Outlets Parkway South","Pooler","GA","31322","US","993","912.202.1055","Extended Stay America","32.132029","-81.24504","Open 24 hours a day, seven days a week","https://www.extendedstayamerica.com/hotels/ga/savannah/savannah-pooler"
"https://www.extendedstayamerica.com","Savannah - Midtown","5511 Abercorn St.","Savannah","GA","31405","US","640","+1.912.692.0076","Extended Stay America","32.025394","-81.109282","Open 24 hours a day, seven days a week","https://www.extendedstayamerica.com/hotels/ga/savannah/midtown"
"https://www.extendedstayamerica.com","Bluffton - Hilton Head","108 Seagrass Station Road","Bluffton","SC","29910","US","994","843.936.8838","Extended Stay America","32.28587","-80.94155","Open 24 hours a day, seven days a week","https://www.extendedstayamerica.com/hotels/sc/hilton-head/bluffton-hilton-head"
"https://www.extendedstayamerica.com","Charleston - Mt. Pleasant","304 Wingo Way","Mt. Pleasant","SC","29464","US","810","+1.843.884.4453","Extended Stay America","32.804712","-79.895619","Open 24 hours a day, seven days a week","https://www.extendedstayamerica.com/hotels/sc/charleston/mt-pleasant"
"https://www.extendedstayamerica.com","Charleston - Airport","5045 N. Arco Ln.","North Charleston","SC","29418","US","81","+1.843.740.3440","Extended Stay America","32.8727","-80.0136","Open 24 hours a day, seven days a week","https://www.extendedstayamerica.com/hotels/sc/charleston/airport"
"https://www.extendedstayamerica.com","Charleston - North Charleston","5059 N. Arco Ln.","North Charleston","SC","29418","US","813","+1.843.747.3787","Extended Stay America","32.8732","-80.0136","Open 24 hours a day, seven days a week","https://www.extendedstayamerica.com/hotels/sc/charleston/north-charleston"
"https://www.extendedstayamerica.com","Charleston - Northwoods Blvd.","7641 Northwoods Blvd.","North Charleston","SC","29406","US","478","+1.843.553.0036","Extended Stay America","32.9396","-80.0463","Open 24 hours a day, seven days a week","https://www.extendedstayamerica.com/hotels/sc/charleston/northwoods-blvd"
"https://www.extendedstayamerica.com","Boise - Airport","2500 S. Vista Avenue","Boise","ID","83705","US","643","+1.208.363.9040","Extended Stay America","43.579735","-116.213647","Open 24 hours a day, seven days a week","https://www.extendedstayamerica.com/hotels/id/boise/airport"
"https://www.extendedstayamerica.com","Bloomington - Normal","1805 S. Veterans Pkwy.","Bloomington","IL","61701","US","653","+1.309.662.8533","Extended Stay America","40.46035","-88.9651","Open 24 hours a day, seven days a week","https://www.extendedstayamerica.com/hotels/il/bloomington/normal"
"https://www.extendedstayamerica.com","Peoria - North","4306 North Brandywine Dr.","Peoria","IL","61614","US","660","+1.309.688.3110","Extended Stay America","40.73932","-89.6232","Open 24 hours a day, seven days a week","https://www.extendedstayamerica.com/hotels/il/peoria/north"
"https://www.extendedstayamerica.com","Chicago - Romeoville - Bollingbrook","1225 Lakeview Dr.","Romeoville","IL","60446","US","648","+1.630.226.8966","Extended Stay America","41.658806","-88.1206","Open 24 hours a day, seven days a week","https://www.extendedstayamerica.com/hotels/il/chicago/romeoville-bollingbrook"
"https://www.extendedstayamerica.com","Chicago - Darien","2345 Sokol Court","Darien","IL","60561","US","656","+1.630.985.4708","Extended Stay America","41.718197","-88.001975","Open 24 hours a day, seven days a week","https://www.extendedstayamerica.com/hotels/il/chicago/darien"
"https://www.extendedstayamerica.com","Chicago - Naperville - West","1575 Bond St.","Naperville","IL","60563","US","652","+1.630.983.0000","Extended Stay America","41.796765","-88.201812","Open 24 hours a day, seven days a week","https://www.extendedstayamerica.com/hotels/il/chicago/naperville-west"
"https://www.extendedstayamerica.com","Champaign - Urbana","610 W. Marketview Dr.","Champaign","IL","61822","US","666","+1.217.351.8899","Extended Stay America","40.1372","-88.2531","Open 24 hours a day, seven days a week","https://www.extendedstayamerica.com/hotels/il/champaign/urbana"
"https://www.extendedstayamerica.com","Chicago - Midway","7524 State Rd.","Bedford Park","IL","60638","US","668","+1.708.496.8211","Extended Stay America","41.7574","-87.7448","Open 24 hours a day, seven days a week","https://www.extendedstayamerica.com/hotels/il/chicago/midway"
"https://www.extendedstayamerica.com","Chicago - O'Hare - Allstate Arena","1207 E. Touhy Ave.","Des Plaines","IL","60018","US","435","+1.847.768.0395","Extended Stay America","42.009396","-87.89405","Open 24 hours a day, seven days a week","https://www.extendedstayamerica.com/hotels/il/chicago/ohare-south"
"https://www.extendedstayamerica.com","Chicago - Skokie","5211 Old Orchard Rd.","Skokie","IL","60077","US","663","+1.847.663.9031","Extended Stay America","42.0625","-87.75815","Open 24 hours a day, seven days a week","https://www.extendedstayamerica.com/hotels/il/chicago/skokie"
"https://www.extendedstayamerica.com","Chicago - Lombard - Yorktown Center","260 E. 22nd St.","Lombard","IL","60148","US","436","+1.630.424.1000","Extended Stay America","41.845776","-88.008531","Open 24 hours a day, seven days a week","https://www.extendedstayamerica.com/hotels/il/chicago/lombard-yorktown-center"
"https://www.extendedstayamerica.com","Chicago - Hillside","4575 Frontage Rd.","Hillside","IL","60162","US","662","+1.708.544.4409","Extended Stay America","41.872587","-87.8959","Open 24 hours a day, seven days a week","https://www.extendedstayamerica.com/hotels/il/chicago/hillside"
"https://www.extendedstayamerica.com","Chicago - Elmhurst - O'Hare","550 West Grand Ave.","Elmhurst","IL","60126","US","664","+1.630.530.4353","Extended Stay America","41.927359","-87.959736","Open 24 hours a day, seven days a week","https://www.extendedstayamerica.com/hotels/il/chicago/elmhurst-ohare"
"https://www.extendedstayamerica.com","Chicago - Itasca","1181 N. Rohlwing Rd.","Itasca","IL","60143","US","645","+1.630.250.1111","Extended Stay America","41.98565","-88.03146","Open 24 hours a day, seven days a week","https://www.extendedstayamerica.com/hotels/il/chicago/itasca"
"https://www.extendedstayamerica.com","Chicago - O'Hare","1201 E. Touhy Ave.","Des Plaines","IL","60018","US","647","+1.847.294.9693","Extended Stay America","42.009403","-87.894166","Open 24 hours a day, seven days a week","https://www.extendedstayamerica.com/hotels/il/chicago/ohare"
"https://www.extendedstayamerica.com","Chicago - Westmont - Oak Brook","855 Pasquinelli Dr.","Westmont","IL","60559","US","133","+1.630.323.9292","Extended Stay America","41.8168","-87.955276","Open 24 hours a day, seven days a week","https://www.extendedstayamerica.com/hotels/il/chicago/westmont-oak-brook"
"https://www.extendedstayamerica.com","Chicago - Rolling Meadows","2400 Golf Rd.","Rolling Meadows","IL","60008","US","657","+1.847.357.1000","Extended Stay America","42.05107","-88.013811","Open 24 hours a day, seven days a week","https://www.extendedstayamerica.com/hotels/il/chicago/rolling-meadows"
"https://www.extendedstayamerica.com","Chicago - Downers Grove","3150 Finley Rd.","Downers Grove","IL","60515","US","659","+1.630.810.4124","Extended Stay America","41.830647","-88.0255","Open 24 hours a day, seven days a week","https://www.extendedstayamerica.com/hotels/il/chicago/downers-grove"
"https://www.extendedstayamerica.com","Chicago - Lisle","445 Warrenville Rd.","Lisle","IL","60532","US","661","+1.630.434.7710","Extended Stay America","41.808073","-88.0589","Open 24 hours a day, seven days a week","https://www.extendedstayamerica.com/hotels/il/chicago/lisle"
"https://www.extendedstayamerica.com","Chicago - Woodfield Mall","1200 American Ln.","Schaumburg","IL","60173","US","646","+1.847.517.7255","Extended Stay America","42.047529","-88.050106","Open 24 hours a day, seven days a week","https://www.extendedstayamerica.com/hotels/il/chicago/woodfield-mall"
"https://www.extendedstayamerica.com","Chicago - Lansing","2520 173rd St.","Lansing","IL","60438","US","658","+1.708.895.6402","Extended Stay America","41.581119","-87.5567","Open 24 hours a day, seven days a week","https://www.extendedstayamerica.com/hotels/il/chicago/lansing"
"https://www.extendedstayamerica.com","Chicago - Vernon Hills - Lincolnshire","675 Woodlands Pkwy.","Vernon Hills","IL","60061","US","127","+1.847.955.1111","Extended Stay America","42.212482","-87.936643","Open 24 hours a day, seven days a week","https://www.extendedstayamerica.com/hotels/il/chicago/vernon-hills-lincolnshire"
"https://www.extendedstayamerica.com","Chicago - Buffalo Grove - Deerfield","1525 Busch Pkwy.","Buffalo Grove","IL","60089","US","650","+1.847.215.0641","Extended Stay America","42.171695","-87.925012","Open 24 hours a day, seven days a week","https://www.extendedstayamerica.com/hotels/il/chicago/buffalo-grove-deerfield"
"https://www.extendedstayamerica.com","Chicago - Lombard - Oak Brook","2701 Technology Dr.","Lombard","IL","60148","US","87","<MISSING>","Extended Stay America","41.8388","-87.9988","Open 24 hours a day, seven days a week","https://www.extendedstayamerica.com/hotels/il/chicago/lombard-oak-brook"
"https://www.extendedstayamerica.com","Chicago - Hanover Park","1075 Lake St.","Hanover Park","IL","60133","US","644","+1.630.893.4823","Extended Stay America","41.97798","-88.13064","Open 24 hours a day, seven days a week","https://www.extendedstayamerica.com/hotels/il/chicago/hanover-park"
"https://www.extendedstayamerica.com","Chicago - Schaumburg - Convention Center","51 E. State Pkwy.","Schaumburg","IL","60173","US","108","+1.847.882.6900","Extended Stay America","42.055565","-88.077776","Open 24 hours a day, seven days a week","https://www.extendedstayamerica.com/hotels/il/chicago/schaumburg-convention-center"
"https://www.extendedstayamerica.com","Chicago - Schaumburg - I-90","2000 N. Roselle Rd.","Schaumburg","IL","60195","US","654","+1.847.882.7011","Extended Stay America","42.0611","-88.079545","Open 24 hours a day, seven days a week","https://www.extendedstayamerica.com/hotels/il/chicago/schaumburg-i90"
"https://www.extendedstayamerica.com","Merrillville - Us Rte. 30","1355 E. 83rd Ave.","Merrillville","IN","46410","US","669","+1.219.769.4740","Extended Stay America","41.467892","-87.3199","Open 24 hours a day, seven days a week","https://www.extendedstayamerica.com/hotels/in/merrillville/route-30"
"https://www.extendedstayamerica.com","Chicago - Naperville - East","1827 Centre Point Cir.","Naperville","IL","60563","US","86","+1.630.577.0200","Extended Stay America","41.804962","-88.1327","Open 24 hours a day, seven days a week","https://www.extendedstayamerica.com/hotels/il/chicago/naperville-east"
"https://www.extendedstayamerica.com","Chicago - Vernon Hills - Lake Forest","215 N. Milwaukee Ave.","Vernon Hills","IL","60061","US","655","+1.847.821.7101","Extended Stay America","42.229403","-87.942032","Open 24 hours a day, seven days a week","https://www.extendedstayamerica.com/hotels/il/chicago/vernon-hills-lake-forest"
"https://www.extendedstayamerica.com","Rockford - State Street","747 N. Bell School Rd.","Rockford","IL","61107","US","437","+1.815.397.8316","Extended Stay America","42.274465","-88.970222","Open 24 hours a day, seven days a week","https://www.extendedstayamerica.com/hotels/il/rockford/state-street"
"https://www.extendedstayamerica.com","Rockford - I-90","653 Clark Dr.","Rockford","IL","61107","US","667","+1.815.226.8969","Extended Stay America","42.2734","-88.96708","Open 24 hours a day, seven days a week","https://www.extendedstayamerica.com/hotels/il/rockford/i90"
"https://www.extendedstayamerica.com","South Bend - Mishawaka - South","4715 N. Main St.","Mishawaka","IN","46545","US","439","+1.574.255.8031","Extended Stay America","41.7027","-86.18263","Open 24 hours a day, seven days a week","https://www.extendedstayamerica.com/hotels/in/south-bend/mishawaka-south"
"https://www.extendedstayamerica.com","South Bend - Mishawaka - North","5305 N. Main St.","Mishawaka","IN","46545","US","671","+1.574.277.9912","Extended Stay America","41.7061","-86.18273","Open 24 hours a day, seven days a week","https://www.extendedstayamerica.com/hotels/in/south-bend/mishawaka-north"
"https://www.extendedstayamerica.com","Milwaukee - Waukesha","2520 Plaza Ct.","Waukesha","WI","53186","US","874","+1.262.798.0217","Extended Stay America","43.036865","-88.1783","Open 24 hours a day, seven days a week","https://www.extendedstayamerica.com/hotels/wi/milwaukee/waukesha"
"https://www.extendedstayamerica.com","Milwaukee - Brookfield","325 N. Brookfield Rd.","Brookfield","WI","53045","US","9","+1.262.782.9300","Extended Stay America","43.035147","-88.1467","Open 24 hours a day, seven days a week","https://www.extendedstayamerica.com/hotels/wi/milwaukee/brookfield"
"https://www.extendedstayamerica.com","Milwaukee - Wauwatosa","11121 W. North Ave.","Wauwatosa","WI","53226","US","873","+1.414.443.1909","Extended Stay America","43.059527","-88.051684","Open 24 hours a day, seven days a week","https://www.extendedstayamerica.com/hotels/wi/milwaukee/wauwatosa"
"https://www.extendedstayamerica.com","Chicago - Burr Ridge","15 W. 122nd S. Frontage Rd.","Burr Ridge","IL","60527","US","649","+1.630.323.6630","Extended Stay America","41.754026","-87.91719","Open 24 hours a day, seven days a week","https://www.extendedstayamerica.com/hotels/il/chicago/burr-ridge"
"https://www.extendedstayamerica.com","Chicago - Gurnee","5724 Northridge Dr.","Gurnee","IL","60031","US","665","+1.847.662.3060","Extended Stay America","42.3774","-87.94331","Open 24 hours a day, seven days a week","https://www.extendedstayamerica.com/hotels/il/chicago/gurnee"
"https://www.extendedstayamerica.com","Madison - Junction Court","55 Junction Ct.","Madison","WI","53717","US","876","+1.608.833.1400","Extended Stay America","43.0745","-89.5238","Open 24 hours a day, seven days a week","https://www.extendedstayamerica.com/hotels/wi/madison/junction-court"
"https://www.extendedstayamerica.com","Madison - Old Sauk Rd.","45 Junction Ct.","Madison","WI","53717","US","503","+1.608.833.2121","Extended Stay America","43.0745","-89.5242","Open 24 hours a day, seven days a week","https://www.extendedstayamerica.com/hotels/wi/madison/old-sauk-rd"
"https://www.extendedstayamerica.com","Evansville - East","301 Eagle Crest Dr.","Evansville","IN","47715","US","438","+1.812.479.0103","Extended Stay America","37.9743","-87.456932","Open 24 hours a day, seven days a week","https://www.extendedstayamerica.com/hotels/in/evansville/east"
"https://www.extendedstayamerica.com","Fort Wayne - North","5810 Challenger Pkwy.","Fort Wayne","IN","46818","US","440","+1.260.490.0500","Extended Stay America","41.130515","-85.162664","Open 24 hours a day, seven days a week","https://www.extendedstayamerica.com/hotels/in/fort-wayne/north"
"https://www.extendedstayamerica.com","Fort Wayne - South","8309 W. Jefferson Blvd.","Fort Wayne","IN","46804","US","673","+1.260.432.1916","Extended Stay America","41.0315","-85.2507","Open 24 hours a day, seven days a week","https://www.extendedstayamerica.com/hotels/in/fort-wayne/south"
"https://www.extendedstayamerica.com","Findlay - Tiffin Avenue","2355 Tiffin Avenue","Findlay","OH","45840","US","975","+1.419.425.9696","Extended Stay America","41.0552","-83.5975","Open 24 hours a day, seven days a week","https://www.extendedstayamerica.com/hotels/oh/findlay/tiffin-avenue"
"https://www.extendedstayamerica.com","Toledo - Maumee","542 W. Dussel Dr.","Maumee","OH","43537","US","471","+1.419.891.1211","Extended Stay America","41.580453","-83.682877","Open 24 hours a day, seven days a week","https://www.extendedstayamerica.com/hotels/oh/toledo/maumee"
"https://www.extendedstayamerica.com","Toledo - Holland","6155 Trust Dr.","Holland","OH","43528","US","784","+1.419.861.1133","Extended Stay America","41.615643","-83.687132","Open 24 hours a day, seven days a week","https://www.extendedstayamerica.com/hotels/oh/toledo/holland"
"https://www.extendedstayamerica.com","Indianapolis - Castleton","7940 N. Shadeland Ave.","Indianapolis","IN","46250","US","672","+1.317.596.1288","Extended Stay America","39.899342","-86.045951","Open 24 hours a day, seven days a week","https://www.extendedstayamerica.com/hotels/in/indianapolis/castleton"
"https://www.extendedstayamerica.com","Indianapolis - North - Carmel","9750 Lakeshore Dr.","Indianapolis","IN","46280","US","675","+1.317.843.1181","Extended Stay America","39.92984","-86.10291","Open 24 hours a day, seven days a week","https://www.extendedstayamerica.com/hotels/in/indianapolis/north-carmel"
"https://www.extendedstayamerica.com","Dayton - North","6688 Miller Ln.","Dayton","OH","45414","US","787","+1.937.898.9221","Extended Stay America","39.844059","-84.1922","Open 24 hours a day, seven days a week","https://www.extendedstayamerica.com/hotels/oh/dayton/north"
"https://www.extendedstayamerica.com","Indianapolis - Northwest - I-465","9370 Waldemar Road","Indianapolis","IN","46268","US","906","+1.317.471.0700","Extended Stay America","39.920437","-86.229308","Open 24 hours a day, seven days a week","https://www.extendedstayamerica.com/hotels/in/indianapolis/northwest-i465"
"https://www.extendedstayamerica.com","Indianapolis - Northwest - College Park","9030 Wesleyan Rd.","Indianapolis","IN","46268","US","674","+1.317.872.3090","Extended Stay America","39.91762","-86.223796","Open 24 hours a day, seven days a week","https://www.extendedstayamerica.com/hotels/in/indianapolis/northwest-college-park"
"https://www.extendedstayamerica.com","Indianapolis - Airport - W. Southern Ave.","5350 W. Southern Ave.","Indianapolis","IN","46241","US","905","+1.317.241.0700","Extended Stay America","39.728113","-86.25152","Open 24 hours a day, seven days a week","https://www.extendedstayamerica.com/hotels/in/indianapolis/airport-w-southern-ave"
"https://www.extendedstayamerica.com","Indianapolis - Airport","2730 Fortune Cir. W.","Indianapolis","IN","46241","US","670","+1.317.248.0465","Extended Stay America","39.7254","-86.2611","Open 24 hours a day, seven days a week","https://www.extendedstayamerica.com/hotels/in/indianapolis/airport"
"https://www.extendedstayamerica.com","Indianapolis - West 86th St.","8520 N.W. Blvd.","Indianapolis","IN","46278","US","49","+1.317.334.7829","Extended Stay America","39.909069","-86.2663","Open 24 hours a day, seven days a week","https://www.extendedstayamerica.com/hotels/in/indianapolis/west-86th-st"
"https://www.extendedstayamerica.com","Cincinnati - Fairfield","9651 Seward Rd.","Fairfield","OH","45014","US","790","+1.513.860.5733","Extended Stay America","39.3178","-84.4957","Open 24 hours a day, seven days a week","https://www.extendedstayamerica.com/hotels/oh/cincinnati/fairfield"
"https://www.extendedstayamerica.com","Cincinnati - Springdale - I-275","320 Glensprings Dr.","Springdale","OH","45246","US","779","+1.513.671.4900","Extended Stay America","39.29232","-84.486947","Open 24 hours a day, seven days a week","https://www.extendedstayamerica.com/hotels/oh/cincinnati/springdale-i275"
"https://www.extendedstayamerica.com","Cincinnati - Florence - Meijer Drive","200 Meijer Dr.","Florence","KY","41042","US","442","+1.859.746.0172","Extended Stay America","39.0119","-84.636289","Open 24 hours a day, seven days a week","https://www.extendedstayamerica.com/hotels/oh/cincinnati/florence-meijer-drive"
"https://www.extendedstayamerica.com","Cincinnati - Florence - Turfway Rd.","7350 Turfway Rd.","Florence","KY","41042","US","684","+1.859.282.7829","Extended Stay America","39.0142","-84.631706","Open 24 hours a day, seven days a week","https://www.extendedstayamerica.com/hotels/oh/cincinnati/florence-turfway-rd"
"https://www.extendedstayamerica.com","Cincinnati - Covington","650 West 3rd St.","Covington","KY","41011","US","683","+1.859.581.3000","Extended Stay America","39.087609","-84.522389","Open 24 hours a day, seven days a week","https://www.extendedstayamerica.com/hotels/oh/cincinnati/covington"
"https://www.extendedstayamerica.com","Grand Rapids - Kentwood","3747 29th St. S.E.","Kentwood","MI","49512","US","715","+1.616.977.6750","Extended Stay America","42.909424","-85.573842","Open 24 hours a day, seven days a week","https://www.extendedstayamerica.com/hotels/mi/grand-rapids/kentwood"
"https://www.extendedstayamerica.com","Des Moines - Urbandale","3940 114th St.","Urbandale","IA","50322","US","642","+1.515.276.1929","Extended Stay America","41.629955","-93.7727","Open 24 hours a day, seven days a week","https://www.extendedstayamerica.com/hotels/ia/des-moines/urbandale"
"https://www.extendedstayamerica.com","Des Moines - West Des Moines","2701 Westown Pkwy.","West Des Moines","IA","50266","US","434","+1.515.327.9100","Extended Stay America","41.596265","-93.741095","Open 24 hours a day, seven days a week","https://www.extendedstayamerica.com/hotels/ia/des-moines/west-des-moines"
"https://www.extendedstayamerica.com","Kansas City - Country Club Plaza","4535 Main St.","Kansas City","MO","64111","US","92","+1.816.531.2212","Extended Stay America","39.04493","-94.586748","Open 24 hours a day, seven days a week","https://www.extendedstayamerica.com/hotels/mo/kansas-city/country-club-plaza"
"https://www.extendedstayamerica.com","Kansas City - Lenexa - 87th St.","8015 Lenexa Drive","Lenexa","KS","66215","US","907","+1.913.894.5550","Extended Stay America","38.9825","-94.73051","Open 24 hours a day, seven days a week","https://www.extendedstayamerica.com/hotels/ks/kansas-city/lenexa-87th-st"
"https://www.extendedstayamerica.com","Kansas City - Shawnee Mission","6451 E. Frontage Rd.","Merriam","KS","66202","US","65","+1.913.236.6006","Extended Stay America","39.0121","-94.6929","Open 24 hours a day, seven days a week","https://www.extendedstayamerica.com/hotels/ks/kansas-city/shawnee-mission"
"https://www.extendedstayamerica.com","Kansas City - Overland Park - Metcalf Ave","7201 W. 106th Street","Overland Park","KS","66212","US","908","+1.913.642.2299","Extended Stay America","38.936217","-94.669222","Open 24 hours a day, seven days a week","https://www.extendedstayamerica.com/hotels/ks/kansas-city/overland-park-metcalf-ave"
"https://www.extendedstayamerica.com","Kansas City - Airport - Tiffany Springs","9701 N. Shannon Ave.","Kansas City","MO","64153","US","53","+1.816.891.8500","Extended Stay America","39.2685","-94.669543","Open 24 hours a day, seven days a week","https://www.extendedstayamerica.com/hotels/ks/kansas-city/airport-tiffany-springs"
"https://www.extendedstayamerica.com","Kansas City - Airport ","11712 N.W. Plaza Cir.","Kansas City","MO","64153","US","724","+1.816.270.7829","Extended Stay America","39.304713","-94.6822","Open 24 hours a day, seven days a week","https://www.extendedstayamerica.com/hotels/ks/kansas-city/airport"
"https://www.extendedstayamerica.com","Kansas City - Overland Park - Nall Ave.","5401 W. 110th St.","Overland Park","KS","66211","US","88","+1.913.661.7111","Extended Stay America","38.929281","-94.647625","Open 24 hours a day, seven days a week","https://www.extendedstayamerica.com/hotels/ks/kansas-city/overland-park-nall-ave"
"https://www.extendedstayamerica.com","Kansas City - South","550 East 105th St.","Kansas City","MO","64131","US","728","+1.816.943.1315","Extended Stay America","38.938198","-94.584473","Open 24 hours a day, seven days a week","https://www.extendedstayamerica.com/hotels/mo/kansas-city/south"
"https://www.extendedstayamerica.com","Kansas City - Overland Park - Quivira Rd.","10750 Quivira Rd.","Overland Park","KS","66210","US","676","+1.913.661.9299","Extended Stay America","38.9339","-94.723707","Open 24 hours a day, seven days a week","https://www.extendedstayamerica.com/hotels/ks/kansas-city/overland-park-quivira-rd"
"https://www.extendedstayamerica.com","Wichita - East","9450 E. Corporate Hills Dr.","Wichita","KS","67207","US","441","+1.316.652.8844","Extended Stay America","37.68187","-97.227299","Open 24 hours a day, seven days a week","https://www.extendedstayamerica.com/hotels/ks/wichita/east"
"https://www.extendedstayamerica.com","Lexington - Tates Creek","3575 Tates Creek Rd.","Lexington","KY","40517","US","681","+1.859.271.6160","Extended Stay America","37.983915","-84.49433","Open 24 hours a day, seven days a week","https://www.extendedstayamerica.com/hotels/ky/lexington/tates-creek"
"https://www.extendedstayamerica.com","Lexington - Nicholasville Road","2650 Wilhite Dr.","Lexington","KY","40503","US","679","<MISSING>","Extended Stay America","37.996581","-84.518619","Open 24 hours a day, seven days a week","https://www.extendedstayamerica.com/hotels/ky/lexington/nicholasville-road"
"https://www.extendedstayamerica.com","Louisville - Alliant Avenue","1650 Alliant Avenue","Louisville","KY","40299","US","57","+1.502.267.4454","Extended Stay America","38.2181","-85.536","Open 24 hours a day, seven days a week","https://www.extendedstayamerica.com/hotels/ky/louisville/alliant-avenue"
"https://www.extendedstayamerica.com","Louisville - Hurstbourne","9801 Bunsen Parkway","Louisville","KY","40299","US","685","+1.502.499.6215","Extended Stay America","38.216524","-85.575939","Open 24 hours a day, seven days a week","https://www.extendedstayamerica.com/hotels/ky/louisville/hurstbourne"
"https://www.extendedstayamerica.com","Louisville - Dutchman","6101 Dutchmans Ln.","Louisville","KY","40205","US","682","+1.502.895.7707","Extended Stay America","38.228087","-85.6413","Open 24 hours a day, seven days a week","https://www.extendedstayamerica.com/hotels/ky/louisville/dutchman"
"https://www.extendedstayamerica.com","Cincinnati - Blue Ash - Reed Hartman","4630 Creek Rd.","Blue Ash","OH","45242","US","10","+1.513.985.9992","Extended Stay America","39.2587","-84.3803","Open 24 hours a day, seven days a week","https://www.extendedstayamerica.com/hotels/oh/cincinnati/blue-ash-reed-hartman"
"https://www.extendedstayamerica.com","Cincinnati - Blue Ash - Kenwood Road","11145 Kenwood Rd.","Blue Ash","OH","45242","US","527","+1.513.469.8900","Extended Stay America","39.26846","-84.373544","Open 24 hours a day, seven days a week","https://www.extendedstayamerica.com/hotels/oh/cincinnati/blue-ash-kenwood-road"
"https://www.extendedstayamerica.com","Cincinnati - Blue Ash - Reagan Hwy.","4260 Hunt Rd.","Blue Ash","OH","45242","US","782","+1.513.793.6750","Extended Stay America","39.227549","-84.391666","Open 24 hours a day, seven days a week","https://www.extendedstayamerica.com/hotels/oh/cincinnati/blue-ash-reagan-hwy"
"https://www.extendedstayamerica.com","Baton Rouge - Citiplace","6250 Corporate Blvd.","Baton Rouge","LA","70809","US","688","+1.225.201.0330","Extended Stay America","30.424203","-91.125597","Open 24 hours a day, seven days a week","https://www.extendedstayamerica.com/hotels/la/baton-rouge/citiplace"
"https://www.extendedstayamerica.com","Lafayette - Airport","807 S. Hugh Wallis Rd.","Lafayette","LA","70508","US","689","+1.337.232.8313","Extended Stay America","30.194","-92.0034","Open 24 hours a day, seven days a week","https://www.extendedstayamerica.com/hotels/la/lafayette/airport"
"https://www.extendedstayamerica.com","New Orleans - Airport","2300 Veterans Blvd.","Kenner","LA","70062","US","686","+1.504.465.8300","Extended Stay America","30.006449","-90.236792","Open 24 hours a day, seven days a week","https://www.extendedstayamerica.com/hotels/la/new-orleans/airport"
"https://www.extendedstayamerica.com","New Orleans - Metairie","3300 I-10 S. Service Rd. W.","Metairie","LA","70001","US","687","+1.504.837.5599","Extended Stay America","29.995599","-90.1575","Open 24 hours a day, seven days a week","https://www.extendedstayamerica.com/hotels/la/new-orleans/metairie"
"https://www.extendedstayamerica.com","Portland - Scarborough","2 Ashley Dr.","Scarborough","ME","04074","US","703","+1.207.883.0554","Extended Stay America","43.618169","-70.353866","Open 24 hours a day, seven days a week","https://www.extendedstayamerica.com/hotels/me/portland/scarborough"
"https://www.extendedstayamerica.com","Boston - Peabody","200 Jubilee Dr.","Peabody","MA","01960","US","89","+1.978.531.6632","Extended Stay America","42.5243","-70.9663","Open 24 hours a day, seven days a week","https://www.extendedstayamerica.com/hotels/ma/boston/peabody"
"https://www.extendedstayamerica.com","Washington D.C. - Herndon - Dulles","1021 Elden St.","Herndon","VA","20170","US","883","<MISSING>","Extended Stay America","38.967646","-77.395578","Open 24 hours a day, seven days a week","https://www.extendedstayamerica.com/hotels/dc/washington-dc/herndon-dulles"
"https://www.extendedstayamerica.com","Washington D.C. - Centreville - Manassas","5920 Fort Dr.","Centreville","VA","20121","US","857","<MISSING>","Extended Stay America","38.834808","-77.432996","Open 24 hours a day, seven days a week","https://www.extendedstayamerica.com/hotels/dc/washington-dc/centreville-manassas"
"https://www.extendedstayamerica.com","Washington D.C. - Fairfax - Fair Oaks Mall","12055 Lee Jackson Memorial Hwy.","Fairfax","VA","22033","US","848","+1.703.267.6770","Extended Stay America","38.866635","-77.3603","Open 24 hours a day, seven days a week","https://www.extendedstayamerica.com/hotels/va/washington-dc/fairfax-fair-oaks-mall"
"https://www.extendedstayamerica.com","Washington D.C. - Fairfax - Fair Oaks","12104 Monument Dr.","Fairfax","VA","22033","US","39","+1.703.273.3444","Extended Stay America","38.862854","-77.367335","Open 24 hours a day, seven days a week","https://www.extendedstayamerica.com/hotels/va/washington-dc/washington-dc-fairfax-fair-oaks"
"https://www.extendedstayamerica.com","Washington D.C. - Chantilly - Dulles South","14420 Chantilly Crossing Ln.","Chantilly","VA","20151","US","849","+1.703.263.7173","Extended Stay America","38.89845","-77.444756","Open 24 hours a day, seven days a week","https://www.extendedstayamerica.com/hotels/va/washington-dc/chantilly-dulles-south"
"https://www.extendedstayamerica.com","Washington D.C. - Fairfax","3997 Fair Ridge Drive","Fairfax","VA","22033","US","954","+1.703.359.5000","Extended Stay America","38.871764","-77.36866","Open 24 hours a day, seven days a week","https://www.extendedstayamerica.com/hotels/dc/washington-dc/fairfax"
"https://www.extendedstayamerica.com","Lexington Park - Pax River","46565 Expedition Park Dr.","Lexington Park","MD","20653","US","698","+1.240.725.0100","Extended Stay America","38.280223","-76.466107","Open 24 hours a day, seven days a week","https://www.extendedstayamerica.com/hotels/md/lexington-park/pax-river"
"https://www.extendedstayamerica.com","Washington, D.C. - Sterling - Dulles","45345 Catalina Ct.","Sterling","VA","20166","US","28","+1.703.904.7575","Extended Stay America","38.97808","-77.434258","Open 24 hours a day, seven days a week","https://www.extendedstayamerica.com/hotels/va/washington-dc/dulles-airport-sterling"
"https://www.extendedstayamerica.com","Washington D.C. - Chantilly","4504 Brookfield Corporate Dr.","Chantilly","VA","20151","US","32","+1.703.263.3361","Extended Stay America","38.882628","-77.4438","Open 24 hours a day, seven days a week","https://www.extendedstayamerica.com/hotels/va/washington-dc/washington-dc-chantilly"
"https://www.extendedstayamerica.com","Washington D.C. - Chantilly - Airport","4506 Brookfield Corp. Drive","Chantilly","VA","20151","US","953","+1.703.263.7200","Extended Stay America","38.8827","-77.4446","Open 24 hours a day, seven days a week","https://www.extendedstayamerica.com/hotels/va/washington-dc/chantilly-airport"
"https://www.extendedstayamerica.com","Richmond - W. Broad Street - Glenside - North","6807 Paragon Pl.","Richmond","VA","23230","US","500","+1.804.285.7050","Extended Stay America","37.6089","-77.5145","Open 24 hours a day, seven days a week","https://www.extendedstayamerica.com/hotels/va/richmond/w-broad-street-glenside-north"
"https://www.extendedstayamerica.com","Richmond - W. Broad Street - Glenside - South","6811 Paragon Pl.","Richmond","VA","23230","US","859","+1.804.285.2065","Extended Stay America","37.608705","-77.514799","Open 24 hours a day, seven days a week","https://www.extendedstayamerica.com/hotels/va/richmond/w-broad-street-glenside-south"
"https://www.extendedstayamerica.com","Colonial Heights - Fort Lee","441 Charles H Dimmock Pkwy","Colonial Heights","VA","23834","US","1001","804.206.7005","Extended Stay America","37.252659","-77.384721","Open 24 hours a day, seven days a week","https://www.extendedstayamerica.com/hotels/va/richmond/colonial-heights-fort-lee"
"https://www.extendedstayamerica.com","Richmond - Innsbrook","10060 W. Broad St.","Glen Allen","VA","23060","US","498","+1.804.747.0840","Extended Stay America","37.644898","-77.570752","Open 24 hours a day, seven days a week","https://www.extendedstayamerica.com/hotels/va/richmond/innsbrook"
"https://www.extendedstayamerica.com","Richmond - West End - I-64","10961 W. Broad St.","Glen Allen","VA","23060","US","20","+1.804.747.8898","Extended Stay America","37.647197","-77.585539","Open 24 hours a day, seven days a week","https://www.extendedstayamerica.com/hotels/va/richmond/west-end-i-64"
"https://www.extendedstayamerica.com","Newport News - I-64 - Jefferson Avenue","12359 Hornsby Ln.","Newport News","VA","23602","US","499","+1.757.882.8847","Extended Stay America","37.1172","-76.5078","Open 24 hours a day, seven days a week","https://www.extendedstayamerica.com/hotels/va/newport-news/i64-jefferson-avenue"
"https://www.extendedstayamerica.com","Hampton - Coliseum","1915 Commerce Dr.","Hampton","VA","23666","US","852","+1.757.896.3600","Extended Stay America","37.037879","-76.389291","Open 24 hours a day, seven days a week","https://www.extendedstayamerica.com/hotels/va/hampton/coliseum"
"https://www.extendedstayamerica.com","North Chesterfield - Arboretum","241 Arboretum Pl.","North Chesterfield","VA","23236","US","60","+1.804.272.1800","Extended Stay America","37.494901","-77.565787","Open 24 hours a day, seven days a week","https://www.extendedstayamerica.com/hotels/va/richmond/arboretum"
"https://www.extendedstayamerica.com","Newport News - Oyster Point","11708 Jefferson Ave.","Newport News","VA","23606","US","847","+1.757.873.2266","Extended Stay America","37.078221","-76.47756","Open 24 hours a day, seven days a week","https://www.extendedstayamerica.com/hotels/va/newport-news/oyster-point"
"https://www.extendedstayamerica.com","Chesapeake - Churchland Blvd.","3214 Churchland Blvd.","Chesapeake","VA","23321","US","968","+1.757.483.9200","Extended Stay America","36.8656","-76.4073","Open 24 hours a day, seven days a week","https://www.extendedstayamerica.com/hotels/va/chesapeake/churchland-blvd"
"https://www.extendedstayamerica.com","Detroit - Dearborn","260 Town Center Dr.","Dearborn","MI","48126","US","709","+1.313.336.0021","Extended Stay America","42.320299","-83.222283","Open 24 hours a day, seven days a week","https://www.extendedstayamerica.com/hotels/mi/detroit/dearborn"
"https://www.extendedstayamerica.com","Detroit - Warren","30125 N. Civic Center Blvd.","Warren","MI","48093","US","446","+1.586.558.5554","Extended Stay America","42.51513","-83.02641","Open 24 hours a day, seven days a week","https://www.extendedstayamerica.com/hotels/mi/detroit/warren"
"https://www.extendedstayamerica.com","Detroit - Madison Heights","32690 Stephenson Hwy.","Madison Heights","MI","48071","US","713","+1.248.583.5522","Extended Stay America","42.531892","-83.119851","Open 24 hours a day, seven days a week","https://www.extendedstayamerica.com/hotels/mi/detroit/madison-heights"
"https://www.extendedstayamerica.com","Detroit - Metropolitan Airport","30325 Flynn Dr.","Romulus","MI","48174","US","712","+1.734.722.7780","Extended Stay America","42.243562","-83.345465","Open 24 hours a day, seven days a week","https://www.extendedstayamerica.com/hotels/mi/detroit/metropolitan-airport"
"https://www.extendedstayamerica.com","Detroit - Farmington Hills","27775 Stansbury Blvd.","Farmington Hills","MI","48334","US","711","+1.248.473.4000","Extended Stay America","42.499001","-83.3544","Open 24 hours a day, seven days a week","https://www.extendedstayamerica.com/hotels/mi/detroit/farmington-hills"
"https://www.extendedstayamerica.com","Detroit - Sterling Heights","33400 Van Dyke Rd.","Sterling Heights","MI","48312","US","714","+1.586.983.3773","Extended Stay America","42.538924","-83.029146","Open 24 hours a day, seven days a week","https://www.extendedstayamerica.com/hotels/mi/detroit/sterling-heights"
"https://www.extendedstayamerica.com","Detroit - Roseville","20200 Thirteen Mile Rd.","Roseville","MI","48066","US","707","+1.586.294.0141","Extended Stay America","42.52484","-82.91445","Open 24 hours a day, seven days a week","https://www.extendedstayamerica.com/hotels/mi/detroit/roseville"
"https://www.extendedstayamerica.com","Detroit - Southfield - I-696","26250 American Dr.","Southfield","MI","48034","US","710","+1.248.355.2115","Extended Stay America","42.4909","-83.3031","Open 24 hours a day, seven days a week","https://www.extendedstayamerica.com/hotels/mi/detroit/southfield-i696"
"https://www.extendedstayamerica.com","Detroit - Southfield - Northwestern Hwy.","28500 Northwestern Hwy.","Southfield","MI","48034","US","117","+1.248.213.4500","Extended Stay America","42.497639","-83.2996","Open 24 hours a day, seven days a week","https://www.extendedstayamerica.com/hotels/mi/detroit/southfield-northwestern-hwy"
"https://www.extendedstayamerica.com","Detroit - Canton","2000 Haggerty Rd.","Canton","MI","48187","US","706","+1.734.844.6725","Extended Stay America","42.3211","-83.448833","Open 24 hours a day, seven days a week","https://www.extendedstayamerica.com/hotels/mi/detroit/canton"
"https://www.extendedstayamerica.com","Detroit - Novi - Haggerty Road","21555 Haggerty Rd.","Novi","MI","48375","US","708","+1.248.305.9955","Extended Stay America","42.447061","-83.434005","Open 24 hours a day, seven days a week","https://www.extendedstayamerica.com/hotels/mi/detroit/novi-haggerty-road"
"https://www.extendedstayamerica.com","Detroit - Novi - Orchard Hill Place","39640 Orchard Hill Pl.","Novi","MI","48375","US","448","+1.248.344.4555","Extended Stay America","42.441351","-83.4385","Open 24 hours a day, seven days a week","https://www.extendedstayamerica.com/hotels/mi/detroit/novi-orchard-hill-place"
"https://www.extendedstayamerica.com","Detroit - Auburn Hills - Featherstone Rd.","2100 Featherstone Road ","Auburn Hills","MI","48326","US","910","+1.248.335.5200","Extended Stay America","42.649211","-83.24653","Open 24 hours a day, seven days a week","https://www.extendedstayamerica.com/hotels/mi/detroit/auburn-hills-featherstone-rd"
"https://www.extendedstayamerica.com","Detroit - Auburn Hills - I -75","1180 Doris Rd.","Auburn Hills","MI","48326","US","704","+1.248.373.1355","Extended Stay America","42.657444","-83.244297","Open 24 hours a day, seven days a week","https://www.extendedstayamerica.com/hotels/mi/detroit/auburn-hills-i75"
"https://www.extendedstayamerica.com","Auburn Hills - University Drive","3315 University Dr.","Auburn Hills","MI","48326","US","4","+1.248.340.8888","Extended Stay America","42.672563","-83.2243","Open 24 hours a day, seven days a week","https://www.extendedstayamerica.com/hotels/mi/detroit/auburn-hills-university-drive"
"https://www.extendedstayamerica.com","Detroit - Ann Arbor - University South","3265 Boardwalk Dr.","Ann Arbor","MI","48108","US","447","<MISSING>","Extended Stay America","42.239341","-83.7348","Open 24 hours a day, seven days a week","https://www.extendedstayamerica.com/hotels/mi/detroit/ann-arbor-university-south"
"https://www.extendedstayamerica.com","Detroit - Ann Arbor - Briarwood Mall","1501 Briarwood Cir. Dr.","Ann Arbor","MI","48108","US","705","<MISSING>","Extended Stay America","42.2396","-83.7509","Open 24 hours a day, seven days a week","https://www.extendedstayamerica.com/hotels/mi/detroit/ann-arbor-briarwood-mall"
"https://www.extendedstayamerica.com","Cleveland - Westlake","30360 Clemens Rd.","Westlake","OH","44145","US","469","+1.440.899.4160","Extended Stay America","41.470549","-81.955727","Open 24 hours a day, seven days a week","https://www.extendedstayamerica.com/hotels/oh/cleveland/westlake"
"https://www.extendedstayamerica.com","Cleveland - Airport - North Olmsted","24851 Country Club Blvd.","North Olmsted","OH","44070","US","84","+1.440.777.8585","Extended Stay America","41.4154","-81.898599","Open 24 hours a day, seven days a week","https://www.extendedstayamerica.com/hotels/oh/cleveland/airport-north-olmsted"
"https://www.extendedstayamerica.com","Cleveland - Great Northern Mall","25801 Country Club Blvd.","North Olmsted","OH","44070","US","468","+1.440.716.2412","Extended Stay America","41.4138","-81.9145","Open 24 hours a day, seven days a week","https://www.extendedstayamerica.com/hotels/oh/cleveland/great-northern-mall"
"https://www.extendedstayamerica.com","Cleveland - Middleburg Heights","17552 Rosbough Dr.","Middleburg Heights","OH","44130","US","467","+1.440.243.7024","Extended Stay America","41.374684","-81.8233","Open 24 hours a day, seven days a week","https://www.extendedstayamerica.com/hotels/oh/cleveland/middleburg-heights"
"https://www.extendedstayamerica.com","Cleveland - Brooklyn","10300 Cascade Crossing","Brooklyn","OH","44144","US","774","+1.216.267.7799","Extended Stay America","41.4243","-81.7583","Open 24 hours a day, seven days a week","https://www.extendedstayamerica.com/hotels/oh/cleveland/brooklyn"
"https://www.extendedstayamerica.com","Minneapolis - Bloomington","7956 Lyndale Ave. S.","Bloomington","MN","55420","US","723","+1.952.884.1400","Extended Stay America","44.858968","-93.288593","Open 24 hours a day, seven days a week","https://www.extendedstayamerica.com/hotels/mn/minneapolis/bloomington"
"https://www.extendedstayamerica.com","Minneapolis - Airport - Eagan - South","3384 Norwest Ct.","Eagan","MN","55121","US","720","+1.651.681.9991","Extended Stay America","44.834547","-93.166786","Open 24 hours a day, seven days a week","https://www.extendedstayamerica.com/hotels/mn/minneapolis/airport-eagan-south"
"https://www.extendedstayamerica.com","Minneapolis - Eden Prairie - Technology Drive","11905 Technology Dr.","Eden Prairie","MN","55344","US","33","+1.952.942.6818","Extended Stay America","44.8634","-93.4314","Open 24 hours a day, seven days a week","https://www.extendedstayamerica.com/hotels/mn/minneapolis/eden-prairie-technology-drive"
"https://www.extendedstayamerica.com","Minneapolis - Brooklyn Center","2701 Freeway Blvd.","Brooklyn Center","MN","55430","US","718","<MISSING>","Extended Stay America","45.0753","-93.316025","Open 24 hours a day, seven days a week","https://www.extendedstayamerica.com/hotels/mn/minneapolis/brooklyn-center"
"https://www.extendedstayamerica.com","Minneapolis - Eden Prairie - Valley View Road","7550 Office Ridge Cir.","Eden Prairie","MN","55344","US","722","+1.952.941.1113","Extended Stay America","44.8679","-93.4278","Open 24 hours a day, seven days a week","https://www.extendedstayamerica.com/hotels/mn/minneapolis/eden-prairie-valley-view-road"
"https://www.extendedstayamerica.com","Minneapolis - Maple Grove","12970 63rd Ave. N.","Maple Grove","MN","55369","US","717","+1.763.694.9747","Extended Stay America","45.06846","-93.44362","Open 24 hours a day, seven days a week","https://www.extendedstayamerica.com/hotels/mn/minneapolis/maple-grove"
"https://www.extendedstayamerica.com","Minneapolis - Woodbury","10020 Hudson Rd.","Woodbury","MN","55125","US","716","+1.651.501.1085","Extended Stay America","44.945252","-92.902645","Open 24 hours a day, seven days a week","https://www.extendedstayamerica.com/hotels/mn/minneapolis/woodbury"
"https://www.extendedstayamerica.com","Rochester - North","2814 43rd St. N.W.","Rochester","MN","55901","US","719","+1.507.289.7444","Extended Stay America","44.067995","-92.5051","Open 24 hours a day, seven days a week","https://www.extendedstayamerica.com/hotels/mn/rochester/north"
"https://www.extendedstayamerica.com","Rochester - South","55 Wood Lake Dr. S.E.","Rochester","MN","55904","US","721","+1.507.536.7444","Extended Stay America","43.972375","-92.461022","Open 24 hours a day, seven days a week","https://www.extendedstayamerica.com/hotels/mn/rochester/south"
"https://www.extendedstayamerica.com","Minneapolis - Airport - Eagan - North","3015 Denmark Ave.","Eagan","MN","55121","US","34","+1.651.905.1778","Extended Stay America","44.8466","-93.1496","Open 24 hours a day, seven days a week","https://www.extendedstayamerica.com/hotels/mn/minneapolis/airport-eagan-north"
"https://www.extendedstayamerica.com","Jackson - East Beasley Road","572 East Beasley Road","Jackson","MS","39206","US","970","+1.601.206.5757","Extended Stay America","32.386027","-90.150361","Open 24 hours a day, seven days a week","https://www.extendedstayamerica.com/hotels/ms/jackson/east-beasley-road"
"https://www.extendedstayamerica.com","Jackson - North","5354 I-55 N.","Jackson","MS","39211","US","731","+1.601.956.4312","Extended Stay America","32.375","-90.1478","Open 24 hours a day, seven days a week","https://www.extendedstayamerica.com/hotels/ms/jackson/north"
"https://www.extendedstayamerica.com","Jackson - Ridgeland","800 Ridgewood Rd.","Ridgeland","MS","39157","US","452","+1.601.956.0884","Extended Stay America","32.403073","-90.140725","Open 24 hours a day, seven days a week","https://www.extendedstayamerica.com/hotels/ms/jackson/ridgeland"
"https://www.extendedstayamerica.com","Columbia - Stadium Blvd.","2000 W. Business Loop 70","Columbia","MO","65203","US","727","+1.573.445.6800","Extended Stay America","38.9672","-92.36926","Open 24 hours a day, seven days a week","https://www.extendedstayamerica.com/hotels/mo/columbia/stadium-blvd"
"https://www.extendedstayamerica.com","St. Louis - St. Peters","5555 Veterans Memorial Pkwy.","St. Peters","MO","63376","US","729","+1.636.926.2800","Extended Stay America","38.798155","-90.6033","Open 24 hours a day, seven days a week","https://www.extendedstayamerica.com/hotels/mo/st-louis/st-peters"
"https://www.extendedstayamerica.com","St Louis - Airport - Central","11252 Lone Eagle Dr.","Bridgeton","MO","63044","US","111","+1.314.739.0600","Extended Stay America","38.7414","-90.3983","Open 24 hours a day, seven days a week","https://www.extendedstayamerica.com/hotels/mo/st-louis/airport-central"
"https://www.extendedstayamerica.com","St. Louis - Westport - Central","12161 Lackland Rd.","St. Louis","MO","63146","US","134","+1.314.878.8777","Extended Stay America","38.696703","-90.4466","Open 24 hours a day, seven days a week","https://www.extendedstayamerica.com/hotels/mo/st-louis/westport-central"
"https://www.extendedstayamerica.com","St Louis - O' Fallon, IL","154 Regency Park","O'Fallon","IL","62269","US","651","+1.618.624.1757","Extended Stay America","38.5895","-89.939945","Open 24 hours a day, seven days a week","https://www.extendedstayamerica.com/hotels/mo/st-louis/o-fallon-il"
"https://www.extendedstayamerica.com","St. Louis - Westport - Craig Road","2030 Craig Rd.","St. Louis","MO","63146","US","450","+1.314.576.3001","Extended Stay America","38.6967","-90.44236","Open 24 hours a day, seven days a week","https://www.extendedstayamerica.com/hotels/mo/st-louis/westport-craig-road"
"https://www.extendedstayamerica.com","St Louis - Earth City","3125 Rider Trl. S.","Earth City","MO","63045","US","451","+1.314.209.1011","Extended Stay America","38.753448","-90.450563","Open 24 hours a day, seven days a week","https://www.extendedstayamerica.com/hotels/mo/st-louis/earth-city"
"https://www.extendedstayamerica.com","St Louis - Westport - East Lackland Rd.","11827 Lackland Rd.","Maryland Heights","MO","63146","US","725","+1.314.993.6868","Extended Stay America","38.6982","-90.4357","Open 24 hours a day, seven days a week","https://www.extendedstayamerica.com/hotels/mo/st-louis/westport-east-lackland-rd"
"https://www.extendedstayamerica.com","Billings - West End","4950 Southgate Dr.","Billings","MT","59101","US","732","+1.406.245.3980","Extended Stay America","45.754409","-108.53801","Open 24 hours a day, seven days a week","https://www.extendedstayamerica.com/hotels/mt/billings/west-end"
"https://www.extendedstayamerica.com","Great Falls - Missouri River","800 River Dr. S.","Great Falls","MT","59405","US","733","+1.406.761.7524","Extended Stay America","47.4959","-111.3075","Open 24 hours a day, seven days a week","https://www.extendedstayamerica.com/hotels/mt/great-falls/missouri-river"
"https://www.extendedstayamerica.com","Omaha - West","9006 Burt St. NW","Omaha","NE","68114","US","464","+1.402.343.9000","Extended Stay America","41.266941","-96.052718","Open 24 hours a day, seven days a week","https://www.extendedstayamerica.com/hotels/ne/omaha/west"
"https://www.extendedstayamerica.com","Las Vegas - Midtown","3045 S. Maryland Pkwy.","Las Vegas","NV","89109","US","61","+1.702.369.1414","Extended Stay America","36.1345","-115.136881","Open 24 hours a day, seven days a week","https://www.extendedstayamerica.com/hotels/nv/las-vegas/midtown"
"https://www.extendedstayamerica.com","Las Vegas - East Flamingo","1550 East Flamingo Road","Las Vegas","NV","89119","US","911","+1.702.731.3111","Extended Stay America","36.1147","-115.132373","Open 24 hours a day, seven days a week","https://www.extendedstayamerica.com/hotels/nv/las-vegas/east-flamingo"
"https://www.extendedstayamerica.com","Las Vegas - Valley View","4270 S. Valley View Blvd.","Las Vegas","NV","89103","US","762","+1.702.221.7600","Extended Stay America","36.112409","-115.19","Open 24 hours a day, seven days a week","https://www.extendedstayamerica.com/hotels/nv/las-vegas/valley-view"
"https://www.extendedstayamerica.com","Reno - South Meadows","9795 Gateway Dr.","Reno","NV","89521","US","763","+1.775.852.5611","Extended Stay America","39.439807","-119.761979","Open 24 hours a day, seven days a week","https://www.extendedstayamerica.com/hotels/nv/reno/south-meadows"
"https://www.extendedstayamerica.com","Wilkes-Barre - Hwy. 315","1067 Highway 315","Wilkes-Barre","PA","18702","US","976","+1.570.970.2500","Extended Stay America","41.2531","-75.8276","Open 24 hours a day, seven days a week","https://www.extendedstayamerica.com/hotels/pa/wilkes-barre/hwy-315"
"https://www.extendedstayamerica.com","Albuquerque - Airport","2321 International Ave. S.E.","Albuquerque","NM","87106","US","525","+1.505.244.0414","Extended Stay America","35.061468","-106.621083","Open 24 hours a day, seven days a week","https://www.extendedstayamerica.com/hotels/nm/albuquerque/airport"
"https://www.extendedstayamerica.com","Albuquerque - Rio Rancho","2608 The American Rd. N.W.","Rio Rancho","NM","87124","US","760","+1.505.792.1338","Extended Stay America","35.2123","-106.6595","Open 24 hours a day, seven days a week","https://www.extendedstayamerica.com/hotels/nm/albuquerque/rio-rancho"
"https://www.extendedstayamerica.com","Albuquerque - Rio Rancho Blvd.","2221 Rio Rancho Blvd (Hwy. 528)","Rio Rancho","NM","87124","US","912","+1.505.892.7900","Extended Stay America","35.220591","-106.6616","Open 24 hours a day, seven days a week","https://www.extendedstayamerica.com/hotels/nm/albuquerque/rio-rancho-blvd"
"https://www.extendedstayamerica.com","Buffalo - Amherst","125 Inn Keepers Ln.","Amherst","NY","14228","US","766","+1.716.564.0620","Extended Stay America","43.006556","-78.8199","Open 24 hours a day, seven days a week","https://www.extendedstayamerica.com/hotels/ny/buffalo/amherst"
"https://www.extendedstayamerica.com","Rochester - Greece","600 Center Place Dr.","Rochester","NY","14615","US","770","+1.585.663.5558","Extended Stay America","43.210321","-77.671545","Open 24 hours a day, seven days a week","https://www.extendedstayamerica.com/hotels/ny/rochester/greece"
"https://www.extendedstayamerica.com","Rochester - Henrietta","700 Commons Way","Rochester","NY","14623","US","772","+1.585.427.7580","Extended Stay America","43.08705","-77.601317","Open 24 hours a day, seven days a week","https://www.extendedstayamerica.com/hotels/ny/rochester/henrietta"
"https://www.extendedstayamerica.com","Syracuse - Dewitt","6630 Old Collamer Rd.","East Syracuse","NY","13057","US","771","+1.315.463.1958","Extended Stay America","43.094892","-76.083378","Open 24 hours a day, seven days a week","https://www.extendedstayamerica.com/hotels/ny/syracuse/dewitt"
"https://www.extendedstayamerica.com","Asheville - Tunnel Rd.","6 Kenilworth Knoll","Asheville","NC","28805","US","743","+1.828.253.3483","Extended Stay America","35.5897","-82.529695","Open 24 hours a day, seven days a week","https://www.extendedstayamerica.com/hotels/nc/asheville/tunnel-rd"
"https://www.extendedstayamerica.com","Greenville - Airport","3715 Pelham Rd.","Greenville","SC","29615","US","811","+1.864.213.9698","Extended Stay America","34.860179","-82.2687","Open 24 hours a day, seven days a week","https://www.extendedstayamerica.com/hotels/sc/greenville/airport"
"https://www.extendedstayamerica.com","Greenville  Woodruff Road","1013 Woodruff Rd","Greenville","SC","29607","US","986","+1.864.626.5800","Extended Stay America","34.837363","-82.313768","Open 24 hours a day, seven days a week","https://www.extendedstayamerica.com/hotels/sc/greenville/greenville-woodruff-road"
"https://www.extendedstayamerica.com","Greenville - Haywood Mall","530 Woods Lake Rd.","Greenville","SC","29607","US","477","+1.864.288.4300","Extended Stay America","34.851115","-82.339447","Open 24 hours a day, seven days a week","https://www.extendedstayamerica.com/hotels/sc/greenville/haywood-mall"
"https://www.extendedstayamerica.com","Knoxville - West Hills","1700 Winston Rd.","Knoxville","TN","37919","US","815","+1.865.694.4178","Extended Stay America","35.923855","-84.045109","Open 24 hours a day, seven days a week","https://www.extendedstayamerica.com/hotels/tn/knoxville/west-hills"
"https://www.extendedstayamerica.com","Knoxville - Cedar Bluff","214 Langley Pl.","Knoxville","TN","37922","US","816","+1.865.769.0822","Extended Stay America","35.9138","-84.102189","Open 24 hours a day, seven days a week","https://www.extendedstayamerica.com/hotels/tn/knoxville/cedar-bluff"
"https://www.extendedstayamerica.com","Charlotte - Tyvola Rd.","6035 Tyvola Glen Circle","Charlotte","NC","28217","US","744","+1.704.676.0569","Extended Stay America","35.165987","-80.893625","Open 24 hours a day, seven days a week","https://www.extendedstayamerica.com/hotels/nc/charlotte/tyvola-rd"
"https://www.extendedstayamerica.com","Charlotte - Airport","710 Yorkmont Rd.","Charlotte","NC","28217","US","7","+1.704.676.0083","Extended Stay America","35.180027","-80.892608","Open 24 hours a day, seven days a week","https://www.extendedstayamerica.com/hotels/nc/charlotte/airport"
"https://www.extendedstayamerica.com","Charlotte - Tyvola Rd. - Executive Park","5830 Westpark Dr.","Charlotte","NC","28217","US","459","+1.704.527.1960","Extended Stay America","35.157545","-80.88935","Open 24 hours a day, seven days a week","https://www.extendedstayamerica.com/hotels/nc/charlotte/tyvola-rd-executive-park"
"https://www.extendedstayamerica.com","Charlotte - University Place","8211 University Executive Park Dr.","Charlotte","NC","28262","US","745","+1.704.510.1636","Extended Stay America","35.298651","-80.754749","Open 24 hours a day, seven days a week","https://www.extendedstayamerica.com/hotels/nc/charlotte/university-place"
"https://www.extendedstayamerica.com","Charlotte - Pineville - Pineville Matthews Rd.","8405 Pineville - Matthews Rd.","Charlotte","NC","28226","US","462","+1.704.542.9521","Extended Stay America","35.0876","-80.86024","Open 24 hours a day, seven days a week","https://www.extendedstayamerica.com/hotels/nc/charlotte/pineville-pineville-matthews-rd"
"https://www.extendedstayamerica.com","Charlotte - Pineville - Park Rd.","10930 Park Rd.","Charlotte","NC","28226","US","734","+1.704.341.0929","Extended Stay America","35.087389","-80.8708","Open 24 hours a day, seven days a week","https://www.extendedstayamerica.com/hotels/nc/charlotte/pineville-park-rd"
"https://www.extendedstayamerica.com","Charlotte - University Place - E. McCullough Dr.","123 E. McCullough Dr.","Charlotte","NC","28262","US","453","+1.704.510.0108","Extended Stay America","35.300368","-80.752944","Open 24 hours a day, seven days a week","https://www.extendedstayamerica.com/hotels/nc/charlotte/university-place-e-mccullough-dr"
"https://www.extendedstayamerica.com","Rock Hill","1835 Canterbury Glen Ln","Rock Hill","SC","29730","US","985","+1.803.620.8180","Extended Stay America","34.936485","-80.972563","Open 24 hours a day, seven days a week","https://www.extendedstayamerica.com/hotels/nc/charlotte/charlotte-rock-hill"
"https://www.extendedstayamerica.com","Winston-Salem - Hanes Mall Blvd.","1995 Hampton Inn Ct.","Winston-Salem","NC","27103","US","736","+1.336.768.0075","Extended Stay America","36.062654","-80.3076","Open 24 hours a day, seven days a week","https://www.extendedstayamerica.com/hotels/nc/winston-salem/hanes-mall-blvd"
"https://www.extendedstayamerica.com","Greensboro - Airport","7617 Thorndike Rd.","Greensboro","NC","27409","US","461","+1.336.454.0080","Extended Stay America","36.076465","-79.96056","Open 24 hours a day, seven days a week","https://www.extendedstayamerica.com/hotels/nc/greensboro/airport"
"https://www.extendedstayamerica.com","Columbia - Northwest/Harbison","1170 Kinley Road ","Irmo","SC","29063","US","917","+1.803.781.8590","Extended Stay America","34.091219","-81.160529","Open 24 hours a day, seven days a week","https://www.extendedstayamerica.com/hotels/sc/columbia/northwest-harbison"
"https://www.extendedstayamerica.com","Greensboro - Wendover Ave.","1705 Stanley Rd.","Greensboro","NC","27407","US","454","+1.336.547.0405","Extended Stay America","36.054373","-79.894147","Open 24 hours a day, seven days a week","https://www.extendedstayamerica.com/hotels/nc/greensboro/wendover-ave"
"https://www.extendedstayamerica.com","Greensboro - Wendover Ave. - Big Tree Way","4317 Big Tree Way","Greensboro","NC","27409","US","741","+1.336.299.0200","Extended Stay America","36.0591","-79.8925","Open 24 hours a day, seven days a week","https://www.extendedstayamerica.com/hotels/nc/greensboro/wendover-ave-big-tree-way"
"https://www.extendedstayamerica.com","Columbia - West - Interstate-126","450 Gracern Rd.","Columbia","SC","29210","US","812","+1.803.251.7878","Extended Stay America","34.0145","-81.0816","Open 24 hours a day, seven days a week","https://www.extendedstayamerica.com/hotels/sc/columbia/west-interstate-126"
"https://www.extendedstayamerica.com","Columbia - West - Stoneridge Dr.","180 Stoneridge Dr.","Columbia","SC","29210","US","476","+1.803.771.0303","Extended Stay America","34.0135","-81.0682","Open 24 hours a day, seven days a week","https://www.extendedstayamerica.com/hotels/sc/columbia/west-stoneridge-dr"
"https://www.extendedstayamerica.com","Columbia - Ft. Jackson","5430 Forest Dr.","Columbia","SC","29206","US","814","+1.803.782.2025","Extended Stay America","34.023515","-80.952966","Open 24 hours a day, seven days a week","https://www.extendedstayamerica.com/hotels/sc/columbia/ft-jackson"
"https://www.extendedstayamerica.com","Fayetteville - Cross Creek Mall","4105 Sycamore Dairy Rd.","Fayetteville","NC","28303","US","457","+1.910.868.5662","Extended Stay America","35.0734","-78.9564","Open 24 hours a day, seven days a week","https://www.extendedstayamerica.com/hotels/nc/fayetteville/cross-creek-mall"
"https://www.extendedstayamerica.com","Fayetteville - Owen Dr.","408 Owen Dr.","Fayetteville","NC","28304","US","740","+1.910.485.2747","Extended Stay America","35.0389","-78.9342","Open 24 hours a day, seven days a week","https://www.extendedstayamerica.com/hotels/nc/fayetteville/owen-dr"
"https://www.extendedstayamerica.com","Raleigh - Cary - Regency Parkway South","3100 Regency Pkwy.","Cary","NC","27518","US","456","+1.919.460.1161","Extended Stay America","35.7319","-78.7898","Open 24 hours a day, seven days a week","https://www.extendedstayamerica.com/hotels/nc/raleigh-durham/cary-regency-parkway-south"
"https://www.extendedstayamerica.com","Raleigh - North Raleigh - Wake Towne Drive","921 Wake Towne Dr.","Raleigh","NC","27609","US","463","+1.919.546.0879","Extended Stay America","35.8258","-78.6263","Open 24 hours a day, seven days a week","https://www.extendedstayamerica.com/hotels/nc/raleigh-durham/north-raleigh-wake-towne-drive"
"https://www.extendedstayamerica.com","Raleigh - RDU Airport","2700 Slater Rd.","Morrisville","NC","27560","US","738","+1.919.380.1499","Extended Stay America","35.858199","-78.821496","Open 24 hours a day, seven days a week","https://www.extendedstayamerica.com/hotels/nc/raleigh-durham/rdu-airport"
"https://www.extendedstayamerica.com","Raleigh - Cary - Harrison Ave.","600 Weston Pkwy.","Cary","NC","27513","US","460","+1.919.677.9910","Extended Stay America","35.8287","-78.7714","Open 24 hours a day, seven days a week","https://www.extendedstayamerica.com/hotels/nc/raleigh-durham/cary-harrison-ave"
"https://www.extendedstayamerica.com","Raleigh - Northeast","2601 Appliance Ct.","Raleigh","NC","27604","US","102","+1.919.807.9970","Extended Stay America","35.811047","-78.600021","Open 24 hours a day, seven days a week","https://www.extendedstayamerica.com/hotels/nc/raleigh-durham/northeast"
"https://www.extendedstayamerica.com","Raleigh  Midtown","911 Wake Towne Dr.","Raleigh","NC","27609","US","746","+1.919.829.7271","Extended Stay America","35.825251","-78.6266","Open 24 hours a day, seven days a week","https://www.extendedstayamerica.com/hotels/nc/raleigh-durham/north-raleigh"
"https://www.extendedstayamerica.com","Raleigh - North - Wake Forest Rd.","3531 Wake Forest Rd.","Raleigh","NC","27609","US","98","+1.919.981.7353","Extended Stay America","35.8308","-78.6186","Open 24 hours a day, seven days a week","https://www.extendedstayamerica.com/hotels/nc/raleigh-durham/north-wake-forest-rd"
"https://www.extendedstayamerica.com","Raleigh - RTP - 4610 Miami Blvd.","4610 South Miami Blvd.","Durham","NC","27703","US","458","+1.919.941.2878","Extended Stay America","35.8936","-78.847936","Open 24 hours a day, seven days a week","https://www.extendedstayamerica.com/hotels/nc/raleigh-durham/rtp-miami-blvd-north"
"https://www.extendedstayamerica.com","Raleigh - RTP - 4919 Miami Blvd.","4919 S. Miami Blvd.","Durham","NC","27703","US","913","+1.919.998.0400","Extended Stay America","35.889864","-78.8487","Open 24 hours a day, seven days a week","https://www.extendedstayamerica.com/hotels/nc/raleigh-durham/rtp-miami-blvd-south"
"https://www.extendedstayamerica.com","Raleigh - Crabtree Valley","4810 Bluestone Dr.","Raleigh","NC","27612","US","47","<MISSING>","Extended Stay America","35.8478","-78.6947","Open 24 hours a day, seven days a week","https://www.extendedstayamerica.com/hotels/nc/raleigh-durham/raleigh-crabtree-valley"
"https://www.extendedstayamerica.com","Raleigh - Research Triangle Park - Hwy 55","4515 NC Hwy. 55","Durham","NC","27713","US","104","+1.919.544.9991","Extended Stay America","35.905","-78.8947","Open 24 hours a day, seven days a week","https://www.extendedstayamerica.com/hotels/nc/raleigh-durham/research-triangle-park-hwy-55"
"https://www.extendedstayamerica.com","Raleigh - Research Triangle Park - Hwy 54","2504 NC Hwy. 54","Durham","NC","27713","US","455","+1.919.361.1853","Extended Stay America","35.90063","-78.8864","Open 24 hours a day, seven days a week","https://www.extendedstayamerica.com/hotels/nc/raleigh-durham/research-triangle-park-hwy-54"
"https://www.extendedstayamerica.com","Durham - University - Ivy Creek Blvd.","1920 Ivy Creek Blvd.","Durham","NC","27707","US","31","+1.919.402.1700","Extended Stay America","35.958569","-78.963817","Open 24 hours a day, seven days a week","https://www.extendedstayamerica.com/hotels/nc/raleigh-durham/university-ivy-creek-blvd"
"https://www.extendedstayamerica.com","Durham - University","3105 Tower Blvd.","Durham","NC","27707","US","739","+1.919.489.8444","Extended Stay America","35.9729","-78.9579","Open 24 hours a day, seven days a week","https://www.extendedstayamerica.com/hotels/nc/raleigh-durham/university"
"https://www.extendedstayamerica.com","Wilmington - New Centre Drive","4929 New Centre Dr.","Wilmington","NC","28403","US","742","+1.910.793.4508","Extended Stay America","34.2419","-77.8783","Open 24 hours a day, seven days a week","https://www.extendedstayamerica.com/hotels/nc/wilmington/new-centre-drive"
"https://www.extendedstayamerica.com","Jacksonville - Camp Lejeune","20 McDaniel Dr.","Jacksonville","NC","28546","US","737","+1.910.347.7684","Extended Stay America","34.7817","-77.3893","Open 24 hours a day, seven days a week","https://www.extendedstayamerica.com/hotels/nc/jacksonville/camp-lejeune"
"https://www.extendedstayamerica.com","Raleigh - Cary - Regency Parkway North","1500 Regency Pkwy.","Cary","NC","27511","US","735","+1.919.468.5828","Extended Stay America","35.7324","-78.7721","Open 24 hours a day, seven days a week","https://www.extendedstayamerica.com/hotels/nc/raleigh-durham/cary-regency-parkway-north"
"https://www.extendedstayamerica.com","Roanoke - Airport","2705 Frontage Rd. NW","Roanoke","VA","24017","US","854","+1.540.366.3216","Extended Stay America","37.3084","-79.9771","Open 24 hours a day, seven days a week","https://www.extendedstayamerica.com/hotels/va/roanoke/airport"
"https://www.extendedstayamerica.com","Lynchburg - University Blvd.","1910 University Blvd.","Lynchburg","VA","24502","US","851","+1.434.239.8863","Extended Stay America","37.35778","-79.171","Open 24 hours a day, seven days a week","https://www.extendedstayamerica.com/hotels/va/lynchburg/university-blvd"
"https://www.extendedstayamerica.com","Akron - Copley - East","185 Montrose West Ave.","Copley","OH","44321","US","777","+1.330.668.9818","Extended Stay America","41.128571","-81.654263","Open 24 hours a day, seven days a week","https://www.extendedstayamerica.com/hotels/oh/akron/copley-east"
"https://www.extendedstayamerica.com","Akron - Copley - West","170 Montrose W.  Ave.","Copley","OH","44321","US","466","+1.330.666.3177","Extended Stay America","41.1291","-81.654106","Open 24 hours a day, seven days a week","https://www.extendedstayamerica.com/hotels/oh/akron/copley-west"
"https://www.extendedstayamerica.com","Cleveland - Beachwood - Orange Place - North","3625 Orange Pl.","Beachwood","OH","44122","US","6","+1.216.896.5555","Extended Stay America","41.4615","-81.488084","Open 24 hours a day, seven days a week","https://www.extendedstayamerica.com/hotels/oh/cleveland/orange-place-north"
"https://www.extendedstayamerica.com","Cleveland - Beachwood - Orange Place - South","3820 Orange Pl.","Beachwood","OH","44122","US","780","+1.216.595.9551","Extended Stay America","41.45996","-81.488182","Open 24 hours a day, seven days a week","https://www.extendedstayamerica.com/hotels/oh/cleveland/beachwood-orange-place-south"
"https://www.extendedstayamerica.com","Pittsburgh - Airport","200 Chauvet Dr.","Pittsburgh","PA","15275","US","474","+1.412.490.0979","Extended Stay America","40.449736","-80.183819","Open 24 hours a day, seven days a week","https://www.extendedstayamerica.com/hotels/pa/pittsburgh/airport"
"https://www.extendedstayamerica.com","Pittsburgh - Carnegie","520 N. Bell Ave.","Carnegie","PA","15106","US","803","+1.412.278.4001","Extended Stay America","40.416384","-80.0881","Open 24 hours a day, seven days a week","https://www.extendedstayamerica.com/hotels/pa/pittsburgh/carnegie"
"https://www.extendedstayamerica.com","Pittsburgh - West Mifflin","1303 Lebanon Church Rd.","West Mifflin","PA","15122","US","797","+1.412.650.9096","Extended Stay America","40.3476","-79.9524","Open 24 hours a day, seven days a week","https://www.extendedstayamerica.com/hotels/pa/pittsburgh/west-mifflin"
"https://www.extendedstayamerica.com","Dayton - South","7851 Lois Cir.","Dayton","OH","45459","US","789","+1.937.439.2022","Extended Stay America","39.6391","-84.219716","Open 24 hours a day, seven days a week","https://www.extendedstayamerica.com/hotels/oh/dayton/south"
"https://www.extendedstayamerica.com","Dayton - Fairborn","3131 Presidential Dr.","Fairborn","OH","45324","US","470","+1.937.429.0140","Extended Stay America","39.775781","-84.0674","Open 24 hours a day, seven days a week","https://www.extendedstayamerica.com/hotels/oh/dayton/fairborn"
"https://www.extendedstayamerica.com","Columbus - Tuttle","5530 Tuttle Crossing Blvd","Dublin","OH","43016","US","915","+1.614.760.0245","Extended Stay America","40.074789","-83.1436","Open 24 hours a day, seven days a week","https://www.extendedstayamerica.com/hotels/oh/columbus/tuttle"
"https://www.extendedstayamerica.com","Columbus - Sawmill Rd.","6601 Reflections Dr.","Dublin","OH","43017","US","786","+1.614.764.0159","Extended Stay America","40.09166","-83.088117","Open 24 hours a day, seven days a week","https://www.extendedstayamerica.com/hotels/oh/columbus/sawmill-rd"
"https://www.extendedstayamerica.com","Columbus - East","2200 Lake Club Dr.","Columbus","OH","43232","US","778","+1.614.759.1451","Extended Stay America","39.937608","-82.833085","Open 24 hours a day, seven days a week","https://www.extendedstayamerica.com/hotels/oh/columbus/east"
"https://www.extendedstayamerica.com","Columbus - Worthington","7465 High Cross Blvd.","Columbus","OH","43235","US","788","+1.614.785.1006","Extended Stay America","40.115736","-83.012473","Open 24 hours a day, seven days a week","https://www.extendedstayamerica.com/hotels/oh/columbus/worthington"
"https://www.extendedstayamerica.com","Columbus - North","6255 Quarter Horse Dr.","Columbus","OH","43229","US","785","+1.614.431.0033","Extended Stay America","40.0927","-82.9874","Open 24 hours a day, seven days a week","https://www.extendedstayamerica.com/hotels/oh/columbus/north"
"https://www.extendedstayamerica.com","Columbus - Polaris","8555 Lyra Drive","Columbus","OH","43240","US","914","+1.614.431.5522","Extended Stay America","40.140807","-82.976662","Open 24 hours a day, seven days a week","https://www.extendedstayamerica.com/hotels/oh/columbus/polaris"
"https://www.extendedstayamerica.com","Columbus  NE I-270","4200 Stelzer Rd.","Columbus","OH","43230","US","781","+1.614.428.6022","Extended Stay America","40.0595","-82.9103","Open 24 hours a day, seven days a week","https://www.extendedstayamerica.com/hotels/oh/columbus/ne-i-270"
"https://www.extendedstayamerica.com","Columbus - Dublin","450 Metro Pl. N.","Dublin","OH","43017","US","783","+1.614.760.0053","Extended Stay America","40.095973","-83.129003","Open 24 hours a day, seven days a week","https://www.extendedstayamerica.com/hotels/oh/columbus/dublin"
"https://www.extendedstayamerica.com","Oklahoma City - Northwest","4811 NW Expwy.","Oklahoma City","OK","73132","US","472","+1.405.722.2802","Extended Stay America","35.5449","-97.6083","Open 24 hours a day, seven days a week","https://www.extendedstayamerica.com/hotels/ok/oklahoma-city/northwest"
"https://www.extendedstayamerica.com","Oklahoma City - NW Expressway","2720 N.W. Expwy.","Oklahoma City","OK","73112","US","791","+1.405.942.7441","Extended Stay America","35.525306","-97.5607","Open 24 hours a day, seven days a week","https://www.extendedstayamerica.com/hotels/ok/oklahoma-city/nw-expressway"
"https://www.extendedstayamerica.com","Oklahoma City - Airport","4820 W. Reno Ave.","Oklahoma City","OK","73127","US","793","+1.405.948.4443","Extended Stay America","35.46393","-97.60286","Open 24 hours a day, seven days a week","https://www.extendedstayamerica.com/hotels/ok/oklahoma-city/airport"
"https://www.extendedstayamerica.com","Portland - Tigard","13009 S.W. 68th Pkwy.","Tigard","OR","97223","US","56","+1.503.670.0555","Extended Stay America","45.426605","-122.746805","Open 24 hours a day, seven days a week","https://www.extendedstayamerica.com/hotels/or/portland/tigard"
"https://www.extendedstayamerica.com","Portland - Beaverton/Hillsboro - Eider Court","18665 NW Eider Ct.","Beaverton","OR","97006","US","795","+1.503.439.1515","Extended Stay America","45.5313","-122.869229","Open 24 hours a day, seven days a week","https://www.extendedstayamerica.com/hotels/or/portland/beaverton-hillsboro-eider-court"
"https://www.extendedstayamerica.com","Portland - Hillsboro","19311 N. W. Cornell Road","Hillsboro","OR","97124","US","916","+1.503.439.0706","Extended Stay America","45.5343","-122.875636","Open 24 hours a day, seven days a week","https://www.extendedstayamerica.com/hotels/or/portland/hillsboro"
"https://www.extendedstayamerica.com","Portland - Vancouver","300 NE 115th Ave.","Vancouver","WA","98684","US","868","<MISSING>","Extended Stay America","45.6228","-122.5547","Open 24 hours a day, seven days a week","https://www.extendedstayamerica.com/hotels/or/portland/vancouver"
"https://www.extendedstayamerica.com","Portland - Gresham","17777 N.E. Sacramento St.","Portland","OR","97230","US","794","+1.503.661.0226","Extended Stay America","45.540594","-122.480195","Open 24 hours a day, seven days a week","https://www.extendedstayamerica.com/hotels/or/portland/gresham"
"https://www.extendedstayamerica.com","Portland - Beaverton","875 S.W. 158th Ave.","Beaverton","OR","97006","US","105","+1.503.690.3600","Extended Stay America","45.513427","-122.8396","Open 24 hours a day, seven days a week","https://www.extendedstayamerica.com/hotels/or/portland/beaverton"
"https://www.extendedstayamerica.com","Pittsburgh - Monroeville","3851 Northern Pike","Pittsburgh","PA","15146","US","801","+1.412.856.8400","Extended Stay America","40.4381","-79.7789","Open 24 hours a day, seven days a week","https://www.extendedstayamerica.com/hotels/pa/pittsburgh/monroeville"
"https://www.extendedstayamerica.com","Memphis - Apple Tree","6085 Apple Tree Dr.","Memphis","TN","38115","US","820","+1.901.360.1114","Extended Stay America","35.068985","-89.8615","Open 24 hours a day, seven days a week","https://www.extendedstayamerica.com/hotels/tn/memphis/apple-tree"
"https://www.extendedstayamerica.com","Memphis - Germantown West","6325 Quail Hollow","Memphis","TN","38120","US","822","+1.901.685.7575","Extended Stay America","35.10454","-89.8535","Open 24 hours a day, seven days a week","https://www.extendedstayamerica.com/hotels/tn/memphis/germantown-west"
"https://www.extendedstayamerica.com","Memphis - Airport","2541 Corporate Ave. E.","Memphis","TN","38132","US","64","+1.901.344.0010","Extended Stay America","35.075251","-89.990229","Open 24 hours a day, seven days a week","https://www.extendedstayamerica.com/hotels/tn/memphis/airport"
"https://www.extendedstayamerica.com","Memphis - Mt. Moriah","6520 Mt. Moriah Rd.","Memphis","TN","38115","US","823","+1.901.362.0338","Extended Stay America","35.06493","-89.84661","Open 24 hours a day, seven days a week","https://www.extendedstayamerica.com/hotels/tn/memphis/mt-moriah"
"https://www.extendedstayamerica.com","Memphis - Wolfchase Galleria","2520 Horizon Lake Drive","Memphis","TN","38133","US","918","+1.901.380.1525","Extended Stay America","35.193543","-89.798799","Open 24 hours a day, seven days a week","https://www.extendedstayamerica.com/hotels/tn/memphis/wolfchase-galleria"
"https://www.extendedstayamerica.com","Memphis - Germantown","6500 Poplar Ave.","Memphis","TN","38119","US","94","+1.901.767.5522","Extended Stay America","35.0995","-89.846248","Open 24 hours a day, seven days a week","https://www.extendedstayamerica.com/hotels/tn/memphis/germantown"
"https://www.extendedstayamerica.com","Memphis - Cordova","8110 Cordova Centre Dr.","Memphis","TN","38016","US","480","+1.901.754.4030","Extended Stay America","35.1579","-89.7931","Open 24 hours a day, seven days a week","https://www.extendedstayamerica.com/hotels/tn/memphis/cordova"
"https://www.extendedstayamerica.com","Amarillo - West","2100 Cinema Dr.","Amarillo","TX","79124","US","834","+1.806.351.0117","Extended Stay America","35.1913","-101.9335","Open 24 hours a day, seven days a week","https://www.extendedstayamerica.com/hotels/tx/amarillo/west"
"https://www.extendedstayamerica.com","Austin - Austin Airport","1311 Airport Commerce Drive","Austin","TX","78741","US","990","512.256.9414","Extended Stay America","30.22337","-97.686307","Open 24 hours a day, seven days a week","https://www.extendedstayamerica.com/hotels/tx/austin/austin-airport"
"https://www.extendedstayamerica.com","Austin - Downtown - Town Lake","507 S. First St.","Austin","TX","78704","US","1","+1.512.476.1818","Extended Stay America","30.2581","-97.7502","Open 24 hours a day, seven days a week","https://www.extendedstayamerica.com/hotels/tx/austin/downtown"
"https://www.extendedstayamerica.com","Austin - Northwest/Arboretum","10100 N. Capital of Texas Hwy.","Austin","TX","78759","US","825","+1.512.231.1520","Extended Stay America","30.390343","-97.7365","Open 24 hours a day, seven days a week","https://www.extendedstayamerica.com/hotels/tx/austin/northwest-arboretum"
"https://www.extendedstayamerica.com","Austin - Metro","6300 East US Hwy 290","Austin","TX","78723","US","496","+1.512.452.0880","Extended Stay America","30.3225","-97.7008","Open 24 hours a day, seven days a week","https://www.extendedstayamerica.com/hotels/tx/austin/metro"
"https://www.extendedstayamerica.com","Austin - Southwest","5100 US Hwy. 290 W.","Austin","TX","78735","US","839","+1.512.892.4272","Extended Stay America","30.2368","-97.8263","Open 24 hours a day, seven days a week","https://www.extendedstayamerica.com/hotels/tx/austin/southwest"
"https://www.extendedstayamerica.com","Austin - Arboretum - South","9100  Waterford Centre Blvd.","Austin","TX","78758","US","17","+1.512.837.6677","Extended Stay America","30.3761","-97.729734","Open 24 hours a day, seven days a week","https://www.extendedstayamerica.com/hotels/tx/austin/arboretum-south"
"https://www.extendedstayamerica.com","Austin - Northwest/Arboretum - The Domain","2700 Gracy Farms Lane","Austin","TX","78758","US","919","+1.512.833.0898","Extended Stay America","30.40651","-97.712973","Open 24 hours a day, seven days a week","https://www.extendedstayamerica.com/hotels/tx/austin/northwest-arboretum-the-domain"
"https://www.extendedstayamerica.com","Austin - North Central","8221 North I-35","Austin","TX","78753","US","921","+1.512.339.6005","Extended Stay America","30.3451","-97.696287","Open 24 hours a day, seven days a week","https://www.extendedstayamerica.com/hotels/tx/austin/north-central"
"https://www.extendedstayamerica.com","Austin - Round Rock - South","16950 N. IH-35 ","Austin","TX","78728","US","832","+1.512.255.1400","Extended Stay America","30.504944","-97.682271","Open 24 hours a day, seven days a week","https://www.extendedstayamerica.com/hotels/tx/austin/round-rock-south"
"https://www.extendedstayamerica.com","Austin - Northwest - Lakeline Mall","13858 N. US Hwy. 183","Austin","TX","78750","US","829","+1.512.258.3365","Extended Stay America","30.466264","-97.7967","Open 24 hours a day, seven days a week","https://www.extendedstayamerica.com/hotels/tx/austin/northwest-lakeline-mall"
"https://www.extendedstayamerica.com","Austin - Northwest - Research Park","12424 Research Blvd.","Austin","TX","78759","US","922","<MISSING>","Extended Stay America","30.42838","-97.7583","Open 24 hours a day, seven days a week","https://www.extendedstayamerica.com/hotels/tx/austin/northwest-research-park"
"https://www.extendedstayamerica.com","Austin - Round Rock - North","555 S. I-35 - City Centre Business Park","Round Rock","TX","78664","US","536","+1.512.671.7872","Extended Stay America","30.505992","-97.683295","Open 24 hours a day, seven days a week","https://www.extendedstayamerica.com/hotels/tx/austin/round-rock-north"
"https://www.extendedstayamerica.com","San Antonio - North","21103 Encino Commons Blvd","San Antonio","TX","78259","US","996","210.545.2477","Extended Stay America","29.638833","-98.452154","Open 24 hours a day, seven days a week","https://www.extendedstayamerica.com/hotels/tx/san-antonio/san-antonio-north"
"https://www.extendedstayamerica.com","San Antonio - Airport","1015 Central Pkwy. S.","San Antonio","TX","78232","US","8","<MISSING>","Extended Stay America","29.568213","-98.479525","Open 24 hours a day, seven days a week","https://www.extendedstayamerica.com/hotels/tx/san-antonio/airport"
"https://www.extendedstayamerica.com","San Antonio - Colonnade - Medical","4331 Spectrum One","San Antonio","TX","78230","US","490","+1.210.694.1229","Extended Stay America","29.537382","-98.564957","Open 24 hours a day, seven days a week","https://www.extendedstayamerica.com/hotels/tx/san-antonio/colonnade-medical"
"https://www.extendedstayamerica.com","Waco - Woodway","5903 Woodway Dr.","Waco","TX","76712","US","841","+1.254.399.8836","Extended Stay America","31.5145","-97.1865","Open 24 hours a day, seven days a week","https://www.extendedstayamerica.com/hotels/tx/waco/woodway"
"https://www.extendedstayamerica.com","Corpus Christi - Staples","6218 S. Staples St.","Corpus Christi","TX","78413","US","495","+1.361.991.1967","Extended Stay America","27.690404","-97.380616","Open 24 hours a day, seven days a week","https://www.extendedstayamerica.com/hotels/tx/corpus-christi/staples"
"https://www.extendedstayamerica.com","Dallas - Market Center","2979 N. Stemmons Fwy.","Dallas","TX","75247","US","487","+1.214.630.0154","Extended Stay America","32.811362","-96.85449","Open 24 hours a day, seven days a week","https://www.extendedstayamerica.com/hotels/tx/dallas/market-center"
"https://www.extendedstayamerica.com","Dallas - Las Colinas - Carnaby St.","5315 Carnaby St.","Irving","TX","75038","US","55","+1.972.756.0458","Extended Stay America","32.881378","-96.961051","Open 24 hours a day, seven days a week","https://www.extendedstayamerica.com/hotels/tx/dallas/las-colinas-carnaby-st"
"https://www.extendedstayamerica.com","Dallas - Coit Road","12121 Coit Rd.","Dallas","TX","75251","US","22","+1.972.663.1800","Extended Stay America","32.913937","-96.7694","Open 24 hours a day, seven days a week","https://www.extendedstayamerica.com/hotels/tx/dallas/north-park-central"
"https://www.extendedstayamerica.com","Dallas - Richardson","901 E. Campbell Rd.","Richardson","TX","75081","US","99","+1.972.479.0500","Extended Stay America","32.975388","-96.7097","Open 24 hours a day, seven days a week","https://www.extendedstayamerica.com/hotels/tx/dallas/richardson"
"https://www.extendedstayamerica.com","Dallas - Greenville Ave.","12270 Greenville Ave.","Dallas","TX","75243","US","828","+1.972.238.1133","Extended Stay America","32.9141","-96.744746","Open 24 hours a day, seven days a week","https://www.extendedstayamerica.com/hotels/tx/dallas/greenville-ave"
"https://www.extendedstayamerica.com","Dallas - Farmers Branch","4022 Parkside Center Blvd.","Farmers Branch","TX","75244","US","489","+1.972.385.6006","Extended Stay America","32.938283","-96.839884","Open 24 hours a day, seven days a week","https://www.extendedstayamerica.com/hotels/tx/dallas/farmers-branch"
"https://www.extendedstayamerica.com","Dallas - Las Colinas - Meadow Creek Dr.","605 Meadow Creek Dr.","Las Colinas","TX","75038","US","494","+1.972.871.0117","Extended Stay America","32.882419","-96.9539","Open 24 hours a day, seven days a week","https://www.extendedstayamerica.com/hotels/tx/dallas/las-colinas-meadow-creek-dr"
"https://www.extendedstayamerica.com","Dallas - Las Colinas - Green Park Dr.","5401 Green Park Drive","Irving","TX","75038","US","923","+1.972.751.0808","Extended Stay America","32.883348","-96.9539","Open 24 hours a day, seven days a week","https://www.extendedstayamerica.com/hotels/tx/dallas/las-colinas-green-park-dr"
"https://www.extendedstayamerica.com","Dallas - Vantage Point Dr.","9019 Vantage Point Drive","Dallas","TX","75243","US","924","+1.972.671.7722","Extended Stay America","32.9176","-96.7478","Open 24 hours a day, seven days a week","https://www.extendedstayamerica.com/hotels/tx/dallas/vantage-point-drive"
"https://www.extendedstayamerica.com","Dallas - Lewisville","1900 Lake Pointe Dr.","Lewisville","TX","75057","US","833","+1.972.315.7455","Extended Stay America","33.0168","-96.976378","Open 24 hours a day, seven days a week","https://www.extendedstayamerica.com/hotels/tx/dallas/lewisville"
"https://www.extendedstayamerica.com","Dallas - Plano Parkway","4709 West Plano Pkwy.","Plano","TX","75093","US","93","+1.972.596.9966","Extended Stay America","33.016206","-96.790146","Open 24 hours a day, seven days a week","https://www.extendedstayamerica.com/hotels/tx/dallas/plano-parkway"
"https://www.extendedstayamerica.com","Dallas - Frankford Road","18470 N. Dallas Pkwy.","Dallas","TX","75287","US","91","+1.972.248.2233","Extended Stay America","33.0011","-96.828887","Open 24 hours a day, seven days a week","https://www.extendedstayamerica.com/hotels/tx/dallas/flankford-road"
"https://www.extendedstayamerica.com","Dallas - Bedford","1908 Forest Ridge Dr.","Bedford","TX","76021","US","484","+1.817.354.5210","Extended Stay America","32.837436","-97.141737","Open 24 hours a day, seven days a week","https://www.extendedstayamerica.com/hotels/tx/dallas/bedford"
"https://www.extendedstayamerica.com","Dallas - DFW Airport N.","7825 Heathrow Dr.","Irving","TX","75063","US","27","+1.972.929.3333","Extended Stay America","32.915921","-97.013849","Open 24 hours a day, seven days a week","https://www.extendedstayamerica.com/hotels/tx/dallas/dfw-airport-n"
"https://www.extendedstayamerica.com","Dallas - Plano Parkway - Medical Center","4636 W. Plano Pkwy.","Plano","TX","75093","US","491","+1.972.398.0135","Extended Stay America","33.015847","-96.7879","Open 24 hours a day, seven days a week","https://www.extendedstayamerica.com/hotels/tx/dallas/plano-parkway-medical-center"
"https://www.extendedstayamerica.com","Dallas - Plano","2900 North Dallas Pkwy.","Plano","TX","75093","US","925","+1.972.378.9978","Extended Stay America","33.0425","-96.8292","Open 24 hours a day, seven days a week","https://www.extendedstayamerica.com/hotels/tx/dallas/dallas-plano"
"https://www.extendedstayamerica.com","Arlington","1221 N. Watson Rd.","Arlington","TX","76006","US","78","+1.817.633.7588","Extended Stay America","32.767918","-97.063224","Open 24 hours a day, seven days a week","https://www.extendedstayamerica.com/hotels/tx/dallas/arlington"
"https://www.extendedstayamerica.com","Arlington - Six Flags","2420 E. Lamar Blvd.","Arlington","TX","76006","US","485","+1.817.649.0021","Extended Stay America","32.761364","-97.067664","Open 24 hours a day, seven days a week","https://www.extendedstayamerica.com/hotels/tx/dallas/arlington-six-flags"
"https://www.extendedstayamerica.com","Fort Worth - Fossil Creek","3261 N.E. Loop 820","Fort Worth","TX","76137","US","488","+1.817.232.1622","Extended Stay America","32.84039","-97.308658","Open 24 hours a day, seven days a week","https://www.extendedstayamerica.com/hotels/tx/fort-worth/fossil-creek"
"https://www.extendedstayamerica.com","Fort Worth - Medical Center","1601 River Run","Fort Worth","TX","76107","US","40","+1.817.338.4808","Extended Stay America","32.727924","-97.3605","Open 24 hours a day, seven days a week","https://www.extendedstayamerica.com/hotels/tx/fort-worth/medical-center"
"https://www.extendedstayamerica.com","Fort Worth - Southwest","4701 City Lake Blvd. W.","Fort Worth","TX","76132","US","492","+1.817.263.8700","Extended Stay America","32.681256","-97.412329","Open 24 hours a day, seven days a week","https://www.extendedstayamerica.com/hotels/tx/fort-worth/southwest"
"https://www.extendedstayamerica.com","Fort Worth - City View","5831 Overton Ridge Blvd.","Fort Worth","TX","76132","US","840","+1.817.263.9006","Extended Stay America","32.676294","-97.414897","Open 24 hours a day, seven days a week","https://www.extendedstayamerica.com/hotels/tx/fort-worth/city-view"
"https://www.extendedstayamerica.com","El Paso - West","990 Sunland Park Dr.","El Paso","TX","79922","US","497","+1.915.833.7731","Extended Stay America","31.813833","-106.55354","Open 24 hours a day, seven days a week","https://www.extendedstayamerica.com/hotels/tx/el-paso/west"
"https://www.extendedstayamerica.com","El Paso - Airport","6580 Montana Ave.","El Paso","TX","79925","US","843","+1.915.772.5754","Extended Stay America","31.789237","-106.3991","Open 24 hours a day, seven days a week","https://www.extendedstayamerica.com/hotels/tx/el-paso/airport"
"https://www.extendedstayamerica.com","Houston - Med. Ctr. - Greenway Plaza","2330 Southwest Fwy.","Houston","TX","77098","US","835","+1.713.521.0060","Extended Stay America","29.7313","-95.4149","Open 24 hours a day, seven days a week","https://www.extendedstayamerica.com/hotels/tx/houston/greenway-plaza"
"https://www.extendedstayamerica.com","Houston - Galleria - Westheimer","4701 Westheimer Rd.","Houston","TX","77027","US","837","+1.713.355.8500","Extended Stay America","29.741046","-95.455855","Open 24 hours a day, seven days a week","https://www.extendedstayamerica.com/hotels/tx/houston/galleria-westheimer"
"https://www.extendedstayamerica.com","Houston - Med. Ctr. - NRG Park - Braeswood Blvd.","1301 S. Braeswood Blvd.","Houston","TX","77030","US","926","+1.713.794.0800","Extended Stay America","29.701778","-95.4008","Open 24 hours a day, seven days a week","https://www.extendedstayamerica.com/hotels/tx/houston/med-ctr-reliant-pk-braeswood-blvd"
"https://www.extendedstayamerica.com","Houston - Northwest - HWY 290 - Hollister","5454 Hollister St.","Houston","TX","77040","US","493","+1.713.895.0965","Extended Stay America","29.8466","-95.50618","Open 24 hours a day, seven days a week","https://www.extendedstayamerica.com/hotels/tx/houston/northwest-hwy290-hollister"
"https://www.extendedstayamerica.com","Houston - Med. Ctr. - NRG Park - Fannin","7979 Fannin St.","Houston","TX","77054","US","63","+1.713.797.0000","Extended Stay America","29.688503","-95.403208","Open 24 hours a day, seven days a week","https://www.extendedstayamerica.com/hotels/tx/houston/med-ctr-reliant-pk-fannin-st"
"https://www.extendedstayamerica.com","Houston - Galleria - Uptown","2300 W. Loop S.","Houston","TX","77027","US","43","+1.713.960.9660","Extended Stay America","29.74393","-95.457884","Open 24 hours a day, seven days a week","https://www.extendedstayamerica.com/hotels/tx/houston/galleria-uptown"
"https://www.extendedstayamerica.com","Houston - Willowbrook - HWY 249","16939 Tomball Pkwy.","Houston","TX","77064","US","831","+1.281.970.2403","Extended Stay America","29.9461","-95.5288","Open 24 hours a day, seven days a week","https://www.extendedstayamerica.com/hotels/tx/houston/willowbrook-hwy-249"
"https://www.extendedstayamerica.com","Houston - Stafford","4726 Sugar Grove Blvd.","Stafford","TX","77477","US","927","+1.281.240.0025","Extended Stay America","29.6428","-95.5804","Open 24 hours a day, seven days a week","https://www.extendedstayamerica.com/hotels/tx/houston/stafford"
"https://www.extendedstayamerica.com","Houston - I-10 West - CityCentre","11175 Katy Fwy.","Houston","TX","77079","US","827","+1.713.461.6696","Extended Stay America","29.784054","-95.579352","Open 24 hours a day, seven days a week","https://www.extendedstayamerica.com/hotels/tx/houston/i-10-west-city-centre"
"https://www.extendedstayamerica.com","Houston  IAH Airport","1500 North Sam Houston Parkway East","Houston","TX","77032","US","987","281.987.3900","Extended Stay America","29.937525","-95.36292","Open 24 hours a day, seven days a week","https://www.extendedstayamerica.com/hotels/tx/houston/iah-airport"
"https://www.extendedstayamerica.com","Houston - NASA - Bay Area Blvd.","720 W. Bay Area Blvd.","Webster","TX","77598","US","928","+1.281.338.7711","Extended Stay America","29.5442","-95.1351","Open 24 hours a day, seven days a week","https://www.extendedstayamerica.com/hotels/tx/houston/nasa-bay-area-blvd"
"https://www.extendedstayamerica.com","Houston - I-45 North","13505 North Fwy.","Houston","TX","77060","US","483","+1.281.872.3661","Extended Stay America","29.963616","-95.419068","Open 24 hours a day, seven days a week","https://www.extendedstayamerica.com/hotels/tx/houston/i-45-north"
"https://www.extendedstayamerica.com","Houston - Westchase - Westheimer","2424 W. Sam Houston Pkwy.","Houston","TX","77042","US","486","+1.713.532.0524","Extended Stay America","29.7412","-95.5584","Open 24 hours a day, seven days a week","https://www.extendedstayamerica.com/hotels/tx/houston/westchase-westheimer"
"https://www.extendedstayamerica.com","Houston - Westchase - Richmond","3200 W. Sam Houston Pkwy. S.","Houston","TX","77042","US","836","+1.713.952.4644","Extended Stay America","29.729792","-95.558342","Open 24 hours a day, seven days a week","https://www.extendedstayamerica.com/hotels/tx/houston/westchase-richmond"
"https://www.extendedstayamerica.com","Houston - Sugar Land","13420 Southwest Freeway","Sugar Land","TX","77478-3521","US","978","+1.281.494.6699","Extended Stay America","29.6236","-95.5978","Open 24 hours a day, seven days a week","https://www.extendedstayamerica.com/hotels/tx/houston/sugar-land"
"https://www.extendedstayamerica.com","Houston - Katy Freeway - Energy Corridor","15385 Katy Freeway","Houston","TX","77094","US","977","+1.281.398.6500","Extended Stay America","29.7844","-95.6545","Open 24 hours a day, seven days a week","https://www.extendedstayamerica.com/hotels/tx/houston/katy-freeway-energy-corridor"
"https://www.extendedstayamerica.com","Houston - NASA - Johnson Space Center","1410 Nasa Rd. 1","Houston","TX","77058","US","830","+1.281.333.9494","Extended Stay America","29.5483","-95.0986","Open 24 hours a day, seven days a week","https://www.extendedstayamerica.com/hotels/tx/houston/nasa-johnson-space-center"
"https://www.extendedstayamerica.com","Houston - Willowbrook","13223 Champions Centre Dr.","Houston","TX","77069","US","128","+1.281.397.9922","Extended Stay America","29.95165","-95.53645","Open 24 hours a day, seven days a week","https://www.extendedstayamerica.com/hotels/tx/houston/willowbrook"
"https://www.extendedstayamerica.com","Houston - Katy - I-10","19998 Park Row Drive","Katy","TX","77449","US","997","281.578.9993","Extended Stay America","29.791546","-95.723173","Open 24 hours a day, seven days a week","https://www.extendedstayamerica.com/hotels/tx/houston/houston-katy-i-10"
"https://www.extendedstayamerica.com","Houston - The Woodlands","150 Valley Wood Dr.","Spring","TX","77380","US","531","+1.281.296.2799","Extended Stay America","30.1348","-95.446054","Open 24 hours a day, seven days a week","https://www.extendedstayamerica.com/hotels/tx/houston/the-woodlands"
"https://www.extendedstayamerica.com","Houston - Med. Ctr. - NRG Park - Kirby","1303 La Concha Ln.","Houston","TX","77054","US","482","+1.713.790.9753","Extended Stay America","29.6818","-95.4039","Open 24 hours a day, seven days a week","https://www.extendedstayamerica.com/hotels/tx/houston/med-ctr-reliant-park-la-concha-ln"
"https://www.extendedstayamerica.com","Laredo - Del Mar","106 W. Village","Laredo","TX","78040","US","826","+1.956.724.1920","Extended Stay America","27.5643","-99.5003","Open 24 hours a day, seven days a week","https://www.extendedstayamerica.com/hotels/tx/laredo/del-mar"
"https://www.extendedstayamerica.com","Lubbock - Southwest","4802 S. Loop 289","Lubbock","TX","79414","US","838","+1.806.785.9881","Extended Stay America","33.533254","-101.913826","Open 24 hours a day, seven days a week","https://www.extendedstayamerica.com/hotels/tx/lubbock/southwest"
"https://www.extendedstayamerica.com","Salt Lake City - Sugar House","1220 E. 2100 S.","Salt Lake City","UT","84106","US","119","+1.801.474.0771","Extended Stay America","40.725409","-111.856403","Open 24 hours a day, seven days a week","https://www.extendedstayamerica.com/hotels/ut/salt-lake-city/salt-lake-city-sugar-house"
"https://www.extendedstayamerica.com","Salt Lake City - West Valley Center","2310 W. City Center Ct.","West Valley","UT","84119","US","845","+1.801.886.2400","Extended Stay America","40.69947","-111.9497","Open 24 hours a day, seven days a week","https://www.extendedstayamerica.com/hotels/ut/salt-lake-city/west-valley-center"
"https://www.extendedstayamerica.com","Salt Lake City - Union Park","7555 S. Union Park Ave.","Midvale","UT","84047","US","846","+1.801.567.0404","Extended Stay America","40.6141","-111.8579","Open 24 hours a day, seven days a week","https://www.extendedstayamerica.com/hotels/ut/salt-lake-city/union-park"
"https://www.extendedstayamerica.com","Salt Lake City - Sandy","10715 Auto Mall Dr.","Sandy","UT","84070","US","844","+1.801.523.1331","Extended Stay America","40.5562","-111.8948","Open 24 hours a day, seven days a week","https://www.extendedstayamerica.com/hotels/ut/salt-lake-city/sandy"
"https://www.extendedstayamerica.com","Chesapeake - Crossways Blvd.","1540 Crossways Blvd.","Chesapeake","VA","23320","US","850","+1.757.424.8600","Extended Stay America","36.780268","-76.239002","Open 24 hours a day, seven days a week","https://www.extendedstayamerica.com/hotels/va/chesapeake/crossways-blvd"
"https://www.extendedstayamerica.com","Chesapeake - Greenbrier Circle","809 Greenbrier Circle","Chesapeake","VA","23320","US","967","+1.757.523.7377","Extended Stay America","36.7915","-76.2315","Open 24 hours a day, seven days a week","https://www.extendedstayamerica.com/hotels/va/chesapeake/greenbrier-circle"
"https://www.extendedstayamerica.com","Virginia Beach - Independence Blvd.","4548 Bonney Rd.","Virginia Beach","VA","23462","US","855","+1.757.473.9200","Extended Stay America","36.833909","-76.132908","Open 24 hours a day, seven days a week","https://www.extendedstayamerica.com/hotels/va/virginia-beach/independence-blvd"
"https://www.extendedstayamerica.com","Olympia - Tumwater","1675 Mottman Rd. S.W.","Tumwater","WA","98512","US","864","+1.360.754.6063","Extended Stay America","47.0251","-122.9214","Open 24 hours a day, seven days a week","https://www.extendedstayamerica.com/hotels/wa/olympia/tumwater"
"https://www.extendedstayamerica.com","Tacoma - South","2120 S. 48th St.","Tacoma","WA","98409","US","865","+1.253.475.6565","Extended Stay America","47.21385","-122.464185","Open 24 hours a day, seven days a week","https://www.extendedstayamerica.com/hotels/wa/tacoma/south"
"https://www.extendedstayamerica.com","Tacoma - Fife","2820 Pacific Hwy. E.","Fife","WA","98424","US","867","+1.253.926.6316","Extended Stay America","47.243192","-122.3909","Open 24 hours a day, seven days a week","https://www.extendedstayamerica.com/hotels/wa/tacoma/fife"
"https://www.extendedstayamerica.com","Seattle - Southcenter","15635 W. Valley Hwy.","Tukwila","WA","98188","US","125","+1.425.235.7160","Extended Stay America","47.4611","-122.2449","Open 24 hours a day, seven days a week","https://www.extendedstayamerica.com/hotels/wa/seattle/southcenter"
"https://www.extendedstayamerica.com","Seattle - Federal Way","1400 S. 320th St.","Federal Way","WA","98003","US","862","+1.253.946.0553","Extended Stay America","47.315337","-122.315591","Open 24 hours a day, seven days a week","https://www.extendedstayamerica.com/hotels/wa/seattle/federal-way"
"https://www.extendedstayamerica.com","Seattle - Kent","22520 83rd Ave. S.","Kent","WA","98032","US","866","+1.253.872.6514","Extended Stay America","47.399638","-122.2296","Open 24 hours a day, seven days a week","https://www.extendedstayamerica.com/hotels/wa/seattle/kent"
"https://www.extendedstayamerica.com","Seattle - Renton","1150 Oakesdale Ave. S.W.","Renton","WA","98057","US","501","+1.425.228.2454","Extended Stay America","47.469579","-122.234271","Open 24 hours a day, seven days a week","https://www.extendedstayamerica.com/hotels/wa/seattle/renton"
"https://www.extendedstayamerica.com","Seattle - Tukwila","15451 53rd Ave. S.","Tukwila","WA","98188","US","863","+1.206.244.2537","Extended Stay America","47.464101","-122.2683","Open 24 hours a day, seven days a week","https://www.extendedstayamerica.com/hotels/wa/seattle/tukwila"
"https://www.extendedstayamerica.com","Seattle - Bellevue - Downtown","11400 Main St.","Bellevue","WA","98004","US","860","+1.425.453.8186","Extended Stay America","47.61005","-122.1882","Open 24 hours a day, seven days a week","https://www.extendedstayamerica.com/hotels/wa/seattle/bellevue-downtown"
"https://www.extendedstayamerica.com","Seattle - Redmond","15805 N.E. 28th St.15805 NE 28th Street","Bellevue","WA","98008","US","103","+1.425.885.6675","Extended Stay America","47.635167","-122.132074","Open 24 hours a day, seven days a week","https://www.extendedstayamerica.com/hotels/wa/seattle/redmond"
"https://www.extendedstayamerica.com","Seattle - Bellevue - Factoria","3700 132nd Ave. S.E.","Bellevue","WA","98006","US","12","+1.425.865.8680","Extended Stay America","47.577875","-122.1644","Open 24 hours a day, seven days a week","https://www.extendedstayamerica.com/hotels/wa/seattle/bellevue-factoria"
"https://www.extendedstayamerica.com","Seattle - Northgate","13300 Stone Ave. N.","Seattle","WA","98133","US","861","+1.206.365.8100","Extended Stay America","47.72593","-122.34164","Open 24 hours a day, seven days a week","https://www.extendedstayamerica.com/hotels/wa/seattle/northgate"
"https://www.extendedstayamerica.com","Seattle - Bothell - Canyon Park","22122 17th Ave. S.E.","Bothell","WA","98021","US","955","+1.425.482.2900","Extended Stay America","47.7959","-122.2108","Open 24 hours a day, seven days a week","https://www.extendedstayamerica.com/hotels/wa/seattle/bothell-canyon-park"
"https://www.extendedstayamerica.com","Seattle - Bothell - West","923  228th St. S.E.","Bothell","WA","98021","US","872","+1.425.402.4252","Extended Stay America","47.7913","-122.2205","Open 24 hours a day, seven days a week","https://www.extendedstayamerica.com/hotels/wa/seattle/bothell-west"
"https://www.extendedstayamerica.com","Seattle - Everett - Silverlake","1431 112th St. S.E.","Everett","WA","98208","US","502","+1.425.337.1341","Extended Stay America","47.89664","-122.212985","Open 24 hours a day, seven days a week","https://www.extendedstayamerica.com/hotels/wa/seattle/everett-silverlake"
"https://www.extendedstayamerica.com","Seattle - Lynnwood","3021 196th St. S.W.","Lynnwood","WA","98036","US","869","+1.425.670.2520","Extended Stay America","47.82096","-122.275112","Open 24 hours a day, seven days a week","https://www.extendedstayamerica.com/hotels/wa/seattle/lynnwood"
"https://www.extendedstayamerica.com","Seattle - Mukilteo","3917 Harbour Pointe Blvd. S.W.","Mukilteo","WA","98275","US","870","+1.425.493.1561","Extended Stay America","47.8893","-122.2869","Open 24 hours a day, seven days a week","https://www.extendedstayamerica.com/hotels/wa/seattle/mukilteo"
"https://www.extendedstayamerica.com","Seattle - Everett - North","8410 Broadway","Everett","WA","98208","US","871","+1.425.355.1923","Extended Stay America","47.9215","-122.207425","Open 24 hours a day, seven days a week","https://www.extendedstayamerica.com/hotels/wa/seattle/everett-north"
"https://www.extendedstayamerica.com","Appleton - Fox Cities","4141 Boardwalk Ct.","Appleton","WI","54915","US","875","+1.920.830.9596","Extended Stay America","44.2535","-88.4688","Open 24 hours a day, seven days a week","https://www.extendedstayamerica.com/hotels/wi/appleton/fox-cities"
