"page_url","location_name","street_address","city","state","zip","country_code","store_number","phone","location_type","latitude","longitude","locator_domain","hours_of_operation","raw_address","record_id"
"https://www.golftec.com/golf-lessons/honolulu","Honolulu","<MISSING>","Honolulu","HI","96814","United States","1000000094","808-441-0105","<MISSING>","<MISSING>","<MISSING>","https://www.golftec.com","MON: 8:00 AM - 9:00 PM; TUES: 8:00 AM - 9:00 PM; WED: 8:00 AM - 9:00 PM; THUR: 8:00 AM - 9:00 PM; FRI: 8:00 AM - 9:00 PM; SAT: 9:00 AM - 7:00 PM; SUN: 9:00 AM - 7:00 PM","<MISSING>","page_url"
"https://www.golftec.com/en-ca/golf-lessons/vancouver/north-vancouver","North Vancouver","<MISSING>","North Vancouver","BC","V7M 3G6","Canada","1000000188","604-904-3677","<MISSING>","<MISSING>","<MISSING>","https://www.golftec.com","MON: 10:00 AM - 6:00 PM; TUES: 8:00 AM - 9:00 PM; WED: 8:00 AM - 9:00 PM; THUR: 8:00 AM - 9:00 PM; FRI: 10:00 AM - 6:00 PM; SAT: 10:00 AM - 6:00 PM; SUN: 10:00 AM - 6:00 PM","<MISSING>","page_url"
"https://www.golftec.com/en-ca/golf-lessons/vancouver/vancouver-terminal-avenue","Vancouver Terminal Avenue","<MISSING>","Vancouver","BC","V6A 2M2","Canada","1000000193","604-683-4653","<MISSING>","<MISSING>","<MISSING>","https://www.golftec.com","MON: 8:00 AM - 9:00 PM; TUES: 8:00 AM - 9:00 PM; WED: 8:00 AM - 9:00 PM; THUR: 8:00 AM - 9:00 PM; FRI: 8:00 AM - 9:00 PM; SAT: 9:00 AM - 5:00 PM; SUN: 9:00 AM - 5:00 PM","<MISSING>","page_url"
"https://www.golftec.com/en-ca/golf-lessons/vancouver/richmond-bc","Richmond BC","Inside Golf Town Inside Golf Town","Richmond","BC","V6X 1S3","Canada","1000000278","604-370-4653","<MISSING>","<MISSING>","<MISSING>","https://www.golftec.com","MON: 11:00 AM - 7:00 PM; TUES: 10:00 AM - 9:00 PM; WED: 10:00 AM - 9:00 PM; THUR: 10:00 AM - 9:00 PM; FRI: 11:00 AM - 7:00 PM; SAT: 10:00 AM - 6:00 PM; SUN: 10:00 AM - 5:00 PM","<MISSING>","page_url"
"https://www.golftec.com/en-ca/golf-lessons/vancouver/coquitlam","Coquitlam","Inside Golf Town Inside Golf Town","Coquitlam","BC","V3B 5R5","Canada","1000000267","604-474-0875","<MISSING>","<MISSING>","<MISSING>","https://www.golftec.com","MON: 10:00 AM - 5:00 PM; TUES: 9:00 AM - 6:00 PM; WED: 9:00 AM - 6:00 PM; THUR: 9:00 AM - 6:00 PM; FRI: 9:00 AM - 6:00 PM; SAT: 9:00 AM - 6:00 PM; SUN: 10:00 AM - 5:00 PM","<MISSING>","page_url"
"https://www.golftec.com/en-ca/golf-lessons/vancouver/south-surrey","South Surrey","<MISSING>","Surrey","BC","V3Z 0C8","Canada","1000000208","604-385-4653","<MISSING>","<MISSING>","<MISSING>","https://www.golftec.com","MON: 9:00 AM - 9:00 PM; TUES: 8:00 AM - 9:00 PM; WED: 8:00 AM - 9:00 PM; THUR: 8:00 AM - 9:00 PM; FRI: 8:00 AM - 4:00 PM; SAT: 8:00 AM - 4:00 PM; SUN: 8:00 AM - 4:00 PM","<MISSING>","page_url"
"https://www.golftec.com/golf-lessons/seattle/lynnwood","Lynnwood","<MISSING>","Lynnwood","WA","98036","United States","1000000202","425-412-3999","<MISSING>","<MISSING>","<MISSING>","https://www.golftec.com","MON: 8:00 AM - 8:00 PM; TUES: 8:00 AM - 8:00 PM; WED: 8:00 AM - 8:00 PM; THUR: 8:00 AM - 7:00 PM; FRI: 8:00 AM - 5:00 PM; SAT: 8:00 AM - 4:00 PM; SUN: 8:00 AM - 4:00 PM","<MISSING>","page_url"
"https://www.golftec.com/golf-lessons/seattle/south-lake-union","South Lake Union","<MISSING>","Seattle","WA","98109","United States","1000000132","206-357-6885","<MISSING>","<MISSING>","<MISSING>","https://www.golftec.com","MON: 7:00 AM - 6:00 PM; TUES: 7:00 AM - 8:00 PM; WED: 7:00 AM - 8:00 PM; THUR: 7:00 AM - 8:00 PM; FRI: 7:00 AM - 5:00 PM; SAT: 8:00 AM - 4:00 PM; SUN: 8:00 AM - 4:00 PM","<MISSING>","page_url"
"https://www.golftec.com/golf-lessons/seattle/redmond","Redmond","<MISSING>","Redmond","WA","98052","United States","1000000366","425-689-5881","<MISSING>","<MISSING>","<MISSING>","https://www.golftec.com","MON: 9:00 AM - 5:00 PM; TUES: 9:00 AM - 8:00 PM; WED: 9:00 AM - 8:00 PM; THUR: 9:00 AM - 8:00 PM; FRI: 9:00 AM - 5:00 PM; SAT: 8:00 AM - 4:00 PM; SUN: 8:00 AM - 4:00 PM","<MISSING>","page_url"
"https://www.golftec.com/golf-lessons/seattle/bellevue","Bellevue","<MISSING>","Bellevue","WA","98004","United States","1000000164","425-454-7956","<MISSING>","<MISSING>","<MISSING>","https://www.golftec.com","MON: 8:00 AM - 7:00 PM; TUES: 8:00 AM - 8:00 PM; WED: 8:00 AM - 8:00 PM; THUR: 8:00 AM - 8:00 PM; FRI: 8:00 AM - 6:00 PM; SAT: 10:00 AM - 6:00 PM; SUN: 8:00 AM - 4:00 PM","<MISSING>","page_url"
"https://www.golftec.com/golf-lessons/seattle/southcenter","Southcenter","<MISSING>","Tukwila","WA","98188","United States","1000000182","206-577-3500","<MISSING>","<MISSING>","<MISSING>","https://www.golftec.com","MON: 7:00 AM - 8:00 PM; TUES: 7:00 AM - 8:00 PM; WED: 7:00 AM - 8:00 PM; THUR: 7:00 AM - 8:00 PM; FRI: 7:00 AM - 5:00 PM; SAT: 8:00 AM - 4:00 PM; SUN: 8:00 AM - 4:00 PM","<MISSING>","page_url"
"https://www.golftec.com/golf-lessons/san-francisco/colma","Colma","<MISSING>","Colma","CA","94014","United States","1000000288","650-488-7074","<MISSING>","<MISSING>","<MISSING>","https://www.golftec.com","MON: 10:00 AM - 8:00 PM; TUES: 8:00 AM - 8:00 PM; WED: 8:00 AM - 8:00 PM; THUR: 8:00 AM - 8:00 PM; FRI: 8:00 AM - 6:00 PM; SAT: 9:00 AM - 6:00 PM; SUN: 9:00 AM - 6:00 PM","<MISSING>","page_url"
"https://www.golftec.com/golf-lessons/san-francisco/walnut-creek","Walnut Creek","<MISSING>","Walnut Creek","CA","94596","United States","1000000205","925-264-5047","<MISSING>","<MISSING>","<MISSING>","https://www.golftec.com","MON: 8:00 AM - 6:00 PM; TUES: 8:00 AM - 8:00 PM; WED: 8:00 AM - 8:00 PM; THUR: 8:00 AM - 8:00 PM; FRI: 8:00 AM - 6:00 PM; SAT: 8:00 AM - 6:00 PM; SUN: 8:00 AM - 6:00 PM","<MISSING>","page_url"
"https://www.golftec.com/golf-lessons/san-francisco/foster-city","Foster City","<MISSING>","Foster City","CA","94404","United States","1000000049","650-595-4653","<MISSING>","<MISSING>","<MISSING>","https://www.golftec.com","MON: 8:00 AM - 8:00 PM; TUES: 8:00 AM - 8:00 PM; WED: 8:00 AM - 8:00 PM; THUR: 8:00 AM - 8:00 PM; FRI: 8:00 AM - 6:00 PM; SAT: 8:00 AM - 6:00 PM; SUN: 9:00 AM - 6:00 PM","<MISSING>","page_url"
"https://www.golftec.com/golf-lessons/san-francisco/pleasanton","Pleasanton","<MISSING>","Pleasanton","CA","94588","United States","1000000158","925-225-0444","<MISSING>","<MISSING>","<MISSING>","https://www.golftec.com","MON: 8:00 AM - 8:00 PM; TUES: 8:00 AM - 8:00 PM; WED: 8:00 AM - 8:00 PM; THUR: 8:00 AM - 8:00 PM; FRI: 8:00 AM - 7:00 PM; SAT: 8:00 AM - 6:00 PM; SUN: 8:00 AM - 5:00 PM","<MISSING>","page_url"
"https://www.golftec.com/golf-lessons/sacramento/roseville-ca","Roseville CA","<MISSING>","Roseville","CA","95678","United States","1000000110","916-626-5566","<MISSING>","<MISSING>","<MISSING>","https://www.golftec.com","<MISSING>","<MISSING>","page_url"
"https://www.golftec.com/golf-lessons/sacramento/folsom","Folsom","<MISSING>","Folsom","CA","95630","United States","1000000398","916-458-4605","<MISSING>","<MISSING>","<MISSING>","https://www.golftec.com","MON: 8:00 AM - 5:00 PM; TUES: 8:00 AM - 5:00 PM; WED: 8:00 AM - 7:00 PM; THUR: 8:00 AM - 7:00 PM; FRI: 8:00 AM - 7:00 PM; SAT: 8:00 AM - 5:00 PM; SUN: Closed","<MISSING>","page_url"
"https://www.golftec.com/golf-lessons/san-francisco/san-jose","San Jose","<MISSING>","San Jose","CA","95129","United States","1000000041","408-243-4653","<MISSING>","<MISSING>","<MISSING>","https://www.golftec.com","MON: 8:00 AM - 8:00 PM; TUES: 8:00 AM - 8:00 PM; WED: 7:00 AM - 8:00 PM; THUR: 8:00 AM - 8:00 PM; FRI: 7:00 AM - 6:00 PM; SAT: 7:00 AM - 6:00 PM; SUN: 9:00 AM - 6:00 PM","<MISSING>","page_url"
"https://www.golftec.com/golf-lessons/reno","Reno","<MISSING>","Reno","NV","89511","United States","1000000133","775-322-4653","<MISSING>","<MISSING>","<MISSING>","https://www.golftec.com","MON: 9:00 AM - 7:00 PM; TUES: 9:00 AM - 7:00 PM; WED: 9:00 AM - 5:00 PM; THUR: 9:00 AM - 7:00 PM; FRI: 9:00 AM - 7:00 PM; SAT: 9:00 AM - 5:00 PM; SUN: 9:00 AM - 5:00 PM","<MISSING>","page_url"
"https://www.golftec.com/golf-lessons/santa-barbara","Santa Barbara","<MISSING>","Santa Barbara","CA","93101","United States","1000000083","805-884-1847","<MISSING>","<MISSING>","<MISSING>","https://www.golftec.com","MON: 9:00 AM - 5:00 PM; TUES: 9:00 AM - 6:00 PM; WED: 9:00 AM - 6:00 PM; THUR: 9:00 AM - 6:00 PM; FRI: 9:00 AM - 6:00 PM; SAT: 8:00 AM - 4:00 PM; SUN: 8:00 AM - 4:00 PM","<MISSING>","page_url"
"https://www.golftec.com/golf-lessons/los-angeles/oxnard","Oxnard","<MISSING>","Oxnard","CA","93036","United States","1000000076","805-983-1600","<MISSING>","<MISSING>","<MISSING>","https://www.golftec.com","MON: 8:00 AM - 5:00 PM; TUES: 9:00 AM - 7:00 PM; WED: 9:00 AM - 7:00 PM; THUR: 9:00 AM - 7:00 PM; FRI: 8:00 AM - 5:00 PM; SAT: 8:00 AM - 5:00 PM; SUN: 8:00 AM - 5:00 PM","<MISSING>","page_url"
"https://www.golftec.com/golf-lessons/los-angeles/woodland-hills","Woodland Hills","<MISSING>","Woodland Hills","CA","91367","United States","1000000038","818-883-7712","<MISSING>","<MISSING>","<MISSING>","https://www.golftec.com","MON: 9:00 AM - 8:00 PM; TUES: 9:00 AM - 8:00 PM; WED: 9:00 AM - 8:00 PM; THUR: 9:00 AM - 8:00 PM; FRI: 9:00 AM - 7:00 PM; SAT: 9:00 AM - 6:00 PM; SUN: 9:00 AM - 6:00 PM","<MISSING>","page_url"
"https://www.golftec.com/golf-lessons/los-angeles/studio-city","Studio City","<MISSING>","Studio City","CA","91604","United States","1000000261","818-408-6456","<MISSING>","<MISSING>","<MISSING>","https://www.golftec.com","MON: 8:00 AM - 5:00 PM; TUES: 8:00 AM - 8:00 PM; WED: 8:00 AM - 8:00 PM; THUR: 8:00 AM - 8:00 PM; FRI: 8:00 AM - 5:00 PM; SAT: 8:00 AM - 5:00 PM; SUN: 8:00 AM - 5:00 PM","<MISSING>","page_url"
"https://www.golftec.com/golf-lessons/los-angeles/santa-monica","Santa Monica","<MISSING>","Santa Monica","CA","90404","United States","1000000089","310-458-2636","<MISSING>","<MISSING>","<MISSING>","https://www.golftec.com","MON: 7:00 AM - 8:00 PM; TUES: 7:00 AM - 8:00 PM; WED: 7:00 AM - 8:00 PM; THUR: 7:00 AM - 8:00 PM; FRI: 7:00 AM - 6:30 PM; SAT: 8:00 AM - 5:00 PM; SUN: 8:00 AM - 5:00 PM","<MISSING>","page_url"
"https://www.golftec.com/golf-lessons/los-angeles/pasadena","Pasadena","<MISSING>","Pasadena","CA","91107","United States","1000000057","626-356-0215","<MISSING>","<MISSING>","<MISSING>","https://www.golftec.com","MON: 8:00 AM - 8:00 PM; TUES: 8:00 AM - 8:00 PM; WED: 8:00 AM - 8:00 PM; THUR: 8:00 AM - 8:00 PM; FRI: 8:00 AM - 6:00 PM; SAT: 8:00 AM - 5:00 PM; SUN: 8:00 AM - 5:00 PM","<MISSING>","page_url"
"https://www.golftec.com/golf-lessons/portland/tualatin","Tualatin","<MISSING>","Tualatin","OR","97062","United States","1000000126","503-612-7807","<MISSING>","<MISSING>","<MISSING>","https://www.golftec.com","MON: 8:00 AM - 8:00 PM; TUES: 8:00 AM - 8:00 PM; WED: 8:00 AM - 8:00 PM; THUR: 8:00 AM - 8:00 PM; FRI: 8:00 AM - 8:00 PM; SAT: 9:00 AM - 5:00 PM; SUN: 9:00 AM - 5:00 PM","<MISSING>","page_url"
"https://www.golftec.com/golf-lessons/portland/beaverton","Beaverton","<MISSING>","Beaverton","OR","97005","United States","1000000265","503-563-3923","<MISSING>","<MISSING>","<MISSING>","https://www.golftec.com","MON: 8:00 AM - 8:00 PM; TUES: 8:00 AM - 8:00 PM; WED: 8:00 AM - 8:00 PM; THUR: 8:00 AM - 8:00 PM; FRI: 8:00 AM - 8:00 PM; SAT: 9:00 AM - 5:00 PM; SUN: 9:00 AM - 5:00 PM","<MISSING>","page_url"
"https://www.golftec.com/golf-lessons/portland/southeast-portland","Southeast Portland","<MISSING>","Portland","OR","97216","United States","1000000125","503 281-1842","<MISSING>","<MISSING>","<MISSING>","https://www.golftec.com","MON: 8:00 AM - 8:00 PM; TUES: 8:00 AM - 8:00 PM; WED: 8:00 AM - 8:00 PM; THUR: 8:00 AM - 8:00 PM; FRI: 8:00 AM - 8:00 PM; SAT: 9:00 AM - 5:00 PM; SUN: 9:00 AM - 5:00 PM","<MISSING>","page_url"
"https://www.golftec.com/golf-lessons/boise","Boise","<MISSING>","Boise","ID","83704","United States","1000000286","208-618-4653","<MISSING>","<MISSING>","<MISSING>","https://www.golftec.com","MON: 9:00 AM - 5:00 PM; TUES: 9:00 AM - 8:00 PM; WED: 9:00 AM - 8:00 PM; THUR: 9:00 AM - 8:00 PM; FRI: 8:00 AM - 6:00 PM; SAT: 8:00 AM - 5:00 PM; SUN: Closed","<MISSING>","page_url"
"https://www.golftec.com/golf-lessons/los-angeles/el-segundo","El Segundo","<MISSING>","El Segundo","CA","90245","United States","1000000044","310-640-7888","<MISSING>","<MISSING>","<MISSING>","https://www.golftec.com","MON: 8:00 AM - 8:00 PM; TUES: 8:00 AM - 8:00 PM; WED: 8:00 AM - 8:00 PM; THUR: 8:00 AM - 8:00 PM; FRI: 8:00 AM - 6:00 PM; SAT: 9:00 AM - 5:00 PM; SUN: 9:00 AM - 5:00 PM","<MISSING>","page_url"
"https://www.golftec.com/golf-lessons/los-angeles/south-bay","South Bay","<MISSING>","Torrance","CA","90505","United States","1000000139","310-378-7676","<MISSING>","<MISSING>","<MISSING>","https://www.golftec.com","MON: 9:00 AM - 8:00 PM; TUES: 9:00 AM - 8:00 PM; WED: 9:00 AM - 8:00 PM; THUR: 9:00 AM - 7:00 PM; FRI: 9:00 AM - 7:00 PM; SAT: 9:00 AM - 4:00 PM; SUN: 9:00 AM - 5:00 PM","<MISSING>","page_url"
"https://www.golftec.com/golf-lessons/orange-county/huntington-beach","Huntington Beach","<MISSING>","Huntington Beach","CA","92649","United States","1000000109","714-841-9608","<MISSING>","<MISSING>","<MISSING>","https://www.golftec.com","MON: 7:00 AM - 7:00 PM; TUES: 7:00 AM - 8:00 PM; WED: 7:00 AM - 8:00 PM; THUR: 7:00 AM - 8:00 PM; FRI: 8:00 AM - 5:00 PM; SAT: 8:00 AM - 6:00 PM; SUN: 8:00 AM - 6:00 PM","<MISSING>","page_url"
"https://www.golftec.com/golf-lessons/orange-county/brea","Brea","<MISSING>","Brea","CA","92821","United States","1000000105","714-255-9667","<MISSING>","<MISSING>","<MISSING>","https://www.golftec.com","MON: 8:00 AM - 6:00 PM; TUES: 8:00 AM - 8:00 PM; WED: 8:00 AM - 8:00 PM; THUR: 8:00 AM - 8:00 PM; FRI: 9:00 AM - 6:00 PM; SAT: 9:00 AM - 6:00 PM; SUN: 9:00 AM - 6:00 PM","<MISSING>","page_url"
"https://www.golftec.com/golf-lessons/orange-county/irvine","Irvine","<MISSING>","Irvine","CA","92614","United States","1000000035","949-724-9081","<MISSING>","<MISSING>","<MISSING>","https://www.golftec.com","MON: 7:00 AM - 9:00 PM; TUES: 7:00 AM - 9:00 PM; WED: 7:00 AM - 9:00 PM; THUR: 7:00 AM - 9:00 PM; FRI: 7:00 AM - 7:00 PM; SAT: 7:00 AM - 4:00 PM; SUN: 7:00 AM - 5:00 PM","<MISSING>","page_url"
"https://www.golftec.com/golf-lessons/inland-empire/upland","Upland","<MISSING>","Upland","CA","91786","United States","1000000062","909-987-1141","<MISSING>","<MISSING>","<MISSING>","https://www.golftec.com","MON: 9:00 AM - 8:00 PM; TUES: 8:00 AM - 8:00 PM; WED: 8:00 AM - 8:00 PM; THUR: 9:00 AM - 8:00 PM; FRI: 9:00 AM - 6:00 PM; SAT: 9:00 AM - 6:00 PM; SUN: 9:00 AM - 6:00 PM","<MISSING>","page_url"
"https://www.golftec.com/golf-lessons/orange-county/mission-viejo","Mission Viejo","<MISSING>","Mission Viejo","CA","92692","United States","1000000269","949-245-7184","<MISSING>","<MISSING>","<MISSING>","https://www.golftec.com","MON: 8:00 AM - 8:00 PM; TUES: 8:00 AM - 8:00 PM; WED: 8:00 AM - 8:00 PM; THUR: 8:00 AM - 8:00 PM; FRI: 8:00 AM - 8:00 PM; SAT: 9:00 AM - 4:00 PM; SUN: 9:00 AM - 4:00 PM","<MISSING>","page_url"
"https://www.golftec.com/golf-lessons/orange-county/rancho-santa-margarita","Rancho Santa Margarita","<MISSING>","Rancho Santa Margarita","CA","92688","United States","1000000290","949-298-3430","<MISSING>","<MISSING>","<MISSING>","https://www.golftec.com","MON: 9:00 AM - 7:00 PM; TUES: 8:00 AM - 8:00 PM; WED: 8:00 AM - 8:00 PM; THUR: 8:00 AM - 8:00 PM; FRI: 8:00 AM - 7:00 PM; SAT: 8:00 AM - 3:00 PM; SUN: Closed","<MISSING>","page_url"
"https://www.golftec.com/golf-lessons/san-diego/encinitas-ranch","Encinitas Ranch","<MISSING>","Encinitas","CA","92024","United States","1000000257","760-208-1400","<MISSING>","<MISSING>","<MISSING>","https://www.golftec.com","MON: 7:00 AM - 8:00 PM; TUES: 7:00 AM - 8:00 PM; WED: 7:00 AM - 8:00 PM; THUR: 7:00 AM - 8:00 PM; FRI: 7:00 AM - 6:00 PM; SAT: 8:00 AM - 5:00 PM; SUN: 8:00 AM - 5:00 PM","<MISSING>","page_url"
"https://www.golftec.com/golf-lessons/san-diego/golden-triangle","Golden Triangle","<MISSING>","San Diego","CA","92122","United States","1000000117","858-228-5228","<MISSING>","<MISSING>","<MISSING>","https://www.golftec.com","MON: 7:00 AM - 8:00 PM; TUES: 7:00 AM - 8:00 PM; WED: 7:00 AM - 8:00 PM; THUR: 7:00 AM - 8:00 PM; FRI: 7:00 AM - 6:00 PM; SAT: 8:00 AM - 5:00 PM; SUN: 8:00 AM - 5:00 PM","<MISSING>","page_url"
"https://www.golftec.com/golf-lessons/spokane","Spokane","<MISSING>","Spokane","WA","99201","United States","1000000216","509-464-6707","<MISSING>","<MISSING>","<MISSING>","https://www.golftec.com","MON: 7:00 AM - 7:00 PM; TUES: 7:00 AM - 7:00 PM; WED: 7:00 AM - 7:00 PM; THUR: 7:00 AM - 7:00 PM; FRI: 7:00 AM - 5:00 PM; SAT: 7:00 AM - 5:00 PM; SUN: 7:00 AM - 5:00 PM","<MISSING>","page_url"
"https://www.golftec.com/golf-lessons/san-diego/rancho-bernardo","Rancho Bernardo","<MISSING>","San Diego","CA","92128","United States","1000000081","858-432-7200","<MISSING>","<MISSING>","<MISSING>","https://www.golftec.com","MON: 7:00 AM - 8:00 PM; TUES: 7:00 AM - 8:00 PM; WED: 7:00 AM - 8:00 PM; THUR: 7:00 AM - 8:00 PM; FRI: 7:00 AM - 7:00 PM; SAT: 7:00 AM - 5:00 PM; SUN: 8:00 AM - 5:00 PM","<MISSING>","page_url"
"https://www.golftec.com/golf-lessons/palm-springs/indio","Indio","Inside Roger Dunn Inside Roger Dunn","Indio","CA","92201","United States","1000000106","760-324-9000","<MISSING>","<MISSING>","<MISSING>","https://www.golftec.com","MON: 10:00 AM - 5:00 PM; TUES: 10:00 AM - 5:00 PM; WED: 10:00 AM - 5:00 PM; THUR: 10:00 AM - 5:00 PM; FRI: 10:00 AM - 5:00 PM; SAT: 10:00 AM - 5:00 PM; SUN: 10:00 AM - 5:00 PM","<MISSING>","page_url"
"https://www.golftec.com/en-ca/golf-lessons/kelowna","Kelowna","<MISSING>","Kelowna","BC","V1Y 4N7","Canada","1000000246","778-478-6866","<MISSING>","<MISSING>","<MISSING>","https://www.golftec.com","MON: 8:00 AM - 7:00 PM; TUES: 8:00 AM - 7:00 PM; WED: 8:00 AM - 7:00 PM; THUR: 8:00 AM - 7:00 PM; FRI: 8:00 AM - 6:00 PM; SAT: 8:00 AM - 4:00 PM; SUN: 8:00 AM - 4:00 PM","<MISSING>","page_url"
"https://www.golftec.com/golf-lessons/las-vegas/spring-valley","Spring Valley","<MISSING>","Las Vegas","NV","89113","United States","1000000365","702-727-3210","<MISSING>","<MISSING>","<MISSING>","https://www.golftec.com","MON: 8:00 AM - 8:00 PM; TUES: 8:00 AM - 8:00 PM; WED: 8:00 AM - 8:00 PM; THUR: 8:00 AM - 8:00 PM; FRI: 8:00 AM - 6:00 PM; SAT: 8:00 AM - 5:00 PM; SUN: 8:00 AM - 4:00 PM","<MISSING>","page_url"
"https://www.golftec.com/golf-lessons/las-vegas/henderson","Henderson","<MISSING>","Henderson","NV","89012","United States","1000000171","702-834-6370","<MISSING>","<MISSING>","<MISSING>","https://www.golftec.com","MON: 8:00 AM - 8:00 PM; TUES: 8:00 AM - 8:00 PM; WED: 8:00 AM - 8:00 PM; THUR: 8:00 AM - 8:00 PM; FRI: 8:00 AM - 6:00 PM; SAT: 8:00 AM - 4:00 PM; SUN: 8:00 AM - 4:00 PM","<MISSING>","page_url"
"https://www.golftec.com/golf-lessons/phoenix/arrowhead","Arrowhead","<MISSING>","Glendale","AZ","85308","United States","1000000101","602-288-5180","<MISSING>","<MISSING>","<MISSING>","https://www.golftec.com","MON: 9:00 AM - 7:00 PM; TUES: 9:00 AM - 7:00 PM; WED: 9:00 AM - 7:00 PM; THUR: 9:00 AM - 7:00 PM; FRI: 9:00 AM - 6:00 PM; SAT: 9:00 AM - 6:00 PM; SUN: 9:00 AM - 5:00 PM","<MISSING>","page_url"
"https://www.golftec.com/golf-lessons/","Center Test","20229 North 67th Ave. Suite C-4 -UP 20229 North 67th Ave. Suite C-4 -UP","Malvern","AM","98112","United States","1000000235","602-288-5179","<MISSING>","<MISSING>","<MISSING>","https://www.golftec.com","<MISSING>","<MISSING>","page_url"
"https://www.golftec.com/golf-lessons/phoenix/chandler","Chandler","<MISSING>","Chandler","AZ","85226","United States","1000000037","480-893-9029","<MISSING>","<MISSING>","<MISSING>","https://www.golftec.com","MON: 8:00 AM - 5:00 PM; TUES: 8:00 AM - 7:00 PM; WED: 8:00 AM - 7:00 PM; THUR: 8:00 AM - 7:00 PM; FRI: 8:00 AM - 7:00 PM; SAT: 8:00 AM - 6:00 PM; SUN: 9:00 AM - 4:00 PM","<MISSING>","page_url"
"https://www.golftec.com/golf-lessons/phoenix/shea-scottsdale","Shea Scottsdale","<MISSING>","Scottsdale","AZ","85260","United States","1000000264","480-336-1228","<MISSING>","<MISSING>","<MISSING>","https://www.golftec.com","MON: 8:00 AM - 8:00 PM; TUES: 8:00 AM - 8:00 PM; WED: 8:00 AM - 8:00 PM; THUR: 8:00 AM - 8:00 PM; FRI: 8:00 AM - 8:00 PM; SAT: 9:00 AM - 6:00 PM; SUN: 9:00 AM - 6:00 PM","<MISSING>","page_url"
"https://www.golftec.com/golf-lessons/phoenix/north-scottsdale","North Scottsdale","<MISSING>","Scottsdale","AZ","85255","United States","1000000287","480-565-8730","<MISSING>","<MISSING>","<MISSING>","https://www.golftec.com","MON: 8:00 AM - 8:00 PM; TUES: 8:00 AM - 8:00 PM; WED: 8:00 AM - 8:00 PM; THUR: 8:00 AM - 8:00 PM; FRI: 8:00 AM - 6:00 PM; SAT: 10:00 AM - 6:00 PM; SUN: 9:00 AM - 6:00 PM","<MISSING>","page_url"
"https://www.golftec.com/golf-lessons/tucson","Tucson","<MISSING>","Tucson","AZ","85719","United States","1000000087","520-887-4653","<MISSING>","<MISSING>","<MISSING>","https://www.golftec.com","MON: 9:00 AM - 7:00 PM; TUES: 9:00 AM - 7:00 PM; WED: 9:00 AM - 7:00 PM; THUR: 9:00 AM - 7:00 PM; FRI: 9:00 AM - 7:00 PM; SAT: 9:00 AM - 5:00 PM; SUN: 9:00 AM - 5:00 PM","<MISSING>","page_url"
"https://www.golftec.com/golf-lessons/utah/bountiful","Bountiful","<MISSING>","Bountiful","UT","84010","United States","1000000259","385-243-0768","<MISSING>","<MISSING>","<MISSING>","https://www.golftec.com","MON: 9:00 AM - 6:00 PM; TUES: 9:00 AM - 8:00 PM; WED: 9:00 AM - 6:00 PM; THUR: 9:00 AM - 8:00 PM; FRI: 9:00 AM - 6:00 PM; SAT: 8:00 AM - 4:00 PM; SUN: 8:00 AM - 4:00 PM","<MISSING>","page_url"
"https://www.golftec.com/golf-lessons/utah/salt-lake-city","Salt Lake City","<MISSING>","Holladay","UT","84121","United States","1000000189","801-618-0399","<MISSING>","<MISSING>","<MISSING>","https://www.golftec.com","MON: 9:00 AM - 6:00 PM; TUES: 9:00 AM - 8:00 PM; WED: 9:00 AM - 8:00 PM; THUR: 9:00 AM - 8:00 PM; FRI: 9:00 AM - 6:00 PM; SAT: 8:00 AM - 5:00 PM; SUN: 8:00 AM - 4:00 PM","<MISSING>","page_url"
"https://www.golftec.com/golf-lessons/utah/park-city","Park City","<MISSING>","Park City","UT","84060","United States","1000000222","435-214-4491","<MISSING>","<MISSING>","<MISSING>","https://www.golftec.com","MON: 9:00 AM - 6:00 PM; TUES: 9:00 AM - 8:00 PM; WED: 9:00 AM - 8:00 PM; THUR: 9:00 AM - 8:00 PM; FRI: 8:00 AM - 5:00 PM; SAT: 8:00 AM - 4:00 PM; SUN: 8:00 AM - 4:00 PM","<MISSING>","page_url"
"https://www.golftec.com/golf-lessons/el-paso","El Paso","<MISSING>","El Paso","TX","79912","United States","1000000262","915-308-0880","<MISSING>","<MISSING>","<MISSING>","https://www.golftec.com","MON: 9:00 AM - 7:00 PM; TUES: 9:00 AM - 7:00 PM; WED: 9:00 AM - 7:00 PM; THUR: 9:00 AM - 7:00 PM; FRI: 9:00 AM - 7:00 PM; SAT: 9:00 AM - 4:00 PM; SUN: Closed","<MISSING>","page_url"
"https://www.golftec.com/en-ca/golf-lessons/calgary/calgary-midnapore","Calgary Midnapore","<MISSING>","Calgary","AB","T2X 1N4","Canada","1000000199","403-452-7150","<MISSING>","<MISSING>","<MISSING>","https://www.golftec.com","MON: 10:00 AM - 9:00 PM; TUES: 9:00 AM - 9:00 PM; WED: 9:00 AM - 9:00 PM; THUR: 10:00 AM - 9:00 PM; FRI: 9:00 AM - 9:00 PM; SAT: 9:00 AM - 5:00 PM; SUN: 9:00 AM - 5:00 PM","<MISSING>","page_url"
"https://www.golftec.com/en-ca/golf-lessons/calgary/calgary-beacon-heights","Calgary Beacon Heights","<MISSING>","Calgary","AB","T3R 0J1","Canada","1000000225","403-265-8586","<MISSING>","<MISSING>","<MISSING>","https://www.golftec.com","MON: 9:00 AM - 9:00 PM; TUES: 9:00 AM - 9:00 PM; WED: 9:00 AM - 9:00 PM; THUR: 9:00 AM - 9:00 PM; FRI: 9:00 AM - 6:00 PM; SAT: 9:00 AM - 5:00 PM; SUN: 9:00 AM - 4:00 PM","<MISSING>","page_url"
"https://www.golftec.com/golf-lessons/denver/boulder","Boulder","<MISSING>","Boulder","CO","80304","United States","1000000196","720-379-4843","<MISSING>","<MISSING>","<MISSING>","https://www.golftec.com","MON: 7:30 AM - 5:00 PM; TUES: 7:30 AM - 7:00 PM; WED: 7:30 AM - 8:00 PM; THUR: 7:30 AM - 8:00 PM; FRI: 7:30 AM - 5:00 PM; SAT: 7:30 AM - 5:00 PM; SUN: 7:30 AM - 5:00 PM","<MISSING>","page_url"
"https://www.golftec.com/en-ca/golf-lessons/edmonton-west-point","Edmonton West Point","<MISSING>","Edmonton","AB","T5S 2S2","Canada","1000000215","780-486-3233","<MISSING>","<MISSING>","<MISSING>","https://www.golftec.com","MON: 9:00 AM - 9:00 PM; TUES: 9:00 AM - 9:00 PM; WED: 9:00 AM - 9:00 PM; THUR: 9:00 AM - 9:00 PM; FRI: 9:00 AM - 6:00 PM; SAT: 9:00 AM - 4:00 PM; SUN: 9:00 AM - 4:00 PM","<MISSING>","page_url"
"https://www.golftec.com/golf-lessons/colorado-springs/chapel-hills","Chapel Hills","<MISSING>","Colorado Springs","CO","80920","United States","1000000090","719-219-3095","<MISSING>","<MISSING>","<MISSING>","https://www.golftec.com","MON: 7:00 AM - 8:00 PM; TUES: 7:00 AM - 8:00 PM; WED: 7:00 AM - 8:00 PM; THUR: 7:00 AM - 8:00 PM; FRI: 7:00 AM - 8:00 PM; SAT: 8:00 AM - 4:00 PM; SUN: 8:00 AM - 4:00 PM","<MISSING>","page_url"
"https://www.golftec.com/golf-lessons/denver/highlands-ranch","Highlands Ranch","<MISSING>","Highlands Ranch","CO","80126","United States","1000000036","303-858-8280","<MISSING>","<MISSING>","<MISSING>","https://www.golftec.com","MON: 8:00 AM - 7:00 PM; TUES: 8:00 AM - 8:00 PM; WED: 8:00 AM - 8:00 PM; THUR: 8:00 AM - 8:00 PM; FRI: 8:00 AM - 7:00 PM; SAT: 8:00 AM - 4:00 PM; SUN: 8:00 AM - 5:00 PM","<MISSING>","page_url"
"https://www.golftec.com/golf-lessons/denver/lakewood","Lakewood","<MISSING>","Lakewood","CO","80228","United States","1000000123","303-278-3589","<MISSING>","<MISSING>","<MISSING>","https://www.golftec.com","MON: 8:00 AM - 6:00 PM; TUES: 8:00 AM - 8:00 PM; WED: 8:00 AM - 8:00 PM; THUR: 8:00 AM - 8:00 PM; FRI: 8:00 AM - 6:00 PM; SAT: 8:00 AM - 4:00 PM; SUN: 8:00 AM - 4:00 PM","<MISSING>","page_url"
"https://www.golftec.com/golf-lessons/denver/westminster","Westminster","<MISSING>","Westminster","CO","80234","United States","1000000005","303-426-6600","<MISSING>","<MISSING>","<MISSING>","https://www.golftec.com","MON: 8:00 AM - 8:00 PM; TUES: 8:00 AM - 8:00 PM; WED: 8:00 AM - 8:00 PM; THUR: 8:00 AM - 8:00 PM; FRI: 8:00 AM - 6:00 PM; SAT: 8:00 AM - 4:00 PM; SUN: 9:00 AM - 5:00 PM","<MISSING>","page_url"
"https://www.golftec.com/golf-lessons/fort-collins/fort-collins-south","Fort Collins South","<MISSING>","Fort Collins","CO","80525","United States","1000000138","970-692-5270","<MISSING>","<MISSING>","<MISSING>","https://www.golftec.com","MON: 9:00 AM - 6:00 PM; TUES: 9:00 AM - 6:00 PM; WED: 8:00 AM - 8:00 PM; THUR: 8:00 AM - 8:00 PM; FRI: 8:00 AM - 6:00 PM; SAT: 8:00 AM - 4:00 PM; SUN: 9:00 AM - 5:00 PM","<MISSING>","page_url"
"https://www.golftec.com/golf-lessons/denver/cherry-creek","Cherry Creek","<MISSING>","Denver","CO","80206","United States","1000000017","303-388-4832","<MISSING>","<MISSING>","<MISSING>","https://www.golftec.com","MON: 8:00 AM - 6:00 PM; TUES: 8:00 AM - 8:00 PM; WED: 8:00 AM - 8:00 PM; THUR: 8:00 AM - 8:00 PM; FRI: 8:00 AM - 6:00 PM; SAT: 8:00 AM - 4:00 PM; SUN: 8:00 AM - 4:00 PM","<MISSING>","page_url"
"https://www.golftec.com/golf-lessons/denver/denver-tech-center","Denver Tech Center","<MISSING>","Denver","CO","80237","United States","1000000001","303-770-5951","<MISSING>","<MISSING>","<MISSING>","https://www.golftec.com","MON: 7:00 AM - 7:00 PM; TUES: 7:00 AM - 8:00 PM; WED: 7:00 AM - 8:00 PM; THUR: 7:00 AM - 8:00 PM; FRI: 7:00 AM - 6:00 PM; SAT: 7:00 AM - 4:00 PM; SUN: 7:00 AM - 4:00 PM","<MISSING>","page_url"
"https://www.golftec.com/golf-lessons/denver/centennial","Centennial","At Family Sports Center At Family Sports Center","Centennial","CO","80112","United States","1000000263","303-754-0574","<MISSING>","<MISSING>","<MISSING>","https://www.golftec.com","MON: 8:00 AM - 6:00 PM; TUES: 8:00 AM - 6:00 PM; WED: 8:00 AM - 6:00 PM; THUR: 8:00 AM - 6:00 PM; FRI: 8:00 AM - 6:00 PM; SAT: 8:00 AM - 6:00 PM; SUN: 8:00 AM - 6:00 PM","<MISSING>","page_url"
"https://www.golftec.com/golf-lessons/san-antonio","San Antonio","<MISSING>","San Antonio","TX","78259","United States","1000000165","210-519-2600","<MISSING>","<MISSING>","<MISSING>","https://www.golftec.com","MON: 9:00 AM - 7:00 PM; TUES: 9:00 AM - 7:00 PM; WED: 9:00 AM - 7:00 PM; THUR: 9:00 AM - 7:00 PM; FRI: 9:00 AM - 7:00 PM; SAT: 9:00 AM - 7:00 PM; SUN: Closed","<MISSING>","page_url"
"https://www.golftec.com/golf-lessons/austin/westlake","Westlake","<MISSING>","Austin","TX","78746","United States","1000000116","512-672-8659","<MISSING>","<MISSING>","<MISSING>","https://www.golftec.com","MON: 8:00 AM - 8:00 PM; TUES: 8:00 AM - 8:00 PM; WED: 8:00 AM - 8:00 PM; THUR: 8:00 AM - 8:00 PM; FRI: 8:00 AM - 6:00 PM; SAT: 8:00 AM - 6:00 PM; SUN: 9:00 AM - 5:00 PM","<MISSING>","page_url"
"https://www.golftec.com/golf-lessons/austin/north-austin","North Austin","<MISSING>","Austin","TX","78757","United States","1000000280","512-607-5999","<MISSING>","<MISSING>","<MISSING>","https://www.golftec.com","MON: 9:00 AM - 7:00 PM; TUES: 8:00 AM - 8:00 PM; WED: 8:00 AM - 8:00 PM; THUR: 8:00 AM - 8:00 PM; FRI: 8:00 AM - 7:00 PM; SAT: 8:00 AM - 6:00 PM; SUN: 9:00 AM - 5:00 PM","<MISSING>","page_url"
"https://www.golftec.com/golf-lessons/dallas-ft-worth/montgomery-plaza","Montgomery Plaza","<MISSING>","Fort Worth","TX","76107","United States","1000000212","817-524-6648","<MISSING>","<MISSING>","<MISSING>","https://www.golftec.com","MON: 8:00 AM - 8:00 PM; TUES: 8:00 AM - 8:00 PM; WED: 8:00 AM - 8:00 PM; THUR: 8:00 AM - 8:00 PM; FRI: 8:00 AM - 8:00 PM; SAT: 8:00 AM - 4:00 PM; SUN: PM -  PM","<MISSING>","page_url"
"https://www.golftec.com/golf-lessons/dallas-ft-worth/las-colinas","Las Colinas","<MISSING>","Irving","TX","75062","United States","1000000211","972-294-7787","<MISSING>","<MISSING>","<MISSING>","https://www.golftec.com","MON: 8:00 AM - 9:00 PM; TUES: 8:00 AM - 9:00 PM; WED: 8:00 AM - 9:00 PM; THUR: 8:00 AM - 9:00 PM; FRI: 8:00 AM - 7:00 PM; SAT: 8:00 AM - 5:00 PM; SUN: 8:00 AM - 5:00 PM","<MISSING>","page_url"
"https://www.golftec.com/golf-lessons/dallas-ft-worth/park-cities","Park Cities","Mockingbird Central Plaza Mockingbird Central Plaza","Dallas","TX","75206","United States","1000000021","469-334-0500","<MISSING>","<MISSING>","<MISSING>","https://www.golftec.com","MON: 8:00 AM - 9:00 PM; TUES: 8:00 AM - 9:00 PM; WED: 8:00 AM - 9:00 PM; THUR: 8:00 AM - 9:00 PM; FRI: 8:00 AM - 6:00 PM; SAT: 8:00 AM - 5:00 PM; SUN: 8:00 AM - 4:00 PM","<MISSING>","page_url"
"https://www.golftec.com/golf-lessons/dallas-ft-worth/north-dallas","North Dallas","<MISSING>","Addison","TX","75254","United States","1000000028","972-239-4700","<MISSING>","<MISSING>","<MISSING>","https://www.golftec.com","MON: 8:00 AM - 9:00 PM; TUES: 8:00 AM - 9:00 PM; WED: 9:00 AM - 7:00 PM; THUR: 8:00 AM - 9:00 PM; FRI: 8:00 AM - 7:00 PM; SAT: 8:00 AM - 5:00 PM; SUN: 9:00 AM - 5:00 PM","<MISSING>","page_url"
"https://www.golftec.com/golf-lessons/dallas-ft-worth/plano","Plano","<MISSING>","Plano","TX","75075","United States","1000000004","972-398-8000","<MISSING>","<MISSING>","<MISSING>","https://www.golftec.com","MON: 8:00 AM - 9:00 PM; TUES: 8:00 AM - 9:00 PM; WED: 8:00 AM - 9:00 PM; THUR: 8:00 AM - 9:00 PM; FRI: 8:00 AM - 7:00 PM; SAT: 8:00 AM - 6:00 PM; SUN: 8:00 AM - 6:00 PM","<MISSING>","page_url"
"https://www.golftec.com/golf-lessons/dallas-ft-worth/frisco","Frisco","<MISSING>","Frisco","TX","75034","United States","1000000275","469-294-1441","<MISSING>","<MISSING>","<MISSING>","https://www.golftec.com","MON: 8:00 AM - 8:00 PM; TUES: 8:00 AM - 9:00 PM; WED: 8:00 AM - 9:00 PM; THUR: 8:00 AM - 9:00 PM; FRI: 7:00 AM - 6:00 PM; SAT: 8:00 AM - 4:00 PM; SUN: 8:00 AM - 4:00 PM","<MISSING>","page_url"
"https://www.golftec.com/golf-lessons/houston/katy","Katy","<MISSING>","Katy","TX","77450","United States","1000000314","281-769-3777","<MISSING>","<MISSING>","<MISSING>","https://www.golftec.com","MON: 8:00 AM - 6:00 PM; TUES: 8:00 AM - 8:00 PM; WED: 8:00 AM - 8:00 PM; THUR: 8:00 AM - 8:00 PM; FRI: 8:00 AM - 6:00 PM; SAT: 8:00 AM - 4:00 PM; SUN: 10:00 AM - 6:00 PM","<MISSING>","page_url"
"https://www.golftec.com/golf-lessons/houston/sugar-land","Sugar Land","<MISSING>","Sugar Land","TX","77479","United States","1000000285","832-384-4417","<MISSING>","<MISSING>","<MISSING>","https://www.golftec.com","MON: 8:00 AM - 6:00 PM; TUES: 8:00 AM - 8:00 PM; WED: 8:00 AM - 8:00 PM; THUR: 8:00 AM - 8:00 PM; FRI: 8:00 AM - 6:00 PM; SAT: 8:00 AM - 4:00 PM; SUN: 10:00 AM - 6:00 PM","<MISSING>","page_url"
"https://www.golftec.com/golf-lessons/houston/memorial-city","Memorial City","<MISSING>","Houston","TX","77024","United States","1000000218","281-741-6778","<MISSING>","<MISSING>","<MISSING>","https://www.golftec.com","MON: 8:00 AM - 8:00 PM; TUES: 8:00 AM - 8:00 PM; WED: 8:00 AM - 8:00 PM; THUR: 8:00 AM - 8:00 PM; FRI: 8:00 AM - 6:00 PM; SAT: 8:00 AM - 4:00 PM; SUN: 9:00 AM - 6:00 PM","<MISSING>","page_url"
"https://www.golftec.com/en-ca/golf-lessons/saskatoon","Saskatoon","Inside Golf Town Inside Golf Town","Saskatoon","SK","S7T 0B4","Canada","1000000224","306-974-2293","<MISSING>","<MISSING>","<MISSING>","https://www.golftec.com","MON: 12:00 PM - 8:00 PM; TUES: 10:00 AM - 9:00 PM; WED: 10:00 AM - 9:00 PM; THUR: 10:00 AM - 9:00 PM; FRI: 10:00 AM - 6:00 PM; SAT: 10:00 AM - 6:00 PM; SUN: 10:00 AM - 6:00 PM","<MISSING>","page_url"
"https://www.golftec.com/golf-lessons/oklahoma-city/okc","Oklahoma City","<MISSING>","Oklahoma City","OK","73118","United States","1000000244","405-225-3494","<MISSING>","<MISSING>","<MISSING>","https://www.golftec.com","MON: 8:00 AM - 8:00 PM; TUES: 8:00 AM - 8:00 PM; WED: 8:00 AM - 8:00 PM; THUR: 8:00 AM - 8:00 PM; FRI: 8:00 AM - 5:00 PM; SAT: 9:00 AM - 5:00 PM; SUN: 10:00 AM - 5:00 PM","<MISSING>","page_url"
"https://www.golftec.com/golf-lessons/houston/houston-galleria","Houston Galleria","<MISSING>","Houston","TX","77056","United States","1000000020","713-850-7555","<MISSING>","<MISSING>","<MISSING>","https://www.golftec.com","MON: 8:00 AM - 6:00 PM; TUES: 8:00 AM - 8:00 PM; WED: 8:00 AM - 8:00 PM; THUR: 8:00 AM - 8:00 PM; FRI: 8:00 AM - 6:00 PM; SAT: 8:00 AM - 4:00 PM; SUN: 10:00 AM - 6:00 PM","<MISSING>","page_url"
"https://www.golftec.com/golf-lessons/houston/upper-kirby","Upper Kirby","<MISSING>","Houston","TX","77005","United States","1000000167","832-426-5650","<MISSING>","<MISSING>","<MISSING>","https://www.golftec.com","MON: 8:00 AM - 8:00 PM; TUES: 8:00 AM - 8:00 PM; WED: 8:00 AM - 8:00 PM; THUR: 8:00 AM - 8:00 PM; FRI: 8:00 AM - 6:00 PM; SAT: 8:00 AM - 5:00 PM; SUN: 10:00 AM - 5:00 PM","<MISSING>","page_url"
"https://www.golftec.com/golf-lessons/houston/baybrook","Baybrook","<MISSING>","Friendswood","TX","77546","United States","1000000032","281-557-0015","<MISSING>","<MISSING>","<MISSING>","https://www.golftec.com","MON: 10:00 AM - 8:00 PM; TUES: 8:00 AM - 8:00 PM; WED: 8:00 AM - 8:00 PM; THUR: 8:00 AM - 8:00 PM; FRI: 8:00 AM - 5:00 PM; SAT: 8:00 AM - 5:00 PM; SUN: 10:00 AM - 5:00 PM","<MISSING>","page_url"
"https://www.golftec.com/golf-lessons/houston/woodlands","The Woodlands","<MISSING>","Conroe","TX","77385","United States","1000000026","281-419-6110","<MISSING>","<MISSING>","<MISSING>","https://www.golftec.com","MON: 8:00 AM - 8:00 PM; TUES: 8:00 AM - 7:00 PM; WED: 8:00 AM - 8:00 PM; THUR: 8:00 AM - 8:00 PM; FRI: 8:00 AM - 6:00 PM; SAT: 8:00 AM - 4:00 PM; SUN: 8:00 AM - 3:00 PM","<MISSING>","page_url"
"https://www.golftec.com/golf-lessons/wichita","Wichita","<MISSING>","Wichita","KS","67226","United States","1000000195","316-295-4681","<MISSING>","<MISSING>","<MISSING>","https://www.golftec.com","MON: 9:00 AM - 6:00 PM; TUES: 9:00 AM - 7:00 PM; WED: 9:00 AM - 7:00 PM; THUR: 9:00 AM - 7:00 PM; FRI: 9:00 AM - 6:00 PM; SAT: 9:00 AM - 6:00 PM; SUN: 9:00 AM - 6:00 PM","<MISSING>","page_url"
"https://www.golftec.com/golf-lessons/tulsa","Tulsa","<MISSING>","Tulsa","OK","74145","United States","1000000162","918-622-3968","<MISSING>","<MISSING>","<MISSING>","https://www.golftec.com","MON: 8:00 AM - 6:00 PM; TUES: 8:00 AM - 8:00 PM; WED: 8:00 AM - 8:00 PM; THUR: 8:00 AM - 8:00 PM; FRI: 8:00 AM - 6:00 PM; SAT: 8:00 AM - 6:00 PM; SUN: 9:00 AM - 5:00 PM","<MISSING>","page_url"
"https://www.golftec.com/golf-lessons/omaha","Omaha","<MISSING>","Omaha","NE","68154","United States","1000000095","402-905-2990","<MISSING>","<MISSING>","<MISSING>","https://www.golftec.com","MON: 7:00 AM - 8:00 PM; TUES: 7:00 AM - 8:00 PM; WED: 7:00 AM - 8:00 PM; THUR: 7:00 AM - 8:00 PM; FRI: 8:00 AM - 6:00 PM; SAT: 8:00 AM - 4:00 PM; SUN: 8:00 AM - 4:00 PM","<MISSING>","page_url"
"https://www.golftec.com/en-ca/golf-lessons/winnipeg","Winnipeg","<MISSING>","Winnipeg","MB","R3T 2G6","Canada","1000000230","204-275-1735","<MISSING>","<MISSING>","<MISSING>","https://www.golftec.com","MON: 9:00 AM - 9:00 PM; TUES: 9:00 AM - 9:00 PM; WED: 9:00 AM - 9:00 PM; THUR: 9:00 AM - 9:00 PM; FRI: 10:00 AM - 6:00 PM; SAT: 9:00 AM - 5:00 PM; SUN: 9:00 AM - 5:00 PM","<MISSING>","page_url"
"https://www.golftec.com/golf-lessons/louisiana/baton-rouge","Baton Rouge","<MISSING>","Baton Rouge","LA","70806","United States","1000000249","225-308-3934","<MISSING>","<MISSING>","<MISSING>","https://www.golftec.com","MON: 8:00 AM - 8:00 PM; TUES: 8:00 AM - 8:00 PM; WED: 8:00 AM - 8:00 PM; THUR: 8:00 AM - 8:00 PM; FRI: 8:00 AM - 5:00 PM; SAT: 8:00 AM - 5:00 PM; SUN: Closed","<MISSING>","page_url"
"https://www.golftec.com/golf-lessons/kansas-city/overland-park","Overland Park","<MISSING>","Overland Park","KS","66212","United States","1000000096","913-642-8881","<MISSING>","<MISSING>","<MISSING>","https://www.golftec.com","MON: 8:00 AM - 8:00 PM; TUES: 8:00 AM - 8:00 PM; WED: 8:00 AM - 8:00 PM; THUR: 8:00 AM - 8:00 PM; FRI: 8:00 AM - 6:00 PM; SAT: 8:00 AM - 4:00 PM; SUN: 8:00 AM - 4:00 PM","<MISSING>","page_url"
"https://www.golftec.com/golf-lessons/kansas-city/lees-summit","Lee's Summit","<MISSING>","Lee's Summit","MO","64063","United States","1000000315","816-521-6360","<MISSING>","<MISSING>","<MISSING>","https://www.golftec.com","MON: 8:00 AM - 6:00 PM; TUES: 8:00 AM - 8:00 PM; WED: 8:00 AM - 8:00 PM; THUR: 8:00 AM - 8:00 PM; FRI: 8:00 AM - 4:00 PM; SAT: 8:00 AM - 4:00 PM; SUN: 8:00 AM - 4:00 PM","<MISSING>","page_url"
"https://www.golftec.com/golf-lessons/louisiana/Metairie","Metairie","<MISSING>","Metairie","LA","70002","United States","1000000233","504-208-2237","<MISSING>","<MISSING>","<MISSING>","https://www.golftec.com","MON: 9:00 AM - 7:00 PM; TUES: 9:00 AM - 8:00 PM; WED: 9:00 AM - 8:00 PM; THUR: 9:00 AM - 8:00 PM; FRI: 9:00 AM - 5:00 PM; SAT: 9:00 AM - 3:00 PM; SUN: Closed","<MISSING>","page_url"
"https://www.golftec.com/golf-lessons/minneapolis/minnetonka","Minnetonka","<MISSING>","Plymouth","MN","55441","United States","1000000052","952-546-1423","<MISSING>","<MISSING>","<MISSING>","https://www.golftec.com","MON: 8:00 AM - 8:00 PM; TUES: 8:00 AM - 8:00 PM; WED: 8:00 AM - 8:00 PM; THUR: 8:00 AM - 8:00 PM; FRI: 8:00 AM - 6:00 PM; SAT: 8:00 AM - 3:00 PM; SUN: 9:00 AM - 4:00 PM","<MISSING>","page_url"
"https://www.golftec.com/golf-lessons/minneapolis/eden-prairie","Eden Prairie","Lariat Office Center Lariat Office Center","Eden Prairie","MN","55344","United States","1000000151","952-241-5100","<MISSING>","<MISSING>","<MISSING>","https://www.golftec.com","MON: 8:00 AM - 8:00 PM; TUES: 8:00 AM - 8:00 PM; WED: 8:00 AM - 8:00 PM; THUR: 8:00 AM - 8:00 PM; FRI: 8:00 AM - 6:00 PM; SAT: 8:00 AM - 4:00 PM; SUN: 8:00 AM - 4:00 PM","<MISSING>","page_url"
"https://www.golftec.com/golf-lessons/minneapolis/edina-tco","Edina TCO","<MISSING>","Edina","MN","55435","United States","1000000086","952-223-6258","<MISSING>","<MISSING>","<MISSING>","https://www.golftec.com","MON: 8:00 AM - 8:00 PM; TUES: 8:00 AM - 8:00 PM; WED: 8:00 AM - 8:00 PM; THUR: 9:00 AM - 8:00 PM; FRI: 8:00 AM - 6:00 PM; SAT: 8:00 AM - 4:00 PM; SUN: 8:00 AM - 4:00 PM","<MISSING>","page_url"
"https://www.golftec.com/golf-lessons/minneapolis/bunker-hills","Bunker Hills","<MISSING>","Coon Rapids","MN","55448","United States","1000000226","612-424-9251","<MISSING>","<MISSING>","<MISSING>","https://www.golftec.com","MON: 9:00 AM - 7:00 PM; TUES: 9:00 AM - 7:00 PM; WED: 9:00 AM - 7:00 PM; THUR: 9:00 AM - 7:00 PM; FRI: 9:00 AM - 7:00 PM; SAT: 9:00 AM - 4:00 PM; SUN: 10:00 AM - 5:00 PM","<MISSING>","page_url"
"https://www.golftec.com/golf-lessons/des-moines/country-club-village","Country Club Village","<MISSING>","Clive","IA","50325","United States","1000000112","515-440-4653","<MISSING>","<MISSING>","<MISSING>","https://www.golftec.com","MON: 11:00 AM - 7:00 PM; TUES: 8:00 AM - 8:00 PM; WED: 8:00 AM - 8:00 PM; THUR: 8:00 AM - 8:00 PM; FRI: 8:00 AM - 6:00 PM; SAT: 8:00 AM - 4:00 PM; SUN: 9:00 AM - 4:00 PM","<MISSING>","page_url"
"https://www.golftec.com/golf-lessons/minneapolis/roseville","Roseville","<MISSING>","Roseville","MN","55113","United States","1000000121","651-697-4015","<MISSING>","<MISSING>","<MISSING>","https://www.golftec.com","MON: 8:00 AM - 8:00 PM; TUES: 8:00 AM - 8:00 PM; WED: 8:00 AM - 8:00 PM; THUR: 8:00 AM - 8:00 PM; FRI: 7:00 AM - 6:00 PM; SAT: 8:00 AM - 5:00 PM; SUN: 10:30 AM - 5:00 PM","<MISSING>","page_url"
"https://www.golftec.com/golf-lessons/naples-ft-myers/naples-walk","Naples Walk","<MISSING>","Naples","FL","34109","United States","1000000186","239-514-4653","<MISSING>","<MISSING>","<MISSING>","https://www.golftec.com","MON: 8:00 AM - 7:00 PM; TUES: 8:00 AM - 7:00 PM; WED: 8:00 AM - 7:00 PM; THUR: 8:00 AM - 7:00 PM; FRI: 8:00 AM - 6:00 PM; SAT: 8:00 AM - 5:00 PM; SUN: 8:00 AM - 4:00 PM","<MISSING>","page_url"
"https://www.golftec.com/golf-lessons/south-florida/miramar","Miramar","<MISSING>","Miramar","FL","33025","United States","1000000367","954-869-2001","<MISSING>","<MISSING>","<MISSING>","https://www.golftec.com","MON: 8:00 AM - 7:00 PM; TUES: 8:00 AM - 7:00 PM; WED: 8:00 AM - 7:00 PM; THUR: 8:00 AM - 7:00 PM; FRI: 8:00 AM - 7:00 PM; SAT: 8:00 AM - 4:00 PM; SUN: 8:00 AM - 4:00 PM","<MISSING>","page_url"
"https://www.golftec.com/golf-lessons/naples-ft-myers/fort-myers","Fort Myers","<MISSING>","Fort Myers","FL","33912","United States","1000000178","239-628-1653","<MISSING>","<MISSING>","<MISSING>","https://www.golftec.com","MON: 9:00 AM - 7:00 PM; TUES: 9:00 AM - 7:00 PM; WED: 9:00 AM - 7:00 PM; THUR: 9:00 AM - 7:00 PM; FRI: 9:00 AM - 5:00 PM; SAT: 9:00 AM - 5:00 PM; SUN: 9:00 AM - 5:00 PM","<MISSING>","page_url"
"https://www.golftec.com/golf-lessons/south-florida/fort-lauderdale","Fort Lauderdale","<MISSING>","Fort Lauderdale","FL","33316","United States","1000000048","954-920-6811","<MISSING>","<MISSING>","<MISSING>","https://www.golftec.com","MON: 10:00 AM - 7:00 PM; TUES: 9:00 AM - 7:00 PM; WED: 9:00 AM - 7:00 PM; THUR: 9:00 AM - 7:00 PM; FRI: 9:00 AM - 6:00 PM; SAT: 9:00 AM - 6:00 PM; SUN: 10:00 AM - 5:00 PM","<MISSING>","page_url"
"https://www.golftec.com/golf-lessons/south-florida/boca-raton","Boca Raton","Inside Edwin Watts Golf Inside Edwin Watts Golf","Boca Raton","FL","33498","United States","1000000068","561-483-4180","<MISSING>","<MISSING>","<MISSING>","https://www.golftec.com","MON: 9:00 AM - 6:00 PM; TUES: 9:00 AM - 6:00 PM; WED: 9:00 AM - 6:00 PM; THUR: 9:00 AM - 6:00 PM; FRI: 9:00 AM - 6:00 PM; SAT: 9:00 AM - 5:00 PM; SUN: 10:00 AM - 5:00 PM","<MISSING>","page_url"
"https://www.golftec.com/golf-lessons/south-florida/palm-beach-gardens","Palm Beach Gardens","<MISSING>","Palm Beach Gardens","FL","33410","United States","1000000093","561-683-3667","<MISSING>","<MISSING>","<MISSING>","https://www.golftec.com","MON: 8:00 AM - 8:00 PM; TUES: 8:00 AM - 8:00 PM; WED: 8:00 AM - 8:00 PM; THUR: 8:00 AM - 8:00 PM; FRI: 7:00 AM - 7:00 PM; SAT: 8:00 AM - 5:00 PM; SUN: 9:00 AM - 4:00 PM","<MISSING>","page_url"
"https://www.golftec.com/golf-lessons/tampa/sarasota","Sarasota","<MISSING>","Sarasota","FL","34240","United States","1000000150","941-926-6025","<MISSING>","<MISSING>","<MISSING>","https://www.golftec.com","MON: 8:00 AM - 7:00 PM; TUES: 8:00 AM - 7:00 PM; WED: 8:00 AM - 7:00 PM; THUR: 8:00 AM - 7:00 PM; FRI: 8:00 AM - 7:00 PM; SAT: 8:00 AM - 4:00 PM; SUN: 8:00 AM - 4:00 PM","<MISSING>","page_url"
"https://www.golftec.com/golf-lessons/tampa/st-petersburg","St. Petersburg","<MISSING>","St. Petersburg","FL","33702","United States","1000000397","727-289-0032","<MISSING>","<MISSING>","<MISSING>","https://www.golftec.com","MON: 8:00 AM - 7:00 PM; TUES: 8:00 AM - 7:00 PM; WED: 8:00 AM - 7:00 PM; THUR: 8:00 AM - 7:00 PM; FRI: 8:00 AM - 7:00 PM; SAT: 8:00 AM - 5:00 PM; SUN: 8:00 AM - 4:00 PM","<MISSING>","page_url"
"https://www.golftec.com/golf-lessons/tampa/westshore","Westshore","<MISSING>","Tampa","FL","33607","United States","1000000075","813-202-8516","<MISSING>","<MISSING>","<MISSING>","https://www.golftec.com","MON: 8:00 AM - 8:00 PM; TUES: 8:00 AM - 8:00 PM; WED: 8:00 AM - 8:00 PM; THUR: 8:00 AM - 8:00 PM; FRI: 8:00 AM - 6:00 PM; SAT: 9:00 AM - 5:00 PM; SUN: 9:00 AM - 5:00 PM","<MISSING>","page_url"
"https://www.golftec.com/golf-lessons/tampa/clearwater","Clearwater","<MISSING>","Clearwater","FL","33765","United States","1000000080","727-797-2138","<MISSING>","<MISSING>","<MISSING>","https://www.golftec.com","MON: 8:00 AM - 7:00 PM; TUES: 8:00 AM - 7:00 PM; WED: 8:00 AM - 7:00 PM; THUR: 8:00 AM - 7:00 PM; FRI: 8:00 AM - 7:00 PM; SAT: 8:00 AM - 4:00 PM; SUN: 8:00 AM - 4:00 PM","<MISSING>","page_url"
"https://www.golftec.com/golf-lessons/tampa/carrollwood","Carrollwood","<MISSING>","Tampa","FL","33618","United States","1000000103","813-962-8060","<MISSING>","<MISSING>","<MISSING>","https://www.golftec.com","MON: 8:00 AM - 8:00 PM; TUES: 8:00 AM - 7:00 PM; WED: 8:00 AM - 8:00 PM; THUR: 8:00 AM - 8:00 PM; FRI: 8:00 AM - 8:00 PM; SAT: 8:00 AM - 5:00 PM; SUN: 9:00 AM - 5:00 PM","<MISSING>","page_url"
"https://www.golftec.com/golf-lessons/orlando/millenia","Millenia","<MISSING>","Orlando","FL","32811","United States","1000000045","407-370-2755","<MISSING>","<MISSING>","<MISSING>","https://www.golftec.com","MON: 8:00 AM - 8:00 PM; TUES: 8:00 AM - 8:00 PM; WED: 7:00 AM - 8:00 PM; THUR: 7:00 AM - 8:00 PM; FRI: 8:00 AM - 7:00 PM; SAT: 8:00 AM - 6:00 PM; SUN: 8:00 AM - 6:00 PM","<MISSING>","page_url"
"https://www.golftec.com/golf-lessons/orlando/maitland","Maitland","<MISSING>","Maitland","FL","32751","United States","1000000056","407-869-0105","<MISSING>","<MISSING>","<MISSING>","https://www.golftec.com","MON: 9:00 AM - 7:00 PM; TUES: 9:00 AM - 8:00 PM; WED: 9:00 AM - 8:00 PM; THUR: 9:00 AM - 8:00 PM; FRI: 9:00 AM - 6:00 PM; SAT: 9:00 AM - 4:00 PM; SUN: 10:00 AM - 6:00 PM","<MISSING>","page_url"
"https://www.golftec.com/golf-lessons/jacksonville","Jacksonville","<MISSING>","Jacksonville","FL","32216","United States","1000000147","904-998-4650","<MISSING>","<MISSING>","<MISSING>","https://www.golftec.com","MON: 8:00 AM - 7:00 PM; TUES: 8:00 AM - 7:00 PM; WED: 8:00 AM - 7:00 PM; THUR: 8:00 AM - 7:00 PM; FRI: 8:00 AM - 7:00 PM; SAT: 8:00 AM - 6:00 PM; SUN: 8:00 AM - 6:00 PM","<MISSING>","page_url"
"https://www.golftec.com/golf-lessons/charleston/mount-pleasant","Mount Pleasant","<MISSING>","Mt. Pleasant","SC","29466","United States","1000000291","(843) 881-2430","<MISSING>","<MISSING>","<MISSING>","https://www.golftec.com","MON: 9:00 AM - 7:00 PM; TUES: 9:00 AM - 7:00 PM; WED: 9:00 AM - 7:00 PM; THUR: 9:00 AM - 7:00 PM; FRI: 9:00 AM - 7:00 PM; SAT: 8:00 AM - 3:00 PM; SUN: PM -  PM","<MISSING>","page_url"
"https://www.golftec.com/golf-lessons/birmingham","Birmingham","<MISSING>","Birmingham","AL","35243","United States","1000000077","205-991-1762","<MISSING>","<MISSING>","<MISSING>","https://www.golftec.com","MON: 9:00 AM - 6:00 PM; TUES: 8:00 AM - 8:00 PM; WED: 10:00 AM - 7:00 PM; THUR: 10:00 AM - 7:00 PM; FRI: 9:00 AM - 6:00 PM; SAT: 9:00 AM - 6:00 PM; SUN: 9:00 AM - 6:00 PM","<MISSING>","page_url"
"https://www.golftec.com/golf-lessons/st-louis/chesterfield","Chesterfield","<MISSING>","Chesterfield","MO","63005","United States","1000000170","314-721-4653","<MISSING>","<MISSING>","<MISSING>","https://www.golftec.com","MON: 8:00 AM - 9:00 PM; TUES: 8:00 AM - 9:00 PM; WED: 8:00 AM - 9:00 PM; THUR: 8:00 AM - 9:00 PM; FRI: 8:00 AM - 8:00 PM; SAT: 8:00 AM - 5:00 PM; SUN: 8:00 AM - 5:00 PM","<MISSING>","page_url"
"https://www.golftec.com/golf-lessons/st-louis/clayton","Clayton","The Plaza in Clayton The Plaza in Clayton","Clayton","MO","63105","United States","1000000134","314-721-4653","<MISSING>","<MISSING>","<MISSING>","https://www.golftec.com","MON: 7:30 AM - 8:00 PM; TUES: 7:30 AM - 8:00 PM; WED: 7:30 AM - 8:00 PM; THUR: 7:30 AM - 8:00 PM; FRI: 7:30 AM - 8:00 PM; SAT: 8:00 AM - 5:00 PM; SUN: 8:00 AM - 5:00 PM","<MISSING>","page_url"
"https://www.golftec.com/golf-lessons/atlanta/fox-creek","Fox Creek","<MISSING>","Smyrna","GA","30080","United States","1000000209","678-701-1802","<MISSING>","<MISSING>","<MISSING>","https://www.golftec.com","MON: 8:00 AM - 8:00 PM; TUES: 8:00 AM - 8:00 PM; WED: 8:00 AM - 8:00 PM; THUR: 8:00 AM - 8:00 PM; FRI: 8:00 AM - 7:00 PM; SAT: 8:00 AM - 4:00 PM; SUN: 8:00 AM - 4:00 PM","<MISSING>","page_url"
"https://www.golftec.com/golf-lessons/atlanta/buckhead","Buckhead","<MISSING>","Atlanta","GA","30305","United States","1000000059","404-467-8884","<MISSING>","<MISSING>","<MISSING>","https://www.golftec.com","MON: 8:00 AM - 8:00 PM; TUES: 8:00 AM - 8:00 PM; WED: 8:00 AM - 8:00 PM; THUR: 8:00 AM - 8:00 PM; FRI: 8:00 AM - 7:00 PM; SAT: 8:00 AM - 4:00 PM; SUN: 8:00 AM - 4:00 PM","<MISSING>","page_url"
"https://www.golftec.com/golf-lessons/atlanta/sandy-springs","Sandy Springs","<MISSING>","Sandy Springs","GA","30328","United States","1000000260","770-741-0040","<MISSING>","<MISSING>","<MISSING>","https://www.golftec.com","MON: 8:00 AM - 6:00 PM; TUES: 8:00 AM - 8:00 PM; WED: 8:00 AM - 6:00 PM; THUR: 8:00 AM - 8:00 PM; FRI: 8:00 AM - 7:00 PM; SAT: 8:00 AM - 4:00 PM; SUN: 8:00 AM - 4:00 PM","<MISSING>","page_url"
"https://www.golftec.com/golf-lessons/nashville/cool-springs","Cool Springs","<MISSING>","Franklin","TN","37067","United States","1000000149","615-472-9175","<MISSING>","<MISSING>","<MISSING>","https://www.golftec.com","MON: 8:00 AM - 8:00 PM; TUES: 8:00 AM - 7:00 PM; WED: 8:00 AM - 8:00 PM; THUR: 8:00 AM - 8:00 PM; FRI: 8:00 AM - 6:00 PM; SAT: 8:00 AM - 4:00 PM; SUN: 11:00 AM - 5:00 PM","<MISSING>","page_url"
"https://www.golftec.com/golf-lessons/nashville/nashville-west","Nashville West","<MISSING>","Nashville","TN","37209","United States","1000000310","615-696-6690","<MISSING>","<MISSING>","<MISSING>","https://www.golftec.com","MON: 8:00 AM - 8:00 PM; TUES: 8:00 AM - 8:00 PM; WED: 8:00 AM - 8:00 PM; THUR: 8:00 AM - 8:00 PM; FRI: 8:00 AM - 6:00 PM; SAT: 8:00 AM - 3:00 PM; SUN: 11:00 AM - 5:00 PM","<MISSING>","page_url"
"https://www.golftec.com/golf-lessons/madison","Madison","<MISSING>","Madison","WI","53717","United States","1000000148","608-831-3673","<MISSING>","<MISSING>","<MISSING>","https://www.golftec.com","MON: 7:00 AM - 8:00 PM; TUES: 7:00 AM - 8:00 PM; WED: 7:00 AM - 8:00 PM; THUR: 7:00 AM - 8:00 PM; FRI: 7:00 AM - 8:00 PM; SAT: 7:00 AM - 3:00 PM; SUN: 7:00 AM - 3:00 PM","<MISSING>","page_url"
"https://www.golftec.com/golf-lessons/milwaukee/mequon","Mequon","<MISSING>","Mequon","WI","53092","United States","1000000113","262-240-9851","<MISSING>","<MISSING>","<MISSING>","https://www.golftec.com","MON: 8:00 AM - 8:00 PM; TUES: 8:00 AM - 8:00 PM; WED: 8:00 AM - 8:00 PM; THUR: 8:00 AM - 8:00 PM; FRI: 8:00 AM - 6:00 PM; SAT: 8:00 AM - 4:00 PM; SUN: 8:00 AM - 4:00 PM","<MISSING>","page_url"
"https://www.golftec.com/golf-lessons/milwaukee/brookfield","Brookfield","<MISSING>","Brookfield","WI","53005","United States","1000000079","414-463-4653","<MISSING>","<MISSING>","<MISSING>","https://www.golftec.com","MON: 7:00 AM - 8:00 PM; TUES: 7:00 AM - 8:00 PM; WED: 7:00 AM - 8:00 PM; THUR: 7:00 AM - 8:00 PM; FRI: 7:00 AM - 8:00 PM; SAT: 8:00 AM - 5:00 PM; SUN: 8:00 AM - 5:00 PM","<MISSING>","page_url"
"https://www.golftec.com/golf-lessons/chicago/vernon-hills","Vernon Hills","<MISSING>","Vernon Hills","IL","60061","United States","1000000203","847-327-0605","<MISSING>","<MISSING>","<MISSING>","https://www.golftec.com","MON: 8:00 AM - 6:00 PM; TUES: 8:00 AM - 8:00 PM; WED: 8:00 AM - 8:00 PM; THUR: 8:00 AM - 8:00 PM; FRI: 8:00 AM - 7:00 PM; SAT: 8:00 AM - 4:00 PM; SUN: 8:00 AM - 4:00 PM","<MISSING>","page_url"
"https://www.golftec.com/golf-lessons/chicago/schaumburg","Schaumburg","<MISSING>","Schaumburg","IL","60195","United States","1000000364","224-353-4100","<MISSING>","<MISSING>","<MISSING>","https://www.golftec.com","MON: 10:00 AM - 8:00 PM; TUES: 7:00 AM - 4:00 PM; WED: 7:00 AM - 8:00 PM; THUR: 10:00 AM - 8:00 PM; FRI: 8:00 AM - 4:00 PM; SAT: 8:00 AM - 4:00 PM; SUN: 10:00 AM - 5:00 PM","<MISSING>","page_url"
"https://www.golftec.com/golf-lessons/chicago/deerfield","Deerfield","<MISSING>","Deerfield","IL","60015","United States","1000000006","224-330-4020","<MISSING>","<MISSING>","<MISSING>","https://www.golftec.com","MON: 8:00 AM - 8:00 PM; TUES: 8:00 AM - 8:00 PM; WED: 8:00 AM - 8:00 PM; THUR: 8:00 AM - 8:00 PM; FRI: 8:00 AM - 7:00 PM; SAT: 8:00 AM - 4:00 PM; SUN: 8:00 AM - 4:00 PM","<MISSING>","page_url"
"https://www.golftec.com/golf-lessons/knoxville","Knoxville","<MISSING>","Knoxville","TN","37919","United States","1000000124","865-566-0505","<MISSING>","<MISSING>","<MISSING>","https://www.golftec.com","MON: 8:00 AM - 6:00 PM; TUES: 8:00 AM - 8:00 PM; WED: 8:00 AM - 8:00 PM; THUR: 8:00 AM - 8:00 PM; FRI: 7:00 AM - 6:00 PM; SAT: 8:00 AM - 4:00 PM; SUN: Closed","<MISSING>","page_url"
"https://www.golftec.com/golf-lessons/greenville/greenville-sc","Greenville","<MISSING>","Greenville","SC","29615","United States","1000000241","864-640-8071","<MISSING>","<MISSING>","<MISSING>","https://www.golftec.com","MON: 8:00 AM - 8:00 PM; TUES: 8:00 AM - 8:00 PM; WED: 8:00 AM - 8:00 PM; THUR: 8:00 AM - 8:00 PM; FRI: 8:00 AM - 8:00 PM; SAT: 9:00 AM - 6:00 PM; SUN: 9:00 AM - 6:00 PM","<MISSING>","page_url"
"https://www.golftec.com/golf-lessons/louisville","Louisville","<MISSING>","Louisville","KY","40223","United States","1000000200","502-426-4314","<MISSING>","<MISSING>","<MISSING>","https://www.golftec.com","MON: 9:00 AM - 8:00 PM; TUES: 9:00 AM - 8:00 PM; WED: 9:00 AM - 8:00 PM; THUR: 9:00 AM - 8:00 PM; FRI: 9:00 AM - 6:00 PM; SAT: 8:00 AM - 5:00 PM; SUN: 9:00 AM - 4:00 PM","<MISSING>","page_url"
"https://www.golftec.com/golf-lessons/chicago/des-plaines","Des Plaines","Inside The Golf Center  Inside The Golf Center","Des Plaines","IL","60016","United States","1000000012","847-299-5431","<MISSING>","<MISSING>","<MISSING>","https://www.golftec.com","MON: 9:00 AM - 8:00 PM; TUES: 9:00 AM - 8:00 PM; WED: 9:00 AM - 8:00 PM; THUR: 9:00 AM - 8:00 PM; FRI: 9:00 AM - 6:00 PM; SAT: 8:00 AM - 4:00 PM; SUN: 8:00 AM - 4:00 PM","<MISSING>","page_url"
"https://www.golftec.com/golf-lessons/chicago/naperville","Naperville","<MISSING>","Naperville","IL","60563","United States","1000000002","630-579-9390","<MISSING>","<MISSING>","<MISSING>","https://www.golftec.com","MON: 9:00 AM - 9:00 PM; TUES: 8:00 AM - 9:00 PM; WED: 8:00 AM - 9:00 PM; THUR: 8:00 AM - 9:00 PM; FRI: 8:00 AM - 6:00 PM; SAT: 8:00 AM - 4:00 PM; SUN: 8:00 AM - 4:00 PM","<MISSING>","page_url"
"https://www.golftec.com/golf-lessons/chicago/orland-park","Orland Park","<MISSING>","Orland Park","IL","60462","United States","1000000282","708-304-4871","<MISSING>","<MISSING>","<MISSING>","https://www.golftec.com","MON: 8:00 AM - 8:00 PM; TUES: 8:00 AM - 8:00 PM; WED: 8:00 AM - 8:00 PM; THUR: 8:00 AM - 8:00 PM; FRI: 8:00 AM - 6:00 PM; SAT: 8:00 AM - 4:00 PM; SUN: 8:00 AM - 4:00 PM","<MISSING>","page_url"
"https://www.golftec.com/golf-lessons/chicago/oak-brook","Oak Brook","<MISSING>","Oak Brook","IL","60523","United States","1000000074","630-396-2020","<MISSING>","<MISSING>","<MISSING>","https://www.golftec.com","MON: 8:00 AM - 8:00 PM; TUES: 8:00 AM - 8:00 PM; WED: 8:00 AM - 8:00 PM; THUR: 8:00 AM - 8:00 PM; FRI: 8:00 AM - 6:00 PM; SAT: 8:00 AM - 4:00 PM; SUN: 8:00 AM - 4:00 PM","<MISSING>","page_url"
"https://www.golftec.com/golf-lessons/indianapolis/carmel","Carmel","<MISSING>","Carmel","IN","46032","United States","1000000157","317-810-0075","<MISSING>","<MISSING>","<MISSING>","https://www.golftec.com","MON: 9:00 AM - 8:00 PM; TUES: 9:00 AM - 8:00 PM; WED: 9:00 AM - 8:00 PM; THUR: 9:00 AM - 8:00 PM; FRI: 8:00 AM - 5:00 PM; SAT: 8:00 AM - 5:00 PM; SUN: 11:00 AM - 6:00 PM","<MISSING>","page_url"
"https://www.golftec.com/golf-lessons/indianapolis/castleton","Castleton","<MISSING>","Indianapolis","IN","46250","United States","1000000127","317-595-2170","<MISSING>","<MISSING>","<MISSING>","https://www.golftec.com","MON: 9:00 AM - 8:00 PM; TUES: 9:00 AM - 8:00 PM; WED: 9:00 AM - 8:00 PM; THUR: 9:00 AM - 8:00 PM; FRI: 9:00 AM - 8:00 PM; SAT: 9:00 AM - 5:00 PM; SUN: 9:00 AM - 5:00 PM","<MISSING>","page_url"
"https://www.golftec.com/golf-lessons/charlotte/ballantyne","Ballantyne","<MISSING>","Charlotte","NC","28277","United States","1000000368","704-583-5233","<MISSING>","<MISSING>","<MISSING>","https://www.golftec.com","MON: 8:00 AM - 8:00 PM; TUES: 8:00 AM - 8:00 PM; WED: 8:00 AM - 8:00 PM; THUR: 8:00 AM - 8:00 PM; FRI: 8:00 AM - 8:00 PM; SAT: 8:00 AM - 5:00 PM; SUN: 8:00 AM - 5:00 PM","<MISSING>","page_url"
"https://www.golftec.com/golf-lessons/charlotte/tyvola","Tyvola","<MISSING>","Charlotte","NC","28217","United States","1000000088","704-405-1490","<MISSING>","<MISSING>","<MISSING>","https://www.golftec.com","MON: 7:00 AM - 8:00 PM; TUES: 7:00 AM - 8:00 PM; WED: 7:00 AM - 8:00 PM; THUR: 7:00 AM - 8:00 PM; FRI: 7:00 AM - 8:00 PM; SAT: 8:00 AM - 6:00 PM; SUN: 8:00 AM - 5:00 PM","<MISSING>","page_url"
"https://www.golftec.com/golf-lessons/cincinnati/blueash","Blue Ash","<MISSING>","Blue Ash","OH","45242","United States","1000000060","513-469-0813","<MISSING>","<MISSING>","<MISSING>","https://www.golftec.com","MON: 9:00 AM - 8:00 PM; TUES: 9:00 AM - 8:00 PM; WED: 9:00 AM - 8:00 PM; THUR: 9:00 AM - 8:00 PM; FRI: 9:00 AM - 6:00 PM; SAT: 9:00 AM - 6:00 PM; SUN: 9:00 AM - 4:00 PM","<MISSING>","page_url"
"https://www.golftec.com/golf-lessons/chicago/halsted-row","Halsted Row","<MISSING>","Chicago","IL","60657","United States","1000000092","773-755-4653","<MISSING>","<MISSING>","<MISSING>","https://www.golftec.com","MON: 9:00 AM - 9:00 PM; TUES: 8:00 AM - 10:00 PM; WED: 9:00 AM - 10:00 PM; THUR: 8:00 AM - 9:00 PM; FRI: 8:00 AM - 8:00 PM; SAT: 8:00 AM - 6:00 PM; SUN: 8:00 AM - 6:00 PM","<MISSING>","page_url"
"https://www.golftec.com/golf-lessons/greensboro/greensboro-nc","Greensboro","<MISSING>","Greensboro","NC","27410","United States","1000000065","336-808-0793","<MISSING>","<MISSING>","<MISSING>","https://www.golftec.com","MON: 10:00 AM - 8:00 PM; TUES: 10:00 AM - 8:00 PM; WED: 10:00 AM - 8:00 PM; THUR: 10:00 AM - 8:00 PM; FRI: 10:00 AM - 8:00 PM; SAT: 10:00 AM - 8:00 PM; SUN: 11:00 AM - 5:00 PM","<MISSING>","page_url"
"https://www.golftec.com/golf-lessons/dayton","Dayton","<MISSING>","Kettering","OH","45440","United States","1000000228","937-458-5065","<MISSING>","<MISSING>","<MISSING>","https://www.golftec.com","MON: 9:00 AM - 8:00 PM; TUES: 9:00 AM - 8:00 PM; WED: 9:00 AM - 8:00 PM; THUR: 9:00 AM - 8:00 PM; FRI: 9:00 AM - 8:00 PM; SAT: 9:00 AM - 5:00 PM; SUN: 9:00 AM - 5:00 PM","<MISSING>","page_url"
"https://www.golftec.com/golf-lessons/raleigh/cary","Cary","<MISSING>","Cary","NC","27513","United States","1000000064","919-677-8385","<MISSING>","<MISSING>","<MISSING>","https://www.golftec.com","MON: 7:00 AM - 8:00 PM; TUES: 7:00 AM - 8:00 PM; WED: 8:00 AM - 8:00 PM; THUR: 7:00 AM - 8:00 PM; FRI: 7:00 AM - 7:00 PM; SAT: 9:00 AM - 8:00 PM; SUN: 9:00 AM - 7:00 PM","<MISSING>","page_url"
"https://www.golftec.com/golf-lessons/raleigh/north-raleigh","North Raleigh","<MISSING>","Raleigh","NC","27615","United States","1000000146","919-865-2858","<MISSING>","<MISSING>","<MISSING>","https://www.golftec.com","MON: 8:00 AM - 8:00 PM; TUES: 8:00 AM - 8:00 PM; WED: 8:00 AM - 8:00 PM; THUR: 8:00 AM - 8:00 PM; FRI: 8:00 AM - 8:00 PM; SAT: 8:00 AM - 5:00 PM; SUN: 8:00 AM - 5:00 PM","<MISSING>","page_url"
"https://www.golftec.com/golf-lessons/grand-rapids","Grand Rapids","<MISSING>","Grand Rapids","MI","49525","United States","1000000271","616-228-9034","<MISSING>","<MISSING>","<MISSING>","https://www.golftec.com","MON: 8:00 AM - 8:00 PM; TUES: 8:00 AM - 8:00 PM; WED: 8:00 AM - 8:00 PM; THUR: 8:00 AM - 8:00 PM; FRI: 8:00 AM - 6:00 PM; SAT: 8:00 AM - 6:00 PM; SUN: 8:00 AM - 6:00 PM","<MISSING>","page_url"
"https://www.golftec.com/golf-lessons/hampton-roads/virginia-beach","Virginia Beach","<MISSING>","Virginia Beach","VA","23462","United States","1000000305","757-793-3877","<MISSING>","<MISSING>","<MISSING>","https://www.golftec.com","MON: 9:00 AM - 7:00 PM; TUES: 8:00 AM - 8:00 PM; WED: 8:00 AM - 8:00 PM; THUR: 8:00 AM - 8:00 PM; FRI: 8:00 AM - 5:00 PM; SAT: 8:00 AM - 5:00 PM; SUN: 9:00 AM - 5:00 PM","<MISSING>","page_url"
"https://www.golftec.com/golf-lessons/columbus/dublin","Dublin","<MISSING>","Dublin","OH","43017","United States","1000000069","614-336-8044","<MISSING>","<MISSING>","<MISSING>","https://www.golftec.com","MON: 10:00 AM - 9:00 PM; TUES: 9:00 AM - 10:00 PM; WED: 10:00 AM - 8:00 PM; THUR: 9:00 AM - 10:00 PM; FRI: 9:00 AM - 7:00 PM; SAT: 9:00 AM - 8:00 PM; SUN: 10:00 AM - 8:00 PM","<MISSING>","page_url"
"https://www.golftec.com/golf-lessons/richmond/glen-allen","Glen Allen","<MISSING>","Glen Allen","VA","23060","United States","1000000100","804-364-2022","<MISSING>","<MISSING>","<MISSING>","https://www.golftec.com","MON: 9:00 AM - 8:00 PM; TUES: 9:00 AM - 8:00 PM; WED: 9:00 AM - 8:00 PM; THUR: 9:00 AM - 8:00 PM; FRI: 9:00 AM - 7:00 PM; SAT: 9:00 AM - 5:00 PM; SUN: 9:00 AM - 5:00 PM","<MISSING>","page_url"
"https://www.golftec.com/golf-lessons/columbus/easton","Easton","<MISSING>","Columbus","OH","43219","United States","1000000054","614-428-4653","<MISSING>","<MISSING>","<MISSING>","https://www.golftec.com","MON: 9:00 AM - 9:00 PM; TUES: 9:00 AM - 9:00 PM; WED: 9:00 AM - 9:00 PM; THUR: 9:00 AM - 9:00 PM; FRI: 8:00 AM - 8:00 PM; SAT: 8:00 AM - 6:00 PM; SUN: 8:00 AM - 6:00 PM","<MISSING>","page_url"
"https://www.golftec.com/golf-lessons/detroit/novi","Novi","<MISSING>","Novi","MI","48375","United States","1000000213","248-429-1600","<MISSING>","<MISSING>","<MISSING>","https://www.golftec.com","MON: 9:00 AM - 8:00 PM; TUES: 9:00 AM - 8:00 PM; WED: 9:00 AM - 8:00 PM; THUR: 9:00 AM - 8:00 PM; FRI: 9:00 AM - 8:00 PM; SAT: 9:00 AM - 6:00 PM; SUN: 9:00 AM - 5:00 PM","<MISSING>","page_url"
"https://www.golftec.com/golf-lessons/fairfax-county/alexandria","Alexandria","<MISSING>","Alexandria","VA","22307","United States","1000000293","571-384-1660","<MISSING>","<MISSING>","<MISSING>","https://www.golftec.com","MON: 8:00 AM - 8:00 PM; TUES: 8:00 AM - 8:00 PM; WED: 8:00 AM - 8:00 PM; THUR: 8:00 AM - 8:00 PM; FRI: 8:00 AM - 5:00 PM; SAT: 7:00 AM - 4:00 PM; SUN: 8:00 AM - 5:00 PM","<MISSING>","page_url"
"https://www.golftec.com/golf-lessons/detroit/troy","Troy","<MISSING>","Troy","MI","48083","United States","1000000030","248-689-4653","<MISSING>","<MISSING>","<MISSING>","https://www.golftec.com","MON: 9:00 AM - 8:00 PM; TUES: 9:00 AM - 8:00 PM; WED: 9:00 AM - 8:00 PM; THUR: 9:00 AM - 8:00 PM; FRI: 9:00 AM - 8:00 PM; SAT: 9:00 AM - 6:00 PM; SUN: 10:00 AM - 6:00 PM","<MISSING>","page_url"
"https://www.golftec.com/golf-lessons/detroit/lakeside","Lakeside","<MISSING>","Macomb","MI","48044","United States","1000000129","586-566-7953","<MISSING>","<MISSING>","<MISSING>","https://www.golftec.com","MON: 9:00 AM - 8:00 PM; TUES: 9:00 AM - 8:00 PM; WED: 9:00 AM - 8:00 PM; THUR: 9:00 AM - 8:00 PM; FRI: 9:00 AM - 8:00 PM; SAT: 9:00 AM - 6:00 PM; SUN: 10:00 AM - 6:00 PM","<MISSING>","page_url"
"https://www.golftec.com/golf-lessons/fairfax-county/herndon","Herndon","<MISSING>","Herndon","VA","20171","United States","1000000292","571-526-5496","<MISSING>","<MISSING>","<MISSING>","https://www.golftec.com","MON: 10:00 AM - 8:00 PM; TUES: 10:00 AM - 8:00 PM; WED: 10:00 AM - 8:00 PM; THUR: 10:00 AM - 8:00 PM; FRI: 10:00 AM - 8:00 PM; SAT: 8:00 AM - 5:00 PM; SUN: 8:00 AM - 5:00 PM","<MISSING>","page_url"
"https://www.golftec.com/golf-lessons/toledo","Toledo","<MISSING>","Sylvania","OH","43560","United States","1000000234","419-574-9150","<MISSING>","<MISSING>","<MISSING>","https://www.golftec.com","MON: 11:00 AM - 7:00 PM; TUES: 11:00 AM - 7:00 PM; WED: 11:00 AM - 3:00 PM; THUR: PM -  PM; FRI: 11:00 AM - 7:00 PM; SAT: 10:00 AM - 3:00 PM; SUN: PM -  PM","<MISSING>","page_url"
"https://www.golftec.com/golf-lessons/canton/canton","Canton","<MISSING>","Canton","OH","44718","United States","1000000187","330-433-2850","<MISSING>","<MISSING>","<MISSING>","https://www.golftec.com","MON: 9:00 AM - 7:00 PM; TUES: 8:00 AM - 8:00 PM; WED: 8:00 AM - 8:00 PM; THUR: 8:00 AM - 8:00 PM; FRI: 8:00 AM - 6:00 PM; SAT: 8:00 AM - 4:00 PM; SUN: 8:00 AM - 4:00 PM","<MISSING>","page_url"
"https://www.golftec.com/golf-lessons/canton/fairlawn","Fairlawn","<MISSING>","Fairlawn","OH","44333","United States","1000000247","330-822-1800","<MISSING>","<MISSING>","<MISSING>","https://www.golftec.com","MON: 9:00 AM - 8:00 PM; TUES: 11:00 AM - 8:00 PM; WED: 8:00 AM - 8:00 PM; THUR: 8:00 AM - 8:00 PM; FRI: 9:00 AM - 7:00 PM; SAT: 8:00 AM - 4:00 PM; SUN: 8:00 AM - 4:00 PM","<MISSING>","page_url"
"https://www.golftec.com/golf-lessons/cleveland/cleveland-west","Cleveland West","<MISSING>","North Olmsted","OH","44070","United States","1000000107","440-348-1757 x1","<MISSING>","<MISSING>","<MISSING>","https://www.golftec.com","MON: 8:00 AM - 8:00 PM; TUES: 8:00 AM - 8:00 PM; WED: 8:00 AM - 8:00 PM; THUR: 8:00 AM - 8:00 PM; FRI: 8:00 AM - 7:00 PM; SAT: 7:00 AM - 4:00 PM; SUN: 8:00 AM - 5:00 PM","<MISSING>","page_url"
"https://www.golftec.com/golf-lessons/fairfax-county/tysons-corner","Tysons Corner","<MISSING>","McLean","VA","22102","United States","1000000191","703-942-5000","<MISSING>","<MISSING>","<MISSING>","https://www.golftec.com","MON: 10:00 AM - 8:00 PM; TUES: 7:00 AM - 8:00 PM; WED: 6:00 AM - 8:00 PM; THUR: 6:00 AM - 8:00 PM; FRI: 6:00 AM - 7:00 PM; SAT: 7:00 AM - 4:00 PM; SUN: 7:00 AM - 4:00 PM","<MISSING>","page_url"
"https://www.golftec.com/golf-lessons/montgomery-county/north-bethesda","North Bethesda","<MISSING>","North Bethesda","MD","20852","United States","1000000185","240-715-0291","<MISSING>","<MISSING>","<MISSING>","https://www.golftec.com","MON: 9:00 AM - 8:00 PM; TUES: 7:00 AM - 9:00 PM; WED: 7:00 AM - 9:00 PM; THUR: 7:00 AM - 9:00 PM; FRI: 8:00 AM - 8:00 PM; SAT: 8:00 AM - 5:00 PM; SUN: 8:00 AM - 5:00 PM","<MISSING>","page_url"
"https://www.golftec.com/golf-lessons/montgomery-county/gaithersburg","Gaithersburg","<MISSING>","Gaithersburg","MD","20877","United States","1000000236","240-654-0796","<MISSING>","<MISSING>","<MISSING>","https://www.golftec.com","MON: 10:00 AM - 8:00 PM; TUES: 7:00 AM - 8:00 PM; WED: 7:00 AM - 8:00 PM; THUR: 7:00 AM - 8:00 PM; FRI: 10:00 AM - 8:00 PM; SAT: 8:00 AM - 5:00 PM; SUN: 8:00 AM - 5:00 PM","<MISSING>","page_url"
"https://www.golftec.com/golf-lessons/baltimore/ellicott-city","Ellicott City","<MISSING>","Ellicott City","MD","21043","United States","1000000270","410-505-0208","<MISSING>","<MISSING>","<MISSING>","https://www.golftec.com","MON: 10:00 AM - 9:00 PM; TUES: 8:00 AM - 9:00 PM; WED: 10:00 AM - 9:00 PM; THUR: 7:00 AM - 9:00 PM; FRI: 8:00 AM - 9:00 PM; SAT: 8:00 AM - 7:00 PM; SUN: 7:00 AM - 5:00 PM","<MISSING>","page_url"
"https://www.golftec.com/golf-lessons/pittsburgh/scott-township","Scott Township","<MISSING>","Scott Township","PA","15220","United States","1000000099","412-207-7614","<MISSING>","<MISSING>","<MISSING>","https://www.golftec.com","MON: 8:00 AM - 8:00 PM; TUES: 8:00 AM - 8:00 PM; WED: 8:00 AM - 8:00 PM; THUR: 9:00 AM - 8:00 PM; FRI: 8:00 AM - 4:00 PM; SAT: 8:00 AM - 4:00 PM; SUN: 8:00 AM - 4:00 PM","<MISSING>","page_url"
"https://www.golftec.com/golf-lessons/cleveland/stonebrook","Stonebrook","<MISSING>","Middleburg Heights","OH","44130","United States","1000000243","440-397-4260","<MISSING>","<MISSING>","<MISSING>","https://www.golftec.com","MON: 8:00 AM - 8:00 PM; TUES: 8:00 AM - 8:00 PM; WED: 8:00 AM - 8:00 PM; THUR: 8:00 AM - 8:00 PM; FRI: 8:00 AM - 7:00 PM; SAT: 9:00 AM - 6:00 PM; SUN: 9:00 AM - 6:00 PM","<MISSING>","page_url"
"https://www.golftec.com/golf-lessons/cleveland/brecksville","Brecksville","<MISSING>","Brecksville","OH","44141","United States","1000000217","440-792-6700","<MISSING>","<MISSING>","<MISSING>","https://www.golftec.com","MON: 8:00 AM - 5:00 PM; TUES: 8:00 AM - 8:00 PM; WED: 11:00 AM - 8:00 PM; THUR: 8:00 AM - 8:00 PM; FRI: 8:00 AM - 7:00 PM; SAT: 9:00 AM - 6:00 PM; SUN: Closed","<MISSING>","page_url"
"https://www.golftec.com/golf-lessons/cleveland/cleveland-east","Cleveland East","<MISSING>","Beachwood","OH","44122","United States","1000000153","216-454-0074","<MISSING>","<MISSING>","<MISSING>","https://www.golftec.com","MON: 8:00 AM - 8:00 PM; TUES: 8:00 AM - 8:00 PM; WED: 8:00 AM - 8:00 PM; THUR: 8:00 AM - 8:00 PM; FRI: 8:00 AM - 7:00 PM; SAT: 8:00 AM - 4:00 PM; SUN: 8:00 AM - 4:00 PM","<MISSING>","page_url"
"https://www.golftec.com/golf-lessons/baltimore/timonium","Timonium","<MISSING>","Timonium","MD","21093","United States","1000000207","443-345-5118","<MISSING>","<MISSING>","<MISSING>","https://www.golftec.com","MON: 8:00 AM - 8:00 PM; TUES: 8:00 AM - 8:00 PM; WED: 8:00 AM - 8:00 PM; THUR: 8:00 AM - 8:00 PM; FRI: 8:00 AM - 8:00 PM; SAT: 8:00 AM - 5:00 PM; SUN: 8:00 AM - 5:00 PM","<MISSING>","page_url"
"https://www.golftec.com/golf-lessons/pittsburgh/wexford","Wexford","<MISSING>","Wexford","PA","15090","United States","1000000055","724-933-3434","<MISSING>","<MISSING>","<MISSING>","https://www.golftec.com","MON: 8:00 AM - 8:00 PM; TUES: 8:00 AM - 8:00 PM; WED: 8:00 AM - 8:00 PM; THUR: 8:00 AM - 8:00 PM; FRI: 8:30 AM - 5:00 PM; SAT: 8:00 AM - 1:00 PM; SUN: 10:00 AM - 3:00 PM","<MISSING>","page_url"
"https://www.golftec.com/en-ca/golf-lessons/toronto/mississauga-meadowvale","Mississauga Meadowvale","<MISSING>","Mississauga","ON","L5N 6R6","Canada","1000000204","905-286-4653","<MISSING>","<MISSING>","<MISSING>","https://www.golftec.com","MON: 10:00 AM - 6:00 PM; TUES: 10:00 AM - 9:00 PM; WED: 10:00 AM - 9:00 PM; THUR: 10:00 AM - 9:00 PM; FRI: 10:00 AM - 6:00 PM; SAT: 10:00 AM - 5:00 PM; SUN: 10:00 AM - 5:00 PM","<MISSING>","page_url"
"https://www.golftec.com/en-ca/golf-lessons/toronto/woodbridge-gta","Woodbridge GTA","Inside Golf Town Inside Golf Town","Woodbridge","ON","L4L 9J8","Canada","1000000273","905-264-1002","<MISSING>","<MISSING>","<MISSING>","https://www.golftec.com","MON: 11:00 AM - 7:00 PM; TUES: 11:00 AM - 7:00 PM; WED: 11:00 AM - 7:00 PM; THUR: 1:00 PM - 9:00 PM; FRI: 11:00 AM - 7:00 PM; SAT: 9:00 AM - 4:00 PM; SUN: 10:00 AM - 4:00 PM","<MISSING>","page_url"
"https://www.golftec.com/en-ca/golf-lessons/toronto/mississauga-erin-mills","Mississauga Erin Mills","Inside Golf Town Inside Golf Town","Mississauga","ON","L5L 5X8","Canada","1000000266","905-569-7171","<MISSING>","<MISSING>","<MISSING>","https://www.golftec.com","MON: 9:00 AM - 7:00 PM; TUES: 9:00 AM - 7:00 PM; WED: 9:00 AM - 7:00 PM; THUR: 9:00 AM - 7:00 PM; FRI: 9:00 AM - 7:00 PM; SAT: 10:00 AM - 5:00 PM; SUN: 10:00 AM - 5:00 PM","<MISSING>","page_url"
"https://www.golftec.com/en-ca/golf-lessons/toronto/richmond-hill","Richmond Hill","<MISSING>","Richmond Hill","ON","L4B 3K4","Canada","1000000229","905-237-4693","<MISSING>","<MISSING>","<MISSING>","https://www.golftec.com","MON: 9:00 AM - 9:00 PM; TUES: 9:00 AM - 9:00 PM; WED: 9:00 AM - 9:00 PM; THUR: 9:00 AM - 9:00 PM; FRI: 9:00 AM - 5:00 PM; SAT: 9:00 AM - 5:00 PM; SUN: 9:00 AM - 5:00 PM","<MISSING>","page_url"
"https://www.golftec.com/en-ca/golf-lessons/toronto/hamilton","Hamilton","Inside Golf Town Inside Golf Town","Hamilton","ON","L9K 1J8","Canada","1000000277","(905) 648-3907","<MISSING>","<MISSING>","<MISSING>","https://www.golftec.com","MON: 11:00 AM - 7:00 PM; TUES: 10:00 AM - 9:00 PM; WED: 10:00 AM - 9:00 PM; THUR: 10:00 AM - 9:00 PM; FRI: 10:00 AM - 6:00 PM; SAT: 10:00 AM - 5:00 PM; SUN: 10:00 AM - 5:00 PM","<MISSING>","page_url"
"https://www.golftec.com/en-ca/golf-lessons/toronto/markham","Markham","Inside Golf Town Inside Golf Town","Markham","ON","L6G 0E7","Canada","1000000258","905-947-9777","<MISSING>","<MISSING>","<MISSING>","https://www.golftec.com","MON: 10:00 AM - 5:00 PM; TUES: 10:00 AM - 5:00 PM; WED: 10:00 AM - 5:00 PM; THUR: 10:00 AM - 5:00 PM; FRI: 10:00 AM - 5:00 PM; SAT: 10:00 AM - 5:00 PM; SUN: 10:00 AM - 5:00 PM","<MISSING>","page_url"
"https://www.golftec.com/golf-lessons/philadelphia/springfield","Springfield","<MISSING>","Springfield","PA","19064","United States","1000000161","877-893-0133 x4","<MISSING>","<MISSING>","<MISSING>","https://www.golftec.com","MON: 9:00 AM - 6:00 PM; TUES: 9:00 AM - 8:00 PM; WED: 9:00 AM - 8:00 PM; THUR: 9:00 AM - 8:00 PM; FRI: 9:00 AM - 6:00 PM; SAT: 8:00 AM - 2:00 PM; SUN: 8:00 AM - 12:00 PM","<MISSING>","page_url"
"https://www.golftec.com/golf-lessons/philadelphia/moorestown","Moorestown","<MISSING>","Maple Shade","NJ","8052","United States","1000000058","877-893-0133 x2","<MISSING>","<MISSING>","<MISSING>","https://www.golftec.com","MON: Closed; TUES: 9:00 AM - 8:30 PM; WED: 9:00 AM - 8:30 PM; THUR: 9:00 AM - 8:30 PM; FRI: 9:00 AM - 7:00 PM; SAT: 8:00 AM - 2:00 PM; SUN: 8:00 AM - 2:00 PM","<MISSING>","page_url"
"https://www.golftec.com/golf-lessons/philadelphia/malvern","Malvern","<MISSING>","Malvern","PA","19355","United States","1000000115","877-893-0133 x3","<MISSING>","<MISSING>","<MISSING>","https://www.golftec.com","MON: 11:00 AM - 8:00 PM; TUES: 9:00 AM - 9:00 PM; WED: 9:00 AM - 9:00 PM; THUR: 9:00 AM - 8:00 PM; FRI: 9:00 AM - 8:00 PM; SAT: 8:00 AM - 2:00 PM; SUN: 8:00 AM - 4:00 PM","<MISSING>","page_url"
"https://www.golftec.com/golf-lessons/philadelphia/willow-grove","Willow Grove","<MISSING>","Willow Grove","PA","19090","United States","1000000130","877-893-0133 x1","<MISSING>","<MISSING>","<MISSING>","https://www.golftec.com","MON: 8:00 AM - 8:00 PM; TUES: 8:00 AM - 8:00 PM; WED: 8:00 AM - 8:00 PM; THUR: 8:00 AM - 8:00 PM; FRI: 8:00 AM - 7:00 PM; SAT: 7:00 AM - 4:00 PM; SUN: 8:00 AM - 3:00 PM","<MISSING>","page_url"
"https://www.golftec.com/golf-lessons/new-jersey/east-brunswick","East Brunswick","<MISSING>","East Brunswick","NJ","8816","United States","1000000122","732-238-1419","<MISSING>","<MISSING>","<MISSING>","https://www.golftec.com","MON: 8:00 AM - 9:00 PM; TUES: 8:00 AM - 9:00 PM; WED: 8:00 AM - 9:00 PM; THUR: 8:00 AM - 9:00 PM; FRI: 8:00 AM - 8:00 PM; SAT: 8:00 AM - 5:00 PM; SUN: 8:00 AM - 5:00 PM","<MISSING>","page_url"
"https://www.golftec.com/golf-lessons/allentown/lehigh-valley","Lehigh Valley","<MISSING>","Allentown","PA","18109","United States","1000000144","610-426-0165","<MISSING>","<MISSING>","<MISSING>","https://www.golftec.com","MON: 8:00 AM - 8:00 PM; TUES: 8:00 AM - 8:00 PM; WED: 8:00 AM - 8:00 PM; THUR: 8:00 AM - 8:00 PM; FRI: 8:00 AM - 7:00 PM; SAT: 8:00 AM - 5:00 PM; SUN: 8:00 AM - 4:00 PM","<MISSING>","page_url"
"https://www.golftec.com/golf-lessons/new-jersey/woodbridge","Woodbridge","<MISSING>","Metuchen","NJ","8840","United States","1000000214","732-730-5406","<MISSING>","<MISSING>","<MISSING>","https://www.golftec.com","MON: 8:00 AM - 9:00 PM; TUES: 6:00 AM - 9:00 PM; WED: 8:00 AM - 9:00 PM; THUR: 7:00 AM - 9:00 PM; FRI: 6:00 AM - 8:00 PM; SAT: 7:00 AM - 5:00 PM; SUN: 8:00 AM - 5:00 PM","<MISSING>","page_url"
"https://www.golftec.com/en-ca/golf-lessons/toronto/whitby","Whitby","Inside Golf Town Inside Golf Town","Whitby","ON","L1N 9W4","Canada","1000000276","905-579-8767","<MISSING>","<MISSING>","<MISSING>","https://www.golftec.com","MON: 11:00 AM - 7:00 PM; TUES: 10:00 AM - 9:00 PM; WED: 10:00 AM - 9:00 PM; THUR: 10:00 AM - 9:00 PM; FRI: 10:00 AM - 6:00 PM; SAT: 10:00 AM - 5:00 PM; SUN: 10:00 AM - 5:00 PM","<MISSING>","page_url"
"https://www.golftec.com/en-ca/golf-lessons/quebec/st-hubert","St-Hubert","COMING SOON COMING SOON","Saint-Hubert","QC","J3Y 5K2","Canada","1000000312","<MISSING>","<MISSING>","<MISSING>","<MISSING>","https://www.golftec.com","<MISSING>","<MISSING>","page_url"
"https://www.golftec.com/golf-lessons/boston/danvers","Danvers","<MISSING>","Peabody","MA","1960","United States","1000000154","978-777-2930","<MISSING>","<MISSING>","<MISSING>","https://www.golftec.com","MON: 8:00 AM - 8:00 PM; TUES: 9:00 AM - 8:00 PM; WED: 8:00 AM - 8:00 PM; THUR: 9:00 AM - 8:00 PM; FRI: 9:00 AM - 8:00 PM; SAT: 9:00 AM - 4:00 PM; SUN: 9:00 AM - 4:00 PM","<MISSING>","page_url"
"https://www.golftec.com/golf-lessons/boston/needham","Needham","<MISSING>","Needham Heights","MA","2494","United States","1000000114","781-449-8222","<MISSING>","<MISSING>","<MISSING>","https://www.golftec.com","MON: 9:00 AM - 8:00 PM; TUES: 9:00 AM - 8:00 PM; WED: 9:00 AM - 8:00 PM; THUR: 9:00 AM - 8:00 PM; FRI: 9:00 AM - 7:00 PM; SAT: 9:00 AM - 5:00 PM; SUN: 9:00 AM - 5:00 PM","<MISSING>","page_url"
"https://www.golftec.com/en-ca/golf-lessons/ottawa/ottawa-ca","Ottawa","<MISSING>","Ottawa","ON","K1B 4T7","Canada","1000000245","613-695-0234","<MISSING>","<MISSING>","<MISSING>","https://www.golftec.com","MON: 9:00 AM - 9:00 PM; TUES: 9:00 AM - 9:00 PM; WED: 8:00 AM - 9:00 PM; THUR: 8:00 AM - 9:00 PM; FRI: 8:00 AM - 6:00 PM; SAT: 8:00 AM - 4:00 PM; SUN: 8:00 AM - 4:00 PM","<MISSING>","page_url"
"https://www.golftec.com/en-ca/golf-lessons/ottawa/kanata","Kanata","Inside Golf Town Inside Golf Town","Kanata","ON","K2T 1K5","Canada","1000000307","613-595-1799","<MISSING>","<MISSING>","<MISSING>","https://www.golftec.com","MON: 10:00 AM - 5:00 PM; TUES: 10:00 AM - 5:00 PM; WED: 10:00 AM - 5:00 PM; THUR: 10:00 AM - 5:00 PM; FRI: 10:00 AM - 5:00 PM; SAT: 10:00 AM - 5:00 PM; SUN: 10:00 AM - 5:00 PM","<MISSING>","page_url"
"https://www.golftec.com/golf-lessons/rhode-island","Rhode Island","<MISSING>","Cranston","RI","2920","United States","1000000172","401-649-4653","<MISSING>","<MISSING>","<MISSING>","https://www.golftec.com","MON: 9:00 AM - 8:00 PM; TUES: 8:00 AM - 8:00 PM; WED: 8:00 AM - 8:00 PM; THUR: 8:00 AM - 8:00 PM; FRI: 8:00 AM - 7:00 PM; SAT: 9:00 AM - 5:00 PM; SUN: 9:00 AM - 5:00 PM","<MISSING>","page_url"
"https://www.golftec.com/golf-lessons/west-hartford","West Hartford","<MISSING>","West Hartford","CT","6110","United States","1000000272","860-222-2299","<MISSING>","<MISSING>","<MISSING>","https://www.golftec.com","MON: 8:00 AM - 8:00 PM; TUES: 8:00 AM - 8:00 PM; WED: 8:00 AM - 8:00 PM; THUR: 8:00 AM - 8:00 PM; FRI: 8:00 AM - 6:00 PM; SAT: 9:00 AM - 5:00 PM; SUN: 9:00 AM - 5:00 PM","<MISSING>","page_url"
"https://www.golftec.com/golf-lessons/fairfield-county/westport","Westport","<MISSING>","Westport","CT","06880","United States","1000000306","475-666-5754","<MISSING>","<MISSING>","<MISSING>","https://www.golftec.com","MON: 8:00 AM - 8:00 PM; TUES: 8:00 AM - 9:00 PM; WED: 8:00 AM - 9:00 PM; THUR: 8:00 AM - 9:00 PM; FRI: 8:00 AM - 7:00 PM; SAT: 8:00 AM - 5:00 PM; SUN: 8:00 AM - 5:00 PM","<MISSING>","page_url"
"https://www.golftec.com/golf-lessons/new-york/lake-grove","Lake Grove","<MISSING>","Centereach","NY","11720","United States","1000000128","631-737-1570","<MISSING>","<MISSING>","<MISSING>","https://www.golftec.com","MON: 8:00 AM - 8:00 PM; TUES: 8:00 AM - 8:00 PM; WED: 8:00 AM - 8:00 PM; THUR: 8:00 AM - 8:00 PM; FRI: 8:00 AM - 8:00 PM; SAT: 8:00 AM - 4:00 PM; SUN: 8:00 AM - 4:00 PM","<MISSING>","page_url"
"https://www.golftec.com/golf-lessons/fairfield-county/stamford","Stamford","<MISSING>","Stamford","CT","06902","United States","1000000309","203-989-2706","<MISSING>","<MISSING>","<MISSING>","https://www.golftec.com","MON: 8:00 AM - 8:00 PM; TUES: 8:00 AM - 7:00 PM; WED: 8:00 AM - 8:00 PM; THUR: 8:00 AM - 8:00 PM; FRI: 8:00 AM - 6:00 PM; SAT: 8:00 AM - 5:00 PM; SUN: 8:00 AM - 3:00 PM","<MISSING>","page_url"
"https://www.golftec.com/golf-lessons/westchester/white-plains","White Plains","<MISSING>","White Plains","NY","10601","United States","1000000143","914-397-4820","<MISSING>","<MISSING>","<MISSING>","https://www.golftec.com","MON: 9:00 AM - 8:00 PM; TUES: 9:00 AM - 8:00 PM; WED: 9:00 AM - 8:00 PM; THUR: 9:00 AM - 8:00 PM; FRI: 9:00 AM - 8:00 PM; SAT: 8:00 AM - 5:00 PM; SUN: 9:00 AM - 6:00 PM","<MISSING>","page_url"
"https://www.golftec.com/golf-lessons/new-york/carle-place","Carle Place","<MISSING>","Carle Place","NY","11514","United States","1000000166","516-248-4653","<MISSING>","<MISSING>","<MISSING>","https://www.golftec.com","MON: 7:00 AM - 9:00 PM; TUES: 7:00 AM - 10:00 PM; WED: 7:00 AM - 10:00 PM; THUR: 7:00 AM - 10:00 PM; FRI: 7:00 AM - 7:30 PM; SAT: 7:00 AM - 6:00 PM; SUN: 7:00 AM - 5:00 PM","<MISSING>","page_url"
"https://www.golftec.com/golf-lessons/new-jersey/englewood","Englewood","<MISSING>","Englewood","NJ","7631","United States","1000000155","201-567-0103","<MISSING>","<MISSING>","<MISSING>","https://www.golftec.com","MON: 7:00 AM - 9:00 PM; TUES: 7:00 AM - 9:00 PM; WED: 7:00 AM - 9:00 PM; THUR: 7:00 AM - 9:00 PM; FRI: 7:00 AM - 9:00 PM; SAT: 7:00 AM - 6:00 PM; SUN: 7:00 AM - 5:00 PM","<MISSING>","page_url"
"https://www.golftec.com/golf-lessons/new-jersey/east-hanover","East Hanover","<MISSING>","East Hanover","NJ","7936","United States","1000000067","973-599-1993","<MISSING>","<MISSING>","<MISSING>","https://www.golftec.com","MON: 10:00 AM - 9:00 PM; TUES: 8:00 AM - 9:00 PM; WED: 8:00 AM - 9:00 PM; THUR: 8:00 AM - 9:00 PM; FRI: 8:00 AM - 5:00 PM; SAT: 7:00 AM - 4:00 PM; SUN: 7:00 AM - 4:00 PM","<MISSING>","page_url"
"https://www.golftec.com/golf-lessons/rochester","Rochester","<MISSING>","Rochester","NY","14618","United States","1000000104","585-586-3090","<MISSING>","<MISSING>","<MISSING>","https://www.golftec.com","MON: 8:00 AM - 5:00 PM; TUES: 8:00 AM - 7:00 PM; WED: 8:00 AM - 7:00 PM; THUR: 8:00 AM - 7:00 PM; FRI: 8:00 AM - 7:00 PM; SAT: 9:00 AM - 2:00 PM; SUN: 9:00 AM - 2:00 PM","<MISSING>","page_url"
