"locator_domain","location_name","street_address","city","state","zip","country_code","store_number","phone","location_type","latitude","longitude","hours_of_operation","page_url"
"https://www.aspirus.org","Aspirus Care & Rehab","135 South Gibson Street","Medford","WI","54451","US","12","715-748-8875","Adult Living & Care Facilities","45.1359852","-90.3546447","Monday - Friday 8 am - 4:30 pm","https://www.aspirus.org/find-a-location/aspirus-care-rehab-12"
"https://www.aspirus.org","Aspirus Cedar Lane Assisted Living Apartments - CBRF","135 South Gibson Street","Medford","WI","54451","US","390","715-748-8875","Adult Living & Care Facilities","45.1359852","-90.3546447","Monday - Friday 8 am - 4:30 pm","https://www.aspirus.org/find-a-location/aspirus-cedar-lane-assisted-living-apartments-cbrf-390"
"https://www.aspirus.org","Aspirus Country Gardens Assisted Living Complex - RCAC","635 Cedar Street","Medford","WI","54451","US","391","715-748-8875","Adult Living & Care Facilities","45.1356145","-90.3560467","Monday - Friday 8 am - 4:30 pm","https://www.aspirus.org/find-a-location/aspirus-country-gardens-assisted-living-complex-rc-391"
"https://www.aspirus.org","Aspirus Long Term Care","601 7th Avenue","Ontonagon","MI","49953","US","394","906-884-8000","Adult Living & Care Facilities","46.8658501","-89.3031305","<MISSING>","https://www.aspirus.org/find-a-location/aspirus-long-term-care-394"
"https://www.aspirus.org","Aspirus Pleasant View - Skilled Nursing Facility","595 Peterson Drive","Phillips","WI","54555","US","13","715-339-3113","Adult Living & Care Facilities","45.6828694","-90.3892994","Monday-Friday 8 am - 4:30 pm","https://www.aspirus.org/find-a-location/aspirus-pleasant-view-skilled-nursing-facility-13"
"https://www.aspirus.org","Pine Meadow - Apartment Complex","525 Flight Road","Antigo","WI","54409","US","389","715-627-4403","Adult Living & Care Facilities","45.1466729","-89.1247946","Monday - Friday 8:00 am - 3:00 pm","https://www.aspirus.org/find-a-location/pine-meadow-apartment-complex-389"
"https://www.aspirus.org","Rosalia Gardens - CBRF","519 Flight Road","Antigo","WI","54409","US","393","715-627-2613","Adult Living & Care Facilities","45.1473484","-89.134464","Monday - Friday 8:00 am - 4:00 pm Nursing Staff  Everyday 24/7","https://www.aspirus.org/find-a-location/rosalia-gardens-cbrf-393"
"https://www.aspirus.org","Birthing Center at Aspirus Ironwood Hospital","N10561 Grand View Lane","Ironwood","MI","49938","US","15","906-932-2525","Birthing Centers","46.4782891","-90.1057004","<MISSING>","https://www.aspirus.org/find-a-location/birthing-center-at-aspirus-ironwood-hospital-15"
"https://www.aspirus.org","Birthing Center at Aspirus Langlade Hospital","112 East Fifth Avenue","Antigo","WI","54409","US","16","715-623-9280","Birthing Centers","45.1416889","-89.1396133","Monday - Sunday 24 hours","https://www.aspirus.org/find-a-location/birthing-center-at-aspirus-langlade-hospital-16"
"https://www.aspirus.org","Birthing Center at Aspirus Medford Hospital","135 South Gibson Street","Medford","WI","54451","US","17","715-748-8156","Birthing Centers","45.1359852","-90.3546447","Monday-Sunday 24 hours","https://www.aspirus.org/find-a-location/birthing-center-at-aspirus-medford-hospital-17"
"https://www.aspirus.org","Birthing Center at Aspirus Wausau Hospital","333 Pine Ridge Boulevard","Wausau","WI","54401","US","20","715-847-2911","Birthing Centers","44.965982","-89.6677559","Daily 11 am to 8:30 pm","https://www.aspirus.org/find-a-location/birthing-center-at-aspirus-wausau-hospital-20"
"https://www.aspirus.org","Family Birthplace at Aspirus Riverview Hospital","410 Dewey Street","Wisconsin Rapids","WI","54494","US","18","715-421-7452","Birthing Centers","44.3817769","-89.8304877","Daily 10 am-8 pm","https://www.aspirus.org/find-a-location/family-birthplace-at-aspirus-riverview-hospital-18"
"https://www.aspirus.org","The Birth Place at Aspirus Keweenaw Hospital","205 Osceola St","Laurium","MI","49913","US","19","906-337-6538","Birthing Centers","47.2386551","-88.4434902","<MISSING>","https://www.aspirus.org/find-a-location/the-birth-place-at-aspirus-keweenaw-hospital-19"
"https://www.aspirus.org","Absolute Health Chiropractic","503 South Cherry Avenue","Marshfield","WI","54449","US","55","715-389-1262","Chiropractors","44.6614179","-90.1720763","<MISSING>","https://www.aspirus.org/find-a-location/absolute-health-chiropractic-55"
"https://www.aspirus.org","Active Family Chiropractic","3124 Rib Mountain Drive","Wausau","WI","54401","US","471","715-848-9355","Chiropractors","44.9313374","-89.6571055","<MISSING>","https://www.aspirus.org/find-a-location/active-family-chiropractic-471"
"https://www.aspirus.org","Advanced Chiropractic - Marshfield","1027 McMillen Street","Marshfield","WI","54449","US","56","715-898-1040","Chiropractors","44.685571","-90.188666","<MISSING>","https://www.aspirus.org/find-a-location/advanced-chiropractic-marshfield-56"
"https://www.aspirus.org","Advanced Chiropractic - Neillsville","522 East Hewett Street","Neillsville","WI","54456","US","57","715-743-3600","Chiropractors","44.560318","-90.5965335","<MISSING>","https://www.aspirus.org/find-a-location/advanced-chiropractic-neillsville-57"
"https://www.aspirus.org","Advanced Chiropractic - Wisconsin Rapids","440 Chestnut Street","Wisconsin Rapids","WI","54494","US","477","715-423-6334","Chiropractors","44.3836182","-89.8252964","<MISSING>","https://www.aspirus.org/find-a-location/advanced-chiropractic-wisconsin-rapids-477"
"https://www.aspirus.org","Allied Health Chiropractic Centers","1105 4th Avenue","Woodruff","WI","54548","US","58","715-356-1606","Chiropractors","45.892819","-89.6967551","<MISSING>","https://www.aspirus.org/find-a-location/allied-health-chiropractic-centers-58"
"https://www.aspirus.org","Apprill Family Chiropractic, S.C.","3207 East Main Street","Merrill","WI","54452","US","59","715-536-9668","Chiropractors","45.1775597","-89.6563083","<MISSING>","https://www.aspirus.org/find-a-location/apprill-family-chiropractic-sc-59"
"https://www.aspirus.org","Barr Chiropractic, Inc.","1404 North Stevens Street","Rhinelander","WI","54501","US","60","715-362-6505","Chiropractors","45.6533127","-89.4014594","<MISSING>","https://www.aspirus.org/find-a-location/barr-chiropractic-inc-60"
"https://www.aspirus.org","Bautch Chiropractic - Stewart Ave.","3540 West Stewart Avenue","Wausau","WI","54401","US","61","715-842-3999","Chiropractors","44.955606","-89.680714","<MISSING>","https://www.aspirus.org/find-a-location/bautch-chiropractic-stewart-ave-61"
"https://www.aspirus.org","Bautch Chiropractic East","1915 N. 6th Street","Wausau","WI","54403","US","62","715-842-3999","Chiropractors","44.9726347","-89.6231783","<MISSING>","https://www.aspirus.org/find-a-location/bautch-chiropractic-east-62"
"https://www.aspirus.org","Borealis Wellness Clinic, LLC","601 East Spruce Street","Abbotsford","WI","54405","US","72","715-223-6308","Chiropractors","44.9454768","-90.3135383","<MISSING>","https://www.aspirus.org/find-a-location/borealis-wellness-clinic-llc-72"
"https://www.aspirus.org","Borealis Wellness Clinic, LLC","115 E Perkins","Medford","WI","54451","US","441","715-748-4433","Chiropractors","45.1348537","-90.3420166","<MISSING>","https://www.aspirus.org/find-a-location/borealis-wellness-clinic-llc-441"
"https://www.aspirus.org","Bowman Chiropractic S.C.","417 North 4th Street","Tomahawk","WI","54487","US","85","715-453-2515","Chiropractors","45.4756869","-89.7294616","<MISSING>","https://www.aspirus.org/find-a-location/bowman-chiropractic-sc-85"
"https://www.aspirus.org","Bradley Chiropractic & Physical Therapy","2003 Robin Lane","Wausau","WI","54401","US","479","715-845-3775","Chiropractors","44.9304168","-89.661231","<MISSING>","https://www.aspirus.org/find-a-location/bradley-chiropractic-physical-therapy-479"
"https://www.aspirus.org","Brost Chiropractic","115 E Perkins St.","Medford","WI","54451","US","63","715-748-4343","Chiropractors","45.1348537","-90.3420166","<MISSING>","https://www.aspirus.org/find-a-location/brost-chiropractic-63"
"https://www.aspirus.org","Chiropractic Health Services, S.C.","500 Birch Street","Park Falls","WI","54552","US","64","715-762-2950","Chiropractors","45.934349","-90.4440313","<MISSING>","https://www.aspirus.org/find-a-location/chiropractic-health-services-sc-64"
"https://www.aspirus.org","Chiropractic Health Services, S.C. - 9th St","400 North 9th Street","Park Falls","WI","54552","US","462","715-453-2515","Chiropractors","45.9457689","-90.4542356","<MISSING>","https://www.aspirus.org/find-a-location/chiropractic-health-services-sc-9th-st-462"
"https://www.aspirus.org","Chiropractic Health Services, S.C. - Sherry Ave","98 Sherry Avenue","Park Falls","WI","54552","US","463","715-762-2950","Chiropractors","45.9306149","-90.4416186","<MISSING>","https://www.aspirus.org/find-a-location/chiropractic-health-services-sc-sherry-ave-463"
"https://www.aspirus.org","Compass Chiropractic and Wellness","1225 Main Street","Stevens Point","WI","54481","US","65","715-344-2990","Chiropractors","44.523284","-89.5820689","<MISSING>","https://www.aspirus.org/find-a-location/compass-chiropractic-and-wellness-65"
"https://www.aspirus.org","Cook Family Chiropractic","410 Daly Ave","Wisconsin Rapids","WI","54494","US","66","715-423-5050","Chiropractors","44.3800808","-89.829541","<MISSING>","https://www.aspirus.org/find-a-location/cook-family-chiropractic-66"
"https://www.aspirus.org","Cornerstone Chiropractic & Wellness","2006 Progress Blvd","Antigo","WI","54409","US","67","715-623-5481","Chiropractors","45.1595015","-89.151679","<MISSING>","https://www.aspirus.org/find-a-location/cornerstone-chiropractic-wellness-67"
"https://www.aspirus.org","Correction Creek Chiropractic Centre, LLC","1260 S. 8th St.","Medford","WI","54451","US","68","715-748-6969","Chiropractors","45.1250992","-90.3315232","<MISSING>","https://www.aspirus.org/find-a-location/correction-creek-chiropractic-centre-llc-68"
"https://www.aspirus.org","Dewane D Frase, DC, SC","N9691 Hwy 13 North","Phillips","WI","54555","US","464","715-339-2052","Chiropractors","45.7219866","-90.4303989","<MISSING>","https://www.aspirus.org/find-a-location/dewane-d-frase-dc-sc-464"
"https://www.aspirus.org","Dragt Chiropractic","202 E. Upham Street","Marshfield","WI","54449","US","70","715-384-9050","Chiropractors","44.6802846","-90.1611036","<MISSING>","https://www.aspirus.org/find-a-location/dragt-chiropractic-70"
"https://www.aspirus.org","Ford Chiropractic","3108 Church Street","Stevens Point","WI","54481","US","71","715-341-0910","Chiropractors","44.5056978","-89.5680009","<MISSING>","https://www.aspirus.org/find-a-location/ford-chiropractic-71"
"https://www.aspirus.org","Galen Scharer Chiropractic Clinic, S.C.","107 South Harding St","Owen","WI","54460","US","73","715-229-2113","Chiropractors","44.9478136","-90.5690048","<MISSING>","https://www.aspirus.org/find-a-location/galen-scharer-chiropractic-clinic-sc-73"
"https://www.aspirus.org","Goldsworthy Chiropractic","941 Century Avenue","Antigo","WI","54409","US","74","715-623-7141","Chiropractors","45.1619837","-89.15519","<MISSING>","https://www.aspirus.org/find-a-location/goldsworthy-chiropractic-74"
"https://www.aspirus.org","Gress Chiropractic Clinic, LLC","109A South Center Ave","Merrill","WI","54452","US","75","715-539-9797","Chiropractors","45.180841","-89.683105","<MISSING>","https://www.aspirus.org/find-a-location/gress-chiropractic-clinic-llc-75"
"https://www.aspirus.org","Hansen Chiropractic, Inc. - Athens","317 Washington Street","Athens","WI","54411","US","76","715-257-7331","Chiropractors","45.0338253","-90.0807949","<MISSING>","https://www.aspirus.org/find-a-location/hansen-chiropractic-inc-athens-76"
"https://www.aspirus.org","Hansen Chiropractic, Inc. - Wausau","3303C Terrace Court","Wausau","WI","54401","US","77","715-845-1331","Chiropractors","44.956377","-89.67728","<MISSING>","https://www.aspirus.org/find-a-location/hansen-chiropractic-inc-wausau-77"
"https://www.aspirus.org","Hometown Chiropractic Center","5829 Birch Lane","Rhinelander","WI","54501","US","78","715-365-1200","Chiropractors","45.6439834","-89.4508791","<MISSING>","https://www.aspirus.org/find-a-location/hometown-chiropractic-center-78"
"https://www.aspirus.org","Innovative Health, LLC","2114 Schofield Ave","Schofield","WI","54476","US","265","715-355-4224","Chiropractors","44.9097956","-89.5964766","<MISSING>","https://www.aspirus.org/find-a-location/innovative-health-llc-265"
"https://www.aspirus.org","Joint & Spine","2327 Neva Road","Antigo","WI","54409","US","69","715-623-2123","Chiropractors","45.1641546","-89.147589","<MISSING>","https://www.aspirus.org/find-a-location/joint-spine-69"
"https://www.aspirus.org","Long Chiropractic Center, SC","406 S Howard Street","Wittenberg","WI","54499","US","79","715-253-2239","Chiropractors","44.8241552","-89.1684606","<MISSING>","https://www.aspirus.org/find-a-location/long-chiropractic-center-sc-79"
"https://www.aspirus.org","Marathon Chiropractic Office","703 3rd St","Marathon","WI","54448","US","80","715-443-3224","Chiropractors","44.931246","-89.8416869","<MISSING>","https://www.aspirus.org/find-a-location/marathon-chiropractic-office-80"
"https://www.aspirus.org","Marks Chiropractic","117 Main Street","Marathon","WI","54448","US","81","715-443-6777","Chiropractors","44.9332145","-89.8405895","<MISSING>","https://www.aspirus.org/find-a-location/marks-chiropractic-81"
"https://www.aspirus.org","Mosinee Family Chiropractic, Inc.","107 Maple Street","Mosinee","WI","54455","US","82","715-693-4144","Chiropractors","44.7883801","-89.725634","<MISSING>","https://www.aspirus.org/find-a-location/mosinee-family-chiropractic-inc-82"
"https://www.aspirus.org","North Country Chiropractic and Wellness, LLC","103 Elm Street","Woodruff","WI","54568","US","83","715-358-6650","Chiropractors","45.8912623","-89.7018331","<MISSING>","https://www.aspirus.org/find-a-location/north-country-chiropractic-and-wellness-llc-83"
"https://www.aspirus.org","NorthLakes Community Clinic","210 5th Avenue N","Hurley","WI","54534","US","484","715-329-1288","Chiropractors","46.451865","-90.1865817","<MISSING>","https://www.aspirus.org/find-a-location/northlakes-community-clinic-484"
"https://www.aspirus.org","Poland Chiropractic, Inc.","228 North 3rd Avenue","Wausau","WI","54401","US","84","715-845-6722","Chiropractors","44.9655066","-89.6396172","<MISSING>","https://www.aspirus.org/find-a-location/poland-chiropractic-inc-84"
"https://www.aspirus.org","Sandquist Chiropractic, Inc.","1202 Grand Avenue","Wausau","WI","54403","US","86","715-842-7711","Chiropractors","44.9460308","-89.6211367","<MISSING>","https://www.aspirus.org/find-a-location/sandquist-chiropractic-inc-86"
"https://www.aspirus.org","Stoiber Chiropractic","710 East Grand Avenue","Wisconsin Rapids","WI","54494","US","87","715-424-8000","Chiropractors","44.3880178","-89.8180685","<MISSING>","https://www.aspirus.org/find-a-location/stoiber-chiropractic-87"
"https://www.aspirus.org","Thorp Family Chiropractic","110 N. Washington St.","Thorp","WI","54771","US","88","715-669-3361","Chiropractors","44.9597325","-90.7999051","<MISSING>","https://www.aspirus.org/find-a-location/thorp-family-chiropractic-88"
"https://www.aspirus.org","Verkuilen Family Chiropractic","1401 E Elizabeth Street","Shawano","WI","54166","US","89","715-524-6720","Chiropractors","44.772976","-88.5907307","<MISSING>","https://www.aspirus.org/find-a-location/verkuilen-family-chiropractic-89"
"https://www.aspirus.org","Wausau Community Chiropractic","605 S 24th Ave","Wausau","WI","54401","US","480","715-302-1123","Chiropractors","44.9559927","-89.6642075","<MISSING>","https://www.aspirus.org/find-a-location/wausau-community-chiropractic-480"
"https://www.aspirus.org","Wellness Within Chiropractic","317 Cedar Street","Nekoosa","WI","54457","US","90","715-886-5330","Chiropractors","44.311585","-89.908946","<MISSING>","https://www.aspirus.org/find-a-location/wellness-within-chiropractic-90"
"https://www.aspirus.org","Wildberg Chiropractic Office, S.C.","805 West Broadway","Medford","WI","54451","US","91","715-748-2334","Chiropractors","45.1401903","-90.3599838","<MISSING>","https://www.aspirus.org/find-a-location/wildberg-chiropractic-office-sc-91"
"https://www.aspirus.org","Zueger, Victoria A., D.C., S.C.","710 E Grand Avenue","Wisconsin Rapids","WI","54494","US","92","715-424-8000","Chiropractors","44.3880178","-89.8180685","<MISSING>","https://www.aspirus.org/find-a-location/zueger-victoria-a-dc-sc-92"
"https://www.aspirus.org","Aspirus Antigo Clinic","112 East 5th Avenue","Antigo","WI","54409","US","287","715-623-2351","Clinics - Primary Care","45.1416889","-89.1396133","Monday-Friday 8 am - 5 pm","https://www.aspirus.org/find-a-location/aspirus-antigo-clinic-287"
"https://www.aspirus.org","Aspirus Athens Clinic","729 Pine Street","Athens","WI","54411","US","53","715-257-1687","Clinics - Primary Care","45.0287229","-90.079465","Monday-Friday 8 am - 5 pm   Monday-Friday 8:30 am - 5 pm","https://www.aspirus.org/find-a-location/aspirus-athens-clinic-53"
"https://www.aspirus.org","Aspirus Birnamwood Clinic","375 Main Street","Birnamwood","WI","54414","US","178","715-449-2539","Clinics - Primary Care","44.9305979","-89.2093835","Monday-Friday 8 am - 5 pm","https://www.aspirus.org/find-a-location/aspirus-birnamwood-clinic-178"
"https://www.aspirus.org","Aspirus Bruce Crossing Clinic","13833 U.S. Highway 45","Bruce Crossing","ET","49912","US","54","906-827-3201","Clinics - Primary Care","46.535465","-89.1786352","Monday - Friday 8:30 am - 5 pm","https://www.aspirus.org/find-a-location/aspirus-bruce-crossing-clinic-54"
"https://www.aspirus.org","Aspirus Clinic at Sentry Insurance","1800 N Point Drive","Stevens Point","WI","54481","US","445","715-346-8126","Clinics - Primary Care","44.5429945","-89.5722367","Monday, Tuesday, Thursday 7:30 am - 2:00 pm Wednesday Noon - 2:00 pm Friday 8:00 am - 2:00 pm","https://www.aspirus.org/find-a-location/aspirus-clinic-at-sentry-insurance-445"
"https://www.aspirus.org","Aspirus Crystal Falls Clinic","1328 US-2","Crystal Falls","MI","49920","US","11","906-875-4486","Clinics - Primary Care","46.0976759","-88.3507906","Monday, Wednesday, Thursday, Friday 8 am - 4:30 pm Tuesday 8 am - 6:30 pm Rehab Services Monday-Friday 7 am - 3:30 pm Imaging Monday-Friday 8 am-4:30 pm","https://www.aspirus.org/find-a-location/aspirus-crystal-falls-clinic-11"
"https://www.aspirus.org","Aspirus Doctors Clinic","2031 Peach Street","Wisconsin Rapids","WI","54494","US","3","715-423-0122","Clinics - Primary Care","44.3875907","-89.8005159","Monday-Friday 8 am - 5 pm","https://www.aspirus.org/find-a-location/aspirus-doctors-clinic-3"
"https://www.aspirus.org","Aspirus Edgar Clinic","103 South 3rd  Avenue","Edgar","WI","54426","US","179","715-352-2333","Clinics - Primary Care","44.923254","-89.963696","Monday, Tuesday, Wednesday, Friday 8 am - 5 pm Thursday 8 am - Noon","https://www.aspirus.org/find-a-location/aspirus-edgar-clinic-179"
"https://www.aspirus.org","Aspirus Elcho Clinic","W10618 Clinic Street","Elcho","WI","54428","US","289","715-275-4011","Clinics - Primary Care","45.4333351","-89.1846472","Monday-Friday 8 am - 5 pm","https://www.aspirus.org/find-a-location/aspirus-elcho-clinic-289"
"https://www.aspirus.org","Aspirus Family Health Specialists","2720 Plaza Drive","Wausau","WI","54401","US","180","715-847-2630","Clinics - Primary Care","44.964351","-89.6676823","Monday-Friday 8 am - 5 pm","https://www.aspirus.org/find-a-location/aspirus-family-health-specialists-180"
"https://www.aspirus.org","Aspirus Family Physicians","212 Sturgeon Eddy Road","Wausau","WI","54403","US","181","715-842-0491","Clinics - Primary Care","44.9432073","-89.622038","Monday 7 am - 5 pm Tuesday, Thursday, Friday 6:45 am - 5 pm Wednesday 6:45 am - 6 pm","https://www.aspirus.org/find-a-location/aspirus-family-physicians-181"
"https://www.aspirus.org","Aspirus Gilman Clinic","320 East Main Street","Gilman","WI","54433","US","174","715-447-8293","Clinics - Primary Care","45.1665529","-90.8103472","Monday-Friday 8 am - 5 pm   Monday-Friday 8:30 am - 5 pm","https://www.aspirus.org/find-a-location/aspirus-gilman-clinic-174"
"https://www.aspirus.org","Aspirus Houghton Clinic","Aspirus Houghton Clinic 1000 Cedar Street","Houghton","MI","49931","US","27","906-487-1710","Clinics - Primary Care","47.1059512","-88.5851946","Monday 8 am - 7 pm Tuesday - Thursday 7 am - 7pm Friday 7 am - 5 pm Saturday 9 am - 1 pm","https://www.aspirus.org/find-a-location/aspirus-houghton-clinic-27"
"https://www.aspirus.org","Aspirus Hurley Clinic","501 Granite Street","Hurley","WI","54534","US","7","715-561-2255","Clinics - Primary Care","46.4493318","-90.1863612","Monday-Friday 8 am - 5 pm","https://www.aspirus.org/find-a-location/aspirus-hurley-clinic-7"
"https://www.aspirus.org","Aspirus Iron River Clinic","814 South Ice Lake Road","Iron River","MI","49935","US","40","906-265-0499","Clinics - Primary Care","46.0978983","-88.6167404","Monday - Friday 7:30 am - 5:00 pm","https://www.aspirus.org/find-a-location/aspirus-iron-river-clinic-40"
"https://www.aspirus.org","Aspirus Ironwood Clinic","N10565 Grand View Lane","Ironwood","MI","49938","US","284","906-932-1500","Clinics - Primary Care","46.4807284","-90.1066395","Monday-Friday 8 am - 5 pm","https://www.aspirus.org/find-a-location/aspirus-ironwood-clinic-284"
"https://www.aspirus.org","Aspirus Keweenaw Laurium Clinic","205 Osceola Street","Laurium","MI","49913","US","286","906-337-6560","Clinics - Primary Care","47.2386551","-88.4434902","Monday-Friday 8 am - 7 pm","https://www.aspirus.org/find-a-location/aspirus-keweenaw-laurium-clinic-286"
"https://www.aspirus.org","Aspirus Kronenwetter Clinic","1881 County Road XX","Mosinee","WI","54455","US","182","715-355-4040","Clinics - Primary Care","44.857781","-89.620136","Monday-Friday 8 am - 5 pm","https://www.aspirus.org/find-a-location/aspirus-kronenwetter-clinic-182"
"https://www.aspirus.org","Aspirus Lake Linden Clinic","110 Calumet St","Lake Linden","MI","49945","US","114","906-296-5040","Clinics - Primary Care","47.189326","-88.4104076","Monday-Friday 8 am - 5 pm","https://www.aspirus.org/find-a-location/aspirus-lake-linden-clinic-114"
"https://www.aspirus.org","Aspirus Land O'Lakes Clinic","4348 Highway B","Land O'Lakes","WI","54540","US","183","715-547-6118","Clinics - Primary Care","46.1610104","-89.2243286","Monday-Tuesday 8 am - 5:00 pm Wednesday: Closed Thursday-Friday 8 am - 5:00 pm","https://www.aspirus.org/find-a-location/aspirus-land-olakes-clinic-183"
"https://www.aspirus.org","Aspirus Marathon Clinic","670 Community Circle","Marathon","WI","54448","US","184","715-443-6767","Clinics - Primary Care","44.942989","-89.8426864","Monday - Thursday 7 am - 5 pm Friday 7 am - 4 pm","https://www.aspirus.org/find-a-location/aspirus-marathon-clinic-184"
"https://www.aspirus.org","Aspirus Medford Clinic","143 South Gibson Street","Medford","WI","54451","US","14","715-748-2121","Clinics - Primary Care","45.135747","-90.354031","Monday, Tuesday, Thursday 7 am - 7 pm Wednesday 7:30 am - 7 pm Friday 7:30 am - 5 pm","https://www.aspirus.org/find-a-location/aspirus-medford-clinic-14"
"https://www.aspirus.org","Aspirus Merrill Clinic","3333 East Main Street","Merrill","WI","54452","US","173","715-539-5600","Clinics - Primary Care","45.1769292","-89.6533943","Monday - Friday 8 am - 5 pm","https://www.aspirus.org/find-a-location/aspirus-merrill-clinic-173"
"https://www.aspirus.org","Aspirus OB/GYN Associates","2720 Plaza Drive","Wausau","WI","54401","US","216","715-847-2475","Clinics - Primary Care","44.964351","-89.6676823","Monday-Friday 8:30 am - 5 pm","https://www.aspirus.org/find-a-location/aspirus-obgyn-associates-216"
"https://www.aspirus.org","Aspirus Ontonagon Clinic","601 South 7th Street","Ontonagon","MI","49953","US","113","906-884-8240","Clinics - Primary Care","46.8658501","-89.3031305","Monday-Friday 9 am - 5 pm","https://www.aspirus.org/find-a-location/aspirus-ontonagon-clinic-113"
"https://www.aspirus.org","Aspirus Pediatrics Clinic","2720 Plaza Drive","Wausau","WI","54401","US","52","715-847-2311","Clinics - Primary Care","44.964351","-89.6676823","Monday-Friday 8 am - 5 pm","https://www.aspirus.org/find-a-location/aspirus-pediatrics-clinic-52"
"https://www.aspirus.org","Aspirus Phillips Clinic","625 Peterson Drive","Phillips","WI","54555","US","290","715-339-4035","Clinics - Primary Care","45.682202","-90.389022","Monday-Friday 8 am - 5 pm","https://www.aspirus.org/find-a-location/aspirus-phillips-clinic-290"
"https://www.aspirus.org","Aspirus Prentice Clinic","1511 Railroad Avenue","Prentice","WI","54556","US","291","715-428-2521","Clinics - Primary Care","45.5480898","-90.2878228","Monday-Friday 8 am - 5 pm","https://www.aspirus.org/find-a-location/aspirus-prentice-clinic-291"
"https://www.aspirus.org","Aspirus Rhinelander Clinic","1630 North Chippewa Drive","Rhinelander","WI","54501","US","1","715-361-5480","Clinics - Primary Care","45.6579282","-89.379602","Monday-Friday 8 am - 5 pm","https://www.aspirus.org/find-a-location/aspirus-rhinelander-clinic-1"
"https://www.aspirus.org","Aspirus Rib Lake Clinic","1121 Highway 102","Rib Lake","WI","54470","US","175","715-427-5701","Clinics - Primary Care","45.317791","-90.2059701","Monday-Friday 8 am - 5 pm","https://www.aspirus.org/find-a-location/aspirus-rib-lake-clinic-175"
"https://www.aspirus.org","Aspirus Riverview Clinic Adams","419 N Oak Street","Adams","WI","53910","US","457","608-339-5250","Clinics - Primary Care","43.9640332","-89.8203222","Monday - Thursday 8:00 am - 5:00 pm Friday 8:00 am - Noon","https://www.aspirus.org/find-a-location/aspirus-riverview-clinic-adams-457"
"https://www.aspirus.org","Aspirus Riverview Clinic Nekoosa","1015 Angelus Drive","Nekoosa","WI","54457","US","440","715-886-2100","Clinics - Primary Care","44.3167058","-89.906814","Monday- Friday 8am -  5pm","https://www.aspirus.org/find-a-location/aspirus-riverview-clinic-nekoosa-440"
"https://www.aspirus.org","Aspirus Riverview Clinic Rome","1160 Rome Center Drive","Nekoosa","WI","54457","US","177","715-325-8300","Clinics - Primary Care","44.2004055","-89.8105585","Monday- Friday 8:30am -  5pm","https://www.aspirus.org/find-a-location/aspirus-riverview-clinic-rome-177"
"https://www.aspirus.org","Aspirus Riverview Clinic Wisconsin Rapids","410 Dewey Street","Wisconsin Rapids","WI","54494","US","51","715-421-7474","Clinics - Primary Care","44.3817769","-89.8304877","Monday- Friday 8am -  5pm","https://www.aspirus.org/find-a-location/aspirus-riverview-clinic-wisconsin-rapids-51"
"https://www.aspirus.org","Aspirus Stevens Point Clinic","5409 Vern Holmes Drive","Stevens Point","WI","54482","US","2","715-344-1600","Clinics - Primary Care","44.4989014","-89.5165085","Monday-Friday 8 am - 5 pm Emergency Department Open 24/7","https://www.aspirus.org/find-a-location/aspirus-stevens-point-clinic-2"
"https://www.aspirus.org","Aspirus Three Lakes Clinic","6951 South Michigan Street","Three Lakes","WI","54562","US","185","715-546-2543","Clinics - Primary Care","45.7967125","-89.1734022","Monday - Thursday 8 am - 4 pm","https://www.aspirus.org/find-a-location/aspirus-three-lakes-clinic-185"
"https://www.aspirus.org","Aspirus Wausau Family Medicine","425 Wind Ridge Drive","Wausau","WI","54401","US","186","715-675-3391","Clinics - Primary Care","44.9686703","-89.6609737","Monday-Friday 8:30 am - 5 pm","https://www.aspirus.org/find-a-location/aspirus-wausau-family-medicine-186"
"https://www.aspirus.org","Aspirus Westhill Medical Specialists","2720 Plaza Drive","Wausau","WI","54401","US","229","715-847-2004","Clinics - Primary Care","44.964351","-89.6676823","Monday-Friday 8 am - 5 pm","https://www.aspirus.org/find-a-location/aspirus-westhill-medical-specialists-229"
"https://www.aspirus.org","Aspirus Weston Clinic","4005 Community Center Drive","Weston","WI","54476","US","8","715-241-5400","Clinics - Primary Care","44.8971935","-89.5734466","Mon. - Fri. 7:30 am-5 pm","https://www.aspirus.org/find-a-location/aspirus-weston-clinic-8"
"https://www.aspirus.org","Aspirus Wittenberg Clinic","1660 Sue Alan Drive","Wittenberg","WI","54499","US","187","715-253-2110","Clinics - Primary Care","44.840786","-89.169451","Monday 7:00 am - 6:30 pm Tuesday - Wednesday - Thursday 7:00 am - 4:30 pm Friday CLOSED","https://www.aspirus.org/find-a-location/aspirus-wittenberg-clinic-187"
"https://www.aspirus.org","Aspirus Woodruff Clinic","611 Veterans Parkway","Woodruff","WI","54568","US","121","715-358-8610","Clinics - Primary Care","45.8957523","-89.6902187","Monday-Friday 8 am - 5 pm","https://www.aspirus.org/find-a-location/aspirus-woodruff-clinic-121"
"https://www.aspirus.org","Medical Building - Antigo","1111 Langlade","Antigo","WI","54409","US","192","715-623-3761","Clinics - Primary Care","45.1465848","-89.135406","<MISSING>","https://www.aspirus.org/find-a-location/medical-building-antigo-192"
"https://www.aspirus.org","Forest County Potawatomi Health and Wellness Center","8201 Mish Ko Swen Drive","Crandon","WI","54520","US","288","715-478-4300","Clinics - Primary Care","45.5712999","-88.8507665","<MISSING>","https://www.aspirus.org/find-a-location/forest-county-potawatomi-health-and-wellness-cente-288"
"https://www.aspirus.org","NorthLakes Community Clinic - 9th Street","400 North 9th Street","Park Falls","WI","54552","US","466","715-762-2950","Clinics - Primary Care","45.9457689","-90.4542356","<MISSING>","https://www.aspirus.org/find-a-location/northlakes-community-clinic-9th-street-466"
"https://www.aspirus.org","NorthLakes Community Clinic - Birch Street","500 Birch St","Park Falls","WI","54552","US","465","715-762-2950","Clinics - Primary Care","45.934349","-90.4440313","<MISSING>","https://www.aspirus.org/find-a-location/northlakes-community-clinic-birch-street-465"
"https://www.aspirus.org","Steve A. Weber, D.O.","1111 Langlade","Antigo","WI","54409","US","188","715-623-3761","Clinics - Primary Care","45.1465848","-89.135406","<MISSING>","https://www.aspirus.org/find-a-location/steve-a-weber-do-188"
"https://www.aspirus.org","Tigerton Family Medicine","110 Cedar Street","Tigerton","WI","54486","US","191","715-535-2115","Clinics - Primary Care","44.740384","-89.06082","<MISSING>","https://www.aspirus.org/find-a-location/tigerton-family-medicine-191"
"https://www.aspirus.org","Aspirus Cardiology - Antigo","112 East Fifth Ave.","Antigo","WI","54409","US","43","800-441-4013","Clinics - Specialty Care","45.1417251","-89.139442","<MISSING>","https://www.aspirus.org/find-a-location/aspirus-cardiology-antigo-43"
"https://www.aspirus.org","Aspirus Cardiology - Iron River","814 S Ice Lake Road","Iron River","MI","49935","US","44","800-441-4013","Clinics - Specialty Care","46.0997441","-88.6192244","<MISSING>","https://www.aspirus.org/find-a-location/aspirus-cardiology-iron-river-44"
"https://www.aspirus.org","Aspirus Cardiology - Ironwood","N10561 Grand View Lane","Ironwood","MI","49938","US","45","800-441-4013","Clinics - Specialty Care","46.4782891","-90.1057004","<MISSING>","https://www.aspirus.org/find-a-location/aspirus-cardiology-ironwood-45"
"https://www.aspirus.org","Aspirus Cardiology - Medford","135 South Gibson Street","Medford","WI","54451","US","46","800-441-4013","Clinics - Specialty Care","45.1359852","-90.3546447","<MISSING>","https://www.aspirus.org/find-a-location/aspirus-cardiology-medford-46"
"https://www.aspirus.org","Aspirus Cardiology - Ontonagon","601 7th Street","Ontonagon","MI","49953","US","47","906-337-6585","Clinics - Specialty Care","46.8658501","-89.3031305","<MISSING>","https://www.aspirus.org/find-a-location/aspirus-cardiology-ontonagon-47"
"https://www.aspirus.org","Aspirus Cardiology - Rhinelander","2275 North Shore Drive","Rhinelander","WI","54501","US","48","715-361-3000","Clinics - Specialty Care","45.6376479","-89.3731876","Monday - Friday 8:00 am - 5:00 pm","https://www.aspirus.org/find-a-location/aspirus-cardiology-rhinelander-48"
"https://www.aspirus.org","Aspirus Cardiology - Stevens Point","5409 Vern Holmes Drive","Stevens Point","WI","54482","US","450","800-441-4013","Clinics - Specialty Care","44.4989014","-89.5165085","<MISSING>","https://www.aspirus.org/find-a-location/aspirus-cardiology-stevens-point-450"
"https://www.aspirus.org","Aspirus Cardiology - Wausau","500 Wind Ridge Drive","Wausau","WI","54401","US","41","715-847-2611","Clinics - Specialty Care","44.9688209","-89.6625906","Monday - Friday 7:00 am - 5:00 pm","https://www.aspirus.org/find-a-location/aspirus-cardiology-wausau-41"
"https://www.aspirus.org","Aspirus Cardiology - Wisconsin Rapids","410 Dewey Street","Wisconsin Rapids","WI","54494","US","49","715-421-7900","Clinics - Specialty Care","44.3817769","-89.8304877","Monday- Friday 8am -  4:30pm","https://www.aspirus.org/find-a-location/aspirus-cardiology-wisconsin-rapids-49"
"https://www.aspirus.org","Aspirus Dermatology Clinic","425 Pine Ridge Boulevard","Wausau","WI","54401","US","104","715-847-2626","Clinics - Specialty Care","44.9659821","-89.6678126","Monday-Friday 8 am - 5 pm","https://www.aspirus.org/find-a-location/aspirus-dermatology-clinic-104"
"https://www.aspirus.org","Aspirus Diabetes Education Center - Aspirus Langlade Hospital","110 East Fifth Avenue","Antigo","WI","54409","US","110","715-623-2351","Clinics - Specialty Care","45.1404532","-89.1391781","<MISSING>","https://www.aspirus.org/find-a-location/aspirus-diabetes-education-center-aspirus-langlade-110"
"https://www.aspirus.org","Aspirus Diabetes Education Center & Nutrition Counseling","425 Pine Ridge Boulevard","Wausau","WI","54401","US","111","715-847-2070","Clinics - Specialty Care","44.9659821","-89.6678126","Monday-Friday 8 am - 5 pm","https://www.aspirus.org/find-a-location/aspirus-diabetes-education-center-nutrition-counse-111"
"https://www.aspirus.org","Aspirus Endocrinology Clinic","425 Pine Ridge Boulevard","Wausau","WI","54401","US","112","715-847-2070","Clinics - Specialty Care","44.9659821","-89.6678126","Monday-Friday 8 am - 4:30 pm","https://www.aspirus.org/find-a-location/aspirus-endocrinology-clinic-112"
"https://www.aspirus.org","Aspirus Gastroenterology","410 Dewey Street","Wisconsin Rapids","WI","54494","US","120","715-421-1001","Clinics - Specialty Care","44.3817769","-89.8304877","Monday-Friday 8am - 4:30pm","https://www.aspirus.org/find-a-location/aspirus-gastroenterology-120"
"https://www.aspirus.org","Aspirus Heart & Lung Surgery","425 Pine Ridge Boulevard","Wausau","WI","54401","US","215","715-847-0400","Clinics - Specialty Care","44.9659821","-89.6678126","<MISSING>","https://www.aspirus.org/find-a-location/aspirus-heart-lung-surgery-215"
"https://www.aspirus.org","Aspirus Imaging - Westhill","3200 Westhill Drive","Wausau","WI","54401","US","317","715-847-2550","Clinics - Specialty Care","44.9682533","-89.6767069","<MISSING>","https://www.aspirus.org/find-a-location/aspirus-imaging-westhill-317"
"https://www.aspirus.org","Aspirus Langlade Hospital Pain Clinic","112 East Fifth Avenue","Antigo","WI","54409","US","338","715-623-9432","Clinics - Specialty Care","45.1416889","-89.1396133","Monday - Thursday 7:00 am - 4:30 pm Friday 7:00 am - 3:00 pm","https://www.aspirus.org/find-a-location/aspirus-langlade-hospital-pain-clinic-338"
"https://www.aspirus.org","Aspirus Memory Clinic","2720 Plaza Drive","Wausau","WI","54401","US","10","715-847-2004","Clinics - Specialty Care","44.964351","-89.6676823","Wednesday 8 am - 5 pm 3rd and 4th Thursday afternoon of each month","https://www.aspirus.org/find-a-location/aspirus-memory-clinic-10"
"https://www.aspirus.org","Aspirus Nephrology Clinic","3000 Westhill Drive","Wausau","WI","54401","US","242","715-847-0032","Clinics - Specialty Care","44.968774","-89.673715","Monday-Friday 8 am - 4:30 pm","https://www.aspirus.org/find-a-location/aspirus-nephrology-clinic-242"
"https://www.aspirus.org","Aspirus Plastic Surgery","227500 Rib Mountain Drive","Wausau","WI","54401","US","94","715-870-2162","Clinics - Specialty Care","44.9323404","-89.6578868","Monday - Thursday 7:30 am - 5 pm Friday 7:30 am - 4 pm","https://www.aspirus.org/find-a-location/aspirus-plastic-surgery-94"
"https://www.aspirus.org","Aspirus Podiatry Associates","1445 Merrill Avenue","Wausau","WI","54401","US","211","715-675-2321","Clinics - Specialty Care","44.9823307","-89.6465658","Monday - Friday 8 am - 5 pm","https://www.aspirus.org/find-a-location/aspirus-podiatry-associates-211"
"https://www.aspirus.org","Aspirus Pulmonary & Critical Care","425 Pine Ridge Boulevard","Wausau","WI","54401","US","382","715-847-2480","Clinics - Specialty Care","44.9659821","-89.6678126","Mon. - Fri. 8:30 am-5 pm","https://www.aspirus.org/find-a-location/aspirus-pulmonary-critical-care-382"
"https://www.aspirus.org","Aspirus Regional Cancer Center","215 North 28th Avenue","Wausau","WI","54401","US","22","715-847-2866","Clinics - Specialty Care","44.9653542","-89.6696263","<MISSING>","https://www.aspirus.org/find-a-location/aspirus-regional-cancer-center-22"
"https://www.aspirus.org","Aspirus Rheumatology Clinic","2720 Plaza Drive","Wausau","WI","54401","US","385","715-847-0426","Clinics - Specialty Care","44.964351","-89.6676823","Monday-Friday 8:30 am - 5 pm","https://www.aspirus.org/find-a-location/aspirus-rheumatology-clinic-385"
"https://www.aspirus.org","Aspirus Riverview Dental","820 Two Mile Avenue","Wisconsin Rapids","WI","54494","US","95","715-424-8575","Clinics - Specialty Care","44.3619123","-89.8160188","Monday, Thursday, Friday 8am - 5pm","https://www.aspirus.org/find-a-location/aspirus-riverview-dental-95"
"https://www.aspirus.org","Aspirus Riverview Diabetes & Nutrition Center","410 Dewey Street","Wisconsin Rapids","WI","54494","US","116","715-422-9287","Clinics - Specialty Care","44.3817769","-89.8304877","Monday-Friday 8am - 4:30pm","https://www.aspirus.org/find-a-location/aspirus-riverview-diabetes-nutrition-center-116"
"https://www.aspirus.org","Aspirus Riverview Joint Center","410 Dewey Street","Wisconsin Rapids","WI","54494","US","324","715-421-7501","Clinics - Specialty Care","44.3817769","-89.8304877","Monday- Thursday","https://www.aspirus.org/find-a-location/aspirus-riverview-joint-center-324"
"https://www.aspirus.org","Aspirus Riverview Medi-Spa","410 Dewey Street","Wisconsin Rapids","WI","54494","US","93","715-422-7709","Clinics - Specialty Care","44.3817769","-89.8304877","Monday-Friday 8 am -  4 pm","https://www.aspirus.org/find-a-location/aspirus-riverview-medispa-93"
"https://www.aspirus.org","Aspirus Riverview Wound & Hyperbarics","410 Dewey Street","Wisconsin Rapids","WI","54495","US","221","715-422-7755","Clinics - Specialty Care","44.3817769","-89.8304877","Monday-Friday 8 am - 4:30 pm","https://www.aspirus.org/find-a-location/aspirus-riverview-wound-hyperbarics-221"
"https://www.aspirus.org","Aspirus Spine & Neurosciences","3200 Westhill Drive","Wausau","WI","54401","US","339","715-847-2019","Clinics - Specialty Care","44.9682533","-89.6767069","Monday - Friday 8 am - 5 pm","https://www.aspirus.org/find-a-location/aspirus-spine-neurosciences-339"
"https://www.aspirus.org","Aspirus Spine & Neurosciences - Pine Ridge Blvd","425 Pine Ridge Boulevard","Wausau","WI","54401","US","316","715-847-2019","Clinics - Specialty Care","44.9659821","-89.6678126","Monday - Friday 8 am - 5 pm","https://www.aspirus.org/find-a-location/aspirus-spine-neurosciences-pine-ridge-blvd-316"
"https://www.aspirus.org","Aspirus UW Cancer Center - Wisconsin Rapids","410 Dewey Street","Wisconsin Rapids","WI","54495","US","23","715-421-7442","Clinics - Specialty Care","44.3817769","-89.8304877","Monday-Friday 8 am - 4:30 pm","https://www.aspirus.org/find-a-location/aspirus-uw-cancer-center-wisconsin-rapids-23"
"https://www.aspirus.org","Aspirus Wound & Hyperbaric Center - Wausau","333 Pine Ridge Boulevard","Wausau","WI","54401","US","222","715-847-2837","Clinics - Specialty Care","44.965982","-89.6677559","<MISSING>","https://www.aspirus.org/find-a-location/aspirus-wound-hyperbaric-center-wausau-222"
"https://www.aspirus.org","Breast Center at Aspirus Wausau Hospital","333 Pine Ridge Boulevard","Wausau","WI","54401","US","30","715-847-2550","Clinics - Specialty Care","44.965982","-89.6677559","<MISSING>","https://www.aspirus.org/find-a-location/breast-center-at-aspirus-wausau-hospital-30"
"https://www.aspirus.org","Heart & Vascular at Aspirus Wausau Hospital","333 Pine Ridge Boulevard","Wausau","WI","54401","US","50","<MISSING>","Clinics - Specialty Care","44.965982","-89.6677559","<MISSING>","https://www.aspirus.org/find-a-location/heart-vascular-at-aspirus-wausau-hospital-50"
"https://www.aspirus.org","Joint Replacement Center at Aspirus Medford Hospital","135 South Gibson Street","Medford","WI","54451","US","230","715-748-8836","Clinics - Specialty Care","45.1359852","-90.3546447","Monday-Friday 8 am - 4:30 pm","https://www.aspirus.org/find-a-location/joint-replacement-center-at-aspirus-medford-hospit-230"
"https://www.aspirus.org","Joint Replacement Center at Aspirus Wausau Hospital","333 Pine Ridge Boulevard","Wausau","WI","54401","US","231","715-847-2448","Clinics - Specialty Care","44.965982","-89.6677559","<MISSING>","https://www.aspirus.org/find-a-location/joint-replacement-center-at-aspirus-wausau-hospita-231"
"https://www.aspirus.org","St. Joseph's Outpatient Center - Antigo","501 Aurora Street","Antigo","WI","54409","US","4","715-623-2331","Clinics - Specialty Care","45.1397144","-89.1394481","<MISSING>","https://www.aspirus.org/find-a-location/st-josephs-outpatient-center-antigo-4"
"https://www.aspirus.org","Volm Cancer Center - Aspirus Langlade Hospital","501 Aurora Street","Antigo","WI","54409","US","24","715-623-9587","Clinics - Specialty Care","45.1397144","-89.1394481","Monday - Thursday 7:00 am - 4:30 pm Friday 7:00 am - 3:30 pm","https://www.aspirus.org/find-a-location/volm-cancer-center-aspirus-langlade-hospital-24"
"https://www.aspirus.org","Acuity Neurology, S.C.","226891 Rib Mountain Drive","Wausau","WI","54401","US","402","715-298-5783","Clinics - Specialty Care","44.9267693","-89.6523676","<MISSING>","https://www.aspirus.org/find-a-location/acuity-neurology-sc-402"
"https://www.aspirus.org","Aldrich, Mark A., Inc., D.P.M.","737 Dorr Street","Antigo","WI","54409","US","199","715-623-4710","Clinics - Specialty Care","45.1425101","-89.1572606","<MISSING>","https://www.aspirus.org/find-a-location/aldrich-mark-a-inc-dpm-199"
"https://www.aspirus.org","Anesthesia Associates of Wisconsin Rapids","410 Dewey Street","Wisconsin Rapids","WI","54495","US","407","715-421-7467","Clinics - Specialty Care","44.3817769","-89.8304877","<MISSING>","https://www.aspirus.org/find-a-location/anesthesia-associates-of-wisconsin-rapids--407"
"https://www.aspirus.org","Associates in Pathology, S.C.","2800 Westhill Drive","Wausau","WI","54401","US","243","715-847-0075","Clinics - Specialty Care","44.9687015","-89.6717028","<MISSING>","https://www.aspirus.org/find-a-location/associates-in-pathology-sc-243"
"https://www.aspirus.org","Aylesworth Dermatology, S.C.","550 East Timber Drive","Rhinelander","WI","54501","US","105","715-369-4500","Clinics - Specialty Care","45.6439705","-89.4019449","Monday-Friday 8 am-5 pm","https://www.aspirus.org/find-a-location/aylesworth-dermatology-sc-105"
"https://www.aspirus.org","Bone & Joint Clinic, S.C. - Medford","724 South 8th Street","Medford","WI","54451","US","232","715-748-2663","Clinics - Specialty Care","45.130591","-90.3318326","<MISSING>","https://www.aspirus.org/find-a-location/bone-joint-clinic-sc-medford-232"
"https://www.aspirus.org","Bone & Joint Clinic, S.C. - Merrill","100 Eagle Drive","Merrill","WI","54452","US","233","715-536-7181","Clinics - Specialty Care","45.181132","-89.656066","<MISSING>","https://www.aspirus.org/find-a-location/bone-joint-clinic-sc-merrill-233"
"https://www.aspirus.org","Bone & Joint Clinic, S.C. - Plover","1767 Park Ave","Plover","WI","54467","US","234","715-344-1260","Clinics - Specialty Care","44.4517191","-89.5211747","<MISSING>","https://www.aspirus.org/find-a-location/bone-joint-clinic-sc-plover-234"
"https://www.aspirus.org","Bone & Joint Clinic, S.C. - Wausau","225000 Hummingbird Road","Wausau","WI","54401","US","235","715-359-6442","Clinics - Specialty Care","44.9100621","-89.6553186","<MISSING>","https://www.aspirus.org/find-a-location/bone-joint-clinic-sc-wausau-235"
"https://www.aspirus.org","Bridge Community Health Clinic","1810 North 2nd Street","Wausau","WI","54403","US","193","715-848-4884","Clinics - Specialty Care","44.971478","-89.628904","<MISSING>","https://www.aspirus.org/find-a-location/bridge-community-health-clinic-193"
"https://www.aspirus.org","Bridge Community Health Clinic - Merrill","401 West Main Street","Merrill","WI","54452","US","194","715-539-8181","Clinics - Specialty Care","45.1787603","-89.7054943","<MISSING>","https://www.aspirus.org/find-a-location/bridge-community-health-clinic-merrill-194"
"https://www.aspirus.org","Central Wisconsin Anesthesiology, S.C.","425 Pine Ridge Boulevard","Wausau","WI","54401","US","408","715-845-5505","Clinics - Specialty Care","44.9659821","-89.6678126","<MISSING>","https://www.aspirus.org/find-a-location/central-wisconsin-anesthesiology-sc-408"
"https://www.aspirus.org","Central Wisconsin Radiologists","3410 Stanley Street","Stevens Point","WI","54481","US","225","715-344-1234","Clinics - Specialty Care","44.5356327","-89.5522672","<MISSING>","https://www.aspirus.org/find-a-location/central-wisconsin-radiologists-225"
"https://www.aspirus.org","Central Wisconsin Radiologists - 824","824 Illinois Avenue","Stevens Point","WI","54481","US","226","715-344-1234","Clinics - Specialty Care","44.5264598","-89.5670484","<MISSING>","https://www.aspirus.org/find-a-location/central-wisconsin-radiologists-824-226"
"https://www.aspirus.org","Central Wisconsin Radiologists - 900","900 Illinois Avenue","Stevens Point","WI","54481","US","227","715-344-1234","Clinics - Specialty Care","44.5268222","-89.5665679","<MISSING>","https://www.aspirus.org/find-a-location/central-wisconsin-radiologists-900-227"
"https://www.aspirus.org","Central Wisconsin Radiologists - Wisconsin Rapids","410 Dewey Street","Wisconsin Rapids","WI","54494","US","228","715-344-1234","Clinics - Specialty Care","44.3817769","-89.8304877","<MISSING>","https://www.aspirus.org/find-a-location/central-wisconsin-radiologists-wisconsin-rapids-228"
"https://www.aspirus.org","Comprehensive Foot & Ankle, SC - Eagle River","201 Hospital Road","Eagle River","WI","54521","US","200","715-634-9023","Clinics - Specialty Care","45.928181","-89.251018","Monday-Friday 8:30 am-4 pm","https://www.aspirus.org/find-a-location/comprehensive-foot-ankle-sc-eagle-river-200"
"https://www.aspirus.org","Comprehensive Foot & Ankle, SC - FCP","5415 Everybody's Road","Crandon","WI","54520","US","201","715-634-9023","Clinics - Specialty Care","<MISSING>","<MISSING>","Monday-Friday 8:30 am-4 pm","https://www.aspirus.org/find-a-location/comprehensive-foot-ankle-sc-fcp-201"
"https://www.aspirus.org","Comprehensive Foot & Ankle, SC - LDF","450 Old Abe Road","Lac du Flambeau","WI","54538","US","202","715-634-9023","Clinics - Specialty Care","45.9730714","-89.8928361","Monday-Friday 8:30 am-4 pm","https://www.aspirus.org/find-a-location/comprehensive-foot-ankle-sc-ldf-202"
"https://www.aspirus.org","Comprehensive Foot & Ankle, SC - Mole Lake","3163 Highway 55","Crandon","WI","54520","US","203","715-634-9023","Clinics - Specialty Care","45.4793961","-88.983101","Monday-Friday 8:30 am-4 pm","https://www.aspirus.org/find-a-location/comprehensive-foot-ankle-sc-mole-lake-203"
"https://www.aspirus.org","Comprehensive Foot & Ankle, SC - Woodruff","311 Elm Street","Woodruff","WI","54568","US","204","877-265-5225","Clinics - Specialty Care","45.894159","-89.6997305","Monday-Friday 8:30 am-4 pm","https://www.aspirus.org/find-a-location/comprehensive-foot-ankle-sc-woodruff-204"
"https://www.aspirus.org","Cosmetic Surgery & Hair Restoration Center","316 Vincent Street","Stevens Point","WI","54481","US","409","715-342-4545","Clinics - Specialty Care","44.5318079","-89.5767114","<MISSING>","https://www.aspirus.org/find-a-location/cosmetic-surgery-hair-restoration-center-409"
"https://www.aspirus.org","ENT & Allergy Associates, S.C. - Minocqua","7520 Highway 51 South","Minocqua","WI","54548","US","5","715-847-2021","Clinics - Specialty Care","45.8287635","-89.7163453","<MISSING>","https://www.aspirus.org/find-a-location/ent-allergy-associates-sc-minocqua-5"
"https://www.aspirus.org","ENT & Allergy Associates, S.C. - Wausau","512 S 28th Ave","Wausau","WI","54401","US","6","715-847-2021","Clinics - Specialty Care","44.95859","-89.6710005","<MISSING>","https://www.aspirus.org/find-a-location/ent-allergy-associates-sc-wausau-6"
"https://www.aspirus.org","Family Foot & Ankle Clinic, LLC - Antigo","720 Ackley Street","Antigo","WI","54409","US","205","715-623-4200","Clinics - Specialty Care","45.1593431","-89.153954","<MISSING>","https://www.aspirus.org/find-a-location/family-foot-ankle-clinic-llc-antigo-205"
"https://www.aspirus.org","Family Foot & Ankle Clinic, LLC - Marathon","117 Main Street","Marathon","WI","54448","US","207","715-443-3300","Clinics - Specialty Care","44.9332145","-89.8405895","<MISSING>","https://www.aspirus.org/find-a-location/family-foot-ankle-clinic-llc-marathon-207"
"https://www.aspirus.org","Family Foot & Ankle Clinic, LLC - Merrill","100 South Court Street","Merrill","WI","54452","US","208","715-722-0999","Clinics - Specialty Care","45.1805562","-89.6843408","<MISSING>","https://www.aspirus.org/find-a-location/family-foot-ankle-clinic-llc-merrill-208"
"https://www.aspirus.org","Family Foot & Ankle Clinic, LLC - Mosinee","1021 Western Avenue","Mosinee","WI","54455","US","447","715-241-8100","Clinics - Specialty Care","44.90814","-89.6022179","<MISSING>","https://www.aspirus.org/find-a-location/family-foot-ankle-clinic-llc-mosinee-447"
"https://www.aspirus.org","Family Foot & Ankle Clinic, LLC - Shawano","115 Alpine Court","Shawano","WI","54476","US","448","715-298-5949","Clinics - Specialty Care","44.90814","-89.6022179","<MISSING>","https://www.aspirus.org/find-a-location/family-foot-ankle-clinic-llc-shawano-448"
"https://www.aspirus.org","Family Foot & Ankle Clinic, LLC - Stevens Point","140 North Wilshire Blvd","Stevens Point","WI","54481","US","478","715-241-8100","Clinics - Specialty Care","44.5355133","-89.5497263","<MISSING>","https://www.aspirus.org/find-a-location/family-foot-ankle-clinic-llc-stevens-point-478"
"https://www.aspirus.org","Family Foot & Ankle Clinic, LLC - Waupaca","1439 Churchill Street","Waupaca","WI","54981","US","475","715-241-8100","Clinics - Specialty Care","44.3411666","-89.0676981","<MISSING>","https://www.aspirus.org/find-a-location/family-foot-ankle-clinic-llc-waupaca-475"
"https://www.aspirus.org","Family Foot & Ankle Clinic, LLC - Wausau","333 Pine Ridge Boulevard","Wausau","WI","54401","US","209","715-241-8100","Clinics - Specialty Care","44.965982","-89.6677559","<MISSING>","https://www.aspirus.org/find-a-location/family-foot-ankle-clinic-llc-wausau-209"
"https://www.aspirus.org","Family Foot & Ankle Clinic, LLC - Wausau (Westwood Blvd)","1901 Westwood Blvd","Wausau","WI","54401","US","446","715-241-8100","Clinics - Specialty Care","44.90814","-89.6022179","<MISSING>","https://www.aspirus.org/find-a-location/family-foot-ankle-clinic-llc-wausau-westwood-blvd-446"
"https://www.aspirus.org","Family Foot & Ankle Clinic, LLC - Weston","5403 Normandy Street","Weston","WI","54476","US","210","715-241-8100","Clinics - Specialty Care","44.90814","-89.6022179","<MISSING>","https://www.aspirus.org/find-a-location/family-foot-ankle-clinic-llc-weston-210"
"https://www.aspirus.org","Forefront Dermatology, S.C.","510 North 17th Ave","Wausau","WI","54401","US","109","715-849-5333","Clinics - Specialty Care","44.969489","-89.6543952","<MISSING>","https://www.aspirus.org/find-a-location/forefront-dermatology-sc-109"
"https://www.aspirus.org","Forefront Dermatology, S.C. - Shawano","100 County Road B","Shawano","WI","54166-7072","US","106","715-524-5995","Clinics - Specialty Care","44.761313","-88.566679","<MISSING>","https://www.aspirus.org/find-a-location/forefront-dermatology-sc-shawano-106"
"https://www.aspirus.org","Forefront Dermatology, S.C. - Stevens Point","5501A Vern Holmes Drive","Stevens Point","WI","54482","US","107","715-344-0172","Clinics - Specialty Care","44.498822","-89.510852","<MISSING>","https://www.aspirus.org/find-a-location/forefront-dermatology-sc-stevens-point-107"
"https://www.aspirus.org","Forefront Dermatology, S.C. - Wisconsin Rapids","420 Dewey Street","Wisconsin Rapids","WI","54494","US","108","715-421-4500","Clinics - Specialty Care","44.381891","-89.8304558","<MISSING>","https://www.aspirus.org/find-a-location/forefront-dermatology-sc-wisconsin-rapids-108"
"https://www.aspirus.org","Gastrointestinal Associates, S.C. - Eagle River","201 Hospital Road","Eagle River","WI","54521","US","122","715-847-2558","Clinics - Specialty Care","45.928181","-89.251018","<MISSING>","https://www.aspirus.org/find-a-location/gastrointestinal-associates-sc-eagle-river-122"
"https://www.aspirus.org","Gastrointestinal Associates, S.C. - Wausau","411 Westwood Drive","Wausau","WI","54401","US","123","715-847-2558","Clinics - Specialty Care","44.9686088","-89.6598234","<MISSING>","https://www.aspirus.org/find-a-location/gastrointestinal-associates-sc-wausau-123"
"https://www.aspirus.org","Kuhn Hearing Center, LLC","1699 Schofield Ave","Schofield","WI","54476","US","124","715-298-5511","Clinics - Specialty Care","44.909476","-89.6028378","<MISSING>","https://www.aspirus.org/find-a-location/kuhn-hearing-center-llc-124"
"https://www.aspirus.org","Northwoods Anesthesia Associates, SC","611 Veterans Parkway","Woodruff","WI","54568","US","410","715-356-7382","Clinics - Specialty Care","45.8957523","-89.6902187","<MISSING>","https://www.aspirus.org/find-a-location/northwoods-anesthesia-associates-sc-410"
"https://www.aspirus.org","Northwoods Family Orthopaedics - Eagle River","201 Hospital Road","Eagle River","WI","54521","US","238","715-561-4795","Clinics - Specialty Care","45.928181","-89.251018","<MISSING>","https://www.aspirus.org/find-a-location/northwoods-family-orthopaedics-eagle-river-238"
"https://www.aspirus.org","Northwoods Family Orthopaedics - Ontonagon","601 South Seventh Street","Ontonagon","MI","49953","US","239","715-561-4795","Clinics - Specialty Care","46.8658501","-89.3031305","<MISSING>","https://www.aspirus.org/find-a-location/northwoods-family-orthopaedics-ontonagon-239"
"https://www.aspirus.org","Northwoods Family Orthopaedics - Woodruff","611 Veterans Parkway","Woodruff","WI","54548","US","240","715-561-4795","Clinics - Specialty Care","45.8957523","-89.6902187","<MISSING>","https://www.aspirus.org/find-a-location/northwoods-family-orthopaedics-woodruff-240"
"https://www.aspirus.org","Orthopaedic Associates of Wausau, S.C.","3200 Westhill Drive","Wausau","WI","54401","US","241","715-847-2382","Clinics - Specialty Care","44.9682533","-89.6767069","<MISSING>","https://www.aspirus.org/find-a-location/orthopaedic-associates-of-wausau-sc-241"
"https://www.aspirus.org","Radiology Associates of Wausau, S.C.","333 Pine Ridge Boulevard","Wausau","WI","54401","US","223","715-847-2020","Clinics - Specialty Care","44.965982","-89.6677559","<MISSING>","https://www.aspirus.org/find-a-location/radiology-associates-of-wausau-sc-223"
"https://www.aspirus.org","Radiology Associates of Wausau, S.C. - Pain Clinic","3200 Westhill Drive","Wausau","WI","54401","US","224","715-847-2020","Clinics - Specialty Care","44.9682533","-89.6767069","<MISSING>","https://www.aspirus.org/find-a-location/radiology-associates-of-wausau-sc-pain-clinic-224"
"https://www.aspirus.org","Spine & Brain Group, S.C. - Rhinelander","2251 North Shore Drive","Rhinelander","WI","54501","US","403","715-843-1000","Clinics - Specialty Care","45.6396123","-89.3744692","<MISSING>","https://www.aspirus.org/find-a-location/spine-brain-group-sc-rhinelander-403"
"https://www.aspirus.org","Spine & Brain Group, S.C. - Stevens Point","824 Illinois Avenue","Stevens Point","WI","54481","US","404","715-843-1000","Clinics - Specialty Care","44.5264598","-89.5670484","<MISSING>","https://www.aspirus.org/find-a-location/spine-brain-group-sc-stevens-point-404"
"https://www.aspirus.org","Spine & Brain Group, S.C. - Wausau","2800 Westhill Drive","Wausau","WI","54401","US","405","715-843-1000","Clinics - Specialty Care","44.9687015","-89.6717028","Open every other Tuesday","https://www.aspirus.org/find-a-location/spine-brain-group-sc-wausau-405"
"https://www.aspirus.org","Stevens Point Anesthesia Associates, SC","PO Box 326","Stevens Point","WI","54481","US","411","715-341-7920","Clinics - Specialty Care","44.5235792","-89.574563","<MISSING>","https://www.aspirus.org/find-a-location/stevens-point-anesthesia-associates-sc-411"
"https://www.aspirus.org","Stevens Point Orthopedics","500 Vincent Street","Stevens Point","WI","54481","US","236","715-344-0701","Clinics - Specialty Care","44.5307969","-89.5769508","<MISSING>","https://www.aspirus.org/find-a-location/stevens-point-orthopedics-236"
"https://www.aspirus.org","Surgical Associates of Wisconsin Rapids","420 Dewey Street","Wisconsin Rapids","WI","54495","US","412","715-422-7771","Clinics - Specialty Care","44.3820154","-89.8282991","<MISSING>","https://www.aspirus.org/find-a-location/surgical-associates-of-wisconsin-rapids-412"
"https://www.aspirus.org","Surgical Associates, S.C. - Wausau","2400 Pine Ridge Boulevard","Wausau","WI","54401","US","413","715-847-2022","Clinics - Specialty Care","44.9685413","-89.6667061","<MISSING>","https://www.aspirus.org/find-a-location/surgical-associates-sc-wausau-413"
"https://www.aspirus.org","The Urology Clinic, S.C.","500 Vincent Street","Stevens Point","WI","54481","US","419","715-295-9939","Clinics - Specialty Care","44.5307969","-89.5769508","<MISSING>","https://www.aspirus.org/find-a-location/the-urology-clinic-sc-419"
"https://www.aspirus.org","Timothy C. Romang, M.D., S.C.","3200 Westhill Drive","Wausau","WI","54401","US","337","715-847-2105","Clinics - Specialty Care","44.9682533","-89.6767069","<MISSING>","https://www.aspirus.org/find-a-location/timothy-c-romang-md-sc-337"
"https://www.aspirus.org","Urology Specialists of Wisconsin, S.C. - Eagle River","930 East Wall Street","Eagle River","WI","54521","US","420","715-847-2605","Clinics - Specialty Care","45.9142967","-89.2386442","<MISSING>","https://www.aspirus.org/find-a-location/urology-specialists-of-wisconsin-sc-eagle-river-420"
"https://www.aspirus.org","Urology Specialists of Wisconsin, S.C. - Rhinelander","2251 North Shore Drive","Rhinelander","WI","54501","US","421","715-847-2605","Clinics - Specialty Care","45.6396123","-89.3744692","<MISSING>","https://www.aspirus.org/find-a-location/urology-specialists-of-wisconsin-sc-rhinelander-421"
"https://www.aspirus.org","Urology Specialists of Wisconsin, S.C.-Wausau","3300 Westhill Drive","Wausau","WI","54401","US","422","715-847-2605","Clinics - Specialty Care","44.9686846","-89.6785722","<MISSING>","https://www.aspirus.org/find-a-location/urology-specialists-of-wisconsin-scwausau-422"
"https://www.aspirus.org","Walkabout Orthotics & Prosthetics","402 N. 28th Avenue","Wausau","WI","54401","US","325","715-849-8703","Clinics - Specialty Care","44.9664768","-89.6712987","<MISSING>","https://www.aspirus.org/find-a-location/walkabout-orthotics-prosthetics-325"
"https://www.aspirus.org","Walkabout Orthotics & Prosthetics - Antigo","110 E. Fifth Avenue","Antigo","WI","54409","US","326","715-849-8703","Clinics - Specialty Care","45.1416889","-89.1396133","<MISSING>","https://www.aspirus.org/find-a-location/walkabout-orthotics-prosthetics-antigo-326"
"https://www.aspirus.org","Walkabout Orthotics & Prosthetics - Medford","103 S. Gibson","Medford","WI","54451","US","327","715-849-8703","Clinics - Specialty Care","45.1360585","-90.3545558","<MISSING>","https://www.aspirus.org/find-a-location/walkabout-orthotics-prosthetics-medford-327"
"https://www.aspirus.org","Walkabout Orthotics & Prosthetics - Rhinelander","2003 Winnebago Drive","Rhinelander","WI","54501","US","328","715-849-8703","Clinics - Specialty Care","45.6470348","-89.380482","<MISSING>","https://www.aspirus.org/find-a-location/walkabout-orthotics-prosthetics-rhinelander-328"
"https://www.aspirus.org","Walkabout Orthotics & Prosthetics - Stevens Point","500 Vincent Street","Stevens Point","WI","54481","US","329","715-849-8703","Clinics - Specialty Care","44.5307969","-89.5769508","<MISSING>","https://www.aspirus.org/find-a-location/walkabout-orthotics-prosthetics-stevens-point-329"
"https://www.aspirus.org","Walkabout Orthotics & Prosthetics - Woodruff","240 Maple","Woodruff","WI","54548","US","330","715-849-8703","Clinics - Specialty Care","45.8940769","-89.7018333","<MISSING>","https://www.aspirus.org/find-a-location/walkabout-orthotics-prosthetics-woodruff-330"
"https://www.aspirus.org","Waypoint Spine, S.C.","520 Vincent Street","Stevens Point","WI","54481","US","401","715-544-1775","Clinics - Specialty Care","44.5301843","-89.5767894","<MISSING>","https://www.aspirus.org/find-a-location/waypoint-spine-sc-401"
"https://www.aspirus.org","Waypoint Spine, S.C. - Marshfield","1807 Prairie Drive","Marshfield","WI","54449","US","481","715-544-1775","Clinics - Specialty Care","44.6866573","-90.1890206","<MISSING>","https://www.aspirus.org/find-a-location/waypoint-spine-sc-marshfield-481"
"https://www.aspirus.org","Waypoint Spine, S.C. - Minocqua","7520 US Highway 51 South","Minocqua","WI","54548","US","482","715-544-1775","Clinics - Specialty Care","45.8287635","-89.7163453","<MISSING>","https://www.aspirus.org/find-a-location/waypoint-spine-sc-minocqua-482"
"https://www.aspirus.org","Waypoint Spine, S.C. - Stevens Point Vincent Street","500 Vincent Street","Stevens Point","WI","54481","US","455","715-544-1775","Clinics - Specialty Care","44.5307969","-89.5769508","<MISSING>","https://www.aspirus.org/find-a-location/waypoint-spine-sc-stevens-point-vincent-street-455"
"https://www.aspirus.org","Waypoint Spine, S.C. - Wausau","3301 Rib Mountain Drive","Wausau","WI","54401","US","454","715-544-1775","Clinics - Specialty Care","44.926427","-89.6521375","<MISSING>","https://www.aspirus.org/find-a-location/waypoint-spine-sc-wausau-454"
"https://www.aspirus.org","Wisconsin Emergency Medical Services Associates, S.C.","333 Pine Ridge Boulevard","Wausau","WI","54401","US","125","715-847-2160","Clinics - Specialty Care","44.965982","-89.6677559","<MISSING>","https://www.aspirus.org/find-a-location/wisconsin-emergency-medical-services-associates-sc-125"
"https://www.aspirus.org","Wisconsin River Orthopaedics, Ltd.","140 24th Street South","Wisconsin Rapids","WI","54494","US","331","715-424-1881","Clinics - Specialty Care","44.388179","-89.798347","<MISSING>","https://www.aspirus.org/find-a-location/wisconsin-river-orthopaedics-ltd-331"
"https://www.aspirus.org","Aspirus Doctors Clinic Walk-In","2031 Peach Street","Wisconsin Rapids","WI","54494","US","435","715-423-0122","Clinics - Walk-In","44.3875907","-89.8005159","Mon. - Fri. 7 am-7 pm Weekends  Holidays 8 am-1 pm","https://www.aspirus.org/find-a-location/aspirus-doctors-clinic-walkin-435"
"https://www.aspirus.org","Aspirus Family Walk-In","2720 Plaza Drive","Wausau","WI","54401","US","423","715-847-2472","Clinics - Walk-In","44.964351","-89.6676823","Monday - Friday 7 am -  7 pm Saturday - Sunday: 8 am - 4 pm Holidays 8 am - 1 pm","https://www.aspirus.org/find-a-location/aspirus-family-walkin-423"
"https://www.aspirus.org","Aspirus Iron River Walk-in","1400 West Ice Lake Road","Iron River","MI","49935","US","426","906-265-6121","Clinics - Walk-In","46.0997441","-88.6192244","<MISSING>","https://www.aspirus.org/find-a-location/aspirus-iron-river-walkin-426"
"https://www.aspirus.org","Aspirus Ironwood Clinic Walk-In","N10565 Grand View Lane","Ironwood","MI","49938","US","427","906-932-1500","Clinics - Walk-In","46.4807284","-90.1066395","Open 7 Days a Week | 12PM-7PM Closed on Holidays","https://www.aspirus.org/find-a-location/aspirus-ironwood-clinic-walkin-427"
"https://www.aspirus.org","Aspirus Langlade Walk-In","112 East Fifth Avenue","Antigo","WI","54409","US","428","715-623-2331","Clinics - Walk-In","45.1416889","-89.1396133","Seven days a week 8 am - 8 pm","https://www.aspirus.org/find-a-location/aspirus-langlade-walkin-428"
"https://www.aspirus.org","Aspirus Medford Clinic Walk-In","143 South Gibson Street","Medford","WI","54451","US","429","715-748-2121","Clinics - Walk-In","45.135747","-90.354031","Weekdays 7 am -  7 pm Weekends 8 am - 4 pm Holidays: New Years Day, Easter, Memorial Day, July 4th, Labor Day, Thanksgiving, Christmas Eve Day, Christmas Day 8 am - 1pm","https://www.aspirus.org/find-a-location/aspirus-medford-clinic-walkin-429"
"https://www.aspirus.org","Aspirus Ontonagon Hospital Walk-In","601 7th Street","Ontonagon","MI","49953","US","430","906-884-8000","Clinics - Walk-In","46.8658501","-89.3031305","<MISSING>","https://www.aspirus.org/find-a-location/aspirus-ontonagon-hospital-walkin-430"
"https://www.aspirus.org","Aspirus Rhinelander Clinic Walk-In","1630 North Chippewa Drive","Rhinelander","WI","54501","US","431","715-361-5480","Clinics - Walk-In","45.6579282","-89.379602","Monday-Friday 8 am - 7 pm Weekends 8 am - 4 pm Holidays 8am - 1pm","https://www.aspirus.org/find-a-location/aspirus-rhinelander-clinic-walkin-431"
"https://www.aspirus.org","Aspirus Stevens Point Clinic Walk-In","5409 Vern Holmes Drive","Stevens Point","WI","54482","US","432","715-342-6050","Clinics - Walk-In","44.4989014","-89.5165085","Monday-Friday 7 am-7 pm Weekends 8 am-4 pm Holidays 8 am-1 pm","https://www.aspirus.org/find-a-location/aspirus-stevens-point-clinic-walkin-432"
"https://www.aspirus.org","Aspirus Weston Clinic Walk-In","4005 Community Center Drive","Weston","WI","54476","US","433","715-241-5404","Clinics - Walk-In","44.8971935","-89.5734466","Monday-Friday 7 am  - 7 pm Weekends 8 am - 4 pm Holidays 8 am - 1 pm","https://www.aspirus.org/find-a-location/aspirus-weston-clinic-walkin-433"
"https://www.aspirus.org","Forest County Potawatomi Health and Wellness Center Walk-In","8201 Mish Ko Swen Drive","Crandon","WI","54520","US","434","715-478-4300","Clinics - Walk-In","45.5712999","-88.8507665","Saturdays 8 am-4 pm","https://www.aspirus.org/find-a-location/forest-county-potawatomi-health-and-wellness-cente-434"
"https://www.aspirus.org","Central WI Oral & Facial Surgery LLC","311 Financial Way","Wausau","WI","54401","US","472","715-610-9464","Dental & Oral Care","44.9660172","-89.6538863","<MISSING>","https://www.aspirus.org/find-a-location/central-wi-oral-facial-surgery-llc-472"
"https://www.aspirus.org","David E. Krigbaum, D.D.S., S.C.","2620 Stewart Avenue","Wausau","WI","54401","US","96","715-842-8811","Dental & Oral Care","44.9578237","-89.6696096","<MISSING>","https://www.aspirus.org/find-a-location/david-e-krigbaum-dds-sc-96"
"https://www.aspirus.org","David E. Krigbaum, D.D.S., S.C. - Minocqua","9433 County Road J","Minocqua","WI","54548","US","97","800-356-4679","Dental & Oral Care","45.8907766","-89.6971564","<MISSING>","https://www.aspirus.org/find-a-location/david-e-krigbaum-dds-sc-minocqua-97"
"https://www.aspirus.org","David E. Krigbaum, D.D.S., S.C. - Rhinelander","550 East Timber Drive","Rhinelander","WI","54501","US","98","800-356-4679","Dental & Oral Care","45.6439705","-89.4019449","<MISSING>","https://www.aspirus.org/find-a-location/david-e-krigbaum-dds-sc-rhinelander-98"
"https://www.aspirus.org","David J. Wanserski, DDS","550 North 17th Avenue","Wausau","WI","54401","US","99","715-848-2435","Dental & Oral Care","44.969632","-89.6534396","<MISSING>","https://www.aspirus.org/find-a-location/david-j-wanserski-dds-99"
"https://www.aspirus.org","First Impressions","413 North 17th Avenue","Wausau","WI","54401","US","100","715-842-4649","Dental & Oral Care","44.968066","-89.6539174","<MISSING>","https://www.aspirus.org/find-a-location/first-impressions-100"
"https://www.aspirus.org","First Impressions - Medford","124 S Main St","Medford","WI","54451","US","101","715-748-5435","Dental & Oral Care","45.1384622","-90.3449033","<MISSING>","https://www.aspirus.org/find-a-location/first-impressions-medford-101"
"https://www.aspirus.org","First Impressions - Rhinelander","780 E Timber Drive","Rhinelander","WI","54501","US","444","715-362-4649","Dental & Oral Care","45.644195","-89.396809","<MISSING>","https://www.aspirus.org/find-a-location/first-impressions-rhinelander-444"
"https://www.aspirus.org","First Impressions - Stevens Point / Plover","2040 County Road HH","Plover","WI","54467","US","443","715-346-0000","Dental & Oral Care","44.4968134","-89.5303278","<MISSING>","https://www.aspirus.org/find-a-location/first-impressions-stevens-point-plover--443"
"https://www.aspirus.org","First Impressions - Weston","4009 Community Center Drive","Wausau","WI","54401","US","442","715-842-5437","Dental & Oral Care","44.8977522","-89.5734153","<MISSING>","https://www.aspirus.org/find-a-location/first-impressions-weston-442"
"https://www.aspirus.org","Prehn Dental Office","413 Jefferson St","Wausau","WI","54403","US","102","715-842-1270","Dental & Oral Care","44.9595577","-89.6262312","<MISSING>","https://www.aspirus.org/find-a-location/prehn-dental-office-102"
"https://www.aspirus.org","Wausau Oral Surgery & Dental Implant Center, SC","3000 Westhill Drive","Wausau","WI","54401","US","103","715- 845-4511","Dental & Oral Care","44.968774","-89.673715","<MISSING>","https://www.aspirus.org/find-a-location/wausau-oral-surgery-dental-implant-center-sc-103"
"https://www.aspirus.org","Aspirus Kidney Care - Antigo","501 Aurora Street","Antigo","WI","54409","US","117","715-623-9777","Dialysis Centers","45.1398218","-89.1394132","Monday-Saturday 6 am-4 pm","https://www.aspirus.org/find-a-location/aspirus-kidney-care-antigo-117"
"https://www.aspirus.org","Aspirus Kidney Care - Medford","111 South Gibson Street","Medford","WI","54451","US","118","715-748-7520","Dialysis Centers","45.1357225","-90.3544686","Mon, Wed, Fri 5 am - 4 pm Tuesday, Thursday, Saturday 5:30 am - 3:30 pm","https://www.aspirus.org/find-a-location/aspirus-kidney-care-medford-118"
"https://www.aspirus.org","Aspirus Wausau Hospital Kidney Care","3000 Westhill Drive","Wausau","WI","54401","US","119","715-847-0019","Dialysis Centers","44.968774","-89.673715","Monday, Wednesday, Friday 5 am - 6:30 pm Tuesday, Thursday, Saturday 5 am - 4 pm","https://www.aspirus.org/find-a-location/aspirus-wausau-hospital-kidney-care-119"
"https://www.aspirus.org","Emergency Department at Aspirus Iron River Hospital","1400 West Ice Lake Road","Iron River","MI","49935","US","126","906-265-0412","Emergency Care","46.0997441","-88.6192244","Walk-in  Monday-Friday 4-8 pm Emergency Department 24/7","https://www.aspirus.org/find-a-location/emergency-department-at-aspirus-iron-river-hospita-126"
"https://www.aspirus.org","Emergency Department at Aspirus Ironwood Hospital","N10561 Grand View Lane","Ironwood","MI","49938","US","127","<MISSING>","Emergency Care","46.4782891","-90.1057004","24/7","https://www.aspirus.org/find-a-location/emergency-department-at-aspirus-ironwood-hospital-127"
"https://www.aspirus.org","Emergency Department at Aspirus Keweenaw Hospital","205 Osceola Street","Laurium","MI","49913","US","128","(906) 337-6500","Emergency Care","47.2386551","-88.4434902","24/7","https://www.aspirus.org/find-a-location/emergency-department-at-aspirus-keweenaw-hospital-128"
"https://www.aspirus.org","Emergency Department at Aspirus Langlade Hospital","112 East Fifth Avenue","Antigo","WI","54409","US","129","715-623-2331","Emergency Care","45.1417251","-89.139442","24/7","https://www.aspirus.org/find-a-location/emergency-department-at-aspirus-langlade-hospital-129"
"https://www.aspirus.org","Emergency Department at Aspirus Medford Hospital","135 South Gibson Street","Medford","WI","18108","US","130","715-748-8100","Emergency Care","45.1359852","-90.3546447","Monday-Sunday 24 hours","https://www.aspirus.org/find-a-location/emergency-department-at-aspirus-medford-hospital-130"
"https://www.aspirus.org","Emergency Department at Aspirus Ontonagon Hospital","601 7th Street","Ontonagon","WI","49953","US","131","906-884-8107","Emergency Care","46.8658501","-89.3031305","<MISSING>","https://www.aspirus.org/find-a-location/emergency-department-at-aspirus-ontonagon-hospital-131"
"https://www.aspirus.org","Emergency Department at Aspirus Riverview Hospital","410 Dewey Street","Wisconsin Rapids","WI","54494","US","132","715-423-6060","Emergency Care","44.3817769","-89.8304877","Always open","https://www.aspirus.org/find-a-location/emergency-department-at-aspirus-riverview-hospital-132"
"https://www.aspirus.org","Emergency Department at Aspirus Stevens Point Hospital","5409 Vern Holmes Drive","Stevens Point","WI","54482","US","133","715-204-1250","Emergency Care","44.4989014","-89.5165085","Open 24/7","https://www.aspirus.org/find-a-location/emergency-department-at-aspirus-stevens-point-hosp-133"
"https://www.aspirus.org","Emergency Department at Aspirus Wausau Hospital","333 Pine Ridge Boulevard","Wausau","WI","54401","US","134","<MISSING>","Emergency Care","44.965982","-89.6677559","<MISSING>","https://www.aspirus.org/find-a-location/emergency-department-at-aspirus-wausau-hospital-134"
"https://www.aspirus.org","Aspirus Eye Center - Ironwood","E6112 Bluff View Road","Ironwood","MI","49938","US","135","906-932-1436","Eye Care","46.47755","-90.1072","Monday-Friday 8 am - 4:30 pm","https://www.aspirus.org/find-a-location/aspirus-eye-center-ironwood-135"
"https://www.aspirus.org","Aspirus Eye Clinic","404 East Sharon Avenue","Houghton","MI","49931","US","136","906-482-5230","Eye Care","47.1127317","-88.5678089","Monday, Wednesday, Thursday, Friday 8:30 am - 4 pm Tuesday","https://www.aspirus.org/find-a-location/aspirus-eye-clinic-136"
"https://www.aspirus.org","Antigo Vision Clinic, S.C.","714 3rd Avenue","Antigo","WI","54409","US","137","715-623-2180","Eye Care","45.143583","-89.152466","<MISSING>","https://www.aspirus.org/find-a-location/antigo-vision-clinic-sc-137"
"https://www.aspirus.org","Central Wisconsin Eye Clinic","400 Dewey Street","Wisconsin Rapids","WI","54495","US","138","715-424-4141","Eye Care","44.3823329","-89.8305786","<MISSING>","https://www.aspirus.org/find-a-location/central-wisconsin-eye-clinic-138"
"https://www.aspirus.org","Dr. Ronald J. Piffl, Optometrist, LLC","1007 E. First Street","Merrill","MI","54452","US","139","715-536-2020","Eye Care","43.1787907","-84.1242282","<MISSING>","https://www.aspirus.org/find-a-location/dr-ronald-j-piffl-optometrist-llc-139"
"https://www.aspirus.org","Envision Eye Care, LLC","515 North 17th Avenue","Wausau","WI","54401","US","140","715-848-4801","Eye Care","44.9684651","-89.6532926","<MISSING>","https://www.aspirus.org/find-a-location/envision-eye-care-llc-140"
"https://www.aspirus.org","Eye Care Associates - Eagle River","141B South Willow Street","Eagle River","WI","54521","US","170","715-479-9390","Eye Care","45.9154673","-89.2551271","<MISSING>","https://www.aspirus.org/find-a-location/eye-care-associates-eagle-river-170"
"https://www.aspirus.org","Eye Care Associates - Park Falls","698 South 4th Avenue","Park Falls","WI","54552","US","171","715-762-2300","Eye Care","45.9253619","-90.4515368","<MISSING>","https://www.aspirus.org/find-a-location/eye-care-associates-park-falls-171"
"https://www.aspirus.org","Eye Care Associates - Woodruff","1020 3rd Avenue","Woodruff","WI","54568","US","172","715-356-2262","Eye Care","45.8947333","-89.6979562","<MISSING>","https://www.aspirus.org/find-a-location/eye-care-associates-woodruff-172"
"https://www.aspirus.org","Eye Clinic of Wisconsin, S.C. - Antigo","109 Highway 64","Antigo","WI","54409","US","141","715-623-6662","Eye Care","45.1620928","-89.1414944","<MISSING>","https://www.aspirus.org/find-a-location/eye-clinic-of-wisconsin-sc-antigo-141"
"https://www.aspirus.org","Eye Clinic of Wisconsin, S.C. - Medford","101 South Gibson Avenue","Medford","WI","54451","US","142","715-748-5775","Eye Care","45.1358933","-90.3546044","<MISSING>","https://www.aspirus.org/find-a-location/eye-clinic-of-wisconsin-sc-medford-142"
"https://www.aspirus.org","Eye Clinic of Wisconsin, S.C. - Merrill","503 S. Central Ave.","Merrill","WI","54452","US","143","715-536-2535","Eye Care","45.531987","-90.0610164","<MISSING>","https://www.aspirus.org/find-a-location/eye-clinic-of-wisconsin-sc-merrill-143"
"https://www.aspirus.org","Eye Clinic of Wisconsin, S.C. - Rhinelander","2 East Ocala Street","Rhinelander","WI","54501","US","144","715-362-2600","Eye Care","45.6285624","-89.4148277","<MISSING>","https://www.aspirus.org/find-a-location/eye-clinic-of-wisconsin-sc-rhinelander-144"
"https://www.aspirus.org","Eye Clinic of Wisconsin, S.C. - Stevens Point","3401 Stanley Street","Stevens Point","WI","54481","US","145","715-344-6544","Eye Care","44.5352987","-89.5512741","<MISSING>","https://www.aspirus.org/find-a-location/eye-clinic-of-wisconsin-sc-stevens-point-145"
"https://www.aspirus.org","Eye Clinic of Wisconsin, S.C. - Wausau","800 North 1st Street","Wausau","WI","54403","US","146","715-261-8500","Eye Care","44.963399","-89.6303137","<MISSING>","https://www.aspirus.org/find-a-location/eye-clinic-of-wisconsin-sc-wausau-146"
"https://www.aspirus.org","Eye Clinic of Wisconsin, S.C. - Wisconsin Rapids","841 Goodnow Avenue","Wisconsin Rapids","WI","54494","US","147","800-472-0033","Eye Care","44.3751176","-89.815939","<MISSING>","https://www.aspirus.org/find-a-location/eye-clinic-of-wisconsin-sc-wisconsin-rapids-147"
"https://www.aspirus.org","EyeCare Center of Marshfield","605 East 4th Street","Marshfield","WI","54449","US","148","715-387-6397","Eye Care","44.6618663","-90.1683368","<MISSING>","https://www.aspirus.org/find-a-location/eyecare-center-of-marshfield-148"
"https://www.aspirus.org","Eyecare Center of Wausau, LLC","205 West Bridge Street","Wausau","WI","54401","US","149","715-848-2020","Eye Care","44.9697699","-89.6390656","<MISSING>","https://www.aspirus.org/find-a-location/eyecare-center-of-wausau-llc-149"
"https://www.aspirus.org","Family Vision Center - Marathon","703 Third Street","Marathon","WI","54448","US","485","715-443-2248","Eye Care","44.931246","-89.8416869","<MISSING>","https://www.aspirus.org/find-a-location/family-vision-center-marathon-485"
"https://www.aspirus.org","Family Vision Center - Wittenberg","601 S Webb Street","Wittenberg","WI","54499","US","486","715-253-2157","Eye Care","44.8219055","-89.1684351","<MISSING>","https://www.aspirus.org/find-a-location/family-vision-center-wittenberg-486"
"https://www.aspirus.org","Healthview Eye Care Center - Colby","120 Dehne Drive","Colby","WI","54421","US","150","715-223-4003","Eye Care","44.9201607","-90.3143392","<MISSING>","https://www.aspirus.org/find-a-location/healthview-eye-care-center-colby-150"
"https://www.aspirus.org","Healthview Eye Care Center - Medford","309 East Broadway","Medford","WI","54451","US","151","715-748-2020","Eye Care","45.1402767","-90.3429492","<MISSING>","https://www.aspirus.org/find-a-location/healthview-eye-care-center-medford-151"
"https://www.aspirus.org","Kathi Leach, OD - Optometrist","412 3rd Street","Mosinee","WI","54455","US","152","715-693-2400","Eye Care","44.7914521","-89.7028627","<MISSING>","https://www.aspirus.org/find-a-location/kathi-leach-od-optometrist-152"
"https://www.aspirus.org","Northern Sight Vision Clinic, LLC","82 Hometown Drrive","Tomahawk","WI","54487","US","468","715-453-3636","Eye Care","45.4987683","-89.7262996","<MISSING>","https://www.aspirus.org/find-a-location/northern-sight-vision-clinic-llc-468"
"https://www.aspirus.org","ReVision Eye Care, LLC","1730 7th St","Wisconsin Rapids","WI","54494","US","155","715-423-5353","Eye Care","44.3791783","-89.8187822","Monday, Wednesday, Friday 8 am - 5 pm Tues., Thurs. 8 am - 6:30 pm","https://www.aspirus.org/find-a-location/revision-eye-care-llc-155"
"https://www.aspirus.org","Rezin Optical, LLC","728 East 2nd Street","Merrill","WI","54452","US","156","715-536-4292","Eye Care","45.1806363","-89.6892013","<MISSING>","https://www.aspirus.org/find-a-location/rezin-optical-llc-156"
"https://www.aspirus.org","Rib Mountain Eye Care","2600 Rib Mountain Drive","Wausau","WI","54401","US","157","715-803-2700","Eye Care","44.9323404","-89.6578868","<MISSING>","https://www.aspirus.org/find-a-location/rib-mountain-eye-care-157"
"https://www.aspirus.org","Shopko Optical-Marshfield","1306 North Central Avenue","Marshfield","WI","54449","US","158","715-387-2504","Eye Care","44.6796614","-90.167349","<MISSING>","https://www.aspirus.org/find-a-location/shopko-opticalmarshfield-158"
"https://www.aspirus.org","Shopko Optical-Plover","1800 Plover Road","Plover","WI","54467","US","159","715-342-9634","Eye Care","44.4564285","-89.5258757","<MISSING>","https://www.aspirus.org/find-a-location/shopko-opticalplover-159"
"https://www.aspirus.org","Shopko Optical-Rhinelander","2185 Lincoln Street","Rhinelander","WI","54501","US","160","715-362-4800","Eye Care","45.6334332","-89.3804179","<MISSING>","https://www.aspirus.org/find-a-location/shopko-opticalrhinelander--160"
"https://www.aspirus.org","Shopko Optical-Rothschild","1039 East Grand Avenue","Rothschild","WI","54474","US","161","715-359-0649","Eye Care","44.8961651","-89.6149545","<MISSING>","https://www.aspirus.org/find-a-location/shopko-opticalrothschild--161"
"https://www.aspirus.org","Shopko Optical-Stevens Point","1200 Main Street","Stevens Point","WI","54481","US","162","715-344-5355","Eye Care","44.5245047","-89.5816992","<MISSING>","https://www.aspirus.org/find-a-location/shopko-opticalstevens-point-162"
"https://www.aspirus.org","Shopko Optical-Wausau","200 South 18th Avenue","Wausau","WI","54401","US","163","715-842-8040","Eye Care","44.9620266","-89.6579603","<MISSING>","https://www.aspirus.org/find-a-location/shopko-opticalwausau--163"
"https://www.aspirus.org","Shopko Optical-WI Rapids","1100 East Riverview Expressway","Wisconsin Rapids","WI","54494","US","164","715-423-1340","Eye Care","44.3779192","-89.8133075","<MISSING>","https://www.aspirus.org/find-a-location/shopko-opticalwi-rapids--164"
"https://www.aspirus.org","Silverman Chiropractic","1501 East Main Street","Merrill","WI","54452","US","165","715-536-1444","Eye Care","45.180508","-89.6786561","<MISSING>","https://www.aspirus.org/find-a-location/silverman-chiropractic-165"
"https://www.aspirus.org","Stewart Optical, LLC","2100 Stewart Avenue","Wausau","WI","54401","US","166","715-845-1988","Eye Care","44.959197","-89.6627376","Monday  Thursday 10 am-8 pm Tuesday, Wednesday, Friday 10 am-5:30 pm","https://www.aspirus.org/find-a-location/stewart-optical-llc-166"
"https://www.aspirus.org","Stine Eye Center","4009 Community Center Drive","Weston","WI","54476","US","167","715-241-2020","Eye Care","44.8977522","-89.5734153","<MISSING>","https://www.aspirus.org/find-a-location/stine-eye-center-167"
"https://www.aspirus.org","Aspirus Health & Performance Center","112 East 5th Avenue","Antigo","WI","54409","US","195","715-623-9924","Fitness Centers","45.1417251","-89.139442","Monday-Friday  6 am - 8 pm Weekends  8 am - 11 am Secure Access 24/7","https://www.aspirus.org/find-a-location/aspirus-health-performance-center-195"
"https://www.aspirus.org","Aspirus Keweenaw Outpatient Therapies & Fitness Center","25680 Copper King Way","Calumet","MI","49913","US","198","906-337-7000","Fitness Centers","47.2363615","-88.4433327","Monday, Tuesday, Wednesday, Thursday 5:15 am - 9 pm Friday 5:15 am - 8 pm Saturday 8 am - 4 pm Sunday Noon - 4 pm","https://www.aspirus.org/find-a-location/aspirus-keweenaw-outpatient-therapies-fitness-cent-198"
"https://www.aspirus.org","Aspirus Therapy & Fitness - Medford","103 South Gibson Street","Medford","WI","54451","US","197","715-748-8112","Fitness Centers","45.1360585","-90.3545558","Monday-Friday 7 am - 5:30 pm Fitness Center  Monday-Friday 5 am - 9 pm Saturday  Sunday 7 am - 2 pm Holidays Closed","https://www.aspirus.org/find-a-location/aspirus-therapy-fitness-medford-197"
"https://www.aspirus.org","Aspirus YMCA","3402 Howland Avenue","Weston","WI","54476","US","196","715-841-1850","Fitness Centers","44.8663438","-89.5796609","<MISSING>","https://www.aspirus.org/find-a-location/aspirus-ymca-196"
"https://www.aspirus.org","Aspirus At Home - Medical Equipment","5450 West Stewart Avenue","Wausau","WI","54401","US","217","715-847-2545","Home Medical Equipment Stores","44.9562506","-89.7049","Monday-Friday 8:30 am - 5 pm","https://www.aspirus.org/find-a-location/aspirus-at-home-medical-equipment-217"
"https://www.aspirus.org","Aspirus Keweenaw Home Medical Equipment","54 2nd Street","Laurium","MI","49913","US","218","906-337-6557","Home Medical Equipment Stores","47.2387211","-88.4417258","Monday-Friday 8 am - 4 pm","https://www.aspirus.org/find-a-location/aspirus-keweenaw-home-medical-equipment-218"
"https://www.aspirus.org","Aspirus At Home - Michigan","1101 Elevation Street","Hancock","MI","49930","US","449","906-337-5700","Hospices","47.2466876","-88.4537504","Monday - Friday 8:00 am - 4:30 pm EST","https://www.aspirus.org/find-a-location/aspirus-at-home-michigan-449"
"https://www.aspirus.org","Aspirus Comfort Care and Hospice Services","520 North 32nd Avenue","Wausau","WI","54401","US","219","715-847-2424","Hospices","44.969564","-89.6765068","<MISSING>","https://www.aspirus.org/find-a-location/aspirus-comfort-care-and-hospice-services-219"
"https://www.aspirus.org","Aspirus Hospice House","530 N. 32nd Avenue","Wausau","WI","54401","US","436","715-847-2424","Hospices","44.9694489","-89.6781682","<MISSING>","https://www.aspirus.org/find-a-location/aspirus-hospice-house-436"
"https://www.aspirus.org","LeRoyer Hospice Services","112 E. Fifth Street","Antigo","WI","54409","US","220","715-623-2331","Hospices","45.1417251","-89.139442","Monday - Friday 8:00 am - 4:30 pm Hospice Nurse On-Call Everyday 24/7","https://www.aspirus.org/find-a-location/leroyer-hospice-services-220"
"https://www.aspirus.org","Aspirus Iron River Hospital","1400 West Ice Lake Road","Iron River","MI","49935","US","9","906-265-6121","Hospitals","46.0997441","-88.6192244","11 am - 8 pm Emergency 24/7 Gift Shop Monday-Friday 9 am-4 pm","https://www.aspirus.org/find-a-location/aspirus-iron-river-hospital-9"
"https://www.aspirus.org","Aspirus Ironwood Hospital","N10561 Grand View Lane","Ironwood","MI","49938","US","28","906-932-2525","Hospitals","46.4782891","-90.1057004","<MISSING>","https://www.aspirus.org/find-a-location/aspirus-ironwood-hospital-28"
"https://www.aspirus.org","Aspirus Keweenaw Hospital","205 Osceola Street","Laurium","MI","49913","US","26","906-337-6500","Hospitals","47.2386551","-88.4434902","<MISSING>","https://www.aspirus.org/find-a-location/aspirus-keweenaw-hospital-26"
"https://www.aspirus.org","Aspirus Langlade Hospital","112 East Fifth Avenue","Antigo","WI","54409","US","283","715-623-2331","Hospitals","45.1416889","-89.1396133","<MISSING>","https://www.aspirus.org/find-a-location/aspirus-langlade-hospital-283"
"https://www.aspirus.org","Aspirus Medford Hospital","135 South Gibson Street","Medford","WI","54451","US","25","715-748-8100","Hospitals","45.1359852","-90.3546447","Emergency Room Everyday 24/7 Main Entry  Monday - Friday 6:00 am - 9:00 pm Saturday and Sunday 8:00 am - 4:00 pm Holidays 8:00 am - 1:00 pm","https://www.aspirus.org/find-a-location/aspirus-medford-hospital-25"
"https://www.aspirus.org","Aspirus Ontonagon Hospital","601 7th Street","Ontonagon","MI","49953","US","438","906-884-8000","Hospitals","46.8658501","-89.3031305","<MISSING>","https://www.aspirus.org/find-a-location/aspirus-ontonagon-hospital-438"
"https://www.aspirus.org","Aspirus Riverview Hospital","410 Dewey Street","Wisconsin Rapids","WI","54494","US","437","715-423-6060","Hospitals","44.3817769","-89.8304877","Daily 11 am to 8 pm  Daily, 10 am to 8 pm","https://www.aspirus.org/find-a-location/aspirus-riverview-hospital-437"
"https://www.aspirus.org","Aspirus Stevens Point Hospital","5409 Vern Holmes Drive","Stevens Point","WI","54482","US","487","(715) 344-1600","Hospitals","44.4989014","-89.5165085","<MISSING>","https://www.aspirus.org/find-a-location/aspirus-stevens-point-hospital-487"
"https://www.aspirus.org","Aspirus Wausau Hospital","333 Pine Ridge Boulevard","Wausau","WI","54401","US","285","715-847-2121","Hospitals","44.965982","-89.6677559","Monday-Friday 7:45 am- 5:15 pm Registration - Weekdays Monday: 7:30 am-8:30 pm Friday: 7:30 am-6:30 pm Registration - Weekends Saturday: 7 am-2 pm Sunday: 9 am-2 pm","https://www.aspirus.org/find-a-location/aspirus-wausau-hospital-285"
"https://www.aspirus.org","Divine Savior Healthcare","2817 New Pinery Rd","Portage","WI","53901","US","488","608-742-4131","Hospitals","43.5671155","-89.4663678","<MISSING>","https://www.aspirus.org/find-a-location/divine-savior-healthcare-488"
"https://www.aspirus.org","Aspirus Riverview Behavioral Health","420 Dewey Street","Wisconsin Rapids","WI","54494","US","451","715-422-9319","Mental Health Treatment & Counseling","44.3817334","-89.8303048","<MISSING>","https://www.aspirus.org/find-a-location/aspirus-riverview-behavioral-health--451"
"https://www.aspirus.org","Achieve Center","520 N. 28th Avenue","Wausau","WI","54401","US","244","715-845-4900","Mental Health Treatment & Counseling","44.958777","-89.6687636","Monday-Thursday 9 am-5 pm Friday 8 am-Noon Evenings By appointment","https://www.aspirus.org/find-a-location/achieve-center-244"
"https://www.aspirus.org","Affiliated Family Psychiatry of Wausau, S.C.","2600 Stewart Avenue","Wausau","WI","54401","US","292","715-842-8600","Mental Health Treatment & Counseling","44.958777","-89.6687636","Monday, Tuesday, Thursday 9 am-5 pm","https://www.aspirus.org/find-a-location/affiliated-family-psychiatry-of-wausau-sc-292"
"https://www.aspirus.org","Alliance Health, LLC","2417 Post Road","Stevens Point","WI","54481","US","299","715-690-1272","Mental Health Treatment & Counseling","44.4901247","-89.552239","<MISSING>","https://www.aspirus.org/find-a-location/alliance-health-llc-299"
"https://www.aspirus.org","Behavioral Health Clinic, LLC","630 S. 36th Avenue","Wausau","WI","54401","US","296","715-842-9500","Mental Health Treatment & Counseling","44.9562986","-89.6819514","<MISSING>","https://www.aspirus.org/find-a-location/behavioral-health-clinic-llc-296"
"https://www.aspirus.org","Behavioral Health Clinic, LLC - Plover","1840 Post Road","Plover","WI","54467","US","297","715-842-9500","Mental Health Treatment & Counseling","44.4702937","-89.5464464","<MISSING>","https://www.aspirus.org/find-a-location/behavioral-health-clinic-llc-plover-297"
"https://www.aspirus.org","Benson, Steven A., Ph.D, LLC","500 3rd Street","Wausau","WI","54403","US","301","715-848-0002","Mental Health Treatment & Counseling","44.9611327","-89.6284748","<MISSING>","https://www.aspirus.org/find-a-location/benson-steven-a-phd-llc-301"
"https://www.aspirus.org","Caring Tree Children's Counseling Center","501 Division Street","Rhinelander","WI","54501","US","282","715-369-7300","Mental Health Treatment & Counseling","45.6366228","-89.4120753","<MISSING>","https://www.aspirus.org/find-a-location/caring-tree-childrens-counseling-center-282"
"https://www.aspirus.org","Center for Human Development - Marshfield","243 S. Central Avenue","Marshfield","WI","54449","US","247","715-842-0944","Mental Health Treatment & Counseling","44.6650919","-90.1744425","<MISSING>","https://www.aspirus.org/find-a-location/center-for-human-development-marshfield-247"
"https://www.aspirus.org","Center for Human Development - Stevens Point","4217 Post Road","Stevens Point","WI","54481","US","248","715-842-0944","Mental Health Treatment & Counseling","44.4779616","-89.5483408","<MISSING>","https://www.aspirus.org/find-a-location/center-for-human-development-stevens-point-248"
"https://www.aspirus.org","Center for Human Development - Tomahawk","1509 N. 4th Street","Tomahawk","WI","54487-2142","US","249","715-842-0944","Mental Health Treatment & Counseling","45.4901702","-89.7302811","<MISSING>","https://www.aspirus.org/find-a-location/center-for-human-development-tomahawk-249"
"https://www.aspirus.org","Center for Human Development - Wausau","631 Forest Street","Wausau","WI","54403","US","250","715-842-0944","Mental Health Treatment & Counseling","44.9566998","-89.6219644","Monday-Friday 8 am-6 pm Evenings By appointment","https://www.aspirus.org/find-a-location/center-for-human-development-wausau-250"
"https://www.aspirus.org","Central Wisconsin Counseling Associates, Inc. - Stevens Point","2925 Post Road","Stevens Point","WI","54481-2652","US","278","715-424-6960","Mental Health Treatment & Counseling","44.4853047","-89.5509056","<MISSING>","https://www.aspirus.org/find-a-location/central-wisconsin-counseling-associates-inc-steven-278"
"https://www.aspirus.org","Central Wisconsin Counseling Associates, Inc. - Wisconsin Rapids","320 West Grand Ave","Wisconsin Rapids","MI","54495","US","277","<MISSING>","Mental Health Treatment & Counseling","44.3937734","-89.8287726","<MISSING>","https://www.aspirus.org/find-a-location/central-wisconsin-counseling-associates-inc-wiscon-277"
"https://www.aspirus.org","Central Wisconsin Psychological Services, LLC","712 East 2nd Street","Merrill","WI","54452","US","251","715-539-8080","Mental Health Treatment & Counseling","45.1805426","-89.6899378","<MISSING>","https://www.aspirus.org/find-a-location/central-wisconsin-psychological-services-llc-251"
"https://www.aspirus.org","Centre for Well Being, Inc.  - Merrill","607 Cedar Street","Merrill","WI","54452","US","252","715-848-5022","Mental Health Treatment & Counseling","45.1857314","-89.6808574","<MISSING>","https://www.aspirus.org/find-a-location/centre-for-well-being-inc-merrill-252"
"https://www.aspirus.org","Centre for Well-Being, Inc.","901 N. 6th Street","Wausau","WI","54403","US","253","715-848-5022","Mental Health Treatment & Counseling","44.9640859","-89.6229392","<MISSING>","https://www.aspirus.org/find-a-location/centre-for-wellbeing-inc-253"
"https://www.aspirus.org","Centre for Well-Being, Inc. - Rhinelander","310A North Brown Street","Rhinelander","WI","54501","US","254","715-848-5022","Mental Health Treatment & Counseling","45.641623","-89.4124434","t Monday-Friday 8 am-5 pm","https://www.aspirus.org/find-a-location/centre-for-wellbeing-inc-rhinelander-254"
"https://www.aspirus.org","Centre for Well-Being, Inc. - Weston","4601 Camp Phillips Rd","Weston","WI","54476","US","476","715-848-5022","Mental Health Treatment & Counseling","44.916377","-89.571276","<MISSING>","https://www.aspirus.org/find-a-location/centre-for-wellbeing-inc-weston-476"
"https://www.aspirus.org","Charis Counseling, LLC - Marshfield","101 West McMillan Street","Marshfield","WI","54449","US","255","715-389-9382","Mental Health Treatment & Counseling","44.6857038","-90.1611761","Monday-Friday 8 am-5 pm Evenings By appointment","https://www.aspirus.org/find-a-location/charis-counseling-llc-marshfield-255"
"https://www.aspirus.org","Charis Counseling, LLC - Wausau","2620 West Stewart Avenue","Wausau","WI","54401","US","256","715-848-0525","Mental Health Treatment & Counseling","44.9578237","-89.6696096","<MISSING>","https://www.aspirus.org/find-a-location/charis-counseling-llc-wausau-256"
"https://www.aspirus.org","Child and Adolescent Psychiatry Consulting, LLC","2001 S Central Ave","Marshfield","WI","54449","US","293","715- 384-2818","Mental Health Treatment & Counseling","44.6491853","-90.1811812","<MISSING>","https://www.aspirus.org/find-a-location/child-and-adolescent-psychiatry-consulting-llc-293"
"https://www.aspirus.org","Child and Adolescent Psychiatry Consulting, LLC - Wisconsin Rapids","3930 8th St So","Wisconsin Rapids","WI","54494","US","469","715-423-2030","Mental Health Treatment & Counseling","44.3592188","-89.8175561","<MISSING>","https://www.aspirus.org/find-a-location/child-and-adolescent-psychiatry-consulting-llc-wis-469"
"https://www.aspirus.org","Clark County Community Services","517 Court Street","Neillsville","WI","54456","US","302","715-743-5208","Mental Health Treatment & Counseling","44.5604982","-90.593704","<MISSING>","https://www.aspirus.org/find-a-location/clark-county-community-services-302"
"https://www.aspirus.org","Clinical Services","420 3rd Street South","Wisconsin Rapids","WI","54495","US","257","715-424-3400","Mental Health Treatment & Counseling","44.3894328","-89.8260832","<MISSING>","https://www.aspirus.org/find-a-location/clinical-services-257"
"https://www.aspirus.org","Compass Counseling Wausau, LLC","530 Grant St.","Wausau","WI","54403-4738","US","303","715- 845-5493","Mental Health Treatment & Counseling","44.9623509","-89.6234206","<MISSING>","https://www.aspirus.org/find-a-location/compass-counseling-wausau-llc-303"
"https://www.aspirus.org","Compass Counseling Wausau, LLC - Antigo","836 South Superior Street","Antigo","WI","54409","US","258","715-845-5493","Mental Health Treatment & Counseling","45.124816","-89.1542283","<MISSING>","https://www.aspirus.org/find-a-location/compass-counseling-wausau-llc-antigo-258"
"https://www.aspirus.org","Compass Counseling Wausau, LLC - Schofield","718 Grand Ave.","Schofield","WI","54476","US","483","715-679-3389","Mental Health Treatment & Counseling","44.9224581","-89.6135766","<MISSING>","https://www.aspirus.org/find-a-location/compass-counseling-wausau-llc-schofield-483"
"https://www.aspirus.org","Compass Counseling Wausau, LLC - Stevens Point","1004 First Street","Stevens Point","WI","54481-2652","US","259","715-544-1004","Mental Health Treatment & Counseling","44.5260867","-89.5870769","<MISSING>","https://www.aspirus.org/find-a-location/compass-counseling-wausau-llc-stevens-point-259"
"https://www.aspirus.org","Compass Counseling Wausau, LLC - Weston","3704 Weston Ave.","Weston","WI","54476-5242","US","260","715-845-5493","Mental Health Treatment & Counseling","44.8876483","-89.5761038","<MISSING>","https://www.aspirus.org/find-a-location/compass-counseling-wausau-llc-weston-260"
"https://www.aspirus.org","Compass Counseling Wausau, LLC - Wis. Rapids","2811 8th Street South","Wisconsin Rapids","WI","54494","US","261","715-712-1523","Mental Health Treatment & Counseling","44.369243","-89.8164764","<MISSING>","https://www.aspirus.org/find-a-location/compass-counseling-wausau-llc-wis-rapids-261"
"https://www.aspirus.org","Connie O'Heron, Ph.D. - Pine Ridge Blvd","333 Pine Ridge Boulevard","Wausau","WI","54401","US","304","715-847-0450","Mental Health Treatment & Counseling","44.965982","-89.6677559","<MISSING>","https://www.aspirus.org/find-a-location/connie-oheron-phd-pine-ridge-blvd-304"
"https://www.aspirus.org","Connie O'Heron, Ph.D. - Stewart Avenue","2620 West Stewart Avenue","Wausau","WI","54401","US","305","715-843-0803","Mental Health Treatment & Counseling","44.9578237","-89.6696096","<MISSING>","https://www.aspirus.org/find-a-location/connie-oheron-phd-stewart-avenue-305"
"https://www.aspirus.org","Counseling Connection of Medford, LLC","429 West Broadway Ave","Medford","WI","54451","US","262","715-748-4312","Mental Health Treatment & Counseling","45.1373258","-90.3521472","Monday-Friday 9 am-5 pm Evenings By appointment","https://www.aspirus.org/find-a-location/counseling-connection-of-medford-llc-262"
"https://www.aspirus.org","Dix and Gillette Counseling Services, LLP","1720 Merrill Avenue","Wausau","WI","54401","US","263","715-675-3888","Mental Health Treatment & Counseling","44.9841353","-89.652778","<MISSING>","https://www.aspirus.org/find-a-location/dix-and-gillette-counseling-services-llp-263"
"https://www.aspirus.org","Elmergreen Associates, Inc. - 3rd Street","408 3rd Street","Wausau","WI","54403","US","307","715-845-7175","Mental Health Treatment & Counseling","44.9601109","-89.6281806","<MISSING>","https://www.aspirus.org/find-a-location/elmergreen-associates-inc-3rd-street-307"
"https://www.aspirus.org","Elmergreen Associates, Inc. - Grand Avenue","114 Grand Avenue","Wausau","WI","54403","US","308","715-845-7175","Mental Health Treatment & Counseling","44.9564469","-89.6248332","<MISSING>","https://www.aspirus.org/find-a-location/elmergreen-associates-inc-grand-avenue-308"
"https://www.aspirus.org","Evans Counseling, LLC","2714 Stewart Avenue","Wausau","WI","54401","US","309","715-849-3988","Mental Health Treatment & Counseling","44.9576877","-89.6703067","<MISSING>","https://www.aspirus.org/find-a-location/evans-counseling-llc-309"
"https://www.aspirus.org","Evolve Counseling, LLC","2600 Rib Mountain Drive","Wausau","WI","54401","US","264","715-298-6201","Mental Health Treatment & Counseling","44.9323404","-89.6578868","<MISSING>","https://www.aspirus.org/find-a-location/evolve-counseling-llc-264"
"https://www.aspirus.org","Homme Home of Wittenberg","604 S. Webb Street","Stevens Point","WI","54481","US","279","715-424-6960","Mental Health Treatment & Counseling","44.822017","-89.167538","<MISSING>","https://www.aspirus.org/find-a-location/homme-home-of-wittenberg-279"
"https://www.aspirus.org","Juan B. Lopez, M.D.","106 McDill Avenue","Stevens Point","WI","54481","US","266","715-344-2004","Mental Health Treatment & Counseling","44.4931","-89.5522","<MISSING>","https://www.aspirus.org/find-a-location/juan-b-lopez-md-266"
"https://www.aspirus.org","Katherine A. Hamilton Wright, Ph.D., LLC","2600 Rib Mountain Drive","Wausau","WI","54401","US","310","715-845-6949","Mental Health Treatment & Counseling","44.9323404","-89.6578868","<MISSING>","https://www.aspirus.org/find-a-location/katherine-a-hamilton-wright-phd-llc-310"
"https://www.aspirus.org","Koinonia Residential Treatment Center","1991 Winnebago Street","Rhinelander","WI","54501","US","281","715-369-7300","Mental Health Treatment & Counseling","45.6485591","-89.3827905","<MISSING>","https://www.aspirus.org/find-a-location/koinonia-residential-treatment-center-281"
"https://www.aspirus.org","Maley & Stromberg Eye Care - Phillips","104A North Argyle Avenue","Phillips","WI","54555","US","267","715-339-2040","Mental Health Treatment & Counseling","45.687926","-90.399351","<MISSING>","https://www.aspirus.org/find-a-location/maley-stromberg-eye-care-phillips-267"
"https://www.aspirus.org","Maley & Stromberg Eye Care - Tomahawk","318 North 6th Street","Tomahawk","WI","54487","US","268","715-453-3636","Mental Health Treatment & Counseling","45.4742046","-89.7262488","<MISSING>","https://www.aspirus.org/find-a-location/maley-stromberg-eye-care-tomahawk-268"
"https://www.aspirus.org","Mount View Care Center","2400 Marshall Street","Wausau","WI","54403","US","269","715-848-4300","Mental Health Treatment & Counseling","44.9326938","-89.6333313","<MISSING>","https://www.aspirus.org/find-a-location/mount-view-care-center-269"
"https://www.aspirus.org","North Central Health Care","1100 Lakeview Drive","Wausau","WI","54403","US","312","715-848-4600","Mental Health Treatment & Counseling","44.9315472","-89.6335915","<MISSING>","https://www.aspirus.org/find-a-location/north-central-health-care-312"
"https://www.aspirus.org","North Central Health Care - Antigo Behavioral Health","1225 Langlade Road","Antigo","WI","54409","US","313","715-627-6694","Mental Health Treatment & Counseling","45.148428","-89.133558","<MISSING>","https://www.aspirus.org/find-a-location/north-central-health-care-antigo-behavioral-health-313"
"https://www.aspirus.org","North Central Health Care - Merrill Behavioral Health","607 North Sales Street","Merrill","WI","54452","US","314","715-536-9482","Mental Health Treatment & Counseling","45.1849713","-89.6727771","<MISSING>","https://www.aspirus.org/find-a-location/north-central-health-care-merrill-behavioral-healt-314"
"https://www.aspirus.org","North Central Health Care - Tomahawk Behavioral Health","310 West Wisconsin","Tomahawk","WI","54487","US","315","715-453-5381","Mental Health Treatment & Counseling","45.4712417","-89.7340574","<MISSING>","https://www.aspirus.org/find-a-location/north-central-health-care-tomahawk-behavioral-heal-315"
"https://www.aspirus.org","Options Counseling Services, LLC","158 S Anderson St","Rhinelander","WI","54501","US","280","715-253-2125","Mental Health Treatment & Counseling","45.6354911","-89.4121912","<MISSING>","https://www.aspirus.org/find-a-location/options-counseling-services-llc-280"
"https://www.aspirus.org","Oswald Counseling Associates Inc.","2450 Vineyard Drive","Plover","WI","54467","US","270","715-342-0290","Mental Health Treatment & Counseling","44.4530008","-89.5394248","<MISSING>","https://www.aspirus.org/find-a-location/oswald-counseling-associates-inc-270"
"https://www.aspirus.org","Park and Associates, S.C.","410 Dewey St","Wisconsin Rapids","WI","54495","US","271","715-423-9170","Mental Health Treatment & Counseling","44.3817334","-89.8303048","<MISSING>","https://www.aspirus.org/find-a-location/park-and-associates-sc-271"
"https://www.aspirus.org","Peaceful Pines Healing Practices, LLC","1840 Post Road","Plover","WI","54467","US","272","920-229-3929","Mental Health Treatment & Counseling","44.4702937","-89.5464464","<MISSING>","https://www.aspirus.org/find-a-location/peaceful-pines-healing-practices-llc-272"
"https://www.aspirus.org","Peaceful Solutions Counseling","1720 Merrill Avenue","Wausau","WI","54401","US","273","715-675-3458","Mental Health Treatment & Counseling","44.9841353","-89.652778","<MISSING>","https://www.aspirus.org/find-a-location/peaceful-solutions-counseling-273"
"https://www.aspirus.org","Skylight Autism Center, LLC","7505 Gusman Rd","Schofield","WI","54476","US","274","715-571-1566","Mental Health Treatment & Counseling","44.915675","-89.526957","<MISSING>","https://www.aspirus.org/find-a-location/skylight-autism-center-llc-274"
"https://www.aspirus.org","True North Counseling, LLC","500 3rd Street","Wausau","WI","54403","US","275","715-370-8863","Mental Health Treatment & Counseling","44.9611327","-89.6284748","<MISSING>","https://www.aspirus.org/find-a-location/true-north-counseling-llc-275"
"https://www.aspirus.org","Wetzel-Rasmussen Counseling Services","N11230 Antigo Street","Elcho","WI","54428","US","276","715-275-3934","Mental Health Treatment & Counseling","45.432798","-89.183823","<MISSING>","https://www.aspirus.org/find-a-location/wetzelrasmussen-counseling-services-276"
"https://www.aspirus.org","Wood County Human Services","111 W Jackson Street","Wisconsin Rapids","WI","54494","US","294","715-421-8840","Mental Health Treatment & Counseling","44.392885","-89.8270163","<MISSING>","https://www.aspirus.org/find-a-location/wood-county-human-services-294"
"https://www.aspirus.org","Wood County Human Services - AODA","111 W Jackson Street","Wisconsin Rapids","WI","54494","US","295","715-421-8844","Mental Health Treatment & Counseling","44.392885","-89.8270163","<MISSING>","https://www.aspirus.org/find-a-location/wood-county-human-services-aoda-295"
"https://www.aspirus.org","Aspirus Business Health - Medford","103 South Gibson Street","Medford","WI","54451","US","31","715-748-8128","Occupational Health Clinics","45.1360585","-90.3545558","Monday-Friday 8 am - 4:30 pm","https://www.aspirus.org/find-a-location/aspirus-business-health-medford-31"
"https://www.aspirus.org","Aspirus Business Health - Wausau","425 Wind Ridge Drive","Wausau","WI","54401","US","32","715-847-2812","Occupational Health Clinics","44.9686703","-89.6609737","Monday-Friday 8 am - 4:30 pm","https://www.aspirus.org/find-a-location/aspirus-business-health-wausau-32"
"https://www.aspirus.org","Business Health at Aspirus Antigo Clinic","112 East Fifth Ave.","Antigo","WI","54409","US","33","715-623-9464","Occupational Health Clinics","45.1417251","-89.139442","Monday-Friday 7 am - 5 pm","https://www.aspirus.org/find-a-location/business-health-at-aspirus-antigo-clinic-33"
"https://www.aspirus.org","Business Health at Aspirus Hurley Clinic","501 Granite Street","Hurley","WI","54534","US","34","906-932-7629","Occupational Health Clinics","46.4493318","-90.1863612","Monday-Friday 8 am - 4 pm","https://www.aspirus.org/find-a-location/business-health-at-aspirus-hurley-clinic-34"
"https://www.aspirus.org","Business Health at Aspirus Rhinelander Clinic","2275 N Shore Drive","Rhinelander","WI","54501","US","35","715-361-5482","Occupational Health Clinics","45.6376479","-89.3731876","Monday-Friday 8 am - 4:30 pm","https://www.aspirus.org/find-a-location/business-health-at-aspirus-rhinelander-clinic-35"
"https://www.aspirus.org","Business Health at Aspirus Riverview Hospital","410 Dewey Street","Wisconsin Rapids","WI","54494","US","36","715-421-7960","Occupational Health Clinics","44.3817769","-89.8304877","Monday-Friday 7:30 am - 4 pm","https://www.aspirus.org/find-a-location/business-health-at-aspirus-riverview-hospital-36"
"https://www.aspirus.org","Business Health at Aspirus Stevens Point Campus","5409 Vern Holmes Drive","Stevens Point","WI","54482","US","37","715-342-1185","Occupational Health Clinics","44.4989014","-89.5165085","Monday-Friday 7:30 am - 4 pm","https://www.aspirus.org/find-a-location/business-health-at-aspirus-stevens-point-campus-37"
"https://www.aspirus.org","Business Health at Aspirus Weston Clinic","4005 Community Center Drive","Weston","WI","54476","US","38","715-847-2812","Occupational Health Clinics","44.8971935","-89.5734466","Monday-Friday 7:30 am - 4 pm","https://www.aspirus.org/find-a-location/business-health-at-aspirus-weston-clinic-38"
"https://www.aspirus.org","Aspirus Houghton Pharmacy","1000 Cedar Street","Houghton","MI","49931","US","333","906-231-8009","Pharmacies","47.1310545","-88.6026828","Monday-Friday 8:30 am - 5 pm Weekends  Holidays Closed","https://www.aspirus.org/find-a-location/aspirus-houghton-pharmacy-333"
"https://www.aspirus.org","Aspirus Keweenaw Pharmacy","205 Osceola Street","Laurium","MI","49913","US","334","906-337-6575","Pharmacies","47.2386551","-88.4434902","Monday-Friday 8:30 am - 6 pm Saturdays 9 am - 1 pm Sundays  Holidays Closed","https://www.aspirus.org/find-a-location/aspirus-keweenaw-pharmacy-334"
"https://www.aspirus.org","Aspirus Pharmacy - Medford","139 South Gibson Street","Medford","WI","54451","US","335","715-748-5800","Pharmacies","45.1358408","-90.3542445","Monday-Friday: 8 am - 6:30 pm Saturday: 9 am - Noon Closed Sundays/Holidays Prescription refills are accepted 24/7","https://www.aspirus.org/find-a-location/aspirus-pharmacy-medford-335"
"https://www.aspirus.org","Aspirus Pharmacy - Wausau","425 Pine Ridge Blvd.","Wausau","WI","54401","US","336","715-847-2547","Pharmacies","44.9659821","-89.6678126","Monday-Friday 8 am - 7 pm Saturday 9 am - 4 pm Sundays  Holidays Closed","https://www.aspirus.org/find-a-location/aspirus-pharmacy-wausau-336"
"https://www.aspirus.org","Aspirus Ironwood Hospital Sleep Lab","N10561 Grand View Lane","Ironwood","MI","49938","US","395","906-932-2525","Sleep Centers","46.4782891","-90.1057004","<MISSING>","https://www.aspirus.org/find-a-location/aspirus-ironwood-hospital-sleep-lab-395"
"https://www.aspirus.org","Aspirus Keweenaw Sleep Lab","205 Osceola Street","Laurium","MI","49913","US","396","906-337-6560","Sleep Centers","47.2386551","-88.4434902","<MISSING>","https://www.aspirus.org/find-a-location/aspirus-keweenaw-sleep-lab-396"
"https://www.aspirus.org","Aspirus Langlade Hospital Sleep Lab","112 East Fifth Avenue","Antigo","WI","54410","US","397","715-847-2302","Sleep Centers","45.1416889","-89.1396133","<MISSING>","https://www.aspirus.org/find-a-location/aspirus-langlade-hospital-sleep-lab-397"
"https://www.aspirus.org","Aspirus Medford Hospital Sleep Lab","135 South Gibson Street","Medford","WI","54451","US","398","715-847-2480","Sleep Centers","45.1359852","-90.3546447","<MISSING>","https://www.aspirus.org/find-a-location/aspirus-medford-hospital-sleep-lab-398"
"https://www.aspirus.org","Aspirus Pulmonary & Critical Care - Rhinelander - Sleep","2275 North Shore Drive","Rhinelander","WI","54501","US","383","715-847-2480","Sleep Centers","45.6376479","-89.3731876","<MISSING>","https://www.aspirus.org/find-a-location/aspirus-pulmonary-critical-care-rhinelander-sleep-383"
"https://www.aspirus.org","Aspirus Regional Sleep Disorders Center","333 Pine Ridge Boulevard","Wausau","WI","54401","US","399","715-847-2302","Sleep Centers","44.965982","-89.6677559","<MISSING>","https://www.aspirus.org/find-a-location/aspirus-regional-sleep-disorders-center-399"
"https://www.aspirus.org","Aspirus Riverview Sleep Lab","410 Dewey Street","Wisconsin Rapids","WI","54494","US","400","715-421-7575","Sleep Centers","44.3817769","-89.8304877","<MISSING>","https://www.aspirus.org/find-a-location/aspirus-riverview-sleep-lab-400"
"https://www.aspirus.org","Aspirus Stevens Point Surgery Department","5409 Vern Holmes Drive","Stevens Point","WI","54482","US","414","715-342-1015","Surgery Centers","44.4989014","-89.5165085","<MISSING>","https://www.aspirus.org/find-a-location/aspirus-stevens-point-surgery-department-414"
"https://www.aspirus.org","Northwoods Surgery Center","611 Veterans Parkway","Woodruff","WI","54568","US","415","715-358-8600","Surgery Centers","45.8957523","-89.6902187","<MISSING>","https://www.aspirus.org/find-a-location/northwoods-surgery-center-415"
"https://www.aspirus.org","Pine Ridge Surgery Center","2500 Pine Ridge Blvd.","Wausau","WI","54401","US","416","715-843-1019","Surgery Centers","44.9691267","-89.6674409","<MISSING>","https://www.aspirus.org/find-a-location/pine-ridge-surgery-center-416"
"https://www.aspirus.org","Wausau Surgery Center, LLC","2809 Westhill Drive","Wausau","WI","54401","US","417","715-842-4490","Surgery Centers","44.9673909","-89.6722906","<MISSING>","https://www.aspirus.org/find-a-location/wausau-surgery-center-llc-417"
"https://www.aspirus.org","Surgery Center of Wisconsin Rapids, LLC","140 24th Street South","Wisconsin Rapids","WI","54495","US","418","715-424-1881","Surgery Centers","44.388179","-89.798347","<MISSING>","https://www.aspirus.org/find-a-location/surgery-center-of-wisconsin-rapids-llc-418"
"https://www.aspirus.org","Aspirus Ironwood Outpatient Therapies","N10565 Grand View Lane","Ironwood","MI","49938","US","460","(906) 932-5990","Therapy & Rehab","47.1060898","-88.5853608","Monday-Thursday 7 am - 6 pm Friday 7 am - Noon","https://www.aspirus.org/find-a-location/aspirus-ironwood-outpatient-therapies-460"
"https://www.aspirus.org","Aspirus Keweenaw Outpatient Therapies","1000 Cedar Street","Houghton","MI","49931","US","319","906-487-1710","Therapy & Rehab","47.1060898","-88.5853608","Monday-Thursday 7 am - 6 pm Friday 7 am - 5 pm","https://www.aspirus.org/find-a-location/aspirus-keweenaw-outpatient-therapies-319"
"https://www.aspirus.org","Aspirus Langlade Health and Rehabilitation","112 East Fifth Avenue","Antigo","WI","54409","US","39","715-623-9449","Therapy & Rehab","45.1416889","-89.1396133","Monday - Friday 7:00 am - 5:30 pm","https://www.aspirus.org/find-a-location/aspirus-langlade-health-and-rehabilitation-39"
"https://www.aspirus.org","Aspirus Outpatient Therapy Services","3200 Westhill Drive","Wausau","WI","54401","US","213","715-847-2827","Therapy & Rehab","44.9682533","-89.6767069","Monday-Friday 8 am - 5 pm","https://www.aspirus.org/find-a-location/aspirus-outpatient-therapy-services-213"
"https://www.aspirus.org","Aspirus Outpatient Therapy Services - Pediatrics","520 North 28th Avenue","Wausau","WI","54401","US","320","715-843-1058","Therapy & Rehab","44.9696127","-89.671666","Monday-Friday 8 am - 5 pm","https://www.aspirus.org/find-a-location/aspirus-outpatient-therapy-services-pediatrics-320"
"https://www.aspirus.org","Aspirus Outpatient Therapy Services - Stevens Point","2957 Church Street","Stevens Point","WI","54481","US","321","715-345-1447","Therapy & Rehab","44.5076142","-89.5685166","Monday- Friday 8am - 5pm","https://www.aspirus.org/find-a-location/aspirus-outpatient-therapy-services-stevens-point-321"
"https://www.aspirus.org","Aspirus Outpatient Therapy Services-Weston YMCA","3402 Howland Avenue","Weston","WI","54476","US","214","715-355-5701","Therapy & Rehab","44.8663438","-89.5796609","<MISSING>","https://www.aspirus.org/find-a-location/aspirus-outpatient-therapy-servicesweston-ymca-214"
"https://www.aspirus.org","Aspirus Riverview Therapies - Nekoosa","1015 Angelus Drive","Nekoosa","WI","54457","US","318","715-424-8500","Therapy & Rehab","44.3167058","-89.906814","<MISSING>","https://www.aspirus.org/find-a-location/aspirus-riverview-therapies-nekoosa-318"
