"locator_domain","location_name","street_address","city","state","zip","country_code","store_number","phone","location_type","latitude","longitude","hours_of_operation"
"https://www.inova.org","Alexandria Imaging Center","4660 Kenmore Avenue","Alexandria","VA","22304","US","<MISSING>","703-824-3260","<INACCESSIBLE>","<MISSING>","<MISSING>","Sunday Closed Monday 7AM–5PM Tuesday 7AM–5PM Wednesday 7AM–5PM Thursday 7AM–5PM Friday 7AM–5PM Saturday Closed"
"https://www.inova.org","Annandale Treasure Trove Store","<MISSING>","Annandale","VA","22003","US","<MISSING>","703-256-7715","<INACCESSIBLE>","<MISSING>","<MISSING>","Sunday 12PM–5PM Monday 10AM–5PM Tuesday 10AM–5PM Wednesday 10AM–5PM Thursday 10AM–5PM Friday 10AM–5PM Saturday 10AM–5PM"
"https://www.inova.org","Brock Family Antenatal Testing Center","Inova Alexandria Hospital Birthing Center","Alexandria","VA","22304","US","<MISSING>","703-504-7868","<INACCESSIBLE>","<MISSING>","<MISSING>","Sunday Closed Monday 8:30AM–4:30PM Tuesday 8:30AM–4:30PM Wednesday 8:30AM–4:30PM Thursday 8:30AM–4:30PM Friday 8:30AM–4:30PM Saturday Closed"
"https://www.inova.org","Center for Liver Diseases","Inova Fairfax Hospital","Falls Church","VA","22042","US","<MISSING>","703-776-3182","<INACCESSIBLE>","<MISSING>","<MISSING>","Sunday Closed Monday 8:30AM–5PM Tuesday 8:30AM–5PM Wednesday 8:30AM–5PM Thursday 8:30AM–5PM Friday 8:30AM–5PM Saturday Closed"
"https://www.inova.org","Centreville/Clifton Imaging Center","6211 Centreville Road","Centreville","VA","20121","US","<MISSING>","703-698-4488","<INACCESSIBLE>","<MISSING>","<MISSING>","Sunday 8AM–4:30PM Monday 7AM–5PM Tuesday 7AM–5PM Wednesday 7AM–5PM Thursday 7AM–5PM Friday 7AM–5PM Saturday 8AM–4:30PM"
"https://www.inova.org","Claude Moore Health Education and Research Center","Inova Fairfax Medical Campus","Falls Church","VA","22042","US","<MISSING>","703-776-6430","<INACCESSIBLE>","<MISSING>","<MISSING>","<MISSING>"
"https://www.inova.org","Department of Obstetrics and Gynecology: Contact Us","Inova Fairfax Hospital","Falls Church","VA","22042","US","<MISSING>","703-776-6040","<INACCESSIBLE>","<MISSING>","<MISSING>","<MISSING>"
"https://www.inova.org","Dorothea R. Fisher Wound Healing Center at Inova Mount Vernon Hospital","<MISSING>","Alexandria","VA","22306","US","<MISSING>","703-664-8020","<INACCESSIBLE>","<MISSING>","<MISSING>","Sunday Closed Monday 8:30AM–5PM Tuesday 8:30AM–5PM Wednesday 8:30AM–5PM Thursday 8:30AM–5PM Friday 8:30AM–5PM Saturday Closed"
"https://www.inova.org","Fairfax Diagnostic Imaging Center","3801 University Drive","Fairfax","VA","22030","US","<MISSING>","703-698-4488","<INACCESSIBLE>","<MISSING>","<MISSING>","Sunday Closed Monday 7:30AM–5PM Tuesday 7:30AM–5PM Wednesday 7:30AM–5PM Thursday 7:30AM–5PM Friday 7:30AM–5PM Saturday Closed"
"https://www.inova.org","General Internal Medicine Group - Ballston","3833 Fairfax Dr.","Arlington","VA","22203","US","<MISSING>","703-525-8863","<INACCESSIBLE>","<MISSING>","<MISSING>","<MISSING>"
"https://www.inova.org","General Internal Medicine Group - Ballston","3833 N. Fairfax Dr.","Arlington","VA","22203","US","<MISSING>","703-525-8863","<INACCESSIBLE>","<MISSING>","<MISSING>","Sunday Closed Monday 8AM–5PM Tuesday 8AM–8PM Wednesday 8AM–8PM Thursday 8AM–8PM Friday 8AM–5PM Saturday Closed"
"https://www.inova.org","General Internal Medicine Group - Fairfax","3022 Williams Dr.","Fairfax","VA","22031","US","<MISSING>","703-573-9800","<INACCESSIBLE>","<MISSING>","<MISSING>","Sunday Closed Monday 8AM–5PM Tuesday 8AM–8PM Wednesday 8AM–8PM Thursday 8AM–8PM Friday 8AM–5PM Saturday Closed"
"https://www.inova.org","General Internal Medicine Group - Fairfax","3022 Williams Dr.","Fairfax","VA","22031","US","<MISSING>","703-573-9800","<INACCESSIBLE>","<MISSING>","<MISSING>","<MISSING>"
"https://www.inova.org","Heartburn Treatment Center at Inova Alexandria Hospital","<MISSING>","Alexandria","VA","22304","US","<MISSING>","703-504-4282","<INACCESSIBLE>","<MISSING>","<MISSING>","<MISSING>"
"https://www.inova.org","Inova Acupuncture Services","44055 Riverside Parkway","Leesburg","VA","20176","US","<MISSING>","703-289-7582","<INACCESSIBLE>","<MISSING>","<MISSING>","Sunday Closed Monday Closed Tuesday Closed Wednesday 12PM–5PM Thursday Closed Friday Closed Saturday Closed"
"https://www.inova.org","Inova Acupuncture Services - Falls Church","8100 Innovation Park Dr","Fairfax","VA","22031","US","<MISSING>","571-472-1680","<INACCESSIBLE>","<MISSING>","<MISSING>","Sunday Closed Monday 10AM–6PM Tuesday 10AM–6PM Wednesday 10AM–6PM Thursday 10AM–6PM Friday 10AM–6PM Saturday Closed"
"https://www.inova.org","Inova Acupuncture Services - Leesburg","44055 Riverside Parkway","Leesburg","VA","00000","US","<MISSING>","571-472-1680","<INACCESSIBLE>","<MISSING>","<MISSING>","Sunday Closed Monday Closed Tuesday Closed Wednesday 12PM–5PM Thursday Closed Friday Closed Saturday Closed"
"https://www.inova.org","Inova Advanced Imaging Center (Fair Oaks)","3620 Joseph Siewick Dr","Fairfax","VA","22033","US","<MISSING>","571-423-5400","<INACCESSIBLE>","<MISSING>","<MISSING>","Sunday Closed Monday 8AM–6PM Tuesday 8AM–6PM Wednesday 8AM–6PM Thursday 8AM–6PM Friday 8AM–6PM Saturday Closed"
"https://www.inova.org","Inova Alexandria Hospital","<MISSING>","Alexandria","VA","22304","US","<MISSING>","703-504-3000","<INACCESSIBLE>","<MISSING>","<MISSING>","Sunday Open 24hrs Monday Open 24hrs Tuesday Open 24hrs Wednesday Open 24hrs Thursday Open 24hrs Friday Open 24hrs Saturday Open 24hrs"
"https://www.inova.org","Inova Alexandria Hospital Birthing Center","<MISSING>","Alexandria","VA","22304","US","<MISSING>","703-504-3000","<INACCESSIBLE>","<MISSING>","<MISSING>","Sunday Open 24hrs Monday Open 24hrs Tuesday Open 24hrs Wednesday Open 24hrs Thursday Open 24hrs Friday Open 24hrs Saturday Open 24hrs"
"https://www.inova.org","Inova Alexandria Hospital Emergency Room","<MISSING>","Alexandria","VA","22304","US","<MISSING>","703-504-3066","<INACCESSIBLE>","<MISSING>","<MISSING>","Sunday Open 24hrs Monday Open 24hrs Tuesday Open 24hrs Wednesday Open 24hrs Thursday Open 24hrs Friday Open 24hrs Saturday Open 24hrs"
"https://www.inova.org","Inova Alexandria Hospital Imaging Center","<MISSING>","Alexandria","VA","22304","US","<MISSING>","571-423-5400","<INACCESSIBLE>","<MISSING>","<MISSING>","Sunday Closed Monday 8AM–6PM Tuesday 8AM–6PM Wednesday 8AM–6PM Thursday 8AM–6PM Friday 8AM–6PM Saturday Closed"
"https://www.inova.org","Inova Alexandria Hospital Joint Replacement Program","<MISSING>","Alexandria","VA","22304","US","<MISSING>","703-504-3000","<INACCESSIBLE>","<MISSING>","<MISSING>","<MISSING>"
"https://www.inova.org","Inova Alexandria Hospital Surgery Center","<MISSING>","Alexandria","VA","22304","US","<MISSING>","703-504-3000","<INACCESSIBLE>","<MISSING>","<MISSING>","<MISSING>"
"https://www.inova.org","Inova Arrhythmia - Alexandria","1800 N. Beauregard St.","Alexandria","VA","22311","US","<MISSING>","703-289-9400","<INACCESSIBLE>","<MISSING>","<MISSING>","Sunday Closed Monday Closed Tuesday 8AM–12PM Wednesday Closed Thursday Closed Friday Closed Saturday Closed"
"https://www.inova.org","Inova Arrhythmia - Baltimore","2328 West Joppa Rd","Lutherville","MD","21093","US","<MISSING>","703-289-9400","<INACCESSIBLE>","<MISSING>","<MISSING>","Sunday Closed Monday Closed Tuesday 10AM–2PM Wednesday Closed Thursday Closed Friday Closed Saturday Closed"
"https://www.inova.org","Inova Arrhythmia - Chevy Chase","5530 Wisconsin Ave NW","Chevy Chase","MD","20815","US","<MISSING>","703-289-9400","<INACCESSIBLE>","<MISSING>","<MISSING>","Sunday Closed Monday Closed Tuesday Closed Wednesday Closed Thursday 1PM–5PM Friday Closed Saturday Closed"
"https://www.inova.org","Inova Arrhythmia - Fairfax","3020 Hamaker Ct","Fairfax","VA","22031","US","<MISSING>","703-289-9400","<INACCESSIBLE>","<MISSING>","<MISSING>","Sunday Closed Monday 8AM–4:30PM Tuesday 8AM–4:30PM Wednesday 8AM–4:30PM Thursday 8AM–4:30PM Friday 8AM–4:30PM Saturday Closed"
"https://www.inova.org","Inova Bariatric Surgery - Fairfax","3580 Joseph Siewick Dr","Fairfax","VA","22033","US","<MISSING>","703-620-3211","<INACCESSIBLE>","<MISSING>","<MISSING>","Sunday Closed Monday 8AM–4:30PM Tuesday 8AM–4:30PM Wednesday 8AM–4:30PM Thursday 8AM–4:30PM Friday 8AM–4:30PM Saturday Closed"
"https://www.inova.org","Inova Bariatric Surgery - Woodbridge","14605 Potomac Branch Dr","Woodbridge","VA","22191","US","<MISSING>","703-620-3211","<INACCESSIBLE>","<MISSING>","<MISSING>","Sunday Closed Monday 8AM–4:30PM Tuesday 8AM–4:30PM Wednesday 8AM–4:30PM Thursday 8AM–4:30PM Friday 8AM–4:30PM Saturday Closed"
"https://www.inova.org","Inova Behavioral Health Outpatient Center at Executive Park Avenue","8500 Executive Park Avenue","Fairfax","VA","22031","US","<MISSING>","703-852-7020","<INACCESSIBLE>","<MISSING>","<MISSING>","Sunday Closed Monday 8AM–5PM Tuesday 8AM–5PM Wednesday 8AM–5PM Thursday 8AM–5PM Friday 8AM–5PM Saturday Closed"
"https://www.inova.org","Inova Behavioral Health Outpatient Center at Fort Evans Road","<MISSING>","Leesburg","VA","20176","US","<MISSING>","703-737-2110","<INACCESSIBLE>","<MISSING>","<MISSING>","Sunday Closed Monday 8AM–5PM Tuesday 8AM–5PM Wednesday 8AM–5PM Thursday 8AM–5PM Friday 8AM–5PM Saturday Closed"
"https://www.inova.org","Inova Behavioral Health Outpatient Center at Glebe Road, Ballston","1005 North Glebe Road","Arlington","VA","22201","US","<MISSING>","571-302-3910","<INACCESSIBLE>","<MISSING>","<MISSING>","Sunday Closed Monday 8AM–5PM Tuesday 8AM–5PM Wednesday 8AM–5PM Thursday 8AM–5PM Friday 8AM–5PM Saturday Closed"
"https://www.inova.org","Inova Behavioral Health Services Outpatient Center at Merrifield Center","8221 Willow Oaks Corporate Dr","Fairfax","VA","22031","US","<MISSING>","703-289-7599","<INACCESSIBLE>","<MISSING>","<MISSING>","Sunday Closed Monday 8AM–5PM Tuesday 8AM–5PM Wednesday 8AM–5PM Thursday 8AM–5PM Friday 8AM–5PM Saturday Closed"
"https://www.inova.org","Inova Behavioral Health Services Outpatient Clinic at Fair Oaks","3700 Joseph Siewick Drive","Fairfax","VA","22033","US","<MISSING>","703-391-3330","<INACCESSIBLE>","<MISSING>","<MISSING>","<MISSING>"
"https://www.inova.org","Inova Behavioral Health Services Outpatient Clinic serving Mount Vernon","6910 Richmond Highway","Alexandria","VA","22306","US","<MISSING>","703-660-8100","<INACCESSIBLE>","<MISSING>","<MISSING>","Sunday Closed Monday 8AM–5PM Tuesday 8AM–5PM Wednesday 8AM–5PM Thursday 8AM–5PM Friday 8AM–5PM Saturday Closed"
"https://www.inova.org","Inova Blood Donor Services - CentreMed","<MISSING>","Centreville","VA","20121","US","<MISSING>","866-256-6372","<INACCESSIBLE>","<MISSING>","<MISSING>","Sunday Closed Monday 12PM–8PM Tuesday Closed Wednesday Closed Thursday 10AM–8PM Friday 10AM–6PM Saturday 8AM–4PM"
"https://www.inova.org","Inova Blood Donor Services - Dulles Town Center","<MISSING>","Sterling","VA","20166","US","<MISSING>","866-256-6372","<INACCESSIBLE>","<MISSING>","<MISSING>","Sunday 10AM–4PM Monday 12PM–8PM Tuesday 10AM–6PM Wednesday 10AM–6PM Thursday Closed Friday 6AM–4PM Saturday 8AM–4PM"
"https://www.inova.org","Inova Blood Donor Services - Woodburn Medical Park","<MISSING>","Annandale","VA","22003","US","<MISSING>","866-256-6372","<INACCESSIBLE>","<MISSING>","<MISSING>","Sunday 10AM–4PM Monday Closed Tuesday 8AM–4PM Wednesday 6AM–4PM Thursday 12PM–8PM Friday 10AM–6PM Saturday 8AM–4PM"
"https://www.inova.org","Inova Breast Surgery - Alexandria","1800 N. Beauregard St","Alexandria","VA","22311","US","<MISSING>","571-472-1600","<INACCESSIBLE>","<MISSING>","<MISSING>","Sunday Closed Monday 8:30AM–5PM Tuesday 8:30AM–5PM Wednesday 8:30AM–5PM Thursday 8:30AM–5PM Friday 8:30AM–5PM Saturday Closed"
"https://www.inova.org","Inova Breast Surgery - Fair Oaks","3580 Joseph Siewick Dr","Fairfax","VA","22033","US","<MISSING>","571-472-1600","<INACCESSIBLE>","<MISSING>","<MISSING>","Sunday Closed Monday 8:30AM–5PM Tuesday 8:30AM–5PM Wednesday 8:30AM–5PM Thursday 8:30AM–5PM Friday 8:30AM–5PM Saturday Closed"
"https://www.inova.org","Inova Breast Surgery - Fairfax","<MISSING>","Fairfax","VA","22031","US","<MISSING>","571-472-1600","<INACCESSIBLE>","<MISSING>","<MISSING>","Sunday Closed Monday 8:30AM–5PM Tuesday 8:30AM–5PM Wednesday 8:30AM–5PM Thursday 8:30AM–5PM Friday 8:30AM–5PM Saturday Closed"
"https://www.inova.org","Inova Breast Surgery - Woodbridge","2296 Optiz Blvd","Woodbridge","VA","22191","US","<MISSING>","571-472-1600","<INACCESSIBLE>","<MISSING>","<MISSING>","Sunday Closed Monday 8:30AM–5PM Tuesday 8:30AM–5PM Wednesday 8:30AM–5PM Thursday 8:30AM–5PM Friday 8:30AM–5PM Saturday Closed"
"https://www.inova.org","Inova Cardiac and Thoracic Surgery","<MISSING>","Falls Church","VA","22042","US","<MISSING>","703-280-5858","<INACCESSIBLE>","<MISSING>","<MISSING>","Sunday Closed Monday 8AM–5PM Tuesday 8AM–5PM Wednesday 8AM–5PM Thursday 8AM–5PM Friday 8AM–5PM Saturday Closed"
"https://www.inova.org","Inova Cardiology - Alexandria","6355 Walker Ln","Alexandria","VA","22310","US","<MISSING>","703-780-9014","<INACCESSIBLE>","<MISSING>","<MISSING>","Sunday Closed Monday 8AM–4:30PM Tuesday 8AM–4:30PM Wednesday 8AM–4:30PM Thursday 8AM–4:30PM Friday 8AM–4:30PM Saturday Closed"
"https://www.inova.org","Inova Cardiology - Ashburn","21785 Filigree Crt","Ashburn","VA","20147","US","<MISSING>","703-933-2820","<INACCESSIBLE>","<MISSING>","<MISSING>","Sunday Closed Monday 8AM–5PM Tuesday 8AM–5PM Wednesday 8AM–5PM Thursday 8AM–5PM Friday 8AM–5PM Saturday Closed"
"https://www.inova.org","Inova Cardiology - Baltimore","2328 W Joppa Rd","Lutherville","MD","21093","US","<MISSING>","410-367-2590","<INACCESSIBLE>","<MISSING>","<MISSING>","Sunday Closed Monday 8AM–4PM Tuesday 8AM–4PM Wednesday 8AM–4PM Thursday 8AM–4PM Friday 8AM–4PM Saturday Closed"
"https://www.inova.org","Inova Cardiology - Fair Oaks","3580 Joseph Siewick Dr.","Fairfax","VA","22033","US","<MISSING>","703-391-4140","<INACCESSIBLE>","<MISSING>","<MISSING>","Sunday Closed Monday 8:30AM–5PM Tuesday 8:30AM–5PM Wednesday 8:30AM–5PM Thursday 8:30AM–5PM Friday 8:30AM–5PM Saturday Closed"
"https://www.inova.org","Inova Cardiology - Fairfax","8081 Innovation Park Dr.","Fairfax","VA","22031-4867","US","<MISSING>","571-472-2900","<INACCESSIBLE>","<MISSING>","<MISSING>","Sunday Closed Monday 8AM–5PM Tuesday 8AM–5PM Wednesday 8AM–5PM Thursday 8AM–5PM Friday 8AM–5PM Saturday Closed"
"https://www.inova.org","Inova Cardiology - Gainesville","13575 Heathcote Blvd.","Gainesville","VA","20155","US","<MISSING>","703-468-2570","<INACCESSIBLE>","<MISSING>","<MISSING>","Sunday Closed Monday 8AM–5PM Tuesday 8AM–5PM Wednesday 8AM–5PM Thursday 8AM–5PM Friday 8AM–5PM Saturday Closed"
"https://www.inova.org","Inova Cardiology - Lorton","8988 Lorton Station Blvd","Lorton","VA","22079","US","<MISSING>","703-780-9014","<INACCESSIBLE>","<MISSING>","<MISSING>","Sunday Closed Monday 8AM–4:30PM Tuesday 8AM–4:30PM Wednesday 8AM–4:30PM Thursday 8AM–4:30PM Friday 8AM–4:30PM Saturday Closed"
"https://www.inova.org","Inova Cardiology - Mount Vernon","8101 Hinson Farm Rd","Alexandria","VA","22306","US","<MISSING>","703-780-9014","<INACCESSIBLE>","<MISSING>","<MISSING>","Sunday Closed Monday 8AM–4:30PM Tuesday 8AM–4:30PM Wednesday 8AM–4:30PM Thursday 8AM–4:30PM Friday 8AM–4:30PM Saturday Closed"
"https://www.inova.org","Inova Cardiology - Warrenton","<MISSING>","Warrenton","VA","20186","US","<MISSING>","540-316-5940","<INACCESSIBLE>","<MISSING>","<MISSING>","Sunday Closed Monday 8AM–5PM Tuesday 8AM–5PM Wednesday 8AM–5PM Thursday 8AM–5PM Friday 8AM–5PM Saturday Closed"
"https://www.inova.org","Inova Cardiology - Woodbridge","14605 Potomac Branch Dr","Woodbridge","VA","22191","US","<MISSING>","703-780-9014","<INACCESSIBLE>","<MISSING>","<MISSING>","Sunday Closed Monday 8AM–4:30PM Tuesday 8AM–4:30PM Wednesday 8AM–4:30PM Thursday 8AM–4:30PM Friday 8AM–4:30PM Saturday Closed"
"https://www.inova.org","Inova Cardiovascular Genomics Center","<MISSING>","Falls Church","VA","22042","US","<MISSING>","855-528-4363","<INACCESSIBLE>","<MISSING>","<MISSING>","Sunday Closed Monday 8AM–5PM Tuesday 8AM–5PM Wednesday 8AM–5PM Thursday 8AM–5PM Friday 8AM–5PM Saturday Closed"
"https://www.inova.org","Inova Cares Clinic for Children","6400 Arlington Blvd.","Falls Church","VA","22042","US","<MISSING>","703-531-3100","<INACCESSIBLE>","<MISSING>","<MISSING>","Sunday Closed Monday 8:30AM–8PM Tuesday 8:30AM–8PM Wednesday 8:30AM–8PM Thursday 8:30AM–5PM Friday 9AM–4:30PM Saturday 9AM–12PM"
"https://www.inova.org","Inova Cares Clinic for Women – Falls Church","6400 Arlington Boulevard","Falls Church","VA","22042","US","<MISSING>","703-531-3000","<INACCESSIBLE>","<MISSING>","<MISSING>","Sunday Closed Monday 8AM–5PM Tuesday 8AM–5PM Wednesday 8AM–5PM Thursday 8AM–5PM Friday 8AM–5PM Saturday Closed"
"https://www.inova.org","Inova Cares Clinic for Women – Herndon","1175 Herndon Parkway","Herndon","VA","20170","US","<MISSING>","703-464-6080","<INACCESSIBLE>","<MISSING>","<MISSING>","Sunday Closed Monday 8AM–4:30PM Tuesday 8AM–4:30PM Wednesday 8AM–4:30PM Thursday 8AM–4:30PM Friday 8AM–4:30PM Saturday Closed"
"https://www.inova.org","Inova Cares Clinic for Women – Leesburg","44055 Riverside Parkway","Leesburg","VA","20176","US","<MISSING>","703-858-8100","<INACCESSIBLE>","<MISSING>","<MISSING>","Sunday Closed Monday 8:30AM–4:30PM Tuesday 8:30AM–4:30PM Wednesday 8:30AM–4:30PM Thursday 8:30AM–4:30PM Friday 8:30AM–4:30PM Saturday Closed"
"https://www.inova.org","Inova Cares Clinic for Women – Mount Vernon / Alexandria South","<MISSING>","Alexandria","VA","22309-2344","US","<MISSING>","703-704-9013","<INACCESSIBLE>","<MISSING>","<MISSING>","Sunday Closed Monday 8AM–4:30PM Tuesday 8AM–4:30PM Wednesday 8AM–4:30PM Thursday 8AM–4:30PM Friday 8AM–4:30PM Saturday Closed"
"https://www.inova.org","Inova CATS Program – Alexandria","6910 Richmond Highway","Alexandria","VA","22306","US","<MISSING>","703-289-7560","<INACCESSIBLE>","<MISSING>","<MISSING>","<MISSING>"
"https://www.inova.org","Inova Center for Advanced Radiation Oncology and Proton Therapy","8081 Innovation Park Dr","Fairfax","VA","22031","US","<MISSING>","571-472-0606","<INACCESSIBLE>","<MISSING>","<MISSING>","Sunday Closed Monday 8AM–5PM Tuesday 8AM–5PM Wednesday 8AM–5PM Thursday 8AM–5PM Friday 8AM–5PM Saturday Closed"
"https://www.inova.org","Inova Center for Personalized Health","<MISSING>","Fairfax","VA","22031","US","<MISSING>","571-472-2400","<INACCESSIBLE>","<MISSING>","<MISSING>","Sunday Closed Monday 8AM–5PM Tuesday 8AM–5PM Wednesday 8AM–5PM Thursday 8AM–5PM Friday 8AM–5PM Saturday Closed"
"https://www.inova.org","Inova Center for Wellness and Metabolic Health – Alexandria","4700 King Street","Alexandria","VA","22302","US","<MISSING>","1-877-511-","<INACCESSIBLE>","<MISSING>","<MISSING>","<MISSING>"
"https://www.inova.org","Inova Central Verifications Office","8110 Gatehouse Road","Falls Church","VA","22042","US","<MISSING>","703-204-3370","<INACCESSIBLE>","<MISSING>","<MISSING>","<MISSING>"
"https://www.inova.org","Inova Children's Emergency Room at Fair Oaks Hospital","<MISSING>","Fairfax","VA","22033","US","<MISSING>","703-391-3600","<INACCESSIBLE>","<MISSING>","<MISSING>","<MISSING>"
"https://www.inova.org","Inova Children's Hospital","<MISSING>","Falls Church","VA","22042","US","<MISSING>","703-776-4002","<INACCESSIBLE>","<MISSING>","<MISSING>","Sunday Open 24hrs Monday Open 24hrs Tuesday Open 24hrs Wednesday Open 24hrs Thursday Open 24hrs Friday Open 24hrs Saturday Open 24hrs"
"https://www.inova.org","Inova Children's Hospital Emergency Room","<MISSING>","Falls Church","VA","22042","US","<MISSING>","703-776-3154","<INACCESSIBLE>","<MISSING>","<MISSING>","Sunday Open 24hrs Monday Open 24hrs Tuesday Open 24hrs Wednesday Open 24hrs Thursday Open 24hrs Friday Open 24hrs Saturday Open 24hrs"
"https://www.inova.org","Inova Children's Hospital Imaging Center","<MISSING>","Falls Church","VA","22042","US","<MISSING>","571-423-5400","<INACCESSIBLE>","<MISSING>","<MISSING>","Sunday Closed Monday 8AM–6PM Tuesday 8AM–6PM Wednesday 8AM–6PM Thursday 8AM–6PM Friday 8AM–6PM Saturday Closed"
"https://www.inova.org","Inova Children's Hospital Imaging Center","<MISSING>","Falls Church","VA","22042","US","<MISSING>","571-423-5400","<INACCESSIBLE>","<MISSING>","<MISSING>","<MISSING>"
"https://www.inova.org","Inova Concussion Clinic - Inova Loudoun Hospital","<MISSING>","Leesburg","VA","20176","US","<MISSING>","703-858-6699","<INACCESSIBLE>","<MISSING>","<MISSING>","Sunday Closed Monday 7AM–6PM Tuesday 7AM–6PM Wednesday 7AM–6PM Thursday 7AM–6PM Friday 7AM–6PM Saturday Closed"
"https://www.inova.org","Inova Concussion Clinic - Inova Mount Vernon Hospital","<MISSING>","Alexandria","VA","22306","US","<MISSING>","703-664-7190","<INACCESSIBLE>","<MISSING>","<MISSING>","Sunday Closed Monday 8AM–4:30PM Tuesday 8AM–4:30PM Wednesday 8AM–4:30PM Thursday 8AM–4:30PM Friday 8AM–4:30PM Saturday Closed"
"https://www.inova.org","Inova Diabetes Center – Fair Oaks","3700 Joseph Siewick Drive","Fairfax","VA","22033","US","<MISSING>","1-877-511-","<INACCESSIBLE>","<MISSING>","<MISSING>","<MISSING>"
"https://www.inova.org","Inova Diabetes Center – Fairfax","2740 Prosperity Avenue","Fairfax","VA","22031","US","<MISSING>","1-877-511-","<INACCESSIBLE>","<MISSING>","<MISSING>","<MISSING>"
"https://www.inova.org","Inova Diabetes Center – Loudon","211 Gibson Street","Leesburg","VA","20176","US","<MISSING>","1-877-511-","<INACCESSIBLE>","<MISSING>","<MISSING>","<MISSING>"
"https://www.inova.org","Inova Emergency Room - Ashburn HealthPlex","22505 Landmark Ct","Ashburn","VA","20148","US","<MISSING>","571-612-6400","<INACCESSIBLE>","<MISSING>","<MISSING>","Sunday Open 24hrs Monday Open 24hrs Tuesday Open 24hrs Wednesday Open 24hrs Thursday Open 24hrs Friday Open 24hrs Saturday Open 24hrs"
"https://www.inova.org","Inova Emergency Room - Fairfax City","<MISSING>","Fairfax","VA","22030","US","<MISSING>","703-877-8200","<INACCESSIBLE>","<MISSING>","<MISSING>","Sunday Open 24hrs Monday Open 24hrs Tuesday Open 24hrs Wednesday Open 24hrs Thursday Open 24hrs Friday Open 24hrs Saturday Open 24hrs"
"https://www.inova.org","Inova Emergency Room - HealthPlex Franconia/Springfield","<MISSING>","Alexandria","VA","22310","US","<MISSING>","703-797-6800","<INACCESSIBLE>","<MISSING>","<MISSING>","Sunday Open 24hrs Monday Open 24hrs Tuesday Open 24hrs Wednesday Open 24hrs Thursday Open 24hrs Friday Open 24hrs Saturday Open 24hrs"
"https://www.inova.org","Inova Emergency Room - HealthPlex Lorton","<MISSING>","Lorton","VA","22079","US","<MISSING>","703-982-8324","<INACCESSIBLE>","<MISSING>","<MISSING>","Sunday Open 24hrs Monday Open 24hrs Tuesday Open 24hrs Wednesday Open 24hrs Thursday Open 24hrs Friday Open 24hrs Saturday Open 24hrs"
"https://www.inova.org","Inova Emergency Room - Leesburg","<MISSING>","Leesburg","VA","20176","US","<MISSING>","703-737-7520","<INACCESSIBLE>","<MISSING>","<MISSING>","Sunday Open 24hrs Monday Open 24hrs Tuesday Open 24hrs Wednesday Open 24hrs Thursday Open 24hrs Friday Open 24hrs Saturday Open 24hrs"
"https://www.inova.org","Inova Emergency Room - Reston/Herndon","<MISSING>","Reston","VA","20190","US","<MISSING>","703-668-8333","<INACCESSIBLE>","<MISSING>","<MISSING>","Sunday Open 24hrs Monday Open 24hrs Tuesday Open 24hrs Wednesday Open 24hrs Thursday Open 24hrs Friday Open 24hrs Saturday Open 24hrs"
"https://www.inova.org","Inova Endocrinology - Alexandria","6355 Walker Ln","Alexandria","VA","22310","US","<MISSING>","703-719-6715","<INACCESSIBLE>","<MISSING>","<MISSING>","Sunday Closed Monday 8AM–5PM Tuesday 8AM–5PM Wednesday 8AM–5PM Thursday 8AM–5PM Friday 8AM–5PM Saturday Closed"
"https://www.inova.org","Inova Endocrinology - Ashburn","21785 Filigree Court","Ashburn","VA","20147","US","<MISSING>","703-554-1122","<INACCESSIBLE>","<MISSING>","<MISSING>","Sunday Closed Monday 7AM–6PM Tuesday 7AM–5PM Wednesday 7AM–5PM Thursday 7AM–5PM Friday 7AM–2PM Saturday Closed"
"https://www.inova.org","Inova Endocrinology - Reston","<MISSING>","Reston","VA","20190","US","<MISSING>","703-709-6116","<INACCESSIBLE>","<MISSING>","<MISSING>","Sunday Closed Monday 8AM–4:30PM Tuesday 10AM–5:30PM Wednesday 8AM–4:30PM Thursday 8AM–4:30PM Friday Closed Saturday Closed"
"https://www.inova.org","Inova Endocrinology - Woodbridge","<MISSING>","Woodbridge","VA","22192","US","<MISSING>","703-491-7177","<INACCESSIBLE>","<MISSING>","<MISSING>","Sunday Closed Monday 7:30AM–3:30PM Tuesday 7:30AM–3:30PM Wednesday 7:30AM–3:30PM Thursday 7:30AM–3:30PM Friday 7:30AM–3:30PM Saturday Closed"
"https://www.inova.org","Inova Fair Oaks Hospital","<MISSING>","Fairfax","VA","22033","US","<MISSING>","703-391-3600","<INACCESSIBLE>","<MISSING>","<MISSING>","Sunday Open 24hrs Monday Open 24hrs Tuesday Open 24hrs Wednesday Open 24hrs Thursday Open 24hrs Friday Open 24hrs Saturday Open 24hrs"
"https://www.inova.org","Inova Fair Oaks Hospital Birthing Center","<MISSING>","Fairfax","VA","22033","US","<MISSING>","703-391-3600","<INACCESSIBLE>","<MISSING>","<MISSING>","Sunday Open 24hrs Monday Open 24hrs Tuesday Open 24hrs Wednesday Open 24hrs Thursday Open 24hrs Friday Open 24hrs Saturday Open 24hrs"
"https://www.inova.org","Inova Fair Oaks Hospital Emergency Room","<MISSING>","Fairfax","VA","22033","US","<MISSING>","703-391-3600","<INACCESSIBLE>","<MISSING>","<MISSING>","Sunday Open 24hrs Monday Open 24hrs Tuesday Open 24hrs Wednesday Open 24hrs Thursday Open 24hrs Friday Open 24hrs Saturday Open 24hrs"
"https://www.inova.org","Inova Fair Oaks Hospital Imaging Center","<MISSING>","Fairfax","VA","22033","US","<MISSING>","571-423-5400","<INACCESSIBLE>","<MISSING>","<MISSING>","Sunday Closed Monday 8AM–6PM Tuesday 8AM–6PM Wednesday 8AM–6PM Thursday 8AM–6PM Friday 8AM–6PM Saturday Closed"
"https://www.inova.org","Inova Fair Oaks Hospital Joint Replacement Program","<MISSING>","Fairfax","VA","22033","US","<MISSING>","703-391-4555","<INACCESSIBLE>","<MISSING>","<MISSING>","<MISSING>"
"https://www.inova.org","Inova Fair Oaks Hospital Rehabilitation Services","3600 Joseph Siewick Drive","Fairfax","VA","22033","US","<MISSING>","703-391-3642","<INACCESSIBLE>","<MISSING>","<MISSING>","<MISSING>"
"https://www.inova.org","Inova Fair Oaks Hospital Surgery Center","<MISSING>","Fairfax","VA","22033","US","<MISSING>","703-391-3600","<INACCESSIBLE>","<MISSING>","<MISSING>","<MISSING>"
"https://www.inova.org","Inova Fair Oaks Hospital Thrift Shop","<MISSING>","Fairfax","VA","22031","US","<MISSING>","703-273-3519","<INACCESSIBLE>","<MISSING>","<MISSING>","Sunday Closed Monday 10AM–5PM Tuesday 10AM–5PM Wednesday 10AM–5PM Thursday 10AM–5PM Friday 10AM–5PM Saturday 10AM–5PM"
"https://www.inova.org","Inova Fairfax Hospital Department of Surgery","Administrative Office","Falls Church","VA","22042","US","<MISSING>","703-776-3563","<INACCESSIBLE>","<MISSING>","<MISSING>","<MISSING>"
"https://www.inova.org","Inova Fairfax Hospital Emergency Room","<MISSING>","Falls Church","VA","22042","US","<MISSING>","703-776-3116","<INACCESSIBLE>","<MISSING>","<MISSING>","Sunday Open 24hrs Monday Open 24hrs Tuesday Open 24hrs Wednesday Open 24hrs Thursday Open 24hrs Friday Open 24hrs Saturday Open 24hrs"
"https://www.inova.org","Inova Fairfax Hospital Imaging Center","<MISSING>","Falls Church","VA","22042","US","<MISSING>","571-423-5400","<INACCESSIBLE>","<MISSING>","<MISSING>","Sunday Closed Monday 8AM–6PM Tuesday 8AM–6PM Wednesday 8AM–6PM Thursday 8AM–6PM Friday 8AM–6PM Saturday Closed"
"https://www.inova.org","Inova Fairfax Hospital Imaging Center","<MISSING>","Falls Church","VA","22042","US","<MISSING>","571-423-5400","<INACCESSIBLE>","<MISSING>","<MISSING>","Sunday Closed Monday 8AM–4:30PM Tuesday 8AM–4:30PM Wednesday 8AM–4:30PM Thursday 8AM–4:30PM Friday 8AM–4:30PM Saturday Closed"
"https://www.inova.org","Inova Fairfax Hospital Joint Replacement Program","<MISSING>","Falls Church","VA","22042","US","<MISSING>","703-776-4001","<INACCESSIBLE>","<MISSING>","<MISSING>","<MISSING>"
"https://www.inova.org","Inova Fairfax Hospital – Outpatient Surgery Center","Inova Fairfax Medical Campus","Falls Curch","VA","22042","US","<MISSING>","703-776-5900","<INACCESSIBLE>","<MISSING>","<MISSING>","Sunday Open 24hrs Monday Open 24hrs Tuesday Open 24hrs Wednesday Open 24hrs Thursday Open 24hrs Friday Open 24hrs Saturday Open 24hrs"
"https://www.inova.org","Inova Fairfax Medical Campus","<MISSING>","Falls Church","VA","22042-3300","US","<MISSING>","703-776-4001","<INACCESSIBLE>","<MISSING>","<MISSING>","Sunday Open 24hrs Monday Open 24hrs Tuesday Open 24hrs Wednesday Open 24hrs Thursday Open 24hrs Friday Open 24hrs Saturday Open 24hrs"
"https://www.inova.org","Inova Fairfax West Infusion Center","3580 Joseph Siewick Drive","Fairfax","VA","22033","US","<MISSING>","703-391-4395","<INACCESSIBLE>","<MISSING>","<MISSING>","<MISSING>"
"https://www.inova.org","Inova Franconia-Springfield Ambulatory Surgery Center","6355 Walker Lane","Alexandria","VA","22310","US","<MISSING>","703-922-9501","<INACCESSIBLE>","<MISSING>","<MISSING>","Sunday Closed Monday 6AM–5PM Tuesday 6AM–5PM Wednesday 6AM–5PM Thursday 6AM–5PM Friday 6AM–5PM Saturday Closed"
"https://www.inova.org","Inova Gastroenterology","8101 Hinson Farm Rd","Alexandria","VA","22306","US","<MISSING>","703-799-1688","<INACCESSIBLE>","<MISSING>","<MISSING>","Sunday Closed Monday 9AM–4PM Tuesday 9AM–4PM Wednesday 9AM–4PM Thursday 9AM–4PM Friday 9AM–4PM Saturday Closed"
"https://www.inova.org","Inova General Surgery - Arlington","1715 N George Mason Dr","Arlington","VA","22205","US","<MISSING>","703-528-0768","<INACCESSIBLE>","<MISSING>","<MISSING>","Sunday Closed Monday 8:30AM–5PM Tuesday 8:30AM–5PM Wednesday 8:30AM–5PM Thursday 8:30AM–5PM Friday 8:30AM–5PM Saturday Closed"
"https://www.inova.org","Inova General Surgery - Fair Oaks","3850 Joseph Siewick Dr.","Fairfax","VA","22033","US","<MISSING>","703-531-2246","<INACCESSIBLE>","<MISSING>","<MISSING>","Sunday Closed Monday 8:30AM–5PM Tuesday 8:30AM–5PM Wednesday 8:30AM–5PM Thursday 8:30AM–5PM Friday 8:30AM–5PM Saturday Closed"
"https://www.inova.org","Inova General Surgery - Falls Church","6565 Arlington Blvd","Falls Church","VA","22042","US","<MISSING>","703-531-2246","<INACCESSIBLE>","<MISSING>","<MISSING>","Sunday Closed Monday 8:30AM–5PM Tuesday 8:30AM–5PM Wednesday 8:30AM–5PM Thursday 8:30AM–5PM Friday 8:30AM–5PM Saturday Closed"
"https://www.inova.org","Inova Genetic Counseling","Inova Fairfax Medical Campus","Falls Church ","VA","22042","US","<MISSING>","<MISSING>","<INACCESSIBLE>","<MISSING>","<MISSING>","Sunday Closed Monday Closed Tuesday Closed Wednesday 9AM–3PM Thursday Closed Friday Closed Saturday Closed"
"https://www.inova.org","Inova Genetics Counseling - Alexandria","1800 N. Beauregard St","Alexandria","VA","22311","US","<MISSING>","571-472-0444","<INACCESSIBLE>","<MISSING>","<MISSING>","Sunday Closed Monday 8AM–5PM Tuesday 8AM–5PM Wednesday 8AM–5PM Thursday 8AM–5PM Friday 8AM–5PM Saturday Closed"
"https://www.inova.org","Inova Genetics Counseling - Fair Oaks","3580 Joseph Siewick Dr","Fairfax","VA","22031","US","<MISSING>","571-472-0444","<INACCESSIBLE>","<MISSING>","<MISSING>","Sunday Closed Monday 8AM–5PM Tuesday 8AM–5PM Wednesday 8AM–5PM Thursday 8AM–5PM Friday 8AM–5PM Saturday Closed"
"https://www.inova.org","Inova Genetics Counseling - Fairfax","8081 Innovation Park Dr","Fairfax","VA","22031","US","<MISSING>","571-472-0444","<INACCESSIBLE>","<MISSING>","<MISSING>","Sunday Closed Monday 8AM–5PM Tuesday 8AM–5PM Wednesday 8AM–5PM Thursday 8AM–5PM Friday 8AM–5PM Saturday Closed"
"https://www.inova.org","Inova Genetics Counseling - Loudoun","44055 Riverside Pkwy","Leesburg","VA","20176","US","<MISSING>","571-472-0444","<INACCESSIBLE>","<MISSING>","<MISSING>","Sunday Closed Monday 8AM–5PM Tuesday 8AM–5PM Wednesday 8AM–5PM Thursday 8AM–5PM Friday 8AM–5PM Saturday Closed"
"https://www.inova.org","Inova Health Advantage Clinic - Alexandria","4700 King St","Alexandria","VA","22302","US","<MISSING>","571-665-6599","<INACCESSIBLE>","<MISSING>","<MISSING>","Sunday Closed Monday 8:30AM–5PM Tuesday 8:30AM–5PM Wednesday 8:30AM–5PM Thursday 8:30AM–5PM Friday 8:30AM–5PM Saturday Closed"
"https://www.inova.org","Inova Health Advantage Clinic - Annandale","7617 Little River Tpk","Annandale","VA","22003","US","<MISSING>","571-665-6636","<INACCESSIBLE>","<MISSING>","<MISSING>","Sunday Closed Monday 8:30AM–5PM Tuesday 8:30AM–5PM Wednesday 8:30AM–5PM Thursday 8:30AM–5PM Friday 8:30AM–5PM Saturday Closed"
"https://www.inova.org","Inova Health Advantage Clinic - Manassas","<MISSING>","Manassas","VA","20109","US","<MISSING>","571-719-4180","<INACCESSIBLE>","<MISSING>","<MISSING>","Sunday Closed Monday 8:30AM–5PM Tuesday 8:30AM–5PM Wednesday 8:30AM–5PM Thursday 8:30AM–5PM Friday 8:30AM–5PM Saturday Closed"
"https://www.inova.org","Inova Health Advantage Clinic - Sterling","46440 Benedict Dr","Sterling","VA","20164","US","<MISSING>","571-665-6526","<INACCESSIBLE>","<MISSING>","<MISSING>","Sunday Closed Monday 8:30AM–5PM Tuesday 8:30AM–5PM Wednesday 8:30AM–5PM Thursday 8:30AM–5PM Friday 8:30AM–5PM Saturday Closed"
"https://www.inova.org","Inova HealthPlex – Franconia-Springfield","<MISSING>","Alexandria","VA","22310","US","<MISSING>","703-797-6800","<INACCESSIBLE>","<MISSING>","<MISSING>","Sunday Open 24hrs Monday Open 24hrs Tuesday Open 24hrs Wednesday Open 24hrs Thursday Open 24hrs Friday Open 24hrs Saturday Open 24hrs"
"https://www.inova.org","Inova HealthPlex – Lorton","<MISSING>","Lorton","VA","22079","US","<MISSING>","703-982-8400","<INACCESSIBLE>","<MISSING>","<MISSING>","Sunday Open 24hrs Monday Open 24hrs Tuesday Open 24hrs Wednesday Open 24hrs Thursday Open 24hrs Friday Open 24hrs Saturday Open 24hrs"
"https://www.inova.org","Inova Heart and Vascular Institute","Inova Fairfax Medical Campus","Falls Church","VA","22042","US","<MISSING>","703-776-4001","<INACCESSIBLE>","<MISSING>","<MISSING>","Sunday Open 24hrs Monday Open 24hrs Tuesday Open 24hrs Wednesday Open 24hrs Thursday Open 24hrs Friday Open 24hrs Saturday Open 24hrs"
"https://www.inova.org","Inova Heart and Vascular Institute Advanced Heart Failure and Transplant Program","<MISSING>","Falls Church","VA","22042","US","<MISSING>","703-776-7697","<INACCESSIBLE>","<MISSING>","<MISSING>","Sunday Closed Monday 8AM–5PM Tuesday 8AM–5PM Wednesday 8AM–5PM Thursday 8AM–5PM Friday 8AM–5PM Saturday Closed"
"https://www.inova.org","Inova Hematology Oncology - Fair Oaks","3580 Joseph Siewick Dr","Fairfax","VA","22033","US","<MISSING>","703-391-4395","<INACCESSIBLE>","<MISSING>","<MISSING>","Sunday Closed Monday 8AM–5PM Tuesday 8AM–5PM Wednesday 8AM–5PM Thursday 8AM–5PM Friday 8AM–4PM Saturday Closed"
"https://www.inova.org","Inova Hematology Oncology - Fairfax","<MISSING>","Fairfax","VA","22031","US","<MISSING>","571-472-4724","<INACCESSIBLE>","<MISSING>","<MISSING>","Sunday Closed Monday 8AM–5PM Tuesday 8AM–5PM Wednesday 8AM–5PM Thursday 8AM–5PM Friday 8AM–4PM Saturday Closed"
"https://www.inova.org","Inova Imaging Center - Arlington MRI","611 S. Carlin Springs Rd","Arlington","VA","22204","US","<MISSING>","571-488-9910","<INACCESSIBLE>","<MISSING>","<MISSING>","Sunday Closed Monday 8AM–6PM Tuesday 8AM–6PM Wednesday 8AM–6PM Thursday 8AM–6PM Friday 8AM–6PM Saturday Closed"
"https://www.inova.org","Inova Imaging Center - Ashburn HealthPlex","22505 Landmark Court","Ashburn","VA","20148","US","<MISSING>","703-858-6470","<INACCESSIBLE>","<MISSING>","<MISSING>","Sunday Closed Monday 8AM–6PM Tuesday 8AM–6PM Wednesday 8AM–6PM Thursday 8AM–6PM Friday 8AM–6PM Saturday Closed"
"https://www.inova.org","Inova Imaging Center - Ballston","3833 N. Fairfax Dr","Arlington","VA","22203","US","<MISSING>","703-931-4404","<INACCESSIBLE>","<MISSING>","<MISSING>","Sunday Closed Monday 8AM–6PM Tuesday 8AM–6PM Wednesday 8AM–6PM Thursday 8AM–6PM Friday 8AM–6PM Saturday Closed"
"https://www.inova.org","Inova Imaging Center - Dulles South","<MISSING>","Chantilly","VA","20152","US","<MISSING>","703-858-6470","<INACCESSIBLE>","<MISSING>","<MISSING>","Sunday Closed Monday 8AM–6PM Tuesday 8AM–6PM Wednesday 8AM–6PM Thursday 8AM–6PM Friday 8AM–6PM Saturday Closed"
"https://www.inova.org","Inova Imaging Center - Fairfax","8081 Innovation Park Dr.","Fairfax","VA","22031","US","<MISSING>","571-423-5400","<INACCESSIBLE>","<MISSING>","<MISSING>","Sunday Closed Monday 8AM–6PM Tuesday 8AM–6PM Wednesday 8AM–6PM Thursday 8AM–6PM Friday 8AM–6PM Saturday Closed"
"https://www.inova.org","Inova Imaging Center - Fairfax City Emergency Care Center","<MISSING>","Fairfax","VA","22030","US","<MISSING>","571-423-5400","<INACCESSIBLE>","<MISSING>","<MISSING>","Sunday Closed Monday 8AM–6PM Tuesday 8AM–6PM Wednesday 8AM–6PM Thursday 8AM–6PM Friday 8AM–6PM Saturday Closed"
"https://www.inova.org","Inova Imaging Center - Franconia/Springfield HealthPlex","<MISSING>","Alexandria","VA","22310","US","<MISSING>","571-423-5400","<INACCESSIBLE>","<MISSING>","<MISSING>","Sunday Closed Monday 8AM–6PM Tuesday 8AM–6PM Wednesday 8AM–6PM Thursday 8AM–6PM Friday 8AM–6PM Saturday Closed"
"https://www.inova.org","Inova Imaging Center - Gainesville","13575 Heathcote Blvd","Gainesville","VA","20155","US","<MISSING>","703-698-4488","<INACCESSIBLE>","<MISSING>","<MISSING>","Sunday Closed Monday 8:30AM–5:30PM Tuesday 8:30AM–5:30PM Wednesday 8:30AM–5:30PM Thursday 8:30AM–5:30PM Friday 8:30AM–5:30PM Saturday Closed"
"https://www.inova.org","Inova Imaging Center - Leesburg","<MISSING>","Leesburg","VA","20176","US","<MISSING>","703-858-6470","<INACCESSIBLE>","<MISSING>","<MISSING>","Sunday Closed Monday 8AM–6PM Tuesday 8AM–6PM Wednesday 8AM–6PM Thursday 8AM–6PM Friday 8AM–6PM Saturday Closed"
"https://www.inova.org","Inova Imaging Center - Lorton HealthPlex","<MISSING>","Lorton","VA","22079","US","<MISSING>","571-423-5400","<INACCESSIBLE>","<MISSING>","<MISSING>","Sunday Closed Monday 8AM–6PM Tuesday 8AM–6PM Wednesday 8AM–6PM Thursday 8AM–6PM Friday 8AM–6PM Saturday Closed"
"https://www.inova.org","Inova Imaging Center - Mark Center","1800 North Beauregard St","Alexandria","VA","22311","US","<MISSING>","571-423-5400","<INACCESSIBLE>","<MISSING>","<MISSING>","Sunday Closed Monday 8AM–6PM Tuesday 8AM–6PM Wednesday 8AM–6PM Thursday 8AM–6PM Friday 8AM–6PM Saturday Closed"
"https://www.inova.org","Inova Imaging Center - Reston Emergency Care Center","<MISSING>","Reston","VA","20190","US","<MISSING>","571-423-5400","<INACCESSIBLE>","<MISSING>","<MISSING>","Sunday Closed Monday 8AM–6PM Tuesday 8AM–6PM Wednesday 8AM–6PM Thursday 8AM–6PM Friday 8AM–6PM Saturday Closed"
"https://www.inova.org","Inova Imaging Center - Tysons","7799 Leesburg Pike","Falls Church","VA","22043","US","<MISSING>","703-698-4488","<INACCESSIBLE>","<MISSING>","<MISSING>","Sunday Closed Monday 8:30AM–5:30PM Tuesday 8:30AM–5:30PM Wednesday 8:30AM–5:30PM Thursday 8:30AM–5:30PM Friday 8:30AM–5:30PM Saturday Closed"
"https://www.inova.org","Inova Imaging Center – Tysons","7799 Leesburg Pike","Falls Church","VA","22043","US","<MISSING>","703-893-2820","<INACCESSIBLE>","<MISSING>","<MISSING>","<MISSING>"
"https://www.inova.org","Inova Joan and Russell Hitt Center for Healthy Living","8100 Innovation Park Drive","Faifax","VA","22031","US","<MISSING>","571-472-1440","<INACCESSIBLE>","<MISSING>","<MISSING>","Sunday Closed Monday 5:30AM–8:30PM Tuesday 5:30AM–8:30PM Wednesday 5:30AM–8:30PM Thursday 5:30AM–8:30PM Friday Closed Saturday Closed"
"https://www.inova.org","Inova Joint Replacement Center at Mount Vernon Hospital","<MISSING>","Alexandria","VA","22306","US","<MISSING>","703-664-7493","<INACCESSIBLE>","<MISSING>","<MISSING>","<MISSING>"
"https://www.inova.org","Inova Joseph Viar Jr. and Bonnie Christ Cancer Center – Alexandria","Inova Alexandria Hospital","Alexandria","VA","22304","US","<MISSING>","703-504-7900","<INACCESSIBLE>","<MISSING>","<MISSING>","<MISSING>"
"https://www.inova.org","Inova Juniper Program - Dumfries Office","18003 Fraley Boulevard","Dumfries","VA","22026","US","<MISSING>","703-221-8860","<INACCESSIBLE>","<MISSING>","<MISSING>","Sunday Closed Monday 8:30AM–5PM Tuesday 8:30AM–5PM Wednesday 8:30AM–5PM Thursday 8:30AM–5PM Friday 8:30AM–5PM Saturday Closed"
"https://www.inova.org","Inova Juniper Program - Falls Church Office","500 N. Washington Street","Falls Church","VA","22046","US","<MISSING>","703-522-1175","<INACCESSIBLE>","<MISSING>","<MISSING>","Sunday Closed Monday 8:30AM–5PM Tuesday 8:30AM–5PM Wednesday 8:30AM–5PM Thursday 8:30AM–5PM Friday 8:30AM–5PM Saturday Closed"
"https://www.inova.org","Inova Juniper Program - Herndon Office","1175 Herndon Parkway","Herndon","VA","20170","US","<MISSING>","703-464-6092","<INACCESSIBLE>","<MISSING>","<MISSING>","Sunday Closed Monday 8:30AM–5PM Tuesday 8:30AM–5PM Wednesday 8:30AM–5PM Thursday 8:30AM–5PM Friday 8:30AM–5PM Saturday Closed"
"https://www.inova.org","Inova Juniper Program - Leesburg Office","211 Gibson Street NW","Leesburg","VA","20176","US","<MISSING>","703-779-5438","<INACCESSIBLE>","<MISSING>","<MISSING>","<MISSING>"
"https://www.inova.org","Inova Juniper Program - Main Office","2740 Prosperity Avenue","Fairfax","VA","22031","US","<MISSING>","703-321-2600","<INACCESSIBLE>","<MISSING>","<MISSING>","Sunday Closed Monday 8:30AM–5PM Tuesday 8:30AM–5PM Wednesday 8:30AM–5PM Thursday 8:30AM–5PM Friday 8:30AM–5PM Saturday Closed"
"https://www.inova.org","Inova Juniper Program - Manassas Office","<MISSING>","Manassas","VA","20110","US","<MISSING>","703-396-8390","<INACCESSIBLE>","<MISSING>","<MISSING>","Sunday Closed Monday 8:30AM–5PM Tuesday 8:30AM–5PM Wednesday 8:30AM–5PM Thursday 8:30AM–5PM Friday 8:30AM–5PM Saturday Closed"
"https://www.inova.org","Inova Juniper Program - Mount Vernon Office","South County Center","Alexandria","VA","22309","US","<MISSING>","703-321-2600","<INACCESSIBLE>","<MISSING>","<MISSING>","Sunday Closed Monday Closed Tuesday 8:30AM–4:30PM Wednesday Closed Thursday Closed Friday Closed Saturday Closed"
"https://www.inova.org","Inova Kellar Center - Fairfax","<MISSING>","<MISSING>","<MISSING>","<MISSING>","US","<MISSING>","703-218-8500","<INACCESSIBLE>","<MISSING>","<MISSING>","Sunday Closed Monday 7:30AM–8PM Tuesday 7:30AM–8PM Wednesday 7:30AM–8PM Thursday 7:30AM–8PM Friday 7:30AM–4PM Saturday Closed"
"https://www.inova.org","Inova Kellar Center - Loudoun","<MISSING>","Sterling","VA","20166","US","<MISSING>","571-665-6710","<INACCESSIBLE>","<MISSING>","<MISSING>","<MISSING>"
"https://www.inova.org","Inova Laboratories - Alexandria","<MISSING>","Alexandria","VA","22304","US","<MISSING>","703-461-7304","<INACCESSIBLE>","<MISSING>","<MISSING>","Sunday Closed Monday 7:30AM–4PM Tuesday 7:30AM–4PM Wednesday 7:30AM–4PM Thursday 7:30AM–4PM Friday 7:30AM–4PM Saturday Closed"
"https://www.inova.org","Inova Laboratories - Ashburn II Primary Care","21785 Filigree Court","Ashburn","VA","20147","US","<MISSING>","703-554-1100","<INACCESSIBLE>","<MISSING>","<MISSING>","Sunday Closed Monday 8AM–4:30PM Tuesday 8AM–4:30PM Wednesday 8AM–4:30PM Thursday 8AM–4:30PM Friday 8AM–4:30PM Saturday Closed"
"https://www.inova.org","Inova Laboratories - Ballston Primary Care","1005 N. Glebe Road","Arlington","VA","22201","US","<MISSING>","571-492-3045","<INACCESSIBLE>","<MISSING>","<MISSING>","Sunday Closed Monday 8AM–4PM Tuesday 8AM–4PM Wednesday 8AM–4PM Thursday 8AM–4PM Friday 8AM–4PM Saturday Closed"
"https://www.inova.org","Inova Laboratories - Dulles South Primary Care","24801 Pinebrook Rd","Chantilly","VA","20152","US","<MISSING>","703-722-2510","<INACCESSIBLE>","<MISSING>","<MISSING>","Sunday Closed Monday 8AM–4PM Tuesday 8AM–4PM Wednesday 8AM–4PM Thursday 8AM–4PM Friday 8AM–4PM Saturday Closed"
"https://www.inova.org","Inova Laboratories - Fair Oaks","3580 Joseph Siewick Dr","Fairfax","VA","22033","US","<MISSING>","703-391-4408","<INACCESSIBLE>","<MISSING>","<MISSING>","Sunday Closed Monday 8AM–4:30PM Tuesday 8AM–4:30PM Wednesday 8AM–4:30PM Thursday 8AM–4:30PM Friday 8AM–4:30PM Saturday Closed"
"https://www.inova.org","Inova Laboratories - Lorton Primary Care","9321 Sanger St","Lorton","VA","22079","US","<MISSING>","703-828-2350","<INACCESSIBLE>","<MISSING>","<MISSING>","Sunday Closed Monday 8AM–4PM Tuesday 8AM–4PM Wednesday 8AM–4PM Thursday 8AM–4PM Friday 8AM–4PM Saturday Closed"
"https://www.inova.org","Inova Laboratories - Lorton Station","8988 Lorton Station Blvd","Lorton","VA","22079","US","<MISSING>","703-852-7128","<INACCESSIBLE>","<MISSING>","<MISSING>","Sunday Closed Monday 7:30AM–1PM Tuesday 7:30AM–1PM Wednesday 7:30AM–1PM Thursday 7:30AM–1PM Friday 7:30AM–1PM Saturday Closed"
"https://www.inova.org","Inova Laboratories - Manassas Primary Care","8140 Ashton Ave","Manassas","VA","20109","US","<MISSING>","571-665-6550","<INACCESSIBLE>","<MISSING>","<MISSING>","Sunday Closed Monday 8AM–4PM Tuesday 8AM–4PM Wednesday 8AM–4PM Thursday 8AM–4PM Friday 8AM–4PM Saturday Closed"
"https://www.inova.org","Inova Laboratories - McLean Primary Care","6845 Elm St","McLean","VA","20152","US","<MISSING>","703-848-8500","<INACCESSIBLE>","<MISSING>","<MISSING>","Sunday Closed Monday 7AM–3PM Tuesday 7AM–3PM Wednesday 7AM–3PM Thursday 7AM–3PM Friday 7AM–3PM Saturday Closed"
"https://www.inova.org","Inova Laboratories - Merrifield","<MISSING>","Fairfax","VA","22031","US","<MISSING>","703-645-6175","<INACCESSIBLE>","<MISSING>","<MISSING>","Sunday Closed Monday 7:30AM–3:30PM Tuesday 7:30AM–3:30PM Wednesday 7:30AM–3:30PM Thursday 7:30AM–3:30PM Friday 7:30AM–3:30PM Saturday Closed"
"https://www.inova.org","Inova Laboratories - Oakton Primary Care","10530 Rosehaven St","Fairfax","VA","22030","US","<MISSING>","571-328-7785","<INACCESSIBLE>","<MISSING>","<MISSING>","Sunday Closed Monday 7:30AM–3:30PM Tuesday 7:30AM–3:30PM Wednesday 7:30AM–3:30PM Thursday 7:30AM–3:30PM Friday 7:30AM–3:30PM Saturday Closed"
"https://www.inova.org","Inova Laboratories - Shirlington Primary Care","2800 Shirlington Rd","Arlington","VA","22206","US","<MISSING>","571-777-2420","<INACCESSIBLE>","<MISSING>","<MISSING>","Sunday Closed Monday 7:30AM–3:30PM Tuesday 7:30AM–3:30PM Wednesday 7:30AM–3:30PM Thursday 7:30AM–3:30PM Friday 7:30AM–3:30PM Saturday Closed"
"https://www.inova.org","Inova Laboratories - Sterling Primary Care","<MISSING>","Sterling","VA","20165","US","<MISSING>","703-433-2504","<INACCESSIBLE>","<MISSING>","<MISSING>","Sunday Closed Monday 8AM–4:30PM Tuesday 8AM–4:30PM Wednesday 8AM–4:30PM Thursday 8AM–4:30PM Friday 8AM–4:30PM Saturday 8AM–11AM"
"https://www.inova.org","Inova Laboratories - Vienna Primary Care","130 Park St. SE","Vienna","VA","22180","US","<MISSING>","703-938-7800","<INACCESSIBLE>","<MISSING>","<MISSING>","Sunday Closed Monday 8AM–4PM Tuesday 8AM–4PM Wednesday 8AM–4PM Thursday 8AM–4PM Friday 8AM–4PM Saturday Closed"
"https://www.inova.org","Inova Laboratories – Merrifield","<MISSING>","Fairfax","VA","22031","US","<MISSING>","703-645-6134","<INACCESSIBLE>","<MISSING>","<MISSING>","Sunday Closed Monday 7:30AM–3:30PM Tuesday 7:30AM–3:30PM Wednesday 7:30AM–3:30PM Thursday 7:30AM–3:30PM Friday 7:30AM–3:30PM Saturday Closed"
"https://www.inova.org","Inova Lions Eye Clinic","3299 Woodburn Road","Annandale","VA","22003","US","<MISSING>","703-876-2700","<INACCESSIBLE>","<MISSING>","<MISSING>","Sunday Closed Monday 7:30AM–4PM Tuesday 7:30AM–4PM Wednesday 7:30AM–4PM Thursday 7:30AM–4PM Friday 8AM–12PM Saturday Closed"
"https://www.inova.org","Inova Loudoun Ambulatory Surgery Center","44035 Riverside Parkway","Leesburg","VA","20176","US","<MISSING>","571-209-6465","<INACCESSIBLE>","<MISSING>","<MISSING>","Sunday Closed Monday 6AM–5PM Tuesday 6AM–5PM Wednesday 6AM–5PM Thursday 6AM–5PM Friday 6AM–5PM Saturday Closed"
"https://www.inova.org","Inova Loudoun Hospital","<MISSING>","Leesburg","VA","20176","US","<MISSING>","703-858-6000","<INACCESSIBLE>","<MISSING>","<MISSING>","Sunday Open 24hrs Monday Open 24hrs Tuesday Open 24hrs Wednesday Open 24hrs Thursday Open 24hrs Friday Open 24hrs Saturday Open 24hrs"
"https://www.inova.org","Inova Loudoun Hospital Antenatal Testing Center","44055 Riverside Parkway","Leesburg","VA","20176","US","<MISSING>","703-858-8378","<INACCESSIBLE>","<MISSING>","<MISSING>","<MISSING>"
"https://www.inova.org","Inova Loudoun Hospital Children's Emergency Room","<MISSING>","Leesburg","VA","20176","US","<MISSING>","703-858-6040","<INACCESSIBLE>","<MISSING>","<MISSING>","Sunday Open 24hrs Monday Open 24hrs Tuesday Open 24hrs Wednesday Open 24hrs Thursday Open 24hrs Friday Open 24hrs Saturday Open 24hrs"
"https://www.inova.org","Inova Loudoun Hospital Emergency Room","44045 Riverside Pkwy","Leesburg","VA","20176","US","<MISSING>","703-858-6040","<INACCESSIBLE>","<MISSING>","<MISSING>","Sunday Open 24hrs Monday Open 24hrs Tuesday Open 24hrs Wednesday Open 24hrs Thursday Open 24hrs Friday Open 24hrs Saturday Open 24hrs"
"https://www.inova.org","Inova Loudoun Hospital Imaging Center","<MISSING>","Leesburg","VA","20176","US","<MISSING>","703-858-6470","<INACCESSIBLE>","<MISSING>","<MISSING>","<MISSING>"
"https://www.inova.org","Inova Loudoun Hospital Imaging Center","<MISSING>","Leesburg","VA","20176","US","<MISSING>","703-858-6470","<INACCESSIBLE>","<MISSING>","<MISSING>","Sunday Closed Monday 8AM–6PM Tuesday 8AM–6PM Wednesday 8AM–6PM Thursday 8AM–6PM Friday 8AM–6PM Saturday Closed"
"https://www.inova.org","Inova Loudoun Hospital Lactation Center and Boutique","44055 Riverside Parkway","Leesburg","VA","20176","US","<MISSING>","<MISSING>","<INACCESSIBLE>","<MISSING>","<MISSING>","Sunday Closed Monday 9AM–3PM Tuesday 9AM–3PM Wednesday 9AM–3PM Thursday 9AM–3PM Friday 9AM–3PM Saturday 9AM–3PM"
"https://www.inova.org","Inova Loudoun Hospital Natural Birth Center","<MISSING>","Leesburg","VA","20176","US","<MISSING>","703-858-8690","<INACCESSIBLE>","<MISSING>","<MISSING>","Sunday Open 24hrs Monday Open 24hrs Tuesday Open 24hrs Wednesday Open 24hrs Thursday Open 24hrs Friday Open 24hrs Saturday Open 24hrs"
"https://www.inova.org","Inova Loudoun Hospital Surgery Centers","<MISSING>","Leesburg","VA","20176","US","<MISSING>","703-858-6490","<INACCESSIBLE>","<MISSING>","<MISSING>","Sunday Open 24hrs Monday Open 24hrs Tuesday Open 24hrs Wednesday Open 24hrs Thursday Open 24hrs Friday Open 24hrs Saturday Open 24hrs"
"https://www.inova.org","Inova Loudoun Hospital – Cornwall Campus","<MISSING>","Leesburg","VA","20176","US","<MISSING>","703-289-7560","<INACCESSIBLE>","<MISSING>","<MISSING>","<MISSING>"
"https://www.inova.org","Inova Loudoun Ladies Board Birthing Inn","<MISSING>","Leesburg","VA","20176","US","<MISSING>","703-858-8690","<INACCESSIBLE>","<MISSING>","<MISSING>","Sunday Open 24hrs Monday Open 24hrs Tuesday Open 24hrs Wednesday Open 24hrs Thursday Open 24hrs Friday Open 24hrs Saturday Open 24hrs"
"https://www.inova.org","Inova Loudoun Nursing and Rehabilitation Center","<MISSING>","Leesburg","VA","20176","US","<MISSING>","703-771-2841","<INACCESSIBLE>","<MISSING>","<MISSING>","Sunday 8AM–5PM Monday 8AM–5PM Tuesday 8AM–5PM Wednesday 8AM–5PM Thursday 8AM–5PM Friday 8AM–5PM Saturday 8AM–5PM"
"https://www.inova.org","Inova Loudoun Radiation Oncology Center","44035 Riverside Pkwy.","Leesburg","VA","20176","US","<MISSING>","703-858-8850","<INACCESSIBLE>","<MISSING>","<MISSING>","<MISSING>"
"https://www.inova.org","Inova McLean Ambulatory Surgery Center","7601 Lewinsville Road","McLean","VA","22102","US","<MISSING>","703-663-1440","<INACCESSIBLE>","<MISSING>","<MISSING>","Sunday Closed Monday 6:30AM–5PM Tuesday 6:30AM–5PM Wednesday 6:30AM–5PM Thursday 6:30AM–5PM Friday 6:30AM–5PM Saturday Closed"
"https://www.inova.org","Inova Medical Spa - Ashburn","21785 Filigree Court","Ashburn","VA","20147","US","<MISSING>","703-554-1130","<INACCESSIBLE>","<MISSING>","<MISSING>","<MISSING>"
"https://www.inova.org","Inova Medical Spa at Inova Schar Cancer Institute","8081 Innovation Park Drive","Fairfax","VA","22031","US","<MISSING>","571-472-0750","<INACCESSIBLE>","<MISSING>","<MISSING>","Sunday Closed Monday 10AM–4PM Tuesday 10AM–4PM Wednesday 10AM–4PM Thursday 10AM–4PM Friday 10AM–4PM Saturday Closed"
"https://www.inova.org","Inova Melanoma and Skin Cancer Center","<MISSING>","Fairfax","VA","22031","US","<MISSING>","571-472-4724","<INACCESSIBLE>","<MISSING>","<MISSING>","Sunday Closed Monday 8AM–4:30PM Tuesday 8AM–4:30PM Wednesday 8AM–4:30PM Thursday 8AM–4:30PM Friday 8AM–4:30PM Saturday Closed"
"https://www.inova.org","Inova Mount Vernon Hospital","<MISSING>","Alexandria","VA","22306","US","<MISSING>","703-664-7000","<INACCESSIBLE>","<MISSING>","<MISSING>","Sunday Open 24hrs Monday Open 24hrs Tuesday Open 24hrs Wednesday Open 24hrs Thursday Open 24hrs Friday Open 24hrs Saturday Open 24hrs"
"https://www.inova.org","Inova Mount Vernon Hospital Blood Donor Center","<MISSING>","Alexandria","VA","22306","US","<MISSING>","866-256-6372","<INACCESSIBLE>","<MISSING>","<MISSING>","Sunday Closed Monday 12PM–7PM Tuesday Closed Wednesday Closed Thursday 8AM–3PM Friday Closed Saturday Closed"
"https://www.inova.org","Inova Mount Vernon Hospital Emergency Room","<MISSING>","Alexandria","VA","22306","US","<MISSING>","703-664-7000","<INACCESSIBLE>","<MISSING>","<MISSING>","Sunday Open 24hrs Monday Open 24hrs Tuesday Open 24hrs Wednesday Open 24hrs Thursday Open 24hrs Friday Open 24hrs Saturday Open 24hrs"
"https://www.inova.org","Inova Mount Vernon Hospital Imaging Center","<MISSING>","Alexandria","VA","22306","US","<MISSING>","571-423-5400","<INACCESSIBLE>","<MISSING>","<MISSING>","Sunday Closed Monday 8AM–6PM Tuesday 8AM–6PM Wednesday 8AM–6PM Thursday 8AM–6PM Friday 8AM–6PM Saturday Closed"
"https://www.inova.org","Inova Mount Vernon Hospital Imaging Center","<MISSING>","Alexandria","VA","22306","US","<MISSING>","571-423-5400","<INACCESSIBLE>","<MISSING>","<MISSING>","<MISSING>"
"https://www.inova.org","Inova Mount Vernon Hospital Surgery Center","<MISSING>","Alexandria","VA","22306","US","<MISSING>","703-664-7000","<INACCESSIBLE>","<MISSING>","<MISSING>","<MISSING>"
"https://www.inova.org","Inova Movement Disorders Program - Alexandria","1500 N. Beauregard Street","Alexandria","VA","22311","US","<MISSING>","703-845-1500","<INACCESSIBLE>","<MISSING>","<MISSING>","<MISSING>"
"https://www.inova.org","Inova Movement Disorders Program - Fairfax","8505 Arlington Boulevard","Fairfax","VA","22031","US","<MISSING>","703-280-1234","<INACCESSIBLE>","<MISSING>","<MISSING>","<MISSING>"
"https://www.inova.org","Inova Movement Disorders Program - Fairfax","8503 Arlington Boulevard","Fairfax","VA","22031","US","<MISSING>","703-970-2670","<INACCESSIBLE>","<MISSING>","<MISSING>","<MISSING>"
"https://www.inova.org","Inova MRI Center - Fairfax","8081 Innovation Park Dr.","Fairfax","VA","22031","US","<MISSING>","703-698-4488","<INACCESSIBLE>","<MISSING>","<MISSING>","Sunday Closed Monday 8:30AM–5:30PM Tuesday 8:30AM–5:30PM Wednesday 8:30AM–5:30PM Thursday 8:30AM–5:30PM Friday 8:30AM–5:30PM Saturday Closed"
"https://www.inova.org","Inova MRI Center - Reston","100 Elden St","Herndon","VA","20170","US","<MISSING>","703-698-4488","<INACCESSIBLE>","<MISSING>","<MISSING>","Sunday Closed Monday 8:30AM–5:30PM Tuesday 8:30AM–5:30PM Wednesday 8:30AM–5:30PM Thursday 8:30AM–5:30PM Friday 8:30AM–5:30PM Saturday Closed"
"https://www.inova.org","Inova Neurodiagnostic and Sleep Assessment Center – Fair Oaks","3650 Joseph Siewick Drive","Fairfax","VA","22033","US","<MISSING>","703-391-4000","<INACCESSIBLE>","<MISSING>","<MISSING>","<MISSING>"
"https://www.inova.org","Inova Neurodiagnostic and Sleep Assessment Center – Fairfax","3289 Woodburn Drive","Annandale","VA","22042","US","<MISSING>","703-698-3883","<INACCESSIBLE>","<MISSING>","<MISSING>","<MISSING>"
"https://www.inova.org","Inova Neurodiagnostic and Sleep Assessment Center – Inova Alexandria Hospital","<MISSING>","Alexandria","VA","22304","US","<MISSING>","703-504-3220","<INACCESSIBLE>","<MISSING>","<MISSING>","<MISSING>"
"https://www.inova.org","Inova Neurology - Alexandria","1500 N Beauregard St","Alexandria","VA","22311","US","<MISSING>","703-845-1500","<INACCESSIBLE>","<MISSING>","<MISSING>","Sunday Closed Monday 8:30AM–5PM    Friday 8:30AM–5PM Saturday Closed"
"https://www.inova.org","Inova Neurology - Fair Oaks","3580 Joseph Siewick Dr.","Fairfax","VA","22033","US","<MISSING>","703-391-4500","<INACCESSIBLE>","<MISSING>","<MISSING>","Sunday Closed Monday 8:30AM–5PM Tuesday 8:30AM–5PM Wednesday 8:30AM–5PM Thursday 8:30AM–5PM Friday 8:30AM–5PM Saturday Closed"
"https://www.inova.org","Inova Neurology - Fairfax","8505 Arlington Blvd","Fairfax","VA","22031","US","<MISSING>","703-280-1234","<INACCESSIBLE>","<MISSING>","<MISSING>","Sunday Closed Monday 8AM–4:30PM Tuesday 8AM–4:30PM Wednesday 8AM–4:30PM Thursday 8AM–4:30PM Friday 8AM–4:30PM Saturday Closed"
"https://www.inova.org","Inova Neurosurgery - Alexandria","1500 N Beauregard St","Alexandria","VA","22311","US","<MISSING>","703-970-2670","<INACCESSIBLE>","<MISSING>","<MISSING>","Sunday Closed Monday 8AM–4:30PM Tuesday 8AM–4:30PM Wednesday 8AM–4:30PM Thursday 8AM–4:30PM Friday 8AM–4:30PM Saturday Closed"
"https://www.inova.org","Inova Neurosurgery - Fair Oaks","3580 Joseph Siewick Dr","Fairfax","VA","22033","US","<MISSING>","703-970-2670","<INACCESSIBLE>","<MISSING>","<MISSING>","Sunday Closed Monday 8:30AM–12PM Tuesday Closed Wednesday Closed Thursday Closed Friday Closed Saturday Closed"
"https://www.inova.org","Inova Neurosurgery - Fairfax","8503 Arlington Blvd","Fairfax","VA","22031","US","<MISSING>","703-970-2670","<INACCESSIBLE>","<MISSING>","<MISSING>","Sunday Closed Monday 8AM–4:30PM Tuesday 8AM–4:30PM Wednesday 8AM–4:30PM Thursday 8AM–4:30PM Friday 8AM–4:30PM Saturday Closed"
"https://www.inova.org","Inova Neurosurgery - Gainesville","7051 Heathcote Village Way","Gainesville","VA","20155","US","<MISSING>","703-970-2670","<INACCESSIBLE>","<MISSING>","<MISSING>","Sunday Closed Monday Closed Tuesday Closed Wednesday Closed Thursday Closed Friday 8AM–12PM Saturday Closed"
"https://www.inova.org","Inova Neurosurgery - Lansdowne","44055 Riverside Pkwy","Leesburg","VA","20176","US","<MISSING>","703-970-2670","<INACCESSIBLE>","<MISSING>","<MISSING>","Sunday Closed Monday Closed Tuesday 8AM–4:30PM Wednesday Closed Thursday Closed Friday Closed Saturday 8AM–12PM"
"https://www.inova.org","Inova Northern Virginia Surgery Center (Fair Oaks)","3620 Joseph Siewick Drive","Fairfax","VA","22033","US","<MISSING>","703-766-6960","<INACCESSIBLE>","<MISSING>","<MISSING>","Sunday Closed Monday 6AM–5PM Tuesday 6AM–5PM Wednesday 6AM–5PM Thursday 6AM–5PM Friday 6AM–5PM Saturday Closed"
"https://www.inova.org","Inova OB/GYN Clinic at Loudoun Hospital","44055 Riverside Parkway","Leesburg","VA","20176","US","<MISSING>","703-858-8100","<INACCESSIBLE>","<MISSING>","<MISSING>","Sunday Closed Monday 8:30AM–4:30PM Tuesday 8:30AM–4:30PM Wednesday 8:30AM–4:30PM Thursday 8:30AM–4:30PM Friday 8:30AM–4:30PM Saturday Closed"
"https://www.inova.org","Inova Obstetrics and Gynecology - Ashburn","22505 Landmark Crt","Ashburn","VA","20148","US","<MISSING>","571-612-6350","<INACCESSIBLE>","<MISSING>","<MISSING>","Sunday Closed Monday 8AM–4:30PM Tuesday 8AM–4:30PM Wednesday 8AM–4:30PM Thursday 8AM–4:30PM Friday 8AM–4:30PM Saturday Closed"
"https://www.inova.org","Inova Obstetrics and Gynecology - Ballston","1005 N Glebe Rd","Arlington","VA","22201","US","<MISSING>","571-302-3920","<INACCESSIBLE>","<MISSING>","<MISSING>","Sunday Closed Monday 8:30AM–4:30PM Tuesday 8:30AM–4:30PM Wednesday 8:30AM–4:30PM Thursday 8:30AM–4:30PM Friday 8:30AM–4:30PM Saturday Closed"
"https://www.inova.org","Inova Obstetrics and Gynecology - Dulles South","24801 Pinebrook Rd","Chantilly","VA","20152","US","<MISSING>","703-722-2512","<INACCESSIBLE>","<MISSING>","<MISSING>","Sunday Closed Monday 8AM–4:30PM Tuesday 8AM–4:30PM Wednesday 8AM–4:30PM Thursday 8AM–4:30PM Friday 8AM–4:30PM Saturday Closed"
"https://www.inova.org","Inova Obstetrics and Gynecology - Falls Church","500 N Washington St","Falls Church","VA","22046","US","<MISSING>","571-419-5640","<INACCESSIBLE>","<MISSING>","<MISSING>","Sunday Closed Monday 8AM–4:30PM Tuesday 8AM–4:30PM Wednesday 8AM–4:30PM Thursday 8AM–4:30PM Friday 8AM–4:30PM Saturday Closed"
"https://www.inova.org","Inova Obstetrics and Gynecology - McLean","6845 Elm St","McLean","VA","22101","US","<MISSING>","703-748-9880","<INACCESSIBLE>","<MISSING>","<MISSING>","Sunday Closed Monday 8AM–4:30PM Tuesday 8AM–4:30PM Wednesday 8AM–4:30PM Thursday 8AM–4:30PM Friday 8AM–4:30PM Saturday Closed"
"https://www.inova.org","Inova Obstetrics and Gynecology - Merrifield (Mosaic)","3025 Hamaker Court","Fairfax","VA","22031","US","<MISSING>","703-356-7868","<INACCESSIBLE>","<MISSING>","<MISSING>","Sunday Closed Monday 9AM–5PM Tuesday 9AM–5PM Wednesday 7:30AM–5PM Thursday 9AM–5PM Friday 9AM–4PM Saturday Closed"
"https://www.inova.org","Inova Obstetrics and Gynecology - Shirlington","2800 Shirlington Rd","Arlington","VA","22206","US","<MISSING>","571-777-2410","<INACCESSIBLE>","<MISSING>","<MISSING>","Sunday Closed Monday 8AM–4:30PM Tuesday 8AM–4:30PM Wednesday 8AM–4:30PM Thursday 8AM–4:30PM Friday 8AM–4:30PM Saturday Closed"
"https://www.inova.org","Inova Obstetrics and Gynecology - Woodbridge","14605 Potomac Branch Dr","Woodbridge","VA","22191","US","<MISSING>","571-777-2410","<INACCESSIBLE>","<MISSING>","<MISSING>","Sunday Closed Monday Closed Tuesday 9AM–4PM Wednesday Closed Thursday Closed Friday 9AM–4PM Saturday Closed"
"https://www.inova.org","Inova Occupational Health Center - Alexandria","<MISSING>","Alexandria","VA","22302","US","<MISSING>","571-665-6600","<INACCESSIBLE>","<MISSING>","<MISSING>","Sunday Closed Monday 8AM–4PM Tuesday 8AM–4PM Wednesday 8AM–4PM Thursday 8AM–4PM Friday 8AM–4PM Saturday Closed"
"https://www.inova.org","Inova Occupational Health Center - Ashburn","21785 Filigree Court","Ashburn","VA","20147","US","<MISSING>","703-554-6644","<INACCESSIBLE>","<MISSING>","<MISSING>","Sunday Closed Monday 8AM–3PM Tuesday 8AM–3PM Wednesday 8AM–3PM Thursday 8AM–3PM Friday 8AM–3PM Saturday Closed"
"https://www.inova.org","Inova Orthopedics - Alexandria","6355 Walker Ln","Alexandria","VA","22310","US","<MISSING>","703-797-6980","<INACCESSIBLE>","<MISSING>","<MISSING>","Sunday Closed Monday 8AM–5PM Tuesday 8AM–5PM Wednesday 8AM–5PM Thursday 8AM–5PM Friday 8AM–5PM Saturday Closed"
"https://www.inova.org","Inova Orthopedics - Fairfax","8501 Arlington Blvd","Fairfax","VA","22031","US","<MISSING>","703-970-6464","<INACCESSIBLE>","<MISSING>","<MISSING>","Sunday Closed Monday 8AM–5PM Tuesday 8AM–5PM Wednesday 8AM–5PM Thursday 8AM–5PM Friday 8AM–5PM Saturday Closed"
"https://www.inova.org","Inova Orthopedics - Gainesville","7051 Heathcote Village Way","Gainesville","VA","20155","US","<MISSING>","703-970-6464","<INACCESSIBLE>","<MISSING>","<MISSING>","Sunday Closed Monday 8AM–5PM Tuesday 8AM–5PM Wednesday 8AM–5PM Thursday 8AM–5PM Friday 8AM–5PM Saturday Closed"
"https://www.inova.org","Inova Patient Accounting Office","<MISSING>","Falls Church","VA","22042","US","<MISSING>","571-423-5750","<INACCESSIBLE>","<MISSING>","<MISSING>","Sunday Closed Monday 8AM–4:30PM Tuesday 8AM–4:30PM Wednesday 8AM–4:30PM Thursday 8AM–4:30PM Friday 8AM–4:30PM Saturday Closed"
"https://www.inova.org","Inova Personalized Health Accelerator","8095 Innovation Park Dr","Fairfax","VA","22031","US","<MISSING>","571-472-0291","<INACCESSIBLE>","<MISSING>","<MISSING>","Sunday Closed Monday 8AM–5PM Tuesday 8AM–5PM Wednesday 8AM–5PM Thursday 8AM–5PM Friday 8AM–5PM Saturday Closed"
"https://www.inova.org","Inova PET/CT Imaging Center - Fairfax","8503 Arlington Blvd","Fairfax","VA","22031","US","<MISSING>","703-698-4488","<INACCESSIBLE>","<MISSING>","<MISSING>","Sunday Closed Monday 8:30AM–5:30PM Tuesday 8:30AM–5:30PM Wednesday 8:30AM–5:30PM Thursday 8:30AM–5:30PM Friday 8:30AM–5:30PM Saturday Closed"
"https://www.inova.org","Inova Physical Therapy Center - Alexandria","<MISSING>","Alexandria","VA","22302","US","<MISSING>","571-665-6560","<INACCESSIBLE>","<MISSING>","<MISSING>","Sunday Closed Monday 7AM–8PM Tuesday 7AM–8PM Wednesday 7AM–8PM Thursday 7AM–8PM Friday 7AM–3PM Saturday Closed"
"https://www.inova.org","Inova Physical Therapy Center - Annandale","8100 Braddock Road","Annandale","VA","22003","US","<MISSING>","571-472-0141","<INACCESSIBLE>","<MISSING>","<MISSING>","Sunday Closed Monday 7AM–8PM Tuesday 7AM–8PM Wednesday 7AM–8PM Thursday 7AM–8PM Friday 7AM–4PM Saturday Closed"
"https://www.inova.org","Inova Physical Therapy Center - Arlington/Ballston","<MISSING>","Arlington","VA","22201","US","<MISSING>","571-414-6930","<INACCESSIBLE>","<MISSING>","<MISSING>","Sunday Closed Monday 7AM–8PM Tuesday 7AM–8PM Wednesday 7AM–8PM Thursday 7AM–8PM Friday 7AM–4PM Saturday Closed"
"https://www.inova.org","Inova Physical Therapy Center - Arlington/Virginia Square","<MISSING>","Arlington","VA","22203","US","<MISSING>","571-665-6680","<INACCESSIBLE>","<MISSING>","<MISSING>","Sunday Closed Monday 7AM–8PM Tuesday 7AM–8PM Wednesday 7AM–8PM Thursday 7AM–8PM Friday 7AM–4PM Saturday Closed"
"https://www.inova.org","Inova Physical Therapy Center - Ashburn","<MISSING>","Ashburn","VA","20148","US","<MISSING>","703-726-1616","<INACCESSIBLE>","<MISSING>","<MISSING>","Sunday Closed Monday 7AM–8PM Tuesday 7AM–8PM Wednesday 7AM–8PM Thursday 7AM–8PM Friday 7AM–3:30PM Saturday 8AM–2PM"
"https://www.inova.org","Inova Physical Therapy Center - Centreville","6201 Centreville Rd","Centreville","VA","20121","US","<MISSING>","703-263-2095","<INACCESSIBLE>","<MISSING>","<MISSING>","Sunday Closed Monday 7AM–8PM Tuesday 7AM–8PM Wednesday 7AM–8PM Thursday 7AM–8PM Friday 7AM–5PM Saturday Closed"
"https://www.inova.org","Inova Physical Therapy Center - Chantilly East","3914 Centreville Rd","Chantilly","VA","20151","US","<MISSING>","571-386-3820","<INACCESSIBLE>","<MISSING>","<MISSING>","Sunday Closed Monday 7AM–8PM Tuesday 7AM–8PM Wednesday 7AM–8PM Thursday 7AM–8PM Friday 7AM–3PM Saturday Closed"
"https://www.inova.org","Inova Physical Therapy Center - Chantilly/Dulles South","24801 Pinebrook Rd","Chantilly","VA","20152","US","<MISSING>","703-722-2525","<INACCESSIBLE>","<MISSING>","<MISSING>","Sunday Closed Monday 7AM–8PM Tuesday 7AM–8PM Wednesday 7AM–8PM Thursday 7AM–8PM Friday 7AM–5PM Saturday Closed"
"https://www.inova.org","Inova Physical Therapy Center - Cub Run/Chantilly","4630 Stonecroft Blvd","Chantilly","VA","20151","US","<MISSING>","571-472-0141","<INACCESSIBLE>","<MISSING>","<MISSING>","Sunday Closed Monday 7AM–8PM Tuesday 7AM–8PM Wednesday 7AM–8PM Thursday 7AM–8PM Friday 7AM–4PM Saturday Closed"
"https://www.inova.org","Inova Physical Therapy Center - Fair Oaks","3620 Joseph Siewick Dr","Fairfax","VA","22033","US","<MISSING>","703-391-2450","<INACCESSIBLE>","<MISSING>","<MISSING>","Sunday Closed Monday 7AM–7PM Tuesday 7AM–7PM Wednesday 7AM–7PM Thursday 7AM–7PM Friday 7AM–5PM Saturday Closed"
"https://www.inova.org","Inova Physical Therapy Center - Fairfax/Prosperity","<MISSING>","Fairfax","VA","22031","US","<MISSING>","703-970-6490","<INACCESSIBLE>","<MISSING>","<MISSING>","Sunday Closed Monday 7AM–8PM Tuesday 7AM–8PM Wednesday 7AM–8PM Thursday 7AM–8PM Friday 7AM–4:30PM Saturday Closed"
"https://www.inova.org","Inova Physical Therapy Center - Fairfax/Sports Medicine","8100 Innovation Park Dr","Fairfax","VA","22031","US","<MISSING>","571-472-0490","<INACCESSIBLE>","<MISSING>","<MISSING>","Sunday Closed Monday 7AM–8PM Tuesday 7AM–8PM Wednesday 7AM–8PM Thursday 7AM–8PM Friday 7AM–4:30PM Saturday Closed"
"https://www.inova.org","Inova Physical Therapy Center - Franconia/Springfield","<MISSING>","Alexandria","VA","22310","US","<MISSING>","703-797-6900","<INACCESSIBLE>","<MISSING>","<MISSING>","Sunday Closed Monday 7AM–8PM Tuesday 7AM–8PM Wednesday 7AM–8PM Thursday 7AM–8PM Friday 7AM–8PM Saturday Closed"
"https://www.inova.org","Inova Physical Therapy Center - Mount Vernon","<MISSING>","Alexandria","VA","22306-3409","US","<MISSING>","703-664-7660","<INACCESSIBLE>","<MISSING>","<MISSING>","Sunday Closed Monday 7AM–7PM Tuesday 7AM–7PM Wednesday 7AM–7PM Thursday 7AM–7PM Friday 7AM–4:30PM Saturday Closed"
"https://www.inova.org","Inova Physical Therapy Center - Spring Hill/McLean","1239 Spring Hill Road","McLean","VA","22102","US","<MISSING>","571-472-0141","<INACCESSIBLE>","<MISSING>","<MISSING>","Sunday Closed Monday 7AM–8PM Tuesday 7AM–8PM Wednesday 7AM–8PM Thursday 7AM–8PM Friday 7AM–4PM Saturday Closed"
"https://www.inova.org","Inova Physical Therapy Center - Springfield","<MISSING>","West Springfield","VA","22152-1650","US","<MISSING>","703-569-7335","<INACCESSIBLE>","<MISSING>","<MISSING>","Sunday Closed Monday 8AM–8PM Tuesday 7AM–8PM Wednesday 7AM–8PM Thursday 7AM–8PM Friday 7AM–5PM Saturday Closed"
"https://www.inova.org","Inova Physical Therapy Center - Tysons/Vienna","<MISSING>","Vienna","VA","22182","US","<MISSING>","703-734-2889","<INACCESSIBLE>","<MISSING>","<MISSING>","Sunday Closed Monday 7AM–8PM Tuesday 7AM–8PM Wednesday 7AM–8PM Thursday 7AM–8PM Friday 7AM–4PM Saturday Closed"
"https://www.inova.org","Inova Physical Therapy Center - Woodbridge","<MISSING>","Woodbridge","VA","22191","US","<MISSING>","703-580-5160","<INACCESSIBLE>","<MISSING>","<MISSING>","Sunday Closed Monday 6AM–7PM Tuesday 6AM–7PM Wednesday 6AM–7PM Thursday 6AM–7PM Friday 6AM–4PM Saturday Closed"
"https://www.inova.org","Inova Podiatric Surgery - Arlington","1005 N Glebe Rd","Arlington","VA","22201","US","<MISSING>","703-970-6464","<INACCESSIBLE>","<MISSING>","<MISSING>","Sunday Closed Monday 9AM–5PM Tuesday 9AM–5PM Wednesday 9AM–5PM Thursday 9AM–5PM Friday 9AM–5PM Saturday Closed"
"https://www.inova.org","Inova Podiatric Surgery - Fairfax","8501 Arlington Blvd","Fairfax","VA","22031","US","<MISSING>","703-970-6464","<INACCESSIBLE>","<MISSING>","<MISSING>","Sunday Closed Monday 8AM–4:30PM Tuesday 8AM–4:30PM Wednesday 8AM–4:30PM Thursday 8AM–4:30PM Friday 8AM–4:30PM Saturday Closed"
"https://www.inova.org","Inova Podiatric Surgery - Gainesville","7051 Heathcote Village Way","Gainesville","VA","20155","US","<MISSING>","703-970-6464","<INACCESSIBLE>","<MISSING>","<MISSING>","Sunday Closed Monday 9AM–5PM Tuesday 9AM–5PM Wednesday 9AM–5PM Thursday 9AM–5PM Friday 9AM–5PM Saturday Closed"
"https://www.inova.org","Inova Pre-Procedural Evaluation Clinic","3300 Gallows Rd","Falls Church","VA","22042","US","<MISSING>","703-776-2000","<INACCESSIBLE>","<MISSING>","<MISSING>","Sunday Closed Monday 7AM–7PM Tuesday 7AM–7PM Wednesday 7AM–7PM Thursday 7AM–7PM Friday 7AM–7PM Saturday Closed"
"https://www.inova.org","Inova Primary Care - Annandale","7617 Little River Tpk","Annandale","VA","22003","US","<MISSING>","703-256-5680","<INACCESSIBLE>","<MISSING>","<MISSING>","Sunday Closed Monday 7AM–5PM Tuesday 7AM–5PM Wednesday 7AM–5PM Thursday 7AM–5PM Friday 7AM–5PM Saturday 8AM–12PM"
"https://www.inova.org","Inova Primary Care - Ashburn (Filigree Crt)","21785 Filigree Ct","Ashburn","VA","20147","US","<MISSING>","703-554-1100","<INACCESSIBLE>","<MISSING>","<MISSING>","Sunday Closed Monday 8AM–6:30PM Tuesday 8AM–6:30PM Wednesday 8AM–6:30PM Thursday 8AM–6:30PM Friday 8AM–4:30PM Saturday Closed"
"https://www.inova.org","Inova Primary Care - Ashburn HealthPlex (Landmark Crt)","22505 Landmark Ct","Ashburn","VA","20148","US","<MISSING>","703-858-3140","<INACCESSIBLE>","<MISSING>","<MISSING>","Sunday Closed Monday 7:30AM–6PM Tuesday 7:30AM–6PM Wednesday 7:30AM–6PM Thursday 7:30AM–5PM Friday 7:30AM–5PM Saturday Closed"
"https://www.inova.org","Inova Primary Care - Ballston","1005 N Glebe Rd","Arlington","VA","22201","US","<MISSING>","571-492-3045","<INACCESSIBLE>","<MISSING>","<MISSING>","Sunday Closed Monday 7:30AM–5PM Tuesday 7:30AM–5PM Wednesday 7:30AM–5PM Thursday 7:30AM–5PM Friday 7:30AM–5PM Saturday Closed"
"https://www.inova.org","Inova Primary Care - Centreville","6101 Redwood Square Centre","Centreville","VA","20121","US","<MISSING>","703-631-0331","<INACCESSIBLE>","<MISSING>","<MISSING>","Sunday Closed Monday 8AM–5PM Tuesday 8AM–5PM Wednesday 8AM–5PM Thursday 8AM–5PM Friday 8AM–5PM Saturday Closed"
"https://www.inova.org","Inova Primary Care - Chantilly","3914 Centreville Rd","Chantilly","VA","20151","US","<MISSING>","703-435-1223","<INACCESSIBLE>","<MISSING>","<MISSING>","Sunday Closed Monday 7AM–4:30PM Tuesday 7AM–4:30PM Wednesday 7AM–4:30PM Thursday 7AM–4:30PM Friday 7AM–4:30PM Saturday Closed"
"https://www.inova.org","Inova Primary Care - Dulles South","24801 Pinebrook Rd","Chantilly","VA","20152","US","<MISSING>","703-722-2510","<INACCESSIBLE>","<MISSING>","<MISSING>","Sunday Closed Monday 8AM–4:30PM Tuesday 8AM–4:30PM Wednesday 8AM–4:30PM Thursday 8AM–4:30PM Friday 8AM–4:30PM Saturday Closed"
"https://www.inova.org","Inova Primary Care - Dunn Loring","2671 Avenir Pl","Vienna","VA","22180","US","<MISSING>","703-207-8600","<INACCESSIBLE>","<MISSING>","<MISSING>","Sunday Closed Monday 7AM–5PM"
"https://www.inova.org","Inova Primary Care - Falls Church","6565 Arlington Blvd","Falls Church","VA","22042","US","<MISSING>","703-531-2244","<INACCESSIBLE>","<MISSING>","<MISSING>","Sunday Closed Monday 7AM–5PM Tuesday 7AM–5PM Wednesday 7AM–5PM Thursday 7AM–5PM Friday 7AM–5PM Saturday Closed"
"https://www.inova.org","Inova Primary Care - Gainesville","13575 Heathcote Blvd","Gainesville","VA","20155","US","<MISSING>","571-248-4620","<INACCESSIBLE>","<MISSING>","<MISSING>","Sunday Closed Monday 8AM–5PM Tuesday 8AM–5PM Wednesday 8AM–5PM Thursday 8AM–5PM Friday 8AM–5PM Saturday Closed"
"https://www.inova.org","Inova Primary Care - Lake Ridge","<MISSING>","Woodbridge","VA","22192","US","<MISSING>","703-494-6111","<INACCESSIBLE>","<MISSING>","<MISSING>","Sunday Closed Monday 7AM–4:30PM Tuesday 7AM–4:30PM Wednesday 7AM–4:30PM Thursday 7AM–4:30PM Friday 7AM–4:30PM Saturday Closed"
"https://www.inova.org","Inova Primary Care - Leesburg","<MISSING>","Leesburg","VA","20176","US","<MISSING>","703-777-9510","<INACCESSIBLE>","<MISSING>","<MISSING>","Sunday Closed Monday 8AM–7:30PM Tuesday 8AM–7:30PM Wednesday 8AM–7:30PM Thursday 8AM–7:30PM Friday 8AM–6:30PM Saturday 8AM–12:30PM"
"https://www.inova.org","Inova Primary Care - Lorton","9321 Sanger St","Lorton","VA","22079","US","<MISSING>","703-982-8390","<INACCESSIBLE>","<MISSING>","<MISSING>","Sunday Closed Monday 8AM–4:30PM Tuesday 8AM–4:30PM Wednesday 8AM–4:30PM Thursday 8AM–4:30PM Friday 8AM–4:30PM Saturday Closed"
"https://www.inova.org","Inova Primary Care - Manassas","8140 Ashton Ave","Manassas","VA","20109","US","<MISSING>","571-665-6550","<INACCESSIBLE>","<MISSING>","<MISSING>","Sunday Closed Monday 8AM–4:30PM  Wednesday 8AM–4:30PM Thursday 8AM–4:30PM Friday 8AM–4:30PM Saturday Closed"
"https://www.inova.org","Inova Primary Care - Mark Center","1800 N Beauregard St","Alexandria","VA","22311","US","<MISSING>","703-933-8111","<INACCESSIBLE>","<MISSING>","<MISSING>","Sunday Closed Monday 7:30AM–5PM Tuesday 7:30AM–5PM Wednesday 7:30AM–5PM Thursday 7:30AM–5PM Friday 7:30AM–5PM Saturday Closed"
"https://www.inova.org","Inova Primary Care - McLean","6845 Elm St","McLean","VA","22101","US","<MISSING>","703-848-8500","<INACCESSIBLE>","<MISSING>","<MISSING>","Sunday Closed Monday 7AM–4:30PM Tuesday 8AM–4:30PM Wednesday 7AM–4:30PM Thursday 7AM–4:30PM Friday 8AM–4:30PM Saturday Closed"
"https://www.inova.org","Inova Primary Care - Mount Vernon","8109 Tis Well Dr","Alexandria","VA","22306","US","<MISSING>","703-799-4000","<INACCESSIBLE>","<MISSING>","<MISSING>","Sunday Closed Monday 7AM–5PM Tuesday 7AM–5PM Wednesday 7AM–5PM Thursday 7AM–5PM Friday 7AM–5PM Saturday Closed"
"https://www.inova.org","Inova Primary Care - Oakton","10530 Rosehaven St","Fairfax","VA","22030","US","<MISSING>","703-938-0363","<INACCESSIBLE>","<MISSING>","<MISSING>","Sunday Closed Monday 7:30AM–5PM Tuesday 7:30AM–5PM Wednesday 7:30AM–5PM Thursday 7:30AM–5PM Friday 7:30AM–5PM Saturday Closed"
"https://www.inova.org","Inova Primary Care - Old Town","<MISSING>","Alexandria","VA","22314","US","<MISSING>","703-683-7220","<INACCESSIBLE>","<MISSING>","<MISSING>","Sunday Closed Monday 7:30AM–5PM Tuesday 7:30AM–5PM Wednesday 7:30AM–5PM Thursday 7:30AM–5PM Friday 7:30AM–5PM Saturday Closed"
"https://www.inova.org","Inova Primary Care - Purcellville","<MISSING>","Purcellville","VA","20132","US","<MISSING>","540-338-7116","<INACCESSIBLE>","<MISSING>","<MISSING>","Sunday Closed Monday 8AM–4:30PM Tuesday 8AM–4:30PM Wednesday 8AM–4:30PM Thursday 8AM–4:30PM Friday 8AM–4:30PM Saturday Closed"
"https://www.inova.org","Inova Primary Care - Shirlington","2800 S. Shirlington Rd","Arlington","VA","22206","US","<MISSING>","571-777-2420","<INACCESSIBLE>","<MISSING>","<MISSING>","Sunday Closed Monday 8AM–4PM Tuesday 8AM–4PM Wednesday 8AM–4PM Thursday 8AM–4PM Friday 8AM–4PM Saturday Closed"
"https://www.inova.org","Inova Primary Care - Springfield","6355 Walker Ln","Alexandria","VA","22310","US","<MISSING>","703-797-6970","<INACCESSIBLE>","<MISSING>","<MISSING>","Sunday Closed Monday 7AM–4:30PM Tuesday 7AM–4:30PM Wednesday 7AM–4:30PM Thursday 7AM–4:30PM Friday 7AM–4:30PM Saturday Closed"
"https://www.inova.org","Inova Primary Care - Sterling","<MISSING>","Potomac Falls","VA","20165","US","<MISSING>","703-430-4343","<INACCESSIBLE>","<MISSING>","<MISSING>","Sunday Closed Monday 7AM–5:30PM Tuesday 8AM–7:30PM Wednesday 8AM–7:30PM Thursday 8AM–7:30PM Friday 7AM–5:30PM Saturday 8AM–12:30PM"
"https://www.inova.org","Inova Primary Care - Vienna","130 Park St SE","Vienna","VA","22180","US","<MISSING>","703-938-7800","<INACCESSIBLE>","<MISSING>","<MISSING>","Sunday Closed Monday 7:30AM–5PM Tuesday 7:30AM–5PM Wednesday 7:30AM–5PM Thursday 7:30AM–5PM Friday 7:30AM–5PM Saturday Closed"
"https://www.inova.org","Inova Professional Services Building – Surgery Center","Inova Fairfax Medical Campus","Falls Church","VA","22042","US","<MISSING>","703-776-6630","<INACCESSIBLE>","<MISSING>","<MISSING>","Sunday Closed Monday 6AM–8PM Tuesday 6AM–8PM Wednesday 6AM–8PM Thursday 6AM–8PM Friday 6AM–8PM Saturday Closed"
"https://www.inova.org","Inova Psychiatric Assessment Center (IPAC)","8221 Willow Oaks Corporate Drive","Fairfax","VA","22031","US","<MISSING>","703-289-7560","<INACCESSIBLE>","<MISSING>","<MISSING>","Sunday Closed Monday 10AM–6PM Tuesday 10AM–6PM Wednesday 10AM–6AM Thursday 10AM–6PM Friday 10AM–6PM Saturday 10AM–6PM"
"https://www.inova.org","Inova Rehabilitation Center","<MISSING>","Alexandria","VA","22306","US","<MISSING>","703-664-7592","<INACCESSIBLE>","<MISSING>","<MISSING>","Sunday 8AM–5PM Monday 8AM–5PM Tuesday 8AM–5PM Wednesday 8AM–5PM Thursday 8AM–5PM Friday 8AM–5PM Saturday 8AM–5PM"
"https://www.inova.org","Inova Rheumatology","8501 Arlington Blvd","Fairfax","VA","22031","US","<MISSING>","703-259-9050","<INACCESSIBLE>","<MISSING>","<MISSING>","Sunday Closed Monday 7AM–4PM Tuesday 7AM–4PM Wednesday 7AM–4PM Thursday 7AM–4PM Friday 7AM–4PM Saturday Closed"
"https://www.inova.org","Inova Schar Cancer Institute | A Department of Inova Fairfax","<MISSING>","Fairfax","VA","22031","US","<MISSING>","571-472-4724","<INACCESSIBLE>","<MISSING>","<MISSING>","Sunday Closed Monday 8AM–5PM Tuesday 8AM–5PM Wednesday 8AM–5PM Thursday 8AM–5PM Friday 8AM–5PM Saturday Closed"
"https://www.inova.org","Inova Schar Cancer Institute – Peterson Family Breast Center","44045 Riverside Pkwy","Leesburg","VA","20176","US","<MISSING>","703-858-6470","<INACCESSIBLE>","<MISSING>","<MISSING>","Sunday Closed Monday 8AM–6PM Tuesday 8AM–6PM Wednesday 8AM–6PM Thursday 8AM–6PM Friday 8AM–6PM Saturday Closed"
"https://www.inova.org","Inova Sports Medicine - Arlington","1005 N Glebe Rd","Arlington","VA","22201","US","<MISSING>","703-970-6464","<INACCESSIBLE>","<MISSING>","<MISSING>","Sunday Closed Monday 8AM–5PM Tuesday 8AM–5PM Wednesday 8AM–5PM Thursday 8AM–5PM Friday 8AM–5PM Saturday Closed"
"https://www.inova.org","Inova Sports Medicine - Ashburn","22505 Landmark Crt","Ashburn","VA","20148","US","<MISSING>","703-970-6464","<INACCESSIBLE>","<MISSING>","<MISSING>","Sunday Closed Monday 7:30AM–4:30PM Tuesday 7:30AM–4:30PM Wednesday 7:30AM–4:30PM Thursday 7:30AM–4:30PM Friday 7:30AM–11:30AM Saturday Closed"
"https://www.inova.org","Inova Sports Medicine - Fairfax","8100 Innovation Park Dr","Fairfax","VA","22031","US","<MISSING>","703-970-6464","<INACCESSIBLE>","<MISSING>","<MISSING>","Sunday Closed Monday 8AM–5PM Tuesday 8AM–5PM Wednesday 8AM–5PM Thursday 8AM–5PM Friday 8AM–5PM Saturday Closed"
"https://www.inova.org","Inova Sports Medicine Concussion Program - Fairfax","8100 Innovation Park Dr","Fairfax","VA","22031","US","<MISSING>","703-970-6427","<INACCESSIBLE>","<MISSING>","<MISSING>","Sunday Closed Monday 8AM–5PM Tuesday 8AM–5PM Wednesday 8AM–5PM Thursday 8AM–5PM Friday 8AM–5PM Saturday Closed"
"https://www.inova.org","Inova Sports Performance powered by EXOS","8100 Innovation Park Dr","Fairfax","VA","22031","US","<MISSING>","804-818-6349","<INACCESSIBLE>","<MISSING>","<MISSING>","Sunday Closed Monday 5:30AM–7:30PM Tuesday 5:30AM–7:30PM Wednesday 5:30AM–7:30PM Thursday 5:30AM–7:30PM Friday 5:30AM–7:30PM Saturday Closed"
"https://www.inova.org","Inova Strategic Investments","8095 Innovation Park Dr","Fairfax","VA","22031","US","<MISSING>","571-472-0291","<INACCESSIBLE>","<MISSING>","<MISSING>","Sunday Closed Monday 8AM–5PM Tuesday 8AM–5PM Wednesday 8AM–5PM Thursday 8AM–5PM Friday 8AM–5PM Saturday Closed"
"https://www.inova.org","Inova Structural Heart Disease Program","<MISSING>","Falls Church","VA","22042","US","<MISSING>","703-776-3135","<INACCESSIBLE>","<MISSING>","<MISSING>","Sunday Closed Monday 8AM–5PM Tuesday 8AM–5PM Wednesday 8AM–5PM Thursday 8AM–5PM Friday 8AM–5PM Saturday Closed"
"https://www.inova.org","Inova Trauma Center - Fairfax","3300 Gallows Road","Falls Church","VA","22042","US","<MISSING>","703-776-2274","<INACCESSIBLE>","<MISSING>","<MISSING>","<MISSING>"
"https://www.inova.org","Inova Trauma Center - Loudon","Inova Loudoun Hospital","Leesburg","VA","20176","US","<MISSING>","703-858-8671","<INACCESSIBLE>","<MISSING>","<MISSING>","<MISSING>"
"https://www.inova.org","Inova Urgent Care - Centreville","6201 Centreville Rd","Centreville","VA","20121","US","<MISSING>","703-830-5600","<INACCESSIBLE>","<MISSING>","<MISSING>","Sunday 9AM–4PM Monday 8AM–8PM Tuesday 8AM–8PM Wednesday 8AM–8PM Thursday 8AM–8PM Friday 8AM–8PM Saturday 9AM–4PM"
"https://www.inova.org","Inova Urgent Care - Dulles South","24801 Pinebrook Rd","Chantilly","VA","20152","US","<MISSING>","703-722-2500","<INACCESSIBLE>","<MISSING>","<MISSING>","Sunday 9AM–4PM Monday 8AM–10PM Tuesday 8AM–10PM Wednesday 8AM–10PM Thursday 8AM–10PM Friday 8AM–10PM Saturday 9AM–4PM"
"https://www.inova.org","Inova Urgent Care - Dunn Loring","2671 Avenir Place","Vienna","VA","22180","US","<MISSING>","571-623-3770","<INACCESSIBLE>","<MISSING>","<MISSING>","Sunday 9AM–4PM Monday 8AM–8PM Tuesday 8AM–8PM Wednesday 8AM–8PM Thursday 8AM–8PM Friday 8AM–8PM Saturday 9AM–4PM"
"https://www.inova.org","Inova Urgent Care - North Arlington","<MISSING>","Arlington","VA","22207","US","<MISSING>","571-492-3080","<INACCESSIBLE>","<MISSING>","<MISSING>","Sunday 9AM–4PM Monday 8AM–8PM Tuesday 8AM–8PM Wednesday 8AM–8PM Thursday 8AM–8PM Friday 8AM–8PM Saturday 9AM–4PM"
"https://www.inova.org","Inova Urgent Care - Purcellville","<MISSING>","Purcellville","VA","20132","US","<MISSING>","540-338-4995","<INACCESSIBLE>","<MISSING>","<MISSING>","Sunday 9AM–4PM Monday 8AM–8PM Tuesday 8AM–8PM Wednesday 8AM–8PM Thursday 8AM–8PM Friday 8AM–8PM Saturday 9AM–4PM"
"https://www.inova.org","Inova Urgent Care - Reston","<MISSING>","Reston","VA","20194","US","<MISSING>","571-525-5850","<INACCESSIBLE>","<MISSING>","<MISSING>","Sunday 8AM–8PM Monday 8AM–8PM Tuesday 8AM–8PM Wednesday 8AM–8PM Thursday 8AM–8PM Friday 8AM–8PM Saturday 8AM–8PM"
"https://www.inova.org","Inova Urgent Care - South Arlington","<MISSING>","Arlington","VA","22204","US","<MISSING>","703-746-0111","<INACCESSIBLE>","<MISSING>","<MISSING>","Sunday 9AM–4PM Monday 8AM–8PM Tuesday 8AM–8PM Wednesday 8AM–8PM Thursday 8AM–8PM Friday 8AM–8PM Saturday 9AM–4PM"
"https://www.inova.org","Inova Urgent Care - Tysons","<MISSING>","Vienna","VA","22182","US","<MISSING>","571-665-6440","<INACCESSIBLE>","<MISSING>","<MISSING>","Sunday 9AM–4PM Monday 8AM–8PM Tuesday 8AM–8PM Wednesday 8AM–8PM Thursday 8AM–8PM Friday 8AM–8PM Saturday 9AM–4PM"
"https://www.inova.org","Inova Urgent Care - Vienna","<MISSING>","Vienna","VA","22180","US","<MISSING>","703-938-5300","<INACCESSIBLE>","<MISSING>","<MISSING>","Sunday 9AM–4PM Monday 8AM–8PM Tuesday 8AM–8PM Wednesday 8AM–8PM Thursday 8AM–8PM Friday 8AM–8PM Saturday 9AM–4PM"
"https://www.inova.org","Inova Urgent Care - West Springfield","6230 Rolling Rd","Springfield","VA","22152","US","<MISSING>","571-665-6460","<INACCESSIBLE>","<MISSING>","<MISSING>","Sunday 9AM–4PM Monday 8AM–8PM Tuesday 8AM–8PM Wednesday 8AM–8PM Thursday 8AM–8PM Friday 8AM–8PM Saturday 9AM–4PM"
"https://www.inova.org","Inova Urogynecology - Falls Church","500 N. Washington St","Falls Church","VA","22046","US","<MISSING>","571-419-5645","<INACCESSIBLE>","<MISSING>","<MISSING>","Sunday Closed Monday 8AM–8AM Tuesday 8AM–4:30PM Wednesday 8AM–4:30PM Thursday 8AM–4:30PM Friday 8AM–4:30PM Saturday Closed"
"https://www.inova.org","Inova Urogynecology - Leesburg","44055 Riverside Parkway","Leesburg","VA","20176","US","<MISSING>","703-208-4200","<INACCESSIBLE>","<MISSING>","<MISSING>","Sunday Closed Monday Closed Tuesday Closed Wednesday Closed Thursday 8AM–4PM Friday Closed Saturday Closed"
"https://www.inova.org","Inova Urology","8503 Arlington Blvd","Fairfax","VA","22031","US","<MISSING>","703-208-4200","<INACCESSIBLE>","<MISSING>","<MISSING>","Sunday Closed Monday 8:30AM–5PM Tuesday 8:30AM–5PM Wednesday 8:30AM–5PM Thursday 8:30AM–5PM Friday 8:30AM–5PM Saturday Closed"
"https://www.inova.org","Inova Vascular - Fairfax","3580 Joseph Siewick Dr","Fairfax","VA","22033","US","<MISSING>","703-280-5858","<INACCESSIBLE>","<MISSING>","<MISSING>","Sunday Closed Monday Closed Tuesday 7:30AM–12PM Wednesday Closed Thursday 7:15AM–3:30PM Friday 8AM–4PM Saturday Closed"
"https://www.inova.org","Inova Vascular - Falls Church","<MISSING>","Falls Church","VA","22042","US","<MISSING>","703-280-5858","<INACCESSIBLE>","<MISSING>","<MISSING>","Sunday Closed Monday 9AM–5PM Tuesday 9AM–5PM Wednesday 9AM–5PM Thursday 9AM–5PM Friday 9AM–5PM Saturday Closed"
"https://www.inova.org","Inova Vascular - Leesburg","44055 Riverside Pkwy","Leesburg","VA","20176","US","<MISSING>","703-858-8781","<INACCESSIBLE>","<MISSING>","<MISSING>","Sunday Closed Monday Closed Tuesday 8AM–11:30AM Wednesday Closed Thursday 8AM–12PM Friday 8AM–12PM Saturday Closed"
"https://www.inova.org","Inova Vascular - Manassas","8140 Ashton Ave","Manassas","VA","20109","US","<MISSING>","703-280-5858","<INACCESSIBLE>","<MISSING>","<MISSING>","Sunday Closed Monday Closed Tuesday Closed Wednesday Closed Thursday 9AM–5PM Friday 7:30AM–5PM Saturday Closed"
"https://www.inova.org","Inova Vascular - Mark Center","1800 N Beauregard St","Alexandria","VA","22311","US","<MISSING>","703-207-7007","<INACCESSIBLE>","<MISSING>","<MISSING>","Sunday Closed Monday 9AM–5PM Tuesday Closed Wednesday Closed Thursday 8AM–5PM Friday Closed Saturday Closed"
"https://www.inova.org","Inova Vascular - Mount Vernon","8101 Hinson Farm Rd","Alexandria","VA","22306","US","<MISSING>","703-280-5858","<INACCESSIBLE>","<MISSING>","<MISSING>","Sunday Closed Monday Closed Tuesday Closed Wednesday Closed Thursday Closed Friday 8:30AM–12PM Saturday Closed"
"https://www.inova.org","Inova Vascular - Woodbridge","14605 Potomac Branch Dr","Woodbridge","VA","22191","US","<MISSING>","703-207-7007","<INACCESSIBLE>","<MISSING>","<MISSING>","Sunday Closed Monday Closed Tuesday Closed Wednesday 1PM–4:30PM Thursday Closed Friday Closed Saturday Closed"
"https://www.inova.org","Inova Vein and Vascular Center - Gainesville","13575 Heathcote Blvd","Gainesville","VA","20155","US","<MISSING>","703-468-2600","<INACCESSIBLE>","<MISSING>","<MISSING>","Sunday Closed Monday 8AM–5PM Tuesday 8AM–5PM Wednesday 8AM–5PM Thursday 8AM–5PM Friday 8AM–5PM Saturday Closed"
"https://www.inova.org","Inova VIP 360° Concierge Medicine - Fair Oaks","<MISSING>","Fairfax","VA","22033","US","<MISSING>","703-391-4520","<INACCESSIBLE>","<MISSING>","<MISSING>","Sunday Closed Monday 8AM–5PM Tuesday 8AM–5PM Wednesday 8AM–5PM Thursday 8AM–5PM Friday 8AM–5PM Saturday Closed"
"https://www.inova.org","Inova VIP 360º Concierge Medicine - Alexandria","1225 Martha Custis Dr","Alexandria","VA","22302","US","<MISSING>","703-671-2700","<INACCESSIBLE>","<MISSING>","<MISSING>","Sunday Closed Monday 8AM–5PM Tuesday 8AM–5PM Wednesday 8AM–5PM Thursday 8AM–5PM Friday 8AM–5PM Saturday Closed"
"https://www.inova.org","Inova VIP 360º Concierge Medicine - Fairfax Medical Campus","3300 Gallows Road","Falls Church","VA","22042","US","<MISSING>","703-776-7005","<INACCESSIBLE>","<MISSING>","<MISSING>","Sunday Closed Monday 8AM–5PM Tuesday 8AM–5PM Wednesday 8AM–5PM Thursday 8AM–5PM Friday 8AM–5PM Saturday Closed"
"https://www.inova.org","Inova VIP 360º Concierge Medicine - Leesburg","19500 Sandridge Way","Leesburg","VA","20176","US","<MISSING>","703-840-7300","<INACCESSIBLE>","<MISSING>","<MISSING>","Sunday Closed Monday 8AM–5PM Tuesday 8AM–5PM Wednesday 8AM–5PM Thursday 8AM–5PM Friday 8AM–5PM Saturday Closed"
"https://www.inova.org","Inova VIP 360º Concierge Medicine - Springfield HealthPlex","<MISSING>","Alexandria","VA","22310","US","<MISSING>","703-373-3718","<INACCESSIBLE>","<MISSING>","<MISSING>","Sunday Closed Monday 8AM–5PM Tuesday 8AM–5PM Wednesday 8AM–5PM Thursday 8AM–5PM Friday 8AM–5PM Saturday Closed"
"https://www.inova.org","Inova Virts Miller Family Emergency and Trauma Center","<MISSING>","Leesburg","VA","20176","US","<MISSING>","703-858-6040","<INACCESSIBLE>","<MISSING>","<MISSING>","<MISSING>"
"https://www.inova.org","Inova Women's Hospital","<MISSING>","Falls Church","VA","22042","US","<MISSING>","703-776-4001","<INACCESSIBLE>","<MISSING>","<MISSING>","Sunday Open 24hrs Monday Open 24hrs Tuesday Open 24hrs Wednesday Open 24hrs Thursday Open 24hrs Friday Open 24hrs Saturday Open 24hrs"
"https://www.inova.org","Inova Women's Hospital - Childbirth Services","Inova Fairfax Medical Campus","Falls Church","VA","22042","US","<MISSING>","703-776-4001","<INACCESSIBLE>","<MISSING>","<MISSING>","<MISSING>"
"https://www.inova.org","Inova Woodburn Surgery Center","3289 Woodburn Road","Annandale","VA","22003","US","<MISSING>","703-226-2640","<INACCESSIBLE>","<MISSING>","<MISSING>","Sunday Closed Monday 6AM–5PM Tuesday 6AM–5PM Wednesday 6AM–5PM Thursday 6AM–5PM Friday 6AM–5PM Saturday Closed"
"https://www.inova.org","Inova Wound Healing Center – Fair Oaks","3700 Joseph Siewick Drive","Fairfax","VA","22033","US","<MISSING>","703-391-3784","<INACCESSIBLE>","<MISSING>","<MISSING>","Sunday Closed Monday 8:30AM–5PM Tuesday 8:30AM–5PM Wednesday 8:30AM–5PM Thursday 8:30AM–5PM Friday 8:30AM–5PM Saturday Closed"
"https://www.inova.org","Inova Wound Healing Center – Fairfax","3299 Woodburn Road","Annandale","VA","22003","US","<MISSING>","703-876-2710","<INACCESSIBLE>","<MISSING>","<MISSING>","<MISSING>"
"https://www.inova.org","Inova Wound Healing Center – Loudoun","44055 Riverside Parkway","Leesburg","VA","20176","US","<MISSING>","703-858-6399","<INACCESSIBLE>","<MISSING>","<MISSING>","Sunday Closed Monday 8AM–5PM Tuesday 8AM–5PM Wednesday 8AM–5PM Thursday 8AM–5PM Friday 8AM–5PM Saturday Closed"
"https://www.inova.org","Joint Replacement at Inova Loudoun Hospital","<MISSING>","Leesburg","VA","20176","US","<MISSING>","703-858-6721","<INACCESSIBLE>","<MISSING>","<MISSING>","<MISSING>"
"https://www.inova.org","Life with Cancer®","<MISSING>","Fairfax","VA","22031","US","<MISSING>","703-504-3007","<INACCESSIBLE>","<MISSING>","<MISSING>","<MISSING>"
"https://www.inova.org","McLean Treasure Trove Store","Salona Village Shopping Center","McLean","VA","22102","US","<MISSING>","703-356-8704","<INACCESSIBLE>","<MISSING>","<MISSING>","Sunday 12PM–5PM Monday 10AM–5PM Tuesday 10AM–5PM Wednesday 10AM–5PM Thursday 10AM–5PM Friday 10AM–5PM Saturday 10AM–5PM"
"https://www.inova.org","Medical Oncology - Fair Oaks","3580 Joseph Siewick Dr.","Fairfax","VA","22033","US","<MISSING>","703-391-4395","<INACCESSIBLE>","<MISSING>","<MISSING>","<MISSING>"
"https://www.inova.org","Medical Oncology - Prosperity","8501 Arlington Blvd.","Fairfax","VA","22031","US","<MISSING>","703-207-0733","<INACCESSIBLE>","<MISSING>","<MISSING>","<MISSING>"
"https://www.inova.org","Northern Virginia Healthy Kids Coalition","2700 Prosperity Ave","Fairfax","VA","22031","US","<MISSING>","<MISSING>","<INACCESSIBLE>","<MISSING>","<MISSING>","<MISSING>"
"https://www.inova.org","Office of Continuing Medical Education","8110 Gatehouse Road","Falls Church","VA","22042","US","<MISSING>","703-204-3353","<INACCESSIBLE>","<MISSING>","<MISSING>","<MISSING>"
"https://www.inova.org","Partnership for Healthier Kids","2700 Prosperity Ave","Fairfax","VA","22031","US","<MISSING>","703-698-2550","<INACCESSIBLE>","<MISSING>","<MISSING>","<MISSING>"
"https://www.inova.org","Pediatric Specialists of Virginia - Ashburn","22505 Landmark Court","Ashburn","VA","20148","US","<MISSING>","703-876-2788","<INACCESSIBLE>","<MISSING>","<MISSING>","Sunday Closed Monday 8AM–5PM Tuesday 8AM–5PM Wednesday 8AM–5PM Thursday 8AM–5PM Friday 8AM–5PM Saturday Closed"
"https://www.inova.org","Potomac Radiation Oncology Center","2280 Opitz Blvd.","Woodbridge","VA","22191","US","<MISSING>","703-670-3349","<INACCESSIBLE>","<MISSING>","<MISSING>","<MISSING>"
"https://www.inova.org","Radiation Oncology - Alexandria","<MISSING>","Alexandria","VA","22304","US","<MISSING>","703-504-7900","<INACCESSIBLE>","<MISSING>","<MISSING>","<MISSING>"
"https://www.inova.org","Radiation Oncology - Fair Oaks","<MISSING>","Fairfax","VA","22033","US","<MISSING>","703-391-4250","<INACCESSIBLE>","<MISSING>","<MISSING>","<MISSING>"
"https://www.inova.org","Radiation Oncology - Fairfax","<MISSING>","Falls Church","VA","22042","US","<MISSING>","703-776-3731","<INACCESSIBLE>","<MISSING>","<MISSING>","<MISSING>"
"https://www.inova.org","Reston / Herndon Breast Center","106 Elden Street","Herndon","VA","20170","US","<MISSING>","703-698-4488","<INACCESSIBLE>","<MISSING>","<MISSING>","Sunday Closed Monday 6:45AM–5PM Tuesday 6:45AM–5PM Wednesday 6:45AM–5PM Thursday 6:45AM–5PM Friday 6:45AM–5PM Saturday 8AM–12PM"
"https://www.inova.org","RIA at Landsdowne","19455 Deerfield Avenue","Landsdowne","VA","20176","US","<MISSING>","703-858-0001","<INACCESSIBLE>","<MISSING>","<MISSING>","Sunday Closed Monday 7:30AM–4PM Tuesday 7:30AM–4PM Wednesday 7:30AM–4PM Thursday 7:30AM–4PM Friday 7:30AM–4PM Saturday Closed"
"https://www.inova.org","RIA at Sterling","<MISSING>","Sterling","VA","20165","US","<MISSING>","703-450-5800","<INACCESSIBLE>","<MISSING>","<MISSING>","Sunday Closed Monday 8AM–5PM Tuesday 8AM–5PM Wednesday 8AM–5PM Thursday 8AM–5PM Friday 8AM–5PM Saturday Closed"
"https://www.inova.org","Select Seconds Thrift Shop","<MISSING>","Alexandria","VA","22303","US","<MISSING>","703-317-4889","<INACCESSIBLE>","<MISSING>","<MISSING>","Sunday Closed Monday 10AM–4PM Tuesday 10AM–4PM Wednesday 10AM–4PM Thursday 10AM–4PM Friday 10AM–4PM Saturday 10AM–2PM"
"https://www.inova.org","Simplicity Health Clinic – Alexandria","4700 King St.","Alexandria","VA","22302","US","<MISSING>","571-665-6610","<INACCESSIBLE>","<MISSING>","<MISSING>","Sunday Closed Monday 8:30AM–5PM Tuesday 8:30AM–5PM Wednesday 8:30AM–5PM Thursday 8:30AM–5PM Friday 8:30AM–5PM Saturday Closed"
"https://www.inova.org","Simplicity Health Clinic – Annandale","<MISSING>","<MISSING>","<MISSING>","<MISSING>","US","<MISSING>","571-665-6620","<INACCESSIBLE>","<MISSING>","<MISSING>","Sunday Closed Monday 8:30AM–5PM Tuesday 8:30AM–5PM Wednesday 8:30AM–5PM Thursday 8:30AM–5PM Friday 8:30AM–5PM Saturday Closed"
"https://www.inova.org","Simplicity Health Clinic – Sterling","46440 Benedict Dr.","Sterling","VA","20164","US","<MISSING>","571-665-6500","<INACCESSIBLE>","<MISSING>","<MISSING>","Sunday Closed Monday 8:30AM–5PM Tuesday 8:30AM–5PM Wednesday 8:30AM–5PM Thursday 8:30AM–5PM Friday 8:30AM–5PM Saturday Closed"
"https://www.inova.org","Springfield Imaging Center","5510 Alma Lane","Springfield","VA","22151","US","<MISSING>","703-698-4488","<INACCESSIBLE>","<MISSING>","<MISSING>","Sunday Closed Monday 7:30AM–5PM Tuesday 7:30AM–5PM Wednesday 7:30AM–5PM Thursday 7:30AM–5PM Friday 7:30AM–5PM Saturday Closed"
"https://www.inova.org","Springfield Treasure Trove Store","<MISSING>","Springfield","VA","22150","US","<MISSING>","703-569-7751","<INACCESSIBLE>","<MISSING>","<MISSING>","Sunday 12PM–5:30PM Monday 10AM–7PM Tuesday 10AM–5:30PM Wednesday 10AM–7PM Thursday 10AM–5:30PM Friday 10AM–7PM Saturday 10AM–5:30PM"
"https://www.inova.org","Surgery Centers – Inova Fairfax Medical Campus","<MISSING>","Falls Church","VA","22042","US","<MISSING>","<MISSING>","<INACCESSIBLE>","<MISSING>","<MISSING>","<MISSING>"
"https://www.inova.org","The Breast Diagnostic Center","8318 Arlington Blvd","Fairfax","VA","22031","US","<MISSING>","703-698-4488","<INACCESSIBLE>","<MISSING>","<MISSING>","Sunday 7:30AM–4PM Monday 7AM–5:45PM Tuesday 7AM–5:45PM Wednesday 7AM–5:45PM Thursday 7AM–5:45PM Friday 7AM–5:45PM Saturday 7:30AM–4PM"
"https://www.inova.org","The Twig Thrift Shop","<MISSING>","Alexandria","VA","22314","US","<MISSING>","703-683-5544","<INACCESSIBLE>","<MISSING>","<MISSING>","Sunday Closed Monday Closed Tuesday 9:30AM–2:30PM Wednesday 9:30AM–2:30PM Thursday 9:30AM–2:30PM Friday 9:30AM–2:30PM Saturday 10AM–4PM"
"https://www.inova.org","Twice is Nice","<MISSING>","Leesburg","VA","20176","US","<MISSING>","703-771-0208","<INACCESSIBLE>","<MISSING>","<MISSING>","Sunday Closed Monday 10AM–4PM Tuesday 10AM–4PM Wednesday 10AM–4PM Thursday 10AM–4PM Friday 10AM–4PM Saturday 10AM–4PM"
"https://www.inova.org","VCU School of Medicine Inova Campus","<MISSING>","Falls Church","VA","22042","US","<MISSING>","703-776-6699","<INACCESSIBLE>","<MISSING>","<MISSING>","<MISSING>"
"https://www.inova.org","VCU School of Pharmacy Inova Campus","<MISSING>","Falls Church","VA","22042","US","<MISSING>","703-776-7600","<INACCESSIBLE>","<MISSING>","<MISSING>","<MISSING>"
"https://www.inova.org","Volunteer Services Department – Inova Alexandria Hospital","<MISSING>","Alexandria","VA","22304","US","<MISSING>","703-504-3031","<INACCESSIBLE>","<MISSING>","<MISSING>","<MISSING>"
"https://www.inova.org","Volunteer Services Department – Inova Fair Oaks Hospital","<MISSING>","Fairfax","VA","22033","US","<MISSING>","703-391-3056","<INACCESSIBLE>","<MISSING>","<MISSING>","<MISSING>"
"https://www.inova.org","Volunteer Services Department – Inova Loudoun Hospital","44045 Riverside Parkway","Leesburg","VA","20176","US","<MISSING>","<MISSING>","<INACCESSIBLE>","<MISSING>","<MISSING>","<MISSING>"
"https://www.inova.org","Volunteer Services Department – Inova Mount Vernon Hospital","<MISSING>","Alexandria","VA","22306","US","<MISSING>","703-664-7260","<INACCESSIBLE>","<MISSING>","<MISSING>","<MISSING>"
"https://www.inova.org","Woodbridge Imaging Center","4001 Prince William Parkway","Woodbridge","VA","22192","US","<MISSING>","703-824-3260","<INACCESSIBLE>","<MISSING>","<MISSING>","Sunday Closed Monday 7AM–6PM Tuesday 7AM–6PM Wednesday 7AM–6PM Thursday 7AM–6PM Friday 7AM–6PM Saturday 8:30AM–12:30PM"
