"locator_domain","location_name","street_address","city","state","zip","country_code","store_number","phone","location_type","latitude","longitude","hours_of_operation","page_url"
"https://www.rosesdiscountstores.com/#bargaintown","Bills","119 W Main St","Homer","Louisiana","71040","US","<MISSING>","(318) 927-6331","Bills","32.792061","-93.054581","Monday : 09 AM - 06 PM, Tueday : 09 AM - 06 PM, Wednesday : 09 AM - 06 PM, Thurseday : 09 AM - 06 PM, Friday : 09 AM - 06 PM, Saturday : 09 AM - 06 PM, Sunday : 12 AM - 06 PM","https://www.rosesdiscountstores.com/store-locator-index"
"https://www.rosesdiscountstores.com/#bargaintown","Roses Express","1311 N Hazel St","Arcadia","Louisiana","71001","US","<MISSING>","(318) 536-8841","Roses Express","32.548214","-92.920891","Monday : 09 AM - 09 PM, Tueday : 09 AM - 09 PM, Wednesday : 09 AM - 09 PM, Thurseday : 09 AM - 09 PM, Friday : 09 AM - 09 PM, Saturday : 09 AM - 09 PM, Sunday : 10 AM - 08 PM","https://www.rosesdiscountstores.com/store-locator-index"
"https://www.rosesdiscountstores.com/#bargaintown","Super 10","1345 Main St","Tunica","Mississippi","38676","US","<MISSING>","(662) 357-0980","Super 10","34.68985","-90.3834","Monday : 09 AM - 06 PM, Tueday : 09 AM - 06 PM, Wednesday : 09 AM - 06 PM, Thurseday : 09 AM - 06 PM, Friday : 09 AM - 06 PM, Saturday : 09 AM - 06 PM, Sunday : closed","https://www.rosesdiscountstores.com/store-locator-index"
"https://www.rosesdiscountstores.com/#bargaintown","Roses","1833 S 3rd St","Memphis","Tennessee","38109","US","<MISSING>","(901) 775-9319","Roses","35.097332","-90.057831","Monday : 09 AM - 09 PM, Tueday : 09 AM - 09 PM, Wednesday : 09 AM - 09 PM, Thurseday : 09 AM - 09 PM, Friday : 09 AM - 09 PM, Saturday : 09 AM - 09 PM, Sunday : 10 AM - 08 PM","https://www.rosesdiscountstores.com/store-locator-index"
"https://www.rosesdiscountstores.com/#bargaintown","Maxway","5024 Cut-Off Rd","Coushatta","Louisiana","71019","US","<MISSING>","(318) 932-6243","Maxway","32.0149","-93.342102","Monday : 09 AM - 09 PM, Tueday : 09 AM - 09 PM, Wednesday : 09 AM - 09 PM, Thurseday : 09 AM - 09 PM, Friday : 09 AM - 09 PM, Saturday : 09 AM - 09 PM, Sunday : 10 AM - 08 PM","https://www.rosesdiscountstores.com/store-locator-index"
"https://www.rosesdiscountstores.com/#bargaintown","Roses","4075 Elvis Presley Blvd","Memphis","Tennessee","38116","US","<MISSING>","(901) 332-3635","Roses","35.037479","-90.027885","Monday : 09 AM - 09 PM, Tueday : 09 AM - 09 PM, Wednesday : 09 AM - 09 PM, Thurseday : 09 AM - 09 PM, Friday : 09 AM - 09 PM, Saturday : 09 AM - 09 PM, Sunday : 10 AM - 08 PM","https://www.rosesdiscountstores.com/store-locator-index"
"https://www.rosesdiscountstores.com/#bargaintown","Roses Express","638 S State St","Clarksdale","Mississippi","38614","US","<MISSING>","(662) 624-8678","Roses Express","34.19157","-90.572952","Monday : 09 AM - 09 PM, Tueday : 09 AM - 09 PM, Wednesday : 09 AM - 09 PM, Thurseday : 09 AM - 09 PM, Friday : 09 AM - 09 PM, Saturday : 09 AM - 09 PM, Sunday : 10 AM - 08 PM","https://www.rosesdiscountstores.com/store-locator-index"
"https://www.rosesdiscountstores.com/#bargaintown","Roses","6994 E Shelby Dr","Memphis","Tennessee","38125","US","<MISSING>","(901) 754-1604","Roses","35.020412","-89.829666","Monday : 09 AM - 09 PM, Tueday : 09 AM - 09 PM, Wednesday : 09 AM - 09 PM, Thurseday : 09 AM - 09 PM, Friday : 09 AM - 09 PM, Saturday : 09 AM - 09 PM, Sunday : 10 AM - 08 PM","https://www.rosesdiscountstores.com/store-locator-index"
"https://www.rosesdiscountstores.com/#bargaintown","Super 10","612 Washington Ave","Greenville","Mississippi","38701","US","<MISSING>","(662) 335-9369","Super 10","33.400101","-91.055099","Monday : 09 AM - 06 PM, Tueday : 09 AM - 06 PM, Wednesday : 09 AM - 06 PM, Thurseday : 09 AM - 06 PM, Friday : 09 AM - 06 PM, Saturday : 09 AM - 06 PM, Sunday : closed","https://www.rosesdiscountstores.com/store-locator-index"
"https://www.rosesdiscountstores.com/#bargaintown","Roses","E St","Lamont","Mississippi","38703","US","<MISSING>","(662) 430-2161","Roses","33.407284","-91.038971","Monday : 09 AM - 09 PM, Tueday : 09 AM - 09 PM, Wednesday : 09 AM - 09 PM, Thurseday : 09 AM - 09 PM, Friday : 09 AM - 09 PM, Saturday : 09 AM - 09 PM, Sunday : 10 AM - 08 PM","https://www.rosesdiscountstores.com/store-locator-index"
"https://www.rosesdiscountstores.com/#bargaintown","Roses Express","522 Lincoln Rd","Monroe","Louisiana","71203","US","<MISSING>","(318) 460-6466","Roses Express","32.54446","-92.014084","Monday : 09 AM - 09 PM, Tueday : 09 AM - 09 PM, Wednesday : 09 AM - 09 PM, Thurseday : 09 AM - 09 PM, Friday : 09 AM - 09 PM, Saturday : 09 AM - 09 PM, Sunday : 10 AM - 08 PM","https://www.rosesdiscountstores.com/store-locator-index"
"https://www.rosesdiscountstores.com/#bargaintown","Roses","400 Dixie Plaza","Natchitoches","Louisiana","71457","US","<MISSING>","(318)354-4119","Roses","31.752352","-93.079956","Monday : 09 AM - 09 PM, Tueday : 09 AM - 09 PM, Wednesday : 09 AM - 09 PM, Thurseday : 09 AM - 09 PM, Friday : 09 AM - 09 PM, Saturday : 09 AM - 09 PM, Sunday : 10 AM - 08 PM","https://www.rosesdiscountstores.com/store-locator-index"
"https://www.rosesdiscountstores.com/#bargaintown","Super Dollar","184 S Fuller St","Byhalia","Mississippi","38611","US","<MISSING>","(662) 838-2888","Super Dollar","34.871468","-89.684479","Monday : 09 AM - 09 PM, Tueday : 09 AM - 09 PM, Wednesday : 09 AM - 09 PM, Thurseday : 09 AM - 09 PM, Friday : 09 AM - 09 PM, Saturday : 09 AM - 09 PM, Sunday : 12 AM - 07 PM","https://www.rosesdiscountstores.com/store-locator-index"
"https://www.rosesdiscountstores.com/#bargaintown","Roses Express","8155 US-165","Columbia","Louisiana","71418","US","<MISSING>","(318) 502-7738","Roses Express","32.071754","-92.094177","Monday : 09 AM - 09 PM, Tueday : 09 AM - 09 PM, Wednesday : 09 AM - 09 PM, Thurseday : 09 AM - 09 PM, Friday : 09 AM - 09 PM, Saturday : 09 AM - 09 PM, Sunday : 10 AM - 08 PM","https://www.rosesdiscountstores.com/store-locator-index"
"https://www.rosesdiscountstores.com/#bargaintown","Roses Express","11 Fair Ave","Winnsboro","Louisiana","71295","US","<MISSING>","(318) 435-3028","Roses Express","32.1632","-91.720703","Monday : 09 AM - 08 PM, Tueday : 09 AM - 08 PM, Wednesday : 09 AM - 08 PM, Thurseday : 09 AM - 08 PM, Friday : 09 AM - 08 PM, Saturday : 09 AM - 08 PM, Sunday : 12 AM - 06 PM","https://www.rosesdiscountstores.com/store-locator-index"
"https://www.rosesdiscountstores.com/#bargaintown","Roses Express","703 W Park Ave","Greenwood","Mississippi","38930","US","<MISSING>","(662) 453-8866","Roses Express","33.516201","-90.179497","Monday : 09 AM - 09 PM, Tueday : 09 AM - 09 PM, Wednesday : 09 AM - 09 PM, Thurseday : 09 AM - 09 PM, Friday : 09 AM - 09 PM, Saturday : 09 AM - 09 PM, Sunday : 10 AM - 08 PM","https://www.rosesdiscountstores.com/store-locator-index"
"https://www.rosesdiscountstores.com/#bargaintown","Super Dollar","17264 Okahoma St","Coffeeville","Mississippi","38922","US","<MISSING>","(662) 675-8870","Super Dollar","33.972073","-89.677353","Monday : 09 AM - 06 PM, Tueday : 09 AM - 06 PM, Wednesday : 09 AM - 06 PM, Thurseday : 09 AM - 06 PM, Friday : 09 AM - 06 PM, Saturday : 09 AM - 06 PM, Sunday : 12 AM - 06 PM","https://www.rosesdiscountstores.com/store-locator-index"
"https://www.rosesdiscountstores.com/#bargaintown","Roses","1744 Commerce St","Grenada","Mississippi","38901","US","<MISSING>","(662) 442-3064","Roses","33.765354","-89.807693","Monday : 09 AM - 09 PM, Tueday : 09 AM - 09 PM, Wednesday : 09 AM - 09 PM, Thurseday : 09 AM - 09 PM, Friday : 09 AM - 09 PM, Saturday : 09 AM - 09 PM, Sunday : 10 AM - 08 PM","https://www.rosesdiscountstores.com/store-locator-index"
"https://www.rosesdiscountstores.com/#bargaintown","Super 10","508 N Washington St","Yazoo City","Mississippi","39194","US","<MISSING>","(662) 746-9174","Super 10","32.850891","-90.411362","Monday : 09 AM - 06 PM, Tueday : 09 AM - 06 PM, Wednesday : 09 AM - 06 PM, Thurseday : 09 AM - 06 PM, Friday : 09 AM - 06 PM, Saturday : 09 AM - 06 PM, Sunday : 12 AM - 06 PM","https://www.rosesdiscountstores.com/store-locator-index"
"https://www.rosesdiscountstores.com/#bargaintown","Roses Express","111 MacArthur Dr","Alexandria","Louisiana","71303","US","<MISSING>","(318) 767-2527","Roses Express","31.311199","-92.444901","Monday : 09 AM - 09 PM, Tueday : 09 AM - 09 PM, Wednesday : 09 AM - 09 PM, Thurseday : 09 AM - 09 PM, Friday : 09 AM - 09 PM, Saturday : 09 AM - 09 PM, Sunday : 10 AM - 08 PM","https://www.rosesdiscountstores.com/store-locator-index"
"https://www.rosesdiscountstores.com/#bargaintown","Super Dollar","330 Depot St","Lexington","Mississippi","39095","US","<MISSING>","(662) 834-3156","Super Dollar","33.113201","-90.053101","Monday : 09 AM - 08 PM, Tueday : 09 AM - 08 PM, Wednesday : 09 AM - 08 PM, Thurseday : 09 AM - 08 PM, Friday : 09 AM - 08 PM, Saturday : 09 AM - 08 PM, Sunday : 10 AM - 08 PM","https://www.rosesdiscountstores.com/store-locator-index"
"https://www.rosesdiscountstores.com/#bargaintown","Roses","3429 Halls Ferry Rd","Vicksburg","Mississippi","39180","US","<MISSING>","(601) 738-9101","Roses","32.312328","-90.875328","Monday : 09 AM - 09 PM, Tueday : 09 AM - 09 PM, Wednesday : 09 AM - 09 PM, Thurseday : 09 AM - 09 PM, Friday : 09 AM - 09 PM, Saturday : 09 AM - 09 PM, Sunday : 10 AM - 08 PM","https://www.rosesdiscountstores.com/store-locator-index"
"https://www.rosesdiscountstores.com/#bargaintown","Roses Express","1938 Main St","Cadiz","Kentucky","42211","US","<MISSING>","(270) 540-9249","Roses Express","36.866512","-87.80761","Monday : 09 AM - 09 PM, Tueday : 09 AM - 09 PM, Wednesday : 09 AM - 09 PM, Thurseday : 09 AM - 09 PM, Friday : 09 AM - 09 PM, Saturday : 09 AM - 09 PM, Sunday : 10 AM - 08 PM","https://www.rosesdiscountstores.com/store-locator-index"
"https://www.rosesdiscountstores.com/#bargaintown","Roses","2606 Zion Rd","Henderson","Kentucky","42420","US","<MISSING>","(270) 894-4285","Roses","37.825943","-87.556694","Monday : 09 AM - 09 PM, Tueday : 09 AM - 09 PM, Wednesday : 09 AM - 09 PM, Thurseday : 09 AM - 09 PM, Friday : 09 AM - 09 PM, Saturday : 09 AM - 09 PM, Sunday : 10 AM - 08 PM","https://www.rosesdiscountstores.com/store-locator-index"
"https://www.rosesdiscountstores.com/#bargaintown","Roses Express","436 US-61","Natchez","Mississippi","39120","US","<MISSING>","(601) 446-5020","Roses Express","31.5604","-91.403198","Monday : 09 AM - 09 PM, Tueday : 09 AM - 09 PM, Wednesday : 09 AM - 09 PM, Thurseday : 09 AM - 09 PM, Friday : 09 AM - 09 PM, Saturday : 09 AM - 09 PM, Sunday : 10 AM - 08 PM","https://www.rosesdiscountstores.com/store-locator-index"
"https://www.rosesdiscountstores.com/#bargaintown","Super 10","113 W Jefferson St","Kosciusko","Mississippi","39090","US","<MISSING>","(662) 289-6204","Super 10","33.057598","-89.587601","Monday : 09 AM - 06 PM, Tueday : 09 AM - 06 PM, Wednesday : 09 AM - 06 PM, Thurseday : 09 AM - 06 PM, Friday : 09 AM - 06 PM, Saturday : 09 AM - 06 PM, Sunday : closed","https://www.rosesdiscountstores.com/store-locator-index"
"https://www.rosesdiscountstores.com/#bargaintown","Super Dollar","1214 Main St","Fayette","Mississippi","39069","US","<MISSING>","(601) 786-6345","Super Dollar","31.711599","-91.060699","Monday : 09 AM - 09 PM, Tueday : 09 AM - 09 PM, Wednesday : 09 AM - 09 PM, Thurseday : 09 AM - 09 PM, Friday : 09 AM - 09 PM, Saturday : 09 AM - 09 PM, Sunday : 10 AM - 08 PM","https://www.rosesdiscountstores.com/store-locator-index"
"https://www.rosesdiscountstores.com/#bargaintown","Roses","50 Madison Square Dr","Madisonville","Kentucky","42431","US","<MISSING>","(270) 825-8032","Roses","37.326611","-87.480751","Monday : 09 AM - 09 PM, Tueday : 09 AM - 09 PM, Wednesday : 09 AM - 09 PM, Thurseday : 09 AM - 09 PM, Friday : 09 AM - 09 PM, Saturday : 09 AM - 09 PM, Sunday : 10 AM - 08 PM","https://www.rosesdiscountstores.com/store-locator-index"
"https://www.rosesdiscountstores.com/#bargaintown","Super Dollar","2022 L'Eglise St","Mansura","Louisiana","71350","US","<MISSING>","(318) 964-2811","Super Dollar","31.059258","-92.049522","Monday : 09 AM - 06 PM, Tueday : 09 AM - 06 PM, Wednesday : 09 AM - 06 PM, Thurseday : 09 AM - 06 PM, Friday : 09 AM - 06 PM, Saturday : 09 AM - 06 PM, Sunday : 12 AM - 06 PM","https://www.rosesdiscountstores.com/store-locator-index"
"https://www.rosesdiscountstores.com/#bargaintown","Roses Express","109 Chevy Ln","Bunkie","Louisiana","71322","US","<MISSING>","(318) 616-8673","Roses Express","30.961252","-92.196541","Monday : 09 AM - 09 PM, Tueday : 09 AM - 09 PM, Wednesday : 09 AM - 09 PM, Thurseday : 09 AM - 09 PM, Friday : 09 AM - 09 PM, Saturday : 09 AM - 09 PM, Sunday : 10 AM - 08 PM","https://www.rosesdiscountstores.com/store-locator-index"
"https://www.rosesdiscountstores.com/#bargaintown","Bills","7191 Will Robbins Hwy","Nettleton","Mississippi","38858","US","<MISSING>","(662) 963-7313","Bills","34.09153","-88.631409","Monday : 09 AM - 06 PM, Tueday : 09 AM - 06 PM, Wednesday : 09 AM - 06 PM, Thurseday : 09 AM - 06 PM, Friday : 09 AM - 06 PM, Saturday : 09 AM - 06 PM, Sunday : 12 AM - 06 PM","https://www.rosesdiscountstores.com/store-locator-index"
"https://www.rosesdiscountstores.com/#bargaintown","Roses","2889 Terry Rd","Jackson","Mississippi","39212","US","<MISSING>","(601) 373-6811","Roses","32.299","-90.184799","Monday : 09 AM - 09 PM, Tueday : 09 AM - 09 PM, Wednesday : 09 AM - 09 PM, Thurseday : 09 AM - 09 PM, Friday : 09 AM - 09 PM, Saturday : 09 AM - 09 PM, Sunday : 10 AM - 08 PM","https://www.rosesdiscountstores.com/store-locator-index"
"https://www.rosesdiscountstores.com/#bargaintown","Roses","3033 US-80","Pearl","Mississippi","39208","US","<MISSING>","(601) 939-8282","Roses","32.281052","-90.119621","Monday : 09 AM - 09 PM, Tueday : 09 AM - 09 PM, Wednesday : 09 AM - 09 PM, Thurseday : 09 AM - 09 PM, Friday : 09 AM - 09 PM, Saturday : 09 AM - 09 PM, Sunday : 10 AM - 08 PM","https://www.rosesdiscountstores.com/store-locator-index"
"https://www.rosesdiscountstores.com/#bargaintown","Roses Express","134 Market Pl","Hazlehurst","Mississippi","39083","US","<MISSING>","(601) 894-0220","Roses Express","31.872698","-90.405266","Monday : 09 AM - 09 PM, Tueday : 09 AM - 09 PM, Wednesday : 09 AM - 09 PM, Thurseday : 09 AM - 09 PM, Friday : 09 AM - 09 PM, Saturday : 09 AM - 09 PM, Sunday : 10 AM - 08 PM","https://www.rosesdiscountstores.com/store-locator-index"
"https://www.rosesdiscountstores.com/#bargaintown","Bills","200 S Maple St","Aberdeen","Mississippi","39730","US","<MISSING>","(662) 369-7057","Bills","33.8251","-88.543701","Monday : 09 AM - 06 PM, Tueday : 09 AM - 06 PM, Wednesday : 09 AM - 06 PM, Thurseday : 09 AM - 06 PM, Friday : 09 AM - 06 PM, Saturday : 09 AM - 06 PM, Sunday : 12 AM - 06 PM","https://www.rosesdiscountstores.com/store-locator-index"
"https://www.rosesdiscountstores.com/#bargaintown","Roses Express","5186 US-80","Morton","Mississippi","39117","US","<MISSING>","(601) 864-1116","Roses Express","32.353394","-89.647743","Monday : 09 AM - 09 PM, Tueday : 09 AM - 09 PM, Wednesday : 09 AM - 09 PM, Thurseday : 09 AM - 09 PM, Friday : 09 AM - 09 PM, Saturday : 09 AM - 09 PM, Sunday : 10 AM - 08 PM","https://www.rosesdiscountstores.com/store-locator-index"
"https://www.rosesdiscountstores.com/#bargaintown","Roses Express","1018 Creswell Ln","Opelousas","Louisiana","70570","US","<MISSING>","(337) 948-1714","Roses Express","30.519108","-92.073738","Monday : 09 AM - 09 PM, Tueday : 09 AM - 09 PM, Wednesday : 09 AM - 09 PM, Thurseday : 09 AM - 09 PM, Friday : 09 AM - 09 PM, Saturday : 09 AM - 09 PM, Sunday : 10 AM - 08 PM","https://www.rosesdiscountstores.com/store-locator-index"
"https://www.rosesdiscountstores.com/#bargaintown","Bills","17621 E U.S. Hwy 190","Port Barre","Louisiana","70577","US","<MISSING>","(337) 585-7498","Bills","30.546783","-91.968391","Monday : 09 AM - 06 PM, Tueday : 09 AM - 06 PM, Wednesday : 09 AM - 06 PM, Thurseday : 09 AM - 06 PM, Friday : 09 AM - 06 PM, Saturday : 09 AM - 06 PM, Sunday : 12 AM - 06 PM","https://www.rosesdiscountstores.com/store-locator-index"
"https://www.rosesdiscountstores.com/#bargaintown","Roses Express","3050 MS-13","Mendenhall","Mississippi","39114","US","<MISSING>","(601) 808-4056","Roses Express","31.977972","-89.876427","Monday : 09 AM - 09 PM, Tueday : 09 AM - 09 PM, Wednesday : 09 AM - 09 PM, Thurseday : 09 AM - 09 PM, Friday : 09 AM - 09 PM, Saturday : 09 AM - 09 PM, Sunday : 10 AM - 08 PM","https://www.rosesdiscountstores.com/store-locator-index"
"https://www.rosesdiscountstores.com/#bargaintown","Roses Express","201 Alabama St","Columbus","Mississippi","39702","US","<MISSING>","(662) 327-7025","Roses Express","33.495701","-88.427299","Monday : 09 AM - 09 PM, Tueday : 09 AM - 09 PM, Wednesday : 09 AM - 09 PM, Thurseday : 09 AM - 09 PM, Friday : 09 AM - 09 PM, Saturday : 09 AM - 09 PM, Sunday : 10 AM - 08 PM","https://www.rosesdiscountstores.com/store-locator-index"
"https://www.rosesdiscountstores.com/#bargaintown","Super Dollar","2998 Jefferson St","Macon","Mississippi","39341","US","<MISSING>","(662) 726-4063","Super Dollar","33.1054","-88.560898","Monday : 09 AM - 06 PM, Tueday : 09 AM - 06 PM, Wednesday : 09 AM - 06 PM, Thurseday : 09 AM - 06 PM, Friday : 09 AM - 06 PM, Saturday : 09 AM - 06 PM, Sunday : 12 AM - 06 PM","https://www.rosesdiscountstores.com/store-locator-index"
"https://www.rosesdiscountstores.com/#bargaintown","Super 10","1200 Lasalle St","McComb","Mississippi","39648","US","<MISSING>","(601) 684-9543","Super 10","31.231531","-90.453255","Monday : 09 AM - 08 PM, Tueday : 09 AM - 08 PM, Wednesday : 09 AM - 08 PM, Thurseday : 09 AM - 08 PM, Friday : 09 AM - 08 PM, Saturday : 09 AM - 08 PM, Sunday : 10 AM - 06 PM","https://www.rosesdiscountstores.com/store-locator-index"
"https://www.rosesdiscountstores.com/#bargaintown","Roses Express","3634 Bell Rd","Nashville","Tennessee","37214","US","<MISSING>","(615) 232-2539","Roses Express","36.162201","-86.774399","Monday : 09 AM - 09 PM, Tueday : 09 AM - 09 PM, Wednesday : 09 AM - 09 PM, Thurseday : 09 AM - 09 PM, Friday : 09 AM - 09 PM, Saturday : 09 AM - 09 PM, Sunday : 10 AM - 08 PM","https://www.rosesdiscountstores.com/store-locator-index"
"https://www.rosesdiscountstores.com/#bargaintown","Bills Dollar","173 W Railroad Ave N","Magnolia","Mississippi","39652","US","<MISSING>","(601) 783-5393","Bills Dollar","31.1432","-90.458702","Monday : 09 AM - 06 PM, Tueday : 09 AM - 06 PM, Wednesday : 09 AM - 06 PM, Thurseday : 09 AM - 06 PM, Friday : 09 AM - 06 PM, Saturday : 09 AM - 06 PM, Sunday : 10 AM - 06 PM","https://www.rosesdiscountstores.com/store-locator-index"
"https://www.rosesdiscountstores.com/#bargaintown","Roses Express","250 Main St","Baker","Louisiana","70714","US","<MISSING>","(225) 778-1125","Roses Express","30.5882","-91.168198","Monday : 09 AM - 09 PM, Tueday : 09 AM - 09 PM, Wednesday : 09 AM - 09 PM, Thurseday : 09 AM - 09 PM, Friday : 09 AM - 09 PM, Saturday : 09 AM - 09 PM, Sunday : 10 AM - 08 PM","https://www.rosesdiscountstores.com/store-locator-index"
"https://www.rosesdiscountstores.com/#bargaintown","Roses","1901 Russellville Rd","Bowling Green","Kentucky","42101","US","<MISSING>","(270) 781-1583","Roses","36.979946","-86.46991","Monday : 09 AM - 09 PM, Tueday : 09 AM - 09 PM, Wednesday : 09 AM - 09 PM, Thurseday : 09 AM - 09 PM, Friday : 09 AM - 09 PM, Saturday : 09 AM - 09 PM, Sunday : 10 AM - 08 PM","https://www.rosesdiscountstores.com/store-locator-index"
"https://www.rosesdiscountstores.com/#bargaintown","Super Dollar","720 Ave G","Kentwood","Louisiana","70444","US","<MISSING>","(985) 229-4337","Super Dollar","30.9382","-90.509003","Monday : 09 AM - 06 PM, Tueday : 09 AM - 06 PM, Wednesday : 09 AM - 06 PM, Thurseday : 09 AM - 06 PM, Friday : 09 AM - 06 PM, Saturday : 09 AM - 06 PM, Sunday : 10 AM - 06 PM","https://www.rosesdiscountstores.com/store-locator-index"
"https://www.rosesdiscountstores.com/#bargaintown","Maxway","1710 S Main St","Saint Martinville","Louisiana","70582","US","<MISSING>","(337) 394-3383","Maxway","30.108738","-91.836014","Monday : 09 AM - 09 PM, Tueday : 09 AM - 09 PM, Wednesday : 09 AM - 09 PM, Thurseday : 09 AM - 09 PM, Friday : 09 AM - 09 PM, Saturday : 09 AM - 09 PM, Sunday : 10 AM - 08 PM","https://www.rosesdiscountstores.com/store-locator-index"
"https://www.rosesdiscountstores.com/#bargaintown","Roses Express","1211 S Fir Ave","Collins","Mississippi","39428","US","<MISSING>","(601) 837-8383","Roses Express","31.634243","-89.547958","Monday : 09 AM - 09 PM, Tueday : 09 AM - 09 PM, Wednesday : 09 AM - 09 PM, Thurseday : 09 AM - 09 PM, Friday : 09 AM - 09 PM, Saturday : 09 AM - 09 PM, Sunday : 10 AM - 08 PM","https://www.rosesdiscountstores.com/store-locator-index"
"https://www.rosesdiscountstores.com/#bargaintown","Roses","5905 Florida Blvd","Baton Rouge","Louisiana","70806","US","<MISSING>","(225) 929-9626","Roses","30.450701","-91.154602","Monday : 09 AM - 09 PM, Tueday : 09 AM - 09 PM, Wednesday : 09 AM - 09 PM, Thurseday : 09 AM - 09 PM, Friday : 09 AM - 09 PM, Saturday : 09 AM - 09 PM, Sunday : 10 AM - 08 PM","https://www.rosesdiscountstores.com/store-locator-index"
"https://www.rosesdiscountstores.com/#bargaintown","Roses Express","832 Hwy 19 N","Meridian","Mississippi","39307","US","<MISSING>","(601) 693-8543","Roses Express","32.363472","-88.7286","Monday : 09 AM - 09 PM, Tueday : 09 AM - 09 PM, Wednesday : 09 AM - 09 PM, Thurseday : 09 AM - 09 PM, Friday : 09 AM - 09 PM, Saturday : 09 AM - 09 PM, Sunday : 10 AM - 08 PM","https://www.rosesdiscountstores.com/store-locator-index"
"https://www.rosesdiscountstores.com/#bargaintown","Roses","1150 W St Peter St","New Iberia","Louisiana","70560","US","<MISSING>","(337) 367-1005","Roses","30.019802","-91.832428","Monday : 09 AM - 09 PM, Tueday : 09 AM - 09 PM, Wednesday : 09 AM - 09 PM, Thurseday : 09 AM - 09 PM, Friday : 09 AM - 09 PM, Saturday : 09 AM - 09 PM, Sunday : 10 AM - 08 PM","https://www.rosesdiscountstores.com/store-locator-index"
"https://www.rosesdiscountstores.com/#bargaintown","Roses","5615 W 38th St","Indianapolis","Indiana","46254","US","<MISSING>","(317) 297-7055","Roses","39.821922","-86.259163","Monday : 09 AM - 09 PM, Tueday : 09 AM - 09 PM, Wednesday : 09 AM - 09 PM, Thurseday : 09 AM - 09 PM, Friday : 09 AM - 09 PM, Saturday : 09 AM - 09 PM, Sunday : 10 AM - 08 PM","https://www.rosesdiscountstores.com/store-locator-index"
"https://www.rosesdiscountstores.com/#bargaintown","Roses","946 N 16th Ave","Laurel","Mississippi","39440","US","<MISSING>","(601) 428-0436","Roses","31.694099","-89.1306","Monday : 09 AM - 09 PM, Tueday : 09 AM - 09 PM, Wednesday : 09 AM - 09 PM, Thurseday : 09 AM - 09 PM, Friday : 09 AM - 09 PM, Saturday : 09 AM - 09 PM, Sunday : 10 AM - 08 PM","https://www.rosesdiscountstores.com/store-locator-index"
"https://www.rosesdiscountstores.com/#bargaintown","Super Dollar","129 N Archusa Ave","Quitman","Mississippi","39355","US","<MISSING>","(601) 776-6974","Super Dollar","32.04213","-88.728127","Monday : 09 AM - 09 PM, Tueday : 09 AM - 09 PM, Wednesday : 09 AM - 09 PM, Thurseday : 09 AM - 09 PM, Friday : 09 AM - 09 PM, Saturday : 09 AM - 09 PM, Sunday : 10 AM - 08 PM","https://www.rosesdiscountstores.com/store-locator-index"
"https://www.rosesdiscountstores.com/#bargaintown","Roses","612 Madison St","Shelbyville","Tennessee","37160","US","<MISSING>","(931) 684-1433","Roses","35.48703","-86.450348","Monday : 09 AM - 09 PM, Tueday : 09 AM - 09 PM, Wednesday : 09 AM - 09 PM, Thurseday : 09 AM - 09 PM, Friday : 09 AM - 09 PM, Saturday : 09 AM - 09 PM, Sunday : 10 AM - 08 PM","https://www.rosesdiscountstores.com/store-locator-index"
"https://www.rosesdiscountstores.com/#bargaintown","Roses","7201 Pendleton Pike","Indianapolis","Indiana","46226","US","<MISSING>","(317) 546-7208","Roses","39.82843","-86.041527","Monday : 09 AM - 09 PM, Tueday : 09 AM - 09 PM, Wednesday : 09 AM - 09 PM, Thurseday : 09 AM - 09 PM, Friday : 09 AM - 09 PM, Saturday : 09 AM - 09 PM, Sunday : 10 AM - 08 PM","https://www.rosesdiscountstores.com/store-locator-index"
"https://www.rosesdiscountstores.com/#bargaintown","Roses","10 Helmwood Plaza Dr","Elizabethtown","Kentucky","42701","US","<MISSING>","(270) 769-3371","Roses","37.707935","-85.87072","Monday : 09 AM - 09 PM, Tueday : 09 AM - 09 PM, Wednesday : 09 AM - 09 PM, Thurseday : 09 AM - 09 PM, Friday : 09 AM - 09 PM, Saturday : 09 AM - 09 PM, Sunday : 10 AM - 08 PM","https://www.rosesdiscountstores.com/store-locator-index"
"https://www.rosesdiscountstores.com/#bargaintown","Roses","3220 Crums Ln","Louisville","Kentucky","40216","US","<MISSING>","(502) 449-1499","Roses","38.19796","-85.837036","Monday : 09 AM - 09 PM, Tueday : 09 AM - 09 PM, Wednesday : 09 AM - 09 PM, Thurseday : 09 AM - 09 PM, Friday : 09 AM - 09 PM, Saturday : 09 AM - 09 PM, Sunday : 10 AM - 08 PM","https://www.rosesdiscountstores.com/store-locator-index"
"https://www.rosesdiscountstores.com/#bargaintown","Maxway","1133 US-51","Ponchatoula","Louisiana","70454","US","<MISSING>","(985) 386-2362","Maxway","30.438801","-90.441498","Monday : 09 AM - 09 PM, Tueday : 09 AM - 09 PM, Wednesday : 09 AM - 09 PM, Thurseday : 09 AM - 09 PM, Friday : 09 AM - 09 PM, Saturday : 09 AM - 09 PM, Sunday : 10 AM - 08 PM","https://www.rosesdiscountstores.com/store-locator-index"
"https://www.rosesdiscountstores.com/#bargaintown","Roses","200 Oakwood Ave NW","Huntsville","Alabama","35811","US","<MISSING>","(256) 536-3305","Roses","34.749405","-86.58503","Monday : 09 AM - 09 PM, Tueday : 09 AM - 09 PM, Wednesday : 09 AM - 09 PM, Thurseday : 09 AM - 09 PM, Friday : 09 AM - 09 PM, Saturday : 09 AM - 09 PM, Sunday : 10 AM - 08 PM","https://www.rosesdiscountstores.com/store-locator-index"
"https://www.rosesdiscountstores.com/#bargaintown","Roses Express","5607 Preston Hwy","Louisville","Kentucky","40219","US","<MISSING>","(502) 969-6225","Roses Express","38.168278","-85.704689","<MISSING>","https://www.rosesdiscountstores.com/store-locator-index"
"https://www.rosesdiscountstores.com/#bargaintown","Roses Express","218 Cumberland St","Bogalusa","Louisiana","70427","US","<MISSING>","(985) 735-8650","Roses Express","30.788479","-89.862961","Monday : 09 AM - 09 PM, Tueday : 09 AM - 09 PM, Wednesday : 09 AM - 09 PM, Thurseday : 09 AM - 09 PM, Friday : 09 AM - 09 PM, Saturday : 09 AM - 09 PM, Sunday : 10 AM - 08 PM","https://www.rosesdiscountstores.com/store-locator-index"
"https://www.rosesdiscountstores.com/#bargaintown","Super 10","310 E Main St","Gramercy","Louisiana","70052","US","<MISSING>","(225) 869-4863","Super 10","30.0474","-90.689796","Monday : 09 AM - 06 PM, Tueday : 09 AM - 06 PM, Wednesday : 09 AM - 06 PM, Thurseday : 09 AM - 06 PM, Friday : 09 AM - 06 PM, Saturday : 09 AM - 06 PM, Sunday : 10 AM - 06 PM","https://www.rosesdiscountstores.com/store-locator-index"
"https://www.rosesdiscountstores.com/#bargaintown","Roses Express","853 US-90","Morgan City","Louisiana","70380","US","<MISSING>","(985) 399-3559","Roses Express","29.689699","-91.270897","Monday : 09 AM - 08 PM, Tueday : 09 AM - 08 PM, Wednesday : 09 AM - 08 PM, Thurseday : 09 AM - 08 PM, Friday : 09 AM - 08 PM, Saturday : 09 AM - 08 PM, Sunday : 12 AM - 06 PM","https://www.rosesdiscountstores.com/store-locator-index"
"https://www.rosesdiscountstores.com/#bargaintown","Roses","1804 S Scatterfield Rd","Anderson","Indiana","46016","US","<MISSING>","(765) 683-0412","Roses","40.098507","-85.650711","Monday : 09 AM - 09 PM, Tueday : 09 AM - 09 PM, Wednesday : 09 AM - 09 PM, Thurseday : 09 AM - 09 PM, Friday : 09 AM - 09 PM, Saturday : 09 AM - 09 PM, Sunday : 10 AM - 08 PM","https://www.rosesdiscountstores.com/store-locator-index"
"https://www.rosesdiscountstores.com/#bargaintown","Super Dollar","111 Main St","Greensboro","Alabama","36744","US","<MISSING>","(334) 624-8287","Super Dollar","32.704601","-87.595802","Monday : 09 AM - 08 PM, Tueday : 09 AM - 08 PM, Wednesday : 09 AM - 08 PM, Thurseday : 09 AM - 08 PM, Friday : 09 AM - 08 PM, Saturday : 09 AM - 08 PM, Sunday : 10 AM - 08 PM","https://www.rosesdiscountstores.com/store-locator-index"
"https://www.rosesdiscountstores.com/#bargaintown","Roses","1129 N Baldwin Ave","Marion","Indiana","46952","US","<MISSING>","(765) 662-1617","Roses","40.572803","-85.678429","Monday : 09 AM - 09 PM, Tueday : 09 AM - 09 PM, Wednesday : 09 AM - 09 PM, Thurseday : 09 AM - 09 PM, Friday : 09 AM - 09 PM, Saturday : 09 AM - 09 PM, Sunday : 10 AM - 08 PM","https://www.rosesdiscountstores.com/store-locator-index"
"https://www.rosesdiscountstores.com/#bargaintown","Bargain Town","2000 2nd Ave N","Bessemer","Alabama","35020","US","<MISSING>","(205) 428-3471","Bargain Town","33.401798","-86.954399","Monday : 09 AM - 06 PM, Tueday : 09 AM - 06 PM, Wednesday : 09 AM - 06 PM, Thurseday : 09 AM - 06 PM, Friday : 09 AM - 06 PM, Saturday : 09 AM - 06 PM, Sunday : 12 AM - 06 PM","https://www.rosesdiscountstores.com/store-locator-index"
"https://www.rosesdiscountstores.com/#bargaintown","Maxway","2217 Bessemer Rd","Birmingham","Alabama","35208","US","<MISSING>","(205) 781-2996","Maxway","33.484207","-86.888672","Monday : 09 AM - 09 PM, Tueday : 09 AM - 09 PM, Wednesday : 09 AM - 09 PM, Thurseday : 09 AM - 09 PM, Friday : 09 AM - 09 PM, Saturday : 09 AM - 09 PM, Sunday : 10 AM - 08 PM","https://www.rosesdiscountstores.com/store-locator-index"
"https://www.rosesdiscountstores.com/#bargaintown","Maxway Store","3012 27th St N","Birmingham","Alabama","35207","US","<MISSING>","(205) 714-5075","Maxway Store","33.552475","-86.817528","Monday : 09 AM - 09 PM, Tueday : 09 AM - 09 PM, Wednesday : 09 AM - 09 PM, Thurseday : 09 AM - 09 PM, Friday : 09 AM - 09 PM, Saturday : 09 AM - 09 PM, Sunday : 10 AM - 08 PM","https://www.rosesdiscountstores.com/store-locator-index"
"https://www.rosesdiscountstores.com/#bargaintown","Roses","1410 Sparta St","McMinnville","Tennessee","37110","US","<MISSING>","(931) 473-5140","Roses","35.683399","-85.769997","Monday : 09 AM - 09 PM, Tueday : 09 AM - 09 PM, Wednesday : 09 AM - 09 PM, Thurseday : 09 AM - 09 PM, Friday : 09 AM - 09 PM, Saturday : 09 AM - 09 PM, Sunday : 10 AM - 08 PM","https://www.rosesdiscountstores.com/store-locator-index"
"https://www.rosesdiscountstores.com/#bargaintown","Roses Express","1948 Veterans Memorial Dr","Birmingham","Alabama","35214","US","<MISSING>","(205) 791-4505","Roses Express","33.520699","-86.802399","Monday : 09 AM - 09 PM, Tueday : 09 AM - 09 PM, Wednesday : 09 AM - 09 PM, Thurseday : 09 AM - 09 PM, Friday : 09 AM - 09 PM, Saturday : 09 AM - 09 PM, Sunday : 10 AM - 08 PM","https://www.rosesdiscountstores.com/store-locator-index"
"https://www.rosesdiscountstores.com/#bargaintown","Roses Express","7517 Crestwood Blvd","Birmingham","Alabama","35213","US","<MISSING>","(205) 595-5864","Roses Express","33.530205","-86.724854","Monday : 09 AM - 09 PM, Tueday : 09 AM - 09 PM, Wednesday : 09 AM - 09 PM, Thurseday : 09 AM - 09 PM, Friday : 09 AM - 09 PM, Saturday : 09 AM - 09 PM, Sunday : 10 AM - 08 PM","https://www.rosesdiscountstores.com/store-locator-index"
"https://www.rosesdiscountstores.com/#bargaintown","Bills Dollar","17100 Jordan St","Chatom","Alabama","36518","US","<MISSING>","(251) 847-2828","Bills Dollar","31.4652","-88.254501","Monday : 09 AM - 06 PM, Tueday : 09 AM - 06 PM, Wednesday : 09 AM - 06 PM, Thurseday : 09 AM - 06 PM, Friday : 09 AM - 06 PM, Saturday : 09 AM - 06 PM, Sunday : 10 AM - 06 PM","https://www.rosesdiscountstores.com/store-locator-index"
"https://www.rosesdiscountstores.com/#bargaintown","Roses Express","4559 AL-25","Montevallo","Alabama","35115","US","<MISSING>","<MISSING>","Roses Express","33.095097","-86.855759","Monday : 09 AM - 09 PM, Tueday : 09 AM - 09 PM, Wednesday : 09 AM - 09 PM, Thurseday : 09 AM - 09 PM, Friday : 09 AM - 09 PM, Saturday : 09 AM - 09 PM, Sunday : 10 AM - 08 PM","https://www.rosesdiscountstores.com/store-locator-index"
"https://www.rosesdiscountstores.com/#bargaintown","Super Dollar","6594 Westbank Expy","Marrero","Louisiana","70072","US","<MISSING>","(504) 347-9350","Super Dollar","29.894178","-90.113403","Monday : 09 AM - 08 PM, Tueday : 09 AM - 08 PM, Wednesday : 09 AM - 08 PM, Thurseday : 09 AM - 08 PM, Friday : 09 AM - 08 PM, Saturday : 09 AM - 08 PM, Sunday : 10 AM - 08 PM","https://www.rosesdiscountstores.com/store-locator-index"
"https://www.rosesdiscountstores.com/#bargaintown","Roses Express","2385 Lakeway Dr","Russell Springs","Kentucky","42642","US","<MISSING>","(270) 751-0140","Roses Express","37.067352","-85.074242","Monday : 09 AM - 09 PM, Tueday : 09 AM - 09 PM, Wednesday : 09 AM - 09 PM, Thurseday : 09 AM - 09 PM, Friday : 09 AM - 09 PM, Saturday : 09 AM - 09 PM, Sunday : 10 AM - 08 PM","https://www.rosesdiscountstores.com/store-locator-index"
"https://www.rosesdiscountstores.com/#bargaintown","Roses Express","64 Westbank Expy","Gretna","Louisiana","70053","US","<MISSING>","(504) 366-0440","Roses Express","29.926323","-90.039223","Monday : 09 AM - 09 PM, Tueday : 09 AM - 09 PM, Wednesday : 09 AM - 09 PM, Thurseday : 09 AM - 09 PM, Friday : 09 AM - 09 PM, Saturday : 09 AM - 09 PM, Sunday : 10 AM - 08 PM","https://www.rosesdiscountstores.com/store-locator-index"
"https://www.rosesdiscountstores.com/#bargaintown","Maxway","100 Magnolia Dr","Selma","Alabama","36701","US","<MISSING>","(334) 875-4432","Maxway","32.407902","-87.020699","Monday : 09 AM - 08 PM, Tueday : 09 AM - 08 PM, Wednesday : 09 AM - 08 PM, Thurseday : 09 AM - 08 PM, Friday : 09 AM - 08 PM, Saturday : 09 AM - 08 PM, Sunday : 10 AM - 08 PM","https://www.rosesdiscountstores.com/store-locator-index"
"https://www.rosesdiscountstores.com/#bargaintown","Roses","1353b E Pass Rd","Gulfport","Mississippi","39507","US","<MISSING>","(228) 896-7509","Roses","30.39814","-89.029411","Monday : 09 AM - 09 PM, Tueday : 09 AM - 09 PM, Wednesday : 09 AM - 09 PM, Thurseday : 09 AM - 09 PM, Friday : 09 AM - 09 PM, Saturday : 09 AM - 09 PM, Sunday : 10 AM - 08 PM","https://www.rosesdiscountstores.com/store-locator-index"
"https://www.rosesdiscountstores.com/#bargaintown","Roses Express","223 Claiborne St","Camden","Alabama","36726","US","<MISSING>","(334) 682-4803","Roses Express","31.989044","-87.293152","Monday : 09 AM - 08 PM, Tueday : 09 AM - 08 PM, Wednesday : 09 AM - 08 PM, Thurseday : 09 AM - 08 PM, Friday : 09 AM - 08 PM, Saturday : 09 AM - 08 PM, Sunday : 10 AM - 08 PM","https://www.rosesdiscountstores.com/store-locator-index"
"https://www.rosesdiscountstores.com/#bargaintown","Roses","1537 Galbraith Rd","North College Hill","Ohio","45224","US","<MISSING>","(513) 521-3168","Roses","39.215683","-84.54496","Monday : 09 AM - 09 PM, Tueday : 09 AM - 09 PM, Wednesday : 09 AM - 09 PM, Thurseday : 09 AM - 09 PM, Friday : 09 AM - 09 PM, Saturday : 09 AM - 09 PM, Sunday : 10 AM - 08 PM","https://www.rosesdiscountstores.com/store-locator-index"
"https://www.rosesdiscountstores.com/#bargaintown","Roses Express","1800 Lafayette Rd","Rossville","Georgia","30741","US","<MISSING>","(706) 450-7304","Roses Express","34.955341","-85.259781","Monday : 09 AM - 09 PM, Tueday : 09 AM - 09 PM, Wednesday : 09 AM - 09 PM, Thurseday : 09 AM - 09 PM, Friday : 09 AM - 09 PM, Saturday : 09 AM - 09 PM, Sunday : 10 AM - 08 PM","https://www.rosesdiscountstores.com/store-locator-index"
"https://www.rosesdiscountstores.com/#bargaintown","Roses","370 S Hwy 27","Somerset","Kentucky","42501","US","<MISSING>","(606) 678-4125","Roses","37.091999","-84.604103","Monday : 09 AM - 09 PM, Tueday : 09 AM - 09 PM, Wednesday : 09 AM - 09 PM, Thurseday : 09 AM - 09 PM, Friday : 09 AM - 09 PM, Saturday : 09 AM - 09 PM, Sunday : 10 AM - 08 PM","https://www.rosesdiscountstores.com/store-locator-index"
"https://www.rosesdiscountstores.com/#bargaintown","Roses","1301 Winchester Rd","Lexington","Kentucky","40505","US","<MISSING>","(859) 226-5040","Roses","38.043438","-84.459602","Monday : 09 AM - 09 PM, Tueday : 09 AM - 09 PM, Wednesday : 09 AM - 09 PM, Thurseday : 09 AM - 09 PM, Friday : 09 AM - 09 PM, Saturday : 09 AM - 09 PM, Sunday : 10 AM - 08 PM","https://www.rosesdiscountstores.com/store-locator-index"
"https://www.rosesdiscountstores.com/#bargaintown","Roses","3101 McClellan Blvd","Anniston","Alabama","36207","US","<MISSING>","(256) 741-9996","Roses","33.685276","-85.820312","Monday : 09 AM - 09 PM, Tueday : 09 AM - 09 PM, Wednesday : 09 AM - 09 PM, Thurseday : 09 AM - 09 PM, Friday : 09 AM - 09 PM, Saturday : 09 AM - 09 PM, Sunday : 10 AM - 08 PM","https://www.rosesdiscountstores.com/store-locator-index"
"https://www.rosesdiscountstores.com/#bargaintown","Roses","1838 E Seymour Ave","Cincinnati","Ohio","45237","US","<MISSING>","(513) 351-2537","Roses","39.18998","-84.460152","Monday : 09 AM - 09 PM, Tueday : 09 AM - 09 PM, Wednesday : 09 AM - 09 PM, Thurseday : 09 AM - 09 PM, Friday : 09 AM - 09 PM, Saturday : 09 AM - 09 PM, Sunday : 10 AM - 08 PM","https://www.rosesdiscountstores.com/store-locator-index"
"https://www.rosesdiscountstores.com/#bargaintown","Roses Express","1318 AL-21 Bypass","Monroeville","Alabama","36460","US","<MISSING>","(251) 302-0101","Roses Express","31.514996","-87.31752","Monday : 09 AM - 09 PM, Tueday : 09 AM - 09 PM, Wednesday : 09 AM - 09 PM, Thurseday : 09 AM - 09 PM, Friday : 09 AM - 09 PM, Saturday : 09 AM - 09 PM, Sunday : 10 AM - 08 PM","https://www.rosesdiscountstores.com/store-locator-index"
"https://www.rosesdiscountstores.com/#bargaintown","Roses Express","416 S Craft Hwy","Chickasaw","Alabama","36611","US","<MISSING>","(251) 330-4990","Roses Express","30.756767","-88.075714","Monday : 09 AM - 09 PM, Tueday : 09 AM - 09 PM, Wednesday : 09 AM - 09 PM, Thurseday : 09 AM - 09 PM, Friday : 09 AM - 09 PM, Saturday : 09 AM - 09 PM, Sunday : 10 AM - 08 PM","https://www.rosesdiscountstores.com/store-locator-index"
"https://www.rosesdiscountstores.com/#bargaintown","Roses Express","3053 Dauphin St","Mobile","Alabama","36606","US","<MISSING>","(251) 473-6844","Roses Express","30.68861","-88.115799","Monday : 09 AM - 09 PM, Tueday : 09 AM - 09 PM, Wednesday : 09 AM - 09 PM, Thurseday : 09 AM - 09 PM, Friday : 09 AM - 09 PM, Saturday : 09 AM - 09 PM, Sunday : 10 AM - 08 PM","https://www.rosesdiscountstores.com/store-locator-index"
"https://www.rosesdiscountstores.com/#bargaintown","Roses","715b E Main St","Prattville","Alabama","36067","US","<MISSING>","(334) 568-1119","Roses","32.46019","-86.455017","Monday : 09 AM - 09 PM, Tueday : 09 AM - 09 PM, Wednesday : 09 AM - 09 PM, Thurseday : 09 AM - 09 PM, Friday : 09 AM - 09 PM, Saturday : 09 AM - 09 PM, Sunday : 10 AM - 08 PM","https://www.rosesdiscountstores.com/store-locator-index"
"https://www.rosesdiscountstores.com/#bargaintown","Roses Express","50 Talladega St","Lineville","Alabama","36266","US","<MISSING>","(256) 901-8140","Roses Express","33.311863","-85.755692","Monday : 09 AM - 09 PM, Tueday : 09 AM - 09 PM, Wednesday : 09 AM - 09 PM, Thurseday : 09 AM - 09 PM, Friday : 09 AM - 09 PM, Saturday : 09 AM - 09 PM, Sunday : 10 AM - 08 PM","https://www.rosesdiscountstores.com/store-locator-index"
"https://www.rosesdiscountstores.com/#bargaintown","Roses","1205 N Glenwood Ave","Dalton","Georgia","30721","US","<MISSING>","<MISSING>","Roses","34.792061","-84.962311","Monday : 09 AM - 09 PM, Tueday : 09 AM - 09 PM, Wednesday : 09 AM - 09 PM, Thurseday : 09 AM - 09 PM, Friday : 09 AM - 09 PM, Saturday : 09 AM - 09 PM, Sunday : 10 AM - 08 PM","https://www.rosesdiscountstores.com/store-locator-index"
"https://www.rosesdiscountstores.com/#bargaintown","Roses","1205 North Glenwood Avenue","Dalton","Georgia","30721","US","<MISSING>","(762) 209-8065","Roses","34.792061","-84.962311","Monday : 09 AM - 09 PM, Tueday : 09 AM - 09 PM, Wednesday : 09 AM - 09 PM, Thurseday : 09 AM - 09 PM, Friday : 09 AM - 09 PM, Saturday : 09 AM - 09 PM, Sunday : 10 AM - 08 PM","https://www.rosesdiscountstores.com/store-locator-index"
"https://www.rosesdiscountstores.com/#bargaintown","Roses","3243 W Siebenthaler Ave","Dayton","Ohio","45405","US","<MISSING>","(937) 277-0870","Roses","39.799973","-84.240753","Monday : 09 AM - 09 PM, Tueday : 09 AM - 09 PM, Wednesday : 09 AM - 09 PM, Thurseday : 09 AM - 09 PM, Friday : 09 AM - 09 PM, Saturday : 09 AM - 09 PM, Sunday : 10 AM - 08 PM","https://www.rosesdiscountstores.com/store-locator-index"
"https://www.rosesdiscountstores.com/#bargaintown","Roses","1544 Covington Ave","Piqua","Ohio","45356","US","<MISSING>","(937) 773-8027","Roses","40.139828","-84.273727","Monday : 09 AM - 09 PM, Tueday : 09 AM - 09 PM, Wednesday : 09 AM - 09 PM, Thurseday : 09 AM - 09 PM, Friday : 09 AM - 09 PM, Saturday : 09 AM - 09 PM, Sunday : 10 AM - 08 PM","https://www.rosesdiscountstores.com/store-locator-index"
"https://www.rosesdiscountstores.com/#bargaintown","Roses","705 Alex City Shopping Center Dr","Alexander City","Alabama","35010","US","<MISSING>","(256) 234-7007","Roses","32.931595","-85.945076","Monday : 09 AM - 09 PM, Tueday : 09 AM - 09 PM, Wednesday : 09 AM - 09 PM, Thurseday : 09 AM - 09 PM, Friday : 09 AM - 09 PM, Saturday : 09 AM - 09 PM, Sunday : 10 AM - 08 PM","https://www.rosesdiscountstores.com/store-locator-index"
"https://www.rosesdiscountstores.com/#bargaintown","Roses","163 Greenville Bypass","Greenville","Alabama","36037","US","<MISSING>","(334) 617-3058","Roses","31.848471","-86.640022","Monday : 09 AM - 09 PM, Tueday : 09 AM - 09 PM, Wednesday : 09 AM - 09 PM, Thurseday : 09 AM - 09 PM, Friday : 09 AM - 09 PM, Saturday : 09 AM - 09 PM, Sunday : 10 AM - 08 PM","https://www.rosesdiscountstores.com/store-locator-index"
"https://www.rosesdiscountstores.com/#bargaintown","Roses","4001 Eastern Blvd","Montgomery","Alabama","36116","US","<MISSING>","(334) 281-9181","Roses","32.32589","-86.236389","Monday : 09 AM - 09 PM, Tueday : 09 AM - 09 PM, Wednesday : 09 AM - 09 PM, Thurseday : 09 AM - 09 PM, Friday : 09 AM - 09 PM, Saturday : 09 AM - 09 PM, Sunday : 10 AM - 08 PM","https://www.rosesdiscountstores.com/store-locator-index"
"https://www.rosesdiscountstores.com/#bargaintown","Roses Express","2043 Douglas Ave","Brewton","Alabama","36426","US","<MISSING>","(251) 867-5071","Roses Express","31.1052","-87.072197","Monday : 09 AM - 09 PM, Tueday : 09 AM - 09 PM, Wednesday : 09 AM - 09 PM, Thurseday : 09 AM - 09 PM, Friday : 09 AM - 09 PM, Saturday : 09 AM - 09 PM, Sunday : 10 AM - 08 PM","https://www.rosesdiscountstores.com/store-locator-index"
"https://www.rosesdiscountstores.com/#bargaintown","Roses Express","3077 US-431","Roanoke","Alabama","36274","US","<MISSING>","(334) 326-0281","Roses Express","33.149044","-85.359558","Monday : 09 AM - 09 PM, Tueday : 09 AM - 09 PM, Wednesday : 09 AM - 09 PM, Thurseday : 09 AM - 09 PM, Friday : 09 AM - 09 PM, Saturday : 09 AM - 09 PM, Sunday : 10 AM - 08 PM","https://www.rosesdiscountstores.com/store-locator-index"
"https://www.rosesdiscountstores.com/#bargaintown","Roses","2960 Derr Rd","Springfield","Ohio","45503","US","<MISSING>","(937) 342-1426","Roses","39.964523","-83.784233","Monday : 09 AM - 09 PM, Tueday : 09 AM - 09 PM, Wednesday : 09 AM - 09 PM, Thurseday : 09 AM - 09 PM, Friday : 09 AM - 09 PM, Saturday : 09 AM - 09 PM, Sunday : 10 AM - 08 PM","https://www.rosesdiscountstores.com/store-locator-index"
"https://www.rosesdiscountstores.com/#bargaintown","Roses Express","1004 Bankhead Hwy","Carrollton","Georgia","30117","US","<MISSING>","(770) 832-0124","Roses Express","33.593262","-85.044121","Monday : 09 AM - 09 PM, Tueday : 09 AM - 09 PM, Wednesday : 09 AM - 09 PM, Thurseday : 09 AM - 09 PM, Friday : 09 AM - 09 PM, Saturday : 09 AM - 09 PM, Sunday : 10 AM - 08 PM","https://www.rosesdiscountstores.com/store-locator-index"
"https://www.rosesdiscountstores.com/#bargaintown","Super Dollar","335 9th Ave SW","La Fayette","Alabama","36862","US","<MISSING>","(334) 864-8607","Super Dollar","32.899799","-85.4011","Monday : 09 AM - 08 PM, Tueday : 09 AM - 08 PM, Wednesday : 09 AM - 08 PM, Thurseday : 09 AM - 08 PM, Friday : 09 AM - 08 PM, Saturday : 09 AM - 08 PM, Sunday : 10 AM - 08 PM","https://www.rosesdiscountstores.com/store-locator-index"
"https://www.rosesdiscountstores.com/#bargaintown","Roses Express","821 Forest Ave","Luverne","Alabama","36049","US","<MISSING>","(334) 304-3016","Roses Express","31.704096","-86.263397","Monday : 09 AM - 09 PM, Tueday : 09 AM - 09 PM, Wednesday : 09 AM - 09 PM, Thurseday : 09 AM - 09 PM, Friday : 09 AM - 09 PM, Saturday : 09 AM - 09 PM, Sunday : 10 AM - 08 PM","https://www.rosesdiscountstores.com/store-locator-index"
"https://www.rosesdiscountstores.com/#bargaintown","Roses Express","202 S Elm St","Tuskegee","Alabama","36083","US","<MISSING>","(334) 727-6611","Roses Express","32.422836","-85.691368","Monday : 09 AM - 09 PM, Tueday : 09 AM - 09 PM, Wednesday : 09 AM - 09 PM, Thurseday : 09 AM - 09 PM, Friday : 09 AM - 09 PM, Saturday : 09 AM - 09 PM, Sunday : 10 AM - 08 PM","https://www.rosesdiscountstores.com/store-locator-index"
"https://www.rosesdiscountstores.com/#bargaintown","Roses","5725 Appalachian Hwy","Blue Ridge","Georgia","30513","US","<MISSING>","(706) 632-8158","Roses","34.879639","-84.296394","Monday : 09 AM - 09 PM, Tueday : 09 AM - 09 PM, Wednesday : 09 AM - 09 PM, Thurseday : 09 AM - 09 PM, Friday : 09 AM - 09 PM, Saturday : 09 AM - 09 PM, Sunday : 10 AM - 08 PM","https://www.rosesdiscountstores.com/store-locator-index"
"https://www.rosesdiscountstores.com/#bargaintown","Roses","905 N 12th St","Middlesboro","Kentucky","40965","US","<MISSING>","(606) 248-7575","Roses","36.612629","-83.702835","Monday : 09 AM - 09 PM, Tueday : 09 AM - 09 PM, Wednesday : 09 AM - 09 PM, Thurseday : 09 AM - 09 PM, Friday : 09 AM - 09 PM, Saturday : 09 AM - 09 PM, Sunday : 10 AM - 08 PM","https://www.rosesdiscountstores.com/store-locator-index"
"https://www.rosesdiscountstores.com/#bargaintown","Roses","2580 Pepperell Pkwy","Opelika","Alabama","36801","US","<MISSING>","(334) 744-5298","Roses","32.636826","-85.416","Monday : 09 AM - 09 PM, Tueday : 09 AM - 09 PM, Wednesday : 09 AM - 09 PM, Thurseday : 09 AM - 09 PM, Friday : 09 AM - 09 PM, Saturday : 09 AM - 09 PM, Sunday : 10 AM - 08 PM","https://www.rosesdiscountstores.com/store-locator-index"
"https://www.rosesdiscountstores.com/#bargaintown","Roses Express","15 Brent Ln","Pensacola","Florida","32503","US","<MISSING>","(850) 434-1355","Roses Express","30.466537","-87.24144","Monday : 09 AM - 09 PM, Tueday : 09 AM - 09 PM, Wednesday : 09 AM - 09 PM, Thurseday : 09 AM - 09 PM, Friday : 09 AM - 09 PM, Saturday : 09 AM - 09 PM, Sunday : 10 AM - 08 PM","https://www.rosesdiscountstores.com/store-locator-index"
"https://www.rosesdiscountstores.com/#bargaintown","Super Dollar","103 Conecuh Ave","Union Springs","Alabama","36089","US","<MISSING>","(334) 738-2866","Super Dollar","32.139301","-85.711296","Monday : 09 AM - 08 PM, Tueday : 09 AM - 08 PM, Wednesday : 09 AM - 08 PM, Thurseday : 09 AM - 08 PM, Friday : 09 AM - 08 PM, Saturday : 09 AM - 08 PM, Sunday : 10 AM - 08 PM","https://www.rosesdiscountstores.com/store-locator-index"
"https://www.rosesdiscountstores.com/#bargaintown","Maxway","2700 Jefferson St","Austell","Georgia","30168","US","<MISSING>","(678) 398-1223","Maxway","33.812534","-84.631264","Monday : 09 AM - 09 PM, Tueday : 09 AM - 09 PM, Wednesday : 09 AM - 09 PM, Thurseday : 09 AM - 09 PM, Friday : 09 AM - 09 PM, Saturday : 09 AM - 09 PM, Sunday : 10 AM - 08 PM","https://www.rosesdiscountstores.com/store-locator-index"
"https://www.rosesdiscountstores.com/#bargaintown","Roses Express","56 Bullsboro Dr","Newnan","Georgia","30263","US","<MISSING>","(678) 423-0326","Roses Express","33.385689","-84.786369","Monday : 09 AM - 09 PM, Tueday : 09 AM - 09 PM, Wednesday : 09 AM - 09 PM, Thurseday : 09 AM - 09 PM, Friday : 09 AM - 09 PM, Saturday : 09 AM - 09 PM, Sunday : 10 AM - 08 PM","https://www.rosesdiscountstores.com/store-locator-index"
"https://www.rosesdiscountstores.com/#bargaintown","Maxway","901 W Cumming Ave","Opp","Alabama","36467","US","<MISSING>","(334) 493-4080","Maxway","31.280432","-86.251892","Monday : 09 AM - 09 PM, Tueday : 09 AM - 09 PM, Wednesday : 09 AM - 09 PM, Thurseday : 09 AM - 09 PM, Friday : 09 AM - 09 PM, Saturday : 09 AM - 09 PM, Sunday : 10 AM - 08 PM","https://www.rosesdiscountstores.com/store-locator-index"
"https://www.rosesdiscountstores.com/#bargaintown","Roses Express","324 W Main St","Sevierville","Tennessee","37862","US","<MISSING>","(865) 774-2411","Roses Express","35.87178","-83.571838","Monday : 09 AM - 09 PM, Tueday : 09 AM - 09 PM, Wednesday : 09 AM - 09 PM, Thurseday : 09 AM - 09 PM, Friday : 09 AM - 09 PM, Saturday : 09 AM - 09 PM, Sunday : 10 AM - 08 PM","https://www.rosesdiscountstores.com/store-locator-index"
"https://www.rosesdiscountstores.com/#bargaintown","Maxway","2044 Campbellton Rd SW","Atlanta","Georgia","30311","US","<MISSING>","(404) 755-0382","Maxway","33.707142","-84.45565","Monday : 09 AM - 09 PM, Tueday : 09 AM - 09 PM, Wednesday : 09 AM - 09 PM, Thurseday : 09 AM - 09 PM, Friday : 09 AM - 09 PM, Saturday : 09 AM - 09 PM, Sunday : 10 AM - 08 PM","https://www.rosesdiscountstores.com/store-locator-index"
"https://www.rosesdiscountstores.com/#bargaintown","Roses","1339 S Byrne Rd","Toledo","Ohio","43614","US","<MISSING>","(567) 666-6373","Roses","41.615086","-83.621681","Monday : 09 AM - 09 PM, Tueday : 09 AM - 09 PM, Wednesday : 09 AM - 09 PM, Thurseday : 09 AM - 09 PM, Friday : 09 AM - 09 PM, Saturday : 09 AM - 09 PM, Sunday : 10 AM - 08 PM","https://www.rosesdiscountstores.com/store-locator-index"
"https://www.rosesdiscountstores.com/#bargaintown","Super Dollar","691 S Talbotton St","Greenville","Georgia","30222","US","<MISSING>","(706) 672-4540","Super Dollar","33.034","-84.714661","Monday : 09 AM - 08 PM, Tueday : 09 AM - 08 PM, Wednesday : 09 AM - 08 PM, Thurseday : 09 AM - 08 PM, Friday : 09 AM - 08 PM, Saturday : 09 AM - 08 PM, Sunday : 10 AM - 08 PM","https://www.rosesdiscountstores.com/store-locator-index"
"https://www.rosesdiscountstores.com/#bargaintown","Roses Express","4851 Old Jonesboro Rd","Forest Park","Georgia","30297","US","<MISSING>","(404) 361-2659","Roses Express","33.629032","-84.355537","Monday : 09 AM - 09 PM, Tueday : 09 AM - 09 PM, Wednesday : 09 AM - 09 PM, Thurseday : 09 AM - 09 PM, Friday : 09 AM - 09 PM, Saturday : 09 AM - 09 PM, Sunday : 10 AM - 08 PM","https://www.rosesdiscountstores.com/store-locator-index"
"https://www.rosesdiscountstores.com/#bargaintown","Roses","E 280 Byp","Phenix City","Alabama","36867","US","<MISSING>","(334) 592-5048","Roses","32.491734","-85.032616","Monday : 09 AM - 09 PM, Tueday : 09 AM - 09 PM, Wednesday : 09 AM - 09 PM, Thurseday : 09 AM - 09 PM, Friday : 09 AM - 09 PM, Saturday : 09 AM - 09 PM, Sunday : 10 AM - 08 PM","https://www.rosesdiscountstores.com/store-locator-index"
"https://www.rosesdiscountstores.com/#bargaintown","Roses","7965 Tara Blvd","Jonesboro","Georgia","30236","US","<MISSING>","(770) 472-0553","Roses","33.536072","-84.367058","Monday : 09 AM - 09 PM, Tueday : 09 AM - 09 PM, Wednesday : 09 AM - 09 PM, Thurseday : 09 AM - 09 PM, Friday : 09 AM - 09 PM, Saturday : 09 AM - 09 PM, Sunday : 10 AM - 08 PM","https://www.rosesdiscountstores.com/store-locator-index"
"https://www.rosesdiscountstores.com/#bargaintown","Roses","2732 Candler Rd","Decatur","Georgia","30034","US","<MISSING>","(404) 241-2957","Roses","33.71516","-84.266319","Monday : 09 AM - 09 PM, Tueday : 09 AM - 09 PM, Wednesday : 09 AM - 09 PM, Thurseday : 09 AM - 09 PM, Friday : 09 AM - 09 PM, Saturday : 09 AM - 09 PM, Sunday : 10 AM - 08 PM","https://www.rosesdiscountstores.com/store-locator-index"
"https://www.rosesdiscountstores.com/#bargaintown","Roses","1501 E Dublin Granville Rd","Columbus","Ohio","43229","US","<MISSING>","(614) 785-4660","Roses","40.089554","-83.041588","Monday : 09 AM - 09 PM, Tueday : 09 AM - 09 PM, Wednesday : 09 AM - 09 PM, Thurseday : 09 AM - 09 PM, Friday : 09 AM - 09 PM, Saturday : 09 AM - 09 PM, Sunday : 10 AM - 08 PM","https://www.rosesdiscountstores.com/store-locator-index"
"https://www.rosesdiscountstores.com/#bargaintown","Roses","1960 Mt Zion Rd","Morrow","Georgia","30260","US","<MISSING>","(678) 554-3160","Roses","33.565758","-84.326843","Monday : 09 AM - 09 PM, Tueday : 09 AM - 09 PM, Wednesday : 09 AM - 09 PM, Thurseday : 09 AM - 09 PM, Friday : 09 AM - 09 PM, Saturday : 09 AM - 09 PM, Sunday : 10 AM - 08 PM","https://www.rosesdiscountstores.com/store-locator-index"
"https://www.rosesdiscountstores.com/#bargaintown","Bargain Town","1116 Us Hwy 280 By-Pass","Phenix City","Alabama","36867","US","<MISSING>","(334) 291-5164","Bargain Town","32.471001","-85.000801","Monday : 09 AM - 09 PM, Tueday : 09 AM - 09 PM, Wednesday : 09 AM - 09 PM, Thurseday : 09 AM - 09 PM, Friday : 09 AM - 09 PM, Saturday : 09 AM - 09 PM, Sunday : 10 AM - 08 PM","https://www.rosesdiscountstores.com/store-locator-index"
"https://www.rosesdiscountstores.com/#bargaintown","Bargain Town","2326 Francis St","Columbus","Georgia","31906","US","<MISSING>","(706) 576-4780","Bargain Town","32.460999","-84.987701","Monday : 09 AM - 08 PM, Tueday : 09 AM - 08 PM, Wednesday : 09 AM - 08 PM, Thurseday : 09 AM - 08 PM, Friday : 09 AM - 08 PM, Saturday : 09 AM - 08 PM, Sunday : 10 AM - 08 PM","https://www.rosesdiscountstores.com/store-locator-index"
"https://www.rosesdiscountstores.com/#bargaintown","Roses","3200 Macon Rd","Columbus","Georgia","31906","US","<MISSING>","(706) 780-3512","Roses","32.47998","-84.941429","Monday : 09 AM - 09 PM, Tueday : 09 AM - 09 PM, Wednesday : 09 AM - 09 PM, Thurseday : 09 AM - 09 PM, Friday : 09 AM - 09 PM, Saturday : 09 AM - 09 PM, Sunday : 10 AM - 08 PM","https://www.rosesdiscountstores.com/store-locator-index"
"https://www.rosesdiscountstores.com/#bargaintown","Roses","621 Boll Weevil Cir","Enterprise","Alabama","36330","US","<MISSING>","(334) 845-1001","Roses","31.320602","-85.832054","Monday : 09 AM - 09 PM, Tueday : 09 AM - 09 PM, Wednesday : 09 AM - 09 PM, Thurseday : 09 AM - 09 PM, Friday : 09 AM - 09 PM, Saturday : 09 AM - 09 PM, Sunday : 10 AM - 08 PM","https://www.rosesdiscountstores.com/store-locator-index"
"https://www.rosesdiscountstores.com/#bargaintown","Roses","4691 Morse Centre Rd","Columbus","Ohio","43229","US","<MISSING>","(614) 985-1690","Roses","40.062351","-82.962364","Monday : 09 AM - 09 PM, Tueday : 09 AM - 09 PM, Wednesday : 09 AM - 09 PM, Thurseday : 09 AM - 09 PM, Friday : 09 AM - 09 PM, Saturday : 09 AM - 09 PM, Sunday : 10 AM - 08 PM","https://www.rosesdiscountstores.com/store-locator-index"
"https://www.rosesdiscountstores.com/#bargaintown","Roses Express","1130 Warm Springs Hwy","Manchester","Georgia","31816","US","<MISSING>","(706) 846-2678","Roses Express","32.859901","-84.619904","Monday : 09 AM - 09 PM, Tueday : 09 AM - 09 PM, Wednesday : 09 AM - 09 PM, Thurseday : 09 AM - 09 PM, Friday : 09 AM - 09 PM, Saturday : 09 AM - 09 PM, Sunday : 10 AM - 08 PM","https://www.rosesdiscountstores.com/store-locator-index"
"https://www.rosesdiscountstores.com/#bargaintown","Roses","4632 E Main St","Whitehall","Ohio","43213","US","<MISSING>","(614) 501-1634","Roses","39.957432","-82.874069","Monday : 09 AM - 09 PM, Tueday : 09 AM - 09 PM, Wednesday : 09 AM - 09 PM, Thurseday : 09 AM - 09 PM, Friday : 09 AM - 09 PM, Saturday : 09 AM - 09 PM, Sunday : 10 AM - 08 PM","https://www.rosesdiscountstores.com/store-locator-index"
"https://www.rosesdiscountstores.com/#bargaintown","Roses","1108 Zebulon Rd","Griffin","Georgia","30224","US","<MISSING>","(770) 228-4806","Roses","33.22044","-84.269623","Monday : 09 AM - 09 PM, Tueday : 09 AM - 09 PM, Wednesday : 09 AM - 09 PM, Thurseday : 09 AM - 09 PM, Friday : 09 AM - 09 PM, Saturday : 09 AM - 09 PM, Sunday : 10 AM - 08 PM","https://www.rosesdiscountstores.com/store-locator-index"
"https://www.rosesdiscountstores.com/#bargaintown","Maxway","564 Macon St","McDonough","Georgia","30253","US","<MISSING>","(770) 898-5870","Maxway","33.432354","-84.144333","Monday : 09 AM - 09 PM, Tueday : 09 AM - 09 PM, Wednesday : 09 AM - 09 PM, Thurseday : 09 AM - 09 PM, Friday : 09 AM - 09 PM, Saturday : 09 AM - 09 PM, Sunday : 10 AM - 08 PM","https://www.rosesdiscountstores.com/store-locator-index"
"https://www.rosesdiscountstores.com/#bargaintown","Roses","1244 S Eufaula Ave","Eufaula","Alabama","36027","US","<MISSING>","(334) 845-8082","Roses","31.876305","-85.151024","Monday : 09 AM - 09 PM, Tueday : 09 AM - 09 PM, Wednesday : 09 AM - 09 PM, Thurseday : 09 AM - 09 PM, Friday : 09 AM - 09 PM, Saturday : 09 AM - 09 PM, Sunday : 10 AM - 08 PM","https://www.rosesdiscountstores.com/store-locator-index"
"https://www.rosesdiscountstores.com/#bargaintown","Roses","297 Jackson Plaza","Sylva","North Carolina","28779","US","<MISSING>","(828) 586-8965","Roses","35.372684","-83.224449","Monday : 09 AM - 09 PM, Tueday : 09 AM - 09 PM, Wednesday : 09 AM - 09 PM, Thurseday : 09 AM - 09 PM, Friday : 09 AM - 09 PM, Saturday : 09 AM - 09 PM, Sunday : 10 AM - 08 PM","https://www.rosesdiscountstores.com/store-locator-index"
"https://www.rosesdiscountstores.com/#bargaintown","Roses Express","17 Monroe Hwy","Winder","Georgia","30680","US","<MISSING>","(770) 791-0062","Roses Express","33.97847","-83.714096","<MISSING>","https://www.rosesdiscountstores.com/store-locator-index"
"https://www.rosesdiscountstores.com/#bargaintown","Roses","904 Veterans Pkwy","Barnesville","Georgia","30204","US","<MISSING>","(770) 358-2400","Roses","33.0546","-84.155701","Monday : 09 AM - 09 PM, Tueday : 09 AM - 09 PM, Wednesday : 09 AM - 09 PM, Thurseday : 09 AM - 09 PM, Friday : 09 AM - 09 PM, Saturday : 09 AM - 09 PM, Sunday : 10 AM - 08 PM","https://www.rosesdiscountstores.com/store-locator-index"
"https://www.rosesdiscountstores.com/#bargaintown","Roses Express","786 W Spring St","Monroe","Georgia","30655","US","<MISSING>","(770) 266-0120","Roses Express","33.7948","-83.713203","Monday : 09 AM - 09 PM, Tueday : 09 AM - 09 PM, Wednesday : 09 AM - 09 PM, Thurseday : 09 AM - 09 PM, Friday : 09 AM - 09 PM, Saturday : 09 AM - 09 PM, Sunday : 10 AM - 08 PM","https://www.rosesdiscountstores.com/store-locator-index"
"https://www.rosesdiscountstores.com/#bargaintown","Roses","2214 Ross Clark Cir","Dothan","Alabama","36301","US","<MISSING>","(334) 792-4321","Roses","31.193089","-85.404289","Monday : 09 AM - 09 PM, Tueday : 09 AM - 09 PM, Wednesday : 09 AM - 09 PM, Thurseday : 09 AM - 09 PM, Friday : 09 AM - 09 PM, Saturday : 09 AM - 09 PM, Sunday : 10 AM - 08 PM","https://www.rosesdiscountstores.com/store-locator-index"
"https://www.rosesdiscountstores.com/#bargaintown","Super Dollar","901 N Waukesha St","Bonifay","Florida","32425","US","<MISSING>","(850) 547-2470","Super Dollar","30.800398","-85.679291","Monday : 09 AM - 09 PM, Tueday : 09 AM - 09 PM, Wednesday : 09 AM - 09 PM, Thurseday : 09 AM - 09 PM, Friday : 09 AM - 09 PM, Saturday : 09 AM - 09 PM, Sunday : 10 AM - 08 PM","https://www.rosesdiscountstores.com/store-locator-index"
"https://www.rosesdiscountstores.com/#bargaintown","Roses","16427 Wise St","Saint Paul","Virginia","24283","US","<MISSING>","(276) 762-0171","Roses","36.904961","-82.317085","Monday : 09 AM - 09 PM, Tueday : 09 AM - 09 PM, Wednesday : 09 AM - 09 PM, Thurseday : 09 AM - 09 PM, Friday : 09 AM - 09 PM, Saturday : 09 AM - 09 PM, Sunday : 10 AM - 08 PM","https://www.rosesdiscountstores.com/store-locator-index"
"https://www.rosesdiscountstores.com/#bargaintown","Roses Express","11510 Columbia Rd","Blakely","Georgia","39823","US","<MISSING>","(229) 723-4158","Roses Express","31.372021","-84.949593","Monday : 09 AM - 09 PM, Tueday : 09 AM - 09 PM, Wednesday : 09 AM - 09 PM, Thurseday : 09 AM - 09 PM, Friday : 09 AM - 09 PM, Saturday : 09 AM - 09 PM, Sunday : 10 AM - 08 PM","https://www.rosesdiscountstores.com/store-locator-index"
"https://www.rosesdiscountstores.com/#bargaintown","Maxway","1059 Franklin Springs St","Royston","Georgia","30662","US","<MISSING>","(706) 245-9469","Maxway","34.284752","-83.126045","Monday : 09 AM - 09 PM, Tueday : 09 AM - 09 PM, Wednesday : 09 AM - 09 PM, Thurseday : 09 AM - 09 PM, Friday : 09 AM - 09 PM, Saturday : 09 AM - 09 PM, Sunday : 10 AM - 08 PM","https://www.rosesdiscountstores.com/store-locator-index"
"https://www.rosesdiscountstores.com/#bargaintown","Roses Express","1506 E Forsyth St","Americus","Georgia","31709","US","<MISSING>","(229) 928-8312","Roses Express","32.073006","-84.213051","Monday : 09 AM - 09 PM, Tueday : 09 AM - 09 PM, Wednesday : 09 AM - 09 PM, Thurseday : 09 AM - 09 PM, Friday : 09 AM - 09 PM, Saturday : 09 AM - 09 PM, Sunday : 10 AM - 08 PM","https://www.rosesdiscountstores.com/store-locator-index"
"https://www.rosesdiscountstores.com/#bargaintown","Roses Express","315 W Front St","Liberty","South Carolina","29657","US","<MISSING>","(864) 777-2853","Roses Express","34.784927","-82.697342","Monday : 09 AM - 09 PM, Tueday : 09 AM - 09 PM, Wednesday : 09 AM - 09 PM, Thurseday : 09 AM - 09 PM, Friday : 09 AM - 09 PM, Saturday : 09 AM - 09 PM, Sunday : 10 AM - 08 PM","https://www.rosesdiscountstores.com/store-locator-index"
"https://www.rosesdiscountstores.com/#bargaintown","Maxway","313 S Jefferson Ave","Eatonton","Georgia","31024","US","<MISSING>","(706) 484-1864","Maxway","33.32431","-83.386795","Monday : 09 AM - 08 PM, Tueday : 09 AM - 08 PM, Wednesday : 09 AM - 08 PM, Thurseday : 09 AM - 08 PM, Friday : 09 AM - 08 PM, Saturday : 09 AM - 08 PM, Sunday : 10 AM - 08 PM","https://www.rosesdiscountstores.com/store-locator-index"
"https://www.rosesdiscountstores.com/#bargaintown","Roses","120 Reservoir Rd","Burnsville","North Carolina","28714","US","<MISSING>","(828) 682-9025","Roses","35.914829","-82.299286","Monday : 09 AM - 09 PM, Tueday : 09 AM - 09 PM, Wednesday : 09 AM - 09 PM, Thurseday : 09 AM - 09 PM, Friday : 09 AM - 09 PM, Saturday : 09 AM - 09 PM, Sunday : 10 AM - 08 PM","https://www.rosesdiscountstores.com/store-locator-index"
"https://www.rosesdiscountstores.com/#bargaintown","Roses","3856 Pio Nono Ave","Macon","Georgia","31206","US","<MISSING>","(478) 781-1276","Roses","32.794788","-83.667664","Monday : 09 AM - 09 PM, Tueday : 09 AM - 09 PM, Wednesday : 09 AM - 09 PM, Thurseday : 09 AM - 09 PM, Friday : 09 AM - 09 PM, Saturday : 09 AM - 09 PM, Sunday : 10 AM - 08 PM","https://www.rosesdiscountstores.com/store-locator-index"
"https://www.rosesdiscountstores.com/#bargaintown","Roses","652 Shurling Dr","Macon","Georgia","31211","US","<MISSING>","(478) 746-5626","Roses","32.859596","-83.61248","Monday : 09 AM - 09 PM, Tueday : 09 AM - 09 PM, Wednesday : 09 AM - 09 PM, Thurseday : 09 AM - 09 PM, Friday : 09 AM - 09 PM, Saturday : 09 AM - 09 PM, Sunday : 10 AM - 08 PM","https://www.rosesdiscountstores.com/store-locator-index"
"https://www.rosesdiscountstores.com/#bargaintown","Roses Express","409 W 3rd St","Donalsonville","Georgia","39845","US","<MISSING>","(229) 383-8038","Roses Express","31.040651","-84.888954","Monday : 09 AM - 09 PM, Tueday : 09 AM - 09 PM, Wednesday : 09 AM - 09 PM, Thurseday : 09 AM - 09 PM, Friday : 09 AM - 09 PM, Saturday : 09 AM - 09 PM, Sunday : 10 AM - 08 PM","https://www.rosesdiscountstores.com/store-locator-index"
"https://www.rosesdiscountstores.com/#bargaintown","Bills Dollar","102 E South St","Greensboro","Georgia","30642","US","<MISSING>","(706) 454-0344","Bills Dollar","33.574909","-83.181587","Monday : 09 AM - 06 PM, Tueday : 09 AM - 06 PM, Wednesday : 09 AM - 06 PM, Thurseday : 09 AM - 06 PM, Friday : 09 AM - 06 PM, Saturday : 09 AM - 06 PM, Sunday : 12 AM - 06 PM","https://www.rosesdiscountstores.com/store-locator-index"
"https://www.rosesdiscountstores.com/#bargaintown","Roses","2285 US-341","Fort Valley","Georgia","31030","US","<MISSING>","(478) 825-2144","Roses","32.465656","-83.821632","Monday : 09 AM - 09 PM, Tueday : 09 AM - 09 PM, Wednesday : 09 AM - 09 PM, Thurseday : 09 AM - 09 PM, Friday : 09 AM - 09 PM, Saturday : 09 AM - 09 PM, Sunday : 10 AM - 08 PM","https://www.rosesdiscountstores.com/store-locator-index"
"https://www.rosesdiscountstores.com/#bargaintown","Roses","3219 Martin Luther King Jr Blvd","Anderson","South Carolina","29625","US","<MISSING>","(864) 332-0596","Roses","34.543362","-82.671432","Monday : 09 AM - 09 PM, Tueday : 09 AM - 09 PM, Wednesday : 09 AM - 09 PM, Thurseday : 09 AM - 09 PM, Friday : 09 AM - 09 PM, Saturday : 09 AM - 09 PM, Sunday : 10 AM - 08 PM","https://www.rosesdiscountstores.com/store-locator-index"
"https://www.rosesdiscountstores.com/#bargaintown","Roses","751 E Main St","Abingdon","Virginia","24210","US","<MISSING>","(276) 628-3154","Roses","36.719513","-81.953079","Monday : 09 AM - 09 PM, Tueday : 09 AM - 09 PM, Wednesday : 09 AM - 09 PM, Thurseday : 09 AM - 09 PM, Friday : 09 AM - 09 PM, Saturday : 09 AM - 09 PM, Sunday : 10 AM - 08 PM","https://www.rosesdiscountstores.com/store-locator-index"
"https://www.rosesdiscountstores.com/#bargaintown","Roses Express","17 Farrs Bridge Rd","Greenville","South Carolina","29617","US","<MISSING>","(864) 246-5300","Roses Express","34.882504","-82.457336","Monday : 09 AM - 09 PM, Tueday : 09 AM - 09 PM, Wednesday : 09 AM - 09 PM, Thurseday : 09 AM - 09 PM, Friday : 09 AM - 09 PM, Saturday : 09 AM - 09 PM, Sunday : 10 AM - 08 PM","https://www.rosesdiscountstores.com/store-locator-index"
"https://www.rosesdiscountstores.com/#bargaintown","Roses","2940 Clinch St","Richlands","Virginia","24641","US","<MISSING>","(276) 964-9616","Roses","37.092525","-81.821671","Monday : 09 AM - 09 PM, Tueday : 09 AM - 09 PM, Wednesday : 09 AM - 09 PM, Thurseday : 09 AM - 09 PM, Friday : 09 AM - 09 PM, Saturday : 09 AM - 09 PM, Sunday : 10 AM - 08 PM","https://www.rosesdiscountstores.com/store-locator-index"
"https://www.rosesdiscountstores.com/#bargaintown","Maxway","Old Anderson Rd","Powdersville","South Carolina","29611","US","<MISSING>","(864) 269-0211","Maxway","34.814663","-82.44381","Monday : 09 AM - 09 PM, Tueday : 09 AM - 09 PM, Wednesday : 09 AM - 09 PM, Thurseday : 09 AM - 09 PM, Friday : 09 AM - 09 PM, Saturday : 09 AM - 09 PM, Sunday : 10 AM - 08 PM","https://www.rosesdiscountstores.com/store-locator-index"
"https://www.rosesdiscountstores.com/#bargaintown","Roses Express","1031 S Wayne St","Milledgeville","Georgia","31061","US","<MISSING>","(478) 452-4138","Roses Express","33.065903","-83.223419","Monday : 09 AM - 09 PM, Tueday : 09 AM - 09 PM, Wednesday : 09 AM - 09 PM, Thurseday : 09 AM - 09 PM, Friday : 09 AM - 09 PM, Saturday : 09 AM - 09 PM, Sunday : 10 AM - 08 PM","https://www.rosesdiscountstores.com/store-locator-index"
"https://www.rosesdiscountstores.com/#bargaintown","Roses","2100 Wade Hampton Blvd","Greenville","South Carolina","29615","US","<MISSING>","(864) 268-2063","Roses","34.884441","-82.352242","Monday : 09 AM - 09 PM, Tueday : 09 AM - 09 PM, Wednesday : 09 AM - 09 PM, Thurseday : 09 AM - 09 PM, Friday : 09 AM - 09 PM, Saturday : 09 AM - 09 PM, Sunday : 10 AM - 08 PM","https://www.rosesdiscountstores.com/store-locator-index"
"https://www.rosesdiscountstores.com/#bargaintown","Roses Express","116 River St","Belton","South Carolina","29627","US","<MISSING>","(864) 860-8543","Roses Express","34.523823","-82.49279","Monday : 09 AM - 09 PM, Tueday : 09 AM - 09 PM, Wednesday : 09 AM - 09 PM, Thurseday : 09 AM - 09 PM, Friday : 09 AM - 09 PM, Saturday : 09 AM - 09 PM, Sunday : 10 AM - 08 PM","https://www.rosesdiscountstores.com/store-locator-index"
"https://www.rosesdiscountstores.com/#bargaintown","Roses Express","NC-194 & Old Vale Rd","Newland","North Carolina","28657","US","<MISSING>","(828) 733-2734","Roses Express","36.087299","-81.927299","Monday : 09 AM - 09 PM, Tueday : 09 AM - 09 PM, Wednesday : 09 AM - 09 PM, Thurseday : 09 AM - 09 PM, Friday : 09 AM - 09 PM, Saturday : 09 AM - 09 PM, Sunday : 10 AM - 08 PM","https://www.rosesdiscountstores.com/store-locator-index"
"https://www.rosesdiscountstores.com/#bargaintown","Roses","600 N Main St","Marion","North Carolina","28752","US","<MISSING>","(828) 652-6266","Roses","35.683998","-82.0093","Monday : 09 AM - 09 PM, Tueday : 09 AM - 09 PM, Wednesday : 09 AM - 09 PM, Thurseday : 09 AM - 09 PM, Friday : 09 AM - 09 PM, Saturday : 09 AM - 09 PM, Sunday : 10 AM - 08 PM","https://www.rosesdiscountstores.com/store-locator-index"
"https://www.rosesdiscountstores.com/#bargaintown","Roses","1620 E Oglethorpe Blvd","Albany","Georgia","31705","US","<MISSING>","(229) 436-0119","Roses","31.571123","-84.109428","Monday : 09 AM - 09 PM, Tueday : 09 AM - 09 PM, Wednesday : 09 AM - 09 PM, Thurseday : 09 AM - 09 PM, Friday : 09 AM - 09 PM, Saturday : 09 AM - 09 PM, Sunday : 10 AM - 08 PM","https://www.rosesdiscountstores.com/store-locator-index"
"https://www.rosesdiscountstores.com/#bargaintown","Roses","5837 Smith Rd","Brook Park","Ohio","44142","US","<MISSING>","(216) 265-7952","Roses","41.404774","-81.804047","Monday : 09 AM - 09 PM, Tueday : 09 AM - 09 PM, Wednesday : 09 AM - 09 PM, Thurseday : 09 AM - 09 PM, Friday : 09 AM - 09 PM, Saturday : 09 AM - 09 PM, Sunday : 10 AM - 08 PM","https://www.rosesdiscountstores.com/store-locator-index"
"https://www.rosesdiscountstores.com/#bargaintown","Maxway","126 Washington Plaza","Washington","Georgia","30673","US","<MISSING>","(706) 678-3990","Maxway","33.727871","-82.717667","Monday : 09 AM - 09 PM, Tueday : 09 AM - 09 PM, Wednesday : 09 AM - 09 PM, Thurseday : 09 AM - 09 PM, Friday : 09 AM - 09 PM, Saturday : 09 AM - 09 PM, Sunday : 10 AM - 08 PM","https://www.rosesdiscountstores.com/store-locator-index"
"https://www.rosesdiscountstores.com/#bargaintown","Roses Express","1402 E Shotwell St","Bainbridge","Georgia","39819","US","<MISSING>","(229) 248-0033","Roses Express","30.903763","-84.556007","Monday : 09 AM - 09 PM, Tueday : 09 AM - 09 PM, Wednesday : 09 AM - 09 PM, Thurseday : 09 AM - 09 PM, Friday : 09 AM - 09 PM, Saturday : 09 AM - 09 PM, Sunday : 10 AM - 08 PM","https://www.rosesdiscountstores.com/store-locator-index"
"https://www.rosesdiscountstores.com/#bargaintown","Roses","3250 W 65th St","Cleveland","Ohio","44102","US","<MISSING>","(216) 651-0627","Roses","41.467049","-81.730164","Monday : 09 AM - 09 PM, Tueday : 09 AM - 09 PM, Wednesday : 09 AM - 09 PM, Thurseday : 09 AM - 09 PM, Friday : 09 AM - 09 PM, Saturday : 09 AM - 09 PM, Sunday : 10 AM - 08 PM","https://www.rosesdiscountstores.com/store-locator-index"
"https://www.rosesdiscountstores.com/#bargaintown","Super Dollar","11231 Asheville Hwy","Inman","South Carolina","29349","US","<MISSING>","(864) 472-2980","Super Dollar","35.036812","-82.071457","Monday : 09 AM - 06 PM, Tueday : 09 AM - 06 PM, Wednesday : 09 AM - 06 PM, Thurseday : 09 AM - 06 PM, Friday : 09 AM - 06 PM, Saturday : 09 AM - 06 PM, Sunday : 12 AM - 06 PM","https://www.rosesdiscountstores.com/store-locator-index"
"https://www.rosesdiscountstores.com/#bargaintown","Roses Express","6601 Harvard Ave","Cleveland","Ohio","44105","US","<MISSING>","(216) 441-4198","Roses Express","41.448273","-81.644035","Monday : 09 AM - 09 PM, Tueday : 09 AM - 09 PM, Wednesday : 09 AM - 09 PM, Thurseday : 09 AM - 09 PM, Friday : 09 AM - 09 PM, Saturday : 09 AM - 09 PM, Sunday : 10 AM - 08 PM","https://www.rosesdiscountstores.com/store-locator-index"
"https://www.rosesdiscountstores.com/#bargaintown","Roses","2270 College Ave","Forest City","North Carolina","28043","US","<MISSING>","(828) 245-6641","Roses","35.332283","-81.890915","Monday : 09 AM - 09 PM, Tueday : 09 AM - 09 PM, Wednesday : 09 AM - 09 PM, Thurseday : 09 AM - 09 PM, Friday : 09 AM - 09 PM, Saturday : 09 AM - 09 PM, Sunday : 10 AM - 08 PM","https://www.rosesdiscountstores.com/store-locator-index"
"https://www.rosesdiscountstores.com/#bargaintown","Roses Express","1400 S Arlington St","Akron","Ohio","44306","US","<MISSING>","(330) 785-9129","Roses Express","41.016338","-81.491768","Monday : 09 AM - 09 PM, Tueday : 09 AM - 09 PM, Wednesday : 09 AM - 09 PM, Thurseday : 09 AM - 09 PM, Friday : 09 AM - 09 PM, Saturday : 09 AM - 09 PM, Sunday : 10 AM - 08 PM","https://www.rosesdiscountstores.com/store-locator-index"
"https://www.rosesdiscountstores.com/#bargaintown","Roses","1536 Whipple Ave NW","Canton","Ohio","44708","US","<MISSING>","(330) 479-8872","Roses","40.815411","-81.423599","Monday : 09 AM - 09 PM, Tueday : 09 AM - 09 PM, Wednesday : 09 AM - 09 PM, Thurseday : 09 AM - 09 PM, Friday : 09 AM - 09 PM, Saturday : 09 AM - 09 PM, Sunday : 10 AM - 08 PM","https://www.rosesdiscountstores.com/store-locator-index"
"https://www.rosesdiscountstores.com/#bargaintown","Roses Express","1450 Hayden Ave","East Cleveland","Ohio","44112","US","<MISSING>","(216) 761-0413","Roses Express","41.538376","-81.586823","Monday : 09 AM - 09 PM, Tueday : 09 AM - 09 PM, Wednesday : 09 AM - 09 PM, Thurseday : 09 AM - 09 PM, Friday : 09 AM - 09 PM, Saturday : 09 AM - 09 PM, Sunday : 10 AM - 08 PM","https://www.rosesdiscountstores.com/store-locator-index"
"https://www.rosesdiscountstores.com/#bargaintown","Roses","1886 Buchholzer Blvd","Akron","Ohio","44310","US","<MISSING>","(330) 634-9617","Roses","41.114517","-81.471359","Monday : 09 AM - 09 PM, Tueday : 09 AM - 09 PM, Wednesday : 09 AM - 09 PM, Thurseday : 09 AM - 09 PM, Friday : 09 AM - 09 PM, Saturday : 09 AM - 09 PM, Sunday : 10 AM - 08 PM","https://www.rosesdiscountstores.com/store-locator-index"
"https://www.rosesdiscountstores.com/#bargaintown","Roses Express","290 W Railroad St N","Pelham","Georgia","31779","US","<MISSING>","(229) 294-2937","Roses Express","31.132763","-84.152924","Monday : 09 AM - 09 PM, Tueday : 09 AM - 09 PM, Wednesday : 09 AM - 09 PM, Thurseday : 09 AM - 09 PM, Friday : 09 AM - 09 PM, Saturday : 09 AM - 09 PM, Sunday : 10 AM - 08 PM","https://www.rosesdiscountstores.com/store-locator-index"
"https://www.rosesdiscountstores.com/#bargaintown","Roses Express","1323 W Crawford St","Quincy","Florida","32351","US","<MISSING>","(850) 627-1741","Roses Express","30.586515","-84.593971","Monday : 09 AM - 09 PM, Tueday : 09 AM - 09 PM, Wednesday : 09 AM - 09 PM, Thurseday : 09 AM - 09 PM, Friday : 09 AM - 09 PM, Saturday : 09 AM - 09 PM, Sunday : 10 AM - 08 PM","https://www.rosesdiscountstores.com/store-locator-index"
"https://www.rosesdiscountstores.com/#bargaintown","Roses","4601 Northfield Rd","North Randall","Ohio","44128","US","<MISSING>","(216) 662-6691","Roses","41.433903","-81.525856","Monday : 09 AM - 09 PM, Tueday : 09 AM - 09 PM, Wednesday : 09 AM - 09 PM, Thurseday : 09 AM - 09 PM, Friday : 09 AM - 09 PM, Saturday : 09 AM - 09 PM, Sunday : 10 AM - 08 PM","https://www.rosesdiscountstores.com/store-locator-index"
"https://www.rosesdiscountstores.com/#bargaintown","Roses Express","345 S Main St","Woodruff","South Carolina","29388","US","<MISSING>","(864) 476-0345","Roses Express","34.739601","-82.037003","<MISSING>","https://www.rosesdiscountstores.com/store-locator-index"
"https://www.rosesdiscountstores.com/#bargaintown","Roses","112 E Fleming Dr","Morganton","North Carolina","28655","US","<MISSING>","(828) 437-1914","Roses","35.737137","-81.679474","Monday : 09 AM - 09 PM, Tueday : 09 AM - 09 PM, Wednesday : 09 AM - 09 PM, Thurseday : 09 AM - 09 PM, Friday : 09 AM - 09 PM, Saturday : 09 AM - 09 PM, Sunday : 10 AM - 08 PM","https://www.rosesdiscountstores.com/store-locator-index"
"https://www.rosesdiscountstores.com/#bargaintown","Roses Express","1000 N Pine St","Spartanburg","South Carolina","29303","US","<MISSING>","(864) 577-0052","Roses Express","34.969196","-81.932854","Monday : 09 AM - 09 PM, Tueday : 09 AM - 09 PM, Wednesday : 09 AM - 09 PM, Thurseday : 09 AM - 09 PM, Friday : 09 AM - 09 PM, Saturday : 09 AM - 09 PM, Sunday : 10 AM - 08 PM","https://www.rosesdiscountstores.com/store-locator-index"
"https://www.rosesdiscountstores.com/#bargaintown","Roses","822 E Main St","Jefferson","North Carolina","28640","US","<MISSING>","(336) 246-4552","Roses","36.420399","-81.473396","Monday : 09 AM - 09 PM, Tueday : 09 AM - 09 PM, Wednesday : 09 AM - 09 PM, Thurseday : 09 AM - 09 PM, Friday : 09 AM - 09 PM, Saturday : 09 AM - 09 PM, Sunday : 10 AM - 08 PM","https://www.rosesdiscountstores.com/store-locator-index"
"https://www.rosesdiscountstores.com/#bargaintown","Roses Express","316 E Washington Ave","Ashburn","Georgia","31714","US","<MISSING>","(229) 484-9048","Roses Express","31.706661","-83.650055","Monday : 09 AM - 09 PM, Tueday : 09 AM - 09 PM, Wednesday : 09 AM - 09 PM, Thurseday : 09 AM - 09 PM, Friday : 09 AM - 09 PM, Saturday : 09 AM - 09 PM, Sunday : 10 AM - 08 PM","https://www.rosesdiscountstores.com/store-locator-index"
"https://www.rosesdiscountstores.com/#bargaintown","Roses Express","682 S Harris St","Sandersville","Georgia","31082","US","<MISSING>","(478) 552-0280","Roses Express","32.980022","-82.811165","Monday : 09 AM - 09 PM, Tueday : 09 AM - 09 PM, Wednesday : 09 AM - 09 PM, Thurseday : 09 AM - 09 PM, Friday : 09 AM - 09 PM, Saturday : 09 AM - 09 PM, Sunday : 10 AM - 08 PM","https://www.rosesdiscountstores.com/store-locator-index"
"https://www.rosesdiscountstores.com/#bargaintown","Roses Express","241 Hillcrest Dr","Laurens","South Carolina","29360","US","<MISSING>","(864) 681-1650","Roses Express","34.504135","-82.015137","Monday : 09 AM - 09 PM, Tueday : 09 AM - 09 PM, Wednesday : 09 AM - 09 PM, Thurseday : 09 AM - 09 PM, Friday : 09 AM - 09 PM, Saturday : 09 AM - 09 PM, Sunday : 10 AM - 08 PM","https://www.rosesdiscountstores.com/store-locator-index"
"https://www.rosesdiscountstores.com/#bargaintown","Maxway","716 Us Hwy 25 Bypass Ne","Greenwood","South Carolina","29646","US","<MISSING>","(864) 227-6674","Maxway","34.20409","-82.135117","Monday : 09 AM - 09 PM, Tueday : 09 AM - 09 PM, Wednesday : 09 AM - 09 PM, Thurseday : 09 AM - 09 PM, Friday : 09 AM - 09 PM, Saturday : 09 AM - 09 PM, Sunday : 10 AM - 08 PM","https://www.rosesdiscountstores.com/store-locator-index"
"https://www.rosesdiscountstores.com/#bargaintown","Roses","261 Mercer Mall Rd","Bluefield","West Virginia","24701","US","<MISSING>","(304) 324-2208","Roses","37.292912","-81.16581","Monday : 09 AM - 09 PM, Tueday : 09 AM - 09 PM, Wednesday : 09 AM - 09 PM, Thurseday : 09 AM - 09 PM, Friday : 09 AM - 09 PM, Saturday : 09 AM - 09 PM, Sunday : 10 AM - 08 PM","https://www.rosesdiscountstores.com/store-locator-index"
"https://www.rosesdiscountstores.com/#bargaintown","Roses","116 Hillcrest Pkwy","Dublin","Georgia","31021","US","<MISSING>","(478) 272-3473","Roses","32.549507","-82.915237","Monday : 09 AM - 09 PM, Tueday : 09 AM - 09 PM, Wednesday : 09 AM - 09 PM, Thurseday : 09 AM - 09 PM, Friday : 09 AM - 09 PM, Saturday : 09 AM - 09 PM, Sunday : 10 AM - 08 PM","https://www.rosesdiscountstores.com/store-locator-index"
"https://www.rosesdiscountstores.com/#bargaintown","Roses","1336 Stafford Dr","Princeton","West Virginia","24740","US","<MISSING>","(304) 425-2137","Roses","37.361668","-81.10186","Monday : 09 AM - 09 PM, Tueday : 09 AM - 09 PM, Wednesday : 09 AM - 09 PM, Thurseday : 09 AM - 09 PM, Friday : 09 AM - 09 PM, Saturday : 09 AM - 09 PM, Sunday : 10 AM - 08 PM","https://www.rosesdiscountstores.com/store-locator-index"
"https://www.rosesdiscountstores.com/#bargaintown","Roses","215 6th St SE","Moultrie","Georgia","31768","US","<MISSING>","(229) 985-1363","Roses","31.1812","-83.787903","Monday : 09 AM - 09 PM, Tueday : 09 AM - 09 PM, Wednesday : 09 AM - 09 PM, Thurseday : 09 AM - 09 PM, Friday : 09 AM - 09 PM, Saturday : 09 AM - 09 PM, Sunday : 10 AM - 08 PM","https://www.rosesdiscountstores.com/store-locator-index"
"https://www.rosesdiscountstores.com/#bargaintown","Roses Discount Store","144 S Virginia Ave","Tifton","Georgia","31794","US","<MISSING>","(229) 339-5123","Roses Discount Store","31.455088","-83.528275","Monday : 09 AM - 09 PM, Tueday : 09 AM - 09 PM, Wednesday : 09 AM - 09 PM, Thurseday : 09 AM - 09 PM, Friday : 09 AM - 09 PM, Saturday : 09 AM - 09 PM, Sunday : 10 AM - 08 PM","https://www.rosesdiscountstores.com/store-locator-index"
"https://www.rosesdiscountstores.com/#bargaintown","Roses","1149 U.S. Hwy 70 SW","Hickory","North Carolina","28602","US","<MISSING>","(828) 328-9353","Roses","35.721813","-81.358803","Monday : 09 AM - 09 PM, Tueday : 09 AM - 09 PM, Wednesday : 09 AM - 09 PM, Thurseday : 09 AM - 09 PM, Friday : 09 AM - 09 PM, Saturday : 09 AM - 09 PM, Sunday : 10 AM - 08 PM","https://www.rosesdiscountstores.com/store-locator-index"
"https://www.rosesdiscountstores.com/#bargaintown","Maxway","506 Broad St","Wrens","Georgia","30833","US","<MISSING>","(706) 547-7207","Maxway","33.20871","-82.382729","Monday : 09 AM - 09 PM, Tueday : 09 AM - 09 PM, Wednesday : 09 AM - 09 PM, Thurseday : 09 AM - 09 PM, Friday : 09 AM - 09 PM, Saturday : 09 AM - 09 PM, Sunday : 10 AM - 08 PM","https://www.rosesdiscountstores.com/store-locator-index"
"https://www.rosesdiscountstores.com/#bargaintown","Roses","2830 E Pinetree Blvd","Thomasville","Georgia","31792","US","<MISSING>","(229) 226-3411","Roses","30.854231","-83.949448","Monday : 09 AM - 09 PM, Tueday : 09 AM - 09 PM, Wednesday : 09 AM - 09 PM, Thurseday : 09 AM - 09 PM, Friday : 09 AM - 09 PM, Saturday : 09 AM - 09 PM, Sunday : 10 AM - 08 PM","https://www.rosesdiscountstores.com/store-locator-index"
"https://www.rosesdiscountstores.com/#bargaintown","Super 10","322 Wilkesboro Ave","North Wilkesboro","North Carolina","28659","US","<MISSING>","(336) 667-6635","Super 10","36.154507","-81.146378","Monday : 09 AM - 09 PM, Tueday : 09 AM - 09 PM, Wednesday : 09 AM - 09 PM, Thurseday : 09 AM - 09 PM, Friday : 09 AM - 09 PM, Saturday : 09 AM - 09 PM, Sunday : 10 AM - 08 PM","https://www.rosesdiscountstores.com/store-locator-index"
"https://www.rosesdiscountstores.com/#bargaintown","Maxway","813 Peachtree St","Louisville","Georgia","30434","US","<MISSING>","(478) 625-8807","Maxway","33.004047","-82.408043","Monday : 09 AM - 09 PM, Tueday : 09 AM - 09 PM, Wednesday : 09 AM - 09 PM, Thurseday : 09 AM - 09 PM, Friday : 09 AM - 09 PM, Saturday : 09 AM - 09 PM, Sunday : 10 AM - 08 PM","https://www.rosesdiscountstores.com/store-locator-index"
"https://www.rosesdiscountstores.com/#bargaintown","Roses","1314 Shelby Rd","Kings Mountain","North Carolina","28086","US","<MISSING>","(704) 734-5415","Roses","35.239693","-81.372726","Monday : 09 AM - 09 PM, Tueday : 09 AM - 09 PM, Wednesday : 09 AM - 09 PM, Thurseday : 09 AM - 09 PM, Friday : 09 AM - 09 PM, Saturday : 09 AM - 09 PM, Sunday : 10 AM - 08 PM","https://www.rosesdiscountstores.com/store-locator-index"
"https://www.rosesdiscountstores.com/#bargaintown","Roses Express","156 8th Ave","McRae-Helena","Georgia","31037","US","<MISSING>","<MISSING>","Roses Express","32.071358","-82.909515","Monday : 09 AM - 09 PM, Tueday : 09 AM - 09 PM, Wednesday : 09 AM - 09 PM, Thurseday : 09 AM - 09 PM, Friday : 09 AM - 09 PM, Saturday : 09 AM - 09 PM, Sunday : 10 AM - 08 PM","https://www.rosesdiscountstores.com/store-locator-index"
"https://www.rosesdiscountstores.com/#bargaintown","Roses","544 E Stuart Dr","Galax","Virginia","24333","US","<MISSING>","(276) 236-7138","Roses","36.673519","-80.914955","Monday : 09 AM - 09 PM, Tueday : 09 AM - 09 PM, Wednesday : 09 AM - 09 PM, Thurseday : 09 AM - 09 PM, Friday : 09 AM - 09 PM, Saturday : 09 AM - 09 PM, Sunday : 10 AM - 08 PM","https://www.rosesdiscountstores.com/store-locator-index"
"https://www.rosesdiscountstores.com/#bargaintown","Roses","2115 Windsor Spring Rd","Augusta","Georgia","30906","US","<MISSING>","(706) 796-7017","Roses","33.410423","-82.031654","Monday : 09 AM - 09 PM, Tueday : 09 AM - 09 PM, Wednesday : 09 AM - 09 PM, Thurseday : 09 AM - 09 PM, Friday : 09 AM - 09 PM, Saturday : 09 AM - 09 PM, Sunday : 10 AM - 08 PM","https://www.rosesdiscountstores.com/store-locator-index"
"https://www.rosesdiscountstores.com/#bargaintown","Roses","1631 Gordon Hwy","Augusta","Georgia","30906","US","<MISSING>","(706) 798-1140","Roses","33.440903","-82.015266","Monday : 09 AM - 09 PM, Tueday : 09 AM - 09 PM, Wednesday : 09 AM - 09 PM, Thurseday : 09 AM - 09 PM, Friday : 09 AM - 09 PM, Saturday : 09 AM - 09 PM, Sunday : 10 AM - 08 PM","https://www.rosesdiscountstores.com/store-locator-index"
"https://www.rosesdiscountstores.com/#bargaintown","Roses","101 Edgewood Dr","North Augusta","South Carolina","29841","US","<MISSING>","(803) 279-6768","Roses","33.526356","-81.954315","Monday : 09 AM - 09 PM, Tueday : 09 AM - 09 PM, Wednesday : 09 AM - 09 PM, Thurseday : 09 AM - 09 PM, Friday : 09 AM - 09 PM, Saturday : 09 AM - 09 PM, Sunday : 10 AM - 08 PM","https://www.rosesdiscountstores.com/store-locator-index"
"https://www.rosesdiscountstores.com/#bargaintown","Roses","1495 E Franklin Blvd","Gastonia","North Carolina","28054","US","<MISSING>","(980) 677-3030","Roses","35.259518","-81.155685","Monday : 09 AM - 09 PM, Tueday : 09 AM - 09 PM, Wednesday : 09 AM - 09 PM, Thurseday : 09 AM - 09 PM, Friday : 09 AM - 09 PM, Saturday : 09 AM - 09 PM, Sunday : 10 AM - 08 PM","https://www.rosesdiscountstores.com/store-locator-index"
"https://www.rosesdiscountstores.com/#bargaintown","Super 10","230 W Moring St","Swainsboro","Georgia","30401","US","<MISSING>","(478) 237-3644","Super 10","32.594734","-82.336571","Monday : 09 AM - 06 PM, Tueday : 09 AM - 06 PM, Wednesday : 09 AM - 06 PM, Thurseday : 09 AM - 06 PM, Friday : 09 AM - 06 PM, Saturday : 09 AM - 06 PM, Sunday : 12 AM - 06 PM","https://www.rosesdiscountstores.com/store-locator-index"
"https://www.rosesdiscountstores.com/#bargaintown","Roses Express","503 S Main St","Swainsboro","Georgia","30401","US","<MISSING>","(478) 400-8089","Roses Express","32.58725","-82.325027","Monday : 09 AM - 09 PM, Tueday : 09 AM - 09 PM, Wednesday : 09 AM - 09 PM, Thurseday : 09 AM - 09 PM, Friday : 09 AM - 09 PM, Saturday : 09 AM - 09 PM, Sunday : 10 AM - 08 PM","https://www.rosesdiscountstores.com/store-locator-index"
"https://www.rosesdiscountstores.com/#bargaintown","Roses Express","732 S Jefferson St","Nashville","Georgia","31639","US","<MISSING>","(229) 543-1579","Roses Express","31.195377","-83.247749","Monday : 09 AM - 09 PM, Tueday : 09 AM - 09 PM, Wednesday : 09 AM - 09 PM, Thurseday : 09 AM - 09 PM, Friday : 09 AM - 09 PM, Saturday : 09 AM - 09 PM, Sunday : 10 AM - 08 PM","https://www.rosesdiscountstores.com/store-locator-index"
"https://www.rosesdiscountstores.com/#bargaintown","Roses","1630 Richland Ave W","Aiken","South Carolina","29801","US","<MISSING>","(803) 649-0596","Roses","33.565323","-81.741707","Monday : 09 AM - 09 PM, Tueday : 09 AM - 09 PM, Wednesday : 09 AM - 09 PM, Thurseday : 09 AM - 09 PM, Friday : 09 AM - 09 PM, Saturday : 09 AM - 09 PM, Sunday : 10 AM - 08 PM","https://www.rosesdiscountstores.com/store-locator-index"
"https://www.rosesdiscountstores.com/#bargaintown","Roses","605 Park St","Belmont","North Carolina","28012","US","<MISSING>","(704) 825-3749","Roses","35.242901","-81.0373","Monday : 09 AM - 09 PM, Tueday : 09 AM - 09 PM, Wednesday : 09 AM - 09 PM, Thurseday : 09 AM - 09 PM, Friday : 09 AM - 09 PM, Saturday : 09 AM - 09 PM, Sunday : 10 AM - 08 PM","https://www.rosesdiscountstores.com/store-locator-index"
"https://www.rosesdiscountstores.com/#bargaintown","Roses Express","248 W Columbia Ave","Batesburg-Leesville","South Carolina","29006","US","<MISSING>","(803) 532-5622","Roses Express","33.907841","-81.534943","Monday : 09 AM - 09 PM, Tueday : 09 AM - 09 PM, Wednesday : 09 AM - 09 PM, Thurseday : 09 AM - 09 PM, Friday : 09 AM - 09 PM, Saturday : 09 AM - 09 PM, Sunday : 10 AM - 08 PM","https://www.rosesdiscountstores.com/store-locator-index"
"https://www.rosesdiscountstores.com/#bargaintown","Roses Express","1841 J A Cochran Bypass","Chester","South Carolina","29706","US","<MISSING>","(803) 581-0079","Roses Express","34.707809","-81.19252","Monday : 09 AM - 09 PM, Tueday : 09 AM - 09 PM, Wednesday : 09 AM - 09 PM, Thurseday : 09 AM - 09 PM, Friday : 09 AM - 09 PM, Saturday : 09 AM - 09 PM, Sunday : 10 AM - 08 PM","https://www.rosesdiscountstores.com/store-locator-index"
"https://www.rosesdiscountstores.com/#bargaintown","Roses","695 W Independence Blvd","Mount Airy","North Carolina","27030","US","<MISSING>","(336) 789-6583","Roses","36.500198","-80.61779","Monday : 09 AM - 09 PM, Tueday : 09 AM - 09 PM, Wednesday : 09 AM - 09 PM, Thurseday : 09 AM - 09 PM, Friday : 09 AM - 09 PM, Saturday : 09 AM - 09 PM, Sunday : 10 AM - 08 PM","https://www.rosesdiscountstores.com/store-locator-index"
"https://www.rosesdiscountstores.com/#bargaintown","Maxway","928 S State St","Yadkinville","North Carolina","27055","US","<MISSING>","(336) 679-2670","Maxway","36.117813","-80.661713","Monday : 09 AM - 09 PM, Tueday : 09 AM - 09 PM, Wednesday : 09 AM - 09 PM, Thurseday : 09 AM - 09 PM, Friday : 09 AM - 09 PM, Saturday : 09 AM - 09 PM, Sunday : 10 AM - 08 PM","https://www.rosesdiscountstores.com/store-locator-index"
"https://www.rosesdiscountstores.com/#bargaintown","<MISSING>","1300 S Madison Ave","Douglas","Georgia","31533","US","<MISSING>","(912) 493-3022","<MISSING>","31.491522","-82.847748","Monday : 09 AM - 09 PM, Tueday : 09 AM - 09 PM, Wednesday : 09 AM - 09 PM, Thurseday : 09 AM - 09 PM, Friday : 09 AM - 09 PM, Saturday : 09 AM - 09 PM, Sunday : 10 AM - 08 PM","https://www.rosesdiscountstores.com/store-locator-index"
"https://www.rosesdiscountstores.com/#bargaintown","Roses Express","727 Albright Rd","Rock Hill","South Carolina","29730","US","<MISSING>","(803) 981-5263","Roses Express","34.908409","-81.017067","Monday : 09 AM - 09 PM, Tueday : 09 AM - 09 PM, Wednesday : 09 AM - 09 PM, Thurseday : 09 AM - 09 PM, Friday : 09 AM - 09 PM, Saturday : 09 AM - 09 PM, Sunday : 10 AM - 08 PM","https://www.rosesdiscountstores.com/store-locator-index"
"https://www.rosesdiscountstores.com/#bargaintown","Super Dollar","1103 S Patterson St","Valdosta","Georgia","31601","US","<MISSING>","(229) 253-8542","Super Dollar","30.818525","-83.269676","Monday : 09 AM - 06 PM, Tueday : 09 AM - 06 PM, Wednesday : 09 AM - 06 PM, Thurseday : 09 AM - 06 PM, Friday : 09 AM - 06 PM, Saturday : 09 AM - 06 PM, Sunday : 12 AM - 06 PM","https://www.rosesdiscountstores.com/store-locator-index"
"https://www.rosesdiscountstores.com/#bargaintown","Roses","2927 Freedom Dr","Charlotte","North Carolina","28208","US","<MISSING>","(704) 394-4851","Roses","35.2271","-80.843102","Monday : 09 AM - 09 PM, Tueday : 09 AM - 09 PM, Wednesday : 09 AM - 09 PM, Thurseday : 09 AM - 09 PM, Friday : 09 AM - 09 PM, Saturday : 09 AM - 09 PM, Sunday : 10 AM - 08 PM","https://www.rosesdiscountstores.com/store-locator-index"
"https://www.rosesdiscountstores.com/#bargaintown","Roses","4525 The Plaza","Charlotte","North Carolina","28215","US","<MISSING>","(704) 568-8550","Roses","35.252319","-80.779419","Monday : 09 AM - 09 PM, Tueday : 09 AM - 09 PM, Wednesday : 09 AM - 09 PM, Thurseday : 09 AM - 09 PM, Friday : 09 AM - 09 PM, Saturday : 09 AM - 09 PM, Sunday : 10 AM - 08 PM","https://www.rosesdiscountstores.com/store-locator-index"
"https://www.rosesdiscountstores.com/#bargaintown","Roses Express","82 US-321","Winnsboro","South Carolina","29180","US","<MISSING>","(803) 635-9942","Roses Express","34.356384","-81.086685","Monday : 09 AM - 09 PM, Tueday : 09 AM - 09 PM, Wednesday : 09 AM - 09 PM, Thurseday : 09 AM - 09 PM, Friday : 09 AM - 09 PM, Saturday : 09 AM - 09 PM, Sunday : 10 AM - 08 PM","https://www.rosesdiscountstores.com/store-locator-index"
"https://www.rosesdiscountstores.com/#bargaintown","Roses","924 Cloverleaf Plaza","Kannapolis","North Carolina","28083","US","<MISSING>","(704) 721-6010","Roses","35.450008","-80.606415","Monday : 09 AM - 09 PM, Tueday : 09 AM - 09 PM, Wednesday : 09 AM - 09 PM, Thurseday : 09 AM - 09 PM, Friday : 09 AM - 09 PM, Saturday : 09 AM - 09 PM, Sunday : 10 AM - 08 PM","https://www.rosesdiscountstores.com/store-locator-index"
"https://www.rosesdiscountstores.com/#bargaintown","Roses","817 St Andrews Rd","Columbia","South Carolina","29210","US","<MISSING>","(803) 798-2086","Roses","34.04723","-81.115379","Monday : 09 AM - 09 PM, Tueday : 09 AM - 09 PM, Wednesday : 09 AM - 09 PM, Thurseday : 09 AM - 09 PM, Friday : 09 AM - 09 PM, Saturday : 09 AM - 09 PM, Sunday : 10 AM - 08 PM","https://www.rosesdiscountstores.com/store-locator-index"
"https://www.rosesdiscountstores.com/#bargaintown","Roses Express","139 W Brazell St","Reidsville","Georgia","30453","US","<MISSING>","(912) 394-3178","Roses Express","32.084076","-82.119247","Monday : 09 AM - 09 PM, Tueday : 09 AM - 09 PM, Wednesday : 09 AM - 09 PM, Thurseday : 09 AM - 09 PM, Friday : 09 AM - 09 PM, Saturday : 09 AM - 09 PM, Sunday : 10 AM - 08 PM","https://www.rosesdiscountstores.com/store-locator-index"
"https://www.rosesdiscountstores.com/#bargaintown","Super 10","1509 Fountain Ct","West Columbia","South Carolina","29169","US","<MISSING>","(803) 794-4751","Super 10","33.977505","-81.077065","Monday : 09 AM - 06 PM, Tueday : 09 AM - 06 PM, Wednesday : 09 AM - 06 PM, Thurseday : 09 AM - 06 PM, Friday : 09 AM - 06 PM, Saturday : 09 AM - 06 PM, Sunday : 12 AM - 06 PM","https://www.rosesdiscountstores.com/store-locator-index"
"https://www.rosesdiscountstores.com/#bargaintown","Super Dollar","Main St","Columbia","South Carolina","29203","US","<MISSING>","(803) 786-5036","Super Dollar","34.000702","-81.034302","Monday : 09 AM - 08 PM, Tueday : 09 AM - 08 PM, Wednesday : 09 AM - 08 PM, Thurseday : 09 AM - 08 PM, Friday : 09 AM - 08 PM, Saturday : 09 AM - 08 PM, Sunday : 10 AM - 08 PM","https://www.rosesdiscountstores.com/store-locator-index"
"https://www.rosesdiscountstores.com/#bargaintown","Roses","4033 W Beltline Blvd","Columbia","South Carolina","29204","US","<MISSING>","(803) 252-4883","Roses","34.037243","-81.007088","Monday : 09 AM - 09 PM, Tueday : 09 AM - 09 PM, Wednesday : 09 AM - 09 PM, Thurseday : 09 AM - 09 PM, Friday : 09 AM - 09 PM, Saturday : 09 AM - 09 PM, Sunday : 10 AM - 08 PM","https://www.rosesdiscountstores.com/store-locator-index"
"https://www.rosesdiscountstores.com/#bargaintown","Roses Express","1125 W Ogeechee St","Sylvania","Georgia","30467","US","<MISSING>","(912) 564-7856","Roses Express","32.731594","-81.651215","Monday : 09 AM - 09 PM, Tueday : 09 AM - 09 PM, Wednesday : 09 AM - 09 PM, Thurseday : 09 AM - 09 PM, Friday : 09 AM - 09 PM, Saturday : 09 AM - 09 PM, Sunday : 10 AM - 08 PM","https://www.rosesdiscountstores.com/store-locator-index"
"https://www.rosesdiscountstores.com/#bargaintown","Roses Express","3571 N Patterson Ave","Winston-Salem","North Carolina","27105","US","<MISSING>","(336) 767-0684","Roses Express","36.136356","-80.240685","Monday : 09 AM - 09 PM, Tueday : 09 AM - 09 PM, Wednesday : 09 AM - 09 PM, Thurseday : 09 AM - 09 PM, Friday : 09 AM - 09 PM, Saturday : 09 AM - 09 PM, Sunday : 10 AM - 08 PM","https://www.rosesdiscountstores.com/store-locator-index"
"https://www.rosesdiscountstores.com/#bargaintown","Roses Express","6437 Williamson Rd","Roanoke","Virginia","24019","US","<MISSING>","(540) 265-5410","Roses Express","37.335461","-79.953926","Monday : 09 AM - 09 PM, Tueday : 09 AM - 09 PM, Wednesday : 09 AM - 09 PM, Thurseday : 09 AM - 09 PM, Friday : 09 AM - 09 PM, Saturday : 09 AM - 09 PM, Sunday : 10 AM - 08 PM","https://www.rosesdiscountstores.com/store-locator-index"
"https://www.rosesdiscountstores.com/#bargaintown","Roses","1300 Hoffman Blvd","West Mifflin","Pennsylvania","15122","US","<MISSING>","(412) 461-6423","Roses","40.3634","-79.866402","Monday : 09 AM - 09 PM, Tueday : 09 AM - 09 PM, Wednesday : 09 AM - 09 PM, Thurseday : 09 AM - 09 PM, Friday : 09 AM - 09 PM, Saturday : 09 AM - 09 PM, Sunday : 10 AM - 08 PM","https://www.rosesdiscountstores.com/store-locator-index"
"https://www.rosesdiscountstores.com/#bargaintown","Roses","2115 W Roosevelt Blvd","Monroe","North Carolina","28110","US","<MISSING>","(704) 225-7701","Roses","34.983482","-80.549156","Monday : 09 AM - 09 PM, Tueday : 09 AM - 09 PM, Wednesday : 09 AM - 09 PM, Thurseday : 09 AM - 09 PM, Friday : 09 AM - 09 PM, Saturday : 09 AM - 09 PM, Sunday : 10 AM - 08 PM","https://www.rosesdiscountstores.com/store-locator-index"
"https://www.rosesdiscountstores.com/#bargaintown","Roses","3030 Old Hollow Rd","Walkertown","North Carolina","27051","US","<MISSING>","(336) 595-2183","Roses","36.167461","-80.150879","Monday : 09 AM - 09 PM, Tueday : 09 AM - 09 PM, Wednesday : 09 AM - 09 PM, Thurseday : 09 AM - 09 PM, Friday : 09 AM - 09 PM, Saturday : 09 AM - 09 PM, Sunday : 10 AM - 08 PM","https://www.rosesdiscountstores.com/store-locator-index"
"https://www.rosesdiscountstores.com/#bargaintown","Roses","288 N Talbert Blvd","Lexington","North Carolina","27292","US","<MISSING>","(336) 243-5400","Roses","35.819363","-80.23912","Monday : 09 AM - 09 PM, Tueday : 09 AM - 09 PM, Wednesday : 09 AM - 09 PM, Thurseday : 09 AM - 09 PM, Friday : 09 AM - 09 PM, Saturday : 09 AM - 09 PM, Sunday : 10 AM - 08 PM","https://www.rosesdiscountstores.com/store-locator-index"
"https://www.rosesdiscountstores.com/#bargaintown","Maxway","VA-57","Stanleytown","Virginia","24168","US","<MISSING>","(276) 629-5202","Maxway","36.7593","-79.990303","Monday : 09 AM - 09 PM, Tueday : 09 AM - 09 PM, Wednesday : 09 AM - 09 PM, Thurseday : 09 AM - 09 PM, Friday : 09 AM - 09 PM, Saturday : 09 AM - 09 PM, Sunday : 10 AM - 08 PM","https://www.rosesdiscountstores.com/store-locator-index"
"https://www.rosesdiscountstores.com/#bargaintown","Roses","890 Tanyard Rd","Rocky Mount","Virginia","24151","US","<MISSING>","(540) 483-7416","Roses","37.006336","-79.87468","Monday : 09 AM - 09 PM, Tueday : 09 AM - 09 PM, Wednesday : 09 AM - 09 PM, Thurseday : 09 AM - 09 PM, Friday : 09 AM - 09 PM, Saturday : 09 AM - 09 PM, Sunday : 10 AM - 08 PM","https://www.rosesdiscountstores.com/store-locator-index"
"https://www.rosesdiscountstores.com/#bargaintown","Roses","3221 Leechburg Rd","Lower Burrell","Pennsylvania","15068","US","<MISSING>","(724) 339-5520","Roses","40.571957","-79.721207","Monday : 09 AM - 09 PM, Tueday : 09 AM - 09 PM, Wednesday : 09 AM - 09 PM, Thurseday : 09 AM - 09 PM, Friday : 09 AM - 09 PM, Saturday : 09 AM - 09 PM, Sunday : 10 AM - 08 PM","https://www.rosesdiscountstores.com/store-locator-index"
"https://www.rosesdiscountstores.com/#bargaintown","Roses","600 Commonwealth Blvd","Martinsville","Virginia","24112","US","<MISSING>","(276) 632-3036","Roses","36.697781","-79.896454","Monday : 09 AM - 09 PM, Tueday : 09 AM - 09 PM, Wednesday : 09 AM - 09 PM, Thurseday : 09 AM - 09 PM, Friday : 09 AM - 09 PM, Saturday : 09 AM - 09 PM, Sunday : 10 AM - 08 PM","https://www.rosesdiscountstores.com/store-locator-index"
"https://www.rosesdiscountstores.com/#bargaintown","Roses","2535 Broad St","Camden","South Carolina","29020","US","<MISSING>","(803) 713-0220","Roses","34.246498","-80.607002","Monday : 09 AM - 09 PM, Tueday : 09 AM - 09 PM, Wednesday : 09 AM - 09 PM, Thurseday : 09 AM - 09 PM, Friday : 09 AM - 09 PM, Saturday : 09 AM - 09 PM, Sunday : 10 AM - 08 PM","https://www.rosesdiscountstores.com/store-locator-index"
"https://www.rosesdiscountstores.com/#bargaintown","Roses Express","505 S Pearl St","Pageland","South Carolina","29728","US","<MISSING>","(843) 672-2053","Roses Express","34.7729","-80.392197","Monday : 09 AM - 09 PM, Tueday : 09 AM - 09 PM, Wednesday : 09 AM - 09 PM, Thurseday : 09 AM - 09 PM, Friday : 09 AM - 09 PM, Saturday : 09 AM - 09 PM, Sunday : 10 AM - 08 PM","https://www.rosesdiscountstores.com/store-locator-index"
"https://www.rosesdiscountstores.com/#bargaintown","Roses","2850 S Main St","High Point","North Carolina","27263","US","<MISSING>","(336) 383-1743","Roses","35.9557","-80.005302","Monday : 09 AM - 09 PM, Tueday : 09 AM - 09 PM, Wednesday : 09 AM - 09 PM, Thurseday : 09 AM - 09 PM, Friday : 09 AM - 09 PM, Saturday : 09 AM - 09 PM, Sunday : 10 AM - 08 PM","https://www.rosesdiscountstores.com/store-locator-index"
"https://www.rosesdiscountstores.com/#bargaintown","Roses","18201 Heritage Hwy","Denmark","South Carolina","29042","US","<MISSING>","(803) 793-6245","Roses","33.29538","-81.028908","Monday : 09 AM - 09 PM, Tueday : 09 AM - 09 PM, Wednesday : 09 AM - 09 PM, Thurseday : 09 AM - 09 PM, Friday : 09 AM - 09 PM, Saturday : 09 AM - 09 PM, Sunday : 10 AM - 08 PM","https://www.rosesdiscountstores.com/store-locator-index"
"https://www.rosesdiscountstores.com/#bargaintown","Roses Express","1535 Ohio Ave S","Live Oak","Florida","32064","US","<MISSING>","(386) 205-6465","Roses Express","30.282013","-82.985596","Monday : 09 AM - 09 PM, Tueday : 09 AM - 09 PM, Wednesday : 09 AM - 09 PM, Thurseday : 09 AM - 09 PM, Friday : 09 AM - 09 PM, Saturday : 09 AM - 09 PM, Sunday : 10 AM - 08 PM","https://www.rosesdiscountstores.com/store-locator-index"
"https://www.rosesdiscountstores.com/#bargaintown","Roses Express","720 NC-24","Albemarle","North Carolina","28001","US","<MISSING>","(704) 986-0099","Roses Express","35.34304","-80.1688","Monday : 09 AM - 09 PM, Tueday : 09 AM - 09 PM, Wednesday : 09 AM - 09 PM, Thurseday : 09 AM - 09 PM, Friday : 09 AM - 09 PM, Saturday : 09 AM - 09 PM, Sunday : 10 AM - 08 PM","https://www.rosesdiscountstores.com/store-locator-index"
"https://www.rosesdiscountstores.com/#bargaintown","Roses","1175 Orangeburg Mall Cir","Orangeburg","South Carolina","29115","US","<MISSING>","(803) 536-2770","Roses","33.50975","-80.864037","Monday : 09 AM - 09 PM, Tueday : 09 AM - 09 PM, Wednesday : 09 AM - 09 PM, Thurseday : 09 AM - 09 PM, Friday : 09 AM - 09 PM, Saturday : 09 AM - 09 PM, Sunday : 10 AM - 08 PM","https://www.rosesdiscountstores.com/store-locator-index"
"https://www.rosesdiscountstores.com/#bargaintown","Maxway","389 Stonewall Jackson St SW","Orangeburg","South Carolina","29115","US","<MISSING>","(803) 536-5005","Maxway","33.470505","-80.851219","Monday : 09 AM - 09 PM, Tueday : 09 AM - 09 PM, Wednesday : 09 AM - 09 PM, Thurseday : 09 AM - 09 PM, Friday : 09 AM - 09 PM, Saturday : 09 AM - 09 PM, Sunday : 10 AM - 08 PM","https://www.rosesdiscountstores.com/store-locator-index"
"https://www.rosesdiscountstores.com/#bargaintown","Roses Express","4647 W Market St","Greensboro","North Carolina","27407","US","<MISSING>","(336) 315-3975","Roses Express","36.06852","-79.866425","Monday : 09 AM - 09 PM, Tueday : 09 AM - 09 PM, Wednesday : 09 AM - 09 PM, Thurseday : 09 AM - 09 PM, Friday : 09 AM - 09 PM, Saturday : 09 AM - 09 PM, Sunday : 10 AM - 08 PM","https://www.rosesdiscountstores.com/store-locator-index"
"https://www.rosesdiscountstores.com/#bargaintown","Roses","3707 Farmington Dr","Greensboro","North Carolina","27407","US","<MISSING>","(336) 299-0474","Roses","36.034027","-79.857971","Monday : 09 AM - 09 PM, Tueday : 09 AM - 09 PM, Wednesday : 09 AM - 09 PM, Thurseday : 09 AM - 09 PM, Friday : 09 AM - 09 PM, Saturday : 09 AM - 09 PM, Sunday : 10 AM - 08 PM","https://www.rosesdiscountstores.com/store-locator-index"
"https://www.rosesdiscountstores.com/#bargaintown","Roses Express","531 W Meadowview Rd","Greensboro","North Carolina","27406","US","<MISSING>","(336) 274-3010","Roses Express","36.03709","-79.803734","Monday : 09 AM - 09 PM, Tueday : 09 AM - 09 PM, Wednesday : 09 AM - 09 PM, Thurseday : 09 AM - 09 PM, Friday : 09 AM - 09 PM, Saturday : 09 AM - 09 PM, Sunday : 10 AM - 08 PM","https://www.rosesdiscountstores.com/store-locator-index"
"https://www.rosesdiscountstores.com/#bargaintown","Roses","1421 E Cone Blvd","Greensboro","North Carolina","27405","US","<MISSING>","(336) 954-5063","Roses","36.114525","-79.7677","Monday : 09 AM - 09 PM, Tueday : 09 AM - 09 PM, Wednesday : 09 AM - 09 PM, Thurseday : 09 AM - 09 PM, Friday : 09 AM - 09 PM, Saturday : 09 AM - 09 PM, Sunday : 10 AM - 08 PM","https://www.rosesdiscountstores.com/store-locator-index"
"https://www.rosesdiscountstores.com/#bargaintown","Roses","1601 S Scales St","Reidsville","North Carolina","27320","US","<MISSING>","(336) 342-2392","Roses","36.340832","-79.661537","Monday : 09 AM - 09 PM, Tueday : 09 AM - 09 PM, Wednesday : 09 AM - 09 PM, Thurseday : 09 AM - 09 PM, Friday : 09 AM - 09 PM, Saturday : 09 AM - 09 PM, Sunday : 10 AM - 08 PM","https://www.rosesdiscountstores.com/store-locator-index"
"https://www.rosesdiscountstores.com/#bargaintown","Roses","1047 E Caswell St","Wadesboro","North Carolina","28170","US","<MISSING>","(704) 465-3091","Roses","34.966843","-80.060783","Monday : 09 AM - 09 PM, Tueday : 09 AM - 09 PM, Wednesday : 09 AM - 09 PM, Thurseday : 09 AM - 09 PM, Friday : 09 AM - 09 PM, Saturday : 09 AM - 09 PM, Sunday : 10 AM - 08 PM","https://www.rosesdiscountstores.com/store-locator-index"
"https://www.rosesdiscountstores.com/#bargaintown","Bargain Town","207 S Poplar St","Elizabethtown","North Carolina","28337","US","<MISSING>","(910) 862-4016","Bargain Town","34.626827","-78.60553","Monday : 09 AM - 08 PM, Tueday : 09 AM - 08 PM, Wednesday : 09 AM - 08 PM, Thurseday : 09 AM - 08 PM, Friday : 09 AM - 08 PM, Saturday : 09 AM - 08 PM, Sunday : 10 AM - 08 PM","https://www.rosesdiscountstores.com/store-locator-index"
