locator_domain,location_name,street_address,city,state,zip,country_code,store_number,phone,location_type,latitude,longitude,hours_of_operation,page_url
https://www.pizzapizza.ca/locations/,300 Harwood Avenue South,300 Harwood Avenue South,Ajax,ON,L1S2J1,CA,<MISSING>,<MISSING>,<MISSING>,<MISSING>,<MISSING>,Monday : 11:00 AM - 02:00 AM Tuesday : 11:00 AM - 02:00 AM Wednesday : 11:00 AM - 02:00 AM Thursday : 11:00 AM - 03:00 AM Friday : 11:00 AM - 03:00 AM Saturday : 11:00 AM - 03:00 AM Sunday : 11:00 AM - 02:00 AM,https://www5.pizzapizza.ca/restaurant-locator/Ontario/Ajax
https://www.pizzapizza.ca/locations/,15 Westney Road North,15 Westney Road North,Ajax,ON,L1T1P5,CA,<MISSING>,<MISSING>,<MISSING>,<MISSING>,<MISSING>,Monday : 11:00 AM - 02:00 AM Tuesday : 11:00 AM - 02:00 AM Wednesday : 11:00 AM - 02:00 AM Thursday : 11:00 AM - 03:00 AM Friday : 11:00 AM - 03:00 AM Saturday : 11:00 AM - 03:00 AM Sunday : 11:00 AM - 02:00 AM,https://www5.pizzapizza.ca/restaurant-locator/Ontario/Ajax
https://www.pizzapizza.ca/locations/,955 Westney Road South,955 Westney Road South,Ajax,ON,L1S3K7,CA,<MISSING>,<MISSING>,<MISSING>,<MISSING>,<MISSING>,Monday : 11:00 AM - 02:00 AM Tuesday : 11:00 AM - 02:00 AM Wednesday : 11:00 AM - 02:00 AM Thursday : 11:00 AM - 03:00 AM Friday : 11:00 AM - 03:00 AM Saturday : 11:00 AM - 03:00 AM Sunday : 11:00 AM - 02:00 AM,https://www5.pizzapizza.ca/restaurant-locator/Ontario/Ajax
https://www.pizzapizza.ca/locations/,65 Kingston Road East,65 Kingston Road East,Ajax,ON,L1S7J4,CA,<MISSING>,<MISSING>,<MISSING>,<MISSING>,<MISSING>,Monday : 11:00 AM - 02:00 AM Tuesday : 11:00 AM - 02:00 AM Wednesday : 11:00 AM - 02:00 AM Thursday : 11:00 AM - 03:00 AM Friday : 11:00 AM - 03:00 AM Saturday : 11:00 AM - 03:00 AM Sunday : 11:00 AM - 02:00 AM,https://www5.pizzapizza.ca/restaurant-locator/Ontario/Ajax
https://www.pizzapizza.ca/locations/,300 Rossland Road East,300 Rossland Road East,Ajax,ON,L1Z0K4,CA,<MISSING>,<MISSING>,<MISSING>,<MISSING>,<MISSING>,Monday : 11:00 AM - 02:00 AM Tuesday : 11:00 AM - 02:00 AM Wednesday : 11:00 AM - 02:00 AM Thursday : 11:00 AM - 03:00 AM Friday : 11:00 AM - 03:00 AM Saturday : 11:00 AM - 03:00 AM Sunday : 11:00 AM - 02:00 AM,https://www5.pizzapizza.ca/restaurant-locator/Ontario/Ajax
https://www.pizzapizza.ca/locations/,945 Innisfil Beach Road,945 Innisfil Beach Road,Alcona,ON,L9S1V3,CA,<MISSING>,<MISSING>,<MISSING>,<MISSING>,<MISSING>,Monday : 11:00 AM - 11:59 PM Tuesday : 11:00 AM - 11:59 PM Wednesday : 11:00 AM - 11:59 PM Thursday : 11:00 AM - 01:00 AM Friday : 11:00 AM - 03:00 AM Saturday : 11:00 AM - 03:00 AM Sunday : 11:00 AM - 11:59 PM,https://www5.pizzapizza.ca/restaurant-locator/Ontario/Alcona
https://www.pizzapizza.ca/locations/,176 Victoria Street East,176 Victoria Street East,Alliston,ON,L9R1K6,CA,<MISSING>,<MISSING>,<MISSING>,<MISSING>,<MISSING>,Monday : 11:00 AM - 11:59 PM Tuesday : 11:00 AM - 11:59 PM Wednesday : 11:00 AM - 11:59 PM Thursday : 11:00 AM - 01:00 AM Friday : 11:00 AM - 03:00 AM Saturday : 11:00 AM - 03:00 AM Sunday : 11:00 AM - 11:59 PM,https://www5.pizzapizza.ca/restaurant-locator/Ontario/Alliston
https://www.pizzapizza.ca/locations/,73 Wilson Street West,73 Wilson Street West,Ancaster,ON,L9G1N1,CA,<MISSING>,<MISSING>,<MISSING>,<MISSING>,<MISSING>,Monday : 11:00 AM - 11:59 PM Tuesday : 11:00 AM - 11:59 PM Wednesday : 11:00 AM - 11:59 PM Thursday : 11:00 AM - 11:59 PM Friday : 11:00 AM - 03:00 AM Saturday : 11:00 AM - 03:00 AM Sunday : 11:00 AM - 11:59 PM,https://www5.pizzapizza.ca/restaurant-locator/Ontario/Ancaster
https://www.pizzapizza.ca/locations/,193 Mill Street,193 Mill Street,Angus,ON,L0M1B0,CA,<MISSING>,<MISSING>,<MISSING>,<MISSING>,<MISSING>,Monday : 11:00 AM - 02:00 AM Tuesday : 11:00 AM - 02:00 AM Wednesday : 11:00 AM - 02:00 AM Thursday : 11:00 AM - 03:00 AM Friday : 11:00 AM - 03:00 AM Saturday : 11:00 AM - 03:00 AM Sunday : 11:00 AM - 02:00 AM,https://www5.pizzapizza.ca/restaurant-locator/Ontario/Angus
https://www.pizzapizza.ca/locations/,375 Daniel Street South,375 Daniel Street South,Arnprior,ON,K7S3K6,CA,<MISSING>,<MISSING>,<MISSING>,<MISSING>,<MISSING>,Monday : 11:00 AM - 10:00 PM Tuesday : 11:00 AM - 10:00 PM Wednesday : 11:00 AM - 10:00 PM Thursday : 11:00 AM - 10:00 PM Friday : 11:00 AM - 11:59 PM Saturday : 11:00 AM - 11:59 PM Sunday : 11:00 AM - 10:00 PM,https://www5.pizzapizza.ca/restaurant-locator/Ontario/Arnprior
https://www.pizzapizza.ca/locations/,14846 Yonge Street,14846 Yonge Street,Aurora,ON,L4G1N2,CA,<MISSING>,<MISSING>,<MISSING>,<MISSING>,<MISSING>,Monday : 11:00 AM - 02:00 AM Tuesday : 11:00 AM - 02:00 AM Wednesday : 11:00 AM - 02:00 AM Thursday : 11:00 AM - 03:00 AM Friday : 11:00 AM - 03:00 AM Saturday : 11:00 AM - 03:00 AM Sunday : 11:00 AM - 02:00 AM,https://www5.pizzapizza.ca/restaurant-locator/Ontario/Aurora
https://www.pizzapizza.ca/locations/,446 Hollandview Trail,446 Hollandview Trail,Aurora,ON,L4G7Z9,CA,<MISSING>,<MISSING>,<MISSING>,<MISSING>,<MISSING>,Monday : 11:00 AM - 02:00 AM Tuesday : 11:00 AM - 02:00 AM Wednesday : 11:00 AM - 02:00 AM Thursday : 11:00 AM - 03:00 AM Friday : 11:00 AM - 03:00 AM Saturday : 11:00 AM - 03:00 AM Sunday : 11:00 AM - 02:00 AM,https://www5.pizzapizza.ca/restaurant-locator/Ontario/Aurora
https://www.pizzapizza.ca/locations/,17 Station Street,17 Station Street,Bancroft,ON,K0L1C0,CA,<MISSING>,<MISSING>,<MISSING>,<MISSING>,<MISSING>,Monday : 11:00 AM - 11:00 PM Tuesday : 11:00 AM - 11:00 PM Wednesday : 11:00 AM - 11:00 PM Thursday : 11:00 AM - 11:00 PM Friday : 11:00 AM - 02:00 AM Saturday : 11:00 AM - 02:00 AM Sunday : 11:00 AM - 11:00 PM,https://www5.pizzapizza.ca/restaurant-locator/Ontario/Bancroft
https://www.pizzapizza.ca/locations/,3171 Strandherd Drive,3171 Strandherd Drive,Barrhaven,ON,K2J5N1,CA,<MISSING>,<MISSING>,<MISSING>,<MISSING>,<MISSING>,Monday : 11:00 AM - 02:00 AM Tuesday : 11:00 AM - 02:00 AM Wednesday : 11:00 AM - 02:00 AM Thursday : 11:00 AM - 03:00 AM Friday : 11:00 AM - 03:00 AM Saturday : 11:00 AM - 03:00 AM Sunday : 11:00 AM - 02:00 AM,https://www5.pizzapizza.ca/restaurant-locator/Ontario/Barrhaven
https://www.pizzapizza.ca/locations/,50 Market Place Avenue,50 Market Place Avenue,Barrhaven,ON,K2J5G3,CA,<MISSING>,<MISSING>,<MISSING>,<MISSING>,<MISSING>,Monday : 11:00 AM - 12:59 AM Tuesday : 11:00 AM - 12:59 AM Wednesday : 11:00 AM - 12:59 AM Thursday : 11:00 AM - 03:00 AM Friday : 11:00 AM - 03:00 AM Saturday : 11:00 AM - 03:00 AM Sunday : 11:00 AM - 12:59 AM,https://www5.pizzapizza.ca/restaurant-locator/Ontario/Barrhaven
https://www.pizzapizza.ca/locations/,410 Essa Road,410 Essa Road,Barrie,ON,L4N9J7,CA,<MISSING>,<MISSING>,<MISSING>,<MISSING>,<MISSING>,Monday : 11:00 AM - 02:00 AM Tuesday : 11:00 AM - 02:00 AM Wednesday : 11:00 AM - 02:00 AM Thursday : 11:00 AM - 03:00 AM Friday : 11:00 AM - 03:00 AM Saturday : 11:00 AM - 03:00 AM Sunday : 11:00 AM - 02:00 AM,https://www5.pizzapizza.ca/restaurant-locator/Ontario/Barrie
https://www.pizzapizza.ca/locations/,49 High Street,49 High Street,Barrie,ON,L4N1W5,CA,<MISSING>,<MISSING>,<MISSING>,<MISSING>,<MISSING>,Monday : 11:00 AM - 02:00 AM Tuesday : 11:00 AM - 02:00 AM Wednesday : 11:00 AM - 02:00 AM Thursday : 11:00 AM - 03:00 AM Friday : 11:00 AM - 03:00 AM Saturday : 11:00 AM - 03:00 AM Sunday : 11:00 AM - 02:00 AM,https://www5.pizzapizza.ca/restaurant-locator/Ontario/Barrie
https://www.pizzapizza.ca/locations/,279 Yonge Street,279 Yonge Street,Barrie,ON,L4N7T9,CA,<MISSING>,<MISSING>,<MISSING>,<MISSING>,<MISSING>,Monday : 11:00 AM - 02:00 AM Tuesday : 11:00 AM - 02:00 AM Wednesday : 11:00 AM - 02:00 AM Thursday : 11:00 AM - 03:00 AM Friday : 11:00 AM - 03:00 AM Saturday : 11:00 AM - 03:00 AM Sunday : 11:00 AM - 02:00 AM,https://www5.pizzapizza.ca/restaurant-locator/Ontario/Barrie
https://www.pizzapizza.ca/locations/,5 360 Bayfield Street North,5 360 Bayfield Street North,Barrie,ON,L4M3C4,CA,<MISSING>,<MISSING>,<MISSING>,<MISSING>,<MISSING>,Monday : 11:00 AM - 02:00 AM Tuesday : 11:00 AM - 02:00 AM Wednesday : 11:00 AM - 02:00 AM Thursday : 11:00 AM - 03:00 AM Friday : 11:00 AM - 03:00 AM Saturday : 11:00 AM - 03:00 AM Sunday : 11:00 AM - 02:00 AM,https://www5.pizzapizza.ca/restaurant-locator/Ontario/Barrie
https://www.pizzapizza.ca/locations/,170 North Front St.,170 North Front St.,Belleville,ON,K8P3B8,CA,<MISSING>,<MISSING>,<MISSING>,<MISSING>,<MISSING>,Monday : 11:00 AM - 02:00 AM Tuesday : 11:00 AM - 02:00 AM Wednesday : 11:00 AM - 02:00 AM Thursday : 11:00 AM - 03:00 AM Friday : 11:00 AM - 03:00 AM Saturday : 11:00 AM - 03:00 AM Sunday : 11:00 AM - 02:00 AM,https://www5.pizzapizza.ca/restaurant-locator/Ontario/Belleville
https://www.pizzapizza.ca/locations/,1 Queensgate Boulevard,1 Queensgate Boulevard,Bolton,ON,L7E1A1,CA,<MISSING>,<MISSING>,<MISSING>,<MISSING>,<MISSING>,Monday : 11:00 AM - 11:59 PM Tuesday : 11:00 AM - 11:59 PM Wednesday : 11:00 AM - 11:59 PM Thursday : 11:00 AM - 01:00 AM Friday : 11:00 AM - 03:00 AM Saturday : 11:00 AM - 03:00 AM Sunday : 11:00 AM - 11:59 PM,https://www5.pizzapizza.ca/restaurant-locator/Ontario/Bolton
https://www.pizzapizza.ca/locations/,570 Longworth Ave.,570 Longworth Ave.,Bowmanville,ON,L1C0E8,CA,<MISSING>,<MISSING>,<MISSING>,<MISSING>,<MISSING>,Monday : 11:00 AM - 02:00 AM Tuesday : 11:00 AM - 02:00 AM Wednesday : 11:00 AM - 02:00 AM Thursday : 11:00 AM - 03:00 AM Friday : 11:00 AM - 03:00 AM Saturday : 11:00 AM - 03:00 AM Sunday : 11:00 AM - 02:00 AM,https://www5.pizzapizza.ca/restaurant-locator/Ontario/Bowmanville
https://www.pizzapizza.ca/locations/,200 King St. E.,200 King St. E.,Bowmanville,ON,L1C1P3,CA,<MISSING>,<MISSING>,<MISSING>,<MISSING>,<MISSING>,Monday : 11:00 AM - 02:00 AM Tuesday : 11:00 AM - 02:00 AM Wednesday : 11:00 AM - 02:00 AM Thursday : 11:00 AM - 03:00 AM Friday : 11:00 AM - 03:00 AM Saturday : 11:00 AM - 03:00 AM Sunday : 11:00 AM - 02:00 AM,https://www5.pizzapizza.ca/restaurant-locator/Ontario/Bowmanville
https://www.pizzapizza.ca/locations/,168 Holland Street West,168 Holland Street West,Bradford,ON,L3Z1H7,CA,<MISSING>,<MISSING>,<MISSING>,<MISSING>,<MISSING>,Monday : 11:00 AM - 11:59 PM Tuesday : 11:00 AM - 11:59 PM Wednesday : 11:00 AM - 11:59 PM Thursday : 11:00 AM - 01:00 AM Friday : 11:00 AM - 03:00 AM Saturday : 11:00 AM - 03:00 AM Sunday : 11:00 AM - 11:59 PM,https://www5.pizzapizza.ca/restaurant-locator/Ontario/Bradford
https://www.pizzapizza.ca/locations/,980 Central Park Drive,980 Central Park Drive,Bramalea,ON,L6S3L7,CA,<MISSING>,<MISSING>,<MISSING>,<MISSING>,<MISSING>,Monday : 11:00 AM - 02:00 AM Tuesday : 11:00 AM - 02:00 AM Wednesday : 11:00 AM - 02:00 AM Thursday : 11:00 AM - 03:00 AM Friday : 11:00 AM - 03:00 AM Saturday : 11:00 AM - 03:00 AM Sunday : 11:00 AM - 02:00 AM,https://www5.pizzapizza.ca/restaurant-locator/Ontario/Bramalea
https://www.pizzapizza.ca/locations/,34 Avondale Boulevard,34 Avondale Boulevard,Brampton,ON,L6T1H3,CA,<MISSING>,<MISSING>,<MISSING>,<MISSING>,<MISSING>,Monday : 11:00 AM - 02:00 AM Tuesday : 11:00 AM - 02:00 AM Wednesday : 11:00 AM - 02:00 AM Thursday : 11:00 AM - 03:00 AM Friday : 11:00 AM - 03:00 AM Saturday : 11:00 AM - 03:00 AM Sunday : 11:00 AM - 02:00 AM,https://www5.pizzapizza.ca/restaurant-locator/Ontario/Brampton
https://www.pizzapizza.ca/locations/,267B Queen Street East,267B Queen Street East,Brampton,ON,L6W2E1,CA,<MISSING>,<MISSING>,<MISSING>,<MISSING>,<MISSING>,Monday : 11:00 AM - 02:00 AM Tuesday : 11:00 AM - 02:00 AM Wednesday : 11:00 AM - 02:00 AM Thursday : 11:00 AM - 03:00 AM Friday : 11:00 AM - 03:00 AM Saturday : 11:00 AM - 03:00 AM Sunday : 11:00 AM - 02:00 AM,https://www5.pizzapizza.ca/restaurant-locator/Ontario/Brampton
https://www.pizzapizza.ca/locations/,194 Main Street South,194 Main Street South,Brampton,ON,L6W2E2,CA,<MISSING>,<MISSING>,<MISSING>,<MISSING>,<MISSING>,Monday : 11:00 AM - 02:00 AM Tuesday : 11:00 AM - 02:00 AM Wednesday : 11:00 AM - 02:00 AM Thursday : 11:00 AM - 03:00 AM Friday : 11:00 AM - 03:00 AM Saturday : 11:00 AM - 03:00 AM Sunday : 11:00 AM - 02:00 AM,https://www5.pizzapizza.ca/restaurant-locator/Ontario/Brampton
https://www.pizzapizza.ca/locations/,136 150 Great Lakes Drive,136 150 Great Lakes Drive,Brampton,ON,L6R2K7,CA,<MISSING>,<MISSING>,<MISSING>,<MISSING>,<MISSING>,Monday : 11:00 AM - 02:00 AM Tuesday : 11:00 AM - 02:00 AM Wednesday : 11:00 AM - 02:00 AM Thursday : 11:00 AM - 03:00 AM Friday : 11:00 AM - 03:00 AM Saturday : 11:00 AM - 03:00 AM Sunday : 11:00 AM - 02:00 AM,https://www5.pizzapizza.ca/restaurant-locator/Ontario/Brampton
https://www.pizzapizza.ca/locations/,2 320 Main Street North,2 320 Main Street North,Brampton,ON,L6V4A3,CA,<MISSING>,<MISSING>,<MISSING>,<MISSING>,<MISSING>,Monday : 11:00 AM - 02:00 AM Tuesday : 11:00 AM - 02:00 AM Wednesday : 11:00 AM - 02:00 AM Thursday : 11:00 AM - 03:00 AM Friday : 11:00 AM - 03:00 AM Saturday : 11:00 AM - 03:00 AM Sunday : 11:00 AM - 02:00 AM,https://www5.pizzapizza.ca/restaurant-locator/Ontario/Brampton
https://www.pizzapizza.ca/locations/,15 55 Mountain Ash Road,15 55 Mountain Ash Road,Brampton,ON,L6R1H7,CA,<MISSING>,<MISSING>,<MISSING>,<MISSING>,<MISSING>,Monday : 11:00 AM - 02:00 AM Tuesday : 11:00 AM - 02:00 AM Wednesday : 11:00 AM - 02:00 AM Thursday : 11:00 AM - 03:00 AM Friday : 11:00 AM - 03:00 AM Saturday : 11:00 AM - 03:00 AM Sunday : 11:00 AM - 02:00 AM,https://www5.pizzapizza.ca/restaurant-locator/Ontario/Brampton
https://www.pizzapizza.ca/locations/,164 Sandalwood Parkway East,164 Sandalwood Parkway East,Brampton,ON,L6Z3S4,CA,<MISSING>,<MISSING>,<MISSING>,<MISSING>,<MISSING>,Monday : 11:00 AM - 02:00 AM Tuesday : 11:00 AM - 02:00 AM Wednesday : 11:00 AM - 02:00 AM Thursday : 11:00 AM - 03:00 AM Friday : 11:00 AM - 03:00 AM Saturday : 11:00 AM - 03:00 AM Sunday : 11:00 AM - 02:00 AM,https://www5.pizzapizza.ca/restaurant-locator/Ontario/Brampton
https://www.pizzapizza.ca/locations/,545 Steeles Avenue West,545 Steeles Avenue West,Brampton,ON,L6Y3E7,CA,<MISSING>,<MISSING>,<MISSING>,<MISSING>,<MISSING>,Monday : 11:00 AM - 02:00 AM Tuesday : 11:00 AM - 02:00 AM Wednesday : 11:00 AM - 02:00 AM Thursday : 11:00 AM - 03:00 AM Friday : 11:00 AM - 03:00 AM Saturday : 11:00 AM - 03:00 AM Sunday : 11:00 AM - 02:00 AM,https://www5.pizzapizza.ca/restaurant-locator/Ontario/Brampton
https://www.pizzapizza.ca/locations/,74 Quarry Edge Drive,74 Quarry Edge Drive,Brampton,ON,L6V4K2,CA,<MISSING>,<MISSING>,<MISSING>,<MISSING>,<MISSING>,Monday : 11:00 AM - 02:00 AM Tuesday : 11:00 AM - 02:00 AM Wednesday : 11:00 AM - 02:00 AM Thursday : 11:00 AM - 03:00 AM Friday : 11:00 AM - 03:00 AM Saturday : 11:00 AM - 03:00 AM Sunday : 11:00 AM - 02:00 AM,https://www5.pizzapizza.ca/restaurant-locator/Ontario/Brampton
https://www.pizzapizza.ca/locations/,11795 Bramalea Road,11795 Bramalea Road,Brampton,ON,L6R3S9,CA,<MISSING>,<MISSING>,<MISSING>,<MISSING>,<MISSING>,Monday : 11:00 AM - 11:59 PM Tuesday : 11:00 AM - 11:59 PM Wednesday : 11:00 AM - 11:59 PM Thursday : 11:00 AM - 11:59 PM Friday : 11:00 AM - 03:00 AM Saturday : 11:00 AM - 03:00 AM Sunday : 11:00 AM - 11:59 PM,https://www5.pizzapizza.ca/restaurant-locator/Ontario/Brampton
https://www.pizzapizza.ca/locations/,110 603 Colborne Street East,110 603 Colborne Street East,Brantford,ON,N3S7S8,CA,<MISSING>,<MISSING>,<MISSING>,<MISSING>,<MISSING>,Monday : 11:00 AM - 02:00 AM Tuesday : 11:00 AM - 02:00 AM Wednesday : 11:00 AM - 02:00 AM Thursday : 11:00 AM - 03:00 AM Friday : 11:00 AM - 03:00 AM Saturday : 11:00 AM - 03:00 AM Sunday : 11:00 AM - 02:00 AM,https://www5.pizzapizza.ca/restaurant-locator/Ontario/Brantford
https://www.pizzapizza.ca/locations/,225 Fairview Drive (North Park Pla,225 Fairview Drive (North Park Pla,Brantford,ON,N3R7E3,CA,<MISSING>,<MISSING>,<MISSING>,<MISSING>,<MISSING>,Monday : 11:00 AM - 02:00 AM Tuesday : 11:00 AM - 02:00 AM Wednesday : 11:00 AM - 02:00 AM Thursday : 11:00 AM - 03:00 AM Friday : 11:00 AM - 03:00 AM Saturday : 11:00 AM - 03:00 AM Sunday : 11:00 AM - 02:00 AM,https://www5.pizzapizza.ca/restaurant-locator/Ontario/Brantford
https://www.pizzapizza.ca/locations/,2539 Parkedale Avenue,2539 Parkedale Avenue,Brockville,ON,K6V3H2,CA,<MISSING>,<MISSING>,<MISSING>,<MISSING>,<MISSING>,Monday : 11:00 AM - 11:59 PM Tuesday : 11:00 AM - 11:59 PM Wednesday : 11:00 AM - 11:59 PM Thursday : 11:00 AM - 01:00 AM Friday : 11:00 AM - 03:00 AM Saturday : 11:00 AM - 03:00 AM Sunday : 11:00 AM - 11:59 PM,https://www5.pizzapizza.ca/restaurant-locator/Ontario/Brockville
https://www.pizzapizza.ca/locations/,595 Plains Road East,595 Plains Road East,Burlington,ON,L7T2E6,CA,<MISSING>,<MISSING>,<MISSING>,<MISSING>,<MISSING>,Monday : 11:00 AM - 02:00 AM Tuesday : 11:00 AM - 02:00 AM Wednesday : 11:00 AM - 02:00 AM Thursday : 11:00 AM - 03:00 AM Friday : 11:00 AM - 03:00 AM Saturday : 11:00 AM - 03:00 AM Sunday : 11:00 AM - 02:00 AM,https://www5.pizzapizza.ca/restaurant-locator/Ontario/Burlington
https://www.pizzapizza.ca/locations/,3537 Fairview Street,3537 Fairview Street,Burlington,ON,L7N2R4,CA,<MISSING>,<MISSING>,<MISSING>,<MISSING>,<MISSING>,Monday : 11:00 AM - 02:00 AM Tuesday : 11:00 AM - 02:00 AM Wednesday : 11:00 AM - 02:00 AM Thursday : 11:00 AM - 03:00 AM Friday : 11:00 AM - 03:00 AM Saturday : 11:00 AM - 03:00 AM Sunday : 11:00 AM - 02:00 AM,https://www5.pizzapizza.ca/restaurant-locator/Ontario/Burlington
https://www.pizzapizza.ca/locations/,735 Guelph Line,735 Guelph Line,Burlington,ON,L7R3N2,CA,<MISSING>,<MISSING>,<MISSING>,<MISSING>,<MISSING>,Monday : 11:00 AM - 02:00 AM Tuesday : 11:00 AM - 02:00 AM Wednesday : 11:00 AM - 02:00 AM Thursday : 11:00 AM - 03:00 AM Friday : 11:00 AM - 03:00 AM Saturday : 11:00 AM - 03:00 AM Sunday : 11:00 AM - 02:00 AM,https://www5.pizzapizza.ca/restaurant-locator/Ontario/Burlington
https://www.pizzapizza.ca/locations/,9 2201 Brant Road,9 2201 Brant Road,Burlington,ON,L7P3N8,CA,<MISSING>,<MISSING>,<MISSING>,<MISSING>,<MISSING>,Monday : 11:00 AM - 11:59 PM Tuesday : 11:00 AM - 11:59 PM Wednesday : 11:00 AM - 11:59 PM Thursday : 11:00 AM - 11:59 PM Friday : 11:00 AM - 03:00 AM Saturday : 11:00 AM - 03:00 AM Sunday : 11:00 AM - 11:59 PM,https://www5.pizzapizza.ca/restaurant-locator/Ontario/Burlington
https://www.pizzapizza.ca/locations/,1900 Walkers Line,1900 Walkers Line,Burlington,ON,L7R3X5,CA,<MISSING>,<MISSING>,<MISSING>,<MISSING>,<MISSING>,Monday : 11:00 AM - 11:59 PM Tuesday : 11:00 AM - 11:59 PM Wednesday : 11:00 AM - 11:59 PM Thursday : 11:00 AM - 11:59 PM Friday : 11:00 AM - 03:00 AM Saturday : 11:00 AM - 03:00 AM Sunday : 11:00 AM - 11:59 PM,https://www5.pizzapizza.ca/restaurant-locator/Ontario/Burlington
https://www.pizzapizza.ca/locations/,# 2485 Appleby Line Building G,# 2485 Appleby Line Building G,Burlington,ON,L7R3X4,CA,<MISSING>,<MISSING>,<MISSING>,<MISSING>,<MISSING>,Monday : 11:00 AM - 02:00 AM Tuesday : 11:00 AM - 02:00 AM Wednesday : 11:00 AM - 02:00 AM Thursday : 11:00 AM - 03:00 AM Friday : 11:00 AM - 03:00 AM Saturday : 11:00 AM - 03:00 AM Sunday : 11:00 AM - 02:00 AM,https://www5.pizzapizza.ca/restaurant-locator/Ontario/Burlington
https://www.pizzapizza.ca/locations/,345 Argyle Street South,345 Argyle Street South,Caledonia,ON,N3W1L8,CA,<MISSING>,<MISSING>,<MISSING>,<MISSING>,<MISSING>,Monday : 11:00 AM - 02:00 AM Tuesday : 11:00 AM - 02:00 AM Wednesday : 11:00 AM - 02:00 AM Thursday : 11:00 AM - 03:00 AM Friday : 11:00 AM - 03:00 AM Saturday : 11:00 AM - 03:00 AM Sunday : 11:00 AM - 02:00 AM,https://www5.pizzapizza.ca/restaurant-locator/Ontario/Caledonia
https://www.pizzapizza.ca/locations/,# 35 200 Franklin Blvd.,# 35 200 Franklin Blvd.,Cambridge,ON,N1R8N8,CA,<MISSING>,<MISSING>,<MISSING>,<MISSING>,<MISSING>,Monday : 11:00 AM - 11:59 PM Tuesday : 11:00 AM - 11:59 PM Wednesday : 11:00 AM - 11:59 PM Thursday : 11:00 AM - 03:00 AM Friday : 11:00 AM - 03:00 AM Saturday : 11:00 AM - 03:00 AM Sunday : 11:00 AM - 11:59 PM,https://www5.pizzapizza.ca/restaurant-locator/Ontario/Cambridge
https://www.pizzapizza.ca/locations/,561 Hespeler Road,561 Hespeler Road,Cambridge,ON,N1R6J4,CA,<MISSING>,<MISSING>,<MISSING>,<MISSING>,<MISSING>,Monday : 11:00 AM - 02:00 AM Tuesday : 11:00 AM - 02:00 AM Wednesday : 11:00 AM - 02:00 AM Thursday : 11:00 AM - 03:00 AM Friday : 11:00 AM - 03:00 AM Saturday : 11:00 AM - 03:00 AM Sunday : 11:00 AM - 02:00 AM,https://www5.pizzapizza.ca/restaurant-locator/Ontario/Cambridge
https://www.pizzapizza.ca/locations/,10418 Highway 7,10418 Highway 7,Carleton Place,ON,K7C0C4,CA,<MISSING>,<MISSING>,<MISSING>,<MISSING>,<MISSING>,Monday : 11:00 AM - 10:00 PM Tuesday : 11:00 AM - 10:00 PM Wednesday : 11:00 AM - 10:00 PM Thursday : 11:00 AM - 10:00 PM Friday : 11:00 AM - 01:00 AM Saturday : 11:00 AM - 01:00 AM Sunday : 11:00 AM - 10:00 PM,https://www5.pizzapizza.ca/restaurant-locator/Ontario/Carleton_Place
https://www.pizzapizza.ca/locations/,100 King Street West,100 King Street West,Cobourg,ON,K9A2M3,CA,<MISSING>,<MISSING>,<MISSING>,<MISSING>,<MISSING>,Monday : 11:00 AM - 11:59 PM Tuesday : 11:00 AM - 11:59 PM Wednesday : 11:00 AM - 11:59 PM Thursday : 11:00 AM - 11:59 PM Friday : 11:00 AM - 03:00 AM Saturday : 11:00 AM - 03:00 AM Sunday : 11:00 AM - 11:59 PM,https://www5.pizzapizza.ca/restaurant-locator/Ontario/Cobourg
https://www.pizzapizza.ca/locations/,36 Coldwater Rd,36 Coldwater Rd,Coldwater,ON,L0K1E0,CA,<MISSING>,<MISSING>,<MISSING>,<MISSING>,<MISSING>,Monday : 11:00 AM - 10:00 PM Tuesday : 11:00 AM - 10:00 PM Wednesday : 11:00 AM - 10:00 PM Thursday : 11:00 AM - 10:00 PM Friday : 11:00 AM - 10:00 PM Saturday : 11:00 AM - 10:00 PM Sunday : 11:00 AM - 10:00 PM,https://www5.pizzapizza.ca/restaurant-locator/Ontario/Coldwater
https://www.pizzapizza.ca/locations/,5 Balsam Street,5 Balsam Street,Collingwood,ON,L9Y5H6,CA,<MISSING>,<MISSING>,<MISSING>,<MISSING>,<MISSING>,Monday : 11:00 AM - 02:00 AM Tuesday : 11:00 AM - 02:00 AM Wednesday : 11:00 AM - 02:00 AM Thursday : 11:00 AM - 03:00 AM Friday : 11:00 AM - 03:00 AM Saturday : 11:00 AM - 03:00 AM Sunday : 11:00 AM - 02:00 AM,https://www5.pizzapizza.ca/restaurant-locator/Ontario/Collingwood
https://www.pizzapizza.ca/locations/,1334 Second Street East,1334 Second Street East,Cornwall,ON,K6H2B7,CA,<MISSING>,<MISSING>,<MISSING>,<MISSING>,<MISSING>,Monday : 11:00 AM - 02:00 AM Tuesday : 11:00 AM - 02:00 AM Wednesday : 11:00 AM - 02:00 AM Thursday : 11:00 AM - 03:00 AM Friday : 11:00 AM - 03:00 AM Saturday : 11:00 AM - 03:00 AM Sunday : 11:00 AM - 02:00 AM,https://www5.pizzapizza.ca/restaurant-locator/Ontario/Cornwall
https://www.pizzapizza.ca/locations/,4 Cootes Drive,4 Cootes Drive,Dundas,ON,L9H1A9,CA,<MISSING>,<MISSING>,<MISSING>,<MISSING>,<MISSING>,Monday : 11:00 AM - 11:59 PM Tuesday : 11:00 AM - 11:59 PM Wednesday : 11:00 AM - 11:59 PM Thursday : 11:00 AM - 11:59 PM Friday : 11:00 AM - 03:00 AM Saturday : 11:00 AM - 03:00 AM Sunday : 11:00 AM - 11:59 PM,https://www5.pizzapizza.ca/restaurant-locator/Ontario/Dundas
https://www.pizzapizza.ca/locations/,769 Tower Street South,769 Tower Street South,Fergus,ON,N1M2R2,CA,<MISSING>,<MISSING>,<MISSING>,<MISSING>,<MISSING>,Monday : 11:00 AM - 11:59 PM Tuesday : 11:00 AM - 11:59 PM Wednesday : 11:00 AM - 11:59 PM Thursday : 11:00 AM - 01:00 AM Friday : 11:00 AM - 03:00 AM Saturday : 11:00 AM - 03:00 AM Sunday : 11:00 AM - 11:59 PM,https://www5.pizzapizza.ca/restaurant-locator/Ontario/Fergus
https://www.pizzapizza.ca/locations/,310 Garrison Road,310 Garrison Road,Fort Erie,ON,L2A1M9,CA,<MISSING>,<MISSING>,<MISSING>,<MISSING>,<MISSING>,Monday : 11:00 AM - 11:59 PM Tuesday : 11:00 AM - 11:59 PM Wednesday : 11:00 AM - 11:59 PM Thursday : 11:00 AM - 11:59 PM Friday : 11:00 AM - 03:00 AM Saturday : 11:00 AM - 03:00 AM Sunday : 11:00 AM - 11:59 PM,https://www5.pizzapizza.ca/restaurant-locator/Ontario/Fort_Erie
https://www.pizzapizza.ca/locations/,216 Guelph Street,216 Guelph Street,Georgetown,ON,L7G4A9,CA,<MISSING>,<MISSING>,<MISSING>,<MISSING>,<MISSING>,Monday : 11:00 AM - 02:00 AM Tuesday : 11:00 AM - 02:00 AM Wednesday : 11:00 AM - 02:00 AM Thursday : 11:00 AM - 03:00 AM Friday : 11:00 AM - 03:00 AM Saturday : 11:00 AM - 03:00 AM Sunday : 11:00 AM - 02:00 AM,https://www5.pizzapizza.ca/restaurant-locator/Ontario/Georgetown
https://www.pizzapizza.ca/locations/,20993 Dalton Road,20993 Dalton Road,Georgina,ON,L0E1L0,CA,<MISSING>,<MISSING>,<MISSING>,<MISSING>,<MISSING>,Monday : 11:00 AM - 02:00 AM Tuesday : 11:00 AM - 02:00 AM Wednesday : 11:00 AM - 02:00 AM Thursday : 11:00 AM - 03:00 AM Friday : 11:00 AM - 03:00 AM Saturday : 11:00 AM - 03:00 AM Sunday : 11:00 AM - 02:00 AM,https://www5.pizzapizza.ca/restaurant-locator/Ontario/Georgina
https://www.pizzapizza.ca/locations/,1950 Montreal Road,1950 Montreal Road,Gloucester,ON,K1J6N2,CA,<MISSING>,<MISSING>,<MISSING>,<MISSING>,<MISSING>,Monday : 11:00 AM - 02:00 AM Tuesday : 11:00 AM - 02:00 AM Wednesday : 11:00 AM - 02:00 AM Thursday : 11:00 AM - 03:00 AM Friday : 11:00 AM - 03:00 AM Saturday : 11:00 AM - 03:00 AM Sunday : 11:00 AM - 02:00 AM,https://www5.pizzapizza.ca/restaurant-locator/Ontario/Gloucester
https://www.pizzapizza.ca/locations/,1615 Orleans Boulevard,1615 Orleans Boulevard,Gloucester,ON,K1C7E2,CA,<MISSING>,<MISSING>,<MISSING>,<MISSING>,<MISSING>,Monday : 11:00 AM - 11:59 PM Tuesday : 11:00 AM - 11:59 PM Wednesday : 11:00 AM - 11:59 PM Thursday : 11:00 AM - 11:59 PM Friday : 11:00 AM - 03:00 AM Saturday : 11:00 AM - 03:00 AM Sunday : 11:00 AM - 11:59 PM,https://www5.pizzapizza.ca/restaurant-locator/Ontario/Gloucester
https://www.pizzapizza.ca/locations/,196 Muskoka Road South,196 Muskoka Road South,Gravenhurst,ON,P1P1X3,CA,<MISSING>,<MISSING>,<MISSING>,<MISSING>,<MISSING>,Monday : 11:00 AM - 10:00 PM Tuesday : 11:00 AM - 10:00 PM Wednesday : 11:00 AM - 10:00 PM Thursday : 11:00 AM - 11:00 PM Friday : 11:00 AM - 11:59 PM Saturday : 11:00 AM - 11:59 PM Sunday : 11:00 AM - 10:00 PM,https://www5.pizzapizza.ca/restaurant-locator/Ontario/Gravenhurst
https://www.pizzapizza.ca/locations/,63 Main Street West,63 Main Street West,Grimsby,ON,L3M4H1,CA,<MISSING>,<MISSING>,<MISSING>,<MISSING>,<MISSING>,Monday : 11:00 AM - 11:59 PM Tuesday : 11:00 AM - 11:59 PM Wednesday : 11:00 AM - 11:59 PM Thursday : 11:00 AM - 11:59 PM Friday : 11:00 AM - 02:00 AM Saturday : 11:00 AM - 02:00 AM Sunday : 11:00 AM - 11:59 PM,https://www5.pizzapizza.ca/restaurant-locator/Ontario/Grimsby
https://www.pizzapizza.ca/locations/,4 380 Eramosa Road,4 380 Eramosa Road,Guelph,ON,N1E6R2,CA,<MISSING>,<MISSING>,<MISSING>,<MISSING>,<MISSING>,Monday : 11:00 AM - 02:00 AM Tuesday : 11:00 AM - 02:00 AM Wednesday : 11:00 AM - 02:00 AM Thursday : 11:00 AM - 03:00 AM Friday : 11:00 AM - 03:00 AM Saturday : 11:00 AM - 03:00 AM Sunday : 11:00 AM - 02:00 AM,https://www5.pizzapizza.ca/restaurant-locator/Ontario/Guelph
https://www.pizzapizza.ca/locations/,500 York Road,500 York Road,Guelph,ON,N1E3J4,CA,<MISSING>,<MISSING>,<MISSING>,<MISSING>,<MISSING>,Monday : 11:00 AM - 02:00 AM Tuesday : 11:00 AM - 02:00 AM Wednesday : 11:00 AM - 02:00 AM Thursday : 11:00 AM - 03:00 AM Friday : 11:00 AM - 03:00 AM Saturday : 11:00 AM - 03:00 AM Sunday : 11:00 AM - 02:00 AM,https://www5.pizzapizza.ca/restaurant-locator/Ontario/Guelph
https://www.pizzapizza.ca/locations/,71 Willow Road,71 Willow Road,Guelph,ON,N1H1W3,CA,<MISSING>,<MISSING>,<MISSING>,<MISSING>,<MISSING>,Monday : 11:00 AM - 02:00 AM Tuesday : 11:00 AM - 02:00 AM Wednesday : 11:00 AM - 02:00 AM Thursday : 11:00 AM - 03:00 AM Friday : 11:00 AM - 03:00 AM Saturday : 11:00 AM - 03:00 AM Sunday : 11:00 AM - 02:00 AM,https://www5.pizzapizza.ca/restaurant-locator/Ontario/Guelph
https://www.pizzapizza.ca/locations/,435 Stone Rd.,435 Stone Rd.,Guelph,ON,N1G2X6,CA,<MISSING>,<MISSING>,<MISSING>,<MISSING>,<MISSING>,Monday : 11:00 AM - 02:00 AM Tuesday : 11:00 AM - 02:00 AM Wednesday : 11:00 AM - 02:00 AM Thursday : 11:00 AM - 03:00 AM Friday : 11:00 AM - 03:00 AM Saturday : 11:00 AM - 03:00 AM Sunday : 11:00 AM - 02:00 AM,https://www5.pizzapizza.ca/restaurant-locator/Ontario/Guelph
https://www.pizzapizza.ca/locations/,1294 King Street East,1294 King Street East,Hamilton,ON,L8M1N5,CA,<MISSING>,<MISSING>,<MISSING>,<MISSING>,<MISSING>,Monday : 11:00 AM - 02:00 AM Tuesday : 11:00 AM - 02:00 AM Wednesday : 11:00 AM - 02:00 AM Thursday : 11:00 AM - 03:00 AM Friday : 11:00 AM - 03:00 AM Saturday : 11:00 AM - 03:00 AM Sunday : 11:00 AM - 02:00 AM,https://www5.pizzapizza.ca/restaurant-locator/Ontario/Hamilton
https://www.pizzapizza.ca/locations/,1281 Main Street East,1281 Main Street East,Hamilton,ON,L8K1B1,CA,<MISSING>,<MISSING>,<MISSING>,<MISSING>,<MISSING>,Monday : 11:00 AM - 02:00 AM Tuesday : 11:00 AM - 02:00 AM Wednesday : 11:00 AM - 02:00 AM Thursday : 11:00 AM - 03:00 AM Friday : 11:00 AM - 03:00 AM Saturday : 11:00 AM - 03:00 AM Sunday : 11:00 AM - 02:00 AM,https://www5.pizzapizza.ca/restaurant-locator/Ontario/Hamilton
https://www.pizzapizza.ca/locations/,815 Main Street West,815 Main Street West,Hamilton,ON,L8S1A2,CA,<MISSING>,<MISSING>,<MISSING>,<MISSING>,<MISSING>,Monday : 11:00 AM - 02:00 AM Tuesday : 11:00 AM - 02:00 AM Wednesday : 11:00 AM - 02:00 AM Thursday : 11:00 AM - 03:00 AM Friday : 11:00 AM - 03:00 AM Saturday : 11:00 AM - 03:00 AM Sunday : 11:00 AM - 02:00 AM,https://www5.pizzapizza.ca/restaurant-locator/Ontario/Hamilton
https://www.pizzapizza.ca/locations/,129 Queenston Road,129 Queenston Road,Hamilton,ON,L8K1G5,CA,<MISSING>,<MISSING>,<MISSING>,<MISSING>,<MISSING>,Monday : 11:00 AM - 02:00 AM Tuesday : 11:00 AM - 02:00 AM Wednesday : 11:00 AM - 02:00 AM Thursday : 11:00 AM - 03:00 AM Friday : 11:00 AM - 03:00 AM Saturday : 11:00 AM - 03:00 AM Sunday : 11:00 AM - 02:00 AM,https://www5.pizzapizza.ca/restaurant-locator/Ontario/Hamilton
https://www.pizzapizza.ca/locations/,4 50 Dundurn Street South,4 50 Dundurn Street South,Hamilton,ON,L8P4Y8,CA,<MISSING>,<MISSING>,<MISSING>,<MISSING>,<MISSING>,Monday : 11:00 AM - 02:00 AM Tuesday : 11:00 AM - 02:00 AM Wednesday : 11:00 AM - 02:00 AM Thursday : 11:00 AM - 03:00 AM Friday : 11:00 AM - 03:00 AM Saturday : 11:00 AM - 03:00 AM Sunday : 11:00 AM - 02:00 AM,https://www5.pizzapizza.ca/restaurant-locator/Ontario/Hamilton
https://www.pizzapizza.ca/locations/,833 Upper James Street,833 Upper James Street,Hamilton,ON,L9C3A3,CA,<MISSING>,<MISSING>,<MISSING>,<MISSING>,<MISSING>,Monday : 11:00 AM - 02:00 AM Tuesday : 11:00 AM - 02:00 AM Wednesday : 11:00 AM - 02:00 AM Thursday : 11:00 AM - 03:00 AM Friday : 11:00 AM - 03:00 AM Saturday : 11:00 AM - 03:00 AM Sunday : 11:00 AM - 02:00 AM,https://www5.pizzapizza.ca/restaurant-locator/Ontario/Hamilton
https://www.pizzapizza.ca/locations/,374 Mohawk Road East,374 Mohawk Road East,Hamilton,ON,L8V2H7,CA,<MISSING>,<MISSING>,<MISSING>,<MISSING>,<MISSING>,Monday : 11:00 AM - 02:00 AM Tuesday : 11:00 AM - 02:00 AM Wednesday : 11:00 AM - 02:00 AM Thursday : 11:00 AM - 03:00 AM Friday : 11:00 AM - 03:00 AM Saturday : 11:00 AM - 03:00 AM Sunday : 11:00 AM - 02:00 AM,https://www5.pizzapizza.ca/restaurant-locator/Ontario/Hamilton
https://www.pizzapizza.ca/locations/,1001 Fennell Avenue East,1001 Fennell Avenue East,Hamilton,ON,L8T1R1,CA,<MISSING>,<MISSING>,<MISSING>,<MISSING>,<MISSING>,Monday : 11:00 AM - 02:00 AM Tuesday : 11:00 AM - 02:00 AM Wednesday : 11:00 AM - 02:00 AM Thursday : 11:00 AM - 03:00 AM Friday : 11:00 AM - 03:00 AM Saturday : 11:00 AM - 03:00 AM Sunday : 11:00 AM - 02:00 AM,https://www5.pizzapizza.ca/restaurant-locator/Ontario/Hamilton
https://www.pizzapizza.ca/locations/,85 King Street East,85 King Street East,Hamilton,ON,L8N1A9,CA,<MISSING>,<MISSING>,<MISSING>,<MISSING>,<MISSING>,Monday : 11:00 AM - 02:00 AM Tuesday : 11:00 AM - 02:00 AM Wednesday : 11:00 AM - 02:00 AM Thursday : 11:00 AM - 03:00 AM Friday : 11:00 AM - 03:00 AM Saturday : 11:00 AM - 03:00 AM Sunday : 11:00 AM - 02:00 AM,https://www5.pizzapizza.ca/restaurant-locator/Ontario/Hamilton
https://www.pizzapizza.ca/locations/,958 Garth Street,958 Garth Street,Hamilton,ON,L9C4L4,CA,<MISSING>,<MISSING>,<MISSING>,<MISSING>,<MISSING>,Monday : 11:00 AM - 02:00 AM Tuesday : 11:00 AM - 02:00 AM Wednesday : 11:00 AM - 02:00 AM Thursday : 11:00 AM - 03:00 AM Friday : 11:00 AM - 03:00 AM Saturday : 11:00 AM - 03:00 AM Sunday : 11:00 AM - 02:00 AM,https://www5.pizzapizza.ca/restaurant-locator/Ontario/Hamilton
https://www.pizzapizza.ca/locations/,173 Main Street East,173 Main Street East,Hawkesbury,ON,K6A1A1,CA,<MISSING>,<MISSING>,<MISSING>,<MISSING>,<MISSING>,Monday : 11:00 AM - 11:59 PM Tuesday : 11:00 AM - 11:59 PM Wednesday : 11:00 AM - 11:59 PM Thursday : 11:00 AM - 11:59 PM Friday : 11:00 AM - 03:00 AM Saturday : 11:00 AM - 03:00 AM Sunday : 11:00 AM - 11:59 PM,https://www5.pizzapizza.ca/restaurant-locator/Ontario/Hawkesbury
https://www.pizzapizza.ca/locations/,368 Queen Street West,368 Queen Street West,Hespeler,ON,N3C1G8,CA,<MISSING>,<MISSING>,<MISSING>,<MISSING>,<MISSING>,Monday : 11:00 AM - 02:00 AM Tuesday : 11:00 AM - 02:00 AM Wednesday : 11:00 AM - 02:00 AM Thursday : 11:00 AM - 03:00 AM Friday : 11:00 AM - 03:00 AM Saturday : 11:00 AM - 03:00 AM Sunday : 11:00 AM - 02:00 AM,https://www5.pizzapizza.ca/restaurant-locator/Ontario/Hespeler
https://www.pizzapizza.ca/locations/,1 19466 Old Yonge Street,1 19466 Old Yonge Street,Holland Landing,ON,L9N1L8,CA,<MISSING>,<MISSING>,<MISSING>,<MISSING>,<MISSING>,Monday : 11:00 AM - 11:59 PM Tuesday : 11:00 AM - 11:59 PM Wednesday : 11:00 AM - 11:59 PM Thursday : 11:00 AM - 11:59 PM Friday : 11:00 AM - 03:00 AM Saturday : 11:00 AM - 03:00 AM Sunday : 11:00 AM - 11:59 PM,https://www5.pizzapizza.ca/restaurant-locator/Ontario/Holland_Landing
https://www.pizzapizza.ca/locations/,"1, P.O. 90 Main Street East","1, P.O. 90 Main Street East",Huntsville,ON,P1H2C7,CA,<MISSING>,<MISSING>,<MISSING>,<MISSING>,<MISSING>,Monday : 11:00 AM - 11:59 PM Tuesday : 11:00 AM - 11:59 PM Wednesday : 11:00 AM - 11:59 PM Thursday : 11:00 AM - 01:00 AM Friday : 11:00 AM - 03:00 AM Saturday : 11:00 AM - 03:00 AM Sunday : 11:00 AM - 11:59 PM,https://www5.pizzapizza.ca/restaurant-locator/Ontario/Huntsville
https://www.pizzapizza.ca/locations/,6A 300 Earl Grey Drive,6A 300 Earl Grey Drive,Kanata,ON,K2T1B8,CA,<MISSING>,<MISSING>,<MISSING>,<MISSING>,<MISSING>,Monday : 11:00 AM - 11:59 PM Tuesday : 11:00 AM - 11:59 PM Wednesday : 11:00 AM - 11:59 PM Thursday : 11:00 AM - 11:59 PM Friday : 11:00 AM - 03:00 AM Saturday : 11:00 AM - 03:00 AM Sunday : 11:00 AM - 11:59 PM,https://www5.pizzapizza.ca/restaurant-locator/Ontario/Kanata
https://www.pizzapizza.ca/locations/,457 The Queensway South,457 The Queensway South,Keswick,ON,L4P2C9,CA,<MISSING>,<MISSING>,<MISSING>,<MISSING>,<MISSING>,Monday : 11:00 AM - 02:00 AM Tuesday : 11:00 AM - 02:00 AM Wednesday : 11:00 AM - 02:00 AM Thursday : 11:00 AM - 03:00 AM Friday : 11:00 AM - 03:00 AM Saturday : 11:00 AM - 03:00 AM Sunday : 11:00 AM - 02:00 AM,https://www5.pizzapizza.ca/restaurant-locator/Ontario/Keswick
https://www.pizzapizza.ca/locations/,2075 King Side Road,2075 King Side Road,King City,ON,L0G1K0,CA,<MISSING>,<MISSING>,<MISSING>,<MISSING>,<MISSING>,Monday : 11:00 AM - 08:00 PM Tuesday : 11:00 AM - 08:00 PM Wednesday : 11:00 AM - 08:00 PM Thursday : 11:00 AM - 08:00 PM Friday : 11:00 AM - 10:00 PM Saturday : 11:00 AM - 10:00 PM Sunday : 11:00 AM - 08:00 PM,https://www5.pizzapizza.ca/restaurant-locator/Ontario/King_City
https://www.pizzapizza.ca/locations/,760 highway 15,760 highway 15,Kingston,ON,K6V6B2,CA,<MISSING>,<MISSING>,<MISSING>,<MISSING>,<MISSING>,Monday : 11:00 AM - 11:59 PM Tuesday : 11:00 AM - 11:59 PM Wednesday : 11:00 AM - 11:59 PM Thursday : 11:00 AM - 11:59 PM Friday : 11:00 AM - 03:00 AM Saturday : 11:00 AM - 03:00 AM Sunday : 11:00 AM - 11:59 PM,https://www5.pizzapizza.ca/restaurant-locator/Ontario/Kingston
https://www.pizzapizza.ca/locations/,277 Bath Road,277 Bath Road,Kingston,ON,K7M2X6,CA,<MISSING>,<MISSING>,<MISSING>,<MISSING>,<MISSING>,Monday : 11:00 AM - 02:00 AM Tuesday : 11:00 AM - 02:00 AM Wednesday : 11:00 AM - 02:00 AM Thursday : 11:00 AM - 03:00 AM Friday : 11:00 AM - 03:00 AM Saturday : 11:00 AM - 03:00 AM Sunday : 11:00 AM - 02:00 AM,https://www5.pizzapizza.ca/restaurant-locator/Ontario/Kingston
https://www.pizzapizza.ca/locations/,414 Princess Street,414 Princess Street,Kingston,ON,K7L1B8,CA,<MISSING>,<MISSING>,<MISSING>,<MISSING>,<MISSING>,Monday : 11:00 AM - 02:00 AM Tuesday : 11:00 AM - 02:00 AM Wednesday : 11:00 AM - 02:00 AM Thursday : 11:00 AM - 03:00 AM Friday : 11:00 AM - 03:00 AM Saturday : 11:00 AM - 03:00 AM Sunday : 11:00 AM - 02:00 AM,https://www5.pizzapizza.ca/restaurant-locator/Ontario/Kingston
https://www.pizzapizza.ca/locations/,875 Highland Road West,875 Highland Road West,Kitchener,ON,N2N2Y2,CA,<MISSING>,<MISSING>,<MISSING>,<MISSING>,<MISSING>,Monday : 11:00 AM - 02:00 AM Tuesday : 11:00 AM - 02:00 AM Wednesday : 11:00 AM - 02:00 AM Thursday : 11:00 AM - 03:00 AM Friday : 11:00 AM - 03:00 AM Saturday : 11:00 AM - 03:00 AM Sunday : 11:00 AM - 02:00 AM,https://www5.pizzapizza.ca/restaurant-locator/Ontario/Kitchener
https://www.pizzapizza.ca/locations/,185 King Street West,185 King Street West,Kitchener,ON,N2G1A7,CA,<MISSING>,<MISSING>,<MISSING>,<MISSING>,<MISSING>,Monday : 11:00 AM - 02:00 AM Tuesday : 11:00 AM - 02:00 AM Wednesday : 11:00 AM - 02:00 AM Thursday : 11:00 AM - 03:00 AM Friday : 11:00 AM - 03:00 AM Saturday : 11:00 AM - 03:00 AM Sunday : 11:00 AM - 02:00 AM,https://www5.pizzapizza.ca/restaurant-locator/Ontario/Kitchener
https://www.pizzapizza.ca/locations/,1020 Ottawa Street North,1020 Ottawa Street North,Kitchener,ON,N2A3Z3,CA,<MISSING>,<MISSING>,<MISSING>,<MISSING>,<MISSING>,Monday : 11:00 AM - 02:00 AM Tuesday : 11:00 AM - 02:00 AM Wednesday : 11:00 AM - 02:00 AM Thursday : 11:00 AM - 03:00 AM Friday : 11:00 AM - 03:00 AM Saturday : 11:00 AM - 03:00 AM Sunday : 11:00 AM - 02:00 AM,https://www5.pizzapizza.ca/restaurant-locator/Ontario/Kitchener
https://www.pizzapizza.ca/locations/,6A 123 Pioneer Drive,6A 123 Pioneer Drive,Kitchener,ON,N2P2A3,CA,<MISSING>,<MISSING>,<MISSING>,<MISSING>,<MISSING>,Monday : 11:00 AM - 02:00 AM Tuesday : 11:00 AM - 02:00 AM Wednesday : 11:00 AM - 02:00 AM Thursday : 11:00 AM - 03:00 AM Friday : 11:00 AM - 03:00 AM Saturday : 11:00 AM - 03:00 AM Sunday : 11:00 AM - 02:00 AM,https://www5.pizzapizza.ca/restaurant-locator/Ontario/Kitchener
https://www.pizzapizza.ca/locations/,145 Kent Street West,145 Kent Street West,Lindsay,ON,K9V2Y5,CA,<MISSING>,<MISSING>,<MISSING>,<MISSING>,<MISSING>,Monday : 11:00 AM - 11:59 PM Tuesday : 11:00 AM - 11:59 PM Wednesday : 11:00 AM - 11:59 PM Thursday : 11:00 AM - 01:00 AM Friday : 11:00 AM - 03:00 AM Saturday : 11:00 AM - 03:00 AM Sunday : 11:00 AM - 11:59 PM,https://www5.pizzapizza.ca/restaurant-locator/Ontario/Lindsay
https://www.pizzapizza.ca/locations/,150 Dundas Street,150 Dundas Street,London,ON,N6A1G3,CA,<MISSING>,<MISSING>,<MISSING>,<MISSING>,<MISSING>,Monday : 11:00 AM - 02:00 AM Tuesday : 11:00 AM - 02:00 AM Wednesday : 11:00 AM - 02:00 AM Thursday : 11:00 AM - 03:00 AM Friday : 11:00 AM - 03:00 AM Saturday : 11:00 AM - 03:00 AM Sunday : 11:00 AM - 02:00 AM,https://www5.pizzapizza.ca/restaurant-locator/Ontario/London
https://www.pizzapizza.ca/locations/,543 Dundas Street East,543 Dundas Street East,London,ON,N6B1X1,CA,<MISSING>,<MISSING>,<MISSING>,<MISSING>,<MISSING>,Monday : 11:00 AM - 02:00 AM Tuesday : 11:00 AM - 02:00 AM Wednesday : 11:00 AM - 02:00 AM Thursday : 11:00 AM - 03:00 AM Friday : 11:00 AM - 03:00 AM Saturday : 11:00 AM - 03:00 AM Sunday : 11:00 AM - 02:00 AM,https://www5.pizzapizza.ca/restaurant-locator/Ontario/London
https://www.pizzapizza.ca/locations/,1080 Adelaide Street North,1080 Adelaide Street North,London,ON,N5Y2N1,CA,<MISSING>,<MISSING>,<MISSING>,<MISSING>,<MISSING>,Monday : 11:00 AM - 02:00 AM Tuesday : 11:00 AM - 02:00 AM Wednesday : 11:00 AM - 02:00 AM Thursday : 11:00 AM - 03:00 AM Friday : 11:00 AM - 03:00 AM Saturday : 11:00 AM - 03:00 AM Sunday : 11:00 AM - 02:00 AM,https://www5.pizzapizza.ca/restaurant-locator/Ontario/London
https://www.pizzapizza.ca/locations/,395 Wellington Road South,395 Wellington Road South,London,ON,N6C4P9,CA,<MISSING>,<MISSING>,<MISSING>,<MISSING>,<MISSING>,Monday : 11:00 AM - 02:00 AM Tuesday : 11:00 AM - 02:00 AM Wednesday : 11:00 AM - 02:00 AM Thursday : 11:00 AM - 03:00 AM Friday : 11:00 AM - 03:00 AM Saturday : 11:00 AM - 03:00 AM Sunday : 11:00 AM - 02:00 AM,https://www5.pizzapizza.ca/restaurant-locator/Ontario/London
https://www.pizzapizza.ca/locations/,760 Hyde Park Road,760 Hyde Park Road,London,ON,N6H1V9,CA,<MISSING>,<MISSING>,<MISSING>,<MISSING>,<MISSING>,Monday : 11:00 AM - 02:00 AM Tuesday : 11:00 AM - 02:00 AM Wednesday : 11:00 AM - 02:00 AM Thursday : 11:00 AM - 03:00 AM Friday : 11:00 AM - 03:00 AM Saturday : 11:00 AM - 03:00 AM Sunday : 11:00 AM - 02:00 AM,https://www5.pizzapizza.ca/restaurant-locator/Ontario/London
https://www.pizzapizza.ca/locations/,1020 Wonderland Road South,1020 Wonderland Road South,London,ON,N6K3S4,CA,<MISSING>,<MISSING>,<MISSING>,<MISSING>,<MISSING>,Monday : 11:00 AM - 02:00 AM Tuesday : 11:00 AM - 02:00 AM Wednesday : 11:00 AM - 02:00 AM Thursday : 11:00 AM - 03:00 AM Friday : 11:00 AM - 03:00 AM Saturday : 11:00 AM - 03:00 AM Sunday : 11:00 AM - 02:00 AM,https://www5.pizzapizza.ca/restaurant-locator/Ontario/London
https://www.pizzapizza.ca/locations/,1225 Wonderland Road North,1225 Wonderland Road North,London,ON,N6G2V9,CA,<MISSING>,<MISSING>,<MISSING>,<MISSING>,<MISSING>,Monday : 11:00 AM - 02:00 AM Tuesday : 11:00 AM - 02:00 AM Wednesday : 11:00 AM - 02:00 AM Thursday : 11:00 AM - 03:00 AM Friday : 11:00 AM - 03:00 AM Saturday : 11:00 AM - 03:00 AM Sunday : 11:00 AM - 02:00 AM,https://www5.pizzapizza.ca/restaurant-locator/Ontario/London
https://www.pizzapizza.ca/locations/,1836 Dundas Street East,1836 Dundas Street East,London,ON,N5W3E8,CA,<MISSING>,<MISSING>,<MISSING>,<MISSING>,<MISSING>,Monday : 11:00 AM - 02:00 AM Tuesday : 11:00 AM - 02:00 AM Wednesday : 11:00 AM - 02:00 AM Thursday : 11:00 AM - 03:00 AM Friday : 11:00 AM - 03:00 AM Saturday : 11:00 AM - 03:00 AM Sunday : 11:00 AM - 02:00 AM,https://www5.pizzapizza.ca/restaurant-locator/Ontario/London
https://www.pizzapizza.ca/locations/,1275 Highbury Avenue North,1275 Highbury Avenue North,London,ON,N5Y1A8,CA,<MISSING>,<MISSING>,<MISSING>,<MISSING>,<MISSING>,Monday : 11:00 AM - 02:00 AM Tuesday : 11:00 AM - 02:00 AM Wednesday : 11:00 AM - 02:00 AM Thursday : 11:00 AM - 03:00 AM Friday : 11:00 AM - 03:00 AM Saturday : 11:00 AM - 03:00 AM Sunday : 11:00 AM - 02:00 AM,https://www5.pizzapizza.ca/restaurant-locator/Ontario/London
https://www.pizzapizza.ca/locations/,"1105 Wellington Road, White Oaks Ma","1105 Wellington Road, White Oaks Ma",London,ON,N6E1V4,CA,<MISSING>,<MISSING>,<MISSING>,<MISSING>,<MISSING>,Monday : 11:00 AM - 09:00 PM Tuesday : 11:00 AM - 09:00 PM Wednesday : 11:00 AM - 09:00 PM Thursday : 11:00 AM - 09:00 PM Friday : 11:00 AM - 09:00 PM Saturday : 11:00 AM - 09:00 PM Sunday : 12:00 PM - 05:00 PM,https://www5.pizzapizza.ca/restaurant-locator/Ontario/London
https://www.pizzapizza.ca/locations/,A 7125 Goreway Drive,A 7125 Goreway Drive,Malton,ON,L4T2T5,CA,<MISSING>,<MISSING>,<MISSING>,<MISSING>,<MISSING>,Monday : 11:00 AM - 02:00 AM Tuesday : 11:00 AM - 02:00 AM Wednesday : 11:00 AM - 02:00 AM Thursday : 11:00 AM - 03:00 AM Friday : 11:00 AM - 03:00 AM Saturday : 11:00 AM - 03:00 AM Sunday : 11:00 AM - 02:00 AM,https://www5.pizzapizza.ca/restaurant-locator/Ontario/Malton
https://www.pizzapizza.ca/locations/,1160 Beaverwood Rd,1160 Beaverwood Rd,Manotick,ON,K4M1A8,CA,<MISSING>,<MISSING>,<MISSING>,<MISSING>,<MISSING>,Monday : 11:00 AM - 02:00 AM Tuesday : 11:00 AM - 02:00 AM Wednesday : 11:00 AM - 02:00 AM Thursday : 11:00 AM - 03:00 AM Friday : 11:00 AM - 03:00 AM Saturday : 11:00 AM - 03:00 AM Sunday : 11:00 AM - 02:00 AM,https://www5.pizzapizza.ca/restaurant-locator/Ontario/Manotick
https://www.pizzapizza.ca/locations/,1 2953 Major Mackenzie Drive,1 2953 Major Mackenzie Drive,Maple,ON,L6A1R8,CA,<MISSING>,<MISSING>,<MISSING>,<MISSING>,<MISSING>,Monday : 11:00 AM - 02:00 AM Tuesday : 11:00 AM - 02:00 AM Wednesday : 11:00 AM - 02:00 AM Thursday : 11:00 AM - 03:00 AM Friday : 11:00 AM - 03:00 AM Saturday : 11:00 AM - 03:00 AM Sunday : 11:00 AM - 02:00 AM,https://www5.pizzapizza.ca/restaurant-locator/Ontario/Maple
https://www.pizzapizza.ca/locations/,4 Main Street North,4 Main Street North,Markham,ON,L3P1X2,CA,<MISSING>,<MISSING>,<MISSING>,<MISSING>,<MISSING>,Monday : 11:00 AM - 02:00 AM Tuesday : 11:00 AM - 02:00 AM Wednesday : 11:00 AM - 02:00 AM Thursday : 11:00 AM - 03:00 AM Friday : 11:00 AM - 03:00 AM Saturday : 11:00 AM - 03:00 AM Sunday : 11:00 AM - 02:00 AM,https://www5.pizzapizza.ca/restaurant-locator/Ontario/Markham
https://www.pizzapizza.ca/locations/,1B 8601 Warden Avenue,1B 8601 Warden Avenue,Markham,ON,L3R0B5,CA,<MISSING>,<MISSING>,<MISSING>,<MISSING>,<MISSING>,Monday : 11:00 AM - 02:00 AM Tuesday : 11:00 AM - 02:00 AM Wednesday : 11:00 AM - 02:00 AM Thursday : 11:00 AM - 03:00 AM Friday : 11:00 AM - 03:00 AM Saturday : 11:00 AM - 03:00 AM Sunday : 11:00 AM - 02:00 AM,https://www5.pizzapizza.ca/restaurant-locator/Ontario/Markham
https://www.pizzapizza.ca/locations/,9275 Highway 48,9275 Highway 48,Markham,ON,L6E1A1,CA,<MISSING>,<MISSING>,<MISSING>,<MISSING>,<MISSING>,Monday : 11:00 AM - 01:00 AM Tuesday : 11:00 AM - 01:00 AM Wednesday : 11:00 AM - 01:00 AM Thursday : 11:00 AM - 01:00 AM Friday : 11:00 AM - 03:00 AM Saturday : 11:00 AM - 03:00 AM Sunday : 11:00 AM - 01:00 AM,https://www5.pizzapizza.ca/restaurant-locator/Ontario/Markham
https://www.pizzapizza.ca/locations/,9255 Woodbine Avenue,9255 Woodbine Avenue,Markham,ON,L6C1Y9,CA,<MISSING>,<MISSING>,<MISSING>,<MISSING>,<MISSING>,Monday : 11:00 AM - 11:59 PM Tuesday : 11:00 AM - 11:59 PM Wednesday : 11:00 AM - 11:59 PM Thursday : 11:00 AM - 11:59 PM Friday : 11:00 AM - 03:00 AM Saturday : 11:00 AM - 03:00 AM Sunday : 11:00 AM - 11:59 PM,https://www5.pizzapizza.ca/restaurant-locator/Ontario/Markham
https://www.pizzapizza.ca/locations/,7665 Kennedy Road,7665 Kennedy Road,Markham,ON,L3R0L7,CA,<MISSING>,<MISSING>,<MISSING>,<MISSING>,<MISSING>,Monday : 11:00 AM - 12:59 AM Tuesday : 11:00 AM - 12:59 AM Wednesday : 11:00 AM - 12:59 AM Thursday : 11:00 AM - 12:59 AM Friday : 11:00 AM - 03:00 AM Saturday : 11:00 AM - 03:00 AM Sunday : 11:00 AM - 12:59 AM,https://www5.pizzapizza.ca/restaurant-locator/Ontario/Markham
https://www.pizzapizza.ca/locations/,5 9570 McCowan Road,5 9570 McCowan Road,Markham,ON,L3P8M1,CA,<MISSING>,<MISSING>,<MISSING>,<MISSING>,<MISSING>,Monday : 11:00 AM - 11:59 PM Tuesday : 11:00 AM - 11:59 PM Wednesday : 11:00 AM - 11:59 PM Thursday : 11:00 AM - 11:59 PM Friday : 11:00 AM - 03:00 AM Saturday : 11:00 AM - 03:00 AM Sunday : 11:00 AM - 11:59 PM,https://www5.pizzapizza.ca/restaurant-locator/Ontario/Markham
https://www.pizzapizza.ca/locations/,395 King Street,395 King Street,Midland,ON,L4R3N2,CA,<MISSING>,<MISSING>,<MISSING>,<MISSING>,<MISSING>,Monday : 11:00 AM - 11:59 PM Tuesday : 11:00 AM - 11:59 PM Wednesday : 11:00 AM - 11:59 PM Thursday : 11:00 AM - 01:00 AM Friday : 11:00 AM - 03:00 AM Saturday : 11:00 AM - 03:00 AM Sunday : 11:00 AM - 11:59 PM,https://www5.pizzapizza.ca/restaurant-locator/Ontario/Midland
https://www.pizzapizza.ca/locations/,3 500 Laurier Avenue,3 500 Laurier Avenue,Milton,ON,L9T4R3,CA,<MISSING>,<MISSING>,<MISSING>,<MISSING>,<MISSING>,Monday : 11:00 AM - 01:00 AM Tuesday : 11:00 AM - 01:00 AM Wednesday : 11:00 AM - 01:00 AM Thursday : 11:00 AM - 01:00 AM Friday : 11:00 AM - 03:00 AM Saturday : 11:00 AM - 03:00 AM Sunday : 11:00 AM - 01:00 AM,https://www5.pizzapizza.ca/restaurant-locator/Ontario/Milton
https://www.pizzapizza.ca/locations/,6521 Derry Road West,6521 Derry Road West,Milton,ON,L9T7W1,CA,<MISSING>,<MISSING>,<MISSING>,<MISSING>,<MISSING>,Monday : 11:00 AM - 01:00 AM Tuesday : 11:00 AM - 01:00 AM Wednesday : 11:00 AM - 01:00 AM Thursday : 11:00 AM - 01:00 AM Friday : 11:00 AM - 03:00 AM Saturday : 11:00 AM - 03:00 AM Sunday : 11:00 AM - 01:00 AM,https://www5.pizzapizza.ca/restaurant-locator/Ontario/Milton
https://www.pizzapizza.ca/locations/,3960 Grand Park Drive,3960 Grand Park Drive,Mississauga,ON,L5B4M6,CA,<MISSING>,<MISSING>,<MISSING>,<MISSING>,<MISSING>,Monday : 11:00 AM - 02:00 AM Tuesday : 11:00 AM - 02:00 AM Wednesday : 11:00 AM - 02:00 AM Thursday : 11:00 AM - 03:00 AM Friday : 11:00 AM - 03:00 AM Saturday : 11:00 AM - 03:00 AM Sunday : 11:00 AM - 02:00 AM,https://www5.pizzapizza.ca/restaurant-locator/Ontario/Mississauga
https://www.pizzapizza.ca/locations/,4120 Dixie Rd.,4120 Dixie Rd.,Mississauga,ON,L4W4V8,CA,<MISSING>,<MISSING>,<MISSING>,<MISSING>,<MISSING>,Monday : 11:00 AM - 02:00 AM Tuesday : 11:00 AM - 02:00 AM Wednesday : 11:00 AM - 02:00 AM Thursday : 11:00 AM - 03:00 AM Friday : 11:00 AM - 03:00 AM Saturday : 11:00 AM - 03:00 AM Sunday : 11:00 AM - 02:00 AM,https://www5.pizzapizza.ca/restaurant-locator/Ontario/Mississauga
https://www.pizzapizza.ca/locations/,6277 Mississauga Road,6277 Mississauga Road,Mississauga,ON,L5N1A5,CA,<MISSING>,<MISSING>,<MISSING>,<MISSING>,<MISSING>,Monday : 11:00 AM - 02:00 AM Tuesday : 11:00 AM - 02:00 AM Wednesday : 11:00 AM - 02:00 AM Thursday : 11:00 AM - 02:00 AM Friday : 11:00 AM - 03:00 AM Saturday : 11:00 AM - 03:00 AM Sunday : 11:00 AM - 02:00 AM,https://www5.pizzapizza.ca/restaurant-locator/Ontario/Mississauga
https://www.pizzapizza.ca/locations/,114 Lakeshore Road East,114 Lakeshore Road East,Mississauga,ON,L5G1E4,CA,<MISSING>,<MISSING>,<MISSING>,<MISSING>,<MISSING>,Monday : 11:00 AM - 02:00 AM Tuesday : 11:00 AM - 02:00 AM Wednesday : 11:00 AM - 02:00 AM Thursday : 11:00 AM - 03:00 AM Friday : 11:00 AM - 03:00 AM Saturday : 11:00 AM - 03:00 AM Sunday : 11:00 AM - 02:00 AM,https://www5.pizzapizza.ca/restaurant-locator/Ontario/Mississauga
https://www.pizzapizza.ca/locations/,710 Burnhamthorpe Road East,710 Burnhamthorpe Road East,Mississauga,ON,L4Y2X3,CA,<MISSING>,<MISSING>,<MISSING>,<MISSING>,<MISSING>,Monday : 11:00 AM - 02:00 AM Tuesday : 11:00 AM - 02:00 AM Wednesday : 11:00 AM - 02:00 AM Thursday : 11:00 AM - 03:00 AM Friday : 11:00 AM - 03:00 AM Saturday : 11:00 AM - 03:00 AM Sunday : 11:00 AM - 02:00 AM,https://www5.pizzapizza.ca/restaurant-locator/Ontario/Mississauga
https://www.pizzapizza.ca/locations/,2273 Dundas Street West,2273 Dundas Street West,Mississauga,ON,L5K2L8,CA,<MISSING>,<MISSING>,<MISSING>,<MISSING>,<MISSING>,Monday : 11:00 AM - 02:00 AM Tuesday : 11:00 AM - 02:00 AM Wednesday : 11:00 AM - 02:00 AM Thursday : 11:00 AM - 03:00 AM Friday : 11:00 AM - 03:00 AM Saturday : 11:00 AM - 03:00 AM Sunday : 11:00 AM - 02:00 AM,https://www5.pizzapizza.ca/restaurant-locator/Ontario/Mississauga
https://www.pizzapizza.ca/locations/,19 1375 Southdown Road,19 1375 Southdown Road,Mississauga,ON,L5J2Z1,CA,<MISSING>,<MISSING>,<MISSING>,<MISSING>,<MISSING>,Monday : 11:00 AM - 02:00 AM Tuesday : 11:00 AM - 02:00 AM Wednesday : 11:00 AM - 02:00 AM Thursday : 11:00 AM - 03:00 AM Friday : 11:00 AM - 03:00 AM Saturday : 11:00 AM - 03:00 AM Sunday : 11:00 AM - 02:00 AM,https://www5.pizzapizza.ca/restaurant-locator/Ontario/Mississauga
https://www.pizzapizza.ca/locations/,1093 Dundas Street West,1093 Dundas Street West,Mississauga,ON,L5C1C4,CA,<MISSING>,<MISSING>,<MISSING>,<MISSING>,<MISSING>,Monday : 11:00 AM - 02:00 AM Tuesday : 11:00 AM - 02:00 AM Wednesday : 11:00 AM - 02:00 AM Thursday : 11:00 AM - 03:00 AM Friday : 11:00 AM - 03:00 AM Saturday : 11:00 AM - 03:00 AM Sunday : 11:00 AM - 02:00 AM,https://www5.pizzapizza.ca/restaurant-locator/Ontario/Mississauga
https://www.pizzapizza.ca/locations/,2500 Hurontario Street,2500 Hurontario Street,Mississauga,ON,L5B1N4,CA,<MISSING>,<MISSING>,<MISSING>,<MISSING>,<MISSING>,Monday : 11:00 AM - 02:00 AM Tuesday : 11:00 AM - 02:00 AM Wednesday : 11:00 AM - 02:00 AM Thursday : 11:00 AM - 03:00 AM Friday : 11:00 AM - 03:00 AM Saturday : 11:00 AM - 03:00 AM Sunday : 11:00 AM - 02:00 AM,https://www5.pizzapizza.ca/restaurant-locator/Ontario/Mississauga
https://www.pizzapizza.ca/locations/,2760 Derry Road West,2760 Derry Road West,Mississauga,ON,L5N2R4,CA,<MISSING>,<MISSING>,<MISSING>,<MISSING>,<MISSING>,Monday : 11:00 AM - 02:00 AM Tuesday : 11:00 AM - 02:00 AM Wednesday : 11:00 AM - 02:00 AM Thursday : 11:00 AM - 03:00 AM Friday : 11:00 AM - 03:00 AM Saturday : 11:00 AM - 03:00 AM Sunday : 11:00 AM - 02:00 AM,https://www5.pizzapizza.ca/restaurant-locator/Ontario/Mississauga
https://www.pizzapizza.ca/locations/,560B 1642 Merivale Road,560B 1642 Merivale Road,Nepean,ON,K2G4A1,CA,<MISSING>,<MISSING>,<MISSING>,<MISSING>,<MISSING>,Monday : 11:00 AM - 12:59 AM Tuesday : 11:00 AM - 12:59 AM Wednesday : 11:00 AM - 12:59 AM Thursday : 11:00 AM - 03:00 AM Friday : 11:00 AM - 03:00 AM Saturday : 11:00 AM - 03:00 AM Sunday : 11:00 AM - 12:59 AM,https://www5.pizzapizza.ca/restaurant-locator/Ontario/Nepean
https://www.pizzapizza.ca/locations/,1826 ROBERTSON ROAD,1826 ROBERTSON ROAD,Nepean,ON,K2H5Z6,CA,<MISSING>,<MISSING>,<MISSING>,<MISSING>,<MISSING>,Monday : 11:00 AM - 11:59 PM Tuesday : 11:00 AM - 11:59 PM Wednesday : 11:00 AM - 11:59 PM Thursday : 11:00 AM - 11:59 PM Friday : 11:00 AM - 03:00 AM Saturday : 11:00 AM - 03:00 AM Sunday : 11:00 AM - 11:59 PM,https://www5.pizzapizza.ca/restaurant-locator/Ontario/Nepean
https://www.pizzapizza.ca/locations/,29 Whitewood Avenue West,29 Whitewood Avenue West,New Liskeard,ON,P0J1P0,CA,<MISSING>,<MISSING>,<MISSING>,<MISSING>,<MISSING>,Monday : 11:00 AM - 11:59 PM Tuesday : 11:00 AM - 11:59 PM Wednesday : 11:00 AM - 11:59 PM Thursday : 11:00 AM - 01:00 AM Friday : 11:00 AM - 03:00 AM Saturday : 11:00 AM - 03:00 AM Sunday : 11:00 AM - 11:59 PM,https://www5.pizzapizza.ca/restaurant-locator/Ontario/New_Liskeard
https://www.pizzapizza.ca/locations/,17906 Yonge Street,17906 Yonge Street,Newmarket,ON,L3Y8S1,CA,<MISSING>,<MISSING>,<MISSING>,<MISSING>,<MISSING>,Monday : 11:00 AM - 02:00 AM Tuesday : 11:00 AM - 02:00 AM Wednesday : 11:00 AM - 02:00 AM Thursday : 11:00 AM - 03:00 AM Friday : 11:00 AM - 03:00 AM Saturday : 11:00 AM - 03:00 AM Sunday : 11:00 AM - 02:00 AM,https://www5.pizzapizza.ca/restaurant-locator/Ontario/Newmarket
https://www.pizzapizza.ca/locations/,759 Davis Drive East,759 Davis Drive East,Newmarket,ON,L3Y2R4,CA,<MISSING>,<MISSING>,<MISSING>,<MISSING>,<MISSING>,Monday : 11:00 AM - 11:59 PM Tuesday : 11:00 AM - 11:59 PM Wednesday : 11:00 AM - 11:59 PM Thursday : 11:00 AM - 11:59 PM Friday : 11:00 AM - 03:00 AM Saturday : 11:00 AM - 03:00 AM Sunday : 11:00 AM - 11:59 PM,https://www5.pizzapizza.ca/restaurant-locator/Ontario/Newmarket
https://www.pizzapizza.ca/locations/,13-14 869 Mulock Drive,13-14 869 Mulock Drive,Newmarket,ON,L3Y8S3,CA,<MISSING>,<MISSING>,<MISSING>,<MISSING>,<MISSING>,Monday : 11:00 AM - 02:00 AM Tuesday : 11:00 AM - 02:00 AM Wednesday : 11:00 AM - 02:00 AM Thursday : 11:00 AM - 03:00 AM Friday : 11:00 AM - 03:00 AM Saturday : 11:00 AM - 03:00 AM Sunday : 11:00 AM - 02:00 AM,https://www5.pizzapizza.ca/restaurant-locator/Ontario/Newmarket
https://www.pizzapizza.ca/locations/,5 16640 Yonge Street,5 16640 Yonge Street,Newmarket,ON,L3X1V6,CA,<MISSING>,<MISSING>,<MISSING>,<MISSING>,<MISSING>,Monday : 11:00 AM - 11:59 PM Tuesday : 11:00 AM - 11:59 PM Wednesday : 11:00 AM - 11:59 PM Thursday : 11:00 AM - 11:59 PM Friday : 11:00 AM - 03:00 AM Saturday : 11:00 AM - 03:00 AM Sunday : 11:00 AM - 11:59 PM,https://www5.pizzapizza.ca/restaurant-locator/Ontario/Newmarket
https://www.pizzapizza.ca/locations/,6225 Lundy's Lane,6225 Lundy's Lane,Niagara Falls,ON,L2G1T5,CA,<MISSING>,<MISSING>,<MISSING>,<MISSING>,<MISSING>,Monday : 11:00 AM - 02:00 AM Tuesday : 11:00 AM - 02:00 AM Wednesday : 11:00 AM - 02:00 AM Thursday : 11:00 AM - 03:00 AM Friday : 11:00 AM - 03:00 AM Saturday : 11:00 AM - 03:00 AM Sunday : 11:00 AM - 02:00 AM,https://www5.pizzapizza.ca/restaurant-locator/Ontario/Niagara_Falls
https://www.pizzapizza.ca/locations/,30 3642 Portage Road,30 3642 Portage Road,Niagara Falls,ON,L2J2K8,CA,<MISSING>,<MISSING>,<MISSING>,<MISSING>,<MISSING>,Monday : 11:00 AM - 02:00 AM Tuesday : 11:00 AM - 02:00 AM Wednesday : 11:00 AM - 02:00 AM Thursday : 11:00 AM - 03:00 AM Friday : 11:00 AM - 03:00 AM Saturday : 11:00 AM - 03:00 AM Sunday : 11:00 AM - 02:00 AM,https://www5.pizzapizza.ca/restaurant-locator/Ontario/Niagara_Falls
https://www.pizzapizza.ca/locations/,495 York Road,495 York Road,Niagara-On-The-Lake,ON,L0S1J0,CA,<MISSING>,<MISSING>,<MISSING>,<MISSING>,<MISSING>,Monday : 11:00 AM - 10:00 PM Tuesday : 11:00 AM - 10:00 PM Wednesday : 11:00 AM - 10:00 PM Thursday : 11:00 AM - 10:00 PM Friday : 11:00 AM - 10:00 PM Saturday : 11:00 AM - 10:00 PM Sunday : 11:00 AM - 10:00 PM,https://www5.pizzapizza.ca/restaurant-locator/Ontario/Niagara-On-The-Lake
https://www.pizzapizza.ca/locations/,100 Main Street West,100 Main Street West,North Bay,ON,P1B2T5,CA,<MISSING>,<MISSING>,<MISSING>,<MISSING>,<MISSING>,Monday : 11:00 AM - 11:59 PM Tuesday : 11:00 AM - 11:59 PM Wednesday : 11:00 AM - 11:59 PM Thursday : 11:00 AM - 11:59 PM Friday : 11:00 AM - 02:00 AM Saturday : 11:00 AM - 02:00 AM Sunday : 11:00 AM - 11:59 PM,https://www5.pizzapizza.ca/restaurant-locator/Ontario/North_Bay
https://www.pizzapizza.ca/locations/,2297 Lakeshore Road West,2297 Lakeshore Road West,Oakville,ON,L6L1H2,CA,<MISSING>,<MISSING>,<MISSING>,<MISSING>,<MISSING>,Monday : 11:00 AM - 02:00 AM Tuesday : 11:00 AM - 02:00 AM Wednesday : 11:00 AM - 02:00 AM Thursday : 11:00 AM - 03:00 AM Friday : 11:00 AM - 03:00 AM Saturday : 11:00 AM - 03:00 AM Sunday : 11:00 AM - 02:00 AM,https://www5.pizzapizza.ca/restaurant-locator/Ontario/Oakville
https://www.pizzapizza.ca/locations/,482 Dundas Street West,482 Dundas Street West,Oakville,ON,L6J5A8,CA,<MISSING>,<MISSING>,<MISSING>,<MISSING>,<MISSING>,Monday : 11:00 AM - 11:59 PM Tuesday : 11:00 AM - 11:59 PM Wednesday : 11:00 AM - 11:59 PM Thursday : 11:00 AM - 02:00 AM Friday : 11:00 AM - 03:00 AM Saturday : 11:00 AM - 03:00 AM Sunday : 11:00 AM - 11:59 PM,https://www5.pizzapizza.ca/restaurant-locator/Ontario/Oakville
https://www.pizzapizza.ca/locations/,1152 Winston Churchill blvd.,1152 Winston Churchill blvd.,Oakville,ON,L6J0A3,CA,<MISSING>,<MISSING>,<MISSING>,<MISSING>,<MISSING>,Monday : 11:00 AM - 02:00 AM Tuesday : 11:00 AM - 02:00 AM Wednesday : 11:00 AM - 02:00 AM Thursday : 11:00 AM - 03:00 AM Friday : 11:00 AM - 03:00 AM Saturday : 11:00 AM - 03:00 AM Sunday : 11:00 AM - 02:00 AM,https://www5.pizzapizza.ca/restaurant-locator/Ontario/Oakville
https://www.pizzapizza.ca/locations/,1500 Upper Middle Road West,1500 Upper Middle Road West,Oakville,ON,L6M3G3,CA,<MISSING>,<MISSING>,<MISSING>,<MISSING>,<MISSING>,Monday : 11:00 AM - 11:59 PM Tuesday : 11:00 AM - 11:59 PM Wednesday : 11:00 AM - 11:59 PM Thursday : 11:00 AM - 11:59 PM Friday : 11:00 AM - 03:00 AM Saturday : 11:00 AM - 03:00 AM Sunday : 11:00 AM - 11:59 PM,https://www5.pizzapizza.ca/restaurant-locator/Ontario/Oakville
https://www.pizzapizza.ca/locations/,C 1011 Upper Middle Road East,C 1011 Upper Middle Road East,Oakville,ON,L6H4L2,CA,<MISSING>,<MISSING>,<MISSING>,<MISSING>,<MISSING>,Monday : 11:00 AM - 02:00 AM Tuesday : 11:00 AM - 02:00 AM Wednesday : 11:00 AM - 02:00 AM Thursday : 11:00 AM - 03:00 AM Friday : 11:00 AM - 03:00 AM Saturday : 11:00 AM - 03:00 AM Sunday : 11:00 AM - 02:00 AM,https://www5.pizzapizza.ca/restaurant-locator/Ontario/Oakville
https://www.pizzapizza.ca/locations/,B7 2525 Prince Michael Drive,B7 2525 Prince Michael Drive,Oakville,ON,L6H7E4,CA,<MISSING>,<MISSING>,<MISSING>,<MISSING>,<MISSING>,Monday : 11:00 AM - 02:00 AM Tuesday : 11:00 AM - 02:00 AM Wednesday : 11:00 AM - 02:00 AM Thursday : 11:00 AM - 03:00 AM Friday : 11:00 AM - 03:00 AM Saturday : 11:00 AM - 03:00 AM Sunday : 11:00 AM - 02:00 AM,https://www5.pizzapizza.ca/restaurant-locator/Ontario/Oakville
https://www.pizzapizza.ca/locations/,210 Broadway Avenue,210 Broadway Avenue,Orangeville,ON,L9W5G4,CA,<MISSING>,<MISSING>,<MISSING>,<MISSING>,<MISSING>,Monday : 11:00 AM - 02:00 AM Tuesday : 11:00 AM - 02:00 AM Wednesday : 11:00 AM - 02:00 AM Thursday : 11:00 AM - 03:00 AM Friday : 11:00 AM - 03:00 AM Saturday : 11:00 AM - 03:00 AM Sunday : 11:00 AM - 02:00 AM,https://www5.pizzapizza.ca/restaurant-locator/Ontario/Orangeville
https://www.pizzapizza.ca/locations/,82 Mississauga Street East,82 Mississauga Street East,Orillia,ON,L3V1V6,CA,<MISSING>,<MISSING>,<MISSING>,<MISSING>,<MISSING>,Monday : 11:00 AM - 11:59 PM Tuesday : 11:00 AM - 11:59 PM Wednesday : 11:00 AM - 11:59 PM Thursday : 11:00 AM - 01:00 AM Friday : 11:00 AM - 03:00 AM Saturday : 11:00 AM - 03:00 AM Sunday : 11:00 AM - 11:59 PM,https://www5.pizzapizza.ca/restaurant-locator/Ontario/Orillia
https://www.pizzapizza.ca/locations/,2369 St Joseph Boulevard,2369 St Joseph Boulevard,Orleans,ON,K1C2E3,CA,<MISSING>,<MISSING>,<MISSING>,<MISSING>,<MISSING>,Monday : 11:00 AM - 11:59 PM Tuesday : 11:00 AM - 11:59 PM Wednesday : 11:00 AM - 11:59 PM Thursday : 11:00 AM - 11:59 PM Friday : 11:00 AM - 03:00 AM Saturday : 11:00 AM - 03:00 AM Sunday : 11:00 AM - 11:59 PM,https://www5.pizzapizza.ca/restaurant-locator/Ontario/Orleans
https://www.pizzapizza.ca/locations/,1958 Portobello Boulevard,1958 Portobello Boulevard,Orleans,ON,K4A4E7,CA,<MISSING>,<MISSING>,<MISSING>,<MISSING>,<MISSING>,Monday : 11:00 AM - 02:00 AM Tuesday : 11:00 AM - 02:00 AM Wednesday : 11:00 AM - 02:00 AM Thursday : 11:00 AM - 03:00 AM Friday : 11:00 AM - 03:00 AM Saturday : 11:00 AM - 03:00 AM Sunday : 11:00 AM - 02:00 AM,https://www5.pizzapizza.ca/restaurant-locator/Ontario/Orleans
https://www.pizzapizza.ca/locations/,129 King Street East,129 King Street East,Oshawa,ON,L1H1C2,CA,<MISSING>,<MISSING>,<MISSING>,<MISSING>,<MISSING>,Monday : 11:00 AM - 02:00 AM Tuesday : 11:00 AM - 02:00 AM Wednesday : 11:00 AM - 02:00 AM Thursday : 11:00 AM - 03:00 AM Friday : 11:00 AM - 03:00 AM Saturday : 11:00 AM - 03:00 AM Sunday : 11:00 AM - 02:00 AM,https://www5.pizzapizza.ca/restaurant-locator/Ontario/Oshawa
https://www.pizzapizza.ca/locations/,300 Taunton Road East,300 Taunton Road East,Oshawa,ON,L1G7T4,CA,<MISSING>,<MISSING>,<MISSING>,<MISSING>,<MISSING>,Monday : 11:00 AM - 02:00 AM Tuesday : 11:00 AM - 02:00 AM Wednesday : 11:00 AM - 02:00 AM Thursday : 11:00 AM - 03:00 AM Friday : 11:00 AM - 03:00 AM Saturday : 11:00 AM - 03:00 AM Sunday : 11:00 AM - 02:00 AM,https://www5.pizzapizza.ca/restaurant-locator/Ontario/Oshawa
https://www.pizzapizza.ca/locations/,532 Simcoe Street South,532 Simcoe Street South,Oshawa,ON,L1H4J8,CA,<MISSING>,<MISSING>,<MISSING>,<MISSING>,<MISSING>,Monday : 11:00 AM - 02:00 AM Tuesday : 11:00 AM - 02:00 AM Wednesday : 11:00 AM - 02:00 AM Thursday : 11:00 AM - 03:00 AM Friday : 11:00 AM - 03:00 AM Saturday : 11:00 AM - 03:00 AM Sunday : 11:00 AM - 02:00 AM,https://www5.pizzapizza.ca/restaurant-locator/Ontario/Oshawa
https://www.pizzapizza.ca/locations/,621 King Street East,621 King Street East,Oshawa,ON,L1H1G3,CA,<MISSING>,<MISSING>,<MISSING>,<MISSING>,<MISSING>,Monday : 11:00 AM - 02:00 AM Tuesday : 11:00 AM - 02:00 AM Wednesday : 11:00 AM - 02:00 AM Thursday : 11:00 AM - 03:00 AM Friday : 11:00 AM - 03:00 AM Saturday : 11:00 AM - 03:00 AM Sunday : 11:00 AM - 02:00 AM,https://www5.pizzapizza.ca/restaurant-locator/Ontario/Oshawa
https://www.pizzapizza.ca/locations/,14 199 Wentworth Street West,14 199 Wentworth Street West,Oshawa,ON,L1J6P4,CA,<MISSING>,<MISSING>,<MISSING>,<MISSING>,<MISSING>,Monday : 11:00 AM - 11:59 PM Tuesday : 11:00 AM - 11:59 PM Wednesday : 11:00 AM - 11:59 PM Thursday : 11:00 AM - 03:00 AM Friday : 11:00 AM - 03:00 AM Saturday : 11:00 AM - 03:00 AM Sunday : 11:00 AM - 11:59 PM,https://www5.pizzapizza.ca/restaurant-locator/Ontario/Oshawa
https://www.pizzapizza.ca/locations/,1335 King Street East,1335 King Street East,Oshawa,ON,L1H1J3,CA,<MISSING>,<MISSING>,<MISSING>,<MISSING>,<MISSING>,Monday : 11:00 AM - 02:00 AM Tuesday : 11:00 AM - 02:00 AM Wednesday : 11:00 AM - 02:00 AM Thursday : 11:00 AM - 03:00 AM Friday : 11:00 AM - 03:00 AM Saturday : 11:00 AM - 03:00 AM Sunday : 11:00 AM - 02:00 AM,https://www5.pizzapizza.ca/restaurant-locator/Ontario/Oshawa
https://www.pizzapizza.ca/locations/,500 Rossland Road West,500 Rossland Road West,Oshawa,ON,L1J3H2,CA,<MISSING>,<MISSING>,<MISSING>,<MISSING>,<MISSING>,Monday : 11:00 AM - 02:00 AM Tuesday : 11:00 AM - 02:00 AM Wednesday : 11:00 AM - 02:00 AM Thursday : 11:00 AM - 03:00 AM Friday : 11:00 AM - 03:00 AM Saturday : 11:00 AM - 03:00 AM Sunday : 11:00 AM - 02:00 AM,https://www5.pizzapizza.ca/restaurant-locator/Ontario/Oshawa
https://www.pizzapizza.ca/locations/,766 Tauton Rd. East,766 Tauton Rd. East,Oshawa,ON,L1H7K5,CA,<MISSING>,<MISSING>,<MISSING>,<MISSING>,<MISSING>,Monday : 11:00 AM - 02:00 AM Tuesday : 11:00 AM - 02:00 AM Wednesday : 11:00 AM - 02:00 AM Thursday : 11:00 AM - 03:00 AM Friday : 11:00 AM - 03:00 AM Saturday : 11:00 AM - 03:00 AM Sunday : 11:00 AM - 02:00 AM,https://www5.pizzapizza.ca/restaurant-locator/Ontario/Oshawa
https://www.pizzapizza.ca/locations/,336 Rideau Street,336 Rideau Street,Ottawa,ON,K1N5Y5,CA,<MISSING>,<MISSING>,<MISSING>,<MISSING>,<MISSING>,Monday : 11:00 AM - 02:00 AM Tuesday : 11:00 AM - 02:00 AM Wednesday : 11:00 AM - 02:00 AM Thursday : 11:00 AM - 03:00 AM Friday : 11:00 AM - 03:00 AM Saturday : 11:00 AM - 03:00 AM Sunday : 11:00 AM - 02:00 AM,https://www5.pizzapizza.ca/restaurant-locator/Ontario/Ottawa
https://www.pizzapizza.ca/locations/,1779 Carling Avenue,1779 Carling Avenue,Ottawa,ON,K2A1C9,CA,<MISSING>,<MISSING>,<MISSING>,<MISSING>,<MISSING>,Monday : 11:00 AM - 12:59 AM Tuesday : 11:00 AM - 12:59 AM Wednesday : 11:00 AM - 12:59 AM Thursday : 11:00 AM - 03:00 AM Friday : 11:00 AM - 03:00 AM Saturday : 11:00 AM - 03:00 AM Sunday : 11:00 AM - 12:59 AM,https://www5.pizzapizza.ca/restaurant-locator/Ontario/Ottawa
https://www.pizzapizza.ca/locations/,1191 St Laurent Boulevard,1191 St Laurent Boulevard,Ottawa,ON,K1K3B7,CA,<MISSING>,<MISSING>,<MISSING>,<MISSING>,<MISSING>,Monday : 11:00 AM - 12:59 AM Tuesday : 11:00 AM - 12:59 AM Wednesday : 11:00 AM - 12:59 AM Thursday : 11:00 AM - 03:00 AM Friday : 11:00 AM - 03:00 AM Saturday : 11:00 AM - 03:00 AM Sunday : 11:00 AM - 12:59 AM,https://www5.pizzapizza.ca/restaurant-locator/Ontario/Ottawa
https://www.pizzapizza.ca/locations/,E 320 McArthur Avenue,E 320 McArthur Avenue,Ottawa,ON,K1L5G2,CA,<MISSING>,<MISSING>,<MISSING>,<MISSING>,<MISSING>,Monday : 11:00 AM - 02:00 AM Tuesday : 11:00 AM - 02:00 AM Wednesday : 11:00 AM - 02:00 AM Thursday : 11:00 AM - 03:00 AM Friday : 11:00 AM - 03:00 AM Saturday : 11:00 AM - 03:00 AM Sunday : 11:00 AM - 02:00 AM,https://www5.pizzapizza.ca/restaurant-locator/Ontario/Ottawa
https://www.pizzapizza.ca/locations/,1197 Wellington Street,1197 Wellington Street,Ottawa,ON,K1Y2Z8,CA,<MISSING>,<MISSING>,<MISSING>,<MISSING>,<MISSING>,Monday : 11:00 AM - 02:00 AM Tuesday : 11:00 AM - 02:00 AM Wednesday : 11:00 AM - 02:00 AM Thursday : 11:00 AM - 03:00 AM Friday : 11:00 AM - 03:00 AM Saturday : 11:00 AM - 03:00 AM Sunday : 11:00 AM - 02:00 AM,https://www5.pizzapizza.ca/restaurant-locator/Ontario/Ottawa
https://www.pizzapizza.ca/locations/,230 Elgin Street,230 Elgin Street,Ottawa,ON,K2P1L7,CA,<MISSING>,<MISSING>,<MISSING>,<MISSING>,<MISSING>,Monday : 11:00 AM - 12:59 AM Tuesday : 11:00 AM - 12:59 AM Wednesday : 11:00 AM - 12:59 AM Thursday : 11:00 AM - 03:00 AM Friday : 11:00 AM - 03:00 AM Saturday : 11:00 AM - 03:00 AM Sunday : 11:00 AM - 12:59 AM,https://www5.pizzapizza.ca/restaurant-locator/Ontario/Ottawa
https://www.pizzapizza.ca/locations/,1338 Richmond Road,1338 Richmond Road,Ottawa,ON,K2B8L4,CA,<MISSING>,<MISSING>,<MISSING>,<MISSING>,<MISSING>,Monday : 11:00 AM - 12:59 AM Tuesday : 11:00 AM - 12:59 AM Wednesday : 11:00 AM - 12:59 AM Thursday : 11:00 AM - 03:00 AM Friday : 11:00 AM - 03:00 AM Saturday : 11:00 AM - 03:00 AM Sunday : 11:00 AM - 12:59 AM,https://www5.pizzapizza.ca/restaurant-locator/Ontario/Ottawa
https://www.pizzapizza.ca/locations/,933 Bank Street,933 Bank Street,Ottawa,ON,K1S3W5,CA,<MISSING>,<MISSING>,<MISSING>,<MISSING>,<MISSING>,Monday : 11:00 AM - 12:59 AM Tuesday : 11:00 AM - 12:59 AM Wednesday : 11:00 AM - 12:59 AM Thursday : 11:00 AM - 03:00 AM Friday : 11:00 AM - 03:00 AM Saturday : 11:00 AM - 03:00 AM Sunday : 11:00 AM - 12:59 AM,https://www5.pizzapizza.ca/restaurant-locator/Ontario/Ottawa
https://www.pizzapizza.ca/locations/,1717 Bank Street,1717 Bank Street,Ottawa,ON,K1S3Y2,CA,<MISSING>,<MISSING>,<MISSING>,<MISSING>,<MISSING>,Monday : 11:00 AM - 02:00 AM Tuesday : 11:00 AM - 02:00 AM Wednesday : 11:00 AM - 02:00 AM Thursday : 11:00 AM - 03:00 AM Friday : 11:00 AM - 03:00 AM Saturday : 11:00 AM - 03:00 AM Sunday : 11:00 AM - 02:00 AM,https://www5.pizzapizza.ca/restaurant-locator/Ontario/Ottawa
https://www.pizzapizza.ca/locations/,2515 Bank Street,2515 Bank Street,Ottawa,ON,K1V8R9,CA,<MISSING>,<MISSING>,<MISSING>,<MISSING>,<MISSING>,Monday : 11:00 AM - 02:00 AM Tuesday : 11:00 AM - 02:00 AM Wednesday : 11:00 AM - 02:00 AM Thursday : 11:00 AM - 03:00 AM Friday : 11:00 AM - 03:00 AM Saturday : 11:00 AM - 03:00 AM Sunday : 11:00 AM - 02:00 AM,https://www5.pizzapizza.ca/restaurant-locator/Ontario/Ottawa
https://www.pizzapizza.ca/locations/,908 2nd Avenue East,908 2nd Avenue East,Owen Sound,ON,N4K2H6,CA,<MISSING>,<MISSING>,<MISSING>,<MISSING>,<MISSING>,Monday : 11:00 AM - 02:00 AM Tuesday : 11:00 AM - 02:00 AM Wednesday : 11:00 AM - 02:00 AM Thursday : 11:00 AM - 03:00 AM Friday : 11:00 AM - 03:00 AM Saturday : 11:00 AM - 03:00 AM Sunday : 11:00 AM - 02:00 AM,https://www5.pizzapizza.ca/restaurant-locator/Ontario/Owen_Sound
https://www.pizzapizza.ca/locations/,32 Pembroke Street West,32 Pembroke Street West,Pembroke,ON,K8A5M3,CA,<MISSING>,<MISSING>,<MISSING>,<MISSING>,<MISSING>,Monday : 11:00 AM - 11:59 PM Tuesday : 11:00 AM - 11:59 PM Wednesday : 11:00 AM - 11:59 PM Thursday : 11:00 AM - 11:59 PM Friday : 11:00 AM - 03:00 AM Saturday : 11:00 AM - 03:00 AM Sunday : 11:00 AM - 11:59 PM,https://www5.pizzapizza.ca/restaurant-locator/Ontario/Pembroke
https://www.pizzapizza.ca/locations/,1011 Victoria Street,1011 Victoria Street,Petawawa,ON,K8H2E2,CA,<MISSING>,<MISSING>,<MISSING>,<MISSING>,<MISSING>,Monday : 11:00 AM - 11:59 PM Tuesday : 11:00 AM - 11:59 PM Wednesday : 11:00 AM - 11:59 PM Thursday : 11:00 AM - 11:59 PM Friday : 11:00 AM - 03:00 AM Saturday : 11:00 AM - 03:00 AM Sunday : 11:00 AM - 11:59 PM,https://www5.pizzapizza.ca/restaurant-locator/Ontario/Petawawa
https://www.pizzapizza.ca/locations/,1080 Lansdowne Street West,1080 Lansdowne Street West,Peterborough,ON,K9J1Z9,CA,<MISSING>,<MISSING>,<MISSING>,<MISSING>,<MISSING>,Monday : 11:00 AM - 02:00 AM Tuesday : 11:00 AM - 02:00 AM Wednesday : 11:00 AM - 02:00 AM Thursday : 11:00 AM - 03:00 AM Friday : 11:00 AM - 03:00 AM Saturday : 11:00 AM - 03:00 AM Sunday : 11:00 AM - 02:00 AM,https://www5.pizzapizza.ca/restaurant-locator/Ontario/Peterborough
https://www.pizzapizza.ca/locations/,8 91 George Street North,8 91 George Street North,Peterborough,ON,K9J3G3,CA,<MISSING>,<MISSING>,<MISSING>,<MISSING>,<MISSING>,Monday : 11:00 AM - 02:00 AM Tuesday : 11:00 AM - 02:00 AM Wednesday : 11:00 AM - 02:00 AM Thursday : 11:00 AM - 03:00 AM Friday : 11:00 AM - 03:00 AM Saturday : 11:00 AM - 03:00 AM Sunday : 11:00 AM - 02:00 AM,https://www5.pizzapizza.ca/restaurant-locator/Ontario/Peterborough
https://www.pizzapizza.ca/locations/,871 Chemong Road,871 Chemong Road,Peterborough,ON,K9H5Z5,CA,<MISSING>,<MISSING>,<MISSING>,<MISSING>,<MISSING>,Monday : 11:00 AM - 02:00 AM Tuesday : 11:00 AM - 02:00 AM Wednesday : 11:00 AM - 02:00 AM Thursday : 11:00 AM - 03:00 AM Friday : 11:00 AM - 03:00 AM Saturday : 11:00 AM - 03:00 AM Sunday : 11:00 AM - 02:00 AM,https://www5.pizzapizza.ca/restaurant-locator/Ontario/Peterborough
https://www.pizzapizza.ca/locations/,1450 Kingston Road,1450 Kingston Road,Pickering,ON,L1V1C1,CA,<MISSING>,<MISSING>,<MISSING>,<MISSING>,<MISSING>,Monday : 11:00 AM - 02:00 AM Tuesday : 11:00 AM - 02:00 AM Wednesday : 11:00 AM - 02:00 AM Thursday : 11:00 AM - 03:00 AM Friday : 11:00 AM - 03:00 AM Saturday : 11:00 AM - 03:00 AM Sunday : 11:00 AM - 02:00 AM,https://www5.pizzapizza.ca/restaurant-locator/Ontario/Pickering
https://www.pizzapizza.ca/locations/,6-7 705 Kingston Road,6-7 705 Kingston Road,Pickering,ON,L1V6V3,CA,<MISSING>,<MISSING>,<MISSING>,<MISSING>,<MISSING>,Monday : 11:00 AM - 02:00 AM Tuesday : 11:00 AM - 02:00 AM Wednesday : 11:00 AM - 02:00 AM Thursday : 11:00 AM - 03:00 AM Friday : 11:00 AM - 03:00 AM Saturday : 11:00 AM - 03:00 AM Sunday : 11:00 AM - 02:00 AM,https://www5.pizzapizza.ca/restaurant-locator/Ontario/Pickering
https://www.pizzapizza.ca/locations/,4 1822 Whites Road,4 1822 Whites Road,Pickering,ON,L1V4M1,CA,<MISSING>,<MISSING>,<MISSING>,<MISSING>,<MISSING>,Monday : 11:00 AM - 02:00 AM Tuesday : 11:00 AM - 02:00 AM Wednesday : 11:00 AM - 02:00 AM Thursday : 11:00 AM - 03:00 AM Friday : 11:00 AM - 03:00 AM Saturday : 11:00 AM - 03:00 AM Sunday : 11:00 AM - 02:00 AM,https://www5.pizzapizza.ca/restaurant-locator/Ontario/Pickering
https://www.pizzapizza.ca/locations/,10077 Yonge Street,10077 Yonge Street,Richmond Hill,ON,L4C1T7,CA,<MISSING>,<MISSING>,<MISSING>,<MISSING>,<MISSING>,Monday : 11:00 AM - 02:00 AM Tuesday : 11:00 AM - 02:00 AM Wednesday : 11:00 AM - 02:00 AM Thursday : 11:00 AM - 03:00 AM Friday : 11:00 AM - 03:00 AM Saturday : 11:00 AM - 03:00 AM Sunday : 11:00 AM - 02:00 AM,https://www5.pizzapizza.ca/restaurant-locator/Ontario/Richmond_Hill
https://www.pizzapizza.ca/locations/,3 9555 Yonge Street,3 9555 Yonge Street,Richmond Hill,ON,L4C9M5,CA,<MISSING>,<MISSING>,<MISSING>,<MISSING>,<MISSING>,Monday : 11:00 AM - 01:00 AM Tuesday : 11:00 AM - 01:00 AM Wednesday : 11:00 AM - 01:00 AM Thursday : 11:00 AM - 01:00 AM Friday : 11:00 AM - 03:00 AM Saturday : 11:00 AM - 03:00 AM Sunday : 11:00 AM - 01:00 AM,https://www5.pizzapizza.ca/restaurant-locator/Ontario/Richmond_Hill
https://www.pizzapizza.ca/locations/,18-19 8750 Bayview Avenue,18-19 8750 Bayview Avenue,Richmond Hill,ON,L4B4V9,CA,<MISSING>,<MISSING>,<MISSING>,<MISSING>,<MISSING>,Monday : 11:00 AM - 02:00 AM Tuesday : 11:00 AM - 02:00 AM Wednesday : 11:00 AM - 02:00 AM Thursday : 11:00 AM - 03:00 AM Friday : 11:00 AM - 03:00 AM Saturday : 11:00 AM - 03:00 AM Sunday : 11:00 AM - 02:00 AM,https://www5.pizzapizza.ca/restaurant-locator/Ontario/Richmond_Hill
https://www.pizzapizza.ca/locations/,"1070 Major Mackenzie Drive East, Un","1070 Major Mackenzie Drive East, Un",Richmond Hill,ON,L4S1P3,CA,<MISSING>,<MISSING>,<MISSING>,<MISSING>,<MISSING>,Monday : 11:00 AM - 11:59 PM Tuesday : 11:00 AM - 11:59 PM Wednesday : 11:00 AM - 11:59 PM Thursday : 11:00 AM - 11:59 PM Friday : 11:00 AM - 03:00 AM Saturday : 11:00 AM - 03:00 AM Sunday : 11:00 AM - 11:59 PM,https://www5.pizzapizza.ca/restaurant-locator/Ontario/Richmond_Hill
https://www.pizzapizza.ca/locations/,#9 and #10 10737 Yonge Street,#9 and #10 10737 Yonge Street,Richmond Hill,ON,L4C9M9,CA,<MISSING>,<MISSING>,<MISSING>,<MISSING>,<MISSING>,Monday : 11:00 AM - 02:00 AM Tuesday : 11:00 AM - 02:00 AM Wednesday : 11:00 AM - 02:00 AM Thursday : 11:00 AM - 03:00 AM Friday : 11:00 AM - 03:00 AM Saturday : 11:00 AM - 03:00 AM Sunday : 11:00 AM - 02:00 AM,https://www5.pizzapizza.ca/restaurant-locator/Ontario/Richmond_Hill
https://www.pizzapizza.ca/locations/,13237 Yonge Street,13237 Yonge Street,Richmond Hill,ON,L4E1B6,CA,<MISSING>,<MISSING>,<MISSING>,<MISSING>,<MISSING>,Monday : 11:00 AM - 02:00 AM Tuesday : 11:00 AM - 02:00 AM Wednesday : 11:00 AM - 02:00 AM Thursday : 11:00 AM - 03:00 AM Friday : 11:00 AM - 03:00 AM Saturday : 11:00 AM - 03:00 AM Sunday : 11:00 AM - 02:00 AM,https://www5.pizzapizza.ca/restaurant-locator/Ontario/Richmond_Hill
https://www.pizzapizza.ca/locations/,5 49 Finch Drive,5 49 Finch Drive,Sarnia,ON,N7S5C6,CA,<MISSING>,<MISSING>,<MISSING>,<MISSING>,<MISSING>,Monday : 11:00 AM - 02:00 AM Tuesday : 11:00 AM - 02:00 AM Wednesday : 11:00 AM - 02:00 AM Thursday : 11:00 AM - 03:00 AM Friday : 11:00 AM - 03:00 AM Saturday : 11:00 AM - 03:00 AM Sunday : 11:00 AM - 02:00 AM,https://www5.pizzapizza.ca/restaurant-locator/Ontario/Sarnia
https://www.pizzapizza.ca/locations/,1 Beckwith Street South,1 Beckwith Street South,Smith Falls,ON,K7A2A9,CA,<MISSING>,<MISSING>,<MISSING>,<MISSING>,<MISSING>,Monday : 11:00 AM - 02:00 AM Tuesday : 11:00 AM - 02:00 AM Wednesday : 11:00 AM - 02:00 AM Thursday : 11:00 AM - 03:00 AM Friday : 11:00 AM - 03:00 AM Saturday : 11:00 AM - 03:00 AM Sunday : 11:00 AM - 02:00 AM,https://www5.pizzapizza.ca/restaurant-locator/Ontario/Smith_Falls
https://www.pizzapizza.ca/locations/,2 367 Lake Street,2 367 Lake Street,St Catharines,ON,L2N4H5,CA,<MISSING>,<MISSING>,<MISSING>,<MISSING>,<MISSING>,Monday : 11:00 AM - 02:00 AM Tuesday : 11:00 AM - 02:00 AM Wednesday : 11:00 AM - 02:00 AM Thursday : 11:00 AM - 03:00 AM Friday : 11:00 AM - 03:00 AM Saturday : 11:00 AM - 03:00 AM Sunday : 11:00 AM - 02:00 AM,https://www5.pizzapizza.ca/restaurant-locator/Ontario/St_Catharines
https://www.pizzapizza.ca/locations/,137-139 St. Paul Street,137-139 St. Paul Street,St Catharines,ON,L2R3M5,CA,<MISSING>,<MISSING>,<MISSING>,<MISSING>,<MISSING>,Monday : 11:00 AM - 02:00 AM Tuesday : 11:00 AM - 02:00 AM Wednesday : 11:00 AM - 02:00 AM Thursday : 11:00 AM - 03:00 AM Friday : 11:00 AM - 03:00 AM Saturday : 11:00 AM - 03:00 AM Sunday : 11:00 AM - 02:00 AM,https://www5.pizzapizza.ca/restaurant-locator/Ontario/St_Catharines
https://www.pizzapizza.ca/locations/,210 Glendale Avenue,210 Glendale Avenue,St Catharines,ON,L2T3Y6,CA,<MISSING>,<MISSING>,<MISSING>,<MISSING>,<MISSING>,Monday : 11:00 AM - 02:00 AM Tuesday : 11:00 AM - 02:00 AM Wednesday : 11:00 AM - 02:00 AM Thursday : 11:00 AM - 03:00 AM Friday : 11:00 AM - 03:00 AM Saturday : 11:00 AM - 03:00 AM Sunday : 11:00 AM - 02:00 AM,https://www5.pizzapizza.ca/restaurant-locator/Ontario/St_Catharines
https://www.pizzapizza.ca/locations/,D-11 400 Scott Street,D-11 400 Scott Street,St Catharines,ON,L2M3W4,CA,<MISSING>,<MISSING>,<MISSING>,<MISSING>,<MISSING>,Monday : 11:00 AM - 02:00 AM Tuesday : 11:00 AM - 02:00 AM Wednesday : 11:00 AM - 02:00 AM Thursday : 11:00 AM - 03:00 AM Friday : 11:00 AM - 03:00 AM Saturday : 11:00 AM - 03:00 AM Sunday : 11:00 AM - 02:00 AM,https://www5.pizzapizza.ca/restaurant-locator/Ontario/St_Catharines
https://www.pizzapizza.ca/locations/,C-09 1250 Main Street East,C-09 1250 Main Street East,Stittsville,ON,K2S1S9,CA,<MISSING>,<MISSING>,<MISSING>,<MISSING>,<MISSING>,Monday : 11:00 AM - 02:00 AM Tuesday : 11:00 AM - 02:00 AM Wednesday : 11:00 AM - 02:00 AM Thursday : 11:00 AM - 03:00 AM Friday : 11:00 AM - 03:00 AM Saturday : 11:00 AM - 03:00 AM Sunday : 11:00 AM - 02:00 AM,https://www5.pizzapizza.ca/restaurant-locator/Ontario/Stittsville
https://www.pizzapizza.ca/locations/,7 141 Highway #8,7 141 Highway #8,Stoney Creek,ON,L8K5C1,CA,<MISSING>,<MISSING>,<MISSING>,<MISSING>,<MISSING>,Monday : 11:00 AM - 11:59 PM Tuesday : 11:00 AM - 11:59 PM Wednesday : 11:00 AM - 11:59 PM Thursday : 11:00 AM - 11:59 PM Friday : 11:00 AM - 03:00 AM Saturday : 11:00 AM - 03:00 AM Sunday : 11:00 AM - 11:59 PM,https://www5.pizzapizza.ca/restaurant-locator/Ontario/Stoney_Creek
https://www.pizzapizza.ca/locations/,19 800 Queenston Road,19 800 Queenston Road,Stoney Creek,ON,L8G1A7,CA,<MISSING>,<MISSING>,<MISSING>,<MISSING>,<MISSING>,Monday : 11:00 AM - 02:00 AM Tuesday : 11:00 AM - 02:00 AM Wednesday : 11:00 AM - 02:00 AM Thursday : 11:00 AM - 03:00 AM Friday : 11:00 AM - 03:00 AM Saturday : 11:00 AM - 03:00 AM Sunday : 11:00 AM - 02:00 AM,https://www5.pizzapizza.ca/restaurant-locator/Ontario/Stoney_Creek
https://www.pizzapizza.ca/locations/,"75 Centennial Parkway North, Unit","75 Centennial Parkway North, Unit",Stoney Creek,ON,L8E2P2,CA,<MISSING>,<MISSING>,<MISSING>,<MISSING>,<MISSING>,Monday : 11:00 AM - 09:00 PM Tuesday : 11:00 AM - 09:00 PM Wednesday : 11:00 AM - 09:00 PM Thursday : 11:00 AM - 09:00 PM Friday : 11:00 AM - 09:00 PM Saturday : 11:00 AM - 06:00 PM Sunday : 12:00 PM - 05:00 PM,https://www5.pizzapizza.ca/restaurant-locator/Ontario/Stoney_Creek
https://www.pizzapizza.ca/locations/,5777 Main Street,5777 Main Street,Stouffville,ON,L4A2S9,CA,<MISSING>,<MISSING>,<MISSING>,<MISSING>,<MISSING>,Monday : 11:00 AM - 02:00 AM Tuesday : 11:00 AM - 02:00 AM Wednesday : 11:00 AM - 02:00 AM Thursday : 11:00 AM - 03:00 AM Friday : 11:00 AM - 03:00 AM Saturday : 11:00 AM - 03:00 AM Sunday : 11:00 AM - 02:00 AM,https://www5.pizzapizza.ca/restaurant-locator/Ontario/Stouffville
https://www.pizzapizza.ca/locations/,1 Market Place,1 Market Place,Stratford,ON,N5A1A4,CA,<MISSING>,<MISSING>,<MISSING>,<MISSING>,<MISSING>,Monday : 11:00 AM - 11:59 PM Tuesday : 11:00 AM - 11:59 PM Wednesday : 11:00 AM - 11:59 PM Thursday : 11:00 AM - 11:59 PM Friday : 11:00 AM - 11:59 PM Saturday : 11:00 AM - 11:59 PM Sunday : 11:00 AM - 11:59 PM,https://www5.pizzapizza.ca/restaurant-locator/Ontario/Stratford
https://www.pizzapizza.ca/locations/,52 Elm Street,52 Elm Street,Sudbury,ON,P3C1S7,CA,<MISSING>,<MISSING>,<MISSING>,<MISSING>,<MISSING>,Monday : 11:00 AM - 02:00 AM Tuesday : 11:00 AM - 02:00 AM Wednesday : 11:00 AM - 02:00 AM Thursday : 11:00 AM - 03:00 AM Friday : 11:00 AM - 03:00 AM Saturday : 11:00 AM - 03:00 AM Sunday : 11:00 AM - 02:00 AM,https://www5.pizzapizza.ca/restaurant-locator/Ontario/Sudbury
https://www.pizzapizza.ca/locations/,45 Ormond Street North,45 Ormond Street North,Thorold,ON,L2V1Y4,CA,<MISSING>,<MISSING>,<MISSING>,<MISSING>,<MISSING>,Monday : 11:00 AM - 02:00 AM Tuesday : 11:00 AM - 02:00 AM Wednesday : 11:00 AM - 02:00 AM Thursday : 11:00 AM - 03:00 AM Friday : 11:00 AM - 03:00 AM Saturday : 11:00 AM - 03:00 AM Sunday : 11:00 AM - 02:00 AM,https://www5.pizzapizza.ca/restaurant-locator/Ontario/Thorold
https://www.pizzapizza.ca/locations/,820 Red River Road,820 Red River Road,Thunder Bay,ON,P7B1K2,CA,<MISSING>,<MISSING>,<MISSING>,<MISSING>,<MISSING>,Monday : 11:00 AM - 11:59 PM Tuesday : 11:00 AM - 11:59 PM Wednesday : 11:00 AM - 11:59 PM Thursday : 11:00 AM - 01:00 AM Friday : 11:00 AM - 03:00 AM Saturday : 11:00 AM - 03:00 AM Sunday : 11:00 AM - 11:59 PM,https://www5.pizzapizza.ca/restaurant-locator/Ontario/Thunder_Bay
https://www.pizzapizza.ca/locations/,425 Edward Street North,425 Edward Street North,Thunder Bay,ON,P7C4P7,CA,<MISSING>,<MISSING>,<MISSING>,<MISSING>,<MISSING>,Monday : 11:00 AM - 11:59 PM Tuesday : 11:00 AM - 11:59 PM Wednesday : 11:00 AM - 11:59 PM Thursday : 11:00 AM - 01:00 AM Friday : 11:00 AM - 03:00 AM Saturday : 11:00 AM - 03:00 AM Sunday : 11:00 AM - 11:59 PM,https://www5.pizzapizza.ca/restaurant-locator/Ontario/Thunder_Bay
https://www.pizzapizza.ca/locations/,414 Algonquin Boulevard East,414 Algonquin Boulevard East,Timmins,ON,P4N1B6,CA,<MISSING>,<MISSING>,<MISSING>,<MISSING>,<MISSING>,Monday : 11:00 AM - 11:59 PM Tuesday : 11:00 AM - 11:59 PM Wednesday : 11:00 AM - 11:59 PM Thursday : 11:00 AM - 01:00 AM Friday : 11:00 AM - 01:00 AM Saturday : 11:00 AM - 01:00 AM Sunday : 11:00 AM - 11:59 PM,https://www5.pizzapizza.ca/restaurant-locator/Ontario/Timmins
https://www.pizzapizza.ca/locations/,297 Wellesley Street East,297 Wellesley Street East,Toronto,ON,M4X1G9,CA,<MISSING>,<MISSING>,<MISSING>,<MISSING>,<MISSING>,Monday : 11:00 AM - 02:00 AM Tuesday : 11:00 AM - 02:00 AM Wednesday : 11:00 AM - 02:00 AM Thursday : 11:00 AM - 03:00 AM Friday : 11:00 AM - 03:00 AM Saturday : 11:00 AM - 03:00 AM Sunday : 11:00 AM - 02:00 AM,https://www5.pizzapizza.ca/restaurant-locator/Ontario/Toronto
https://www.pizzapizza.ca/locations/,2295 Yonge Street,2295 Yonge Street,Toronto,ON,M4P2C6,CA,<MISSING>,<MISSING>,<MISSING>,<MISSING>,<MISSING>,Monday : 11:00 AM - 02:00 AM Tuesday : 11:00 AM - 02:00 AM Wednesday : 11:00 AM - 02:00 AM Thursday : 11:00 AM - 03:00 AM Friday : 11:00 AM - 03:00 AM Saturday : 11:00 AM - 03:00 AM Sunday : 11:00 AM - 02:00 AM,https://www5.pizzapizza.ca/restaurant-locator/Ontario/Toronto
https://www.pizzapizza.ca/locations/,655 Queen Street West,655 Queen Street West,Toronto,ON,M6J1E8,CA,<MISSING>,<MISSING>,<MISSING>,<MISSING>,<MISSING>,Monday : 11:00 AM - 02:00 AM Tuesday : 11:00 AM - 02:00 AM Wednesday : 11:00 AM - 02:00 AM Thursday : 11:00 AM - 03:00 AM Friday : 11:00 AM - 03:00 AM Saturday : 11:00 AM - 03:00 AM Sunday : 11:00 AM - 02:00 AM,https://www5.pizzapizza.ca/restaurant-locator/Ontario/Toronto
https://www.pizzapizza.ca/locations/,2795 Danforth Avenue,2795 Danforth Avenue,Toronto,ON,M4C1M2,CA,<MISSING>,<MISSING>,<MISSING>,<MISSING>,<MISSING>,Monday : 11:00 AM - 02:00 AM Tuesday : 11:00 AM - 02:00 AM Wednesday : 11:00 AM - 02:00 AM Thursday : 11:00 AM - 03:00 AM Friday : 11:00 AM - 03:00 AM Saturday : 11:00 AM - 03:00 AM Sunday : 11:00 AM - 02:00 AM,https://www5.pizzapizza.ca/restaurant-locator/Ontario/Toronto
https://www.pizzapizza.ca/locations/,68 Wellesley Street East,68 Wellesley Street East,Toronto,ON,M4Y1H2,CA,<MISSING>,<MISSING>,<MISSING>,<MISSING>,<MISSING>,Monday : 11:00 AM - 02:00 AM Tuesday : 11:00 AM - 02:00 AM Wednesday : 11:00 AM - 02:00 AM Thursday : 11:00 AM - 03:00 AM Friday : 11:00 AM - 03:00 AM Saturday : 11:00 AM - 03:00 AM Sunday : 11:00 AM - 02:00 AM,https://www5.pizzapizza.ca/restaurant-locator/Ontario/Toronto
https://www.pizzapizza.ca/locations/,328 Bloor Street West,328 Bloor Street West,Toronto,ON,M5S1W5,CA,<MISSING>,<MISSING>,<MISSING>,<MISSING>,<MISSING>,Monday : 11:00 AM - 02:00 AM Tuesday : 11:00 AM - 02:00 AM Wednesday : 11:00 AM - 02:00 AM Thursday : 11:00 AM - 03:00 AM Friday : 11:00 AM - 03:00 AM Saturday : 11:00 AM - 03:00 AM Sunday : 11:00 AM - 02:00 AM,https://www5.pizzapizza.ca/restaurant-locator/Ontario/Toronto
https://www.pizzapizza.ca/locations/,1881 Queen Street East,1881 Queen Street East,Toronto,ON,M4L1H3,CA,<MISSING>,<MISSING>,<MISSING>,<MISSING>,<MISSING>,Monday : 11:00 AM - 02:00 AM Tuesday : 11:00 AM - 02:00 AM Wednesday : 11:00 AM - 02:00 AM Thursday : 11:00 AM - 03:00 AM Friday : 11:00 AM - 03:00 AM Saturday : 11:00 AM - 03:00 AM Sunday : 11:00 AM - 02:00 AM,https://www5.pizzapizza.ca/restaurant-locator/Ontario/Toronto
https://www.pizzapizza.ca/locations/,1063 Gerrard Street East,1063 Gerrard Street East,Toronto,ON,M4M1Z9,CA,<MISSING>,<MISSING>,<MISSING>,<MISSING>,<MISSING>,Monday : 11:00 AM - 02:00 AM Tuesday : 11:00 AM - 02:00 AM Wednesday : 11:00 AM - 02:00 AM Thursday : 11:00 AM - 03:00 AM Friday : 11:00 AM - 03:00 AM Saturday : 11:00 AM - 03:00 AM Sunday : 11:00 AM - 02:00 AM,https://www5.pizzapizza.ca/restaurant-locator/Ontario/Toronto
https://www.pizzapizza.ca/locations/,1432 Queen Street West,1432 Queen Street West,Toronto,ON,M6K1L9,CA,<MISSING>,<MISSING>,<MISSING>,<MISSING>,<MISSING>,Monday : 11:00 AM - 02:00 AM Tuesday : 11:00 AM - 02:00 AM Wednesday : 11:00 AM - 02:00 AM Thursday : 11:00 AM - 03:00 AM Friday : 11:00 AM - 03:00 AM Saturday : 11:00 AM - 03:00 AM Sunday : 11:00 AM - 02:00 AM,https://www5.pizzapizza.ca/restaurant-locator/Ontario/Toronto
https://www.pizzapizza.ca/locations/,2077 Danforth Avenue,2077 Danforth Avenue,Toronto,ON,M4C1K2,CA,<MISSING>,<MISSING>,<MISSING>,<MISSING>,<MISSING>,Monday : 11:00 AM - 02:00 AM Tuesday : 11:00 AM - 02:00 AM Wednesday : 11:00 AM - 02:00 AM Thursday : 11:00 AM - 03:00 AM Friday : 11:00 AM - 03:00 AM Saturday : 11:00 AM - 03:00 AM Sunday : 11:00 AM - 02:00 AM,https://www5.pizzapizza.ca/restaurant-locator/Ontario/Toronto
https://www.pizzapizza.ca/locations/,3040 Don Mills Road,3040 Don Mills Road,Toronto - Don Mills,ON,M2J3C3,CA,<MISSING>,<MISSING>,<MISSING>,<MISSING>,<MISSING>,Monday : 11:00 AM - 02:00 AM Tuesday : 11:00 AM - 02:00 AM Wednesday : 11:00 AM - 02:00 AM Thursday : 11:00 AM - 03:00 AM Friday : 11:00 AM - 03:00 AM Saturday : 11:00 AM - 03:00 AM Sunday : 11:00 AM - 02:00 AM,https://www5.pizzapizza.ca/restaurant-locator/Ontario/Toronto_-_Don_Mills
https://www.pizzapizza.ca/locations/,193 1700 Wilson Avenue,193 1700 Wilson Avenue,Toronto - Downsview,ON,M3L1B2,CA,<MISSING>,<MISSING>,<MISSING>,<MISSING>,<MISSING>,Monday : 11:00 AM - 02:00 AM Tuesday : 11:00 AM - 02:00 AM Wednesday : 11:00 AM - 02:00 AM Thursday : 11:00 AM - 03:00 AM Friday : 11:00 AM - 03:00 AM Saturday : 11:00 AM - 03:00 AM Sunday : 11:00 AM - 02:00 AM,https://www5.pizzapizza.ca/restaurant-locator/Ontario/Toronto_-_Downsview
https://www.pizzapizza.ca/locations/,45 Overlea Boulevard,45 Overlea Boulevard,Toronto - East York,ON,M4H1C3,CA,<MISSING>,<MISSING>,<MISSING>,<MISSING>,<MISSING>,Monday : 11:00 AM - 02:00 AM Tuesday : 11:00 AM - 02:00 AM Wednesday : 11:00 AM - 02:00 AM Thursday : 11:00 AM - 03:00 AM Friday : 11:00 AM - 03:00 AM Saturday : 11:00 AM - 03:00 AM Sunday : 11:00 AM - 02:00 AM,https://www5.pizzapizza.ca/restaurant-locator/Ontario/Toronto_-_East_York
https://www.pizzapizza.ca/locations/,1641 Bayview Avenue,1641 Bayview Avenue,Toronto - East York,ON,M4G3C1,CA,<MISSING>,<MISSING>,<MISSING>,<MISSING>,<MISSING>,Monday : 11:00 AM - 02:00 AM Tuesday : 11:00 AM - 02:00 AM Wednesday : 11:00 AM - 02:00 AM Thursday : 11:00 AM - 03:00 AM Friday : 11:00 AM - 03:00 AM Saturday : 11:00 AM - 03:00 AM Sunday : 11:00 AM - 02:00 AM,https://www5.pizzapizza.ca/restaurant-locator/Ontario/Toronto_-_East_York
https://www.pizzapizza.ca/locations/,796 O'Connor Drive,796 O'Connor Drive,Toronto - East York,ON,M4B2S6,CA,<MISSING>,<MISSING>,<MISSING>,<MISSING>,<MISSING>,Monday : 11:00 AM - 02:00 AM Tuesday : 11:00 AM - 02:00 AM Wednesday : 11:00 AM - 02:00 AM Thursday : 11:00 AM - 03:00 AM Friday : 11:00 AM - 03:00 AM Saturday : 11:00 AM - 03:00 AM Sunday : 11:00 AM - 02:00 AM,https://www5.pizzapizza.ca/restaurant-locator/Ontario/Toronto_-_East_York
https://www.pizzapizza.ca/locations/,3359 Bloor Street West,3359 Bloor Street West,Toronto - Etobicoke,ON,M8X1G2,CA,<MISSING>,<MISSING>,<MISSING>,<MISSING>,<MISSING>,Monday : 11:00 AM - 02:00 AM Tuesday : 11:00 AM - 02:00 AM Wednesday : 11:00 AM - 02:00 AM Thursday : 11:00 AM - 03:00 AM Friday : 11:00 AM - 03:00 AM Saturday : 11:00 AM - 03:00 AM Sunday : 11:00 AM - 02:00 AM,https://www5.pizzapizza.ca/restaurant-locator/Ontario/Toronto_-_Etobicoke
https://www.pizzapizza.ca/locations/,120 Eringate Drive,120 Eringate Drive,Toronto - Etobicoke,ON,M9C3Z8,CA,<MISSING>,<MISSING>,<MISSING>,<MISSING>,<MISSING>,Monday : 11:00 AM - 02:00 AM Tuesday : 11:00 AM - 02:00 AM Wednesday : 11:00 AM - 02:00 AM Thursday : 11:00 AM - 03:00 AM Friday : 11:00 AM - 03:00 AM Saturday : 11:00 AM - 03:00 AM Sunday : 11:00 AM - 02:00 AM,https://www5.pizzapizza.ca/restaurant-locator/Ontario/Toronto_-_Etobicoke
https://www.pizzapizza.ca/locations/,T25 1530 Albion Road,T25 1530 Albion Road,Toronto - Etobicoke,ON,M9V1B4,CA,<MISSING>,<MISSING>,<MISSING>,<MISSING>,<MISSING>,Monday : 11:00 AM - 02:00 AM Tuesday : 11:00 AM - 02:00 AM Wednesday : 11:00 AM - 02:00 AM Thursday : 11:00 AM - 03:00 AM Friday : 11:00 AM - 03:00 AM Saturday : 11:00 AM - 03:00 AM Sunday : 11:00 AM - 02:00 AM,https://www5.pizzapizza.ca/restaurant-locator/Ontario/Toronto_-_Etobicoke
https://www.pizzapizza.ca/locations/,250 Wincott Drive,250 Wincott Drive,Toronto - Etobicoke,ON,M9R2R5,CA,<MISSING>,<MISSING>,<MISSING>,<MISSING>,<MISSING>,Monday : 11:00 AM - 02:00 AM Tuesday : 11:00 AM - 02:00 AM Wednesday : 11:00 AM - 02:00 AM Thursday : 11:00 AM - 03:00 AM Friday : 11:00 AM - 03:00 AM Saturday : 11:00 AM - 03:00 AM Sunday : 11:00 AM - 02:00 AM,https://www5.pizzapizza.ca/restaurant-locator/Ontario/Toronto_-_Etobicoke
https://www.pizzapizza.ca/locations/,1045 Albion Road,1045 Albion Road,Toronto - Etobicoke,ON,M9V1A6,CA,<MISSING>,<MISSING>,<MISSING>,<MISSING>,<MISSING>,Monday : 11:00 AM - 02:00 AM Tuesday : 11:00 AM - 02:00 AM Wednesday : 11:00 AM - 02:00 AM Thursday : 11:00 AM - 03:00 AM Friday : 11:00 AM - 03:00 AM Saturday : 11:00 AM - 03:00 AM Sunday : 11:00 AM - 02:00 AM,https://www5.pizzapizza.ca/restaurant-locator/Ontario/Toronto_-_Etobicoke
https://www.pizzapizza.ca/locations/,742 The Queensway,742 The Queensway,Toronto - Etobicoke,ON,M8Y2V2,CA,<MISSING>,<MISSING>,<MISSING>,<MISSING>,<MISSING>,Monday : 11:00 AM - 02:00 AM Tuesday : 11:00 AM - 02:00 AM Wednesday : 11:00 AM - 02:00 AM Thursday : 11:00 AM - 03:00 AM Friday : 11:00 AM - 03:00 AM Saturday : 11:00 AM - 03:00 AM Sunday : 11:00 AM - 02:00 AM,https://www5.pizzapizza.ca/restaurant-locator/Ontario/Toronto_-_Etobicoke
https://www.pizzapizza.ca/locations/,606 Browns Line,606 Browns Line,Toronto - Etobicoke,ON,M8W3T5,CA,<MISSING>,<MISSING>,<MISSING>,<MISSING>,<MISSING>,Monday : 11:00 AM - 02:00 AM Tuesday : 11:00 AM - 02:00 AM Wednesday : 11:00 AM - 02:00 AM Thursday : 11:00 AM - 03:00 AM Friday : 11:00 AM - 03:00 AM Saturday : 11:00 AM - 03:00 AM Sunday : 11:00 AM - 02:00 AM,https://www5.pizzapizza.ca/restaurant-locator/Ontario/Toronto_-_Etobicoke
https://www.pizzapizza.ca/locations/,1735 Kipling Avenue,1735 Kipling Avenue,Toronto - Etobicoke,ON,M9R2Y8,CA,<MISSING>,<MISSING>,<MISSING>,<MISSING>,<MISSING>,Monday : 11:00 AM - 02:00 AM Tuesday : 11:00 AM - 02:00 AM Wednesday : 11:00 AM - 02:00 AM Thursday : 11:00 AM - 03:00 AM Friday : 11:00 AM - 03:00 AM Saturday : 11:00 AM - 03:00 AM Sunday : 11:00 AM - 02:00 AM,https://www5.pizzapizza.ca/restaurant-locator/Ontario/Toronto_-_Etobicoke
https://www.pizzapizza.ca/locations/,140 La Rose Avenue,140 La Rose Avenue,Toronto - Etobicoke,ON,M9P1B2,CA,<MISSING>,<MISSING>,<MISSING>,<MISSING>,<MISSING>,Monday : 11:00 AM - 02:00 AM Tuesday : 11:00 AM - 02:00 AM Wednesday : 11:00 AM - 02:00 AM Thursday : 11:00 AM - 03:00 AM Friday : 11:00 AM - 03:00 AM Saturday : 11:00 AM - 03:00 AM Sunday : 11:00 AM - 02:00 AM,https://www5.pizzapizza.ca/restaurant-locator/Ontario/Toronto_-_Etobicoke
https://www.pizzapizza.ca/locations/,130 Rexdale Boulevard,130 Rexdale Boulevard,Toronto - Etobicoke,ON,M9W1P6,CA,<MISSING>,<MISSING>,<MISSING>,<MISSING>,<MISSING>,Monday : 11:00 AM - 02:00 AM Tuesday : 11:00 AM - 02:00 AM Wednesday : 11:00 AM - 02:00 AM Thursday : 11:00 AM - 03:00 AM Friday : 11:00 AM - 03:00 AM Saturday : 11:00 AM - 03:00 AM Sunday : 11:00 AM - 02:00 AM,https://www5.pizzapizza.ca/restaurant-locator/Ontario/Toronto_-_Etobicoke
https://www.pizzapizza.ca/locations/,9 1277 York Mills Road,9 1277 York Mills Road,Toronto - North York,ON,M3A1Z5,CA,<MISSING>,<MISSING>,<MISSING>,<MISSING>,<MISSING>,Monday : 11:00 AM - 02:00 AM Tuesday : 11:00 AM - 02:00 AM Wednesday : 11:00 AM - 02:00 AM Thursday : 11:00 AM - 03:00 AM Friday : 11:00 AM - 03:00 AM Saturday : 11:00 AM - 03:00 AM Sunday : 11:00 AM - 02:00 AM,https://www5.pizzapizza.ca/restaurant-locator/Ontario/Toronto_-_North_York
https://www.pizzapizza.ca/locations/,4844 Yonge Street,4844 Yonge Street,Toronto - North York,ON,M2N5N2,CA,<MISSING>,<MISSING>,<MISSING>,<MISSING>,<MISSING>,Monday : 11:00 AM - 02:00 AM Tuesday : 11:00 AM - 02:00 AM Wednesday : 11:00 AM - 02:00 AM Thursday : 11:00 AM - 03:00 AM Friday : 11:00 AM - 03:00 AM Saturday : 11:00 AM - 03:00 AM Sunday : 11:00 AM - 02:00 AM,https://www5.pizzapizza.ca/restaurant-locator/Ontario/Toronto_-_North_York
https://www.pizzapizza.ca/locations/,6114 Yonge Street,6114 Yonge Street,Toronto - North York,ON,M2M3W7,CA,<MISSING>,<MISSING>,<MISSING>,<MISSING>,<MISSING>,Monday : 11:00 AM - 02:00 AM Tuesday : 11:00 AM - 02:00 AM Wednesday : 11:00 AM - 02:00 AM Thursday : 11:00 AM - 03:00 AM Friday : 11:00 AM - 03:00 AM Saturday : 11:00 AM - 03:00 AM Sunday : 11:00 AM - 02:00 AM,https://www5.pizzapizza.ca/restaurant-locator/Ontario/Toronto_-_North_York
https://www.pizzapizza.ca/locations/,2731 Jane Street,2731 Jane Street,Toronto - North York,ON,M3L1S3,CA,<MISSING>,<MISSING>,<MISSING>,<MISSING>,<MISSING>,Monday : 11:00 AM - 02:00 AM Tuesday : 11:00 AM - 02:00 AM Wednesday : 11:00 AM - 02:00 AM Thursday : 11:00 AM - 03:00 AM Friday : 11:00 AM - 03:00 AM Saturday : 11:00 AM - 03:00 AM Sunday : 11:00 AM - 02:00 AM,https://www5.pizzapizza.ca/restaurant-locator/Ontario/Toronto_-_North_York
https://www.pizzapizza.ca/locations/,T-3 1837 Finch Avenue West,T-3 1837 Finch Avenue West,Toronto - North York,ON,M3N2H1,CA,<MISSING>,<MISSING>,<MISSING>,<MISSING>,<MISSING>,Monday : 11:00 AM - 02:00 AM Tuesday : 11:00 AM - 02:00 AM Wednesday : 11:00 AM - 02:00 AM Thursday : 11:00 AM - 03:00 AM Friday : 11:00 AM - 03:00 AM Saturday : 11:00 AM - 03:00 AM Sunday : 11:00 AM - 02:00 AM,https://www5.pizzapizza.ca/restaurant-locator/Ontario/Toronto_-_North_York
https://www.pizzapizza.ca/locations/,5921 Leslie Street,5921 Leslie Street,Toronto - North York,ON,M2H1J8,CA,<MISSING>,<MISSING>,<MISSING>,<MISSING>,<MISSING>,Monday : 11:00 AM - 02:00 AM Tuesday : 11:00 AM - 02:00 AM Wednesday : 11:00 AM - 02:00 AM Thursday : 11:00 AM - 03:00 AM Friday : 11:00 AM - 03:00 AM Saturday : 11:00 AM - 03:00 AM Sunday : 11:00 AM - 02:00 AM,https://www5.pizzapizza.ca/restaurant-locator/Ontario/Toronto_-_North_York
https://www.pizzapizza.ca/locations/,19 Marie Labatte Road,19 Marie Labatte Road,Toronto - North York,ON,M3C0J1,CA,<MISSING>,<MISSING>,<MISSING>,<MISSING>,<MISSING>,Monday : 11:00 AM - 02:00 AM Tuesday : 11:00 AM - 02:00 AM Wednesday : 11:00 AM - 02:00 AM Thursday : 11:00 AM - 03:00 AM Friday : 11:00 AM - 03:00 AM Saturday : 11:00 AM - 03:00 AM Sunday : 11:00 AM - 02:00 AM,https://www5.pizzapizza.ca/restaurant-locator/Ontario/Toronto_-_North_York
https://www.pizzapizza.ca/locations/,330 Wilson Avenue,330 Wilson Avenue,Toronto - North York,ON,M3H1S9,CA,<MISSING>,<MISSING>,<MISSING>,<MISSING>,<MISSING>,Monday : 11:00 AM - 02:00 AM Tuesday : 11:00 AM - 02:00 AM Wednesday : 11:00 AM - 02:00 AM Thursday : 11:00 AM - 03:00 AM Friday : 11:00 AM - 03:00 AM Saturday : 11:00 AM - 03:00 AM Sunday : 11:00 AM - 02:00 AM,https://www5.pizzapizza.ca/restaurant-locator/Ontario/Toronto_-_North_York
https://www.pizzapizza.ca/locations/,2499 Sheppard Avenue East,2499 Sheppard Avenue East,Toronto - North York,ON,M2J1X2,CA,<MISSING>,<MISSING>,<MISSING>,<MISSING>,<MISSING>,Monday : 11:00 AM - 02:00 AM Tuesday : 11:00 AM - 02:00 AM Wednesday : 11:00 AM - 02:00 AM Thursday : 11:00 AM - 03:00 AM Friday : 11:00 AM - 03:00 AM Saturday : 11:00 AM - 03:00 AM Sunday : 11:00 AM - 02:00 AM,https://www5.pizzapizza.ca/restaurant-locator/Ontario/Toronto_-_North_York
https://www.pizzapizza.ca/locations/,3358 Keele Street,3358 Keele Street,Toronto - North York,ON,M3J1L5,CA,<MISSING>,<MISSING>,<MISSING>,<MISSING>,<MISSING>,Monday : 11:00 AM - 02:00 AM Tuesday : 11:00 AM - 02:00 AM Wednesday : 11:00 AM - 02:00 AM Thursday : 11:00 AM - 03:00 AM Friday : 11:00 AM - 03:00 AM Saturday : 11:00 AM - 03:00 AM Sunday : 11:00 AM - 02:00 AM,https://www5.pizzapizza.ca/restaurant-locator/Ontario/Toronto_-_North_York
https://www.pizzapizza.ca/locations/,3850 Sheppard Avenue East,3850 Sheppard Avenue East,Toronto - Scarborough,ON,M1T3L4,CA,<MISSING>,<MISSING>,<MISSING>,<MISSING>,<MISSING>,Monday : 11:00 AM - 02:00 AM Tuesday : 11:00 AM - 02:00 AM Wednesday : 11:00 AM - 02:00 AM Thursday : 11:00 AM - 03:00 AM Friday : 11:00 AM - 03:00 AM Saturday : 11:00 AM - 03:00 AM Sunday : 11:00 AM - 02:00 AM,https://www5.pizzapizza.ca/restaurant-locator/Ontario/Toronto_-_Scarborough
https://www.pizzapizza.ca/locations/,1950 Lawrence Avenue East,1950 Lawrence Avenue East,Toronto - Scarborough,ON,M1R2Y7,CA,<MISSING>,<MISSING>,<MISSING>,<MISSING>,<MISSING>,Monday : 11:00 AM - 02:00 AM Tuesday : 11:00 AM - 02:00 AM Wednesday : 11:00 AM - 02:00 AM Thursday : 11:00 AM - 03:00 AM Friday : 11:00 AM - 03:00 AM Saturday : 11:00 AM - 03:00 AM Sunday : 11:00 AM - 02:00 AM,https://www5.pizzapizza.ca/restaurant-locator/Ontario/Toronto_-_Scarborough
https://www.pizzapizza.ca/locations/,41 Lapsley Road,41 Lapsley Road,Toronto - Scarborough,ON,M1B1K1,CA,<MISSING>,<MISSING>,<MISSING>,<MISSING>,<MISSING>,Monday : 11:00 AM - 02:00 AM Tuesday : 11:00 AM - 02:00 AM Wednesday : 11:00 AM - 02:00 AM Thursday : 11:00 AM - 03:00 AM Friday : 11:00 AM - 03:00 AM Saturday : 11:00 AM - 03:00 AM Sunday : 11:00 AM - 02:00 AM,https://www5.pizzapizza.ca/restaurant-locator/Ontario/Toronto_-_Scarborough
https://www.pizzapizza.ca/locations/,579 Markham Road,579 Markham Road,Toronto - Scarborough,ON,M1H1A9,CA,<MISSING>,<MISSING>,<MISSING>,<MISSING>,<MISSING>,Monday : 11:00 AM - 02:00 AM Tuesday : 11:00 AM - 02:00 AM Wednesday : 11:00 AM - 02:00 AM Thursday : 11:00 AM - 03:00 AM Friday : 11:00 AM - 03:00 AM Saturday : 11:00 AM - 03:00 AM Sunday : 11:00 AM - 02:00 AM,https://www5.pizzapizza.ca/restaurant-locator/Ontario/Toronto_-_Scarborough
https://www.pizzapizza.ca/locations/,2893 Kingston Road,2893 Kingston Road,Toronto - Scarborough,ON,M1M1N3,CA,<MISSING>,<MISSING>,<MISSING>,<MISSING>,<MISSING>,Monday : 11:00 AM - 02:00 AM Tuesday : 11:00 AM - 02:00 AM Wednesday : 11:00 AM - 02:00 AM Thursday : 11:00 AM - 03:00 AM Friday : 11:00 AM - 03:00 AM Saturday : 11:00 AM - 03:00 AM Sunday : 11:00 AM - 02:00 AM,https://www5.pizzapizza.ca/restaurant-locator/Ontario/Toronto_-_Scarborough
https://www.pizzapizza.ca/locations/,474 Danforth Road,474 Danforth Road,Toronto - Scarborough,ON,M1K1C6,CA,<MISSING>,<MISSING>,<MISSING>,<MISSING>,<MISSING>,Monday : 11:00 AM - 02:00 AM Tuesday : 11:00 AM - 02:00 AM Wednesday : 11:00 AM - 02:00 AM Thursday : 11:00 AM - 03:00 AM Friday : 11:00 AM - 03:00 AM Saturday : 11:00 AM - 03:00 AM Sunday : 11:00 AM - 02:00 AM,https://www5.pizzapizza.ca/restaurant-locator/Ontario/Toronto_-_Scarborough
https://www.pizzapizza.ca/locations/,6B 2650 Lawrence Avenue East,6B 2650 Lawrence Avenue East,Toronto - Scarborough,ON,M1P2S1,CA,<MISSING>,<MISSING>,<MISSING>,<MISSING>,<MISSING>,Monday : 11:00 AM - 02:00 AM Tuesday : 11:00 AM - 02:00 AM Wednesday : 11:00 AM - 02:00 AM Thursday : 11:00 AM - 03:00 AM Friday : 11:00 AM - 03:00 AM Saturday : 11:00 AM - 03:00 AM Sunday : 11:00 AM - 02:00 AM,https://www5.pizzapizza.ca/restaurant-locator/Ontario/Toronto_-_Scarborough
https://www.pizzapizza.ca/locations/,205-207 2900 Warden Ave.,205-207 2900 Warden Ave.,Toronto - Scarborough,ON,M1W2S8,CA,<MISSING>,<MISSING>,<MISSING>,<MISSING>,<MISSING>,Monday : 11:00 AM - 02:00 AM Tuesday : 11:00 AM - 02:00 AM Wednesday : 11:00 AM - 02:00 AM Thursday : 11:00 AM - 03:00 AM Friday : 11:00 AM - 03:00 AM Saturday : 11:00 AM - 03:00 AM Sunday : 11:00 AM - 02:00 AM,https://www5.pizzapizza.ca/restaurant-locator/Ontario/Toronto_-_Scarborough
https://www.pizzapizza.ca/locations/,7-8 4447 Kingston Road,7-8 4447 Kingston Road,Toronto - Scarborough,ON,M1E2N7,CA,<MISSING>,<MISSING>,<MISSING>,<MISSING>,<MISSING>,Monday : 11:00 AM - 02:00 AM Tuesday : 11:00 AM - 02:00 AM Wednesday : 11:00 AM - 02:00 AM Thursday : 11:00 AM - 03:00 AM Friday : 11:00 AM - 03:00 AM Saturday : 11:00 AM - 03:00 AM Sunday : 11:00 AM - 02:00 AM,https://www5.pizzapizza.ca/restaurant-locator/Ontario/Toronto_-_Scarborough
https://www.pizzapizza.ca/locations/,2351 Brimley Road,2351 Brimley Road,Toronto - Scarborough,ON,M1S3L6,CA,<MISSING>,<MISSING>,<MISSING>,<MISSING>,<MISSING>,Monday : 11:00 AM - 02:00 AM Tuesday : 11:00 AM - 02:00 AM Wednesday : 11:00 AM - 02:00 AM Thursday : 11:00 AM - 03:00 AM Friday : 11:00 AM - 03:00 AM Saturday : 11:00 AM - 03:00 AM Sunday : 11:00 AM - 02:00 AM,https://www5.pizzapizza.ca/restaurant-locator/Ontario/Toronto_-_Scarborough
https://www.pizzapizza.ca/locations/,8053 Yonge Street,8053 Yonge Street,Toronto - Thornhill,ON,L3T2C3,CA,<MISSING>,<MISSING>,<MISSING>,<MISSING>,<MISSING>,Monday : 11:00 AM - 02:00 AM Tuesday : 11:00 AM - 02:00 AM Wednesday : 11:00 AM - 02:00 AM Thursday : 11:00 AM - 03:00 AM Friday : 11:00 AM - 03:00 AM Saturday : 11:00 AM - 03:00 AM Sunday : 11:00 AM - 02:00 AM,https://www5.pizzapizza.ca/restaurant-locator/Ontario/Toronto_-_Thornhill
https://www.pizzapizza.ca/locations/,800 Unit C-01 Steeles Avenue West,800 Unit C-01 Steeles Avenue West,Toronto - Thornhill,ON,L4J7L2,CA,<MISSING>,<MISSING>,<MISSING>,<MISSING>,<MISSING>,Monday : 11:00 AM - 02:00 AM Tuesday : 11:00 AM - 02:00 AM Wednesday : 11:00 AM - 02:00 AM Thursday : 11:00 AM - 03:00 AM Friday : 11:00 AM - 03:00 AM Saturday : 11:00 AM - 03:00 AM Sunday : 11:00 AM - 02:00 AM,https://www5.pizzapizza.ca/restaurant-locator/Ontario/Toronto_-_Thornhill
https://www.pizzapizza.ca/locations/,20 1450 Clark Avenue West,20 1450 Clark Avenue West,Toronto - Thornhill,ON,L4J7R5,CA,<MISSING>,<MISSING>,<MISSING>,<MISSING>,<MISSING>,Monday : 11:00 AM - 02:00 AM Tuesday : 11:00 AM - 02:00 AM Wednesday : 11:00 AM - 02:00 AM Thursday : 11:00 AM - 03:00 AM Friday : 11:00 AM - 03:00 AM Saturday : 11:00 AM - 03:00 AM Sunday : 11:00 AM - 02:00 AM,https://www5.pizzapizza.ca/restaurant-locator/Ontario/Toronto_-_Thornhill
https://www.pizzapizza.ca/locations/,55 Queen Street South,55 Queen Street South,Tottenham,ON,L0G1W0,CA,<MISSING>,<MISSING>,<MISSING>,<MISSING>,<MISSING>,Monday : 11:00 AM - 11:59 PM Tuesday : 11:00 AM - 11:59 PM Wednesday : 11:00 AM - 11:59 PM Thursday : 11:00 AM - 11:59 PM Friday : 11:00 AM - 03:00 AM Saturday : 11:00 AM - 03:00 AM Sunday : 11:00 AM - 11:59 PM,https://www5.pizzapizza.ca/restaurant-locator/Ontario/Tottenham
https://www.pizzapizza.ca/locations/,35 Dundas Street West,35 Dundas Street West,Trenton,ON,K8V3N9,CA,<MISSING>,<MISSING>,<MISSING>,<MISSING>,<MISSING>,Monday : 11:00 AM - 02:00 AM Tuesday : 11:00 AM - 02:00 AM Wednesday : 11:00 AM - 02:00 AM Thursday : 11:00 AM - 03:00 AM Friday : 11:00 AM - 03:00 AM Saturday : 11:00 AM - 03:00 AM Sunday : 11:00 AM - 02:00 AM,https://www5.pizzapizza.ca/restaurant-locator/Ontario/Trenton
https://www.pizzapizza.ca/locations/,6 Brock Street West,6 Brock Street West,Uxbridge,ON,L9P1P2,CA,<MISSING>,<MISSING>,<MISSING>,<MISSING>,<MISSING>,Monday : 11:00 AM - 11:00 PM Tuesday : 11:00 AM - 11:00 PM Wednesday : 11:00 AM - 11:00 PM Thursday : 11:00 AM - 11:00 PM Friday : 11:00 AM - 03:00 AM Saturday : 11:00 AM - 01:00 AM Sunday : 11:00 AM - 11:00 PM,https://www5.pizzapizza.ca/restaurant-locator/Ontario/Uxbridge
https://www.pizzapizza.ca/locations/,3737 Major Mackenzie Drive - Buildi,3737 Major Mackenzie Drive - Buildi,Vaughan,ON,L6Z4N8,CA,<MISSING>,<MISSING>,<MISSING>,<MISSING>,<MISSING>,Monday : 11:00 AM - 02:00 AM Tuesday : 11:00 AM - 02:00 AM Wednesday : 11:00 AM - 02:00 AM Thursday : 11:00 AM - 03:00 AM Friday : 11:00 AM - 03:00 AM Saturday : 11:00 AM - 03:00 AM Sunday : 11:00 AM - 02:00 AM,https://www5.pizzapizza.ca/restaurant-locator/Ontario/Vaughan
https://www.pizzapizza.ca/locations/,1430 Major MacKenzie Drive West,1430 Major MacKenzie Drive West,Vaughan,ON,L6A1S2,CA,<MISSING>,<MISSING>,<MISSING>,<MISSING>,<MISSING>,Monday : 11:00 AM - 02:00 AM Tuesday : 11:00 AM - 02:00 AM Wednesday : 11:00 AM - 02:00 AM Thursday : 11:00 AM - 03:00 AM Friday : 11:00 AM - 03:00 AM Saturday : 11:00 AM - 03:00 AM Sunday : 11:00 AM - 02:00 AM,https://www5.pizzapizza.ca/restaurant-locator/Ontario/Vaughan
https://www.pizzapizza.ca/locations/,75 Mosely Street,75 Mosely Street,Wasaga Beach,ON,L0L2P0,CA,<MISSING>,<MISSING>,<MISSING>,<MISSING>,<MISSING>,Monday : 11:00 AM - 10:00 PM Tuesday : 11:00 AM - 10:00 PM Wednesday : 11:00 AM - 10:00 PM Thursday : 11:00 AM - 10:00 PM Friday : 11:00 AM - 11:59 PM Saturday : 11:00 AM - 11:59 PM Sunday : 11:00 AM - 10:00 PM,https://www5.pizzapizza.ca/restaurant-locator/Ontario/Wasaga_Beach
https://www.pizzapizza.ca/locations/,255 Dundas Street East,255 Dundas Street East,Waterdown,ON,L0R2H6,CA,<MISSING>,<MISSING>,<MISSING>,<MISSING>,<MISSING>,Monday : 11:00 AM - 11:59 PM Tuesday : 11:00 AM - 11:59 PM Wednesday : 11:00 AM - 11:59 PM Thursday : 11:00 AM - 11:59 PM Friday : 11:00 AM - 03:00 AM Saturday : 11:00 AM - 03:00 AM Sunday : 11:00 AM - 11:59 PM,https://www5.pizzapizza.ca/restaurant-locator/Ontario/Waterdown
https://www.pizzapizza.ca/locations/,3 247 King Street North,3 247 King Street North,Waterloo,ON,N2J2Y8,CA,<MISSING>,<MISSING>,<MISSING>,<MISSING>,<MISSING>,Monday : 11:00 AM - 02:00 AM Tuesday : 11:00 AM - 02:00 AM Wednesday : 11:00 AM - 02:00 AM Thursday : 11:00 AM - 03:00 AM Friday : 11:00 AM - 03:00 AM Saturday : 11:00 AM - 03:00 AM Sunday : 11:00 AM - 02:00 AM,https://www5.pizzapizza.ca/restaurant-locator/Ontario/Waterloo
https://www.pizzapizza.ca/locations/,496 Albert Street,496 Albert Street,Waterloo,ON,N2L3V4,CA,<MISSING>,<MISSING>,<MISSING>,<MISSING>,<MISSING>,Monday : 11:00 AM - 02:00 AM Tuesday : 11:00 AM - 02:00 AM Wednesday : 11:00 AM - 02:00 AM Thursday : 11:00 AM - 03:00 AM Friday : 11:00 AM - 03:00 AM Saturday : 11:00 AM - 03:00 AM Sunday : 11:00 AM - 02:00 AM,https://www5.pizzapizza.ca/restaurant-locator/Ontario/Waterloo
https://www.pizzapizza.ca/locations/,450 Erb St. West,450 Erb St. West,Waterloo,ON,N2T1H4,CA,<MISSING>,<MISSING>,<MISSING>,<MISSING>,<MISSING>,Monday : 11:00 AM - 02:00 AM Tuesday : 11:00 AM - 02:00 AM Wednesday : 11:00 AM - 02:00 AM Thursday : 11:00 AM - 03:00 AM Friday : 11:00 AM - 03:00 AM Saturday : 11:00 AM - 03:00 AM Sunday : 11:00 AM - 02:00 AM,https://www5.pizzapizza.ca/restaurant-locator/Ontario/Waterloo
https://www.pizzapizza.ca/locations/,800 Niagara Street,800 Niagara Street,Welland,ON,L3C5Z4,CA,<MISSING>,<MISSING>,<MISSING>,<MISSING>,<MISSING>,Monday : 11:00 AM - 02:00 AM Tuesday : 11:00 AM - 02:00 AM Wednesday : 11:00 AM - 02:00 AM Thursday : 11:00 AM - 03:00 AM Friday : 11:00 AM - 03:00 AM Saturday : 11:00 AM - 03:00 AM Sunday : 11:00 AM - 02:00 AM,https://www5.pizzapizza.ca/restaurant-locator/Ontario/Welland
https://www.pizzapizza.ca/locations/,315 Dundas Street East,315 Dundas Street East,Whitby,ON,L1N2J2,CA,<MISSING>,<MISSING>,<MISSING>,<MISSING>,<MISSING>,Monday : 11:00 AM - 02:00 AM Tuesday : 11:00 AM - 02:00 AM Wednesday : 11:00 AM - 02:00 AM Thursday : 11:00 AM - 03:00 AM Friday : 11:00 AM - 03:00 AM Saturday : 11:00 AM - 03:00 AM Sunday : 11:00 AM - 02:00 AM,https://www5.pizzapizza.ca/restaurant-locator/Ontario/Whitby
https://www.pizzapizza.ca/locations/,80 Thickson Road South,80 Thickson Road South,Whitby,ON,L1N7T2,CA,<MISSING>,<MISSING>,<MISSING>,<MISSING>,<MISSING>,Monday : 11:00 AM - 02:00 AM Tuesday : 11:00 AM - 02:00 AM Wednesday : 11:00 AM - 02:00 AM Thursday : 11:00 AM - 03:00 AM Friday : 11:00 AM - 03:00 AM Saturday : 11:00 AM - 03:00 AM Sunday : 11:00 AM - 02:00 AM,https://www5.pizzapizza.ca/restaurant-locator/Ontario/Whitby
https://www.pizzapizza.ca/locations/,1200 Rossland Road East,1200 Rossland Road East,Whitby,ON,L1N8H3,CA,<MISSING>,<MISSING>,<MISSING>,<MISSING>,<MISSING>,Monday : 11:00 AM - 02:00 AM Tuesday : 11:00 AM - 02:00 AM Wednesday : 11:00 AM - 02:00 AM Thursday : 11:00 AM - 03:00 AM Friday : 11:00 AM - 03:00 AM Saturday : 11:00 AM - 03:00 AM Sunday : 11:00 AM - 02:00 AM,https://www5.pizzapizza.ca/restaurant-locator/Ontario/Whitby
https://www.pizzapizza.ca/locations/,3570 Brock Street North,3570 Brock Street North,Whitby,ON,L1N5R5,CA,<MISSING>,<MISSING>,<MISSING>,<MISSING>,<MISSING>,Monday : 11:00 AM - 02:00 AM Tuesday : 11:00 AM - 02:00 AM Wednesday : 11:00 AM - 02:00 AM Thursday : 11:00 AM - 03:00 AM Friday : 11:00 AM - 03:00 AM Saturday : 11:00 AM - 03:00 AM Sunday : 11:00 AM - 02:00 AM,https://www5.pizzapizza.ca/restaurant-locator/Ontario/Whitby
https://www.pizzapizza.ca/locations/,2203 Wyandotte Street West,2203 Wyandotte Street West,Windsor,ON,N9B1K3,CA,<MISSING>,<MISSING>,<MISSING>,<MISSING>,<MISSING>,Monday : 11:00 AM - 02:00 AM Tuesday : 11:00 AM - 02:00 AM Wednesday : 11:00 AM - 02:00 AM Thursday : 11:00 AM - 03:00 AM Friday : 11:00 AM - 03:00 AM Saturday : 11:00 AM - 03:00 AM Sunday : 11:00 AM - 02:00 AM,https://www5.pizzapizza.ca/restaurant-locator/Ontario/Windsor
https://www.pizzapizza.ca/locations/,472 Tecumseh Road East,472 Tecumseh Road East,Windsor,ON,N8X4W5,CA,<MISSING>,<MISSING>,<MISSING>,<MISSING>,<MISSING>,Monday : 11:00 AM - 11:59 PM Tuesday : 11:00 AM - 11:59 PM Wednesday : 11:00 AM - 11:59 PM Thursday : 11:00 AM - 11:59 PM Friday : 11:00 AM - 03:00 AM Saturday : 11:00 AM - 03:00 AM Sunday : 11:00 AM - 11:59 PM,https://www5.pizzapizza.ca/restaurant-locator/Ontario/Windsor
https://www.pizzapizza.ca/locations/,5400 Tecumseh Road East,5400 Tecumseh Road East,Windsor,ON,N8T1C5,CA,<MISSING>,<MISSING>,<MISSING>,<MISSING>,<MISSING>,Monday : 11:00 AM - 02:00 AM Tuesday : 11:00 AM - 02:00 AM Wednesday : 11:00 AM - 02:00 AM Thursday : 11:00 AM - 03:00 AM Friday : 11:00 AM - 03:00 AM Saturday : 11:00 AM - 03:00 AM Sunday : 11:00 AM - 02:00 AM,https://www5.pizzapizza.ca/restaurant-locator/Ontario/Windsor
https://www.pizzapizza.ca/locations/,294 Ouellette Avenue,294 Ouellette Avenue,Windsor,ON,N9A1A5,CA,<MISSING>,<MISSING>,<MISSING>,<MISSING>,<MISSING>,Monday : 11:00 AM - 02:00 AM Tuesday : 11:00 AM - 02:00 AM Wednesday : 11:00 AM - 02:00 AM Thursday : 11:00 AM - 03:00 AM Friday : 11:00 AM - 03:00 AM Saturday : 11:00 AM - 03:00 AM Sunday : 11:00 AM - 02:00 AM,https://www5.pizzapizza.ca/restaurant-locator/Ontario/Windsor
https://www.pizzapizza.ca/locations/,7694 Islington Avenue,7694 Islington Avenue,Woodbridge,ON,L4L1W3,CA,<MISSING>,<MISSING>,<MISSING>,<MISSING>,<MISSING>,Monday : 11:00 AM - 02:00 AM Tuesday : 11:00 AM - 02:00 AM Wednesday : 11:00 AM - 02:00 AM Thursday : 11:00 AM - 03:00 AM Friday : 11:00 AM - 03:00 AM Saturday : 11:00 AM - 03:00 AM Sunday : 11:00 AM - 02:00 AM,https://www5.pizzapizza.ca/restaurant-locator/Ontario/Woodbridge
https://www.pizzapizza.ca/locations/,7600 Weston Road,7600 Weston Road,Woodbridge,ON,L4L8B7,CA,<MISSING>,<MISSING>,<MISSING>,<MISSING>,<MISSING>,Monday : 11:00 AM - 02:00 AM Tuesday : 11:00 AM - 02:00 AM Wednesday : 11:00 AM - 02:00 AM Thursday : 11:00 AM - 03:00 AM Friday : 11:00 AM - 03:00 AM Saturday : 11:00 AM - 03:00 AM Sunday : 11:00 AM - 02:00 AM,https://www5.pizzapizza.ca/restaurant-locator/Ontario/Woodbridge
https://www.pizzapizza.ca/locations/,9600 Islington Avenue,9600 Islington Avenue,Woodbridge,ON,L4L1A7,CA,<MISSING>,<MISSING>,<MISSING>,<MISSING>,<MISSING>,Monday : 11:00 AM - 11:59 PM Tuesday : 11:00 AM - 11:59 PM Wednesday : 11:00 AM - 11:59 PM Thursday : 11:00 AM - 11:59 PM Friday : 11:00 AM - 03:00 AM Saturday : 11:00 AM - 03:00 AM Sunday : 11:00 AM - 11:59 PM,https://www5.pizzapizza.ca/restaurant-locator/Ontario/Woodbridge
https://www.pizzapizza.ca/locations/,609 Dundas East Street,609 Dundas East Street,Woodstock,ON,N4S1C9,CA,<MISSING>,<MISSING>,<MISSING>,<MISSING>,<MISSING>,Monday : 11:00 AM - 02:00 AM Tuesday : 11:00 AM - 02:00 AM Wednesday : 11:00 AM - 02:00 AM Thursday : 11:00 AM - 03:00 AM Friday : 11:00 AM - 03:00 AM Saturday : 11:00 AM - 03:00 AM Sunday : 11:00 AM - 02:00 AM,https://www5.pizzapizza.ca/restaurant-locator/Ontario/Woodstock
https://www.pizzapizza.ca/locations/,500 Rogers Road,500 Rogers Road,York,ON,M6M1B3,CA,<MISSING>,<MISSING>,<MISSING>,<MISSING>,<MISSING>,Monday : 11:00 AM - 02:00 AM Tuesday : 11:00 AM - 02:00 AM Wednesday : 11:00 AM - 02:00 AM Thursday : 11:00 AM - 03:00 AM Friday : 11:00 AM - 03:00 AM Saturday : 11:00 AM - 03:00 AM Sunday : 11:00 AM - 02:00 AM,https://www5.pizzapizza.ca/restaurant-locator/Ontario/York
https://www.pizzapizza.ca/locations/,1601 Eglinton Ave West.,1601 Eglinton Ave West.,York,ON,M6E2H1,CA,<MISSING>,<MISSING>,<MISSING>,<MISSING>,<MISSING>,Monday : 11:00 AM - 02:00 AM Tuesday : 11:00 AM - 02:00 AM Wednesday : 11:00 AM - 02:00 AM Thursday : 11:00 AM - 03:00 AM Friday : 11:00 AM - 03:00 AM Saturday : 11:00 AM - 03:00 AM Sunday : 11:00 AM - 02:00 AM,https://www5.pizzapizza.ca/restaurant-locator/Ontario/York
https://www.pizzapizza.ca/locations/,3000 Boulevard De Rome,3000 Boulevard De Rome,Brossard,QC,J4Y1V9,CA,<MISSING>,<MISSING>,<MISSING>,<MISSING>,<MISSING>,Monday : 11:00 AM - 01:00 AM Tuesday : 11:00 AM - 01:00 AM Wednesday : 11:00 AM - 01:00 AM Thursday : 11:00 AM - 01:00 AM Friday : 11:00 AM - 03:00 AM Saturday : 11:00 AM - 03:00 AM Sunday : 11:00 AM - 01:00 AM,https://www5.pizzapizza.ca/restaurant-locator/Quebec/Brossard
https://www.pizzapizza.ca/locations/,8075 boulevard du Quartier,8075 boulevard du Quartier,Brossard,QC,J4Y0N5,CA,<MISSING>,<MISSING>,<MISSING>,<MISSING>,<MISSING>,Monday : 11:00 AM - 01:00 AM Tuesday : 11:00 AM - 01:00 AM Wednesday : 11:00 AM - 01:00 AM Thursday : 11:00 AM - 02:00 AM Friday : 11:00 AM - 02:00 AM Saturday : 11:00 AM - 02:00 AM Sunday : 11:00 AM - 02:00 AM,https://www5.pizzapizza.ca/restaurant-locator/Quebec/Brossard
https://www.pizzapizza.ca/locations/,100 Boulevard D Anjou,100 Boulevard D Anjou,Chateauguay,QC,J6K1C4,CA,<MISSING>,<MISSING>,<MISSING>,<MISSING>,<MISSING>,Monday : 11:00 AM - 01:00 AM Tuesday : 11:00 AM - 01:00 AM Wednesday : 11:00 AM - 01:00 AM Thursday : 11:00 AM - 01:00 AM Friday : 11:00 AM - 03:00 AM Saturday : 11:00 AM - 03:00 AM Sunday : 11:00 AM - 01:00 AM,https://www5.pizzapizza.ca/restaurant-locator/Quebec/Chateauguay
https://www.pizzapizza.ca/locations/,123 Greber Blvd,123 Greber Blvd,Gatineau,QC,J8T3R1,CA,<MISSING>,<MISSING>,<MISSING>,<MISSING>,<MISSING>,Monday : 11:00 AM - 12:59 AM Tuesday : 11:00 AM - 12:59 AM Wednesday : 11:00 AM - 12:59 AM Thursday : 11:00 AM - 03:00 AM Friday : 11:00 AM - 03:00 AM Saturday : 11:00 AM - 03:00 AM Sunday : 11:00 AM - 12:59 AM,https://www5.pizzapizza.ca/restaurant-locator/Quebec/Gatineau
https://www.pizzapizza.ca/locations/,210 Aylmer Road,210 Aylmer Road,Gatineau,QC,J9H1A2,CA,<MISSING>,<MISSING>,<MISSING>,<MISSING>,<MISSING>,Monday : 11:00 AM - 11:59 PM Tuesday : 11:00 AM - 11:59 PM Wednesday : 11:00 AM - 11:59 PM Thursday : 11:00 AM - 11:59 PM Friday : 11:00 AM - 03:00 AM Saturday : 11:00 AM - 03:00 AM Sunday : 11:00 AM - 11:59 PM,https://www5.pizzapizza.ca/restaurant-locator/Quebec/Gatineau
https://www.pizzapizza.ca/locations/,434 St Joseph Boulevard,434 St Joseph Boulevard,Gatineau,QC,J8Y3Y7,CA,<MISSING>,<MISSING>,<MISSING>,<MISSING>,<MISSING>,Monday : 11:00 AM - 12:59 AM Tuesday : 11:00 AM - 12:59 AM Wednesday : 11:00 AM - 12:59 AM Thursday : 11:00 AM - 03:00 AM Friday : 11:00 AM - 03:00 AM Saturday : 11:00 AM - 03:00 AM Sunday : 11:00 AM - 12:59 AM,https://www5.pizzapizza.ca/restaurant-locator/Quebec/Gatineau
https://www.pizzapizza.ca/locations/,7 381 Maloney Boulevard East,7 381 Maloney Boulevard East,Gatineau,QC,J8P3L5,CA,<MISSING>,<MISSING>,<MISSING>,<MISSING>,<MISSING>,Monday : 11:00 AM - 02:00 AM Tuesday : 11:00 AM - 02:00 AM Wednesday : 11:00 AM - 02:00 AM Thursday : 11:00 AM - 03:00 AM Friday : 11:00 AM - 03:00 AM Saturday : 11:00 AM - 03:00 AM Sunday : 11:00 AM - 02:00 AM,https://www5.pizzapizza.ca/restaurant-locator/Quebec/Gatineau
https://www.pizzapizza.ca/locations/,2 Rue Georges-Bilodeau,2 Rue Georges-Bilodeau,Gatineau,QC,J8Z1V2,CA,<MISSING>,<MISSING>,<MISSING>,<MISSING>,<MISSING>,Monday : 11:00 AM - 02:00 AM Tuesday : 11:00 AM - 02:00 AM Wednesday : 11:00 AM - 02:00 AM Thursday : 11:00 AM - 03:00 AM Friday : 11:00 AM - 03:00 AM Saturday : 11:00 AM - 03:00 AM Sunday : 11:00 AM - 02:00 AM,https://www5.pizzapizza.ca/restaurant-locator/Quebec/Gatineau
https://www.pizzapizza.ca/locations/,3308 Taschereau Boulevard,3308 Taschereau Boulevard,Greenfield Park,QC,J4V2H6,CA,<MISSING>,<MISSING>,<MISSING>,<MISSING>,<MISSING>,Monday : 11:00 AM - 02:00 AM Tuesday : 11:00 AM - 02:00 AM Wednesday : 11:00 AM - 02:00 AM Thursday : 11:00 AM - 03:00 AM Friday : 11:00 AM - 03:00 AM Saturday : 11:00 AM - 03:00 AM Sunday : 11:00 AM - 02:00 AM,https://www5.pizzapizza.ca/restaurant-locator/Quebec/Greenfield_Park
https://www.pizzapizza.ca/locations/,100 Boulevard Don Quichotte,100 Boulevard Don Quichotte,ile Perrot,QC,J7V7X4,CA,<MISSING>,<MISSING>,<MISSING>,<MISSING>,<MISSING>,Monday : 11:00 AM - 11:00 PM Tuesday : 11:00 AM - 11:00 PM Wednesday : 11:00 AM - 11:00 PM Thursday : 11:00 AM - 11:00 PM Friday : 11:00 AM - 01:00 AM Saturday : 11:00 AM - 01:00 AM Sunday : 11:00 AM - 11:00 PM,https://www5.pizzapizza.ca/restaurant-locator/Quebec/ile_Perrot
https://www.pizzapizza.ca/locations/,7745 Boulevard Newman,7745 Boulevard Newman,Lasalle,QC,H8N1X7,CA,<MISSING>,<MISSING>,<MISSING>,<MISSING>,<MISSING>,Monday : 11:00 AM - 01:00 AM Tuesday : 11:00 AM - 01:00 AM Wednesday : 11:00 AM - 01:00 AM Thursday : 11:00 AM - 01:00 AM Friday : 11:00 AM - 03:00 AM Saturday : 11:00 AM - 03:00 AM Sunday : 11:00 AM - 01:00 AM,https://www5.pizzapizza.ca/restaurant-locator/Quebec/Lasalle
https://www.pizzapizza.ca/locations/,662 Boulevard Des Laurentides,662 Boulevard Des Laurentides,Laval,QC,H7G2V9,CA,<MISSING>,<MISSING>,<MISSING>,<MISSING>,<MISSING>,Monday : 11:00 AM - 02:00 AM Tuesday : 11:00 AM - 02:00 AM Wednesday : 11:00 AM - 02:00 AM Thursday : 11:00 AM - 03:00 AM Friday : 11:00 AM - 03:00 AM Saturday : 11:00 AM - 03:00 AM Sunday : 11:00 AM - 02:00 AM,https://www5.pizzapizza.ca/restaurant-locator/Quebec/Laval
https://www.pizzapizza.ca/locations/,2155 Boulevard Cure-Labelle,2155 Boulevard Cure-Labelle,Laval,QC,H7T1R3,CA,<MISSING>,<MISSING>,<MISSING>,<MISSING>,<MISSING>,Monday : 11:00 AM - 01:00 AM Tuesday : 11:00 AM - 01:00 AM Wednesday : 11:00 AM - 01:00 AM Thursday : 11:00 AM - 01:00 AM Friday : 11:00 AM - 03:00 AM Saturday : 11:00 AM - 03:00 AM Sunday : 11:00 AM - 01:00 AM,https://www5.pizzapizza.ca/restaurant-locator/Quebec/Laval
https://www.pizzapizza.ca/locations/,1785 Boulevard Sainte Martin Ouest,1785 Boulevard Sainte Martin Ouest,Laval,QC,H7S1N2,CA,<MISSING>,<MISSING>,<MISSING>,<MISSING>,<MISSING>,Monday : 11:00 AM - 02:00 AM Tuesday : 11:00 AM - 02:00 AM Wednesday : 11:00 AM - 02:00 AM Thursday : 11:00 AM - 03:00 AM Friday : 11:00 AM - 03:00 AM Saturday : 11:00 AM - 03:00 AM Sunday : 11:00 AM - 02:00 AM,https://www5.pizzapizza.ca/restaurant-locator/Quebec/Laval
https://www.pizzapizza.ca/locations/,240 Boulevard Cure Labelle,240 Boulevard Cure Labelle,Laval,QC,H7L3A1,CA,<MISSING>,<MISSING>,<MISSING>,<MISSING>,<MISSING>,Monday : 11:00 AM - 01:00 AM Tuesday : 11:00 AM - 01:00 AM Wednesday : 11:00 AM - 01:00 AM Thursday : 11:00 AM - 01:00 AM Friday : 11:00 AM - 03:00 AM Saturday : 11:00 AM - 03:00 AM Sunday : 11:00 AM - 01:00 AM,https://www5.pizzapizza.ca/restaurant-locator/Quebec/Laval
https://www.pizzapizza.ca/locations/,241 Boulevard Samson,241 Boulevard Samson,Laval,QC,H7X3E4,CA,<MISSING>,<MISSING>,<MISSING>,<MISSING>,<MISSING>,Monday : 11:00 AM - 01:00 AM Tuesday : 11:00 AM - 01:00 AM Wednesday : 11:00 AM - 01:00 AM Thursday : 11:00 AM - 01:00 AM Friday : 11:00 AM - 03:00 AM Saturday : 11:00 AM - 03:00 AM Sunday : 11:00 AM - 01:00 AM,https://www5.pizzapizza.ca/restaurant-locator/Quebec/Laval
https://www.pizzapizza.ca/locations/,2005 Boul des Laurentides,2005 Boul des Laurentides,Laval,QC,H7S1P7,CA,<MISSING>,<MISSING>,<MISSING>,<MISSING>,<MISSING>,Monday : 11:00 AM - 01:00 AM Tuesday : 11:00 AM - 01:00 AM Wednesday : 11:00 AM - 01:00 AM Thursday : 11:00 AM - 01:00 AM Friday : 11:00 AM - 03:00 AM Saturday : 11:00 AM - 03:00 AM Sunday : 11:00 AM - 01:00 AM,https://www5.pizzapizza.ca/restaurant-locator/Quebec/Laval
https://www.pizzapizza.ca/locations/,1945 Boulevard Roland Therrien,1945 Boulevard Roland Therrien,Longueuil,QC,J4N1A3,CA,<MISSING>,<MISSING>,<MISSING>,<MISSING>,<MISSING>,Monday : 11:00 AM - 01:00 AM Tuesday : 11:00 AM - 01:00 AM Wednesday : 11:00 AM - 01:00 AM Thursday : 11:00 AM - 01:00 AM Friday : 11:00 AM - 03:00 AM Saturday : 11:00 AM - 03:00 AM Sunday : 11:00 AM - 01:00 AM,https://www5.pizzapizza.ca/restaurant-locator/Quebec/Longueuil
https://www.pizzapizza.ca/locations/,884 Rue Saint-Laurent Ouest,884 Rue Saint-Laurent Ouest,Longueuil,QC,J4K5E9,CA,<MISSING>,<MISSING>,<MISSING>,<MISSING>,<MISSING>,Monday : 11:00 AM - 01:00 AM Tuesday : 11:00 AM - 01:00 AM Wednesday : 11:00 AM - 01:00 AM Thursday : 11:00 AM - 01:00 AM Friday : 11:00 AM - 03:00 AM Saturday : 11:00 AM - 03:00 AM Sunday : 11:00 AM - 01:00 AM,https://www5.pizzapizza.ca/restaurant-locator/Quebec/Longueuil
https://www.pizzapizza.ca/locations/,5508 Rue Sherbrooke Ouest,5508 Rue Sherbrooke Ouest,Montreal,QC,H4A1W2,CA,<MISSING>,<MISSING>,<MISSING>,<MISSING>,<MISSING>,Monday : 11:00 AM - 02:00 AM Tuesday : 11:00 AM - 02:00 AM Wednesday : 11:00 AM - 02:00 AM Thursday : 11:00 AM - 03:00 AM Friday : 11:00 AM - 03:00 AM Saturday : 11:00 AM - 03:00 AM Sunday : 11:00 AM - 02:00 AM,https://www5.pizzapizza.ca/restaurant-locator/Quebec/Montreal
https://www.pizzapizza.ca/locations/,6390 Rue Sherbrooke Ouest,6390 Rue Sherbrooke Ouest,Montreal,QC,H4B1M9,CA,<MISSING>,<MISSING>,<MISSING>,<MISSING>,<MISSING>,Monday : 11:00 AM - 02:00 AM Tuesday : 11:00 AM - 02:00 AM Wednesday : 11:00 AM - 02:00 AM Thursday : 11:00 AM - 03:00 AM Friday : 11:00 AM - 03:00 AM Saturday : 11:00 AM - 03:00 AM Sunday : 11:00 AM - 02:00 AM,https://www5.pizzapizza.ca/restaurant-locator/Quebec/Montreal
https://www.pizzapizza.ca/locations/,14860 Boulevard Pierrefonds,14860 Boulevard Pierrefonds,Montreal,QC,H9H4Y6,CA,<MISSING>,<MISSING>,<MISSING>,<MISSING>,<MISSING>,Monday : 11:00 AM - 01:00 AM Tuesday : 11:00 AM - 01:00 AM Wednesday : 11:00 AM - 01:00 AM Thursday : 11:00 AM - 01:00 AM Friday : 11:00 AM - 03:00 AM Saturday : 11:00 AM - 03:00 AM Sunday : 11:00 AM - 01:00 AM,https://www5.pizzapizza.ca/restaurant-locator/Quebec/Montreal
https://www.pizzapizza.ca/locations/,5184 Avenue du Parc,5184 Avenue du Parc,Montreal,QC,H2V4G6,CA,<MISSING>,<MISSING>,<MISSING>,<MISSING>,<MISSING>,Monday : 11:00 AM - 01:00 AM Tuesday : 11:00 AM - 01:00 AM Wednesday : 11:00 AM - 01:00 AM Thursday : 11:00 AM - 01:00 AM Friday : 11:00 AM - 03:00 AM Saturday : 11:00 AM - 03:00 AM Sunday : 11:00 AM - 01:00 AM,https://www5.pizzapizza.ca/restaurant-locator/Quebec/Montreal
https://www.pizzapizza.ca/locations/,1846 Rue Sainte Catherine Ouest,1846 Rue Sainte Catherine Ouest,Montreal,QC,H3H1M1,CA,<MISSING>,<MISSING>,<MISSING>,<MISSING>,<MISSING>,Monday : 11:00 AM - 02:00 AM Tuesday : 11:00 AM - 02:00 AM Wednesday : 11:00 AM - 02:00 AM Thursday : 11:00 AM - 03:00 AM Friday : 11:00 AM - 03:00 AM Saturday : 11:00 AM - 03:00 AM Sunday : 11:00 AM - 02:00 AM,https://www5.pizzapizza.ca/restaurant-locator/Quebec/Montreal
https://www.pizzapizza.ca/locations/,1001 Rue Sainte Catherine Est,1001 Rue Sainte Catherine Est,Montreal,QC,H2L2G4,CA,<MISSING>,<MISSING>,<MISSING>,<MISSING>,<MISSING>,Monday : 11:00 AM - 02:00 AM Tuesday : 11:00 AM - 02:00 AM Wednesday : 11:00 AM - 02:00 AM Thursday : 11:00 AM - 03:00 AM Friday : 11:00 AM - 03:00 AM Saturday : 11:00 AM - 03:00 AM Sunday : 11:00 AM - 02:00 AM,https://www5.pizzapizza.ca/restaurant-locator/Quebec/Montreal
https://www.pizzapizza.ca/locations/,6185 Chemin De La Cote-Des-Neiges,6185 Chemin De La Cote-Des-Neiges,Montreal,QC,H3S1Z9,CA,<MISSING>,<MISSING>,<MISSING>,<MISSING>,<MISSING>,Monday : 11:00 AM - 01:00 AM Tuesday : 11:00 AM - 01:00 AM Wednesday : 11:00 AM - 01:00 AM Thursday : 11:00 AM - 01:00 AM Friday : 11:00 AM - 03:00 AM Saturday : 11:00 AM - 03:00 AM Sunday : 11:00 AM - 01:00 AM,https://www5.pizzapizza.ca/restaurant-locator/Quebec/Montreal
https://www.pizzapizza.ca/locations/,414 Jean Talon Ouest,414 Jean Talon Ouest,Montreal,QC,H3N1R2,CA,<MISSING>,<MISSING>,<MISSING>,<MISSING>,<MISSING>,Monday : 11:00 AM - 01:00 AM Tuesday : 11:00 AM - 01:00 AM Wednesday : 11:00 AM - 01:00 AM Thursday : 11:00 AM - 01:00 AM Friday : 11:00 AM - 03:00 AM Saturday : 11:00 AM - 03:00 AM Sunday : 11:00 AM - 01:00 AM,https://www5.pizzapizza.ca/restaurant-locator/Quebec/Montreal
https://www.pizzapizza.ca/locations/,500 Boulevard Henri Bourassa Est,500 Boulevard Henri Bourassa Est,Montreal,QC,H3L1C6,CA,<MISSING>,<MISSING>,<MISSING>,<MISSING>,<MISSING>,Monday : 11:00 AM - 02:00 AM Tuesday : 11:00 AM - 02:00 AM Wednesday : 11:00 AM - 02:00 AM Thursday : 11:00 AM - 03:00 AM Friday : 11:00 AM - 03:00 AM Saturday : 11:00 AM - 03:00 AM Sunday : 11:00 AM - 02:00 AM,https://www5.pizzapizza.ca/restaurant-locator/Quebec/Montreal
https://www.pizzapizza.ca/locations/,3714 Boulevard Sainte Laurent,3714 Boulevard Sainte Laurent,Montreal,QC,H2X1A1,CA,<MISSING>,<MISSING>,<MISSING>,<MISSING>,<MISSING>,Monday : 11:00 AM - 01:00 AM Tuesday : 11:00 AM - 01:00 AM Wednesday : 11:00 AM - 01:00 AM Thursday : 11:00 AM - 01:00 AM Friday : 11:00 AM - 03:00 AM Saturday : 11:00 AM - 03:00 AM Sunday : 11:00 AM - 01:00 AM,https://www5.pizzapizza.ca/restaurant-locator/Quebec/Montreal
https://www.pizzapizza.ca/locations/,4911 Boulevard des Sources,4911 Boulevard des Sources,Pierrefonds,QC,H8Y3C8,CA,<MISSING>,<MISSING>,<MISSING>,<MISSING>,<MISSING>,Monday : 11:00 AM - 01:00 AM Tuesday : 11:00 AM - 01:00 AM Wednesday : 11:00 AM - 01:00 AM Thursday : 11:00 AM - 01:00 AM Friday : 11:00 AM - 03:00 AM Saturday : 11:00 AM - 03:00 AM Sunday : 11:00 AM - 01:00 AM,https://www5.pizzapizza.ca/restaurant-locator/Quebec/Pierrefonds
https://www.pizzapizza.ca/locations/,12908 Rue Sherbrooke Est,12908 Rue Sherbrooke Est,Pointe-aux-Trembles,QC,H1A4Y3,CA,<MISSING>,<MISSING>,<MISSING>,<MISSING>,<MISSING>,Monday : 11:00 AM - 01:00 AM Tuesday : 11:00 AM - 01:00 AM Wednesday : 11:00 AM - 01:00 AM Thursday : 11:00 AM - 01:00 AM Friday : 11:00 AM - 03:00 AM Saturday : 11:00 AM - 03:00 AM Sunday : 11:00 AM - 01:00 AM,https://www5.pizzapizza.ca/restaurant-locator/Quebec/Pointe-aux-Trembles
https://www.pizzapizza.ca/locations/,8000 Boulevard Henri Bourassa,8000 Boulevard Henri Bourassa,Riviere Des Prairies,QC,H1E1P2,CA,<MISSING>,<MISSING>,<MISSING>,<MISSING>,<MISSING>,Monday : 11:00 AM - 02:00 AM Tuesday : 11:00 AM - 02:00 AM Wednesday : 11:00 AM - 02:00 AM Thursday : 11:00 AM - 03:00 AM Friday : 11:00 AM - 03:00 AM Saturday : 11:00 AM - 03:00 AM Sunday : 11:00 AM - 02:00 AM,https://www5.pizzapizza.ca/restaurant-locator/Quebec/Riviere_Des_Prairies
https://www.pizzapizza.ca/locations/,679 Lariviere Avenue,679 Lariviere Avenue,Rouyn,QC,J9X4K1,CA,<MISSING>,<MISSING>,<MISSING>,<MISSING>,<MISSING>,Monday : 11:00 AM - 10:00 PM Tuesday : 11:00 AM - 10:00 PM Wednesday : 11:00 AM - 10:00 PM Thursday : 11:00 AM - 10:00 PM Friday : 11:00 AM - 11:00 PM Saturday : 11:00 AM - 10:00 PM Sunday : 11:00 AM - 10:00 PM,https://www5.pizzapizza.ca/restaurant-locator/Quebec/Rouyn
https://www.pizzapizza.ca/locations/,210 Boul. Rideau,210 Boul. Rideau,Rouyn,QC,J9X1P1,CA,<MISSING>,<MISSING>,<MISSING>,<MISSING>,<MISSING>,Monday : 11:00 AM - 10:00 PM Tuesday : 11:00 AM - 10:00 PM Wednesday : 11:00 AM - 10:00 PM Thursday : 11:00 AM - 10:00 PM Friday : 11:00 AM - 11:00 PM Saturday : 11:00 AM - 10:00 PM Sunday : 11:00 AM - 10:00 PM,https://www5.pizzapizza.ca/restaurant-locator/Quebec/Rouyn
https://www.pizzapizza.ca/locations/,1000 Boulevard Decarie,1000 Boulevard Decarie,Saint Laurent,QC,H4L3M5,CA,<MISSING>,<MISSING>,<MISSING>,<MISSING>,<MISSING>,Monday : 11:00 AM - 01:00 AM Tuesday : 11:00 AM - 01:00 AM Wednesday : 11:00 AM - 01:00 AM Thursday : 11:00 AM - 01:00 AM Friday : 11:00 AM - 03:00 AM Saturday : 11:00 AM - 03:00 AM Sunday : 11:00 AM - 01:00 AM,https://www5.pizzapizza.ca/restaurant-locator/Quebec/Saint_Laurent
https://www.pizzapizza.ca/locations/,5980 Boulevard Cousineau,5980 Boulevard Cousineau,Saint-Hubert,QC,J3Y7R9,CA,<MISSING>,<MISSING>,<MISSING>,<MISSING>,<MISSING>,Monday : 11:00 AM - 01:00 AM Tuesday : 11:00 AM - 01:00 AM Wednesday : 11:00 AM - 01:00 AM Thursday : 11:00 AM - 01:00 AM Friday : 11:00 AM - 03:00 AM Saturday : 11:00 AM - 03:00 AM Sunday : 11:00 AM - 01:00 AM,https://www5.pizzapizza.ca/restaurant-locator/Quebec/Saint-Hubert
https://www.pizzapizza.ca/locations/,8705 Boulevard Viau,8705 Boulevard Viau,Sainte Leonard,QC,H1R2T9,CA,<MISSING>,<MISSING>,<MISSING>,<MISSING>,<MISSING>,Monday : 11:00 AM - 02:00 AM Tuesday : 11:00 AM - 02:00 AM Wednesday : 11:00 AM - 02:00 AM Thursday : 11:00 AM - 03:00 AM Friday : 11:00 AM - 03:00 AM Saturday : 11:00 AM - 03:00 AM Sunday : 11:00 AM - 02:00 AM,https://www5.pizzapizza.ca/restaurant-locator/Quebec/Sainte_Leonard
https://www.pizzapizza.ca/locations/,5050 Rue Jean Talon Est,5050 Rue Jean Talon Est,Sainte Leonard,QC,H1S1K6,CA,<MISSING>,<MISSING>,<MISSING>,<MISSING>,<MISSING>,Monday : 11:00 AM - 02:00 AM Tuesday : 11:00 AM - 02:00 AM Wednesday : 11:00 AM - 02:00 AM Thursday : 11:00 AM - 03:00 AM Friday : 11:00 AM - 03:00 AM Saturday : 11:00 AM - 03:00 AM Sunday : 11:00 AM - 02:00 AM,https://www5.pizzapizza.ca/restaurant-locator/Quebec/Sainte_Leonard
https://www.pizzapizza.ca/locations/,6669 Rue Jean Talon Est,6669 Rue Jean Talon Est,Sainte Leonard,QC,H1S1N1,CA,<MISSING>,<MISSING>,<MISSING>,<MISSING>,<MISSING>,Monday : 11:00 AM - 02:00 AM Tuesday : 11:00 AM - 02:00 AM Wednesday : 11:00 AM - 02:00 AM Thursday : 11:00 AM - 03:00 AM Friday : 11:00 AM - 03:00 AM Saturday : 11:00 AM - 03:00 AM Sunday : 11:00 AM - 02:00 AM,https://www5.pizzapizza.ca/restaurant-locator/Quebec/Sainte_Leonard
https://www.pizzapizza.ca/locations/,286 Boulevard Cure Labelle,286 Boulevard Cure Labelle,Sainte-Therese,QC,J7E2X9,CA,<MISSING>,<MISSING>,<MISSING>,<MISSING>,<MISSING>,Monday : 11:00 AM - 02:00 AM Tuesday : 11:00 AM - 02:00 AM Wednesday : 11:00 AM - 02:00 AM Thursday : 11:00 AM - 03:00 AM Friday : 11:00 AM - 03:00 AM Saturday : 11:00 AM - 03:00 AM Sunday : 11:00 AM - 02:00 AM,https://www5.pizzapizza.ca/restaurant-locator/Quebec/Sainte-Therese
https://www.pizzapizza.ca/locations/,2755 Rue King Ouest,2755 Rue King Ouest,Sherbrooke,QC,J1L1C1,CA,<MISSING>,<MISSING>,<MISSING>,<MISSING>,<MISSING>,Monday : 11:00 AM - 10:59 PM Tuesday : 11:00 AM - 10:59 PM Wednesday : 11:00 AM - 10:59 PM Thursday : 11:00 AM - 01:00 AM Friday : 11:00 AM - 01:00 AM Saturday : 11:00 AM - 01:00 AM Sunday : 11:00 AM - 10:59 PM,https://www5.pizzapizza.ca/restaurant-locator/Quebec/Sherbrooke
https://www.pizzapizza.ca/locations/,3061 Boulvard De La Gare,3061 Boulvard De La Gare,Vaudreuil-Dorion,QC,J7V9B9,CA,<MISSING>,<MISSING>,<MISSING>,<MISSING>,<MISSING>,Monday : 11:00 AM - 02:00 AM Tuesday : 11:00 AM - 02:00 AM Wednesday : 11:00 AM - 02:00 AM Thursday : 11:00 AM - 03:00 AM Friday : 11:00 AM - 03:00 AM Saturday : 11:00 AM - 03:00 AM Sunday : 11:00 AM - 02:00 AM,https://www5.pizzapizza.ca/restaurant-locator/Quebec/Vaudreuil-Dorion
https://www.pizzapizza.ca/locations/,4073 Rue Wellington,4073 Rue Wellington,Verdun,QC,H4G1V6,CA,<MISSING>,<MISSING>,<MISSING>,<MISSING>,<MISSING>,Monday : 11:00 AM - 01:00 AM Tuesday : 11:00 AM - 01:00 AM Wednesday : 11:00 AM - 01:00 AM Thursday : 11:00 AM - 01:00 AM Friday : 11:00 AM - 03:00 AM Saturday : 11:00 AM - 03:00 AM Sunday : 11:00 AM - 01:00 AM,https://www5.pizzapizza.ca/restaurant-locator/Quebec/Verdun
https://www.pizzapizza.ca/locations/,4461 Lougheed Hwy,4461 Lougheed Hwy,Burnaby,BC,V5C3Z2,CA,<MISSING>,<MISSING>,<MISSING>,<MISSING>,<MISSING>,Monday : 08:00 AM - 11:00 PM Tuesday : 08:00 AM - 11:00 PM Wednesday : 08:00 AM - 11:00 PM Thursday : 08:00 AM - 12:00 AM Friday : 08:00 AM - 12:00 AM Saturday : 08:00 AM - 12:00 AM Sunday : 08:00 AM - 11:00 PM,https://www5.pizzapizza.ca/restaurant-locator/British_Columbia/Burnaby
https://www.pizzapizza.ca/locations/,8380 112 Street,8380 112 Street,Delta,BC,V4C7A2,CA,<MISSING>,<MISSING>,<MISSING>,<MISSING>,<MISSING>,Monday : 08:00 AM - 11:00 PM Tuesday : 08:00 AM - 11:00 PM Wednesday : 08:00 AM - 11:00 PM Thursday : 08:00 AM - 12:00 AM Friday : 08:00 AM - 12:00 AM Saturday : 08:00 AM - 12:00 AM Sunday : 08:00 AM - 11:00 PM,https://www5.pizzapizza.ca/restaurant-locator/British_Columbia/Delta
https://www.pizzapizza.ca/locations/,527 Sixth Street,527 Sixth Street,New Westminster,BC,V3L3B9,CA,<MISSING>,<MISSING>,<MISSING>,<MISSING>,<MISSING>,Monday : 11:00 AM - 12:00 AM Tuesday : 11:00 AM - 12:00 AM Wednesday : 11:00 AM - 12:00 AM Thursday : 11:00 AM - 12:00 AM Friday : 11:00 AM - 01:55 AM Saturday : 11:00 AM - 01:00 AM Sunday : 11:00 AM - 12:00 AM,https://www5.pizzapizza.ca/restaurant-locator/British_Columbia/New_Westminster
https://www.pizzapizza.ca/locations/,2370 152 Street,2370 152 Street,Surrey,BC,V4A4N9,CA,<MISSING>,<MISSING>,<MISSING>,<MISSING>,<MISSING>,Monday : 08:00 AM - 11:00 PM Tuesday : 08:00 AM - 11:00 PM Wednesday : 08:00 AM - 11:00 PM Thursday : 08:00 AM - 12:00 AM Friday : 08:00 AM - 12:00 AM Saturday : 08:00 AM - 12:00 AM Sunday : 08:00 AM - 11:00 PM,https://www5.pizzapizza.ca/restaurant-locator/British_Columbia/Surrey
https://www.pizzapizza.ca/locations/,5717 152 Street,5717 152 Street,Surrey,BC,V3S9A5,CA,<MISSING>,<MISSING>,<MISSING>,<MISSING>,<MISSING>,Monday : 11:00 AM - 12:00 AM Tuesday : 11:00 AM - 12:00 AM Wednesday : 11:00 AM - 12:00 AM Thursday : 11:00 AM - 12:00 AM Friday : 11:00 AM - 01:59 AM Saturday : 11:00 AM - 01:00 AM Sunday : 11:00 AM - 12:00 AM,https://www5.pizzapizza.ca/restaurant-locator/British_Columbia/Surrey
https://www.pizzapizza.ca/locations/,1893 Cornwall Avenue,1893 Cornwall Avenue,Vancouver,BC,V6J1C6,CA,<MISSING>,<MISSING>,<MISSING>,<MISSING>,<MISSING>,Monday : 11:00 AM - 01:59 AM Tuesday : 11:00 AM - 01:59 AM Wednesday : 11:00 AM - 01:59 AM Thursday : 11:00 AM - 01:59 AM Friday : 11:00 AM - 01:59 AM Saturday : 11:00 AM - 01:00 AM Sunday : 11:00 AM - 01:59 AM,https://www5.pizzapizza.ca/restaurant-locator/British_Columbia/Vancouver
https://www.pizzapizza.ca/locations/,510 First Street,510 First Street,Brandon,MB,R7A2X1,CA,<MISSING>,<MISSING>,<MISSING>,<MISSING>,<MISSING>,Monday : 11:00 AM - 11:59 PM Tuesday : 11:00 AM - 11:59 PM Wednesday : 11:00 AM - 11:59 PM Thursday : 11:00 AM - 11:59 PM Friday : 11:00 AM - 02:00 AM Saturday : 11:00 AM - 02:00 AM Sunday : 11:00 AM - 11:59 PM,https://www5.pizzapizza.ca/restaurant-locator/Manitoba/Brandon
https://www.pizzapizza.ca/locations/,2677 Pembina Highway,2677 Pembina Highway,Winnipeg,MB,R3T2H5,CA,<MISSING>,<MISSING>,<MISSING>,<MISSING>,<MISSING>,Monday : 11:00 AM - 11:59 PM Tuesday : 11:00 AM - 11:59 PM Wednesday : 11:00 AM - 11:59 PM Thursday : 11:00 AM - 11:59 PM Friday : 11:00 AM - 02:00 AM Saturday : 11:00 AM - 02:00 AM Sunday : 11:00 AM - 11:59 PM,https://www5.pizzapizza.ca/restaurant-locator/Manitoba/Winnipeg
https://www.pizzapizza.ca/locations/,1873 Portage Avenue,1873 Portage Avenue,Winnipeg,MB,R3J0H1,CA,<MISSING>,<MISSING>,<MISSING>,<MISSING>,<MISSING>,Monday : 11:00 AM - 11:59 PM Tuesday : 11:00 AM - 11:59 PM Wednesday : 11:00 AM - 11:59 PM Thursday : 11:00 AM - 11:59 PM Friday : 11:00 AM - 02:00 AM Saturday : 11:00 AM - 02:00 AM Sunday : 11:00 AM - 11:59 PM,https://www5.pizzapizza.ca/restaurant-locator/Manitoba/Winnipeg
https://www.pizzapizza.ca/locations/,2230 McPhillips Street,2230 McPhillips Street,Winnipeg,MB,R2V3C8,CA,<MISSING>,<MISSING>,<MISSING>,<MISSING>,<MISSING>,Monday : 10:00 AM - 01:00 AM Tuesday : 10:00 AM - 01:00 AM Wednesday : 10:00 AM - 01:00 AM Thursday : 10:00 AM - 02:00 AM Friday : 10:00 AM - 02:00 AM Saturday : 10:00 AM - 02:00 AM Sunday : 10:00 AM - 01:00 AM,https://www5.pizzapizza.ca/restaurant-locator/Manitoba/Winnipeg
https://www.pizzapizza.ca/locations/,1074 St Marys Road,1074 St Marys Road,Winnipeg,MB,R2M3T3,CA,<MISSING>,<MISSING>,<MISSING>,<MISSING>,<MISSING>,Monday : 11:00 AM - 11:59 PM Tuesday : 11:00 AM - 11:59 PM Wednesday : 11:00 AM - 11:59 PM Thursday : 11:00 AM - 11:59 PM Friday : 11:00 AM - 02:00 AM Saturday : 11:00 AM - 02:00 AM Sunday : 11:00 AM - 11:59 PM,https://www5.pizzapizza.ca/restaurant-locator/Manitoba/Winnipeg
https://www.pizzapizza.ca/locations/,600 Portage Avenue,600 Portage Avenue,Winnipeg,MB,R3C3L7,CA,<MISSING>,<MISSING>,<MISSING>,<MISSING>,<MISSING>,Monday : 11:00 AM - 11:59 PM Tuesday : 11:00 AM - 11:59 PM Wednesday : 11:00 AM - 11:59 PM Thursday : 11:00 AM - 11:59 PM Friday : 11:00 AM - 02:00 AM Saturday : 11:00 AM - 02:00 AM Sunday : 11:00 AM - 11:59 PM,https://www5.pizzapizza.ca/restaurant-locator/Manitoba/Winnipeg
https://www.pizzapizza.ca/locations/,3025 Ness Avenue,3025 Ness Avenue,Winnipeg,MB,R2Y2J2,CA,<MISSING>,<MISSING>,<MISSING>,<MISSING>,<MISSING>,Monday : 11:00 AM - 11:59 PM Tuesday : 11:00 AM - 11:59 PM Wednesday : 11:00 AM - 11:59 PM Thursday : 11:00 AM - 11:59 PM Friday : 11:00 AM - 02:00 AM Saturday : 11:00 AM - 02:00 AM Sunday : 11:00 AM - 11:59 PM,https://www5.pizzapizza.ca/restaurant-locator/Manitoba/Winnipeg
https://www.pizzapizza.ca/locations/,661 Henderson Highway,661 Henderson Highway,Winnipeg,MB,R2K2J7,CA,<MISSING>,<MISSING>,<MISSING>,<MISSING>,<MISSING>,Monday : 11:00 AM - 11:59 PM Tuesday : 11:00 AM - 11:59 PM Wednesday : 11:00 AM - 11:59 PM Thursday : 11:00 AM - 11:59 PM Friday : 11:00 AM - 02:00 AM Saturday : 11:00 AM - 02:00 AM Sunday : 11:00 AM - 11:59 PM,https://www5.pizzapizza.ca/restaurant-locator/Manitoba/Winnipeg
https://www.pizzapizza.ca/locations/,2415 Main Street,2415 Main Street,Winnipeg,MB,R2V4Z5,CA,<MISSING>,<MISSING>,<MISSING>,<MISSING>,<MISSING>,Monday : 11:00 AM - 11:59 PM Tuesday : 11:00 AM - 11:59 PM Wednesday : 11:00 AM - 11:59 PM Thursday : 11:00 AM - 11:59 PM Friday : 11:00 AM - 02:00 AM Saturday : 11:00 AM - 02:00 AM Sunday : 11:00 AM - 11:59 PM,https://www5.pizzapizza.ca/restaurant-locator/Manitoba/Winnipeg
https://www.pizzapizza.ca/locations/,50 Sage Creek Blvd.,50 Sage Creek Blvd.,Winnipeg,MB,R3X0J6,CA,<MISSING>,<MISSING>,<MISSING>,<MISSING>,<MISSING>,Monday : 10:00 AM - 01:00 AM Tuesday : 10:00 AM - 01:00 AM Wednesday : 10:00 AM - 01:00 AM Thursday : 10:00 AM - 02:00 AM Friday : 10:00 AM - 02:00 AM Saturday : 10:00 AM - 02:00 AM Sunday : 10:00 AM - 01:00 AM,https://www5.pizzapizza.ca/restaurant-locator/Manitoba/Winnipeg
https://www.pizzapizza.ca/locations/,1609 Regent Avenue West,1609 Regent Avenue West,Winnipeg,MB,R2C3B3,CA,<MISSING>,<MISSING>,<MISSING>,<MISSING>,<MISSING>,Monday : 11:00 AM - 11:59 PM Tuesday : 11:00 AM - 11:59 PM Wednesday : 11:00 AM - 11:59 PM Thursday : 11:00 AM - 11:59 PM Friday : 11:00 AM - 02:00 AM Saturday : 11:00 AM - 02:00 AM Sunday : 11:00 AM - 11:59 PM,https://www5.pizzapizza.ca/restaurant-locator/Manitoba/Winnipeg
https://www.pizzapizza.ca/locations/,3806 Albert Street,3806 Albert Street,Regina,SK,S4S3R1,CA,<MISSING>,<MISSING>,<MISSING>,<MISSING>,<MISSING>,Monday : 11:00 AM - 01:00 AM Tuesday : 11:00 AM - 12:00 AM Wednesday : 11:00 AM - 12:00 AM Thursday : 11:00 AM - 12:00 AM Friday : 11:00 AM - 02:00 AM Saturday : 11:00 AM - 02:00 AM Sunday : 11:00 AM - 12:00 AM,https://www5.pizzapizza.ca/restaurant-locator/Saskatchewan/Regina
https://www.pizzapizza.ca/locations/,303 ALBERT STREET,303 ALBERT STREET,Regina,SK,S4R2N6,CA,<MISSING>,<MISSING>,<MISSING>,<MISSING>,<MISSING>,Monday : 11:00 AM - 12:00 AM Tuesday : 11:00 AM - 12:00 AM Wednesday : 11:00 AM - 12:00 AM Thursday : 11:00 AM - 12:00 AM Friday : 11:00 AM - 02:00 AM Saturday : 11:00 AM - 02:00 AM Sunday : 11:00 AM - 12:00 AM,https://www5.pizzapizza.ca/restaurant-locator/Saskatchewan/Regina
https://www.pizzapizza.ca/locations/,2095 Prince of Wales Drive,2095 Prince of Wales Drive,Regina,SK,S4V2A3,CA,<MISSING>,<MISSING>,<MISSING>,<MISSING>,<MISSING>,Monday : 11:00 AM - 12:00 AM Tuesday : 11:00 AM - 12:00 AM Wednesday : 11:00 AM - 12:00 AM Thursday : 11:00 AM - 12:00 AM Friday : 11:00 AM - 02:00 AM Saturday : 11:00 AM - 02:00 AM Sunday : 11:00 AM - 12:00 AM,https://www5.pizzapizza.ca/restaurant-locator/Saskatchewan/Regina
https://www.pizzapizza.ca/locations/,4 Forest Hills Parkway,4 Forest Hills Parkway,Cole Harbour,NS,B2W5G7,CA,<MISSING>,<MISSING>,<MISSING>,<MISSING>,<MISSING>,Monday : 11:00 AM - 11:00 PM Tuesday : 11:00 AM - 11:00 PM Wednesday : 11:00 AM - 11:00 PM Thursday : 11:00 AM - 11:00 PM Friday : 11:00 AM - 12:59 AM Saturday : 11:00 AM - 12:59 AM Sunday : 11:00 AM - 11:00 PM,https://www5.pizzapizza.ca/restaurant-locator/Nova_Scotia/Cole_Harbour
https://www.pizzapizza.ca/locations/,1565  Argyle St.,1565  Argyle St.,Halifax,NS,B3J2B2,CA,<MISSING>,<MISSING>,<MISSING>,<MISSING>,<MISSING>,Monday : 11:00 AM - 11:59 PM Tuesday : 11:00 AM - 11:59 PM Wednesday : 11:00 AM - 11:59 PM Thursday : 11:00 AM - 02:00 AM Friday : 11:00 AM - 04:00 AM Saturday : 11:00 AM - 04:00 AM Sunday : 11:00 AM - 11:59 PM,https://www5.pizzapizza.ca/restaurant-locator/Nova_Scotia/Halifax
https://www.pizzapizza.ca/locations/,3514 Joseph Howe Drive,3514 Joseph Howe Drive,Halifax,NS,B3L4H7,CA,<MISSING>,<MISSING>,<MISSING>,<MISSING>,<MISSING>,Monday : 11:00 AM - 11:00 PM Tuesday : 11:00 AM - 11:00 PM Wednesday : 11:00 AM - 11:00 PM Thursday : 11:00 AM - 11:00 PM Friday : 11:00 AM - 12:59 AM Saturday : 11:00 AM - 12:59 AM Sunday : 11:00 AM - 11:00 PM,https://www5.pizzapizza.ca/restaurant-locator/Nova_Scotia/Halifax
https://www.pizzapizza.ca/locations/,75 Peakview Way,75 Peakview Way,Halifax,NS,B3M0G2,CA,<MISSING>,<MISSING>,<MISSING>,<MISSING>,<MISSING>,Monday : 11:00 AM - 11:00 PM Tuesday : 11:00 AM - 11:00 PM Wednesday : 11:00 AM - 11:00 PM Thursday : 11:00 AM - 11:00 PM Friday : 11:00 AM - 12:59 AM Saturday : 11:00 AM - 12:59 AM Sunday : 11:00 AM - 11:00 PM,https://www5.pizzapizza.ca/restaurant-locator/Nova_Scotia/Halifax
