"locator_domain","location_name","street_address","city","state","zip","country_code","store_number","phone","location_type","latitude","longitude","hours_of_operation","page_url"
"https://shawfloors.com","AIRDRIE FLOORING Ltd.","3 Kingsview Rd SE Unit 104","Airdrie","AB","T4A 0A8","CA","<MISSING>","587-254-8720","<MISSING>","<MISSING>","<MISSING>","Mon-Thurs: 9:00 am - 6:00 pm Fri: 9:00 am - 5:00 pm Sat: 10:00 am - 3:00 pm","https://shawfloors.com/stores/dealerprofile/15006/airdrie-flooring-ltd"
"https://shawfloors.com","A & B CARPET SALES & INSTALLATIONS LTD","4643 37 St SW","Calgary","AB","T3E 3C8","CA","<MISSING>","403-249-9151","<MISSING>","<MISSING>","<MISSING>","<MISSING>","https://shawfloors.com/stores/dealerprofile/39424/a-and-b-carpet-sales-and-installations-ltd"
"https://shawfloors.com","AFTER EIGHT INTERIORS","2-4100 106 Ave SE","Calgary","AB","T2C 5B6","CA","<MISSING>","403-571-4570","<MISSING>","<MISSING>","<MISSING>","<MISSING>","https://shawfloors.com/stores/dealerprofile/28976/after-eight-interiors"
"https://shawfloors.com","ALL FLOORS DESIGN CENTRE","4950 110 Ave SE","Calgary","AB","T2C 3E2","CA","<MISSING>","403-444-5888","<MISSING>","<MISSING>","<MISSING>","Monday to Friday: 9:00 AM to 5:30 PM Saturday: 10:00 AM to 4:00 PM Sunday	Closed","https://shawfloors.com/stores/dealerprofile/14930/all-floors-design-centre"
"https://shawfloors.com","CANWEST FLOORING INC","2419 52 Ave SE Unit 1","Calgary","AB","T2C 4X7","CA","<MISSING>","403-253-4441","<MISSING>","<MISSING>","<MISSING>","<MISSING>","https://shawfloors.com/stores/dealerprofile/43812/canwest-flooring-inc"
"https://shawfloors.com","CARPET MILLS","10-727 33 St NE","Calgary","AB","T2A 6M6","CA","<MISSING>","403-248-0840","<MISSING>","<MISSING>","<MISSING>","<MISSING>","https://shawfloors.com/stores/dealerprofile/15131/carpet-mills"
"https://shawfloors.com","CARPETS FOR LESS","3504 114 Ave SE","Calgary","AB","T2Z 3V6","CA","<MISSING>","403-252-3535","<MISSING>","<MISSING>","<MISSING>","Monday to Thursday: 9 am to 6 pm Friday: 9 am to 5 pm Saturday: 10 am to 5 pm Sunday: Closed","https://shawfloors.com/stores/dealerprofile/39421/carpets-for-less"
"https://shawfloors.com","CDL CARPET & FLOOR CENTRE","11752 Sarcee Trail NW","Calgary","AB","T3R 0A1","CA","<MISSING>","403-275-3304","<MISSING>","<MISSING>","<MISSING>","<MISSING>","https://shawfloors.com/stores/dealerprofile/40177/cdl-carpet-and-floor-centre"
"https://shawfloors.com","CDL CARPET & FLOOR CENTRE","7265 11 St SE","Calgary","AB","T2H 2S1","CA","<MISSING>","403-255-1811","<MISSING>","<MISSING>","<MISSING>","<MISSING>","https://shawfloors.com/stores/dealerprofile/15011/cdl-carpet-and-floor-centre"
"https://shawfloors.com","CENTURY CARPET ONE","1115 11th Ave SW","Calgary","AB","T2R 0G5","CA","<MISSING>","587-317-5327","<MISSING>","<MISSING>","<MISSING>","<MISSING>","https://shawfloors.com/stores/dealerprofile/47714/century-carpet-one"
"https://shawfloors.com","CONTEMPA CARPETS","1315 11 Ave SW","Calgary","AB","T3C 0M7","CA","<MISSING>","403-245-4353","<MISSING>","<MISSING>","<MISSING>","<MISSING>","https://shawfloors.com/stores/dealerprofile/36986/contempa-carpets"
"https://shawfloors.com","CRESTVIEW FLOORS, INC.","3701 19 St NE","Calgary","AB","T2E 6S8","CA","<MISSING>","403-291-1366","<MISSING>","<MISSING>","<MISSING>","<MISSING>","https://shawfloors.com/stores/dealerprofile/14938/crestview-floors-inc"
"https://shawfloors.com","DANNBURG FLOORING","1050-2600 Portland St SE","Calgary","AB","T2G 4M6","CA","<MISSING>","403-228-5450","<MISSING>","<MISSING>","<MISSING>","<MISSING>","https://shawfloors.com/stores/dealerprofile/15054/dannburg-flooring"
"https://shawfloors.com","DEERFOOT CARPET & FLOORING","6170 12 St SE","Calgary","AB","T2H 2X2","CA","<MISSING>","403-255-5880","<MISSING>","<MISSING>","<MISSING>","<MISSING>","https://shawfloors.com/stores/dealerprofile/15003/deerfoot-carpet-and-flooring"
"https://shawfloors.com","END OF THE ROLL CALGARY SOUTH","120 58 Ave SE","Calgary","AB","T2H 0N7","CA","<MISSING>","403-253-8823","<MISSING>","<MISSING>","<MISSING>","<MISSING>","https://shawfloors.com/stores/dealerprofile/28272/end-of-the-roll-calgary-south"
"https://shawfloors.com","FLOOR COVERINGS INTERNATIONAL","6323 Bowness Rd NW Suite 102","Calgary","AB","T3B 0E4","CA","<MISSING>","833-245-7203","<MISSING>","<MISSING>","<MISSING>","In-home appointments available 7 days a week at the customers convenience.","https://shawfloors.com/stores/dealerprofile/41126/floor-coverings-international"
"https://shawfloors.com","FLOOR EX","6745 Fairmount Dr SE","Calgary","AB","T2H 0X6","CA","<MISSING>","403-235-6025","<MISSING>","<MISSING>","<MISSING>","<MISSING>","https://shawfloors.com/stores/dealerprofile/27671/floor-ex"
"https://shawfloors.com","FLOORS, INC.","193-64 Crowfoot Cir NW","Calgary","AB","T3G 2T3","CA","<MISSING>","403-285-2929","<MISSING>","<MISSING>","<MISSING>","<MISSING>","https://shawfloors.com/stores/dealerprofile/15035/floors-inc"
"https://shawfloors.com","FLOORSCAPES","525 58 Ave SE","Calgary","AB","T2H 0P7","CA","<MISSING>","403-296-0985","<MISSING>","<MISSING>","<MISSING>","<MISSING>","https://shawfloors.com/stores/dealerprofile/38482/floorscapes"
"https://shawfloors.com","HOME FLOORING DESIGN","423 58 Ave SE","Calgary","AB","T2H 0P5","CA","<MISSING>","403-984-4100","<MISSING>","<MISSING>","<MISSING>","<MISSING>","https://shawfloors.com/stores/dealerprofile/40059/home-flooring-design"
"https://shawfloors.com","INSPIRATION WINDOW & INTERIOR DESIGN INC","5010 Macleod Trail SW","Calgary","AB","T2G 0A8","CA","<MISSING>","403-243-1525","<MISSING>","<MISSING>","<MISSING>","<MISSING>","https://shawfloors.com/stores/dealerprofile/47676/inspiration-window-and-interior-design-inc"
"https://shawfloors.com","JORDANS FLOORING","5914 3 St SW","Calgary","AB","T2H 0H8","CA","<MISSING>","403-212-1000","<MISSING>","<MISSING>","<MISSING>","<MISSING>","https://shawfloors.com/stores/dealerprofile/20078/jordans-flooring"
"https://shawfloors.com","KING'S FLOORING SOLUTIONS","5934 Centre St SE","Calgary","AB","T2H 0C1","CA","<MISSING>","403-255-5747","<MISSING>","<MISSING>","<MISSING>","<MISSING>","https://shawfloors.com/stores/dealerprofile/27692/kings-flooring-solutions"
"https://shawfloors.com","MAGUIRES FLOORING","8-4500 5 St NE","Calgary","AB","T2E 7C3","CA","<MISSING>","403-270-2205","<MISSING>","<MISSING>","<MISSING>","<MISSING>","https://shawfloors.com/stores/dealerprofile/26966/maguires-flooring"
"https://shawfloors.com","MILLHOUSE CARPET LTD","3-2220 32 Ave NE","Calgary","AB","T2E 6T4","CA","<MISSING>","403-291-9737","<MISSING>","<MISSING>","<MISSING>","<MISSING>","https://shawfloors.com/stores/dealerprofile/27964/millhouse-carpet-ltd"
"https://shawfloors.com","NU-WAY FLOOR FASHIONS","219 50 Ave SE","Calgary","AB","T2G 2B2","CA","<MISSING>","403-252-3551","<MISSING>","<MISSING>","<MISSING>","<MISSING>","https://shawfloors.com/stores/dealerprofile/29636/nu-way-floor-fashions"
"https://shawfloors.com","REMBRANDT FLOORING","1-6229 Centre St SW","Calgary","AB","T2H 0C7","CA","<MISSING>","403-252-5200","<MISSING>","<MISSING>","<MISSING>","Monday - Friday: 9:30 am - 6:00 pm Saturday: 10:00 am - 4:00 pm Sunday: Appointment Only","https://shawfloors.com/stores/dealerprofile/47680/rembrandt-flooring"
"https://shawfloors.com","SIGNATURE FLOORS","101-3928 Edmonton Trail NE","Calgary","AB","T2E 3P6","CA","<MISSING>","403-285-7771","<MISSING>","<MISSING>","<MISSING>","<MISSING>","https://shawfloors.com/stores/dealerprofile/29185/signature-floors"
"https://shawfloors.com","THE HOME DEPOT","5091 Nose Hill Dr","Calgary","AB","T3L 0A2","CA","<MISSING>","403-241-4060","<MISSING>","<MISSING>","<MISSING>","<MISSING>","https://shawfloors.com/stores/dealerprofile/41667/the-home-depot"
"https://shawfloors.com","WESTVALLEY CARPET & FLOORING LTD.","101-12018 Symons Valley Rd NW","Calgary","AB","T3P 0A3","CA","<MISSING>","403-275-0036","<MISSING>","<MISSING>","<MISSING>","Mon. 9 - 6   Tues. 9 - 6   Wed. 9 - 7   Thur. 9 - 7Fri. 9 - 6   Sat. 9 - 5   Sun. 12 - 4","https://shawfloors.com/stores/dealerprofile/44736/westvalley-carpet-and-flooring-ltd"
"https://shawfloors.com","Nufloors Camrose","3-3810 48 Ave","Camrose","AB","T4V 3Z8","CA","<MISSING>","780-672-4983","<MISSING>","<MISSING>","<MISSING>","<MISSING>","https://shawfloors.com/stores/dealerprofile/37550/nufloors-camrose"
"https://shawfloors.com","CENTURY CARPET ONE","104-320 West Creek Drive","Chestermere","AB","T1X 1H2","CA","<MISSING>","403-283-3300","<MISSING>","<MISSING>","<MISSING>","Mon-Fri: 10:00am - 6:00pm Saturday: 10:00am - 4:00pm","https://shawfloors.com/stores/dealerprofile/17908/century-carpet-one"
"https://shawfloors.com","HERMAN'S CARPETS","1718 20 Ave","Coaldale","AB","T1M 1M9","CA","<MISSING>","403-345-3421","<MISSING>","<MISSING>","<MISSING>","<MISSING>","https://shawfloors.com/stores/dealerprofile/26733/hermans-carpets"
"https://shawfloors.com","NUFLOORS","5021 53 St","Drayton Valley","AB","T7A 1S9","CA","<MISSING>","780-542-3909","<MISSING>","<MISSING>","<MISSING>","<MISSING>","https://shawfloors.com/stores/dealerprofile/19125/nufloors"
"https://shawfloors.com","DEMOTT WOOD & FLOORS LTD","801 HWY-9 S","Drumheller","AB","T0J 0Y0","CA","<MISSING>","403-823-4727","<MISSING>","<MISSING>","<MISSING>","<MISSING>","https://shawfloors.com/stores/dealerprofile/14952/demott-wood-and-floors-ltd"
"https://shawfloors.com","ACTION CARPET & FLOOR COVERING","6810 50 St NW","Edmonton","AB","T6B 3M9","CA","<MISSING>","860-298-0070","<MISSING>","<MISSING>","<MISSING>","Monday - Friday 10:00 - 5:30   Saturday 9:00 - 3:00   Sunday - Closed","https://shawfloors.com/stores/dealerprofile/23181/action-carpet-and-floor-covering"
"https://shawfloors.com","ACTION FLOORING LTD","9125 50 St NW","Edmonton","AB","T6B 2H3","CA","<MISSING>","780-468-4118","<MISSING>","<MISSING>","<MISSING>","<MISSING>","https://shawfloors.com/stores/dealerprofile/15051/action-flooring-ltd"
"https://shawfloors.com","AFFINITY AVE CONSULT LTD","10531 170 St NW","Edmonton","AB","T5P 4W2","CA","<MISSING>","587-712-8155","<MISSING>","<MISSING>","<MISSING>","<MISSING>","https://shawfloors.com/stores/dealerprofile/49896/affinity-ave-consult-ltd"
"https://shawfloors.com","AFTER EIGHT FLOORING, INC.","11605 156 St NW","Edmonton","AB","T5M 3T8","CA","<MISSING>","780-454-2481","<MISSING>","<MISSING>","<MISSING>","<MISSING>","https://shawfloors.com/stores/dealerprofile/15049/after-eight-flooring-inc"
"https://shawfloors.com","ARTISON'S FLOOR FASHIONS LTD","9844 45 Ave NW","Edmonton","AB","T6E 5C5","CA","<MISSING>","780-413-4847","<MISSING>","<MISSING>","<MISSING>","<MISSING>","https://shawfloors.com/stores/dealerprofile/38769/artisons-floor-fashions-ltd"
"https://shawfloors.com","ASHLEY FINE FLOORS","14340 111 Ave NW","Edmonton","AB","T5M 2P4","CA","<MISSING>","780-454-9503","<MISSING>","<MISSING>","<MISSING>","Monday - Friday 9:00 - 5:00   Saturday 10:00 - 5:00   Sunday - Closed","https://shawfloors.com/stores/dealerprofile/24540/ashley-fine-floors"
"https://shawfloors.com","BFC FLOORING DESIGN CENTRE","4132 99 St NW","Edmonton","AB","T6E 3N5","CA","<MISSING>","780-437-5750","<MISSING>","<MISSING>","<MISSING>","Monday - Friday 9:00 - 5:30   Saturday 10:00 - 4:30   Sunday - Closed","https://shawfloors.com/stores/dealerprofile/15050/bfc-flooring-design-centre"
"https://shawfloors.com","CARPET CRAFT AND MORE","16307 111 Ave NW","Edmonton","AB","T5M 2S2","CA","<MISSING>","780-452-6169","<MISSING>","<MISSING>","<MISSING>","<MISSING>","https://shawfloors.com/stores/dealerprofile/36945/carpet-craft-and-more"
"https://shawfloors.com","CARPET SUPERSTORE","6774 75 St NW","Edmonton","AB","T6E 6T9","CA","<MISSING>","780-448-2858","<MISSING>","<MISSING>","<MISSING>","<MISSING>","https://shawfloors.com/stores/dealerprofile/29311/carpet-superstore"
"https://shawfloors.com","END OF THE ROLL","12870 St Albert Trail NW","Edmonton","AB","T5L 4H6","CA","<MISSING>","780-444-1432","<MISSING>","<MISSING>","<MISSING>","<MISSING>","https://shawfloors.com/stores/dealerprofile/37213/end-of-the-roll"
"https://shawfloors.com","END OF THE ROLL","3523 99 St NW","Edmonton","AB","T6E 6S2","CA","<MISSING>","780-432-5557","<MISSING>","<MISSING>","<MISSING>","<MISSING>","https://shawfloors.com/stores/dealerprofile/23172/end-of-the-roll"
"https://shawfloors.com","JORDANS FLOORING","5055 Gateway Blvd NW","Edmonton","AB","T6H 4R7","CA","<MISSING>","780-435-3794","<MISSING>","<MISSING>","<MISSING>","Monday - Saturday 9:00 - 5:30   Sunday - Closed","https://shawfloors.com/stores/dealerprofile/26106/jordans-flooring"
"https://shawfloors.com","MONARCH FLOORS","14240 118 Ave NW","Edmonton","AB","T5L 2M5","CA","<MISSING>","780-454-0717","<MISSING>","<MISSING>","<MISSING>","<MISSING>","https://shawfloors.com/stores/dealerprofile/18325/monarch-floors"
"https://shawfloors.com","PARAMOUNT FLOORING GROUP INC","10707-184 Street","Edmonton","AB","T5S 2T2","CA","<MISSING>","780-483-1991","<MISSING>","<MISSING>","<MISSING>","Monday-Friday 9am-5 pm   Saturday 10 am-5 pm","https://shawfloors.com/stores/dealerprofile/18007/paramount-flooring-group-inc"
"https://shawfloors.com","PROSOURCE OF EDMONTON","11204 178 St NW","Edmonton","AB","T5S 1P2","CA","<MISSING>","780-476-8723","<MISSING>","<MISSING>","<MISSING>","<MISSING>","https://shawfloors.com/stores/dealerprofile/25539/prosource-of-edmonton"
"https://shawfloors.com","SIERRA CONTRACT FLOORING, LTD","17207 108 Ave NW","Edmonton","AB","T5S 1G2","CA","<MISSING>","780-444-3248","<MISSING>","<MISSING>","<MISSING>","<MISSING>","https://shawfloors.com/stores/dealerprofile/15033/sierra-contract-flooring-ltd"
"https://shawfloors.com","THE CARPET STUDIO INC","15620 111 Ave NW","Edmonton","AB","T5M 2R7","CA","<MISSING>","780-452-4044","<MISSING>","<MISSING>","<MISSING>","<MISSING>","https://shawfloors.com/stores/dealerprofile/14996/the-carpet-studio-inc"
"https://shawfloors.com","TOUCHTONE CANADA LTD.","4120 98 St NW","Edmonton","AB","T6E 5A2","CA","<MISSING>","780-414-0862","<MISSING>","<MISSING>","<MISSING>","<MISSING>","https://shawfloors.com/stores/dealerprofile/17196/touchtone-canada-ltd"
"https://shawfloors.com","TRADEMARK FLOORING","9154 23 Ave NW","Edmonton","AB","T6N 1H9","CA","<MISSING>","780-485-3151","<MISSING>","<MISSING>","<MISSING>","<MISSING>","https://shawfloors.com/stores/dealerprofile/43862/trademark-flooring"
"https://shawfloors.com","FAIRVIEW FLOORING LTD","10712 101 Ave","Fairview","AB","T0H 1L0","CA","<MISSING>","780-835-4384","<MISSING>","<MISSING>","<MISSING>","<MISSING>","https://shawfloors.com/stores/dealerprofile/24488/fairview-flooring-ltd"
"https://shawfloors.com","END OF THE ROLL FT MCMURRAY","935 Memorial Dr Bay 1","Fort McMurray","AB","TK9 0K4","CA","<MISSING>","780-791-0069","<MISSING>","<MISSING>","<MISSING>","<MISSING>","https://shawfloors.com/stores/dealerprofile/41228/end-of-the-roll-ft-mcmurray"
"https://shawfloors.com","NUFLOORS FORT MCMURRAY","8202 Fraser Ave","Fort McMurray","AB","T9H 1W8","CA","<MISSING>","780-743-1373","<MISSING>","<MISSING>","<MISSING>","<MISSING>","https://shawfloors.com/stores/dealerprofile/15233/nufloors-fort-mcmurray"
"https://shawfloors.com","SANDS PAINT CARPET ONE","8316 Manning Ave","Fort McMurray","AB","T9H 1W1","CA","<MISSING>","780-743-8211","<MISSING>","<MISSING>","<MISSING>","<MISSING>","https://shawfloors.com/stores/dealerprofile/18010/sands-paint-carpet-one"
"https://shawfloors.com","MICHAEL'S FLOORING CANADA","9919 113 Ave","Grande Prairie","AB","T8V 1W6","CA","<MISSING>","780-532-8680","<MISSING>","<MISSING>","<MISSING>","Monday-Friday: 8:30 AM - 5:00 PM Saturday: 10:00 AM - 4:00 PM Sunday: Closed","https://shawfloors.com/stores/dealerprofile/18104/michaels-flooring-canada"
"https://shawfloors.com","MODERN DECORE CARPET ONE","10404 100 St","Grande Prairie","AB","T8V 2M2","CA","<MISSING>","780-532-3885","<MISSING>","<MISSING>","<MISSING>","<MISSING>","https://shawfloors.com/stores/dealerprofile/17916/modern-decore-carpet-one"
"https://shawfloors.com","NUFLOORS","13501 100 St","Grande Prairie","AB","T8V 4H4","CA","<MISSING>","780-532-3250","<MISSING>","<MISSING>","<MISSING>","Monday - Friday 8:00 - 5:30   Saturday 10:00 - 3:00   Sunday - Closed","https://shawfloors.com/stores/dealerprofile/15247/nufloors"
"https://shawfloors.com","NUFLOORS","12627 100 St","Grande Prairie","AB","T8V 4H2","CA","<MISSING>","780-532-3250","<MISSING>","<MISSING>","<MISSING>","<MISSING>","https://shawfloors.com/stores/dealerprofile/19128/nufloors"
"https://shawfloors.com","FLOR-LAY INTERIORS","858D Carmichael Lane","Hinton","AB","T7V 1Y6","CA","<MISSING>","780-865-5557","<MISSING>","<MISSING>","<MISSING>","<MISSING>","https://shawfloors.com/stores/dealerprofile/15012/flor-lay-interiors"
"https://shawfloors.com","L.A. CARPET & TILE INC","6140 Hwy 2A","Lacombe","AB","T4L 2G5","CA","<MISSING>","403-782-2666","<MISSING>","<MISSING>","<MISSING>","<MISSING>","https://shawfloors.com/stores/dealerprofile/28920/la-carpet-and-tile-inc"
"https://shawfloors.com","VANTAGE FLOORCOVERING","#1-5110-50 Street","Leduc","AB","T9E 6Z6","CA","<MISSING>","780-986-5212","<MISSING>","<MISSING>","<MISSING>","<MISSING>","https://shawfloors.com/stores/dealerprofile/48441/vantage-floorcovering"
"https://shawfloors.com","CLASSIC CARPETS","253 12 St N","Lethbridge","AB","T1H 2G3","CA","<MISSING>","403-329-9220","<MISSING>","<MISSING>","<MISSING>","<MISSING>","https://shawfloors.com/stores/dealerprofile/14936/classic-carpets"
"https://shawfloors.com","FLOORRIGHT INTERIORS LTD.","2915 32 St S","Lethbridge","AB","T1K 7B1","CA","<MISSING>","403-329-1780","<MISSING>","<MISSING>","<MISSING>","<MISSING>","https://shawfloors.com/stores/dealerprofile/18101/floorright-interiors-ltd"
"https://shawfloors.com","LETHBRIDGE CARPET SALES","1022 2 Ave S","Lethbridge","AB","T1J 0C9","CA","<MISSING>","403-328-7630","<MISSING>","<MISSING>","<MISSING>","<MISSING>","https://shawfloors.com/stores/dealerprofile/23654/lethbridge-carpet-sales"
"https://shawfloors.com","PAUL'S FLOORS","235 12B St N","Lethbridge","AB","T1H 2K8","CA","<MISSING>","403-328-6971","<MISSING>","<MISSING>","<MISSING>","<MISSING>","https://shawfloors.com/stores/dealerprofile/9899/pauls-floors"
"https://shawfloors.com","PARAMOUNT FLOORING 1998","2616 50 Ave","Lloydminster","AB","T9V 2S3","CA","<MISSING>","780-875-6333","<MISSING>","<MISSING>","<MISSING>","<MISSING>","https://shawfloors.com/stores/dealerprofile/18122/paramount-flooring-1998"
"https://shawfloors.com","CARPET ONE MEDICINE HAT","578 S Railway St SE","Medicine Hat","AB","T1A 8T2","CA","<MISSING>","403-504-4446","<MISSING>","<MISSING>","<MISSING>","<MISSING>","https://shawfloors.com/stores/dealerprofile/18252/carpet-one-medicine-hat-"
"https://shawfloors.com","CREATIVE FLOOR COVERINGS","1023 Trans Canada Way SE","Medicine Hat","AB","T1B 1H9","CA","<MISSING>","403-527-7727","<MISSING>","<MISSING>","<MISSING>","<MISSING>","https://shawfloors.com/stores/dealerprofile/23208/creative-floor-coverings"
"https://shawfloors.com","DESIGN FLOORING CENTRE","4-1335 Trans Canada Way SE","Medicine Hat","AB","T1B 1J1","CA","<MISSING>","403-526-3483","<MISSING>","<MISSING>","<MISSING>","<MISSING>","https://shawfloors.com/stores/dealerprofile/18277/design-flooring-centre"
"https://shawfloors.com","DOEHRING'S FURNITURE","502 Maple Ave SE","Medicine Hat","AB","T1A 3A8","CA","<MISSING>","403-526-1006","<MISSING>","<MISSING>","<MISSING>","<MISSING>","https://shawfloors.com/stores/dealerprofile/30009/doehrings-furniture"
"https://shawfloors.com","END OF THE ROLL MEDICINE HAT","6-3341 Dunmore Rd SE","Medicine Hat","AB","T1B 3R2","CA","<MISSING>","403-529-6826","<MISSING>","<MISSING>","<MISSING>","<MISSING>","https://shawfloors.com/stores/dealerprofile/41232/end-of-the-roll-medicine-hat"
"https://shawfloors.com","MAIN FLOOR CARPETS LTD","645 S Railway St SE","Medicine Hat","AB","T1A 2V8","CA","<MISSING>","403-527-9900","<MISSING>","<MISSING>","<MISSING>","<MISSING>","https://shawfloors.com/stores/dealerprofile/15056/main-floor-carpets-ltd"
"https://shawfloors.com","NUFLOORS","502D Maple Ave SE","Medicine Hat","AB","T1A 3A8","CA","<MISSING>","403-526-1006","<MISSING>","<MISSING>","<MISSING>","Monday - Saturday 9:00 - 5:00   Sunday - Closed","https://shawfloors.com/stores/dealerprofile/15248/nufloors"
"https://shawfloors.com","M & R LUMBER COMPANY","101 Centre Ave NE","Milk River","AB","T0K 1M0","CA","<MISSING>","403-647-3636","<MISSING>","<MISSING>","<MISSING>","<MISSING>","https://shawfloors.com/stores/dealerprofile/23658/m-and-r-lumber-company"
"https://shawfloors.com","SIMPLY FLOORS","22 Crystalridge Dr","Okotoks","AB","T1S 2C3","CA","<MISSING>","403-995-3321","<MISSING>","<MISSING>","<MISSING>","<MISSING>","https://shawfloors.com/stores/dealerprofile/28893/simply-floors"
"https://shawfloors.com","TOTAL FLOORING & FINISHES","9606 100 St","Peace River","AB","T8S 1H5","CA","<MISSING>","780-624-4102","<MISSING>","<MISSING>","<MISSING>","<MISSING>","https://shawfloors.com/stores/dealerprofile/23158/total-flooring-and-finishes"
"https://shawfloors.com","CARPET COLOUR CENTRE LTD.","1100-5001 19 St ""Southpointe Common, Ste 1100""","Red Deer","AB","T4R 3R1","CA","<MISSING>","403-343-7711","<MISSING>","<MISSING>","<MISSING>","Mon-Wed: 9:00 am - 5:30 pm Thurs: 9:00 am - 8:00 pm Fri: 9:00 am - 5:30 pm Sat: 9:00 am - 5:00 pm","https://shawfloors.com/stores/dealerprofile/17917/carpet-colour-centre-ltd"
"https://shawfloors.com","CENTRAL ALBERTA TILE ONE","9-7619 50 Ave","Red Deer","AB","T4P 1M6","CA","<MISSING>","403-346-7088","<MISSING>","<MISSING>","<MISSING>","Mon-Fri: 8:00 am - 5:00 pm Sat: 10:00 am - 4:00 pm","https://shawfloors.com/stores/dealerprofile/28838/central-alberta-tile-one"
"https://shawfloors.com","END OF THE ROLL RED DEER COUNTY","110-7835 50 Ave","Red Deer","AB","T4P 1M8","CA","<MISSING>","403-340-8844","<MISSING>","<MISSING>","<MISSING>","Mon-Fri: 9:00 am - 6:00 pm Sat: 9:00 am - 5:00 pm","https://shawfloors.com/stores/dealerprofile/24365/end-of-the-roll-red-deer-county"
"https://shawfloors.com","JORDANS FLOORING","1-6013 48 Ave","Red Deer","AB","T4N 3V5","CA","<MISSING>","403-342-2811","<MISSING>","<MISSING>","<MISSING>","<MISSING>","https://shawfloors.com/stores/dealerprofile/38843/jordans-flooring"
"https://shawfloors.com","RED DEER COOP HOME & GARDEN","4738 Riverside Dr","Red Deer","AB","T4N 2N7","CA","<MISSING>","403-341-5600","<MISSING>","<MISSING>","<MISSING>","Sun  	9:00 AM	 - 	5:00 PM M-F  	7:30 AM	 - 	8:00 PM Sat  	7:30 AM	 - 	6:00 PM","https://shawfloors.com/stores/dealerprofile/15238/red-deer-coop-home-and-garden"
"https://shawfloors.com","BAUER FLOORING","5128 51 Street","Rocky Mountain House","AB","T4T 1P7","CA","<MISSING>","403-845-4510","<MISSING>","<MISSING>","<MISSING>","<MISSING>","https://shawfloors.com/stores/dealerprofile/14985/bauer-flooring"
"https://shawfloors.com","NUFLOORS","192-2181 Premier Way","Sherwood Park","AB","T8H 2V1","CA","<MISSING>","780-449-4860","<MISSING>","<MISSING>","<MISSING>","Mon. - Wed. 8:30 - 6:00   Thurs. 8:30 - 7:30   Fri. 8:30 - 5:00   Sat. 9:30 - 4:00   Sun. - Closed","https://shawfloors.com/stores/dealerprofile/15249/nufloors"
"https://shawfloors.com","NUFLOORS","2181 Premier Way","Sherwood Park","AB","T8H 2Z1","CA","<MISSING>","780-449-4860","<MISSING>","<MISSING>","<MISSING>","<MISSING>","https://shawfloors.com/stores/dealerprofile/15538/nufloors"
"https://shawfloors.com","NUFLOORS","201 4 Ave NW","Slave Lake","AB","T0G 2A0","CA","<MISSING>","780-849-2477","<MISSING>","<MISSING>","<MISSING>","Monday - Friday 8:30 - 5:30   Saturday 10:00 - 3:00   Sunday - Closed","https://shawfloors.com/stores/dealerprofile/15250/nufloors"
"https://shawfloors.com","NUFLOORS","201 4th Ave NW","Slave Lake","AB","T0G 2A0","CA","<MISSING>","780-849-2477","<MISSING>","<MISSING>","<MISSING>","<MISSING>","https://shawfloors.com/stores/dealerprofile/37548/nufloors"
"https://shawfloors.com","SPIRIT RIVER FLOORING LTD","4810 Highway Ave Box 301","Spirit River","AB","T0H 3G0","CA","<MISSING>","780-864-3073","<MISSING>","<MISSING>","<MISSING>","<MISSING>","https://shawfloors.com/stores/dealerprofile/14975/spirit-river-flooring-ltd"
"https://shawfloors.com","FLOOR FX AND DESIGN","114-636 King St","Spruce Grove","AB","T7X 4K5","CA","<MISSING>","780-571-2255","<MISSING>","<MISSING>","<MISSING>","<MISSING>","https://shawfloors.com/stores/dealerprofile/41314/floor-fx-and-design"
"https://shawfloors.com","THE HOME DEPOT","180 Highway 16A","Spruce Grove","AB","T7X 3X3","CA","<MISSING>","780-960-5600","<MISSING>","<MISSING>","<MISSING>","<MISSING>","https://shawfloors.com/stores/dealerprofile/41668/the-home-depot"
"https://shawfloors.com","IDEAL CARPETS & INTERIORS LTD.","5029-50th Ave.","St Paul","AB","T0A 3A0","CA","<MISSING>","780-645-5788","<MISSING>","<MISSING>","<MISSING>","<MISSING>","https://shawfloors.com/stores/dealerprofile/18087/ideal-carpets-and-interiors-ltd"
"https://shawfloors.com","TITAN FLOOR & INTERIOR","13A Inglewood Dr","St. Albert","AB","T8N 5E2","CA","<MISSING>","780-460-8979","<MISSING>","<MISSING>","<MISSING>","<MISSING>","https://shawfloors.com/stores/dealerprofile/24471/titan-floor-and-interior"
"https://shawfloors.com","STETTLER FLOORING","PO Box 278","Stettler","AB","T0C 2L0","CA","<MISSING>","403-742-5813","<MISSING>","<MISSING>","<MISSING>","Mon-Fri: 8:00 am - 5:00 pm","https://shawfloors.com/stores/dealerprofile/23657/stettler-flooring"
"https://shawfloors.com","MAJESTIC FLOORING & DESIGN CENTRE LTD","101, 75 Boulder Blvd","Stony Plain","AB","T7Z 1V6","CA","<MISSING>","780-968-4440","<MISSING>","<MISSING>","<MISSING>","<MISSING>","https://shawfloors.com/stores/dealerprofile/46493/majestic-flooring-and-design-centre-ltd"
"https://shawfloors.com","REALTY FLOORING","700-4305 South Park Dr","Stony Plain","AB","T7Z 1L1","CA","<MISSING>","780-968-4020","<MISSING>","<MISSING>","<MISSING>","<MISSING>","https://shawfloors.com/stores/dealerprofile/15401/realty-flooring"
"https://shawfloors.com","REGENCY FLOORING","2 Erickson Dr","Sylvan Lake","AB","T4S 1P5","CA","<MISSING>","403-887-4411","<MISSING>","<MISSING>","<MISSING>","<MISSING>","https://shawfloors.com/stores/dealerprofile/28888/regency-flooring"
"https://shawfloors.com","END OF THE ROLL WETASKIWIN","3904D 56 St","Wetaskiwin","AB","T9A 2B2","CA","<MISSING>","780-362-0217","<MISSING>","<MISSING>","<MISSING>","<MISSING>","https://shawfloors.com/stores/dealerprofile/41250/end-of-the-roll-wetaskiwin"
"https://shawfloors.com","FLOORS NOW","4517 50 St","Wetaskiwin","AB","T9A 2W9","CA","<MISSING>","780-362-0217","<MISSING>","<MISSING>","<MISSING>","<MISSING>","https://shawfloors.com/stores/dealerprofile/42095/floors-now"
"https://shawfloors.com","CARPETOWN INTERIORS","5033 52 Ave","Whitecourt","AB","T7S 1P7","CA","<MISSING>","780-778-4144","<MISSING>","<MISSING>","<MISSING>","<MISSING>","https://shawfloors.com/stores/dealerprofile/23157/carpetown-interiors"
"https://shawfloors.com","CARPET WORLD OF ALASKA INC","7521 Old Seward Hwy Ste D","Anchorage","AK","99518-3229","US","<MISSING>","907-644-8817","<MISSING>","<MISSING>","<MISSING>","Mon - Fri  9 am - 6 pm Sat  10 am - 5 pm","https://shawfloors.com/stores/dealerprofile/23042/carpet-world-of-alaska-inc"
"https://shawfloors.com","COSTCO IN-HOME DESIGN SERVICE","4125 Debarr Rd","Anchorage","AK","99508-3115","US","<MISSING>","1-888-992-2773","<MISSING>","<MISSING>","<MISSING>","<MISSING>","https://shawfloors.com/stores/dealerprofile/23574/costco-in-home-design-service"
"https://shawfloors.com","COSTCO IN-HOME DESIGN SERVICE","330 W Dimond Blvd","Anchorage","AK","99515-1950","US","<MISSING>","1-888-992-2773","<MISSING>","<MISSING>","<MISSING>","<MISSING>","https://shawfloors.com/stores/dealerprofile/23575/costco-in-home-design-service"
"https://shawfloors.com","CURTIS & CAMPBELL, INC.","6239 B St Ste 102","Anchorage","AK","99518-1700","US","<MISSING>","907-561-6011","<MISSING>","<MISSING>","<MISSING>","<MISSING>","https://shawfloors.com/stores/dealerprofile/4139/curtis-and-campbell-inc"
"https://shawfloors.com","DECOR INDUSTRIES, INC.","4263 Minnesota Dr","Anchorage","AK","99503-6496","US","<MISSING>","907-562-2565","<MISSING>","<MISSING>","<MISSING>","<MISSING>","https://shawfloors.com/stores/dealerprofile/4137/decor-industries-inc"
"https://shawfloors.com","EASTSIDE CARPET COMPANY LLC","700 W Intl Airport Rd Bldg B","Anchorage","AK","99518-1169","US","<MISSING>","907-562-7444","<MISSING>","<MISSING>","<MISSING>","<MISSING>","https://shawfloors.com/stores/dealerprofile/23073/eastside-carpet-company-llc"
"https://shawfloors.com","JUNGLE JIM'S FLOORCOVERING","5650 Old Seward Hwy Ste F","Anchorage","AK","99518-1472","US","<MISSING>","907-563-8810","<MISSING>","<MISSING>","<MISSING>","<MISSING>","https://shawfloors.com/stores/dealerprofile/4121/jungle-jims-floorcovering"
"https://shawfloors.com","K & W INTERIORS INC","9300 Old Seward Hwy","Anchorage","AK","99515-4261","US","<MISSING>","907-349-4779","<MISSING>","<MISSING>","<MISSING>","Monday - Friday - 9 to 6 Saturday  - 11 to 5","https://shawfloors.com/stores/dealerprofile/11994/k-and-w-interiors-inc"
"https://shawfloors.com","LOWE'S COMPANIES, INC","1200 N Muldoon Rd","Anchorage","AK","99504-6106","US","<MISSING>","907-269-2400","<MISSING>","<MISSING>","<MISSING>","<MISSING>","https://shawfloors.com/stores/dealerprofile/43413/lowes-companies-inc"
"https://shawfloors.com","LOWE'S COMPANIES, INC.","333 E Tudor Rd","Anchorage","AK","99503-7318","US","<MISSING>","907-563-0391","<MISSING>","<MISSING>","<MISSING>","<MISSING>","https://shawfloors.com/stores/dealerprofile/9903/lowes-companies-inc"
"https://shawfloors.com","LOWE'S COMPANIES, INC.","10900 Old Seward Hwy","Anchorage","AK","99515-3034","US","<MISSING>","907-349-8889","<MISSING>","<MISSING>","<MISSING>","<MISSING>","https://shawfloors.com/stores/dealerprofile/9904/lowes-companies-inc"
"https://shawfloors.com","ONE OF A KIND DESIGN","1601 Abbott Rd Ste 100","Anchorage","AK","99507-3441","US","<MISSING>","907-522-7350","<MISSING>","<MISSING>","<MISSING>","<MISSING>","https://shawfloors.com/stores/dealerprofile/4123/one-of-a-kind-design"
"https://shawfloors.com","RAMSEY CARPET SERVICE","8240 Hartzell Rd","Anchorage","AK","99507-3110","US","<MISSING>","907-349-5223","<MISSING>","<MISSING>","<MISSING>","<MISSING>","https://shawfloors.com/stores/dealerprofile/41110/ramsey-carpet-service"
"https://shawfloors.com","SPENARD BUILDERS SUPPLY, INC.","4412 Lois Dr","Anchorage","AK","99517-3115","US","<MISSING>","907-583-3141","<MISSING>","<MISSING>","<MISSING>","<MISSING>","https://shawfloors.com/stores/dealerprofile/1450/spenard-builders-supply-inc"
"https://shawfloors.com","SUPER FLOORS OF ALASKA","12855 Old Seward Hwy","Anchorage","AK","99515-3578","US","<MISSING>","907-277-1080","<MISSING>","<MISSING>","<MISSING>","<MISSING>","https://shawfloors.com/stores/dealerprofile/4119/super-floors-of-alaska"
"https://shawfloors.com","THE HOME DEPOT","515 E Tudor Rd","Anchorage","AK","99503-7320","US","<MISSING>","907-563-9800","<MISSING>","<MISSING>","<MISSING>","<MISSING>","https://shawfloors.com/stores/dealerprofile/2691/the-home-depot"
"https://shawfloors.com","THE HOME DEPOT","400 Rodeo Pl","Anchorage","AK","99508-2100","US","<MISSING>","907-276-2006","<MISSING>","<MISSING>","<MISSING>","<MISSING>","https://shawfloors.com/stores/dealerprofile/42803/the-home-depot"
"https://shawfloors.com","THE HOME DEPOT","1715 Abbott Rd","Anchorage","AK","99507-3444","US","<MISSING>","907-644-5646","<MISSING>","<MISSING>","<MISSING>","<MISSING>","https://shawfloors.com/stores/dealerprofile/42805/the-home-depot"
"https://shawfloors.com","WALLCOVERINGS NORTH","6239 B St Ste 101","Anchorage","AK","99518-1728","US","<MISSING>","907-561-2233","<MISSING>","<MISSING>","<MISSING>","<MISSING>","https://shawfloors.com/stores/dealerprofile/24397/wallcoverings-north"
"https://shawfloors.com","SPENARD BUILDERS SUPPLY","Bldg 40 Narl Road","Barrow","AK","99723","US","<MISSING>","907-852-4180","<MISSING>","<MISSING>","<MISSING>","<MISSING>","https://shawfloors.com/stores/dealerprofile/23847/spenard-builders-supply"
"https://shawfloors.com","SPENARD BUILDERS","10927 West Parks Highway","Big Lake","AK","99652","US","<MISSING>","907-892-6001","<MISSING>","<MISSING>","<MISSING>","<MISSING>","https://shawfloors.com/stores/dealerprofile/24403/spenard-builders"
"https://shawfloors.com","SPENARD BUILDERS SUPPLY","10927 W Parks Hwy","Big Lake","AK","99652","US","<MISSING>","907-892-6001","<MISSING>","<MISSING>","<MISSING>","<MISSING>","https://shawfloors.com/stores/dealerprofile/23849/spenard-builders-supply"
"https://shawfloors.com","COZY CARPET INTERIORS","17035 N Eagle River Loop Rd","Eagle River","AK","99577-7803","US","<MISSING>","907-694-2699","<MISSING>","<MISSING>","<MISSING>","Monday - Friday:  9:00 a.m. - 6:00 p.m. Saturday:  10:00 a.m. - 4:00 p.m","https://shawfloors.com/stores/dealerprofile/3984/cozy-carpet-interiors"
"https://shawfloors.com","SPENARD BUILDERS","17320 Northgate Dr","Eagle River","AK","99577-7592","US","<MISSING>","907-694-3527","<MISSING>","<MISSING>","<MISSING>","<MISSING>","https://shawfloors.com/stores/dealerprofile/23111/spenard-builders"
"https://shawfloors.com","FLORCRAFT CARPET ONE FLOOR & HOME","1991 Fox Ave","Fairbanks","AK","99701-2798","US","<MISSING>","907-452-1423","<MISSING>","<MISSING>","<MISSING>","<MISSING>","https://shawfloors.com/stores/dealerprofile/30575/florcraft-carpet-one-floor-and-home"
"https://shawfloors.com","LOWE'S COMPANIES INC. #1985","425 Merhar Ave","Fairbanks","AK","99701-3166","US","<MISSING>","907-451-4700","<MISSING>","<MISSING>","<MISSING>","<MISSING>","https://shawfloors.com/stores/dealerprofile/11709/lowes-companies-inc-1985"
"https://shawfloors.com","MAC CHEYBE'S CARPETS PLUS INC","2060 Peger Rd","Fairbanks","AK","99709-5258","US","<MISSING>","907-479-9193","<MISSING>","<MISSING>","<MISSING>","<MISSING>","https://shawfloors.com/stores/dealerprofile/19263/mac-cheybes-carpets-plus-inc"
"https://shawfloors.com","SPENARD BUILDERS","2460 Phillips Field Rd","Fairbanks","AK","99701-2797","US","<MISSING>","907-450-2200","<MISSING>","<MISSING>","<MISSING>","<MISSING>","https://shawfloors.com/stores/dealerprofile/23106/spenard-builders"
"https://shawfloors.com","THE HOME DEPOT","601 Johansen Expy","Fairbanks","AK","99701-3162","US","<MISSING>","907-451-9003","<MISSING>","<MISSING>","<MISSING>","<MISSING>","https://shawfloors.com/stores/dealerprofile/2692/the-home-depot"
"https://shawfloors.com","SPENARD BUILDERS","3978 Lake St","Homer","AK","99603-7681","US","<MISSING>","907-235-8506","<MISSING>","<MISSING>","<MISSING>","<MISSING>","https://shawfloors.com/stores/dealerprofile/23110/spenard-builders"
"https://shawfloors.com","CARPET SOURCE INC.","5403 Commercial Blvd","Juneau","AK","99801-7224","US","<MISSING>","907-780-6333","<MISSING>","<MISSING>","<MISSING>","<MISSING>","https://shawfloors.com/stores/dealerprofile/36953/carpet-source-inc"
"https://shawfloors.com","THE HOME DEPOT","5201 Commercial Blvd","Juneau","AK","99801-7210","US","<MISSING>","907-463-5034","<MISSING>","<MISSING>","<MISSING>","<MISSING>","https://shawfloors.com/stores/dealerprofile/42808/the-home-depot"
"https://shawfloors.com","SPENARD BUILDERS","30022 K- Beach Road","Kenai","AK","99611","US","<MISSING>","907-283-7584","<MISSING>","<MISSING>","<MISSING>","<MISSING>","https://shawfloors.com/stores/dealerprofile/24405/spenard-builders"
"https://shawfloors.com","SPENARD BUILDERS SUPPLY","30022 Kalifornsky Beach Road","Kenai","AK","99611","US","<MISSING>","907-283-7584","<MISSING>","<MISSING>","<MISSING>","<MISSING>","https://shawfloors.com/stores/dealerprofile/23844/spenard-builders-supply"
"https://shawfloors.com","THE HOME DEPOT","10480 Spur Hwy","Kenai","AK","99611","US","<MISSING>","907-283-2228","<MISSING>","<MISSING>","<MISSING>","<MISSING>","https://shawfloors.com/stores/dealerprofile/41669/the-home-depot"
"https://shawfloors.com","SPENARD BUILDERS","1600 Mill Bay Rd","Kodiak","AK","99615-6299","US","<MISSING>","907-486-4168","<MISSING>","<MISSING>","<MISSING>","<MISSING>","https://shawfloors.com/stores/dealerprofile/23109/spenard-builders"
"https://shawfloors.com","CARPET WORLD OF ALASKA INC","6410 E Fireweed Road","Palmer","AK","99645","US","<MISSING>","907-745-3737","<MISSING>","<MISSING>","<MISSING>","<MISSING>","https://shawfloors.com/stores/dealerprofile/36398/carpet-world-of-alaska-inc"
"https://shawfloors.com","SPENARD BUILDERS SUPPLY","97 Inner Springer Loop Rd","Palmer","AK","99645-6737","US","<MISSING>","907-746-7001","<MISSING>","<MISSING>","<MISSING>","<MISSING>","https://shawfloors.com/stores/dealerprofile/23848/spenard-builders-supply"
"https://shawfloors.com","SPENARD BUILDERS SUPPLY","Mile 3 Seward Hwy","Seward","AK","99664","US","<MISSING>","907-224-5576","<MISSING>","<MISSING>","<MISSING>","<MISSING>","https://shawfloors.com/stores/dealerprofile/23846/spenard-builders-supply"
"https://shawfloors.com","MIKE'S FLOORS","117 Harvest Way","Sitka","AK","99835-9721","US","<MISSING>","907-747-3744","<MISSING>","<MISSING>","<MISSING>","<MISSING>","https://shawfloors.com/stores/dealerprofile/16638/mikes-floors"
"https://shawfloors.com","SPENARD BUILDERS","104 Smith St","Sitka","AK","99835-9799","US","<MISSING>","907-747-3339","<MISSING>","<MISSING>","<MISSING>","<MISSING>","https://shawfloors.com/stores/dealerprofile/23108/spenard-builders"
"https://shawfloors.com","FOUR D CARPET ONE FLOOR & HOME","35477 Kenai Spur Hwy Ste 103","Soldotna","AK","99669-7642","US","<MISSING>","907-262-9181","<MISSING>","<MISSING>","<MISSING>","<MISSING>","https://shawfloors.com/stores/dealerprofile/30580/four-d-carpet-one-floor-and-home"
"https://shawfloors.com","SPENARD BUILDERS SUPPLY","48855 Funny River Rd","Soldotna","AK","99669-8222","US","<MISSING>","907-262-9143","<MISSING>","<MISSING>","<MISSING>","<MISSING>","https://shawfloors.com/stores/dealerprofile/23845/spenard-builders-supply"
"https://shawfloors.com","LOWE'S COMPANIES INC. #2512","2561 E Sun Mountain Ave","Wasilla","AK","99654-7345","US","<MISSING>","907-352-3100","<MISSING>","<MISSING>","<MISSING>","<MISSING>","https://shawfloors.com/stores/dealerprofile/11708/lowes-companies-inc-2512"
"https://shawfloors.com","SPENARD BUILDERS","1700 W Parks Hwy","Wasilla","AK","99654-6916","US","<MISSING>","907-376-5237","<MISSING>","<MISSING>","<MISSING>","<MISSING>","https://shawfloors.com/stores/dealerprofile/23107/spenard-builders"
"https://shawfloors.com","THE HOME DEPOT","1255 E Palmer Wasilla Hwy","Wasilla","AK","99654-7278","US","<MISSING>","907-357-8181","<MISSING>","<MISSING>","<MISSING>","<MISSING>","https://shawfloors.com/stores/dealerprofile/42804/the-home-depot"
"https://shawfloors.com","LOWE'S COMPANIES INC. #2525","235 Colonial Promenade Pkwy","Alabaster","AL","35007-3104","US","<MISSING>","205-685-4060","<MISSING>","<MISSING>","<MISSING>","<MISSING>","https://shawfloors.com/stores/dealerprofile/13168/lowes-companies-inc-2525"
"https://shawfloors.com","THE CARPET STORE","9491 US-431","Albertville","AL","35950","US","<MISSING>","256-891-2777","<MISSING>","<MISSING>","<MISSING>","<MISSING>","https://shawfloors.com/stores/dealerprofile/24608/the-carpet-store"
"https://shawfloors.com","THE HOME DEPOT","1460 Highway 280","Alexander City","AL","35010-4620","US","<MISSING>","256-234-6399","<MISSING>","<MISSING>","<MISSING>","<MISSING>","https://shawfloors.com/stores/dealerprofile/42819/the-home-depot"
"https://shawfloors.com","GREATHOUSE FLOORS LLC","1699 E Three Notch St","Andalusia","AL","36420","US","<MISSING>","334-222-3451","<MISSING>","<MISSING>","<MISSING>","<MISSING>","https://shawfloors.com/stores/dealerprofile/23620/greathouse-floors-llc"
"https://shawfloors.com","HAROLD'S DISCOUNT FURNITURE","526 E Three Notch St","Andalusia","AL","36420-3128","US","<MISSING>","334-222-3265","<MISSING>","<MISSING>","<MISSING>","Monday - Saturday 8:00 - 5:30   Sunday 8:00 - 3:00","https://shawfloors.com/stores/dealerprofile/4203/harolds-discount-furniture"
"https://shawfloors.com","ABBEY CARPET OF ANNISTON","1008 US Highway 431","Anniston","AL","36206-1967","US","<MISSING>","256-231-0008","<MISSING>","<MISSING>","<MISSING>","<MISSING>","https://shawfloors.com/stores/dealerprofile/27068/abbey-carpet-of-anniston"
"https://shawfloors.com","LOWE'S COMPANIES INC. #2659","4901 McClellan Blvd","Anniston","AL","36206-1875","US","<MISSING>","256-499-9030","<MISSING>","<MISSING>","<MISSING>","<MISSING>","https://shawfloors.com/stores/dealerprofile/22739/lowes-companies-inc-2659"
"https://shawfloors.com","TRIPLETT PAINT & DECORATING","1800 Wilmer Ave","Anniston","AL","36201-3861","US","<MISSING>","256-236-5601","<MISSING>","<MISSING>","<MISSING>","Monday - Friday 7:00 - 5:00   Saturday 8:00 - 2:00   Sunday - Closed","https://shawfloors.com/stores/dealerprofile/4232/triplett-paint-and-decorating"
"https://shawfloors.com","PARKWAY FLOORING","2626 N Brindlee Mountain Pkwy","Arab","AL","35016-5147","US","<MISSING>","256-586-3435","<MISSING>","<MISSING>","<MISSING>","<MISSING>","https://shawfloors.com/stores/dealerprofile/2453/parkway-flooring"
"https://shawfloors.com","ALABAMA CUSTOM FLOORING AND DESIGN","23000 US-72","Athens","AL","35613","US","<MISSING>","256-230-0066","<MISSING>","<MISSING>","<MISSING>","<MISSING>","https://shawfloors.com/stores/dealerprofile/23825/alabama-custom-flooring-and-design"
"https://shawfloors.com","LOWE'S COMPANIES, INC. #1799","1109 US Highway 72 E","Athens","AL","35611-4401","US","<MISSING>","256-771-5600","<MISSING>","<MISSING>","<MISSING>","<MISSING>","https://shawfloors.com/stores/dealerprofile/11544/lowes-companies-inc-1799"
"https://shawfloors.com","THE FLOOR GALLERY LLC","25065 US Highway 72","Athens","AL","35613-7615","US","<MISSING>","256-216-9055","<MISSING>","<MISSING>","<MISSING>","<MISSING>","https://shawfloors.com/stores/dealerprofile/31409/the-floor-gallery-llc"
"https://shawfloors.com","KIRKLEY FLOOR COVERING","1201 Commerce Dr","Auburn","AL","36830-2815","US","<MISSING>","334-821-7255","<MISSING>","<MISSING>","<MISSING>","Monday - Friday 8:00 - 5:00   Saturday - By Appointment   Sunday - Closed","https://shawfloors.com/stores/dealerprofile/28454/kirkley-floor-covering"
"https://shawfloors.com","WALKER BUILDERS INC","101 School House Rd","Baileyton","AL","35019-8451","US","<MISSING>","256-796-2211","<MISSING>","<MISSING>","<MISSING>","<MISSING>","https://shawfloors.com/stores/dealerprofile/56/walker-builders-inc"
"https://shawfloors.com","PFEFFER FLOOR COVERING INC","703 Dolive St","Bay Minette","AL","36507-3125","US","<MISSING>","251-937-2189","<MISSING>","<MISSING>","<MISSING>","<MISSING>","https://shawfloors.com/stores/dealerprofile/4205/pfeffer-floor-covering-inc"
"https://shawfloors.com","HILL'S CARPET & FLOOR COVERINGS","3458 Warrior River Rd","Bessemer","AL","35023-1150","US","<MISSING>","205-491-3691","<MISSING>","<MISSING>","<MISSING>","<MISSING>","https://shawfloors.com/stores/dealerprofile/41965/hills-carpet-and-floor-coverings"
"https://shawfloors.com","LOWE'S COMPANIES, INC.","101 19th St N","Bessemer","AL","35020-5030","US","<MISSING>","205-428-1024","<MISSING>","<MISSING>","<MISSING>","<MISSING>","https://shawfloors.com/stores/dealerprofile/9930/lowes-companies-inc"
"https://shawfloors.com","BRIAN'S FLOORING AND DESIGN","4500 Valleydale Rd","Birmingham","AL","35242-4636","US","<MISSING>","205-417-6996","<MISSING>","<MISSING>","<MISSING>","Mon. - Thur. 9:00 - 5:30   Fri. 9:00 - 5:00   Sat. 9:00 - 4:00   Sun. - Closed","https://shawfloors.com/stores/dealerprofile/41572/brians-flooring-and-design"
"https://shawfloors.com","BRIANS FLOORING AND DESIGN","2928 6th Ave S Ste A","Birmingham","AL","35233-2935","US","<MISSING>","205-581-1788","<MISSING>","<MISSING>","<MISSING>","<MISSING>","https://shawfloors.com/stores/dealerprofile/27091/brians-flooring-and-design-"
"https://shawfloors.com","CARPET WAREHOUSE INC","817 Shades Crest Rd","Birmingham","AL","35226-1901","US","<MISSING>","205-824-3628","<MISSING>","<MISSING>","<MISSING>","<MISSING>","https://shawfloors.com/stores/dealerprofile/4154/carpet-warehouse-inc"
"https://shawfloors.com","DALTON CARPET","5959 Service Rd","Birmingham","AL","35235-2164","US","<MISSING>","205-655-7899","<MISSING>","<MISSING>","<MISSING>","Mon. - Closed   Tues. - Fri. 8:30 - 5:30   Sat. 8:30 - 2:00   Sun. - Closed","https://shawfloors.com/stores/dealerprofile/866/dalton-carpet"
"https://shawfloors.com","FLOOR COVERINGS INTERNATIONAL","5601 Afton Dr","Birmingham","AL","35242-4208","US","<MISSING>","833-245-7203","<MISSING>","<MISSING>","<MISSING>","In-home appointments available 7 days a week at the customers convenience.","https://shawfloors.com/stores/dealerprofile/47614/floor-coverings-international"
"https://shawfloors.com","ISSIS & SONS INC","2815 Greystone Commercial Blvd Ste 100","Birmingham","AL","35242-2662","US","<MISSING>","205-981-2311","<MISSING>","<MISSING>","<MISSING>","Mon. 9 - 7   Tues. 9 - 6   Wed. 9 - 7   Thur. 9 - 6   Fri. 9 - 7   Sat. 9 - 6   Sun. - Closed","https://shawfloors.com/stores/dealerprofile/24625/issis-and-sons-inc"
"https://shawfloors.com","LOWE'S COMPANIES, INC.","5291 Highway 280","Birmingham","AL","35242-5315","US","<MISSING>","205-981-4100","<MISSING>","<MISSING>","<MISSING>","<MISSING>","https://shawfloors.com/stores/dealerprofile/802/lowes-companies-inc"
"https://shawfloors.com","LOWE'S COMPANIES, INC.","1885 Edwards Lake Rd","Birmingham","AL","35235-2762","US","<MISSING>","205-655-9725","<MISSING>","<MISSING>","<MISSING>","<MISSING>","https://shawfloors.com/stores/dealerprofile/9915/lowes-companies-inc"
"https://shawfloors.com","THE HOME DEPOT","4995 US-280","Birmingham","AL","35242","US","<MISSING>","205-995-9357","<MISSING>","<MISSING>","<MISSING>","<MISSING>","https://shawfloors.com/stores/dealerprofile/3891/the-home-depot"
"https://shawfloors.com","THE HOME DEPOT","3670 Galleria Cir","Birmingham","AL","35244-2346","US","<MISSING>","205-988-8141","<MISSING>","<MISSING>","<MISSING>","<MISSING>","https://shawfloors.com/stores/dealerprofile/3894/the-home-depot"
"https://shawfloors.com","J & L CARPET & SUPPLY","2700 Al Highway 205","Boaz","AL","35956-6110","US","<MISSING>","256-593-3333","<MISSING>","<MISSING>","<MISSING>","<MISSING>","https://shawfloors.com/stores/dealerprofile/4186/j-and-l-carpet-and-supply"
"https://shawfloors.com","S & E CARPET & VINYL","4625 County Road 109","Bremen","AL","35033-3515","US","<MISSING>","256-287-1814","<MISSING>","<MISSING>","<MISSING>","<MISSING>","https://shawfloors.com/stores/dealerprofile/4144/s-and-e-carpet-and-vinyl"
"https://shawfloors.com","SHARP CARPET FACTORY","5075 Highway 31","Calera","AL","35040-5165","US","<MISSING>","205-668-1324","<MISSING>","<MISSING>","<MISSING>","<MISSING>","https://shawfloors.com/stores/dealerprofile/16672/sharp-carpet-factory"
"https://shawfloors.com","LOWE'S COMPANIES, INC.","2052 Cherokee Ave SW","Cullman","AL","35055","US","<MISSING>","256-739-3345","<MISSING>","<MISSING>","<MISSING>","<MISSING>","https://shawfloors.com/stores/dealerprofile/9912/lowes-companies-inc"
"https://shawfloors.com","JUBILEE FLOORING & DECORATING","25263 US Highway 98","Daphne","AL","36526-4829","US","<MISSING>","251-625-1700","<MISSING>","<MISSING>","<MISSING>","Monday - Friday 8:00 - 5:00   Saturday & Sunday - Closed","https://shawfloors.com/stores/dealerprofile/40320/jubilee-flooring-and-decorating"
"https://shawfloors.com","LOWE'S COMPANIES INC #2251","29645 Frederick Blvd","Daphne","AL","36526-9571","US","<MISSING>","251-261-7620","<MISSING>","<MISSING>","<MISSING>","<MISSING>","https://shawfloors.com/stores/dealerprofile/18651/lowes-companies-inc-2251"
"https://shawfloors.com","THE HOME DEPOT","7100 US Highway 90","Daphne","AL","36526-9590","US","<MISSING>","251-625-0890","<MISSING>","<MISSING>","<MISSING>","<MISSING>","https://shawfloors.com/stores/dealerprofile/3889/the-home-depot"
"https://shawfloors.com","ELITE FLOORING","1326 4th Ave SE","Decatur","AL","35601-4202","US","<MISSING>","256-353-0300","<MISSING>","<MISSING>","<MISSING>","Monday - Friday 8:00 - 5:00   Saturday - By Appointment   Sunday - Closed","https://shawfloors.com/stores/dealerprofile/29279/elite-flooring"
"https://shawfloors.com","LOWE'S COMPANIES, INC.","1641 Beltline Rd SW","Decatur","AL","35601-5507","US","<MISSING>","256-301-0652","<MISSING>","<MISSING>","<MISSING>","<MISSING>","https://shawfloors.com/stores/dealerprofile/9926/lowes-companies-inc"
"https://shawfloors.com","SUPERIOR CARPETS & FLOOR COVERINGS INC","710 14th St SE Ste B","Decatur","AL","35601-5937","US","<MISSING>","256-351-9016","<MISSING>","<MISSING>","<MISSING>","Mon. 9 - 6   Tues. 9 - 6   Wed. 9 - 5   Thur. 9 - 6   Fri. 9 - 6   Sat. 9 - 12   Sun. - Closed","https://shawfloors.com/stores/dealerprofile/1285/superior-carpets-and-floor-coverings-inc"
"https://shawfloors.com","THE HOME DEPOT","1225 Wimberly Dr SW","Decatur","AL","35603-4501","US","<MISSING>","256-353-2031","<MISSING>","<MISSING>","<MISSING>","<MISSING>","https://shawfloors.com/stores/dealerprofile/3897/the-home-depot"
"https://shawfloors.com","CARPETS BY MILLER, INC.","1327 E Pettus St","Demopolis","AL","36732-3021","US","<MISSING>","205-499-6225","<MISSING>","<MISSING>","<MISSING>","<MISSING>","https://shawfloors.com/stores/dealerprofile/4235/carpets-by-miller-inc"
"https://shawfloors.com","BRIAN HOLLOWAY FLOOR COVERING","3955 Reeves St","Dothan","AL","36303-2315","US","<MISSING>","334-828-7005","<MISSING>","<MISSING>","<MISSING>","Monday - Friday 8:00 - 5:00   Saturday 9:00 - 3:00   Sunday - Closed","https://shawfloors.com/stores/dealerprofile/17652/brian-holloway-floor-covering"
"https://shawfloors.com","CARPET DISCOUNT BARN","300 Plant St","Dothan","AL","36303-5153","US","<MISSING>","334-794-7041","<MISSING>","<MISSING>","<MISSING>","<MISSING>","https://shawfloors.com/stores/dealerprofile/17100/carpet-discount-barn"
"https://shawfloors.com","CARPETLAND USA OF ALABAMA INC","2710 Ross Clark Cir","Dothan","AL","36301-3215","US","<MISSING>","334-218-3800","<MISSING>","<MISSING>","<MISSING>","Monday - Friday 8:00 - 6:00   Saturday 9:00 - 5:00   Sunday - Closed","https://shawfloors.com/stores/dealerprofile/1536/carpetland-usa-of-alabama-inc"
"https://shawfloors.com","LOWE'S COMPANIES, INC","4801 Montgomery Hwy","Dothan","AL","36303-1690","US","<MISSING>","334-340-2560","<MISSING>","<MISSING>","<MISSING>","<MISSING>","https://shawfloors.com/stores/dealerprofile/43381/lowes-companies-inc"
"https://shawfloors.com","LOWE'S COMPANIES, INC.","2671 Ross Clark Cir","Dothan","AL","36301-4905","US","<MISSING>","334-673-9157","<MISSING>","<MISSING>","<MISSING>","<MISSING>","https://shawfloors.com/stores/dealerprofile/9919/lowes-companies-inc"
"https://shawfloors.com","THE HOME DEPOT","3489 Ross Clark Cir","Dothan","AL","36303-2579","US","<MISSING>","334-677-2790","<MISSING>","<MISSING>","<MISSING>","<MISSING>","https://shawfloors.com/stores/dealerprofile/41588/the-home-depot"
"https://shawfloors.com","FLOOR STORE, THE","14390 Highway 278","Double Springs","AL","35553-2532","US","<MISSING>","205-489-8800","<MISSING>","<MISSING>","<MISSING>","<MISSING>","https://shawfloors.com/stores/dealerprofile/4164/floor-store-the"
"https://shawfloors.com","ENTERPRISE WHOLESALE INC","1093 Geneva Hwy","Enterprise","AL","36330-3186","US","<MISSING>","334-347-7033","<MISSING>","<MISSING>","<MISSING>","Monday - Friday 7:00 - 5:30   Saturday 8:00 - 12:00   Sunday - Closed","https://shawfloors.com/stores/dealerprofile/36052/enterprise-wholesale-inc"
"https://shawfloors.com","LOWE'S COMPANIES, INC.","1301 Boll Weevil Cir","Enterprise","AL","36330-1369","US","<MISSING>","334-393-5200","<MISSING>","<MISSING>","<MISSING>","<MISSING>","https://shawfloors.com/stores/dealerprofile/9905/lowes-companies-inc"
"https://shawfloors.com","WIREGRASS FLOOR COVERING LLC","408 E Park Ave","Enterprise","AL","36330-3932","US","<MISSING>","334-393-0490","<MISSING>","<MISSING>","<MISSING>","Monday - Friday 8:00 - 5:00   Saturday & Sunday - Closed","https://shawfloors.com/stores/dealerprofile/37632/wiregrass-floor-covering-llc"
"https://shawfloors.com","THE HOME DEPOT","6405 Flint Ridge Dr","Fairfield","AL","35064-1829","US","<MISSING>","205-781-0110","<MISSING>","<MISSING>","<MISSING>","<MISSING>","https://shawfloors.com/stores/dealerprofile/3895/the-home-depot"
"https://shawfloors.com","BAY FLOORING & DESIGN INC.","399 N Section St","Fairhope","AL","36532-2634","US","<MISSING>","251-928-5625","<MISSING>","<MISSING>","<MISSING>","<MISSING>","https://shawfloors.com/stores/dealerprofile/31237/bay-flooring-and-design-inc"
"https://shawfloors.com","FAIRHOPE FLR COV & INT","362 Greeno Rd S","Fairhope","AL","36532-1916","US","<MISSING>","251-928-8302","<MISSING>","<MISSING>","<MISSING>","<MISSING>","https://shawfloors.com/stores/dealerprofile/619/fairhope-flr-cov-and-int"
"https://shawfloors.com","REBASCO DECORATORS","1516 Temple Ave S","Fayette","AL","35555-3198","US","<MISSING>","205-932-6772","<MISSING>","<MISSING>","<MISSING>","<MISSING>","https://shawfloors.com/stores/dealerprofile/4224/rebasco-decorators"
"https://shawfloors.com","LOWE'S COMPANIES, inc","130 Cox Creek Pkwy S","Florence","AL","35630-3263","US","<MISSING>","256-764-7887","<MISSING>","<MISSING>","<MISSING>","<MISSING>","https://shawfloors.com/stores/dealerprofile/42917/lowes-companies-inc"
"https://shawfloors.com","MCCRORY'S CARPETS & INTERIORS","4302 Huntsville Rd","Florence","AL","35630-2911","US","<MISSING>","256-766-9315","<MISSING>","<MISSING>","<MISSING>","8:00 - 5:00  Mon - Fri 9:00 - 12:00  Sat","https://shawfloors.com/stores/dealerprofile/4167/mccrorys-carpets-and-interiors"
"https://shawfloors.com","THE CARPET STORE","1508 N Pine St","Florence","AL","35630-2241","US","<MISSING>","256-767-5195","<MISSING>","<MISSING>","<MISSING>","<MISSING>","https://shawfloors.com/stores/dealerprofile/978/the-carpet-store"
"https://shawfloors.com","THE HOME DEPOT","351 Seville St","Florence","AL","35630-1519","US","<MISSING>","256-764-5037","<MISSING>","<MISSING>","<MISSING>","<MISSING>","https://shawfloors.com/stores/dealerprofile/42338/the-home-depot"
"https://shawfloors.com","THE WOOD FLOOR STORE","380 Seville St","Florence","AL","35630-1511","US","<MISSING>","256-767-6389","<MISSING>","<MISSING>","<MISSING>","Monday - Saturday 8 am - 5 pm","https://shawfloors.com/stores/dealerprofile/11500/the-wood-floor-store"
"https://shawfloors.com","LOWE'S COMPANIES, INC.","3101 S McKenzie St","Foley","AL","36535-3701","US","<MISSING>","334-970-5300","<MISSING>","<MISSING>","<MISSING>","<MISSING>","https://shawfloors.com/stores/dealerprofile/9920/lowes-companies-inc"
"https://shawfloors.com","THE HOME DEPOT","2899 S McKenzie St","Foley","AL","36535-3413","US","<MISSING>","251-955-2401","<MISSING>","<MISSING>","<MISSING>","<MISSING>","https://shawfloors.com/stores/dealerprofile/3885/the-home-depot"
"https://shawfloors.com","WADE DISTRIBUTORS","2699 S Juniper St","Foley","AL","36535-9237","US","<MISSING>","251-943-4188","<MISSING>","<MISSING>","<MISSING>","<MISSING>","https://shawfloors.com/stores/dealerprofile/25724/wade-distributors"
"https://shawfloors.com","LOWE'S COMPANIES, INC. #1786","1600 Glenn Blvd SW","Fort Payne","AL","35968-3522","US","<MISSING>","256-844-6940","<MISSING>","<MISSING>","<MISSING>","<MISSING>","https://shawfloors.com/stores/dealerprofile/11448/lowes-companies-inc-1786"
"https://shawfloors.com","LOWE'S COMPANIES, INC.","1335 Walker Chapel Rd","Fultondale","AL","35068-1673","US","<MISSING>","205-948-0556","<MISSING>","<MISSING>","<MISSING>","<MISSING>","https://shawfloors.com/stores/dealerprofile/9932/lowes-companies-inc"
"https://shawfloors.com","ALLEY'S FLOOR & WALL COVERING","2211 S 11th St","Gadsden","AL","35904-4707","US","<MISSING>","256-543-8330","<MISSING>","<MISSING>","<MISSING>","<MISSING>","https://shawfloors.com/stores/dealerprofile/3985/alleys-floor-and-wall-covering"
"https://shawfloors.com","FOOTE BROTHERS CARPET ONE","200 W Meighan Blvd","Gadsden","AL","35901-3210","US","<MISSING>","256-549-1965","<MISSING>","<MISSING>","<MISSING>","<MISSING>","https://shawfloors.com/stores/dealerprofile/4230/foote-brothers-carpet-one"
"https://shawfloors.com","LOWE'S COMPANIES, INC.","615 George Wallace Dr","Gadsden","AL","35903-2285","US","<MISSING>","256-543-1543","<MISSING>","<MISSING>","<MISSING>","<MISSING>","https://shawfloors.com/stores/dealerprofile/9929/lowes-companies-inc"
"https://shawfloors.com","LOWE'S COMPANIES, INC","1100 Bankhead Hwy SW","Graysville","AL","35073-1754","US","<MISSING>","205-390-5000","<MISSING>","<MISSING>","<MISSING>","<MISSING>","https://shawfloors.com/stores/dealerprofile/43445/lowes-companies-inc"
"https://shawfloors.com","FLOORS UNLIMITED","7434 US Highway 43","Guin","AL","35563-3341","US","<MISSING>","205-468-3559","<MISSING>","<MISSING>","<MISSING>","<MISSING>","https://shawfloors.com/stores/dealerprofile/4165/floors-unlimited"
"https://shawfloors.com","AMERICAN CARPETS OF GULF SHORES","3845 Gulf Shores Pkwy","Gulf Shores","AL","36542-2711","US","<MISSING>","251-967-1700","<MISSING>","<MISSING>","<MISSING>","<MISSING>","https://shawfloors.com/stores/dealerprofile/28391/american-carpets-of-gulf-shores"
"https://shawfloors.com","GENE'S FLOOR COVERING INC","3741 Gulf Shores Pkwy","Gulf Shores","AL","36542-2713","US","<MISSING>","251-968-6456","<MISSING>","<MISSING>","<MISSING>","Monday - Friday 8:00 - 5:00   Saturday 9:00 - 1:00   Sunday - Closed","https://shawfloors.com/stores/dealerprofile/1757/genes-floor-covering-inc"
"https://shawfloors.com","LOWE'S COMPANIES, INC.","11190 US Highway 431","Guntersville","AL","35976-5649","US","<MISSING>","256-878-6599","<MISSING>","<MISSING>","<MISSING>","<MISSING>","https://shawfloors.com/stores/dealerprofile/9924/lowes-companies-inc"
"https://shawfloors.com","LOWE'S HOME IMPROVEMENT #3006","1807 Highway 31 NW","Hartselle","AL","35640-4442","US","<MISSING>","256-751-5270","<MISSING>","<MISSING>","<MISSING>","<MISSING>","https://shawfloors.com/stores/dealerprofile/43436/lowes-home-improvement-3006"
"https://shawfloors.com","WAREHOUSE RUGS INC","408 Highway 31 NW Ste B","Hartselle","AL","35640-4405","US","<MISSING>","256-773-4077","<MISSING>","<MISSING>","<MISSING>","<MISSING>","https://shawfloors.com/stores/dealerprofile/35921/warehouse-rugs-inc"
"https://shawfloors.com","HILL'S CARPET & FLOOR COVERINGS","5135 Highway 17","Helena","AL","35080-3514","US","<MISSING>","205-358-7879","<MISSING>","<MISSING>","<MISSING>","<MISSING>","https://shawfloors.com/stores/dealerprofile/48344/hills-carpet-and-floor-coverings"
"https://shawfloors.com","HOMEWOOD CARPET & FLOORING","813 Green Springs Hwy Ste 150","Homewood","AL","35209-4926","US","<MISSING>","205-518-6423","<MISSING>","<MISSING>","<MISSING>","Monday - Saturday 9:00 - 6:00   Sunday - Closed","https://shawfloors.com/stores/dealerprofile/28083/homewood-carpet-and-flooring"
"https://shawfloors.com","LOWE'S COMPANIES, INC.","375 State Farm Pkwy","Homewood","AL","35209-7180","US","<MISSING>","205-942-2223","<MISSING>","<MISSING>","<MISSING>","<MISSING>","https://shawfloors.com/stores/dealerprofile/4151/lowes-companies-inc"
"https://shawfloors.com","SHARP CARPET FACTORY","505 Cobb St","Homewood","AL","35209-6510","US","<MISSING>","205-668-1324","<MISSING>","<MISSING>","<MISSING>","<MISSING>","https://shawfloors.com/stores/dealerprofile/16673/sharp-carpet-factory"
"https://shawfloors.com","SOUTHERN CARPET AND HARDWOOD","131 W Oxmoor Rd Ste 105","Homewood","AL","35209-6332","US","<MISSING>","205-942-8321","<MISSING>","<MISSING>","<MISSING>","Monday - Friday 8:00 - 5:00   Saturday & Sunday - Closed","https://shawfloors.com/stores/dealerprofile/35919/southern-carpet-and-hardwood"
"https://shawfloors.com","CARPET WAREHOUSE INC","2711 John Hawkins Pkwy","Hoover","AL","35244-4004","US","<MISSING>","205-989-5678","<MISSING>","<MISSING>","<MISSING>","Monday - Saturday 9:00 - 5:00   Sunday - Closed   Closed 2nd & 4th Monday of each month","https://shawfloors.com/stores/dealerprofile/22694/carpet-warehouse-inc"
"https://shawfloors.com","LOWE'S COMPANIES, INC.","2100 Valleydale Rd","Hoover","AL","35244-2072","US","<MISSING>","205-402-9880","<MISSING>","<MISSING>","<MISSING>","<MISSING>","https://shawfloors.com/stores/dealerprofile/23322/lowes-companies-inc"
"https://shawfloors.com","CARPET CRAFTERS INC.","602 Jordan Ln NW","Huntsville","AL","35816-3622","US","<MISSING>","256-837-9116","<MISSING>","<MISSING>","<MISSING>","<MISSING>","https://shawfloors.com/stores/dealerprofile/4229/carpet-crafters-inc"
"https://shawfloors.com","CARPET ONE HUNTSVILLE","3107 Memorial Pkwy NW","Huntsville","AL","35810-2403","US","<MISSING>","256-859-0291","<MISSING>","<MISSING>","<MISSING>","<MISSING>","https://shawfloors.com/stores/dealerprofile/17654/carpet-one-huntsville"
"https://shawfloors.com","COSTCO IN-HOME DESIGN SERVICE","1205 Memorial Pkwy NW","Huntsville","AL","35801-5930","US","<MISSING>","1-888-992-2773","<MISSING>","<MISSING>","<MISSING>","<MISSING>","https://shawfloors.com/stores/dealerprofile/23323/costco-in-home-design-service"
"https://shawfloors.com","FLOOR COVERINGS INTERNATIONAL","13309 S Village Square Rd SE","Huntsville","AL","35803-3814","US","<MISSING>","833-245-7203","<MISSING>","<MISSING>","<MISSING>","In-home appointments available 7 days a week at the customers convenience.","https://shawfloors.com/stores/dealerprofile/47613/floor-coverings-international"
"https://shawfloors.com","FLOORING AMERICA OF HUNTSVILLE","650 Pratt Ave NW Unit A","Huntsville","AL","35801-5539","US","<MISSING>","256-519-6992","<MISSING>","<MISSING>","<MISSING>","<MISSING>","https://shawfloors.com/stores/dealerprofile/17571/flooring-america-of-huntsville"
"https://shawfloors.com","HALEY'S FLOORING & INTERIORS","2806 Bob Wallace Ave SW","Huntsville","AL","35805-4106","US","<MISSING>","256-536-8086","<MISSING>","<MISSING>","<MISSING>","Monday - Friday 9:00 - 5:00   Saturday 10:00 - 2:00   Sunday - Closed","https://shawfloors.com/stores/dealerprofile/1064/haleys-flooring-and-interiors"
"https://shawfloors.com","HUNTSVILLE DECORATING CENTER","816 Regal Dr SW","Huntsville","AL","35801-5678","US","<MISSING>","256-536-4479","<MISSING>","<MISSING>","<MISSING>","Monday - Friday 7:00 - 5:30   Saturday 7:00 - 4:00   Sunday - Closed","https://shawfloors.com/stores/dealerprofile/4228/huntsville-decorating-center"
"https://shawfloors.com","KEMP'S FLOORING","7079 University Drive NW","Huntsville","AL","35806","US","<MISSING>","256-801-5969","<MISSING>","<MISSING>","<MISSING>","Monday - Friday 9am - 6pm; Saturday 9:00am - 5:00pm","https://shawfloors.com/stores/dealerprofile/49251/kemps-flooring"
"https://shawfloors.com","KEMP'S FLOORING","7079 University Dr NW","Huntsville","AL","35806","US","<MISSING>","256-801-7744","<MISSING>","<MISSING>","<MISSING>","Monday - Friday 9:00 - 6:00   Saturday 9:00 - 4:00   Sunday - Closed","https://shawfloors.com/stores/dealerprofile/47673/kemps-flooring"
"https://shawfloors.com","LOWE'S COMPANIES, INC.","10050 Memorial Pkwy SW","Huntsville","AL","35803-1010","US","<MISSING>","256-880-1981","<MISSING>","<MISSING>","<MISSING>","<MISSING>","https://shawfloors.com/stores/dealerprofile/9908/lowes-companies-inc"
"https://shawfloors.com","LOWE'S COMPANIES, INC.","3505 Memorial Pkwy NW","Huntsville","AL","35810-2414","US","<MISSING>","256-859-0735","<MISSING>","<MISSING>","<MISSING>","<MISSING>","https://shawfloors.com/stores/dealerprofile/9928/lowes-companies-inc"
"https://shawfloors.com","MITCHELL ECONOMY CARPET","2733 University Dr NW","Huntsville","AL","35816-3317","US","<MISSING>","256-536-2483","<MISSING>","<MISSING>","<MISSING>","<MISSING>","https://shawfloors.com/stores/dealerprofile/26931/mitchell-economy-carpet"
"https://shawfloors.com","OLD GIN CARPETS","8513 Whitesburg Dr SE","Huntsville","AL","35802-3011","US","<MISSING>","256-881-4861","<MISSING>","<MISSING>","<MISSING>","<MISSING>","https://shawfloors.com/stores/dealerprofile/2280/old-gin-carpets"
"https://shawfloors.com","THE HOME DEPOT","1035 Memorial Pkwy NW","Huntsville","AL","35801-5927","US","<MISSING>","256-536-2216","<MISSING>","<MISSING>","<MISSING>","<MISSING>","https://shawfloors.com/stores/dealerprofile/3887/the-home-depot"
"https://shawfloors.com","THE HOME DEPOT","10012 Memorial Pkwy SW","Huntsville","AL","35803-1010","US","<MISSING>","256-881-8270","<MISSING>","<MISSING>","<MISSING>","<MISSING>","https://shawfloors.com/stores/dealerprofile/42337/the-home-depot"
"https://shawfloors.com","THE HOME DEPOT","7001 Crestwood Blvd Ste 1300","Irondale","AL","35210-2343","US","<MISSING>","205-595-7780","<MISSING>","<MISSING>","<MISSING>","<MISSING>","https://shawfloors.com/stores/dealerprofile/41594/the-home-depot"
"https://shawfloors.com","AL-GA CARPET OUTLET","5960 Curry Hwy Lakeview Estates","Jasper","AL","35503-5820","US","<MISSING>","205-221-7271","<MISSING>","<MISSING>","<MISSING>","<MISSING>","https://shawfloors.com/stores/dealerprofile/4162/al-ga-carpet-outlet"
"https://shawfloors.com","SHERER'S FLOORING","24765 Highway 69","Jasper","AL","35504-8213","US","<MISSING>","205-221-3813","<MISSING>","<MISSING>","<MISSING>","<MISSING>","https://shawfloors.com/stores/dealerprofile/2456/sherers-flooring"
"https://shawfloors.com","SHOWCASELIGHTING, FLOORS & MOR","1383 Highway 195","Jasper","AL","35503-6461","US","<MISSING>","205-387-0238","<MISSING>","<MISSING>","<MISSING>","Monday - Friday 8:00 - 5:00   Saturday & Sunday - Closed","https://shawfloors.com/stores/dealerprofile/41200/showcaselighting-floors-and-mor"
"https://shawfloors.com","THE HOME DEPOT","1808 Highway 78 E","Jasper","AL","35501-4038","US","<MISSING>","205-221-0367","<MISSING>","<MISSING>","<MISSING>","<MISSING>","https://shawfloors.com/stores/dealerprofile/42333/the-home-depot"
"https://shawfloors.com","LEE'S CARPET SUPPLIES","102 N Gilmer Ave","Lanett","AL","36863-2038","US","<MISSING>","334-642-2284","<MISSING>","<MISSING>","<MISSING>","<MISSING>","https://shawfloors.com/stores/dealerprofile/4217/lees-carpet-supplies"
"https://shawfloors.com","LOWE'S COMPANIES, INC. #1737","8900 Weaver Ave","Leeds","AL","35094-7532","US","<MISSING>","205-699-4520","<MISSING>","<MISSING>","<MISSING>","<MISSING>","https://shawfloors.com/stores/dealerprofile/10812/lowes-companies-inc-1737"
"https://shawfloors.com","CARPET ALLEY","100 E 4th Ave","Linden","AL","36748","US","<MISSING>","334-295-0116","<MISSING>","<MISSING>","<MISSING>","<MISSING>","https://shawfloors.com/stores/dealerprofile/4215/carpet-alley"
"https://shawfloors.com","LOWE'S COMPANIES, INC.","7920 Highway 72 W","Madison","AL","35758-9560","US","<MISSING>","256-430-5778","<MISSING>","<MISSING>","<MISSING>","<MISSING>","https://shawfloors.com/stores/dealerprofile/9922/lowes-companies-inc"
"https://shawfloors.com","MADISON PAINT & DECORATING CENTER, INC.","1597 Hughes Rd","Madison","AL","35758-8986","US","<MISSING>","256-430-4343","<MISSING>","<MISSING>","<MISSING>","<MISSING>","https://shawfloors.com/stores/dealerprofile/4173/madison-paint-and-decorating-center-inc"
"https://shawfloors.com","THE HOME DEPOT","4045 Lawson Ridge Dr","Madison","AL","35757-7222","US","<MISSING>","256-837-6658","<MISSING>","<MISSING>","<MISSING>","<MISSING>","https://shawfloors.com/stores/dealerprofile/3886/the-home-depot"
"https://shawfloors.com","THE CARPET PLACE","3051 Main St","Millbrook","AL","36054-3809","US","<MISSING>","334-285-3231","<MISSING>","<MISSING>","<MISSING>","<MISSING>","https://shawfloors.com/stores/dealerprofile/2243/the-carpet-place"
"https://shawfloors.com","CARPET SPECIALIST","102 Colvin St","Mobile","AL","36606-4809","US","<MISSING>","251-476-5545","<MISSING>","<MISSING>","<MISSING>","Monday - Friday 8:00 - 4:00   Saturday & Sunday - Closed","https://shawfloors.com/stores/dealerprofile/24640/carpet-specialist"
"https://shawfloors.com","DESIGNS BY KARON","811 Wildwood Dr","Mobile","AL","36693-2917","US","<MISSING>","251-660-9696","<MISSING>","<MISSING>","<MISSING>","<MISSING>","https://shawfloors.com/stores/dealerprofile/19566/designs-by-karon"
"https://shawfloors.com","EXPRESSWAY CARPET","1300 Montlimar Dr","Mobile","AL","36609-1660","US","<MISSING>","251-345-1905","<MISSING>","<MISSING>","<MISSING>","Monday - Friday 7:30 - 5:00   Saturday 7:30 - 2:00   Sunday - Closed","https://shawfloors.com/stores/dealerprofile/36020/expressway-carpet"
"https://shawfloors.com","HILLARD SONS CTR","2555 Dauphinwood Dr","Mobile","AL","36606-4833","US","<MISSING>","334-443-6110","<MISSING>","<MISSING>","<MISSING>","<MISSING>","https://shawfloors.com/stores/dealerprofile/72/hillard-sons-ctr"
"https://shawfloors.com","LOWE'S COMPANIES, INC.","4401 Rangeline Rd","Mobile","AL","36619-9551","US","<MISSING>","251-643-7350","<MISSING>","<MISSING>","<MISSING>","<MISSING>","https://shawfloors.com/stores/dealerprofile/9927/lowes-companies-inc"
"https://shawfloors.com","LOWE'S COMPANIES, INC.","151 E I65 Service Rd S","Mobile","AL","36606-3900","US","<MISSING>","251-473-1880","<MISSING>","<MISSING>","<MISSING>","<MISSING>","https://shawfloors.com/stores/dealerprofile/9911/lowes-companies-inc"
"https://shawfloors.com","LOWE'S COMPANIES, INC.","7760 Airport Blvd","Mobile","AL","36608-5025","US","<MISSING>","251-633-7797","<MISSING>","<MISSING>","<MISSING>","<MISSING>","https://shawfloors.com/stores/dealerprofile/9917/lowes-companies-inc"
"https://shawfloors.com","MOBILE PAINT MANUFACTURING CO","148 East Interstate 65 Service Rd S","Mobile","AL","36606","US","<MISSING>","251-471-6207","<MISSING>","<MISSING>","<MISSING>","<MISSING>","https://shawfloors.com/stores/dealerprofile/35931/mobile-paint-manufacturing-co"
"https://shawfloors.com","PAY-LESS CARPETS & FLOORING, INC.","2818 Government Blvd","Mobile","AL","36606-2616","US","<MISSING>","251-476-5114","<MISSING>","<MISSING>","<MISSING>","Monday - Friday 8:00 - 5:00   Saturday 9:00 - 1:00   Sunday - Closed","https://shawfloors.com/stores/dealerprofile/26055/pay-less-carpets-and-flooring-inc"
"https://shawfloors.com","PROSOURCE OF MOBILE","1558 W I65 Service Rd S","Mobile","AL","36693-5101","US","<MISSING>","251-202-3670","<MISSING>","<MISSING>","<MISSING>","Monday - Friday 8:00 - 5:00   Saturday 9:00 - 12:00   Sunday - Closed","https://shawfloors.com/stores/dealerprofile/44750/prosource-of-mobile"
"https://shawfloors.com","SOUTH ALABAMA CARPET WHOESALE FLOORING","1242 Montlimar Dr","Mobile","AL","36609-1711","US","<MISSING>","251-342-5957","<MISSING>","<MISSING>","<MISSING>","Monday - Friday 7:30 - 5:00   Saturday 7:30 - 2:00   Sunday - Closed","https://shawfloors.com/stores/dealerprofile/43495/south-alabama-carpet-whoesale-flooring"
"https://shawfloors.com","THE FLOOR TRADER","1401 Schillinger Rd S","Mobile","AL","36695-8919","US","<MISSING>","251-607-1129","<MISSING>","<MISSING>","<MISSING>","<MISSING>","https://shawfloors.com/stores/dealerprofile/40622/the-floor-trader"
"https://shawfloors.com","THE HOME DEPOT","755 Schillinger Rd S","Mobile","AL","36695-8909","US","<MISSING>","251-634-0351","<MISSING>","<MISSING>","<MISSING>","<MISSING>","https://shawfloors.com/stores/dealerprofile/3884/the-home-depot"
"https://shawfloors.com","THE HOME DEPOT","851 Montlimar Dr","Mobile","AL","36609-1783","US","<MISSING>","251-380-0017","<MISSING>","<MISSING>","<MISSING>","<MISSING>","https://shawfloors.com/stores/dealerprofile/3890/the-home-depot"
"https://shawfloors.com","WADE DISTRIBUTORS","1150 E I65 Service Rd N","Mobile","AL","36617-1587","US","<MISSING>","252-476-1140","<MISSING>","<MISSING>","<MISSING>","Monday - Friday 8:00 - 5:00   Saturday & Sunday - Closed","https://shawfloors.com/stores/dealerprofile/25723/wade-distributors"
"https://shawfloors.com","CAROL'S CARPET","1640 N Eastern Blvd","Montgomery","AL","36117-2223","US","<MISSING>","334-603-8713","<MISSING>","<MISSING>","<MISSING>","Monday - Friday 9:00 - 6:00   Saturday 10:00 - 4:30   Sunday - Closed","https://shawfloors.com/stores/dealerprofile/24626/carols-carpet"
"https://shawfloors.com","COSTCO IN-HOME DESIGN SERVICE","8251 Eastchase Pkwy","Montgomery","AL","36117-7033","US","<MISSING>","1-888-992-2773","<MISSING>","<MISSING>","<MISSING>","<MISSING>","https://shawfloors.com/stores/dealerprofile/23324/costco-in-home-design-service"
"https://shawfloors.com","FLOOR WINDOW & WALL","32 Hunter Ln","Montgomery","AL","36109-3011","US","<MISSING>","334-277-2756","<MISSING>","<MISSING>","<MISSING>","<MISSING>","https://shawfloors.com/stores/dealerprofile/1438/floor-window-and-wall"
"https://shawfloors.com","GARDNER CARPETS AND DECORATING","514 N Eastern Blvd","Montgomery","AL","36117-2214","US","<MISSING>","334-277-2756","<MISSING>","<MISSING>","<MISSING>","Monday - Friday 9:00 - 6:00   Saturday 9:00 - 4:00   Sunday - Closed","https://shawfloors.com/stores/dealerprofile/18079/gardner-carpets-and-decorating"
"https://shawfloors.com","GCO CARPET OUTLET","1965 Eastern Blvd","Montgomery","AL","36117-1699","US","<MISSING>","334-394-3869","<MISSING>","<MISSING>","<MISSING>","Monday - Friday 9:00 - 7:00   Saturday 9:00 - 6:00   Sunday - Closed","https://shawfloors.com/stores/dealerprofile/18268/gco-carpet-outlet"
"https://shawfloors.com","H & H Carpets","6450 Atlanta Hwy","Montgomery","AL","36117-4204","US","<MISSING>","334-277-6552","<MISSING>","<MISSING>","<MISSING>","<MISSING>","https://shawfloors.com/stores/dealerprofile/40918/h-and-h-carpets"
"https://shawfloors.com","LOWE'S COMPANIES, INC.","1950 Eastern Blvd","Montgomery","AL","36117-1614","US","<MISSING>","334-409-9000","<MISSING>","<MISSING>","<MISSING>","<MISSING>","https://shawfloors.com/stores/dealerprofile/9910/lowes-companies-inc"
"https://shawfloors.com","THE HOME DEPOT","2312 Eastern Blvd","Montgomery","AL","36117-1504","US","<MISSING>","334-272-8552","<MISSING>","<MISSING>","<MISSING>","<MISSING>","https://shawfloors.com/stores/dealerprofile/3896/the-home-depot"
"https://shawfloors.com","THE HOME DEPOT","10655 Chantilly Pkwy","Montgomery","AL","36117-7584","US","<MISSING>","334-260-8702","<MISSING>","<MISSING>","<MISSING>","<MISSING>","https://shawfloors.com/stores/dealerprofile/42335/the-home-depot"
"https://shawfloors.com","CORNERSTONE FLOORING","101 Industrial Dr","Muscle Shoals","AL","35661-3563","US","<MISSING>","256-248-4681","<MISSING>","<MISSING>","<MISSING>","<MISSING>","https://shawfloors.com/stores/dealerprofile/39196/cornerstone-flooring"
"https://shawfloors.com","ECONOMY CARPETS, INC.","105 Avalon Ave","Muscle Shoals","AL","35661-2803","US","<MISSING>","256-383-6821","<MISSING>","<MISSING>","<MISSING>","Monday - Friday 8:30 - 5:30   Saturday 8:30 - 3:00   Sunday - Closed","https://shawfloors.com/stores/dealerprofile/130/economy-carpets-inc"
"https://shawfloors.com","LOWE'S COMPANIES, INC.","3415 Woodward Ave","Muscle Shoals","AL","35661-3541","US","<MISSING>","256-314-0334","<MISSING>","<MISSING>","<MISSING>","<MISSING>","https://shawfloors.com/stores/dealerprofile/9923/lowes-companies-inc"
"https://shawfloors.com","LOWE'S COMPANIES INC #2488","5703 McFarland Blvd","Northport","AL","35476-3538","US","<MISSING>","205-330-4613","<MISSING>","<MISSING>","<MISSING>","<MISSING>","https://shawfloors.com/stores/dealerprofile/19145/lowes-companies-inc-2488"
"https://shawfloors.com","WHEAT'S CARPET ONE FLOOR & HOME","51 McFarland Blvd","Northport","AL","35476-3349","US","<MISSING>","205-737-0218","<MISSING>","<MISSING>","<MISSING>","Monday - Friday 9:00 - 6:00   Saturday 9:00 - 4:00   Sunday - Closed","https://shawfloors.com/stores/dealerprofile/27666/wheats-carpet-one-floor-and-home"
"https://shawfloors.com","CANNON CARPET ONE","3500 Pepperell Pkwy Ste A","Opelika","AL","36801-6037","US","<MISSING>","334-246-0890","<MISSING>","<MISSING>","<MISSING>","Monday - Friday 8:00 - 5:00   Saturday 9:00 - 12:00   Sunday - Closed","https://shawfloors.com/stores/dealerprofile/18402/cannon-carpet-one"
"https://shawfloors.com","GREGORY'S HOUSE OF CARPETS","2302 Gateway Dr","Opelika","AL","36801-6830","US","<MISSING>","334-745-6300","<MISSING>","<MISSING>","<MISSING>","<MISSING>","https://shawfloors.com/stores/dealerprofile/3952/gregorys-house-of-carpets"
"https://shawfloors.com","LOWE'S COMPANIES, INC.","1701 Frederick Rd","Opelika","AL","36801-7202","US","<MISSING>","334-705-4995","<MISSING>","<MISSING>","<MISSING>","<MISSING>","https://shawfloors.com/stores/dealerprofile/9918/lowes-companies-inc"
"https://shawfloors.com","THE HOME DEPOT","2190 Tiger Town Pkwy","Opelika","AL","36801-5492","US","<MISSING>","334-737-0136","<MISSING>","<MISSING>","<MISSING>","<MISSING>","https://shawfloors.com/stores/dealerprofile/42340/the-home-depot"
"https://shawfloors.com","BOB TAYLOR'S CARPET ONE","123 E Covington Ave","Opp","AL","36467-2122","US","<MISSING>","877-602-0283","<MISSING>","<MISSING>","<MISSING>","Monday - Friday 8:00 - 5:00   Saturday 9:00 - Noon   Sunday - Closed","https://shawfloors.com/stores/dealerprofile/17564/bob-taylors-carpet-one"
"https://shawfloors.com","BRUCE FLOORING","24699 Canal Rd","Orange Beach","AL","36561-3813","US","<MISSING>","251-974-5553","<MISSING>","<MISSING>","<MISSING>","Monday - Friday 9:00 - 4:00   Saturday - By Appointment   Sunday - Closed","https://shawfloors.com/stores/dealerprofile/4210/bruce-flooring"
"https://shawfloors.com","BIG COVE DECORATING","6684 Highway 431 S","Owens Cross Roads","AL","35763-9220","US","<MISSING>","256-518-9537","<MISSING>","<MISSING>","<MISSING>","<MISSING>","https://shawfloors.com/stores/dealerprofile/1200/big-cove-decorating"
"https://shawfloors.com","LOWE'S COMPANIES INC #2451","6584 Highway 431 S","Owens Cross Roads","AL","35763-9216","US","<MISSING>","256-533-8631","<MISSING>","<MISSING>","<MISSING>","<MISSING>","https://shawfloors.com/stores/dealerprofile/18697/lowes-companies-inc-2451"
"https://shawfloors.com","LOWE'S COMPANIES, INC.","1836 US Highway 78 E","Oxford","AL","36203-2018","US","<MISSING>","256-835-8266","<MISSING>","<MISSING>","<MISSING>","<MISSING>","https://shawfloors.com/stores/dealerprofile/9921/lowes-companies-inc"
"https://shawfloors.com","OXFORD CARPET SALES","5120 US Highway 78 W","Oxford","AL","36203-6103","US","<MISSING>","256-835-2155","<MISSING>","<MISSING>","<MISSING>","<MISSING>","https://shawfloors.com/stores/dealerprofile/41974/oxford-carpet-sales"
"https://shawfloors.com","THE HOME DEPOT","350 Crystal Waterway Dr","Oxford","AL","36203-3445","US","<MISSING>","256-832-2279","<MISSING>","<MISSING>","<MISSING>","<MISSING>","https://shawfloors.com/stores/dealerprofile/42364/the-home-depot"
"https://shawfloors.com","ISSIS & SONS INC","2858 Pelham Pkwy","Pelham","AL","35124-1707","US","<MISSING>","205-663-2310","<MISSING>","<MISSING>","<MISSING>","Mon. 9 - 7   Tues. 9 - 6   Wed. 9 - 7   Thur. 9 - 6   Fri. 9 - 7   Sat. 9 - 6   Sun. - Closed","https://shawfloors.com/stores/dealerprofile/801/issis-and-sons-inc"
"https://shawfloors.com","PROSOURCE OF BIRMINGHAM","197 Chandalar Place Drive","Pelham","AL","35124","US","<MISSING>","205-624-4764","<MISSING>","<MISSING>","<MISSING>","M-F 8am to 5pm, Sat 10am to 1pm","https://shawfloors.com/stores/dealerprofile/48274/prosource-of-birmingham"
"https://shawfloors.com","RIVERCHASE FLOORING CENTER, INC.","2130 Pelham Pkwy","Pelham","AL","35124-1117","US","<MISSING>","205-985-9555","<MISSING>","<MISSING>","<MISSING>","Monday - Friday 8:00 - 6:00   Saturday 10:00 - 4:00   Sunday - Closed","https://shawfloors.com/stores/dealerprofile/24368/riverchase-flooring-center-inc"
"https://shawfloors.com","THE HOME DEPOT","3191 Pelham Pkwy","Pelham","AL","35124-2024","US","<MISSING>","205-685-1837","<MISSING>","<MISSING>","<MISSING>","<MISSING>","https://shawfloors.com/stores/dealerprofile/3888/the-home-depot"
"https://shawfloors.com","THE HOME DEPOT","289 Vaughan Ln","Pell City","AL","35125-7804","US","<MISSING>","205-338-1070","<MISSING>","<MISSING>","<MISSING>","<MISSING>","https://shawfloors.com/stores/dealerprofile/42336/the-home-depot"
"https://shawfloors.com","WEBB FLOORING","204 Industrial Park Dr","Pell City","AL","35125-1513","US","<MISSING>","205-338-0999","<MISSING>","<MISSING>","<MISSING>","Monday - Friday 7:00 - 5:00   Saturday - By Appointment   Sunday - Closed","https://shawfloors.com/stores/dealerprofile/25428/webb-flooring"
"https://shawfloors.com","TOP OF THE HILL ENTERPRISES","US-84","Perdue Hill","AL","36470","US","<MISSING>","251-575-4533","<MISSING>","<MISSING>","<MISSING>","<MISSING>","https://shawfloors.com/stores/dealerprofile/4204/top-of-the-hill-enterprises"
"https://shawfloors.com","HUCKABY BROTHERS FLOOR COVERING, INC.","3755 US Highway 431 N","Phenix City","AL","36867-2303","US","<MISSING>","334-291-1457","<MISSING>","<MISSING>","<MISSING>","<MISSING>","https://shawfloors.com/stores/dealerprofile/43758/huckaby-brothers-floor-covering-inc"
"https://shawfloors.com","THE CARPET & DECORATING CENTER","2508 Crawford Rd","Phenix City","AL","36867-3630","US","<MISSING>","334-298-0026","<MISSING>","<MISSING>","<MISSING>","<MISSING>","https://shawfloors.com/stores/dealerprofile/41973/the-carpet-and-decorating-center"
"https://shawfloors.com","THE HOME DEPOT","3784 Hwy 280-431 North","Phenix City","AL","36867","US","<MISSING>","334-297-2045","<MISSING>","<MISSING>","<MISSING>","<MISSING>","https://shawfloors.com/stores/dealerprofile/41592/the-home-depot"
"https://shawfloors.com","STEVE'S CARPETS","5308 Old Springville Rd","Pinson","AL","35126-3676","US","<MISSING>","205-856-3626","<MISSING>","<MISSING>","<MISSING>","<MISSING>","https://shawfloors.com/stores/dealerprofile/4219/steves-carpets"
"https://shawfloors.com","CAROL'S CARPET","2227 Cobbs Ford Rd","Prattville","AL","36066-7703","US","<MISSING>","334-285-1932","<MISSING>","<MISSING>","<MISSING>","<MISSING>","https://shawfloors.com/stores/dealerprofile/24627/carols-carpet"
"https://shawfloors.com","LOWE'S COMPANIES, INC.","2304 Cobbs Ford Rd","Prattville","AL","36066","US","<MISSING>","334-285-2034","<MISSING>","<MISSING>","<MISSING>","<MISSING>","https://shawfloors.com/stores/dealerprofile/9925/lowes-companies-inc"
"https://shawfloors.com","THE HOME DEPOT","2710 Legends Pkwy","Prattville","AL","36066-7748","US","<MISSING>","334-285-1693","<MISSING>","<MISSING>","<MISSING>","<MISSING>","https://shawfloors.com/stores/dealerprofile/42331/the-home-depot"
"https://shawfloors.com","KNIGHT'S FLOORING","479 Sutton Bridge Rd","Rainbow City","AL","35906-3254","US","<MISSING>","256-413-7877","<MISSING>","<MISSING>","<MISSING>","<MISSING>","https://shawfloors.com/stores/dealerprofile/26459/knights-flooring"
"https://shawfloors.com","JA-SAN CARPET DISTRIBUTING CO","Highway 82","Reform","AL","35481","US","<MISSING>","205-375-6321","<MISSING>","<MISSING>","<MISSING>","<MISSING>","https://shawfloors.com/stores/dealerprofile/18165/ja-san-carpet-distributing-co"
"https://shawfloors.com","BROAD STREET CARPETS","902 S Broad St Ste B","Scottsboro","AL","35768-2556","US","<MISSING>","256-574-5400","<MISSING>","<MISSING>","<MISSING>","<MISSING>","https://shawfloors.com/stores/dealerprofile/16727/broad-street-carpets"
"https://shawfloors.com","CHRISMAN'S ECONOMY CARPET","26611 John T Reid Pkwy","Scottsboro","AL","35768-9302","US","<MISSING>","256-259-5574","<MISSING>","<MISSING>","<MISSING>","<MISSING>","https://shawfloors.com/stores/dealerprofile/35945/chrismans-economy-carpet"
"https://shawfloors.com","THE HOME DEPOT","24635 John T Reid Pkwy","Scottsboro","AL","35768-2333","US","<MISSING>","256-575-2100","<MISSING>","<MISSING>","<MISSING>","<MISSING>","https://shawfloors.com/stores/dealerprofile/42334/the-home-depot"
"https://shawfloors.com","CARPET PLUS","2807 Citizens Pkwy","Selma","AL","36701-3914","US","<MISSING>","334-874-3700","<MISSING>","<MISSING>","<MISSING>","<MISSING>","https://shawfloors.com/stores/dealerprofile/18644/carpet-plus"
"https://shawfloors.com","BALDWIN FLOORING & CONSTRUCTION, INC.","20801 CR-49","Silverhill","AL","36576","US","<MISSING>","334-945-5549","<MISSING>","<MISSING>","<MISSING>","<MISSING>","https://shawfloors.com/stores/dealerprofile/4211/baldwin-flooring-and-construction-inc"
"https://shawfloors.com","PERFORMANCE CARPET & TILE","218 N Norton Ave","Sylacauga","AL","35150-2456","US","<MISSING>","256-245-2540","<MISSING>","<MISSING>","<MISSING>","<MISSING>","https://shawfloors.com/stores/dealerprofile/4220/performance-carpet-and-tile"
"https://shawfloors.com","THE HOME DEPOT","41310 US Highway 280","Sylacauga","AL","35150-8045","US","<MISSING>","256-245-4953","<MISSING>","<MISSING>","<MISSING>","<MISSING>","https://shawfloors.com/stores/dealerprofile/42332/the-home-depot"
"https://shawfloors.com","DAVIS CARPET SERVICE","156 Shady Hollow Ln","Talladega","AL","35160-6910","US","<MISSING>","256-362-5636","<MISSING>","<MISSING>","<MISSING>","<MISSING>","https://shawfloors.com/stores/dealerprofile/4150/davis-carpet-service"
"https://shawfloors.com","MOBILE PAINT MANUFACTURING CO","4775 Hamilton Blvd","Theodore","AL","36582-8509","US","<MISSING>","251-443-6110","<MISSING>","<MISSING>","<MISSING>","<MISSING>","https://shawfloors.com/stores/dealerprofile/41011/mobile-paint-manufacturing-co"
"https://shawfloors.com","LOWE'S COMPANIES INC. #2212","1421 Highway 231 S","Troy","AL","36081-3015","US","<MISSING>","334-670-6336","<MISSING>","<MISSING>","<MISSING>","<MISSING>","https://shawfloors.com/stores/dealerprofile/13171/lowes-companies-inc-2212"
"https://shawfloors.com","THE HOME DEPOT","1600 Gadsden Hwy","Trussville","AL","35173","US","<MISSING>","205-661-9415","<MISSING>","<MISSING>","<MISSING>","<MISSING>","https://shawfloors.com/stores/dealerprofile/3898/the-home-depot"
"https://shawfloors.com","CRIMSON CARPET & FLOORING INC.","1703 Greensboro Ave","Tuscaloosa","AL","35401-4512","US","<MISSING>","205-345-4895","<MISSING>","<MISSING>","<MISSING>","<MISSING>","https://shawfloors.com/stores/dealerprofile/11821/crimson-carpet-and-flooring-inc"
"https://shawfloors.com","J & J WOOD FLOORING","2745 Southside Dr","Tuscaloosa","AL","35401-5612","US","<MISSING>","205-345-1144","<MISSING>","<MISSING>","<MISSING>","Monday - Thursday 8:00 - 4:00   Friday 8:00 - 3:30   Saturday - Sunday - Closed","https://shawfloors.com/stores/dealerprofile/28057/j-and-j-wood-flooring"
"https://shawfloors.com","LOWE'S COMPANIES, INC","4900 Oscar Baxter Dr","Tuscaloosa","AL","35405-3662","US","<MISSING>","205-759-4403","<MISSING>","<MISSING>","<MISSING>","<MISSING>","https://shawfloors.com/stores/dealerprofile/42905/lowes-companies-inc"
"https://shawfloors.com","NU-FLOORS, INC.","3621 Greensboro Ave","Tuscaloosa","AL","35401-7003","US","<MISSING>","205-343-2200","<MISSING>","<MISSING>","<MISSING>","<MISSING>","https://shawfloors.com/stores/dealerprofile/29544/nu-floors-inc"
"https://shawfloors.com","RUSSELL S. LEE FLOORING AMERICA","915 31st Ave","Tuscaloosa","AL","35401-2295","US","<MISSING>","205-737-0194","<MISSING>","<MISSING>","<MISSING>","Monday - Friday 8:00 - 5:00   Saturday - By Appointment   Sunday - Closed","https://shawfloors.com/stores/dealerprofile/17258/russell-s-lee-flooring-america"
"https://shawfloors.com","THE HOME DEPOT","1601 13th Ave E","Tuscaloosa","AL","35404-4783","US","<MISSING>","205-633-2038","<MISSING>","<MISSING>","<MISSING>","<MISSING>","https://shawfloors.com/stores/dealerprofile/3892/the-home-depot"
"https://shawfloors.com","WEST ALABAMA CARPET","1929 Queen City Ave","Tuscaloosa","AL","35401-4648","US","<MISSING>","205-345-5180","<MISSING>","<MISSING>","<MISSING>","<MISSING>","https://shawfloors.com/stores/dealerprofile/4156/west-alabama-carpet"
"https://shawfloors.com","MORGAN CITY WALLPAPER & CARPET","15816 US Highway 231","Union Grove","AL","35175-8173","US","<MISSING>","256-498-2728","<MISSING>","<MISSING>","<MISSING>","<MISSING>","https://shawfloors.com/stores/dealerprofile/533/morgan-city-wallpaper-and-carpet"
"https://shawfloors.com","ACTON FLOORING INC","3224 Cahaba Heights Rd","Vestavia","AL","35243-1614","US","<MISSING>","205-967-4001","<MISSING>","<MISSING>","<MISSING>","Monday - Friday 9:00 - 5:00   Saturday & Sunday - Closed","https://shawfloors.com/stores/dealerprofile/17829/acton-flooring-inc"
"https://shawfloors.com","DEVINES FLOORING AMERICA","1553 Montgomery Hwy","Vestavia Hills","AL","35216-4501","US","<MISSING>","205-623-4350","<MISSING>","<MISSING>","<MISSING>","Monday - Friday 10:00 - 6:00   Saturday 10:00 - 2:00   Sunday - Closed","https://shawfloors.com/stores/dealerprofile/31240/devines-flooring-america"
"https://shawfloors.com","NORTON'S FLOORING","14391 Highway 431","Wedowee","AL","36278-5381","US","<MISSING>","256-357-9233","<MISSING>","<MISSING>","<MISSING>","<MISSING>","https://shawfloors.com/stores/dealerprofile/495/nortons-flooring"
"https://shawfloors.com","CUSTOM HOME FLOORING","4043 US Highway 231","Wetumpka","AL","36093-1217","US","<MISSING>","334-567-6392","<MISSING>","<MISSING>","<MISSING>","<MISSING>","https://shawfloors.com/stores/dealerprofile/20075/custom-home-flooring"
"https://shawfloors.com","LOWE'S COMPANIES, INC","4501 US Highway 231","Wetumpka","AL","36092-3337","US","<MISSING>","334-731-9009","<MISSING>","<MISSING>","<MISSING>","<MISSING>","https://shawfloors.com/stores/dealerprofile/43382/lowes-companies-inc"
"https://shawfloors.com","STRICKLIN CARPETS","145 State Highway 253","Winfield","AL","35594-5364","US","<MISSING>","205-487-6484","<MISSING>","<MISSING>","<MISSING>","<MISSING>","https://shawfloors.com/stores/dealerprofile/4225/stricklin-carpets"
"https://shawfloors.com","HARDMAN LUMBER CO, INC.","3026 Pine St","Arkadelphia","AR","71923-5395","US","<MISSING>","870-246-5824","<MISSING>","<MISSING>","<MISSING>","<MISSING>","https://shawfloors.com/stores/dealerprofile/4243/hardman-lumber-co-inc"
"https://shawfloors.com","D & S CARPET","1380 S Constitution Ave","Ashdown","AR","71822-8652","US","<MISSING>","870-898-3459","<MISSING>","<MISSING>","<MISSING>","Monday - Friday 8:00 - 5:00   Saturday & Sunday - Closed","https://shawfloors.com/stores/dealerprofile/4239/d-and-s-carpet"
"https://shawfloors.com","KARPET KONER","490 S Central Ave","Batesville","AR","72501-6836","US","<MISSING>","870-291-5210","<MISSING>","<MISSING>","<MISSING>","<MISSING>","https://shawfloors.com/stores/dealerprofile/31517/karpet-koner"
"https://shawfloors.com","MILL DIRECT FLOORING OUTLET","1326 White Drive","Batesville","AR","72501","US","<MISSING>","870-291-5210","<MISSING>","<MISSING>","<MISSING>","8-5 Mon-Fri 8-3 Sat","https://shawfloors.com/stores/dealerprofile/41118/mill-direct-flooring-outlet"
"https://shawfloors.com","THE HOME DEPOT","3000 Harrison St","Batesville","AR","72501-7514","US","<MISSING>","870-307-0300","<MISSING>","<MISSING>","<MISSING>","<MISSING>","https://shawfloors.com/stores/dealerprofile/42820/the-home-depot"
"https://shawfloors.com","BEEBE PAINT & CARPET INC","310 W Dewitt Henry Dr","Beebe","AR","72012-2206","US","<MISSING>","<MISSING>","<MISSING>","<MISSING>","<MISSING>","<MISSING>","https://shawfloors.com/stores/dealerprofile/41416/beebe-paint-and-carpet-inc"
"https://shawfloors.com","CREATIVE CARPET COMANY INC","2619 Military Rd # A","Benton","AR","72015-2717","US","<MISSING>","501-315-5252","<MISSING>","<MISSING>","<MISSING>","<MISSING>","https://shawfloors.com/stores/dealerprofile/27803/creative-carpet-comany-inc"
"https://shawfloors.com","FLOORS & MORE INC","21286 I-30 Alcoa Rd","Benton","AR","72015","US","<MISSING>","501-316-0267","<MISSING>","<MISSING>","<MISSING>","<MISSING>","https://shawfloors.com/stores/dealerprofile/24288/floors-and-more-inc"
"https://shawfloors.com","R N L MULLINS","19231 Interstate 30 S","Benton","AR","72015-2096","US","<MISSING>","501-776-1720","<MISSING>","<MISSING>","<MISSING>","<MISSING>","https://shawfloors.com/stores/dealerprofile/4246/r-n-l-mullins"
"https://shawfloors.com","RIDOUT LUMBER CO. OF BENTON","21176 Interstate 30 N","Benton","AR","72022-8033","US","<MISSING>","501-794-0514","<MISSING>","<MISSING>","<MISSING>","<MISSING>","https://shawfloors.com/stores/dealerprofile/43321/ridout-lumber-co-of-benton"
"https://shawfloors.com","SUTHERLANDS","1209 Military Rd","Benton","AR","72015-2908","US","<MISSING>","501-778-8713","<MISSING>","<MISSING>","<MISSING>","<MISSING>","https://shawfloors.com/stores/dealerprofile/43906/sutherlands"
"https://shawfloors.com","THE HOME DEPOT","17060 Interstate 30 N","Benton","AR","72019-2935","US","<MISSING>","501-860-6288","<MISSING>","<MISSING>","<MISSING>","<MISSING>","https://shawfloors.com/stores/dealerprofile/2707/the-home-depot"
"https://shawfloors.com","WHITLEY FLOOR COVERING","608 Lilian Street","Benton","AR","72015","US","<MISSING>","501-315-3626","<MISSING>","<MISSING>","<MISSING>","<MISSING>","https://shawfloors.com/stores/dealerprofile/27827/whitley-floor-covering"
"https://shawfloors.com","ABBEY CARPET AND FLOOR","2812 S Walton Blvd","Bentonville","AR","72712-6728","US","<MISSING>","479-464-4411","<MISSING>","<MISSING>","<MISSING>","<MISSING>","https://shawfloors.com/stores/dealerprofile/40044/abbey-carpet-and-floor"
"https://shawfloors.com","LOWE'S COMPANIES INC. #2230","1100 NW Lowes Ave","Bentonville","AR","72712-8093","US","<MISSING>","479-657-7500","<MISSING>","<MISSING>","<MISSING>","<MISSING>","https://shawfloors.com/stores/dealerprofile/15299/lowes-companies-inc-2230"
"https://shawfloors.com","MEEK'S - THE BUILDER'S CHOICE","908 W Trimble Ave","Berryville","AR","72616-4601","US","<MISSING>","870-423-6671","<MISSING>","<MISSING>","<MISSING>","<MISSING>","https://shawfloors.com/stores/dealerprofile/23689/meeks---the-builders-choice"
"https://shawfloors.com","FLOORING AMERICA BY CARPET SMART","1017 Athens Ave","Bethel Heights","AR","72764-8067","US","<MISSING>","877-653-5576","<MISSING>","<MISSING>","<MISSING>","Monday - Friday 9:00 - 5:00   Saturday 10:00 - 2:00   Sunday - Closed","https://shawfloors.com/stores/dealerprofile/27125/flooring-america-by-carpet-smart"
"https://shawfloors.com","MCGARRAH CARPETS","3480 N Thompson St Ste 1","Bethel Heights","AR","72764-8220","US","<MISSING>","479-750-4248","<MISSING>","<MISSING>","<MISSING>","<MISSING>","https://shawfloors.com/stores/dealerprofile/4300/mcgarrah-carpets"
"https://shawfloors.com","KENNY'S CARPET CENTER","639 W Moultrie Dr","Blytheville","AR","72315-1936","US","<MISSING>","870-838-9010","<MISSING>","<MISSING>","<MISSING>","<MISSING>","https://shawfloors.com/stores/dealerprofile/4259/kennys-carpet-center"
"https://shawfloors.com","LOWE'S COMPANIES, INC","3790 E Main St","Blytheville","AR","72315-6881","US","<MISSING>","870-776-6000","<MISSING>","<MISSING>","<MISSING>","<MISSING>","https://shawfloors.com/stores/dealerprofile/43232/lowes-companies-inc"
"https://shawfloors.com","AKELS CARPET ONE FLOOR & HOME","3210 Market Place Ave","Bryant","AR","72022","US","<MISSING>","501-313-3408","<MISSING>","<MISSING>","<MISSING>","<MISSING>","https://shawfloors.com/stores/dealerprofile/43324/akels-carpet-one-floor-and-home"
"https://shawfloors.com","LOWE'S COMPANIES INC #2471","2330 N Reynolds Rd","Bryant","AR","72022-2536","US","<MISSING>","501-213-2000","<MISSING>","<MISSING>","<MISSING>","<MISSING>","https://shawfloors.com/stores/dealerprofile/17181/lowes-companies-inc-2471"
"https://shawfloors.com","RIDOUT LUMBER CO. OF CABOT","1435 W Main St","Cabot","AR","72023-2487","US","<MISSING>","501-843-6522","<MISSING>","<MISSING>","<MISSING>","<MISSING>","https://shawfloors.com/stores/dealerprofile/43322/ridout-lumber-co-of-cabot"
"https://shawfloors.com","THE HOME DEPOT","555 Going Dr","Cabot","AR","72023-2954","US","<MISSING>","501-941-4350","<MISSING>","<MISSING>","<MISSING>","<MISSING>","https://shawfloors.com/stores/dealerprofile/42704/the-home-depot"
"https://shawfloors.com","FLOORING AMERICA BY CARPET SMART","254 Greenhouse Avenue","Centerton","AR","72719","US","<MISSING>","888-665-0051","<MISSING>","<MISSING>","<MISSING>","Monday - Friday 9:00 - 5:00   Saturday 10:00 - 2:00   Sunday - Closed","https://shawfloors.com/stores/dealerprofile/31648/flooring-america-by-carpet-smart"
"https://shawfloors.com","AKELS CARPET ONE FLOOR & HOME","1008 E Oak St Ste 3","Conway","AR","72032-4726","US","<MISSING>","501-764-4870","<MISSING>","<MISSING>","<MISSING>","<MISSING>","https://shawfloors.com/stores/dealerprofile/17800/akels-carpet-one-floor-and-home"
"https://shawfloors.com","CARPET CENTER INC","810 3rd St","Conway","AR","72032-5667","US","<MISSING>","501-327-0924","<MISSING>","<MISSING>","<MISSING>","Monday - Friday 8:30 - 5:30   Saturday - By Appointment   Sunday - Closed","https://shawfloors.com/stores/dealerprofile/24424/carpet-center-inc"
"https://shawfloors.com","LOWE'S COMPANIES, INC.","1325 Old Morrilton Hwy","Conway","AR","72032-2778","US","<MISSING>","501-513-3300","<MISSING>","<MISSING>","<MISSING>","<MISSING>","https://shawfloors.com/stores/dealerprofile/9938/lowes-companies-inc"
"https://shawfloors.com","RIDOUT LUMBER CO OF CONWAY","1215 E Oak St","Conway","AR","72032-5942","US","<MISSING>","501-329-3868","<MISSING>","<MISSING>","<MISSING>","<MISSING>","https://shawfloors.com/stores/dealerprofile/4248/ridout-lumber-co-of-conway"
"https://shawfloors.com","THE HOME DEPOT","500 Elsinger Blvd","Conway","AR","72032-4721","US","<MISSING>","501-329-6763","<MISSING>","<MISSING>","<MISSING>","<MISSING>","https://shawfloors.com/stores/dealerprofile/42703/the-home-depot"
"https://shawfloors.com","FINISHING TOUCH CARPET ONE","503 W 1st Ave","Crossett","AR","71635-2701","US","<MISSING>","870-364-2500","<MISSING>","<MISSING>","<MISSING>","<MISSING>","https://shawfloors.com/stores/dealerprofile/18440/finishing-touch-carpet-one"
"https://shawfloors.com","EL DORADO CUSTOM CARPET","1603 E Main St","El Dorado","AR","71730-6421","US","<MISSING>","870-862-4945","<MISSING>","<MISSING>","<MISSING>","<MISSING>","https://shawfloors.com/stores/dealerprofile/4282/el-dorado-custom-carpet"
"https://shawfloors.com","KEN'S DISCOUNT BUILDING MATERIALS INC.","1200 N West Ave","El Dorado","AR","71730-3852","US","<MISSING>","870-862-4917","<MISSING>","<MISSING>","<MISSING>","<MISSING>","https://shawfloors.com/stores/dealerprofile/4283/kens-discount-building-materials-inc"
"https://shawfloors.com","STOREY'S FLOOR & CARPET INC.","2004 Lorene St","El Dorado","AR","71730-8131","US","<MISSING>","870-862-9446","<MISSING>","<MISSING>","<MISSING>","Monday - Friday 7:00 - 5:00   Saturday & Sunday - Closed","https://shawfloors.com/stores/dealerprofile/18394/storeys-floor-and-carpet-inc"
"https://shawfloors.com","THE HOME DEPOT","507 W 19th St","El Dorado","AR","71730-2923","US","<MISSING>","870-875-1427","<MISSING>","<MISSING>","<MISSING>","<MISSING>","https://shawfloors.com/stores/dealerprofile/42711/the-home-depot"
"https://shawfloors.com","FREEMAN SERVICES INC","5792 River Run","Fayetteville","AR","72704","US","<MISSING>","479-521-1944","<MISSING>","<MISSING>","<MISSING>","<MISSING>","https://shawfloors.com/stores/dealerprofile/41373/freeman-services-inc"
"https://shawfloors.com","FREEMAN SERVICES INC","2115 Main Dr Ste A","Fayetteville","AR","72704-5283","US","<MISSING>","479-521-1944","<MISSING>","<MISSING>","<MISSING>","<MISSING>","https://shawfloors.com/stores/dealerprofile/27194/freeman-services-inc"
"https://shawfloors.com","KING'S FLOOR COVERING INC","622 W Sycamore St Ste 1A","Fayetteville","AR","72703-5900","US","<MISSING>","479-442-9277","<MISSING>","<MISSING>","<MISSING>","<MISSING>","https://shawfloors.com/stores/dealerprofile/4299/kings-floor-covering-inc"
"https://shawfloors.com","LOWE'S COMPANIES, INC.","1050 E Zion Rd","Fayetteville","AR","72703-5035","US","<MISSING>","479-587-9000","<MISSING>","<MISSING>","<MISSING>","<MISSING>","https://shawfloors.com/stores/dealerprofile/9935/lowes-companies-inc"
"https://shawfloors.com","LOWE'S COMPANIES, INC. #1806","3231 W Martin Luther King Blvd","Fayetteville","AR","72704-7686","US","<MISSING>","479-387-3007","<MISSING>","<MISSING>","<MISSING>","<MISSING>","https://shawfloors.com/stores/dealerprofile/11099/lowes-companies-inc-1806"
"https://shawfloors.com","MEEK'S - THE BUILDER'S CHOICE","2401 N Gregg Ave","Fayetteville","AR","72703-2841","US","<MISSING>","479-442-2351","<MISSING>","<MISSING>","<MISSING>","<MISSING>","https://shawfloors.com/stores/dealerprofile/23688/meeks---the-builders-choice"
"https://shawfloors.com","OZARK FLOOR CO, INC.","928 N College Ave","Fayetteville","AR","72701-2009","US","<MISSING>","479-442-4451","<MISSING>","<MISSING>","<MISSING>","<MISSING>","https://shawfloors.com/stores/dealerprofile/4298/ozark-floor-co-inc"
"https://shawfloors.com","RIDOUT LUMBER CO. OF FAYETTEVILLE","2195 N Gregg Ave","Fayetteville","AR","72703-2432","US","<MISSING>","479-587-8900","<MISSING>","<MISSING>","<MISSING>","<MISSING>","https://shawfloors.com/stores/dealerprofile/43328/ridout-lumber-co-of-fayetteville"
"https://shawfloors.com","THE HOME DEPOT","675 E Joyce Blvd","Fayetteville","AR","72703-6189","US","<MISSING>","479-571-4700","<MISSING>","<MISSING>","<MISSING>","<MISSING>","https://shawfloors.com/stores/dealerprofile/2705/the-home-depot"
"https://shawfloors.com","TOM JANUARY FLOORS, INC.","188 E Township St Ste 1","Fayetteville","AR","72703-2854","US","<MISSING>","479-521-2422","<MISSING>","<MISSING>","<MISSING>","Monday - Friday 8:00 - 5:00   Saturday 9:00 - 2:00   Sunday - Closed","https://shawfloors.com/stores/dealerprofile/1397/tom-january-floors-inc"
"https://shawfloors.com","NATIONAL FABRIC CENTERS, INC.","310 S Washington St","Forrest City","AR","72335-3813","US","<MISSING>","870-633-4430","<MISSING>","<MISSING>","<MISSING>","<MISSING>","https://shawfloors.com/stores/dealerprofile/4260/national-fabric-centers-inc"
"https://shawfloors.com","A & J WHOLESALE CARPET","1003 N Pocola Boulevard","Fort Smith","AR","72917","US","<MISSING>","501-785-2335","<MISSING>","<MISSING>","<MISSING>","<MISSING>","https://shawfloors.com/stores/dealerprofile/4279/a-and-j-wholesale-carpet"
"https://shawfloors.com","ALFORDS HOUSE OF CARPETS, INC.","1020 Lexington Ave","Fort Smith","AR","72901-4985","US","<MISSING>","479-782-8616","<MISSING>","<MISSING>","<MISSING>","<MISSING>","https://shawfloors.com/stores/dealerprofile/347/alfords-house-of-carpets-inc"
"https://shawfloors.com","BEST FLOORS INC","9822 Highway 71 S","Fort Smith","AR","72916-9118","US","<MISSING>","479-646-1333","<MISSING>","<MISSING>","<MISSING>","Monday - Friday 9:00 - 5:00   Saturday & Sunday - Closed","https://shawfloors.com/stores/dealerprofile/27163/best-floors-inc"
"https://shawfloors.com","BETTER HOMES SUPPLY","1101 Zero St","Fort Smith","AR","72901-8851","US","<MISSING>","479-648-9707","<MISSING>","<MISSING>","<MISSING>","<MISSING>","https://shawfloors.com/stores/dealerprofile/19947/better-homes-supply"
"https://shawfloors.com","CARPET CABIN INC.","6100 Hwy 71 South","Fort Smith","AR","72908","US","<MISSING>","479-646-6600","<MISSING>","<MISSING>","<MISSING>","Monday - Friday 8:00 - 5:30   Saturday 9:00 - 1:00   Sunday - Closed","https://shawfloors.com/stores/dealerprofile/637/carpet-cabin-inc"
"https://shawfloors.com","DEANS DISCOUNT CARPET INC.","4200 Kelley Hwy","Fort Smith","AR","72904-5098","US","<MISSING>","501-785-4161","<MISSING>","<MISSING>","<MISSING>","<MISSING>","https://shawfloors.com/stores/dealerprofile/2169/deans-discount-carpet-inc"
"https://shawfloors.com","LOWE'S COMPANIES, INC.","8001 Rogers Ave","Fort Smith","AR","72903-5549","US","<MISSING>","501-452-6000","<MISSING>","<MISSING>","<MISSING>","<MISSING>","https://shawfloors.com/stores/dealerprofile/9936/lowes-companies-inc"
"https://shawfloors.com","SUTHERLANDS","1801 S Zero St","Fort Smith","AR","72901-8413","US","<MISSING>","479-646-7858","<MISSING>","<MISSING>","<MISSING>","<MISSING>","https://shawfloors.com/stores/dealerprofile/43923/sutherlands"
"https://shawfloors.com","THE HOME DEPOT","5101 Old Phoenix Ave","Fort Smith","AR","72903-6014","US","<MISSING>","501-649-5888","<MISSING>","<MISSING>","<MISSING>","<MISSING>","https://shawfloors.com/stores/dealerprofile/2706/the-home-depot"
"https://shawfloors.com","CLARK'S BUILDING MATERIALS","419 Westinghouse Dr","Fountain Lake","AR","71901-8657","US","<MISSING>","501-262-2262","<MISSING>","<MISSING>","<MISSING>","<MISSING>","https://shawfloors.com/stores/dealerprofile/31019/clarks-building-materials"
"https://shawfloors.com","MEEK'S - THE BUILDER'S CHOICE","902 Highway 62 65 N","Harrison","AR","72601-2148","US","<MISSING>","870-741-2333","<MISSING>","<MISSING>","<MISSING>","<MISSING>","https://shawfloors.com/stores/dealerprofile/23687/meeks---the-builders-choice"
"https://shawfloors.com","THE HOME DEPOT","312 Hester Dr","Harrison","AR","72601-1818","US","<MISSING>","870-741-2900","<MISSING>","<MISSING>","<MISSING>","<MISSING>","https://shawfloors.com/stores/dealerprofile/42707/the-home-depot"
"https://shawfloors.com","CREATIVE CARPETS & INTERIORS","1509 Highway 25B","Heber Springs","AR","72543-1701","US","<MISSING>","501-362-8924","<MISSING>","<MISSING>","<MISSING>","<MISSING>","https://shawfloors.com/stores/dealerprofile/4296/creative-carpets-and-interiors"
"https://shawfloors.com","HOT SPRINGS HARDWOOD & SUPPLY","803 Mid America Blvd","Hot Springs","AR","71913-8410","US","<MISSING>","501-768-9663","<MISSING>","<MISSING>","<MISSING>","<MISSING>","https://shawfloors.com/stores/dealerprofile/41047/hot-springs-hardwood-and-supply"
"https://shawfloors.com","LOWE'S COMPANIES, INC.","300 Cornerstone Blvd","Hot Springs","AR","71913-6565","US","<MISSING>","501-525-2233","<MISSING>","<MISSING>","<MISSING>","<MISSING>","https://shawfloors.com/stores/dealerprofile/9939/lowes-companies-inc"
"https://shawfloors.com","PETER'S FLOORING","1217 Malvern Ave Ste F","Hot Springs","AR","71901-6375","US","<MISSING>","501-623-1800","<MISSING>","<MISSING>","<MISSING>","Monday - Friday 8:00 - 5:00   Saturday 8:00 - 12:00   Sunday - Closed","https://shawfloors.com/stores/dealerprofile/11908/peters-flooring"
"https://shawfloors.com","RAILROAD SALVAGE INC","3029 Albert Pike Rd","Hot Springs","AR","71913-2615","US","<MISSING>","501-767-1600","<MISSING>","<MISSING>","<MISSING>","<MISSING>","https://shawfloors.com/stores/dealerprofile/27227/railroad-salvage-inc"
"https://shawfloors.com","SUTHERLANDS","1831 Albert Pike Rd","Hot Springs","AR","71913-4014","US","<MISSING>","501-321-4354","<MISSING>","<MISSING>","<MISSING>","<MISSING>","https://shawfloors.com/stores/dealerprofile/43929/sutherlands"
"https://shawfloors.com","LOWE'S COMPANIES, INC. #1766","2301 T P White Dr","Jacksonville","AR","72076-2882","US","<MISSING>","501-241-1500","<MISSING>","<MISSING>","<MISSING>","<MISSING>","https://shawfloors.com/stores/dealerprofile/10791/lowes-companies-inc-1766"
"https://shawfloors.com","ABBEY CARPET OF JONESBORO","1530 Browns Ln Access Rd","Jonesboro","AR","72401-5989","US","<MISSING>","870-932-5297","<MISSING>","<MISSING>","<MISSING>","Monday - Friday 8:00 - 6:00   Saturday 9:00 - 3:00   Sunday - Closed","https://shawfloors.com/stores/dealerprofile/23726/abbey-carpet-of-jonesboro"
"https://shawfloors.com","BARTON'S OF JONESBORO","3023 Browns Ln","Jonesboro","AR","72401-7225","US","<MISSING>","870-932-6675","<MISSING>","<MISSING>","<MISSING>","Monday - Friday 7:00 - 5:00   Saturday 8:00 - Noon   Sunday - Closed","https://shawfloors.com/stores/dealerprofile/4264/bartons-of-jonesboro"
"https://shawfloors.com","BARTON, E C & COMPANY","2929 Browns Ln","Jonesboro","AR","72401-7208","US","<MISSING>","870-932-6673","<MISSING>","<MISSING>","<MISSING>","Monday - Friday 7:00 - 5:00   Saturday 8:00 - Noon   Sunday - Closed","https://shawfloors.com/stores/dealerprofile/39429/barton-e-c-and-company"
"https://shawfloors.com","CARPET BARGAINS","3512 E Highland Dr","Jonesboro","AR","72401-6514","US","<MISSING>","870-931-4133","<MISSING>","<MISSING>","<MISSING>","<MISSING>","https://shawfloors.com/stores/dealerprofile/1542/carpet-bargains"
"https://shawfloors.com","LOWE'S COMPANIES, INC.","2111 Fair Park Blvd","Jonesboro","AR","72401-6230","US","<MISSING>","870-930-9000","<MISSING>","<MISSING>","<MISSING>","<MISSING>","https://shawfloors.com/stores/dealerprofile/9934/lowes-companies-inc"
"https://shawfloors.com","MARK ARNOLD'S MIDWEST RUG","3212 E Nettleton Ave Ste G","Jonesboro","AR","72401-5451","US","<MISSING>","870-932-1133","<MISSING>","<MISSING>","<MISSING>","<MISSING>","https://shawfloors.com/stores/dealerprofile/30428/mark-arnolds-midwest-rug"
"https://shawfloors.com","RIDOUT LUMBER CO. OF JONESBORO","2608 Stadium Blvd","Jonesboro","AR","72401-7422","US","<MISSING>","870-935-8900","<MISSING>","<MISSING>","<MISSING>","<MISSING>","https://shawfloors.com/stores/dealerprofile/11403/ridout-lumber-co-of-jonesboro"
"https://shawfloors.com","THE HOME DEPOT","711 E Parker Rd","Jonesboro","AR","72404-8302","US","<MISSING>","870-268-0619","<MISSING>","<MISSING>","<MISSING>","<MISSING>","https://shawfloors.com/stores/dealerprofile/42726/the-home-depot"
"https://shawfloors.com","WHOLESALE CARPETS","3505 E Nettleton Ave","Jonesboro","AR","72401-5525","US","<MISSING>","870-972-5100","<MISSING>","<MISSING>","<MISSING>","<MISSING>","https://shawfloors.com/stores/dealerprofile/11402/wholesale-carpets"
"https://shawfloors.com","DOUBLE S CARPET & SUPPLY LLC","102 Highway 36 E","Kensett","AR","72082","US","<MISSING>","501-742-3543","<MISSING>","<MISSING>","<MISSING>","<MISSING>","https://shawfloors.com/stores/dealerprofile/11817/double-s-carpet-and-supply-llc"
"https://shawfloors.com","AKELS CARPET ONE FLOOR & HOME","11121 N Rodney Parham Rd Ste 6A","Little Rock","AR","72212-4158","US","<MISSING>","501-945-6489","<MISSING>","<MISSING>","<MISSING>","<MISSING>","https://shawfloors.com/stores/dealerprofile/38288/akels-carpet-one-floor-and-home"
"https://shawfloors.com","ARNOLD'S FLOORING AMERICA","13102 Interstate 30","Little Rock","AR","72210-7018","US","<MISSING>","501-407-0249","<MISSING>","<MISSING>","<MISSING>","<MISSING>","https://shawfloors.com/stores/dealerprofile/17376/arnolds-flooring-america"
"https://shawfloors.com","ARNOLD'S FLOORING AMERICA","7619 Cantrell Rd Ste A","Little Rock","AR","72227-3317","US","<MISSING>","501-225-3840","<MISSING>","<MISSING>","<MISSING>","<MISSING>","https://shawfloors.com/stores/dealerprofile/17377/arnolds-flooring-america"
"https://shawfloors.com","CARPET MILLS OF AMERICA","12800 Chenal Pkwy Ste 3","Little Rock","AR","72211-3306","US","<MISSING>","501-223-6055","<MISSING>","<MISSING>","<MISSING>","<MISSING>","https://shawfloors.com/stores/dealerprofile/19120/carpet-mills-of-america"
"https://shawfloors.com","LLOYD'S CARPET WORLD INC","4910 W 65th St","Little Rock","AR","72209-3839","US","<MISSING>","501-568-9700","<MISSING>","<MISSING>","<MISSING>","<MISSING>","https://shawfloors.com/stores/dealerprofile/27808/lloyds-carpet-world-inc"
"https://shawfloors.com","RON PACK CARPET CENTER","9524 Interstate 30","Little Rock","AR","72209-3712","US","<MISSING>","501-565-4447","<MISSING>","<MISSING>","<MISSING>","<MISSING>","https://shawfloors.com/stores/dealerprofile/42157/ron-pack-carpet-center"
"https://shawfloors.com","THE HOME DEPOT","11 Mabelvale Plaza Dr","Little Rock","AR","72209-5937","US","<MISSING>","501-565-7168","<MISSING>","<MISSING>","<MISSING>","<MISSING>","https://shawfloors.com/stores/dealerprofile/42705/the-home-depot"
"https://shawfloors.com","THE HOME DEPOT","12610 Chenal Pkwy","Little Rock","AR","72211-3362","US","<MISSING>","501-219-9600","<MISSING>","<MISSING>","<MISSING>","<MISSING>","https://shawfloors.com/stores/dealerprofile/2703/the-home-depot"
"https://shawfloors.com","MAGNOLIA CARPET ONE","503 W Main St","Magnolia","AR","71753-3407","US","<MISSING>","870-234-2413","<MISSING>","<MISSING>","<MISSING>","<MISSING>","https://shawfloors.com/stores/dealerprofile/17932/magnolia-carpet-one"
"https://shawfloors.com","MITCHELLS, DALE, INC.","1104 N Jackson","Magnolia","AR","71753-2450","US","<MISSING>","870-234-5972","<MISSING>","<MISSING>","<MISSING>","<MISSING>","https://shawfloors.com/stores/dealerprofile/4284/mitchells-dale-inc"
"https://shawfloors.com","BENNETTS FLOORING","202 S Main St","Malvern","AR","72104-3735","US","<MISSING>","501-337-7371","<MISSING>","<MISSING>","<MISSING>","<MISSING>","https://shawfloors.com/stores/dealerprofile/4278/bennetts-flooring"
"https://shawfloors.com","LUMBER ONE HOME CENTER","682 Highway 365","Mayflower","AR","72106-9630","US","<MISSING>","501-473-1122","<MISSING>","<MISSING>","<MISSING>","<MISSING>","https://shawfloors.com/stores/dealerprofile/18327/lumber-one-home-center"
"https://shawfloors.com","MIKE'S HOME SPECIALTIES, INC.","702 Mena St","Mena","AR","71953-3342","US","<MISSING>","479-394-6661","<MISSING>","<MISSING>","<MISSING>","<MISSING>","https://shawfloors.com/stores/dealerprofile/4244/mikes-home-specialties-inc"
"https://shawfloors.com","DOWLESS CARPET EMPORIUM","208 W Drew Ave","Monette","AR","72447","US","<MISSING>","870-486-2861","<MISSING>","<MISSING>","<MISSING>","<MISSING>","https://shawfloors.com/stores/dealerprofile/998/dowless-carpet-emporium"
"https://shawfloors.com","CARPET FACTORY","1013 N Cardinal Dr","Mountain Home","AR","72653-3258","US","<MISSING>","870-425-4966","<MISSING>","<MISSING>","<MISSING>","<MISSING>","https://shawfloors.com/stores/dealerprofile/4270/carpet-factory"
"https://shawfloors.com","LOWE'S COMPANIES INC. #2236","124 Charles Blackburn Dr","Mountain Home","AR","72653-9167","US","<MISSING>","870-492-1000","<MISSING>","<MISSING>","<MISSING>","<MISSING>","https://shawfloors.com/stores/dealerprofile/16744/lowes-companies-inc-2236"
"https://shawfloors.com","MEEK'S - THE BUILDER'S CHOICE","2736 Highway 62 W","Mountain Home","AR","72653-7662","US","<MISSING>","870-425-6936","<MISSING>","<MISSING>","<MISSING>","<MISSING>","https://shawfloors.com/stores/dealerprofile/23699/meeks---the-builders-choice"
"https://shawfloors.com","THE HOME DEPOT","100 Pendella Dr","Mountain Home","AR","72653-9082","US","<MISSING>","870-492-2270","<MISSING>","<MISSING>","<MISSING>","<MISSING>","https://shawfloors.com/stores/dealerprofile/42708/the-home-depot"
"https://shawfloors.com","VILLAGE CARPET SHOP, INC.","617 Highway 5 N","Mountain Home","AR","72653-3011","US","<MISSING>","870-425-6919","<MISSING>","<MISSING>","<MISSING>","Monday - Friday 8:00 - 5:00   Saturday 9:00 - 12:00   Sunday - Closed","https://shawfloors.com/stores/dealerprofile/728/village-carpet-shop-inc"
"https://shawfloors.com","AKEL'S CARPET ONE DESIGN CTR","10 Maumelle Curve Ct","North Little Rock","AR","72113-6698","US","<MISSING>","501-753-6616","<MISSING>","<MISSING>","<MISSING>","<MISSING>","https://shawfloors.com/stores/dealerprofile/43094/akels-carpet-one-design-ctr"
"https://shawfloors.com","AKELS CARPET ONE FLOOR & HOME","5500 Landers Rd","North Little Rock","AR","72117-1936","US","<MISSING>","501-955-1000","<MISSING>","<MISSING>","<MISSING>","<MISSING>","https://shawfloors.com/stores/dealerprofile/27129/akels-carpet-one-floor-and-home"
"https://shawfloors.com","CARPET BARN INC","9313 Maumelle Blvd","North Little Rock","AR","72113-6609","US","<MISSING>","501-771-2122","<MISSING>","<MISSING>","<MISSING>","<MISSING>","https://shawfloors.com/stores/dealerprofile/31281/carpet-barn-inc"
"https://shawfloors.com","CARPET MILLS OF AMERICA","4120 E McCain Blvd Ste 112","North Little Rock","AR","72117-2533","US","<MISSING>","501-945-6565","<MISSING>","<MISSING>","<MISSING>","<MISSING>","https://shawfloors.com/stores/dealerprofile/19121/carpet-mills-of-america"
"https://shawfloors.com","GOLD MEDAL FLOORING","9205 Maumelle Blvd","North Little Rock","AR","72113-6678","US","<MISSING>","501-681-1076","<MISSING>","<MISSING>","<MISSING>","M-F 9:00A.M-6:00P.M. Saturday: 10:00 A.M.-2:00P.M.","https://shawfloors.com/stores/dealerprofile/40899/gold-medal-flooring"
"https://shawfloors.com","LOWE'S COMPANIES, INC.","4330 E McCain Blvd","North Little Rock","AR","72117-2517","US","<MISSING>","501-955-2219","<MISSING>","<MISSING>","<MISSING>","<MISSING>","https://shawfloors.com/stores/dealerprofile/9941/lowes-companies-inc"
"https://shawfloors.com","PROSOURCE OF LITTLE ROCK","7201 Innerplan Dr","North Little Rock","AR","72113","US","<MISSING>","501-229-5560","<MISSING>","<MISSING>","<MISSING>","Mon. 8 - 5   Tues. 8 - 7   Wed. 8 - 5   Thur. 8 - 7   Fri. 8 - 5   Sat. & Sun. - Closed","https://shawfloors.com/stores/dealerprofile/38919/prosource-of-little-rock"
"https://shawfloors.com","RON PACK CARPET CENTER","1505 Highway 161","North Little Rock","AR","72117-4008","US","<MISSING>","501-945-0205","<MISSING>","<MISSING>","<MISSING>","<MISSING>","https://shawfloors.com/stores/dealerprofile/42156/ron-pack-carpet-center"
"https://shawfloors.com","THE HOME DEPOT","4325 E McCain Blvd","North Little Rock","AR","72117-2518","US","<MISSING>","501-945-3500","<MISSING>","<MISSING>","<MISSING>","<MISSING>","https://shawfloors.com/stores/dealerprofile/2704/the-home-depot"
"https://shawfloors.com","KENNEMORE HOME IMPROVEMENT","1346 W Keiser Ave","Osceola","AR","72370-2919","US","<MISSING>","870-563-3999","<MISSING>","<MISSING>","<MISSING>","<MISSING>","https://shawfloors.com/stores/dealerprofile/4261/kennemore-home-improvement"
"https://shawfloors.com","BARTON'S OF PARAGOULD","Highway 49 B North","Paragould","AR","72450","US","<MISSING>","870-239-8566","<MISSING>","<MISSING>","<MISSING>","<MISSING>","https://shawfloors.com/stores/dealerprofile/4267/bartons-of-paragould"
"https://shawfloors.com","LOWE'S COMPANIES, INC","212 N 23rd St","Paragould","AR","72450-3988","US","<MISSING>","870-586-2000","<MISSING>","<MISSING>","<MISSING>","<MISSING>","https://shawfloors.com/stores/dealerprofile/43361/lowes-companies-inc"
"https://shawfloors.com","WAREHOUSE FLOORING","1709 N Campground Rd","Paragould","AR","72450-6800","US","<MISSING>","870-236-1754","<MISSING>","<MISSING>","<MISSING>","<MISSING>","https://shawfloors.com/stores/dealerprofile/1694/warehouse-flooring"
"https://shawfloors.com","WEBB FLOORS","225 Lee Town Rd","Pea Ridge","AR","72751-3203","US","<MISSING>","479-531-0508","<MISSING>","<MISSING>","<MISSING>","Monday - Friday 9am - 5pm","https://shawfloors.com/stores/dealerprofile/47873/webb-floors"
"https://shawfloors.com","BRYAN PAINT & CARPET","3103 S Olive St","Pine Bluff","AR","71603-6048","US","<MISSING>","870-534-2458","<MISSING>","<MISSING>","<MISSING>","<MISSING>","https://shawfloors.com/stores/dealerprofile/4237/bryan-paint-and-carpet"
"https://shawfloors.com","LOWE'S COMPANIES, INC.","2906A E Harding Ave","Pine Bluff","AR","71601-6853","US","<MISSING>","870-850-7702","<MISSING>","<MISSING>","<MISSING>","<MISSING>","https://shawfloors.com/stores/dealerprofile/9933/lowes-companies-inc"
"https://shawfloors.com","THE CARPET BARN","2707 S Main St","Pine Bluff","AR","71601-7099","US","<MISSING>","870-536-2123","<MISSING>","<MISSING>","<MISSING>","<MISSING>","https://shawfloors.com/stores/dealerprofile/38261/the-carpet-barn"
"https://shawfloors.com","1ST CHOICE FLOORING","1514 W Hudson Rd Ste 4","Rogers","AR","72756-2318","US","<MISSING>","479-439-0323","<MISSING>","<MISSING>","<MISSING>","<MISSING>","https://shawfloors.com/stores/dealerprofile/49359/1st-choice-flooring"
"https://shawfloors.com","LOWE'S COMPANIES, INC.","300 N 46th St","Rogers","AR","72756-1807","US","<MISSING>","479-936-9700","<MISSING>","<MISSING>","<MISSING>","<MISSING>","https://shawfloors.com/stores/dealerprofile/9940/lowes-companies-inc"
"https://shawfloors.com","MEEK'S - THE BUILDER'S CHOICE","630 W New Hope Rd","Rogers","AR","72758-5939","US","<MISSING>","479-636-2511","<MISSING>","<MISSING>","<MISSING>","<MISSING>","https://shawfloors.com/stores/dealerprofile/23698/meeks---the-builders-choice"
"https://shawfloors.com","RIDOUT LUMBER CO. OF ROGERS","3401 W Hudson Rd","Rogers","AR","72756-1995","US","<MISSING>","479-621-8900","<MISSING>","<MISSING>","<MISSING>","<MISSING>","https://shawfloors.com/stores/dealerprofile/43327/ridout-lumber-co-of-rogers"
"https://shawfloors.com","THE HOME DEPOT","1701 S 46th St","Rogers","AR","72758-8077","US","<MISSING>","479-619-2730","<MISSING>","<MISSING>","<MISSING>","<MISSING>","https://shawfloors.com/stores/dealerprofile/42710/the-home-depot"
"https://shawfloors.com","GEORGIA CARPET MILLS LLC","501 Sr 247","Russellville","AR","72802-8407","US","<MISSING>","479-968-2441","<MISSING>","<MISSING>","<MISSING>","Monday - Friday 8:00 - 5:00   Saturday 8:00 - 3:00   Sunday - Closed","https://shawfloors.com/stores/dealerprofile/24336/georgia-carpet-mills-llc"
"https://shawfloors.com","LOWE'S COMPANIES, INC.","3011 E Parkway Dr","Russellville","AR","72802-2004","US","<MISSING>","479-890-3018","<MISSING>","<MISSING>","<MISSING>","<MISSING>","https://shawfloors.com/stores/dealerprofile/9937/lowes-companies-inc"
"https://shawfloors.com","RACE CARPET & VINYL","600 E 3rd St PO Box 1374","Russellville","AR","72801-5206","US","<MISSING>","479-968-6174","<MISSING>","<MISSING>","<MISSING>","Mon. 8 - 5   Tues. 8 - 5   Wed. 8 - 4   Thur. 8 - 5   Fri. 8 - 4   Sat. & Sun. - Closed","https://shawfloors.com/stores/dealerprofile/37752/race-carpet-and-vinyl"
"https://shawfloors.com","RIDOUT LUMBER CO. OF RUSSELLVILLE","1717 E Main St","Russellville","AR","72801-5330","US","<MISSING>","479-968-8900","<MISSING>","<MISSING>","<MISSING>","<MISSING>","https://shawfloors.com/stores/dealerprofile/43320/ridout-lumber-co-of-russellville"
"https://shawfloors.com","SIMS FLOORING","2011 E Parkway Dr","Russellville","AR","72802-2310","US","<MISSING>","479-967-1782","<MISSING>","<MISSING>","<MISSING>","<MISSING>","https://shawfloors.com/stores/dealerprofile/15551/sims-flooring"
"https://shawfloors.com","LOWE'S COMPANIES, INC. #1775","3701 E Race Ave","Searcy","AR","72143-6206","US","<MISSING>","970-225-2323","<MISSING>","<MISSING>","<MISSING>","<MISSING>","https://shawfloors.com/stores/dealerprofile/10797/lowes-companies-inc-1775"
"https://shawfloors.com","RIDOUT LUMBER CO. OF SEARCY","3300 E Race Ave","Searcy","AR","72143-4890","US","<MISSING>","501-268-7119","<MISSING>","<MISSING>","<MISSING>","<MISSING>","https://shawfloors.com/stores/dealerprofile/43323/ridout-lumber-co-of-searcy"
"https://shawfloors.com","C & P CARPETS & ENTERPRISES INC","8111 Highway 107","Sherwood","AR","72120-3867","US","<MISSING>","501-835-0492","<MISSING>","<MISSING>","<MISSING>","<MISSING>","https://shawfloors.com/stores/dealerprofile/22711/c-and-p-carpets-and-enterprises-inc"
"https://shawfloors.com","LOWE'S COMPANIES INC #2491","3499 Highway 412 E","Siloam Springs","AR","72761-8616","US","<MISSING>","479-549-9923","<MISSING>","<MISSING>","<MISSING>","<MISSING>","https://shawfloors.com/stores/dealerprofile/19038/lowes-companies-inc-2491"
"https://shawfloors.com","CARPET REMNANT OUTLET INC","802 Sanders Ave","Springdale","AR","72764-1293","US","<MISSING>","479-725-2400","<MISSING>","<MISSING>","<MISSING>","<MISSING>","https://shawfloors.com/stores/dealerprofile/18000/carpet-remnant-outlet-inc"
"https://shawfloors.com","ENCORE FLOORING & BUILDING","3905 S Thompson St","Springdale","AR","72764-7056","US","<MISSING>","479-361-8900","<MISSING>","<MISSING>","<MISSING>","Monday - Friday 8:00 - 5:00   Saturday 8:00 - 12:00   Sunday - Closed","https://shawfloors.com/stores/dealerprofile/39327/encore-flooring-and-building"
"https://shawfloors.com","FLOORING AMERICA BY CARPET SMART","5320 W Sunset Ave","Springdale","AR","72762-4424","US","<MISSING>","479-751-1120","<MISSING>","<MISSING>","<MISSING>","Monday - Friday 9 to 5 Saturdays 10 to 2","https://shawfloors.com/stores/dealerprofile/30060/flooring-america-by-carpet-smart"
"https://shawfloors.com","LOWE'S COMPANIES, INC. #1826","4233 W Sunset Ave","Springdale","AR","72762-4805","US","<MISSING>","479-717-4000","<MISSING>","<MISSING>","<MISSING>","<MISSING>","https://shawfloors.com/stores/dealerprofile/11543/lowes-companies-inc-1826"
"https://shawfloors.com","MEEK'S - THE BUILDER'S CHOICE","4446 W Sunset Ave","Springdale","AR","72762-4810","US","<MISSING>","479-756-2550","<MISSING>","<MISSING>","<MISSING>","<MISSING>","https://shawfloors.com/stores/dealerprofile/23700/meeks---the-builders-choice"
"https://shawfloors.com","RB'S FLOORING & CARE","5320 W Sunset Ave Ste 141","Springdale","AR","72762-4444","US","<MISSING>","479-751-4455","<MISSING>","<MISSING>","<MISSING>","<MISSING>","https://shawfloors.com/stores/dealerprofile/42850/rbs-flooring-and-care"
"https://shawfloors.com","SMITH TILE COMPANY","13457 Puppy Creek Rd Ste A","Springdale","AR","72762-9684","US","<MISSING>","479-751-7144","<MISSING>","<MISSING>","<MISSING>","<MISSING>","https://shawfloors.com/stores/dealerprofile/43695/smith-tile-company"
"https://shawfloors.com","STOCK BUILDING SUPPLY","1106 N Old Missouri Rd","Springdale","AR","72764-2626","US","<MISSING>","479-756-6145","<MISSING>","<MISSING>","<MISSING>","<MISSING>","https://shawfloors.com/stores/dealerprofile/43763/stock-building-supply"
"https://shawfloors.com","LUMBER ONE HOME CENTER","301 E Michigan St","Stuttgart","AR","72160-3257","US","<MISSING>","870-673-3601","<MISSING>","<MISSING>","<MISSING>","Monday - Friday 7:30 - 5:30   Saturday 7:30 - 4:00   Sunday - Closed","https://shawfloors.com/stores/dealerprofile/27797/lumber-one-home-center"
"https://shawfloors.com","CARPET SHOPPE INC, THE","1600 N State Line Ave","Texarkana","AR","71854-4269","US","<MISSING>","870-774-1010","<MISSING>","<MISSING>","<MISSING>","Monday - Friday 9:00 - 5:00   Saturday 10:00 - 1:00   Sunday - Closed","https://shawfloors.com/stores/dealerprofile/1864/carpet-shoppe-inc-the"
"https://shawfloors.com","CUSTOM CARPETS","Hwy 71 S","Texarkana","AR","71854","US","<MISSING>","870-653-4458","<MISSING>","<MISSING>","<MISSING>","<MISSING>","https://shawfloors.com/stores/dealerprofile/4281/custom-carpets"
"https://shawfloors.com","D & D FLOOR COVERING","1323 Main St","Van Buren","AR","72956-4556","US","<MISSING>","479-474-0533","<MISSING>","<MISSING>","<MISSING>","Monday - Friday 8:00 - 5:00   Saturday & Sunday - By Appointment","https://shawfloors.com/stores/dealerprofile/1777/d-and-d-floor-covering"
"https://shawfloors.com","LOWE'S COMPANIES INC. #2598","2120 Fayetteville Rd","Van Buren","AR","72956-6582","US","<MISSING>","479-494-4470","<MISSING>","<MISSING>","<MISSING>","<MISSING>","https://shawfloors.com/stores/dealerprofile/13184/lowes-companies-inc-2598"
"https://shawfloors.com","BARTON, E C & CO","607 Highway 67 N","Walnut Ridge","AR","72476-1326","US","<MISSING>","870-886-3587","<MISSING>","<MISSING>","<MISSING>","<MISSING>","https://shawfloors.com/stores/dealerprofile/11406/barton-e-c-and-co"
"https://shawfloors.com","CARPET WORLD, INC.","100 W Walnut St","Walnut Ridge","AR","72476-1992","US","<MISSING>","870-886-7015","<MISSING>","<MISSING>","<MISSING>","<MISSING>","https://shawfloors.com/stores/dealerprofile/4295/carpet-world-inc"
"https://shawfloors.com","E.C. BARTON & COMPANY","215 W Broadway St","West Memphis","AR","72301-3903","US","<MISSING>","870-735-5100","<MISSING>","<MISSING>","<MISSING>","<MISSING>","https://shawfloors.com/stores/dealerprofile/4293/ec-barton-and-company"
"https://shawfloors.com","QUALITY FLOORING","1 McCain Blvd","West Memphis","AR","72301-2617","US","<MISSING>","870-733-0743","<MISSING>","<MISSING>","<MISSING>","<MISSING>","https://shawfloors.com/stores/dealerprofile/41042/quality-flooring"
"https://shawfloors.com","PENNINGTONS FLOOR STORE","7211 Sheridan Rd","White Hall","AR","71602-3214","US","<MISSING>","870-247-3767","<MISSING>","<MISSING>","<MISSING>","<MISSING>","https://shawfloors.com/stores/dealerprofile/42138/penningtons-floor-store"
"https://shawfloors.com","CALDWELL LUMBER CO","1956 Falls Blvd N","Wynne","AR","72396-4027","US","<MISSING>","870-238-7558","<MISSING>","<MISSING>","<MISSING>","<MISSING>","https://shawfloors.com/stores/dealerprofile/11405/caldwell-lumber-co"
"https://shawfloors.com","CREATIVE HOME ENHANCEMENTS","42323 N Vision Way Ste 123","Anthem","AZ","85086-1490","US","<MISSING>","623-551-5409","<MISSING>","<MISSING>","<MISSING>","Monday - Friday 10:00 - 5:00   Saturday - By Appointment   Sunday - Closed","https://shawfloors.com/stores/dealerprofile/43710/creative-home-enhancements"
"https://shawfloors.com","CARPET & TILE JUNCTION","60 N Signal Butte Rd","Apache Junction","AZ","85120-4209","US","<MISSING>","480-380-9388","<MISSING>","<MISSING>","<MISSING>","Monday - Friday 8:00 - 4:00   Saturday 8:30 - 12:00   Sunday - Closed","https://shawfloors.com/stores/dealerprofile/36031/carpet-and-tile-junction"
"https://shawfloors.com","RED MOUNTAIN CARPET","10104 E Apache Trl","Apache Junction","AZ","85120-3206","US","<MISSING>","480-380-3211","<MISSING>","<MISSING>","<MISSING>","Monday - Friday 8:00 - 4:00   Saturday 8:00 - 12:00   Sunday - Closed","https://shawfloors.com/stores/dealerprofile/16816/red-mountain-carpet-"
"https://shawfloors.com","VALLEY INTERIORS","15861 S Sunland Gin Rd","Arizona City","AZ","85223","US","<MISSING>","520-466-5641","<MISSING>","<MISSING>","<MISSING>","<MISSING>","https://shawfloors.com/stores/dealerprofile/4402/valley-interiors"
"https://shawfloors.com","COSTCO IN-HOME DESIGN SERVICE","10000 W McDowell Rd","Avondale","AZ","85392-4803","US","<MISSING>","1-888-992-2773","<MISSING>","<MISSING>","<MISSING>","<MISSING>","https://shawfloors.com/stores/dealerprofile/23418/costco-in-home-design-service"
"https://shawfloors.com","MINSHALL'S UPTIGHT FLOORING","1551 N Dysart Rd","Avondale","AZ","85392-1230","US","<MISSING>","623-932-2345","<MISSING>","<MISSING>","<MISSING>","Monday - Friday 9:00 - 5:00   Saturday 10:00 - 4:00","https://shawfloors.com/stores/dealerprofile/30064/minshalls-uptight-flooring"
"https://shawfloors.com","THE HOME DEPOT","1489 N Dysart Rd","Avondale","AZ","85323-1515","US","<MISSING>","623-925-2896","<MISSING>","<MISSING>","<MISSING>","<MISSING>","https://shawfloors.com/stores/dealerprofile/3396/the-home-depot"
"https://shawfloors.com","LOWE'S COMPANIES INC #2295","[4101-4399] S Watson Rd","Buckeye","AZ","85326","US","<MISSING>","623-474-5015","<MISSING>","<MISSING>","<MISSING>","<MISSING>","https://shawfloors.com/stores/dealerprofile/19854/lowes-companies-inc-2295"
"https://shawfloors.com","LOWE'S COMPANIES INC #2202","1680 Highway 95","Bullhead City","AZ","86442-7906","US","<MISSING>","928-704-5760","<MISSING>","<MISSING>","<MISSING>","<MISSING>","https://shawfloors.com/stores/dealerprofile/18650/lowes-companies-inc-2202"
"https://shawfloors.com","RIVIERA FLOOR COVERING, INC.","2283 Kaibab Dr","Bullhead City","AZ","86442-7431","US","<MISSING>","928-763-5656","<MISSING>","<MISSING>","<MISSING>","<MISSING>","https://shawfloors.com/stores/dealerprofile/4419/riviera-floor-covering-inc"
"https://shawfloors.com","THE HOME DEPOT","660 Highway 95","Bullhead City","AZ","86429-5006","US","<MISSING>","928-754-5600","<MISSING>","<MISSING>","<MISSING>","<MISSING>","https://shawfloors.com/stores/dealerprofile/42457/the-home-depot"
"https://shawfloors.com","LOWE'S COMPANIES, INC","34700 N Cave Creek Rd","Carefree","AZ","85377","US","<MISSING>","480-437-3540","<MISSING>","<MISSING>","<MISSING>","<MISSING>","https://shawfloors.com/stores/dealerprofile/43269/lowes-companies-inc"
"https://shawfloors.com","LOWE'S COMPANIES INC #2272","1436 E Florence Blvd","Casa Grande","AZ","85122-5321","US","<MISSING>","520-836-4170","<MISSING>","<MISSING>","<MISSING>","<MISSING>","https://shawfloors.com/stores/dealerprofile/18709/lowes-companies-inc-2272"
"https://shawfloors.com","THE HOME DEPOT","1546 E Florence Blvd","Casa Grande","AZ","85122-4741","US","<MISSING>","520-836-1028","<MISSING>","<MISSING>","<MISSING>","<MISSING>","https://shawfloors.com/stores/dealerprofile/3331/the-home-depot"
"https://shawfloors.com","CAREFREE FLOORS INC","6718  E Cave Creek Rd","Cave Creek","AZ","85331-8646","US","<MISSING>","480-515-9999","<MISSING>","<MISSING>","<MISSING>","Monday - Friday 9:00 - 5:30   Saturday 9:00 - 2:00   Sunday - Closed","https://shawfloors.com/stores/dealerprofile/28235/carefree-floors-inc"
"https://shawfloors.com","THE HOME DEPOT","4925 E Carefree Hwy","Cave Creek","AZ","85331-9057","US","<MISSING>","480-488-0281","<MISSING>","<MISSING>","<MISSING>","<MISSING>","https://shawfloors.com/stores/dealerprofile/3494/the-home-depot"
"https://shawfloors.com","BAKER BROS.","4909 W Chandler Blvd","Chandler","AZ","85226-7922","US","<MISSING>","480-210-3752","<MISSING>","<MISSING>","<MISSING>","Monday - Thursday 9:00 - 6:00   Friday - Saturday 9:00 - 5:00   Sunday 12:00 - 5:00","https://shawfloors.com/stores/dealerprofile/49735/baker-bros"
"https://shawfloors.com","CARPETS OF ARIZONA","480 E Warner Rd Ste 4","Chandler","AZ","85225-1056","US","<MISSING>","480-558-9777","<MISSING>","<MISSING>","<MISSING>","Monday - Friday 9:00 - 6:00   Saturday 10:00 - 4:00   Sunday - Closed","https://shawfloors.com/stores/dealerprofile/44499/carpets-of-arizona"
"https://shawfloors.com","COSTCO IN-HOME DESIGN SERVICE","595 S Galleria Way","Chandler","AZ","85226-4932","US","<MISSING>","1-888-992-2773","<MISSING>","<MISSING>","<MISSING>","<MISSING>","https://shawfloors.com/stores/dealerprofile/23411/costco-in-home-design-service"
"https://shawfloors.com","EAST VALLEY FLOORS","509 E Chicago Cir Ste 2","Chandler","AZ","85225-5505","US","<MISSING>","480-926-3444","<MISSING>","<MISSING>","<MISSING>","<MISSING>","https://shawfloors.com/stores/dealerprofile/49263/east-valley-floors"
"https://shawfloors.com","FLOOR DEPOT INC","2950 N Dobson Rd Ste 15","Chandler","AZ","85224-1824","US","<MISSING>","480-656-0447","<MISSING>","<MISSING>","<MISSING>","Monday - Friday 10:00 - 5:00   Saturday 10:30 - 2:30   Sunday - Closed","https://shawfloors.com/stores/dealerprofile/28499/floor-depot-inc"
"https://shawfloors.com","FLOOREVER INTERIORS","2705 S Alma School Rd Ste 4","Chandler","AZ","85286-4400","US","<MISSING>","480-899-2640","<MISSING>","<MISSING>","<MISSING>","Monday - Thursday 9:00 - 6:00   Friday 10:00 - 5:00   Saturday 10:00 - 5:00   Sunday - Closed","https://shawfloors.com/stores/dealerprofile/39709/floorever-interiors"
"https://shawfloors.com","FLOORING AMERICA OF CHANDLER","6909 W Ray Rd Ste 5","Chandler","AZ","85226-1526","US","<MISSING>","480-447-1801","<MISSING>","<MISSING>","<MISSING>","Monday - Friday 8:00 - 6:00   Saturday 10:00 - 4:00   Sunday 11:00 - 4:00","https://shawfloors.com/stores/dealerprofile/18109/flooring-america-of-chandler"
"https://shawfloors.com","LOWE'S COMPANIES, INC.","2900 W Chandler Blvd","Chandler","AZ","85224-4904","US","<MISSING>","480-855-0012","<MISSING>","<MISSING>","<MISSING>","<MISSING>","https://shawfloors.com/stores/dealerprofile/9946/lowes-companies-inc"
"https://shawfloors.com","LOWE'S COMPANIES, INC.","7100 W Ray Rd","Chandler","AZ","85226-1511","US","<MISSING>","480-753-0103","<MISSING>","<MISSING>","<MISSING>","<MISSING>","https://shawfloors.com/stores/dealerprofile/9942/lowes-companies-inc"
"https://shawfloors.com","LOWE'S COMPANIES, INC. #2582","4300 S Arizona Ave","Chandler","AZ","85248-4594","US","<MISSING>","480-883-2200","<MISSING>","<MISSING>","<MISSING>","<MISSING>","https://shawfloors.com/stores/dealerprofile/14838/lowes-companies-inc-2582"
"https://shawfloors.com","THE HOME DEPOT","1155 W Chandler Blvd","Chandler","AZ","85225","US","<MISSING>","480-899-5013","<MISSING>","<MISSING>","<MISSING>","<MISSING>","https://shawfloors.com/stores/dealerprofile/3453/the-home-depot"
"https://shawfloors.com","THE HOME DEPOT","650 N 54th St Ste A","Chandler","AZ","85226-1500","US","<MISSING>","480-753-3320","<MISSING>","<MISSING>","<MISSING>","<MISSING>","https://shawfloors.com/stores/dealerprofile/3483/the-home-depot"
"https://shawfloors.com","THE HOME DEPOT","2530 E Germann Rd","Chandler","AZ","85286-1406","US","<MISSING>","480-786-5402","<MISSING>","<MISSING>","<MISSING>","<MISSING>","https://shawfloors.com/stores/dealerprofile/42463/the-home-depot"
"https://shawfloors.com","THE HOME DEPOT","4141 S Arizona Ave","Chandler","AZ","85248-4503","US","<MISSING>","480-802-7117","<MISSING>","<MISSING>","<MISSING>","<MISSING>","https://shawfloors.com/stores/dealerprofile/42455/the-home-depot"
"https://shawfloors.com","WESTERN STATES FLOORING INC","350 E Elliot Rd","Chandler","AZ","85225-1135","US","<MISSING>","480-892-8144","<MISSING>","<MISSING>","<MISSING>","Monday - Friday 9:00 - 6:00   Saturday - By Appointment   Sunday - Closed","https://shawfloors.com/stores/dealerprofile/13500/western-states-flooring-inc"
"https://shawfloors.com","MAIN PLACE FLOOR","134 S Main St","Cottonwood","AZ","86326-3909","US","<MISSING>","928-634-2655","<MISSING>","<MISSING>","<MISSING>","Monday - Friday 9:00 - 5:00   Saturday - By Appointment   Sunday - Closed","https://shawfloors.com/stores/dealerprofile/24451/main-place-floor"
"https://shawfloors.com","THE HOME DEPOT","1030 S State Route 260","Cottonwood","AZ","86326-5323","US","<MISSING>","928-649-3758","<MISSING>","<MISSING>","<MISSING>","<MISSING>","https://shawfloors.com/stores/dealerprofile/42546/the-home-depot"
"https://shawfloors.com","SOUTHWESTERN CARPETS & INTERIORS","3110 E 11th St","Douglas","AZ","85607-2614","US","<MISSING>","520-364-7604","<MISSING>","<MISSING>","<MISSING>","<MISSING>","https://shawfloors.com/stores/dealerprofile/4366/southwestern-carpets-and-interiors"
"https://shawfloors.com","CARPETS OF DALTON FLOORING AMERICA","2720 E Lakin Dr Ste 1","Flagstaff","AZ","86004-3912","US","<MISSING>","928-526-9100","<MISSING>","<MISSING>","<MISSING>","<MISSING>","https://shawfloors.com/stores/dealerprofile/18062/carpets-of-dalton-flooring-america"
"https://shawfloors.com","FLAGSTAFF WHOLESALE FLOORING LLC","2463 N Walgreens St Ste B","Flagstaff","AZ","86004-6124","US","<MISSING>","928-526-1341","<MISSING>","<MISSING>","<MISSING>","Monday - Friday 7:00 - 4:00   Saturday - By Appointment   Sunday - Closed","https://shawfloors.com/stores/dealerprofile/47561/flagstaff-wholesale-flooring-llc"
"https://shawfloors.com","FLOOR COVERINGS INTERNATIONAL","1 S Milton Rd","Flagstaff","AZ","86001-5514","US","<MISSING>","833-245-7203","<MISSING>","<MISSING>","<MISSING>","In-home appointments available 7 days a week at the customers convenience.","https://shawfloors.com/stores/dealerprofile/27879/floor-coverings-international"
"https://shawfloors.com","THE HOME DEPOT","1325 W Route 66","Flagstaff","AZ","86001-2410","US","<MISSING>","928-556-1529","<MISSING>","<MISSING>","<MISSING>","<MISSING>","https://shawfloors.com/stores/dealerprofile/3490/the-home-depot"
"https://shawfloors.com","THE HOME DEPOT","5005 E Marketplace Dr Ste 110","Flagstaff","AZ","86004-2864","US","<MISSING>","928-526-1692","<MISSING>","<MISSING>","<MISSING>","<MISSING>","https://shawfloors.com/stores/dealerprofile/42544/the-home-depot"
"https://shawfloors.com","CONTRACTOR'S FLOORING","13771 N Fountain Hills Blvd Suite 114 - 317","Fountain Hills","AZ","85268-3762","US","<MISSING>","480-837-3340","<MISSING>","<MISSING>","<MISSING>","<MISSING>","https://shawfloors.com/stores/dealerprofile/24569/contractors-flooring"
"https://shawfloors.com","FANTASIA INTERIORS","12605 N Saguaro Blvd Ste 2","Fountain Hills","AZ","85268-4163","US","<MISSING>","480-837-0650","<MISSING>","<MISSING>","<MISSING>","Monday - Friday 9:00 - 5:00   Saturday & Sunday - By Appointment","https://shawfloors.com/stores/dealerprofile/24547/fantasia-interiors"
"https://shawfloors.com","HUDS CUSTOM DESIGN FLOORS","16729 E Palisades Blvd Ste 100","Fountain Hills","AZ","85268-4187","US","<MISSING>","480-836-0663","<MISSING>","<MISSING>","<MISSING>","Monday - Friday 10:00 - 5:00   Saturday 10:00 - 3:00   Sunday - Closed","https://shawfloors.com/stores/dealerprofile/38638/huds-custom-design-floors"
"https://shawfloors.com","COSTCO IN-HOME DESIGN SERVICE","1415 N Arizona Ave","Gilbert","AZ","85233-1616","US","<MISSING>","1-888-992-2773","<MISSING>","<MISSING>","<MISSING>","<MISSING>","https://shawfloors.com/stores/dealerprofile/23412/costco-in-home-design-service"
"https://shawfloors.com","COSTCO IN-HOME DESIGN SERVICE","2887 S Market St","Gilbert","AZ","85295-1303","US","<MISSING>","1-888-992-2773","<MISSING>","<MISSING>","<MISSING>","<MISSING>","https://shawfloors.com/stores/dealerprofile/23416/costco-in-home-design-service"
"https://shawfloors.com","FLOOR COVERINGS INTERNATIONAL","1926 E Bay Tree Ct","Gilbert","AZ","85234-4938","US","<MISSING>","833-245-7203","<MISSING>","<MISSING>","<MISSING>","In-home appointments available 7 days a week at the customers convenience.","https://shawfloors.com/stores/dealerprofile/49672/floor-coverings-international"
"https://shawfloors.com","LOWE'S COMPANIES, INC","4730 S Higley Rd","Gilbert","AZ","85297-8509","US","<MISSING>","480-840-6280","<MISSING>","<MISSING>","<MISSING>","<MISSING>","https://shawfloors.com/stores/dealerprofile/43339/lowes-companies-inc"
"https://shawfloors.com","LOWE'S COMPANIES, INC.","734 S Gilbert Rd","Gilbert","AZ","85296-2834","US","<MISSING>","480-558-1007","<MISSING>","<MISSING>","<MISSING>","<MISSING>","https://shawfloors.com/stores/dealerprofile/9948/lowes-companies-inc"
"https://shawfloors.com","THE FLOOR STORE","725 E Baseline Rd","Gilbert","AZ","85233-1203","US","<MISSING>","480-833-4455","<MISSING>","<MISSING>","<MISSING>","<MISSING>","https://shawfloors.com/stores/dealerprofile/40340/the-floor-store"
"https://shawfloors.com","THE HOME DEPOT","745 S Val Vista Dr","Gilbert","AZ","85234","US","<MISSING>","480-497-1466","<MISSING>","<MISSING>","<MISSING>","<MISSING>","https://shawfloors.com/stores/dealerprofile/3463/the-home-depot"
"https://shawfloors.com","BAKER BROS.","6950 W Bell Rd Ste 102","Glendale","AZ","85308-8456","US","<MISSING>","602-457-7705","<MISSING>","<MISSING>","<MISSING>","Monday - Thursday 9:00 - 6:00   Friday - Saturday 9:00 - 5:00   Sunday 12:00 - 5:00","https://shawfloors.com/stores/dealerprofile/49732/baker-bros"
"https://shawfloors.com","CORNERSTONE FLOORING","10222 N 43rd Ave Ste 5","Glendale","AZ","85302-2000","US","<MISSING>","623-210-0803","<MISSING>","<MISSING>","<MISSING>","<MISSING>","https://shawfloors.com/stores/dealerprofile/49451/cornerstone-flooring"
"https://shawfloors.com","COSTCO IN-HOME DESIGN SERVICE","17550 N 79th Ave","Glendale","AZ","85308-8711","US","<MISSING>","1-888-992-2773","<MISSING>","<MISSING>","<MISSING>","<MISSING>","https://shawfloors.com/stores/dealerprofile/23417/costco-in-home-design-service"
"https://shawfloors.com","FLOOR & DECOR OUTLETS OF AMERICA","5880 W Bell Rd","Glendale","AZ","85308-3889","US","<MISSING>","602-441-0292","<MISSING>","<MISSING>","<MISSING>","<MISSING>","https://shawfloors.com/stores/dealerprofile/16717/floor-and-decor-outlets-of-america"
"https://shawfloors.com","LOWE'S COMPANIES INC. #1728","5809 W Northern Ave","Glendale","AZ","85301-1336","US","<MISSING>","623-463-6120","<MISSING>","<MISSING>","<MISSING>","<MISSING>","https://shawfloors.com/stores/dealerprofile/11728/lowes-companies-inc-1728"
"https://shawfloors.com","THE HOME DEPOT","6160 W Behrend Dr","Glendale","AZ","85308-6900","US","<MISSING>","623-376-0278","<MISSING>","<MISSING>","<MISSING>","<MISSING>","https://shawfloors.com/stores/dealerprofile/3482/the-home-depot"
"https://shawfloors.com","THE HOME DEPOT","6880 W Bell Rd","Glendale","AZ","85308-8403","US","<MISSING>","623-486-1550","<MISSING>","<MISSING>","<MISSING>","<MISSING>","https://shawfloors.com/stores/dealerprofile/3411/the-home-depot"
"https://shawfloors.com","THE HOME DEPOT","5902 W Peoria Ave","Glendale","AZ","85302-1205","US","<MISSING>","623-487-7357","<MISSING>","<MISSING>","<MISSING>","<MISSING>","https://shawfloors.com/stores/dealerprofile/3329/the-home-depot"
"https://shawfloors.com","KINO INTERIORS FLOORING AMERICA","401 N Broad St","Globe","AZ","85501-2546","US","<MISSING>","928-425-9443","<MISSING>","<MISSING>","<MISSING>","<MISSING>","https://shawfloors.com/stores/dealerprofile/29527/kino-interiors-flooring-america"
"https://shawfloors.com","FLOORS WEST","14190 W Van Buren St Ste A105","Goodyear","AZ","85338-1253","US","<MISSING>","623-932-3824","<MISSING>","<MISSING>","<MISSING>","Monday - Friday 9:00 - 5:00   Saturday 10:00 - 4:00   Sunday - Closed","https://shawfloors.com/stores/dealerprofile/23153/floors-west"
"https://shawfloors.com","LOWE'S COMPANIES, INC.","13191 W McDowell Rd","Goodyear","AZ","85395-2611","US","<MISSING>","623-935-9157","<MISSING>","<MISSING>","<MISSING>","<MISSING>","https://shawfloors.com/stores/dealerprofile/9952/lowes-companies-inc"
"https://shawfloors.com","CARPET ONE FLOOR & HOME","1060 W Beta St","Green Valley","AZ","85614-5089","US","<MISSING>","520-625-9477","<MISSING>","<MISSING>","<MISSING>","<MISSING>","https://shawfloors.com/stores/dealerprofile/23217/carpet-one-floor-and-home"
"https://shawfloors.com","2918 AZ-260","2918 AZ-260","Heber","AZ","85928","US","<MISSING>","928-535-3580","<MISSING>","<MISSING>","<MISSING>","Mon. - Closed   Tues. 9 - 4   Wed. 9 - 4   Thur. 9 - 4   Fri. 9 - 4   Sat. 10 - 4   Sun. - Closed","https://shawfloors.com/stores/dealerprofile/22826/2918-az-260"
"https://shawfloors.com","ALLEY CARPET & FLOORING","100 N Huachuca Blvd","Huachuca City","AZ","85616-9308","US","<MISSING>","520-456-2979","<MISSING>","<MISSING>","<MISSING>","Monday - Friday 10:00 - 3:00   Saturday & Sunday - Closed","https://shawfloors.com/stores/dealerprofile/4367/alley-carpet-and-flooring"
"https://shawfloors.com","KINGMAN CARPET CENTER","4125 N Bank St","Kingman","AZ","86409-2714","US","<MISSING>","928-757-7114","<MISSING>","<MISSING>","<MISSING>","<MISSING>","https://shawfloors.com/stores/dealerprofile/17749/kingman-carpet-center"
"https://shawfloors.com","RIVIERA WAREHOUSE INC","3983 Stockton Hill Rd","Kingman","AZ","86409-3001","US","<MISSING>","928-692-6100","<MISSING>","<MISSING>","<MISSING>","Monday - Friday 8:00 - 5:00   Saturday 9:00 - 3:00   Sunday - Closed","https://shawfloors.com/stores/dealerprofile/19248/riviera-warehouse-inc"
"https://shawfloors.com","THE HOME DEPOT","3860 Stockton Hill Rd","Kingman","AZ","86409-3058","US","<MISSING>","928-681-5600","<MISSING>","<MISSING>","<MISSING>","<MISSING>","https://shawfloors.com/stores/dealerprofile/42454/the-home-depot"
"https://shawfloors.com","CARY'S CARPET INC","62 Smoketree Ave S","Lake Havasu City","AZ","86403-6703","US","<MISSING>","928-855-0200","<MISSING>","<MISSING>","<MISSING>","Monday - Friday 9:00 - 5:00   Saturday & Sunday - Closed","https://shawfloors.com/stores/dealerprofile/39431/carys-carpet-inc"
"https://shawfloors.com","DESERT FLOORS","621 Lake Havasu Ave N Ste 102","Lake Havasu City","AZ","86403-7601","US","<MISSING>","928-855-8114","<MISSING>","<MISSING>","<MISSING>","Monday - Friday 8:00 - 5:00   Saturday 9:00 - 1:00   Sunday - Closed","https://shawfloors.com/stores/dealerprofile/17248/desert-floors"
"https://shawfloors.com","LOWE'S COMPANIES INC #2562","4000 Highway 95 N","Lake Havasu City","AZ","86404-9597","US","<MISSING>","928-764-2120","<MISSING>","<MISSING>","<MISSING>","<MISSING>","https://shawfloors.com/stores/dealerprofile/18715/lowes-companies-inc-2562"
"https://shawfloors.com","THE HOME DEPOT","100 Centre Blvd","Lake Havasu City","AZ","86404-8522","US","<MISSING>","928-764-5111","<MISSING>","<MISSING>","<MISSING>","<MISSING>","https://shawfloors.com/stores/dealerprofile/3327/the-home-depot"
"https://shawfloors.com","WAGON WHEEL FLOORING","5123 Highway 260","Lakeside","AZ","85929-5260","US","<MISSING>","928-537-3419","<MISSING>","<MISSING>","<MISSING>","Monday - Friday 8:30 - 5:00   Saturday & Sunday - Closed","https://shawfloors.com/stores/dealerprofile/4382/wagon-wheel-flooring"
"https://shawfloors.com","THE HOME DEPOT","5230 W Baseline Rd","Laveen","AZ","85339-2949","US","<MISSING>","602-605-8690","<MISSING>","<MISSING>","<MISSING>","<MISSING>","https://shawfloors.com/stores/dealerprofile/42458/the-home-depot"
"https://shawfloors.com","AMERICAN INTERIORS","1909 N Power Rd Ste 107","Mesa","AZ","85205-9510","US","<MISSING>","480-964-4000","<MISSING>","<MISSING>","<MISSING>","<MISSING>","https://shawfloors.com/stores/dealerprofile/49264/american-interiors"
"https://shawfloors.com","BAKER BROS.","1702 S Val Vista Dr","Mesa","AZ","85204-7304","US","<MISSING>","480-210-3697","<MISSING>","<MISSING>","<MISSING>","Monday - Thursday 9:00 - 6:00   Friday - Saturday 9:00 - 5:00   Sunday 12:00 - 5:00","https://shawfloors.com/stores/dealerprofile/49734/baker-bros"
"https://shawfloors.com","CASTLE FLOORS","4500 E Main St Ste 3","Mesa","AZ","85205-7914","US","<MISSING>","480-396-6956","<MISSING>","<MISSING>","<MISSING>","Monday - Friday 8:00 - 5:00   Saturday 10:00 - 4:00   Sunday - Closed","https://shawfloors.com/stores/dealerprofile/24563/castle-floors"
"https://shawfloors.com","COSTCO IN-HOME DESIGN SERVICE","1235 S Power Rd","Mesa","AZ","85206-3712","US","<MISSING>","1-888-992-2773","<MISSING>","<MISSING>","<MISSING>","<MISSING>","https://shawfloors.com/stores/dealerprofile/23410/costco-in-home-design-service"
"https://shawfloors.com","GRIZZLE'S FLOORING INC","6030 E Main St Ste 101","Mesa","AZ","85205-8961","US","<MISSING>","480-288-2771","<MISSING>","<MISSING>","<MISSING>","<MISSING>","https://shawfloors.com/stores/dealerprofile/4337/grizzles-flooring-inc"
"https://shawfloors.com","IMPERIAL WHOLESALE","9602 E Main St","Mesa","AZ","85207-8912","US","<MISSING>","480-986-6900","<MISSING>","<MISSING>","<MISSING>","Monday - Thursday 7:30 - 5:00   Friday 7:30 - 6:00   Saturday 9:00 - 4:00   Sunday - Closed","https://shawfloors.com/stores/dealerprofile/1370/imperial-wholesale"
"https://shawfloors.com","INDIGO CARPET & TILE","78 E University Dr","Mesa","AZ","85201-5940","US","<MISSING>","480-733-6313","<MISSING>","<MISSING>","<MISSING>","Monday - Friday 8:00 - 5:00   Saturday 8:00 - 12:00   Sunday 12:00 - 12:00","https://shawfloors.com/stores/dealerprofile/2073/indigo-carpet-and-tile"
"https://shawfloors.com","LOWE'S COMPANIES INC #2527","1229 S Ellsworth Rd","Mesa","AZ","85209-3803","US","<MISSING>","480-373-2440","<MISSING>","<MISSING>","<MISSING>","<MISSING>","https://shawfloors.com/stores/dealerprofile/19014/lowes-companies-inc-2527"
"https://shawfloors.com","LOWE'S COMPANIES, INC.","1440 S Higley Rd","Mesa","AZ","85206-3424","US","<MISSING>","480-832-1666","<MISSING>","<MISSING>","<MISSING>","<MISSING>","https://shawfloors.com/stores/dealerprofile/9944/lowes-companies-inc"
"https://shawfloors.com","MESA SALES & SUPPLY INC","2760 E Main St Ste 106","Mesa","AZ","85213-9275","US","<MISSING>","480-833-7025","<MISSING>","<MISSING>","<MISSING>","Monday - Friday 9:00 - 5:30   Saturday 9:00 - 1:00   Sunday - Closed","https://shawfloors.com/stores/dealerprofile/22584/mesa-sales-and-supply-inc"
"https://shawfloors.com","NOBLE FLOORS LLC","526 W Broadway Rd Ste 1","Mesa","AZ","85210-1289","US","<MISSING>","480-946-0218","<MISSING>","<MISSING>","<MISSING>","Monday  Friday 10:00  5:00   Saturday 8:00 - 2:00   Sunday - Closed","https://shawfloors.com/stores/dealerprofile/43485/noble-floors-llc"
"https://shawfloors.com","OCOTILLO FLOORING SERVICES","5135 E Ingram St Ste 1","Mesa","AZ","85205-3465","US","<MISSING>","480-568-6500","<MISSING>","<MISSING>","<MISSING>","Monday - Friday 10:00 - 3:00   Saturday & Sunday - Closed","https://shawfloors.com/stores/dealerprofile/47942/ocotillo-flooring-services"
"https://shawfloors.com","OLSON CARPET AND FLOORING","9124 E Main St Ste 7","Mesa","AZ","85207-8735","US","<MISSING>","480-984-0445","<MISSING>","<MISSING>","<MISSING>","Monday To Friday 10:00 am to 6:00 pm Sat 10:00 am to 3: pm Sunday closed visit us at the Mesa mark","https://shawfloors.com/stores/dealerprofile/30334/olson-carpet-and-flooring"
"https://shawfloors.com","SPECTRUM FLOORING, INC.","504 N Temple St","Mesa","AZ","85203-7243","US","<MISSING>","480-892-2404","<MISSING>","<MISSING>","<MISSING>","<MISSING>","https://shawfloors.com/stores/dealerprofile/4335/spectrum-flooring-inc"
"https://shawfloors.com","THE HOME DEPOT","1545 S Crismon Rd","Mesa","AZ","85209-3702","US","<MISSING>","480-380-1821","<MISSING>","<MISSING>","<MISSING>","<MISSING>","https://shawfloors.com/stores/dealerprofile/3328/the-home-depot"
"https://shawfloors.com","THE HOME DEPOT","6708 E McKellips Rd","Mesa","AZ","85215-2959","US","<MISSING>","480-830-2463","<MISSING>","<MISSING>","<MISSING>","<MISSING>","https://shawfloors.com/stores/dealerprofile/3330/the-home-depot"
"https://shawfloors.com","THE HOME DEPOT","1740 S Country Club Dr","Mesa","AZ","85210-6004","US","<MISSING>","480-644-9111","<MISSING>","<MISSING>","<MISSING>","<MISSING>","https://shawfloors.com/stores/dealerprofile/3452/the-home-depot"
"https://shawfloors.com","THE HOME DEPOT","6838 E Superstition Springs Blvd","Mesa","AZ","85209-4000","US","<MISSING>","480-981-6405","<MISSING>","<MISSING>","<MISSING>","<MISSING>","https://shawfloors.com/stores/dealerprofile/3408/the-home-depot"
"https://shawfloors.com","THE HOME DEPOT","425 S Val Vista Dr","Mesa","AZ","85204-3216","US","<MISSING>","480-396-0227","<MISSING>","<MISSING>","<MISSING>","<MISSING>","https://shawfloors.com/stores/dealerprofile/3481/the-home-depot"
"https://shawfloors.com","THE HOME DEPOT","853 N Dobson Rd","Mesa","AZ","85201-7585","US","<MISSING>","480-461-0251","<MISSING>","<MISSING>","<MISSING>","<MISSING>","https://shawfloors.com/stores/dealerprofile/42460/the-home-depot"
"https://shawfloors.com","YOUR FLOOR & DECOR","1824 W Baseline Rd","Mesa","AZ","85202-9005","US","<MISSING>","480-755-9538","<MISSING>","<MISSING>","<MISSING>","<MISSING>","https://shawfloors.com/stores/dealerprofile/37403/your-floor-and-decor"
"https://shawfloors.com","CASA BLANCA INTERIORS","358 N Morley Ave","Nogales","AZ","85621-2801","US","<MISSING>","520-287-9286","<MISSING>","<MISSING>","<MISSING>","<MISSING>","https://shawfloors.com/stores/dealerprofile/11987/casa-blanca-interiors"
"https://shawfloors.com","THE HOME DEPOT","430 W White Park Dr","Nogales","AZ","85621-1145","US","<MISSING>","520-375-6545","<MISSING>","<MISSING>","<MISSING>","<MISSING>","https://shawfloors.com/stores/dealerprofile/42462/the-home-depot"
"https://shawfloors.com","CARPET ONE FLOOR & HOME","11005 N Oracle Rd","Oro Valley","AZ","85737-5601","US","<MISSING>","520-382-0194","<MISSING>","<MISSING>","<MISSING>","<MISSING>","https://shawfloors.com/stores/dealerprofile/23216/carpet-one-floor-and-home"
"https://shawfloors.com","THE HOME DEPOT","10855 N Oracle Rd","Oro Valley","AZ","85737-9518","US","<MISSING>","520-877-3533","<MISSING>","<MISSING>","<MISSING>","<MISSING>","https://shawfloors.com/stores/dealerprofile/3489/the-home-depot"
"https://shawfloors.com","LAKE POWELL FURNITURE","467 Elm St","Page","AZ","86040","US","<MISSING>","928-645-3963","<MISSING>","<MISSING>","<MISSING>","Monday - Friday 9:00 - 6:00   Saturday 11:00 - 4:00   Sunday - Closed","https://shawfloors.com/stores/dealerprofile/23635/lake-powell-furniture"
"https://shawfloors.com","AMERICAN SALES","1400 N Beeline Hwy","Payson","AZ","85541-3103","US","<MISSING>","928-474-1766","<MISSING>","<MISSING>","<MISSING>","<MISSING>","https://shawfloors.com/stores/dealerprofile/50040/american-sales"
"https://shawfloors.com","THE HOME DEPOT","2000 N Beeline Hwy","Payson","AZ","85541-3356","US","<MISSING>","928-468-0339","<MISSING>","<MISSING>","<MISSING>","<MISSING>","https://shawfloors.com/stores/dealerprofile/42545/the-home-depot"
"https://shawfloors.com","LOWE'S COMPANIES, INC","25311 N Lake Pleasant Pkwy","Peoria","AZ","85383-1353","US","<MISSING>","623-537-2640","<MISSING>","<MISSING>","<MISSING>","<MISSING>","https://shawfloors.com/stores/dealerprofile/43346/lowes-companies-inc"
"https://shawfloors.com","LOWE'S COMPANIES, INC.","8497 W Thunderbird Rd","Peoria","AZ","85381-4821","US","<MISSING>","623-776-3382","<MISSING>","<MISSING>","<MISSING>","<MISSING>","https://shawfloors.com/stores/dealerprofile/9949/lowes-companies-inc"
"https://shawfloors.com","SPECIALIZED FLOORING","9163 W Union Hills Dr Ste 118","Peoria","AZ","85382-8188","US","<MISSING>","623-876-8775","<MISSING>","<MISSING>","<MISSING>","Monday - Friday 9:00 - 5:30   Saturday 9:00 - 1:00   Sunday - Closed","https://shawfloors.com/stores/dealerprofile/39780/specialized-flooring"
"https://shawfloors.com","THE HOME DEPOT","25650 N Lake Pleasant Pkwy","Peoria","AZ","85383-1244","US","<MISSING>","623-376-6735","<MISSING>","<MISSING>","<MISSING>","<MISSING>","https://shawfloors.com/stores/dealerprofile/42456/the-home-depot"
"https://shawfloors.com","THE HOME DEPOT","9201 W Peoria Ave","Peoria","AZ","85345-6311","US","<MISSING>","623-412-1750","<MISSING>","<MISSING>","<MISSING>","<MISSING>","https://shawfloors.com/stores/dealerprofile/3406/the-home-depot"
"https://shawfloors.com","A-1 PLANET RECYCLING & FLOORING SUPPLIES","1600 S Central Ave","Phoenix","AZ","85004-2821","US","<MISSING>","602-258-5600","<MISSING>","<MISSING>","<MISSING>","Monday - Friday 6:00 - 4:00   Saturday 6:00 - Noon   Sunday - Closed","https://shawfloors.com/stores/dealerprofile/27370/a-1-planet-recycling-and-flooring-supplies"
"https://shawfloors.com","AHWATUKEE CARPETS, INC.","15215 S 48th St Ste 185","Phoenix","AZ","85044-9140","US","<MISSING>","480-598-9811","<MISSING>","<MISSING>","<MISSING>","Monday - Thursday 10:00 - 6:00   Friday & Saturday 10:00 - 5:00   Sunday - By Appointment","https://shawfloors.com/stores/dealerprofile/10903/ahwatukee-carpets-inc"
"https://shawfloors.com","AMAZON.COM AZ DC","6835 W Buckeye Rd","Phoenix","AZ","85043-4428","US","<MISSING>","<MISSING>","<MISSING>","<MISSING>","<MISSING>","<MISSING>","https://shawfloors.com/stores/dealerprofile/39686/amazoncom-az-dc"
"https://shawfloors.com","ARIZONA FLOORS LLC","1801 E Indian School Rd","Phoenix","AZ","85016-5912","US","<MISSING>","602-230-1222","<MISSING>","<MISSING>","<MISSING>","Mon. - Thur. 8:00 - 6:00   Fri. 8:00 - 5:00   Sat. 10:00 - 3:00   Sun. - Appointment Only","https://shawfloors.com/stores/dealerprofile/18450/arizona-floors-llc"
"https://shawfloors.com","ASPIRE DESIGN CENTER","2043 W Lone Cactus Dr","Phoenix","AZ","85027-2627","US","<MISSING>","623-516-2700","<MISSING>","<MISSING>","<MISSING>","<MISSING>","https://shawfloors.com/stores/dealerprofile/37011/aspire-design-center"
"https://shawfloors.com","ASPIRE DESIGN CENTER","23910 N 19th Ave Ste 2","Phoenix","AZ","85085-1832","US","<MISSING>","623-516-2700","<MISSING>","<MISSING>","<MISSING>","<MISSING>","https://shawfloors.com/stores/dealerprofile/4319/aspire-design-center"
"https://shawfloors.com","BAKER BROS.","835 E Camelback Rd Ste 101","Phoenix","AZ","85014-3646","US","<MISSING>","602-777-3206","<MISSING>","<MISSING>","<MISSING>","Monday - Thursday 9:00 - 6:00   Friday - Saturday 9:00 - 5:00   Sunday 12:00 - 5:00","https://shawfloors.com/stores/dealerprofile/49736/baker-bros"
"https://shawfloors.com","BAKER BROS.","3719 E Bell Rd","Phoenix","AZ","85032-2123","US","<MISSING>","602-777-3386","<MISSING>","<MISSING>","<MISSING>","Monday - Thursday 9:00 - 6:00   Friday - Saturday 9:00 - 5:00   Sunday 12:00 - 5:00","https://shawfloors.com/stores/dealerprofile/49737/baker-bros"
"https://shawfloors.com","BROCK INTERIORS INC","3838 E Roeser Rd","Phoenix","AZ","85040-9010","US","<MISSING>","602-453-9660","<MISSING>","<MISSING>","<MISSING>","<MISSING>","https://shawfloors.com/stores/dealerprofile/19103/brock-interiors-inc"
"https://shawfloors.com","CARPET CLOSEOUTS","17442 N Cave Creek Rd","Phoenix","AZ","85032-1813","US","<MISSING>","602-493-7700","<MISSING>","<MISSING>","<MISSING>","Monday - Friday 9:00 - 6:00   Saturday 9:00 - 5:00   Sunday 12:00 - 4:00","https://shawfloors.com/stores/dealerprofile/38920/carpet-closeouts"
"https://shawfloors.com","CARPET DEPOT","2930 N 32nd St","Phoenix","AZ","85018-6851","US","<MISSING>","602-553-4040","<MISSING>","<MISSING>","<MISSING>","Monday - Friday 9:00 - 6:00   Saturday 9:00 - 5:00   Sunday - Closed","https://shawfloors.com/stores/dealerprofile/716/carpet-depot"
"https://shawfloors.com","CARPET DIRECT","641 E Watkins St","Phoenix","AZ","85004-2935","US","<MISSING>","602-692-0546","<MISSING>","<MISSING>","<MISSING>","<MISSING>","https://shawfloors.com/stores/dealerprofile/49830/carpet-direct"
"https://shawfloors.com","CARPET SHOPPE","3315 N 35th Ave","Phoenix","AZ","85017-5259","US","<MISSING>","602-269-0081","<MISSING>","<MISSING>","<MISSING>","<MISSING>","https://shawfloors.com/stores/dealerprofile/27427/carpet-shoppe"
"https://shawfloors.com","CARPETURN.COM","2110 S 7th Ave Ste 170","Phoenix","AZ","85007-4167","US","<MISSING>","602-254-4100","<MISSING>","<MISSING>","<MISSING>","<MISSING>","https://shawfloors.com/stores/dealerprofile/44813/carpeturncom"
"https://shawfloors.com","COSTCO IN-HOME DESIGN SERVICE","4502 E Oak St","Phoenix","AZ","85008-2411","US","<MISSING>","1-888-992-2773","<MISSING>","<MISSING>","<MISSING>","<MISSING>","https://shawfloors.com/stores/dealerprofile/23405/costco-in-home-design-service"
"https://shawfloors.com","COSTCO IN-HOME DESIGN SERVICE","1646 W Montebello Ave","Phoenix","AZ","85015-2557","US","<MISSING>","1-888-992-2773","<MISSING>","<MISSING>","<MISSING>","<MISSING>","https://shawfloors.com/stores/dealerprofile/23406/costco-in-home-design-service"
"https://shawfloors.com","COSTCO IN-HOME DESIGN SERVICE","3801 N 33rd Ave","Phoenix","AZ","85017-4508","US","<MISSING>","1-888-992-2773","<MISSING>","<MISSING>","<MISSING>","<MISSING>","https://shawfloors.com/stores/dealerprofile/23407/costco-in-home-design-service"
"https://shawfloors.com","COSTCO IN-HOME DESIGN SERVICE","19001 N 27th Ave","Phoenix","AZ","85027-5036","US","<MISSING>","1-888-992-2773","<MISSING>","<MISSING>","<MISSING>","<MISSING>","https://shawfloors.com/stores/dealerprofile/23408/costco-in-home-design-service"
"https://shawfloors.com","COSTCO IN-HOME DESIGN SERVICE","2450 E Beardsley Rd","Phoenix","AZ","85050-1300","US","<MISSING>","1-888-992-2773","<MISSING>","<MISSING>","<MISSING>","<MISSING>","https://shawfloors.com/stores/dealerprofile/23409/costco-in-home-design-service"
"https://shawfloors.com","CUSTOM FLOOR COVERING INC","13617 N 32nd St the Rock at 32nd Street","Phoenix","AZ","85032-6025","US","<MISSING>","602-971-0010","<MISSING>","<MISSING>","<MISSING>","Monday - Friday 8:00 - 5:00   Saturday 8:30 - 4:00   Sunday - By Appointment","https://shawfloors.com/stores/dealerprofile/36769/custom-floor-covering-inc"
"https://shawfloors.com","DIAZ CARPETS","2308 E McDowell Rd","Phoenix","AZ","85006-2440","US","<MISSING>","602-275-1013","<MISSING>","<MISSING>","<MISSING>","<MISSING>","https://shawfloors.com/stores/dealerprofile/4391/diaz-carpets"
"https://shawfloors.com","DYNAMIC FLOORS FLOORING AMERICA","2432 W Peoria Ave Bldg 11","Phoenix","AZ","85029-4726","US","<MISSING>","602-843-9040","<MISSING>","<MISSING>","<MISSING>","Monday - Friday 9:00 - 4:30   Saturday - By Appointment   Sunday - Closed","https://shawfloors.com/stores/dealerprofile/17941/dynamic-floors-flooring-america"
"https://shawfloors.com","EXPRESS HOME SERVICE","4110 W Washington St Ste 100","Phoenix","AZ","85009-4623","US","<MISSING>","888-789-3930","<MISSING>","<MISSING>","<MISSING>","Monday - Friday 9:00 - 4:00   Saturday & Sunday - Closed","https://shawfloors.com/stores/dealerprofile/29926/express-home-service"
"https://shawfloors.com","FABRIC DEPOT & SUPPLY","16803 N Cave Creek Rd","Phoenix","AZ","85032-2505","US","<MISSING>","602-788-7702","<MISSING>","<MISSING>","<MISSING>","Monday - Friday 9:00 - 6:00   Saturday 9:30 - 5:00   Sunday 10:00 - 3:30","https://shawfloors.com/stores/dealerprofile/29941/fabric-depot-and-supply"
"https://shawfloors.com","FLOOR COVERINGS INTERNATIONAL","9625 N 21st Dr Ste 4","Phoenix","AZ","85021-1823","US","<MISSING>","602-459-9994","<MISSING>","<MISSING>","<MISSING>","By appointment only In-home appointments available 7 days a week at the customers convenience.","https://shawfloors.com/stores/dealerprofile/49657/floor-coverings-international"
"https://shawfloors.com","FLOOR DEPOT","2948 E Bell Rd Ste 101","Phoenix","AZ","85032-1972","US","<MISSING>","602-759-0019","<MISSING>","<MISSING>","<MISSING>","Monday - Thursday 9:00 - 5:30   Friday 9:00 - 3:00   Saturday 10:00 - 2:00   Sunday - Closed","https://shawfloors.com/stores/dealerprofile/40079/floor-depot"
"https://shawfloors.com","FLOOR SOURCE","17829 N Black Canyon Hwy","Phoenix","AZ","85023-1207","US","<MISSING>","602-276-8723","<MISSING>","<MISSING>","<MISSING>","Monday - Friday 8:00 - 5:00   Saturday 10:00 - 2:00   Sunday - By Appointment","https://shawfloors.com/stores/dealerprofile/25199/floor-source"
"https://shawfloors.com","FLOORS UNLIMITED, INC.","21609 N 12th Ave Ste 100","Phoenix","AZ","85027-2836","US","<MISSING>","602-841-4012","<MISSING>","<MISSING>","<MISSING>","<MISSING>","https://shawfloors.com/stores/dealerprofile/4327/floors-unlimited-inc"
"https://shawfloors.com","FOSSIL CREEK INTERIOR","2480 W Happy Valley Rd","Phoenix","AZ","85085-8516","US","<MISSING>","480-360-1445","<MISSING>","<MISSING>","<MISSING>","<MISSING>","https://shawfloors.com/stores/dealerprofile/44718/fossil-creek-interior"
"https://shawfloors.com","JRA CARPET & TILE","11460 N Cave Creek Rd Ste 3","Phoenix","AZ","85020-1492","US","<MISSING>","602-870-8900","<MISSING>","<MISSING>","<MISSING>","<MISSING>","https://shawfloors.com/stores/dealerprofile/23717/jra-carpet-and-tile"
"https://shawfloors.com","KR FLOORING SOLUTIONS, LLC","7150 W Roosevelt St Ste 167","Phoenix","AZ","85043-2434","US","<MISSING>","6024429190","<MISSING>","<MISSING>","<MISSING>","<MISSING>","https://shawfloors.com/stores/dealerprofile/50379/kr-flooring-solutions-llc"
"https://shawfloors.com","LOWE'S COMPANIES INC. #2421","1950 W Baseline Rd","Phoenix","AZ","85041-6505","US","<MISSING>","602-323-8550","<MISSING>","<MISSING>","<MISSING>","<MISSING>","https://shawfloors.com/stores/dealerprofile/22682/lowes-companies-inc-2421"
"https://shawfloors.com","LOWE'S COMPANIES, INC.","2020 N 75th Ave","Phoenix","AZ","85035-3200","US","<MISSING>","623-845-6292","<MISSING>","<MISSING>","<MISSING>","<MISSING>","https://shawfloors.com/stores/dealerprofile/9947/lowes-companies-inc"
"https://shawfloors.com","LOWE'S COMPANIES, INC.","2929 W Thunderbird Rd","Phoenix","AZ","85053-5873","US","<MISSING>","602-564-7811","<MISSING>","<MISSING>","<MISSING>","<MISSING>","https://shawfloors.com/stores/dealerprofile/9950/lowes-companies-inc"
"https://shawfloors.com","LOWE'S COMPANIES, INC. #2557","2501 W Happy Valley Rd Ste 42","Phoenix","AZ","85085-3702","US","<MISSING>","623-445-9840","<MISSING>","<MISSING>","<MISSING>","<MISSING>","https://shawfloors.com/stores/dealerprofile/14839/lowes-companies-inc-2557"
"https://shawfloors.com","MAYFAIR FLOORS LLC","3120 W Carefree Hwy Ste 5","Phoenix","AZ","85086-3202","US","<MISSING>","623-582-0000","<MISSING>","<MISSING>","<MISSING>","<MISSING>","https://shawfloors.com/stores/dealerprofile/48002/mayfair-floors-llc"
"https://shawfloors.com","MC DADE J R COMPANY, INC.","1327 N 22nd Ave","Phoenix","AZ","85009-3714","US","<MISSING>","602-258-7134","<MISSING>","<MISSING>","<MISSING>","<MISSING>","https://shawfloors.com/stores/dealerprofile/4305/mc-dade-j-r-company-inc"
"https://shawfloors.com","MEDIA FLOORING","2323 E Magnolia St","Phoenix","AZ","85034-6888","US","<MISSING>","470-736-9130","<MISSING>","<MISSING>","<MISSING>","<MISSING>","https://shawfloors.com/stores/dealerprofile/48567/media-flooring"
"https://shawfloors.com","MILLERS CATS LLC","23040 N 11th Ave Bldg 3","Phoenix","AZ","85027-1410","US","<MISSING>","623-581-2287","<MISSING>","<MISSING>","<MISSING>","<MISSING>","https://shawfloors.com/stores/dealerprofile/43856/millers-cats-llc"
"https://shawfloors.com","ONE SOURCE INTERIORS","4455 E Camelback Rd Ste D140","Phoenix","AZ","85018-2847","US","<MISSING>","602-903-2545","<MISSING>","<MISSING>","<MISSING>","Monday - Friday 8:00 - 5:00   Saturday & Sunday - Closed","https://shawfloors.com/stores/dealerprofile/45414/one-source-interiors"
"https://shawfloors.com","PHOENIX FLOORING OUTLET","4102 N 24th St Ste 1","Phoenix","AZ","85016-6283","US","<MISSING>","602-254-1532","<MISSING>","<MISSING>","<MISSING>","<MISSING>","https://shawfloors.com/stores/dealerprofile/49849/phoenix-flooring-outlet"
"https://shawfloors.com","PREMIUM CARPET TILE STONE & WOOD","447 W Watkins Rd Ste 9","Phoenix","AZ","85003-2836","US","<MISSING>","480-694-2514","<MISSING>","<MISSING>","<MISSING>","Monday - Friday 7:00 - 3:00   Saturday & Sunday - Closed","https://shawfloors.com/stores/dealerprofile/38609/premium-carpet-tile-stone-and-wood"
"https://shawfloors.com","PROSOURCE OF PHOENIX","20802 N 19th Ave","Phoenix","AZ","85027-2663","US","<MISSING>","480-308-0142","<MISSING>","<MISSING>","<MISSING>","Monday - Friday 7:00 - 5:00   Saturday 9:00 - 12:00   Sunday - Closed","https://shawfloors.com/stores/dealerprofile/4318/prosource-of-phoenix"
"https://shawfloors.com","REDI-CARPET SALES","4535 E Elwood St Ste 101","Phoenix","AZ","85040-1981","US","<MISSING>","480-350-9615","<MISSING>","<MISSING>","<MISSING>","Monday - Friday 8:00 - 5:00   Saturday & Sunday - Closed","https://shawfloors.com/stores/dealerprofile/43690/redi-carpet-sales"
"https://shawfloors.com","SCOTT'S CUSTOM FLOORING LLC","2539 E Indian School Rd","Phoenix","AZ","85016-6738","US","<MISSING>","602-224-0425","<MISSING>","<MISSING>","<MISSING>","<MISSING>","https://shawfloors.com/stores/dealerprofile/4309/scotts-custom-flooring-llc"
"https://shawfloors.com","THE HOME DEPOT","7333 W McDowell Rd","Phoenix","AZ","85035-4535","US","<MISSING>","623-849-1200","<MISSING>","<MISSING>","<MISSING>","<MISSING>","https://shawfloors.com/stores/dealerprofile/3407/the-home-depot"
"https://shawfloors.com","THE HOME DEPOT","2650 W Thunderbird Rd","Phoenix","AZ","85023-5948","US","<MISSING>","602-548-9600","<MISSING>","<MISSING>","<MISSING>","<MISSING>","https://shawfloors.com/stores/dealerprofile/3451/the-home-depot"
"https://shawfloors.com","THE HOME DEPOT","16803 N Tatum Blvd","Phoenix","AZ","85032-2811","US","<MISSING>","602-493-9600","<MISSING>","<MISSING>","<MISSING>","<MISSING>","https://shawfloors.com/stores/dealerprofile/3442/the-home-depot"
"https://shawfloors.com","THE HOME DEPOT","12434 N Cave Creek Rd","Phoenix","AZ","85022-5831","US","<MISSING>","602-404-0574","<MISSING>","<MISSING>","<MISSING>","<MISSING>","https://shawfloors.com/stores/dealerprofile/3486/the-home-depot"
"https://shawfloors.com","THE HOME DEPOT","3609 E Thomas Rd","Phoenix","AZ","85018-7505","US","<MISSING>","602-225-0980","<MISSING>","<MISSING>","<MISSING>","<MISSING>","https://shawfloors.com/stores/dealerprofile/3484/the-home-depot"
"https://shawfloors.com","THE HOME DEPOT","4848 N 43rd Ave","Phoenix","AZ","85031-1503","US","<MISSING>","623-849-0125","<MISSING>","<MISSING>","<MISSING>","<MISSING>","https://shawfloors.com/stores/dealerprofile/3492/the-home-depot"
"https://shawfloors.com","THE HOME DEPOT","2217 E Bell Rd","Phoenix","AZ","85022-2967","US","<MISSING>","602-482-2430","<MISSING>","<MISSING>","<MISSING>","<MISSING>","https://shawfloors.com/stores/dealerprofile/42450/the-home-depot"
"https://shawfloors.com","THE HOME DEPOT","9969 W Camelback Rd","Phoenix","AZ","85037-5006","US","<MISSING>","623-772-1034","<MISSING>","<MISSING>","<MISSING>","<MISSING>","https://shawfloors.com/stores/dealerprofile/42451/the-home-depot"
"https://shawfloors.com","THE HOME DEPOT","35050 N North Valley Pkwy","Phoenix","AZ","85086-3246","US","<MISSING>","623-587-9222","<MISSING>","<MISSING>","<MISSING>","<MISSING>","https://shawfloors.com/stores/dealerprofile/42461/the-home-depot"
"https://shawfloors.com","TILE AND CARPET MECCA","1614 E Bell Rd Ste 110","Phoenix","AZ","85022-2834","US","<MISSING>","602-788-1446","<MISSING>","<MISSING>","<MISSING>","<MISSING>","https://shawfloors.com/stores/dealerprofile/26502/tile-and-carpet-mecca"
"https://shawfloors.com","CARPET ONE","1488 E White Mountain Blvd","Pinetop","AZ","85935-7028","US","<MISSING>","928-367-2515","<MISSING>","<MISSING>","<MISSING>","<MISSING>","https://shawfloors.com/stores/dealerprofile/18424/carpet-one"
"https://shawfloors.com","BARRETT FLOORS","491 E Z St","Prescott","AZ","86301-2000","US","<MISSING>","928-227-3278","<MISSING>","<MISSING>","<MISSING>","Monday - Thursday 8:00 - 5:00   Friday 8:00 - 4:00   Saturday & Sunday - Closed","https://shawfloors.com/stores/dealerprofile/44786/barrett-floors"
"https://shawfloors.com","COSTCO IN-HOME DESIGN SERVICE","3911 Highway 69","Prescott","AZ","86301","US","<MISSING>","1-888-992-2773","<MISSING>","<MISSING>","<MISSING>","<MISSING>","https://shawfloors.com/stores/dealerprofile/23421/costco-in-home-design-service"
"https://shawfloors.com","LOWE'S COMPANIES, INC","2300 E State Route 69","Prescott","AZ","86301-5656","US","<MISSING>","928-541-8640","<MISSING>","<MISSING>","<MISSING>","<MISSING>","https://shawfloors.com/stores/dealerprofile/42926/lowes-companies-inc"
"https://shawfloors.com","THE HOME DEPOT","1941 E Highway 69","Prescott","AZ","86301","US","<MISSING>","928-771-8467","<MISSING>","<MISSING>","<MISSING>","<MISSING>","https://shawfloors.com/stores/dealerprofile/3405/the-home-depot"
"https://shawfloors.com","FIVE BROTHERS DISCOUNT FLOORING","6901 E 1st St Ste C","Prescott Valley","AZ","86314-3522","US","<MISSING>","928-772-3366","<MISSING>","<MISSING>","<MISSING>","Monday - Friday 9:00 - 5:00   Saturday & Sunday - Closed","https://shawfloors.com/stores/dealerprofile/22963/five-brothers-discount-flooring"
"https://shawfloors.com","THE HOME DEPOT","5500 E State Route 69","Prescott Valley","AZ","86314-6533","US","<MISSING>","928-777-2400","<MISSING>","<MISSING>","<MISSING>","<MISSING>","https://shawfloors.com/stores/dealerprofile/42547/the-home-depot"
"https://shawfloors.com","THE HOME DEPOT","7401 S Power Rd","Queen Creek","AZ","85142-6219","US","<MISSING>","480-988-6810","<MISSING>","<MISSING>","<MISSING>","<MISSING>","https://shawfloors.com/stores/dealerprofile/42453/the-home-depot"
"https://shawfloors.com","CARPET TILE & MORE","406 W Main St","Safford","AZ","85546-2725","US","<MISSING>","928-428-7271","<MISSING>","<MISSING>","<MISSING>","Monday - Friday 9:00 - 5:30   Saturday 9:00 - 2:00   Sunday - Closed","https://shawfloors.com/stores/dealerprofile/27643/carpet-tile-and-more"
"https://shawfloors.com","ARIZONA FLOORING BROKERS","13802 N Scottsdale Rd Ste 108","Scottsdale","AZ","85254-3459","US","<MISSING>","480-948-5799","<MISSING>","<MISSING>","<MISSING>","Monday - Friday 10:00 - 5:00   Saturday 10:00 - 4:00   Sunday - Closed","https://shawfloors.com/stores/dealerprofile/29825/arizona-flooring-brokers"
"https://shawfloors.com","ARIZONA HARDWOOD FLOOR SUPPLY","8230 E Raintree Dr Ste 107","Scottsdale","AZ","85260-2565","US","<MISSING>","480-607-1919","<MISSING>","<MISSING>","<MISSING>","Monday - Friday 9:00 - 5:00   Saturday 10:00 - 3:00   Sunday - Closed","https://shawfloors.com/stores/dealerprofile/4303/arizona-hardwood-floor-supply"
"https://shawfloors.com","BAKER BROS.","5090 N Hayden Rd","Scottsdale","AZ","85250-7267","US","<MISSING>","480-210-4546","<MISSING>","<MISSING>","<MISSING>","Monday - Thursday 9:00 - 6:00   Friday - Saturday 9:00 - 5:00   Sunday 12:00 - 5:00","https://shawfloors.com/stores/dealerprofile/49733/baker-bros"
"https://shawfloors.com","BASIA INTERIORS","7848 E Redfield Rd Ste 5","Scottsdale","AZ","85260-6945","US","<MISSING>","602-697-4693","<MISSING>","<MISSING>","<MISSING>","Monday - Friday 9:00 - 4:30   Saturday & Sunday - Closed","https://shawfloors.com/stores/dealerprofile/42829/basia-interiors"
"https://shawfloors.com","COSTCO IN-HOME DESIGN SERVICE","15255 N Hayden Rd","Scottsdale","AZ","85260-2551","US","<MISSING>","1-888-992-2773","<MISSING>","<MISSING>","<MISSING>","<MISSING>","https://shawfloors.com/stores/dealerprofile/23413/costco-in-home-design-service"
"https://shawfloors.com","CREATIVE DESIGN FLOORING, INC.","7891 E McClain Dr Ste 105","Scottsdale","AZ","85260-1675","US","<MISSING>","480-443-3905","<MISSING>","<MISSING>","<MISSING>","Monday - Friday 8:00 - 5:00   Saturday & Sunday - Closed","https://shawfloors.com/stores/dealerprofile/4345/creative-design-flooring-inc"
"https://shawfloors.com","DIRECT CARPET ONE FLOOR AND HOME","7650 E Redfield Rd Ste D5","Scottsdale","AZ","85260-6906","US","<MISSING>","623-349-4859","<MISSING>","<MISSING>","<MISSING>","Monday - Friday 10:00 - 5:30   Saturday 10:00 - 3:00   Sunday - Closed","https://shawfloors.com/stores/dealerprofile/17615/direct-carpet-one-floor-and-home"
"https://shawfloors.com","DISCOUNT CARPET BROKERS","14455 N 79th St Suite G/H","Scottsdale","AZ","85260-6924","US","<MISSING>","480-998-5633","<MISSING>","<MISSING>","<MISSING>","Monday - Friday 9:00 - 5:00   Saturday 9:00 - 2:00   Sunday - Closed","https://shawfloors.com/stores/dealerprofile/4403/discount-carpet-brokers"
"https://shawfloors.com","FASHION IN FLOORING","15444 N 76th St Ste 120","Scottsdale","AZ","85260-1894","US","<MISSING>","480-428-0109","<MISSING>","<MISSING>","<MISSING>","<MISSING>","https://shawfloors.com/stores/dealerprofile/40026/fashion-in-flooring"
"https://shawfloors.com","FLOORING DIRECT","7900 E Greenway Rd","Scottsdale","AZ","85260-1713","US","<MISSING>","480-245-4410","<MISSING>","<MISSING>","<MISSING>","<MISSING>","https://shawfloors.com/stores/dealerprofile/47672/flooring-direct"
"https://shawfloors.com","LOWE'S COMPANIES INC #1850","7950 E McDowell Rd","Scottsdale","AZ","85257-3748","US","<MISSING>","480-874-8120","<MISSING>","<MISSING>","<MISSING>","<MISSING>","https://shawfloors.com/stores/dealerprofile/19146/lowes-companies-inc-1850"
"https://shawfloors.com","LOWE'S COMPANIES, INC.","16275 N Scottsdale Rd","Scottsdale","AZ","85254-1522","US","<MISSING>","480-607-0246","<MISSING>","<MISSING>","<MISSING>","<MISSING>","https://shawfloors.com/stores/dealerprofile/9943/lowes-companies-inc"
"https://shawfloors.com","MODERN FLOORING CONCEPTS","8271 E Gelding Dr","Scottsdale","AZ","85260-3619","US","<MISSING>","480-294-6100","<MISSING>","<MISSING>","<MISSING>","<MISSING>","https://shawfloors.com/stores/dealerprofile/23970/modern-flooring-concepts"
"https://shawfloors.com","SCOTTSDALE FLOORING AMERICA","10250 N 90th St Ste 101","Scottsdale","AZ","85258-4626","US","<MISSING>","480-485-1857","<MISSING>","<MISSING>","<MISSING>","Monday - Friday 8:00 - 7:00   Saturday 9:00 - 6:00   Sunday 11:00 - 4:00","https://shawfloors.com/stores/dealerprofile/18080/scottsdale-flooring-america"
"https://shawfloors.com","THE HOME DEPOT","9890 N 90th St","Scottsdale","AZ","85258-4417","US","<MISSING>","480-767-9294","<MISSING>","<MISSING>","<MISSING>","<MISSING>","https://shawfloors.com/stores/dealerprofile/3382/the-home-depot"
"https://shawfloors.com","THE HOME DEPOT","15499 N Hayden Rd","Scottsdale","AZ","85260-1925","US","<MISSING>","480-348-9723","<MISSING>","<MISSING>","<MISSING>","<MISSING>","https://shawfloors.com/stores/dealerprofile/3472/the-home-depot"
"https://shawfloors.com","THE HOME DEPOT","9170 E Indian Bend Rd","Scottsdale","AZ","85250-8503","US","<MISSING>","480-951-8211","<MISSING>","<MISSING>","<MISSING>","<MISSING>","https://shawfloors.com/stores/dealerprofile/3409/the-home-depot"
"https://shawfloors.com","SEDONA HOME CENTER","55 Shelby Dr Ste A14","Sedona","AZ","86336-5352","US","<MISSING>","928-282-9383","<MISSING>","<MISSING>","<MISSING>","Monday - Friday 9:00 - 5:00   Saturday & Sunday - Closed","https://shawfloors.com/stores/dealerprofile/42058/sedona-home-center"
"https://shawfloors.com","TROY'S FLOORING LLC","2550 W State Route 89A","Sedona","AZ","86336-5245","US","<MISSING>","801-603-3680","<MISSING>","<MISSING>","<MISSING>","<MISSING>","https://shawfloors.com/stores/dealerprofile/47934/troys-flooring-llc"
"https://shawfloors.com","BILBIE'S INTERIORS","909 E Cooley St","Show Low","AZ","85901-5125","US","<MISSING>","928-537-3567","<MISSING>","<MISSING>","<MISSING>","<MISSING>","https://shawfloors.com/stores/dealerprofile/4381/bilbies-interiors"
"https://shawfloors.com","LOWE'S COMPANIES, INC","5800 S White Mountain Rd","Show Low","AZ","85901-7923","US","<MISSING>","928-532-2620","<MISSING>","<MISSING>","<MISSING>","<MISSING>","https://shawfloors.com/stores/dealerprofile/43353/lowes-companies-inc"
"https://shawfloors.com","THE HOME DEPOT","5601 S White Mountain Rd","Show Low","AZ","85901-7878","US","<MISSING>","928-532-1552","<MISSING>","<MISSING>","<MISSING>","<MISSING>","https://shawfloors.com/stores/dealerprofile/42543/the-home-depot"
"https://shawfloors.com","WESTERN CARPET & TILE CO INC.","80 N White Mountain Rd","Show Low","AZ","85901-5245","US","<MISSING>","928-537-1702","<MISSING>","<MISSING>","<MISSING>","Monday - Thursday 9:00 - 5:00   Friday 9:00 - 4:00   Saturday 9:00 - 1:00   Sunday - Closed","https://shawfloors.com/stores/dealerprofile/1562/western-carpet-and-tile-co-inc"
"https://shawfloors.com","LOWE'S COMPANIES INC #2663","3700 Martin Luther King Jr Pkwy","Sierra Vista","AZ","85635-6430","US","<MISSING>","520-439-3640","<MISSING>","<MISSING>","<MISSING>","<MISSING>","https://shawfloors.com/stores/dealerprofile/19853/lowes-companies-inc-2663"
"https://shawfloors.com","SUTHERLANDS","493 N Highway 90 Byp","Sierra Vista","AZ","85635-2241","US","<MISSING>","520-417-9947","<MISSING>","<MISSING>","<MISSING>","<MISSING>","https://shawfloors.com/stores/dealerprofile/43948/sutherlands"
"https://shawfloors.com","THE HOME DEPOT","3500 Avenida Cochise","Sierra Vista","AZ","85635-5800","US","<MISSING>","520-439-2806","<MISSING>","<MISSING>","<MISSING>","<MISSING>","https://shawfloors.com/stores/dealerprofile/3402/the-home-depot"
"https://shawfloors.com","BRAM FLOORING LLC","18700 N 107th Ave Ste 25-27","Sun City","AZ","85373-9758","US","<MISSING>","623-974-9777","<MISSING>","<MISSING>","<MISSING>","Monday - Friday 8:00 - 3:00   Saturday & Sunday - By Appointment","https://shawfloors.com/stores/dealerprofile/44875/bram-flooring-llc"
"https://shawfloors.com","CORNERSTONE FLOORING","10001 W Bell Rd Ste 109","Sun City","AZ","85351-1283","US","<MISSING>","623-972-9500","<MISSING>","<MISSING>","<MISSING>","Monday - Friday 9:00 - 5:00   Saturday 9:00 - 2:00   Sunday - Closed","https://shawfloors.com/stores/dealerprofile/1946/cornerstone-flooring"
"https://shawfloors.com","FLOORS 'N MORE, INC.","9855 W Bell Rd","Sun City","AZ","85351-1344","US","<MISSING>","623-972-5641","<MISSING>","<MISSING>","<MISSING>","Monday - Friday 9:00 - 5:00   Saturday 9:00 - 1:00   Sunday - Closed","https://shawfloors.com/stores/dealerprofile/4359/floors-n-more-inc"
"https://shawfloors.com","ALTRA HOME DECOR","11325 W Bell Rd Ste 200","Surprise","AZ","85378-9372","US","<MISSING>","623-875-4895","<MISSING>","<MISSING>","<MISSING>","<MISSING>","https://shawfloors.com/stores/dealerprofile/19840/altra-home-decor"
"https://shawfloors.com","BAKER BROS.","12483 W Bell Rd","Surprise","AZ","85378-9799","US","<MISSING>","602-903-6579","<MISSING>","<MISSING>","<MISSING>","Monday - Thursday 9:00 - 6:00   Friday - Saturday 9:00 - 5:00   Sunday 12:00 - 5:00","https://shawfloors.com/stores/dealerprofile/49731/baker-bros"
"https://shawfloors.com","LOWE'S COMPANIES, INC.","13363 W Grand Ave","Surprise","AZ","85374-4070","US","<MISSING>","623-975-6020","<MISSING>","<MISSING>","<MISSING>","<MISSING>","https://shawfloors.com/stores/dealerprofile/9951/lowes-companies-inc"
"https://shawfloors.com","THE HOME DEPOT","13760 W Bell Rd","Surprise","AZ","85374-3865","US","<MISSING>","623-544-1129","<MISSING>","<MISSING>","<MISSING>","<MISSING>","https://shawfloors.com/stores/dealerprofile/3491/the-home-depot"
"https://shawfloors.com","TOLIVER'S HOUSE OF CARPETS & DRAPERIES INC","11519 W Bell Rd","Surprise","AZ","85378-9604","US","<MISSING>","623-972-5586","<MISSING>","<MISSING>","<MISSING>","<MISSING>","https://shawfloors.com/stores/dealerprofile/17341/tolivers-house-of-carpets-and-draperies-inc"
"https://shawfloors.com","ARIZONA FLOOR COVERINGS LLC","1650 N Scottsdale Rd","Tempe","AZ","85281-1512","US","<MISSING>","480-921-0001","<MISSING>","<MISSING>","<MISSING>","<MISSING>","https://shawfloors.com/stores/dealerprofile/18067/arizona-floor-coverings-llc"
"https://shawfloors.com","ARIZONA FLOOR COVERINGS LLC","1290 N Scottsdale Rd Ste A1","Tempe","AZ","85281-1702","US","<MISSING>","480-921-0001","<MISSING>","<MISSING>","<MISSING>","<MISSING>","https://shawfloors.com/stores/dealerprofile/4349/arizona-floor-coverings-llc"
"https://shawfloors.com","CORPORATE FLOORING SOLUTIONS INC","5028 S Ash Ave Ste 102","Tempe","AZ","85282-6848","US","<MISSING>","480-820-1073","<MISSING>","<MISSING>","<MISSING>","<MISSING>","https://shawfloors.com/stores/dealerprofile/43520/corporate-flooring-solutions-inc"
"https://shawfloors.com","COSTCO IN-HOME DESIGN SERVICE","1345 W Elliot Rd","Tempe","AZ","85284-1104","US","<MISSING>","480-753-2406","<MISSING>","<MISSING>","<MISSING>","<MISSING>","https://shawfloors.com/stores/dealerprofile/15290/costco-in-home-design-service"
"https://shawfloors.com","COSTCO IN-HOME DESIGN SERVICE","1445 W Elliot Rd","Tempe","AZ","85284-1103","US","<MISSING>","1-888-992-2773","<MISSING>","<MISSING>","<MISSING>","<MISSING>","https://shawfloors.com/stores/dealerprofile/23415/costco-in-home-design-service"
"https://shawfloors.com","FLOOR & DECOR OUTLETS OF AMERICA","750 S Priest Dr","Tempe","AZ","85281-7258","US","<MISSING>","602-692-1272","<MISSING>","<MISSING>","<MISSING>","<MISSING>","https://shawfloors.com/stores/dealerprofile/16715/floor-and-decor-outlets-of-america"
"https://shawfloors.com","LOWE'S COMPANIES, INC","777 E Baseline Rd","Tempe","AZ","85283-1205","US","<MISSING>","480-458-1870","<MISSING>","<MISSING>","<MISSING>","<MISSING>","https://shawfloors.com/stores/dealerprofile/43433/lowes-companies-inc"
"https://shawfloors.com","MANUFACTURERS FLOOR COVERING","316 S 52nd St Ste 101","Tempe","AZ","85281-7244","US","<MISSING>","480-968-7900","<MISSING>","<MISSING>","<MISSING>","Mon. 8 - 5   Tues. 8 - 5:30   Wed. 8 - 5   Thur. 8 - 5:30   Fri. 8 - 5   Sat. 9 - 2:30   Sun. Closed","https://shawfloors.com/stores/dealerprofile/461/manufacturers-floor-covering"
"https://shawfloors.com","PROSOURCE OF TEMPE","1719 W University Dr Ste 187","Tempe","AZ","85281-3256","US","<MISSING>","480-504-0759","<MISSING>","<MISSING>","<MISSING>","Monday - Friday 7:00 - 5:00   Saturday 9:00 - 12:00   Sunday - Closed","https://shawfloors.com/stores/dealerprofile/4351/prosource-of-tempe"
"https://shawfloors.com","PROSOURCE TEMPE","1719 W University Dr","Tempe","AZ","85281-3256","US","<MISSING>","480.420.2553","<MISSING>","<MISSING>","<MISSING>","<MISSING>","https://shawfloors.com/stores/dealerprofile/50323/prosource-tempe"
"https://shawfloors.com","PUCKETT'S FLOORING","8057 S Priest Dr","Tempe","AZ","85284-1039","US","<MISSING>","480-990-8191","<MISSING>","<MISSING>","<MISSING>","Monday - Friday 9:00 - 5:30   Saturday 9:00 - 3:00   Sunday - Closed","https://shawfloors.com/stores/dealerprofile/1558/pucketts-flooring"
"https://shawfloors.com","THE HOME DEPOT","725 W Warner Rd","Tempe","AZ","85284-2922","US","<MISSING>","480-496-9700","<MISSING>","<MISSING>","<MISSING>","<MISSING>","https://shawfloors.com/stores/dealerprofile/3410/the-home-depot"
"https://shawfloors.com","THE HOME DEPOT","1330 W Baseline Rd","Tempe","AZ","85283-1116","US","<MISSING>","480-775-6404","<MISSING>","<MISSING>","<MISSING>","<MISSING>","https://shawfloors.com/stores/dealerprofile/42459/the-home-depot"
"https://shawfloors.com","THE HOME DEPOT","750 S 20th Ave","Thatcher","AZ","85552-4424","US","<MISSING>","938-348-3287","<MISSING>","<MISSING>","<MISSING>","<MISSING>","https://shawfloors.com/stores/dealerprofile/42813/the-home-depot"
"https://shawfloors.com","ANASI FLOORING","1011 N Pantano Rd Ste 111","Tucson","AZ","85710-1891","US","<MISSING>","520-750-8021","<MISSING>","<MISSING>","<MISSING>","Monday - Friday 9:00 - 5:00   Saturday 11:00 - 4:00   Sunday - Closed","https://shawfloors.com/stores/dealerprofile/47667/anasi-flooring"
"https://shawfloors.com","BOBBIE JOE'S RUG WORKS","5755 E 22nd St","Tucson","AZ","85711-5526","US","<MISSING>","520-745-8722","<MISSING>","<MISSING>","<MISSING>","Monday - Saturday 9:00 - 6:00   Sunday - Closed","https://shawfloors.com/stores/dealerprofile/11986/bobbie-joes-rug-works"
"https://shawfloors.com","BOBBIE JOE'S RUGWORKS","3415 E Fort Lowell Rd","Tucson","AZ","85716-1617","US","<MISSING>","520-326-4223","<MISSING>","<MISSING>","<MISSING>","<MISSING>","https://shawfloors.com/stores/dealerprofile/29389/bobbie-joes-rugworks"
"https://shawfloors.com","BROADWAY CARPETS AND FLOORING","7000 E Broadway Blvd","Tucson","AZ","85710-2805","US","<MISSING>","520-867-9622","<MISSING>","<MISSING>","<MISSING>","Monday - Friday 9:00 - 6:00   Saturday 9:00 - 4:00   Sunday 11:00 - 4:00","https://shawfloors.com/stores/dealerprofile/295/broadway-carpets-and-flooring"
"https://shawfloors.com","CARPET MILL INC","7342 E Broadway Blvd Ste 100","Tucson","AZ","85710-0404","US","<MISSING>","520-722-5650","<MISSING>","<MISSING>","<MISSING>","Monday - Friday 9:00 - 5:00   Saturday 9:00 - 2:00   Sunday - Closed","https://shawfloors.com/stores/dealerprofile/37830/carpet-mill-inc"
"https://shawfloors.com","CARPET ONE FLOOR & HOME","2726 E Fort Lowell Rd","Tucson","AZ","85716-1516","US","<MISSING>","520-329-4833","<MISSING>","<MISSING>","<MISSING>","Monday - Friday 9:00 - 6:00   Saturday 9:00 - 5:00   Sunday - Closed","https://shawfloors.com/stores/dealerprofile/503/carpet-one-floor-and-home"
"https://shawfloors.com","CARPETURN.COM","1859 W Grant Rd Ste 103","Tucson","AZ","85745-1214","US","<MISSING>","520-762-6812","<MISSING>","<MISSING>","<MISSING>","<MISSING>","https://shawfloors.com/stores/dealerprofile/45008/carpeturncom"
"https://shawfloors.com","COMPLETE FLOORING","3821 W Costco Dr Ste 105","Tucson","AZ","85741-2867","US","<MISSING>","520-219-2549","<MISSING>","<MISSING>","<MISSING>","Monday - Friday 9:00 - 5:00   Saturday 9:00 - 4:00   Sunday 9:00 - 3:00","https://shawfloors.com/stores/dealerprofile/42959/complete-flooring"
"https://shawfloors.com","COSTCO IN-HOME DESIGN SERVICE","6255 E Grant Rd","Tucson","AZ","85712-5834","US","<MISSING>","1-888-992-2773","<MISSING>","<MISSING>","<MISSING>","<MISSING>","https://shawfloors.com/stores/dealerprofile/23419/costco-in-home-design-service"
"https://shawfloors.com","COSTCO IN-HOME DESIGN SERVICE","3901 W Costco Dr","Tucson","AZ","85741-2864","US","<MISSING>","1-888-992-2773","<MISSING>","<MISSING>","<MISSING>","<MISSING>","https://shawfloors.com/stores/dealerprofile/23420/costco-in-home-design-service"
"https://shawfloors.com","D&D FLOORING AND ASSOC","3701 S Palo Verde Rd","Tucson","AZ","85713-5401","US","<MISSING>","520-745-1412","<MISSING>","<MISSING>","<MISSING>","<MISSING>","https://shawfloors.com/stores/dealerprofile/27657/dandd-flooring-and-assoc"
"https://shawfloors.com","FLOORING SYSTEMS OF ARIZONA","3501 E Golf Links Rd","Tucson","AZ","85713-5318","US","<MISSING>","520-745-0292","<MISSING>","<MISSING>","<MISSING>","By Appointment","https://shawfloors.com/stores/dealerprofile/27664/flooring-systems-of-arizona"
"https://shawfloors.com","GORDON'S CLEANING INC","901 W Miracle Mile","Tucson","AZ","85705-3709","US","<MISSING>","520-292-1167","<MISSING>","<MISSING>","<MISSING>","Monday - Thursday 9:00 - 5:00   Friday 9:00 - 4:00   Saturday - Sunday - By Appointment","https://shawfloors.com/stores/dealerprofile/1016/gordons-cleaning-inc"
"https://shawfloors.com","HACIENDA FLOORING","505 W Miracle Mile","Tucson","AZ","85705-3779","US","<MISSING>","602-309-8893","<MISSING>","<MISSING>","<MISSING>","<MISSING>","https://shawfloors.com/stores/dealerprofile/48568/hacienda-flooring"
"https://shawfloors.com","HOUSE OF CARPETS","4018 E Grant Rd","Tucson","AZ","85712-2509","US","<MISSING>","520-327-5741","<MISSING>","<MISSING>","<MISSING>","Monday - Friday 9:00 - 5:00   Saturday 9:00 - 2:00   Sunday - Closed","https://shawfloors.com/stores/dealerprofile/4413/house-of-carpets"
"https://shawfloors.com","INTERIOR INNOVATIONS","1781 W Ruthrauff Rd","Tucson","AZ","85705-1254","US","<MISSING>","520-327-1511","<MISSING>","<MISSING>","<MISSING>","Monday - Friday 9:00 - 4:00   Saturday 10:00 - 2:00   Sunday - Closed","https://shawfloors.com/stores/dealerprofile/24575/interior-innovations"
"https://shawfloors.com","J R MCDADE CO, INC.","3650 N Oracle Rd","Tucson","AZ","85705-3283","US","<MISSING>","520-294-6261","<MISSING>","<MISSING>","<MISSING>","<MISSING>","https://shawfloors.com/stores/dealerprofile/4304/j-r-mcdade-co-inc"
"https://shawfloors.com","K & B INTERIORS, INC.","6885 N Oracle Rd","Tucson","AZ","85704-4222","US","<MISSING>","520-795-4089","<MISSING>","<MISSING>","<MISSING>","<MISSING>","https://shawfloors.com/stores/dealerprofile/4371/k-and-b-interiors-inc"
"https://shawfloors.com","LOWE'S COMPANIES INC. #1754","7105 E Speedway Blvd","Tucson","AZ","85710-1337","US","<MISSING>","520-721-3510","<MISSING>","<MISSING>","<MISSING>","<MISSING>","https://shawfloors.com/stores/dealerprofile/15302/lowes-companies-inc-1754"
"https://shawfloors.com","LOWE'S COMPANIES, INC","4075 W Ina Rd","Tucson","AZ","85741-2204","US","<MISSING>","520-572-7300","<MISSING>","<MISSING>","<MISSING>","<MISSING>","https://shawfloors.com/stores/dealerprofile/11415/lowes-companies-inc"
"https://shawfloors.com","LOWE'S COMPANIES, INC.","4151 N Oracle Rd","Tucson","AZ","85705-2721","US","<MISSING>","520-887-1003","<MISSING>","<MISSING>","<MISSING>","<MISSING>","https://shawfloors.com/stores/dealerprofile/9953/lowes-companies-inc"
"https://shawfloors.com","LOWE'S COMPANIES, INC. #1791","1800 W Valencia Rd","Tucson","AZ","85746-6554","US","<MISSING>","520-239-1909","<MISSING>","<MISSING>","<MISSING>","<MISSING>","https://shawfloors.com/stores/dealerprofile/11416/lowes-companies-inc-1791"
"https://shawfloors.com","NASIM, INC.","4545 E Speedway Blvd","Tucson","AZ","85712-5301","US","<MISSING>","520-318-0009","<MISSING>","<MISSING>","<MISSING>","<MISSING>","https://shawfloors.com/stores/dealerprofile/4375/nasim-inc"
"https://shawfloors.com","PROSOURCE OF TUCSON","2425 N Huachuca Dr Ste 151","Tucson","AZ","85745-1213","US","<MISSING>","520.624.7788","<MISSING>","<MISSING>","<MISSING>","<MISSING>","https://shawfloors.com/stores/dealerprofile/50324/prosource-of-tucson"
"https://shawfloors.com","REDI CARPET, INC.","6000 S Country Club Rd Ste 190","Tucson","AZ","85706-4577","US","<MISSING>","520-884-5556","<MISSING>","<MISSING>","<MISSING>","Monday - Friday 9:00 - 5:00   Saturday & Sunday - Closed","https://shawfloors.com/stores/dealerprofile/4372/redi-carpet-inc"
"https://shawfloors.com","THE FLOOR TRADER","1857 W Grant Rd","Tucson","AZ","85745-1203","US","<MISSING>","520-884-0005","<MISSING>","<MISSING>","<MISSING>","Sunday & Monday - Closed   Tuesday - Friday 9:00 - 5:00   Saturday 9:00 - 3:00","https://shawfloors.com/stores/dealerprofile/18199/the-floor-trader"
"https://shawfloors.com","THE HOME DEPOT","7677 E Broadway Blvd","Tucson","AZ","85710-3757","US","<MISSING>","520-722-6171","<MISSING>","<MISSING>","<MISSING>","<MISSING>","https://shawfloors.com/stores/dealerprofile/3332/the-home-depot"
"https://shawfloors.com","THE HOME DEPOT","1155 W Irvington Rd","Tucson","AZ","85714-1165","US","<MISSING>","520-294-1233","<MISSING>","<MISSING>","<MISSING>","<MISSING>","https://shawfloors.com/stores/dealerprofile/3450/the-home-depot"
"https://shawfloors.com","THE HOME DEPOT","3925 W Costco Dr","Tucson","AZ","85741-2864","US","<MISSING>","520-575-8750","<MISSING>","<MISSING>","<MISSING>","<MISSING>","https://shawfloors.com/stores/dealerprofile/3485/the-home-depot"
"https://shawfloors.com","THE HOME DEPOT","3689 E Broadway Blvd","Tucson","AZ","85716-5400","US","<MISSING>","520-327-3050","<MISSING>","<MISSING>","<MISSING>","<MISSING>","https://shawfloors.com/stores/dealerprofile/3493/the-home-depot"
"https://shawfloors.com","THE HOME DEPOT","4302 N Oracle Rd","Tucson","AZ","85705-1634","US","<MISSING>","520-408-7201","<MISSING>","<MISSING>","<MISSING>","<MISSING>","https://shawfloors.com/stores/dealerprofile/42452/the-home-depot"
"https://shawfloors.com","TUCSON COMMERCIAL CARPET","107 W Flores St","Tucson","AZ","85705-5524","US","<MISSING>","520-884-7002","<MISSING>","<MISSING>","<MISSING>","Monday - Friday 7:00 - 4:00   Saturday & Sunday - Closed","https://shawfloors.com/stores/dealerprofile/17382/tucson-commercial-carpet-"
"https://shawfloors.com","MINSHALL'S FLOORING","335 W Wickenburg Way","Wickenburg","AZ","85390-2277","US","<MISSING>","623-932-2345","<MISSING>","<MISSING>","<MISSING>","<MISSING>","https://shawfloors.com/stores/dealerprofile/49515/minshalls-flooring-"
"https://shawfloors.com","COLLINS TILE COMPANY","2676 E 16th St","Yuma","AZ","85365-2320","US","<MISSING>","520-726-0944","<MISSING>","<MISSING>","<MISSING>","<MISSING>","https://shawfloors.com/stores/dealerprofile/4409/collins-tile-company"
"https://shawfloors.com","FLOORING AMERICA","630 E 18th Pl","Yuma","AZ","85365-2003","US","<MISSING>","928-257-4121","<MISSING>","<MISSING>","<MISSING>","Monday - Friday 8:00 - 5:00   Saturday 8:00 - 5:00   Sunday - Closed","https://shawfloors.com/stores/dealerprofile/18257/flooring-america"
"https://shawfloors.com","LOWE'S COMPANIES, INC.","115 W 32nd St","Yuma","AZ","85364-8137","US","<MISSING>","928-317-0119","<MISSING>","<MISSING>","<MISSING>","<MISSING>","https://shawfloors.com/stores/dealerprofile/9945/lowes-companies-inc"
"https://shawfloors.com","SYNERGY HOLDINGS INC","1821 S Arizona Ave","Yuma","AZ","85364-5739","US","<MISSING>","928-217-5553","<MISSING>","<MISSING>","<MISSING>","<MISSING>","https://shawfloors.com/stores/dealerprofile/30062/synergy-holdings-inc"
"https://shawfloors.com","THE HOME DEPOT","1111 S Redondo Center Dr","Yuma","AZ","85365-2036","US","<MISSING>","520-373-9453","<MISSING>","<MISSING>","<MISSING>","<MISSING>","https://shawfloors.com/stores/dealerprofile/3326/the-home-depot"
"https://shawfloors.com","YUMA CARPETS","575 E 18th Pl","Yuma","AZ","85365-2013","US","<MISSING>","(928) 328-1045","<MISSING>","<MISSING>","<MISSING>","Monday - Friday 8:00 - 5:00   Saturday 9:00 - 3:00   Sunday - Closed","https://shawfloors.com/stores/dealerprofile/1174/yuma-carpets"
