"locator_domain","location_name","street_address","city","state","zip","country_code","store_number","phone","location_type","latitude","longitude","hours_of_operation"
"http://www.redapplestores.com/locations.htm","Red Apple - Athabasca,AB","4820-50th Street","Athabasca","AB","T9S 1C9","CA","112","780-675-9755","<MISSING>","54.7191774","-113.2858061","Sunday-opens:10:00-closes:18:00|Monday-opens:09:00-closes:21:00|Tuesday-opens:09:00-closes:21:00|Wednesday-opens:09:00-closes:21:00|Thursday-opens:09:00-closes:21:00|Friday-opens:9:00-closes:21:00|Saturday-opens:9:00-closes:19:00"
"http://www.redapplestores.com/locations.htm","Red Apple - Barrhead,AB","4912-50th Avenue","Barrhead","AB","T7N 1A4","CA","107","780-674-9582","<MISSING>","54.1181875","-114.402905","Sunday-opens:10:00-closes:18:00|Monday-opens:9:00-closes:19:00|Tuesday-opens:9:00-closes:19:00|Wednesday-opens:9:00-closes:19:00|Thursday-opens:9:00-closes:19:00|Friday-opens:9:00-closes:21:00|Saturday-opens:9:00-closes:19:00"
"http://www.redapplestores.com/locations.htm","Red Apple - Beaverlodge,AB","105-10th Street","Beaverlodge","AB","T0H 0C0","CA","148","780-354-3162","<MISSING>","55.2096207","-119.4291994","Sunday-opens:10:00-closes:18:00|Monday-opens:9:00-closes:19:00|Tuesday-opens:9:00-closes:19:00|Wednesday-opens:9:00-closes:19:00|Thursday-opens:9:00-closes:19:00|Friday-opens:9:00-closes:21:00|Saturday-opens:9:00-closes:19:00"
"http://www.redapplestores.com/locations.htm","Red Apple - Blairmore,AB","11001-20 Ave.","Blairmore","AB","T0K 0E0","CA","9","403-562-8811","<MISSING>","49.6151369","-114.4601646","Sunday-opens:10:00-closes:18:00|Monday-opens:9:00-closes:21:00|Tuesday-opens:9:00-closes:21:00|Wednesday-opens:9:00-closes:21:00|Thursday-opens:9:00-closes:21:00|Friday-opens:9:00-closes:21:00|Saturday-opens:09:00-closes:20:00"
"http://www.redapplestores.com/locations.htm","Red Apple - Bonnyville,AB","4719 - 50th Avenue","Bonnyville","AB","T9N 1A6","CA","131","780-826-4906","<MISSING>","54.2679833","-110.7344382","Sunday-opens:10:00-closes:18:00|Monday-opens:9:00-closes:21:00|Tuesday-opens:9:00-closes:21:00|Wednesday-opens:9:00-closes:21:00|Thursday-opens:9:00-closes:21:00|Friday-opens:9:00-closes:21:00|Saturday-opens:9:00-closes:19:00"
"http://www.redapplestores.com/locations.htm","Red Apple - Cardston,AB","388 Main Street","Cardston","AB","T0K 0K0","CA","67","403-653-4661","<MISSING>","49.1971316","-113.3018129","Sunday-opens:10:00-closes:18:00|Monday-opens:9:00-closes:19:00|Tuesday-opens:9:00-closes:19:00|Wednesday-opens:9:00-closes:19:00|Thursday-opens:9:00-closes:19:00|Friday-opens:9:00-closes:21:00|Saturday-opens:9:00-closes:19:00"
"http://www.redapplestores.com/locations.htm","Red Apple - Claresholm,AB","139-49th Avenue West","Claresholm","AB","T0L 0T0","CA","32","403-625-2820","<MISSING>","50.0249084","-113.5838644","Sunday-opens:10:00-closes:18:00|Monday-opens:09:00-closes:20:00|Tuesday-opens:09:00-closes:20:00|Wednesday-opens:09:00-closes:20:00|Thursday-opens:09:00-closes:20:00|Friday-opens:9:00-closes:21:00|Saturday-opens:09:00-closes:20:00"
"http://www.redapplestores.com/locations.htm","Red Apple - Coaldale,AB","1701-20th Avenue","Coaldale","AB","T1M 1J7","CA","111","403-345-6805","<MISSING>","49.7275255","-112.6182302","Sunday-opens:10:00-closes:18:00|Monday-opens:09:00-closes:20:00|Tuesday-opens:09:00-closes:20:00|Wednesday-opens:09:00-closes:20:00|Thursday-opens:09:00-closes:20:00|Friday-opens:9:00-closes:21:00|Saturday-opens:09:00-closes:20:00"
"http://www.redapplestores.com/locations.htm","Red Apple - Fairview,AB","10104 - 110th Street","Fairview","AB","T0H 1L0","CA","124","780-835-2895","<MISSING>","56.0658794","-118.3843646","Sunday-opens:10:00-closes:18:00|Monday-opens:9:00-closes:19:00|Tuesday-opens:9:00-closes:19:00|Wednesday-opens:9:00-closes:19:00|Thursday-opens:9:00-closes:19:00|Friday-opens:9:00-closes:21:00|Saturday-opens:9:00-closes:19:00"
"http://www.redapplestores.com/locations.htm","Red Apple - Falher,AB","205 Main Street S.W.","Falher","AB","T0H 1M0","CA","33","780-837-2022","<MISSING>","55.7350503","-117.2018766","Sunday-opens:10:00-closes:18:00|Monday-opens:9:00-closes:19:00|Tuesday-opens:9:00-closes:19:00|Wednesday-opens:9:00-closes:19:00|Thursday-opens:9:00-closes:19:00|Friday-opens:9:00-closes:21:00|Saturday-opens:9:00-closes:19:00"
"http://www.redapplestores.com/locations.htm","Red Apple - Fort Macleod,AB","554-24th St.","Fort Macleod","AB","T0L 0Z0","CA","39","403-553-2874","<MISSING>","49.7255227","-113.397691","Sunday-opens:10:00-closes:18:00|Monday-opens:09:00-closes:20:00|Tuesday-opens:09:00-closes:20:00|Wednesday-opens:09:00-closes:20:00|Thursday-opens:09:00-closes:20:00|Friday-opens:9:00-closes:21:00|Saturday-opens:09:00-closes:20:00"
"http://www.redapplestores.com/locations.htm","Red Apple - Grande Cache,AB","1615 Pine Plaza","Grande Cache","AB","T0E 0Y0","CA","133","780-827-2073","<MISSING>","53.888685","-119.1140219","Sunday-opens:10:00-closes:18:00|Monday-opens:9:00-closes:19:00|Tuesday-opens:9:00-closes:19:00|Wednesday-opens:9:00-closes:19:00|Thursday-opens:9:00-closes:19:00|Friday-opens:9:00-closes:21:00|Saturday-opens:9:00-closes:19:00"
"http://www.redapplestores.com/locations.htm","Red Apple - Grimshaw,AB","5001-54th Ave","Grimshaw","AB","T0H 1W0","CA","10","780-332-4762","<MISSING>","56.1908376","-117.6082232","Sunday-opens:10:00-closes:18:00|Monday-opens:09:00-closes:21:00|Tuesday-opens:09:00-closes:21:00|Wednesday-opens:09:00-closes:21:00|Thursday-opens:09:00-closes:21:00|Friday-opens:9:00-closes:21:00|Saturday-opens:9:00-closes:19:00"
"http://www.redapplestores.com/locations.htm","Red Apple - High Level,AB","10200-100th Ave","High Level","AB","T0H 1Z0","CA","15","780-926-4669","<MISSING>","58.5196544","-117.1351313","Sunday-opens:10:00-closes:18:00|Monday-opens:09:00-closes:21:00|Tuesday-opens:09:00-closes:21:00|Wednesday-opens:09:00-closes:21:00|Thursday-opens:09:00-closes:21:00|Friday-opens:09:00-closes:21:00|Saturday-opens:9:00-closes:19:00"
"http://www.redapplestores.com/locations.htm","Red Apple - High Prairie,AB","5000 53rd Avenue Libin Mall","High Prairie","AB","T0G 1E0","CA","125","780-523-9950","<MISSING>","55.4328776","-116.4963884","Sunday-opens:10:00-closes:18:00|Monday-opens:9:00-closes:21:00|Tuesday-opens:9:00-closes:21:00|Wednesday-opens:9:00-closes:21:00|Thursday-opens:9:00-closes:21:00|Friday-opens:9:00-closes:21:00|Saturday-opens:9:00-closes:19:00"
"http://www.redapplestores.com/locations.htm","Red Apple - Innisfail,AB","4804 50 Street Unit# 114-117","Innisfail","AB","T4G 1C2","CA","93","403-227-2777","<MISSING>","52.0287502","-113.946341","Sunday-opens:10:00-closes:18:00|Monday-opens:9:00-closes:19:00|Tuesday-opens:9:00-closes:19:00|Wednesday-opens:9:00-closes:19:00|Thursday-opens:9:00-closes:19:00|Friday-opens:9:00-closes:21:00|Saturday-opens:9:00-closes:19:00"
"http://www.redapplestores.com/locations.htm","Red Apple - La Crete,AB","10402 - 100 Street","La Crete","AB","T0H 2H0","CA","46","780-928-4004","<MISSING>","58.1912638","-116.404452","Sunday-opens:00:00-closes:00:00|Monday-opens:9:00-closes:19:00|Tuesday-opens:9:00-closes:19:00|Wednesday-opens:9:00-closes:19:00|Thursday-opens:9:00-closes:19:00|Friday-opens:9:00-closes:21:00|Saturday-opens:9:00-closes:19:00"
"http://www.redapplestores.com/locations.htm","Red Apple - Lac La Biche,AB","10032-101st Street","Lac La Biche","AB","T0A 2C0","CA","21","780-623-4623","<MISSING>","54.7702163","-111.9754338","Sunday-opens:10:00-closes:18:00|Monday-opens:9:00-closes:21:00|Tuesday-opens:9:00-closes:21:00|Wednesday-opens:9:00-closes:21:00|Thursday-opens:9:00-closes:21:00|Friday-opens:9:00-closes:21:00|Saturday-opens:9:00-closes:19:00"
"http://www.redapplestores.com/locations.htm","Red Apple - Lacombe,AB","5214-45th Street","Lacombe","AB","T4L 2A1","CA","23","403-782-3334","<MISSING>","52.4669572","-113.7229866","Sunday-opens:10:00-closes:18:00|Monday-opens:9:00-closes:20:00|Tuesday-opens:9:00-closes:20:00|Wednesday-opens:9:00-closes:20:00|Thursday-opens:9:00-closes:20:00|Friday-opens:9:00-closes:20:00|Saturday-opens:9:00-closes:19:00"
"http://www.redapplestores.com/locations.htm","Red Apple - Medicine Hat,AB","450 Third Street","Medicine Hat","AB","T1A 0H1","CA","44","403-528-4348","<MISSING>","50.0386864","-110.67868","Sunday-opens:10:00-closes:18:00|Monday-opens:9:00-closes:19:00|Tuesday-opens:9:00-closes:19:00|Wednesday-opens:9:00-closes:19:00|Thursday-opens:9:00-closes:19:00|Friday-opens:9:00-closes:21:00|Saturday-opens:9:00-closes:19:00"
"http://www.redapplestores.com/locations.htm","Red Apple - Peace River,AB","10122 100Th Street","Peace River","AB","T8S 1S7","CA","6","780-624-3277","<MISSING>","56.2312435","-117.2904457","Sunday-opens:10:00-closes:18:00|Monday-opens:9:00-closes:18:00|Tuesday-opens:9:00-closes:18:00|Wednesday-opens:9:00-closes:18:00|Thursday-opens:9:00-closes:19:00|Friday-opens:9:00-closes:21:00|Saturday-opens:9:00-closes:18:00"
"http://www.redapplestores.com/locations.htm","Red Apple - Ponoka,AB","5011 - 48th Avenue Unit #30","Ponoka","AB","T4J 1J3","CA","90","403-783-2929","<MISSING>","52.6744844","-113.5773102","Sunday-opens:10:00-closes:18:00|Monday-opens:9:00-closes:21:00|Tuesday-opens:9:00-closes:21:00|Wednesday-opens:9:00-closes:21:00|Thursday-opens:9:00-closes:21:00|Friday-opens:9:00-closes:21:00|Saturday-opens:09:00-closes:20:00"
"http://www.redapplestores.com/locations.htm","Red Apple - Provost,AB","5037 - 51 Avenue","Provost","AB","T0B 3S0","CA","105","780-753-4987","<MISSING>","52.3524997","-110.2655286","Sunday-opens:10:00-closes:18:00|Monday-opens:9:00-closes:19:00|Tuesday-opens:9:00-closes:19:00|Wednesday-opens:9:00-closes:19:00|Thursday-opens:9:00-closes:19:00|Friday-opens:9:00-closes:21:00|Saturday-opens:9:00-closes:19:00"
"http://www.redapplestores.com/locations.htm","Red Apple - Redwater,AB","4916-49 Avenue","Redwater","AB","T0A 2W0","CA","71","780-942-4022","<MISSING>","53.9503092","-113.1086229","Sunday-opens:10:00-closes:18:00|Monday-opens:8:00-closes:20:00|Tuesday-opens:8:00-closes:20:00|Wednesday-opens:8:00-closes:20:00|Thursday-opens:8:00-closes:20:00|Friday-opens:8:00-closes:20:00|Saturday-opens:9:00-closes:19:00"
"http://www.redapplestores.com/locations.htm","Red Apple - Rimbey,AB","4929 - 50th Avenue","Rimbey","AB","T0C 2J0","CA","82","403-843-4141","<MISSING>","52.6395726","-114.2374478","Sunday-opens:10:00-closes:18:00|Monday-opens:9:00-closes:19:00|Tuesday-opens:9:00-closes:19:00|Wednesday-opens:9:00-closes:19:00|Thursday-opens:9:00-closes:19:00|Friday-opens:9:00-closes:21:00|Saturday-opens:9:00-closes:19:00"
"http://www.redapplestores.com/locations.htm","Red Apple - Rocky Mountain House,AB","4904-50th Avenue","Rocky Mountain House","AB","T4T 1C1","CA","110","403-845-3465","<MISSING>","52.3744521","-114.9177132","Sunday-opens:10:00-closes:18:00|Monday-opens:9:00-closes:21:00|Tuesday-opens:9:00-closes:21:00|Wednesday-opens:9:00-closes:21:00|Thursday-opens:9:00-closes:21:00|Friday-opens:9:00-closes:21:00|Saturday-opens:09:00-closes:20:00"
"http://www.redapplestores.com/locations.htm","Red Apple - Stony Plain,AB","4401-48th Street Unit #151","Stony Plain","AB","T7Z 1N3","CA","147","780-968-3973","<MISSING>","53.5346685","-114.001776","Sunday-opens:10:00-closes:18:00|Monday-opens:09:00-closes:21:00|Tuesday-opens:09:00-closes:21:00|Wednesday-opens:09:00-closes:21:00|Thursday-opens:09:00-closes:21:00|Friday-opens:9:00-closes:21:00|Saturday-opens:9:00-closes:19:00"
"http://www.redapplestores.com/locations.htm","Red Apple - Three Hills,AB","130-4th Avenue","Three Hills","AB","T0M 2A0","CA","77","403-443-5313","<MISSING>","51.7052581","-113.2679506","Sunday-opens:10:00-closes:18:00|Monday-opens:9:00-closes:19:00|Tuesday-opens:9:00-closes:19:00|Wednesday-opens:9:00-closes:19:00|Thursday-opens:9:00-closes:19:00|Friday-opens:9:00-closes:21:00|Saturday-opens:9:00-closes:19:00"
"http://www.redapplestores.com/locations.htm","Red Apple - Valleyview,AB","4803 A 50th Avenue","Valleyview","AB","T0H 3N0","CA","95","780-524-3208","<MISSING>","55.0686135","-117.2776332","Sunday-opens:10:00-closes:18:00|Monday-opens:9:00-closes:19:00|Tuesday-opens:9:00-closes:19:00|Wednesday-opens:9:00-closes:19:00|Thursday-opens:9:00-closes:19:00|Friday-opens:9:00-closes:21:00|Saturday-opens:9:00-closes:19:00"
"http://www.redapplestores.com/locations.htm","Red Apple - Vermilion,AB","5018 - 51st Avenue","Vermilion","AB","T9X 1B3","CA","134","780-853-2456","<MISSING>","53.3548857","-110.8550269","Sunday-opens:10:00-closes:18:00|Monday-opens:9:00-closes:19:00|Tuesday-opens:9:00-closes:19:00|Wednesday-opens:9:00-closes:19:00|Thursday-opens:9:00-closes:19:00|Friday-opens:9:00-closes:21:00|Saturday-opens:9:00-closes:19:00"
"http://www.redapplestores.com/locations.htm","Red Apple - Westlock,AB","10720 100th Avenue","Westlock","AB","T7P 2J7","CA","24","780-349-6644","<MISSING>","54.1181875","-114.402905","Sunday-opens:10:00-closes:18:00|Monday-opens:9:00-closes:19:00|Tuesday-opens:9:00-closes:19:00|Wednesday-opens:9:00-closes:19:00|Thursday-opens:9:00-closes:19:00|Friday-opens:9:00-closes:21:00|Saturday-opens:9:00-closes:19:00"
"http://www.redapplestores.com/locations.htm","Red Apple - 100 Mile House,BC","575B Alder Ave Unit 10","100 Mile House","BC","V0K 2E0","CA","87","250-395-6045","<MISSING>","51.6400483","-121.2975095","Sunday-opens:10:00-closes:18:00|Monday-opens:9:00-closes:19:00|Tuesday-opens:9:00-closes:19:00|Wednesday-opens:9:00-closes:19:00|Thursday-opens:9:00-closes:19:00|Friday-opens:9:00-closes:21:00|Saturday-opens:9:00-closes:19:00"
"http://www.redapplestores.com/locations.htm","Red Apple - Agassiz,BC","7116 Pioneer Avenue","Agassiz","BC","V0M 1A0","CA","151","604-796-9591","<MISSING>","49.238805","-121.7630679","Sunday-opens:10:00-closes:18:00|Monday-opens:09:00-closes:21:00|Tuesday-opens:09:00-closes:21:00|Wednesday-opens:09:00-closes:21:00|Thursday-opens:09:00-closes:21:00|Friday-opens:9:00-closes:21:00|Saturday-opens:09:00-closes:20:00"
"http://www.redapplestores.com/locations.htm","Red Apple - Armstrong,BC","3305 Smith Drive RR1","Armstrong","BC","V0E 1B0","CA","149","250-546-2928","<MISSING>","50.446398","-119.1841779","Sunday-opens:10:00-closes:18:00|Monday-opens:09:00-closes:21:00|Tuesday-opens:09:00-closes:21:00|Wednesday-opens:09:00-closes:21:00|Thursday-opens:09:00-closes:21:00|Friday-opens:9:00-closes:21:00|Saturday-opens:09:00-closes:20:00"
"http://www.redapplestores.com/locations.htm","Red Apple - Burns Lake,BC","354 Highway 16 West","Burns Lake","BC","V0J 1E0","CA","155","250-692-0074","<MISSING>","54.2284323","-125.762207","Sunday-opens:10:00-closes:18:00|Monday-opens:9:00-closes:19:00|Tuesday-opens:9:00-closes:19:00|Wednesday-opens:9:00-closes:19:00|Thursday-opens:9:00-closes:19:00|Friday-opens:9:00-closes:21:00|Saturday-opens:9:00-closes:19:00"
"http://www.redapplestores.com/locations.htm","Red Apple - Chetwynd,BC","5300 North Access Road","Chetwynd","BC","V0C 1J0","CA","126","250-788-9607","<MISSING>","55.6964296","-121.6356684","Sunday-opens:10:00-closes:18:00|Monday-opens:9:00-closes:19:00|Tuesday-opens:9:00-closes:19:00|Wednesday-opens:9:00-closes:19:00|Thursday-opens:9:00-closes:19:00|Friday-opens:9:00-closes:21:00|Saturday-opens:9:00-closes:19:00"
"http://www.redapplestores.com/locations.htm","Red Apple - Creston,BC","1119 Canyon Street","Creston","BC","V0B 1G0","CA","89","250-402-6266","<MISSING>","49.0955213","-116.5113769","Sunday-opens:10:00-closes:18:00|Monday-opens:09:00-closes:20:00|Tuesday-opens:09:00-closes:20:00|Wednesday-opens:09:00-closes:20:00|Thursday-opens:09:00-closes:20:00|Friday-opens:9:00-closes:21:00|Saturday-opens:09:00-closes:20:00"
"http://www.redapplestores.com/locations.htm","Red Apple - Enderby,BC","507 Cliff Avenue","Enderby","BC","V0E 1V0","CA","47","250-838-0771","<MISSING>","50.5503054","-119.1379579","Sunday-opens:10:00-closes:18:00|Monday-opens:09:00-closes:21:00|Tuesday-opens:09:00-closes:21:00|Wednesday-opens:09:00-closes:21:00|Thursday-opens:09:00-closes:21:00|Friday-opens:9:00-closes:21:00|Saturday-opens:09:00-closes:20:00"
"http://www.redapplestores.com/locations.htm","Red Apple - Fernie,BC","1102 Hwy # 3","Fernie","BC","V0B 1M0","CA","38","250-423-3484","<MISSING>","49.6338915","-116.954608","Sunday-opens:10:00-closes:18:00|Monday-opens:09:00-closes:20:00|Tuesday-opens:09:00-closes:20:00|Wednesday-opens:09:00-closes:20:00|Thursday-opens:09:00-closes:20:00|Friday-opens:9:00-closes:21:00|Saturday-opens:09:00-closes:20:00"
"http://www.redapplestores.com/locations.htm","Red Apple - Fort Nelson,BC","5104 Liard Street","Fort Nelson","BC","V0C 1R0","CA","154","250 774-7740","<MISSING>","58.807581","-122.701216","Sunday-opens:10:00-closes:18:00|Monday-opens:9:00-closes:20:00|Tuesday-opens:9:00-closes:20:00|Wednesday-opens:9:00-closes:20:00|Thursday-opens:9:00-closes:20:00|Friday-opens:9:00-closes:21:00|Saturday-opens:9:00-closes:20:00"
"http://www.redapplestores.com/locations.htm","Red Apple - Fort St. James,BC","289 Stuart Drive West","Fort St. James","BC","V0J 1P0","CA","156","250 996-0246","<MISSING>","54.442579","-124.2557624","Sunday-opens:10:00-closes:18:00|Monday-opens:9:00-closes:21:00|Tuesday-opens:9:00-closes:21:00|Wednesday-opens:9:00-closes:21:00|Thursday-opens:9:00-closes:21:00|Friday-opens:9:00-closes:21:00|Saturday-opens:09:00-closes:19:00"
"http://www.redapplestores.com/locations.htm","Red Apple - Gibsons,BC","876 Gibsons Way","Gibsons","BC","V0N 1V7","CA","123","604-886-8949","<MISSING>","49.4067319","-123.5181367","Sunday-opens:10:00-closes:18:00|Monday-opens:9:00-closes:20:00|Tuesday-opens:9:00-closes:20:00|Wednesday-opens:9:00-closes:20:00|Thursday-opens:9:00-closes:20:00|Friday-opens:9:00-closes:21:00|Saturday-opens:9:00-closes:20:00"
"http://www.redapplestores.com/locations.htm","Red Apple - Golden,BC","619 - 9th Avenue North","Golden","BC","V0A 1H0","CA","14","250-344-4630","<MISSING>","51.3022762","-116.9687219","Sunday-opens:10:00-closes:18:00|Monday-opens:9:00-closes:20:00|Tuesday-opens:9:00-closes:20:00|Wednesday-opens:9:00-closes:20:00|Thursday-opens:9:00-closes:20:00|Friday-opens:9:00-closes:21:00|Saturday-opens:09:00-closes:20:00"
"http://www.redapplestores.com/locations.htm","Red Apple - Invermere,BC","755-13th Street","Invermere","BC","V0A 1K0","CA","80","250-342-0548","<MISSING>","50.5031628","-116.0290737","Sunday-opens:10:00-closes:18:00|Monday-opens:9:00-closes:21:00|Tuesday-opens:9:00-closes:21:00|Wednesday-opens:9:00-closes:21:00|Thursday-opens:9:00-closes:21:00|Friday-opens:9:00-closes:21:00|Saturday-opens:09:00-closes:20:00"
"http://www.redapplestores.com/locations.htm","Red Apple - Mackenzie,BC","403 MacKenzie Blvd. Unit#100","Mackenzie","BC","V0J 2C0","CA","88","250-997-5722","<MISSING>","55.3396415","-123.0909537","Sunday-opens:10:00-closes:18:00|Monday-opens:9:00-closes:19:00|Tuesday-opens:9:00-closes:19:00|Wednesday-opens:9:00-closes:19:00|Thursday-opens:9:00-closes:19:00|Friday-opens:9:00-closes:19:00|Saturday-opens:9:00-closes:18:00"
"http://www.redapplestores.com/locations.htm","Red Apple - New Hazelton,BC","4553 10th Avenue","New Hazelton","BC","V0J 2J0","CA","152","250-842-0169","<MISSING>","55.2466376","-127.6016609","Sunday-opens:10:00-closes:18:00|Monday-opens:9:00-closes:19:00|Tuesday-opens:9:00-closes:19:00|Wednesday-opens:9:00-closes:19:00|Thursday-opens:9:00-closes:19:00|Friday-opens:9:00-closes:21:00|Saturday-opens:9:00-closes:19:00"
"http://www.redapplestores.com/locations.htm","Red Apple - Oliver,BC","5955 Main Street Unit#1360","Oliver","BC","V0H 1T0","CA","113","250-498-4802","<MISSING>","49.1780611","-119.5519719","Sunday-opens:10:00-closes:18:00|Monday-opens:09:00-closes:21:00|Tuesday-opens:09:00-closes:21:00|Wednesday-opens:09:00-closes:21:00|Thursday-opens:09:00-closes:21:00|Friday-opens:09:00-closes:21:00|Saturday-opens:09:00-closes:20:00"
"http://www.redapplestores.com/locations.htm","Red Apple - Osoyoos,BC","9150 Main Street","Osoyoos","BC","V0H 1V0","CA","150","250-495-5448","<MISSING>","49.0356634","-119.4729335","Sunday-opens:10:00-closes:18:00|Monday-opens:09:00-closes:21:00|Tuesday-opens:09:00-closes:21:00|Wednesday-opens:09:00-closes:21:00|Thursday-opens:09:00-closes:21:00|Friday-opens:9:00-closes:21:00|Saturday-opens:09:00-closes:20:00"
"http://www.redapplestores.com/locations.htm","Red Apple - Parksville,BC","Unit#10 - 826 Island Highway West","Parksville","BC","V9P 2B7","CA","140","250-248-8845","<MISSING>","49.3228563","-124.3229842","Sunday-opens:10:00-closes:18:00|Monday-opens:9:00-closes:21:00|Tuesday-opens:9:00-closes:21:00|Wednesday-opens:9:00-closes:21:00|Thursday-opens:9:00-closes:21:00|Friday-opens:9:00-closes:21:00|Saturday-opens:09:00-closes:20:00"
"http://www.redapplestores.com/locations.htm","Red Apple - Port Hardy,BC","8775 Granville Street","Port Hardy","BC","V0N 2P0","CA","114","250-902-0460","<MISSING>","50.7210776","-127.4948676","Sunday-opens:10:00-closes:18:00|Monday-opens:9:00-closes:19:00|Tuesday-opens:9:00-closes:19:00|Wednesday-opens:9:00-closes:19:00|Thursday-opens:9:00-closes:19:00|Friday-opens:9:00-closes:21:00|Saturday-opens:9:00-closes:19:00"
"http://www.redapplestores.com/locations.htm","Red Apple - Port McNeill,BC","311 Hemlock Street","Port McNeill","BC","V0N 2R0","CA","92","250-956-2129","<MISSING>","50.5877604","-127.0839055","Sunday-opens:10:00-closes:18:00|Monday-opens:9:00-closes:19:00|Tuesday-opens:9:00-closes:19:00|Wednesday-opens:9:00-closes:19:00|Thursday-opens:9:00-closes:19:00|Friday-opens:9:00-closes:21:00|Saturday-opens:9:00-closes:19:00"
"http://www.redapplestores.com/locations.htm","Red Apple - Prince Rupert,BC","405 West Third","Prince Rupert","BC","V8J 1L6","CA","18","250-624-4226","<MISSING>","54.3127756","-130.3247299","Sunday-opens:10:00-closes:18:00|Monday-opens:9:00-closes:19:00|Tuesday-opens:9:00-closes:19:00|Wednesday-opens:9:00-closes:19:00|Thursday-opens:9:00-closes:19:00|Friday-opens:9:00-closes:21:00|Saturday-opens:9:00-closes:19:00"
"http://www.redapplestores.com/locations.htm","Red Apple - Revelstoke,BC","406 First Street West","Revelstoke","BC","V0E 2S0","CA","139","250-837-7105","<MISSING>","51.0007414","-118.1975274","Sunday-closes:18:00-|Monday-opens:09:00-closes:21:00|Tuesday-opens:09:00-closes:21:00|Wednesday-opens:09:00-closes:21:00|Thursday-opens:09:00-closes:21:00|Saturday-opens:09:00-closes:20:00"
"http://www.redapplestores.com/locations.htm","Red Apple - Sicamous,BC","1133 Eagle Pass Way #1","Sicamous","BC","V0E 2V0","CA","69","250-836-4956","<MISSING>","50.8356553","-118.9790637","Sunday-opens:10:00-closes:18:00|Monday-opens:09:00-closes:21:00|Tuesday-opens:09:00-closes:21:00|Wednesday-opens:09:00-closes:21:00|Thursday-opens:09:00-closes:21:00|Friday-opens:9:00-closes:21:00|Saturday-opens:09:00-closes:20:00"
"http://www.redapplestores.com/locations.htm","Red Apple - Smithers,BC","1321 Queen Street","Smithers","BC","V0J 2N0","CA","135","250-847-8704","<MISSING>","54.7831285","-127.170091","Sunday-opens:10:00-closes:18:00|Monday-opens:9:00-closes:20:00|Tuesday-opens:9:00-closes:20:00|Wednesday-opens:9:00-closes:20:00|Thursday-opens:9:00-closes:20:00|Friday-opens:9:00-closes:21:00|Saturday-opens:9:00-closes:20:00"
"http://www.redapplestores.com/locations.htm","Red Apple - Sparwood,BC","101 Red Cedar Drive Unit 22-46","Sparwood","BC","V0B 2G0","CA","85","250-425-2521","<MISSING>","49.7319226","-114.8843557","Sunday-opens:10:00-closes:18:00|Monday-opens:09:00-closes:20:00|Tuesday-opens:09:00-closes:20:00|Wednesday-opens:09:00-closes:20:00|Thursday-opens:09:00-closes:20:00|Friday-opens:9:00-closes:21:00|Saturday-opens:09:00-closes:20:00"
"http://www.redapplestores.com/locations.htm","Red Apple - Altona,MB","257 Center Ave East","Altona","MB","R0G 0B0","CA","42","204-324-9429","<MISSING>","49.1035271","-97.5507501","Sunday-opens:12:00-closes:18:00|Monday-opens:9:00-closes:19:00|Tuesday-opens:9:00-closes:19:00|Wednesday-opens:9:00-closes:19:00|Thursday-opens:9:00-closes:19:00|Friday-opens:9:00-closes:21:00|Saturday-opens:9:00-closes:19:00"
"http://www.redapplestores.com/locations.htm","Red Apple - Arborg,MB","266 Main St.","Arborg","MB","R0C 0A0","CA","61","204-376-5230","<MISSING>","50.9070562","-97.218066","Sunday-opens:12:00-closes:18:00|Monday-opens:9:00-closes:19:00|Tuesday-opens:9:00-closes:19:00|Wednesday-opens:9:00-closes:19:00|Thursday-opens:9:00-closes:19:00|Friday-opens:9:00-closes:21:00|Saturday-opens:9:00-closes:19:00"
"http://www.redapplestores.com/locations.htm","Red Apple - Beausejour,MB","518 Park Ave.","Beausejour","MB","R0E 0C0","CA","91","204-268-4844","<MISSING>","50.0617784","-96.5172434","Sunday-opens:12:00-closes:18:00|Monday-opens:9:00-closes:19:00|Tuesday-opens:9:00-closes:19:00|Wednesday-opens:9:00-closes:19:00|Thursday-opens:9:00-closes:19:00|Friday-opens:9:00-closes:21:00|Saturday-opens:9:00-closes:19:00"
"http://www.redapplestores.com/locations.htm","Red Apple - Carman,MB","35 Main Street North","Carman","MB","R0G 0J0","CA","101","204-745-2167","<MISSING>","49.5094278","-98.0015817","Sunday-opens:12:00-closes:18:00|Monday-opens:9:00-closes:19:00|Tuesday-opens:9:00-closes:19:00|Wednesday-opens:9:00-closes:19:00|Thursday-opens:9:00-closes:19:00|Friday-opens:9:00-closes:21:00|Saturday-opens:9:00-closes:19:00"
"http://www.redapplestores.com/locations.htm","Red Apple - Dauphin,MB","1450 Main Street South","Dauphin","MB","R7N 3H4","CA","128","204-638-1264","<MISSING>","51.1361752","-100.0628258","Sunday-opens:10:00-closes:18:00|Monday-opens:9:00-closes:21:00|Tuesday-opens:9:00-closes:21:00|Wednesday-opens:9:00-closes:21:00|Thursday-opens:9:00-closes:21:00|Friday-opens:9:00-closes:21:00|Saturday-opens:9:00-closes:21:00"
"http://www.redapplestores.com/locations.htm","Red Apple - Flin Flon,MB","71 Main Street","Flin Flon","MB","R8A 1J9","CA","12","204-687-4700","<MISSING>","54.7662895","-101.8762693","Sunday-opens:12:00-closes:18:00|Monday-opens:09:00-closes:20:00|Tuesday-opens:09:00-closes:20:00|Wednesday-opens:09:00-closes:20:00|Thursday-opens:09:00-closes:20:00|Friday-opens:09:00-closes:20:00|Saturday-opens:09:00-closes:18:00"
"http://www.redapplestores.com/locations.htm","Red Apple - Gimli,MB","46 Centre St.","Gimli","MB","R0C 1B0","CA","145","204-642-7851","<MISSING>","50.6319806","-96.9897878","Sunday-opens:12:00-closes:18:00|Monday-opens:09:00-closes:21:00|Tuesday-opens:09:00-closes:21:00|Wednesday-opens:09:00-closes:21:00|Thursday-opens:09:00-closes:21:00|Friday-opens:9:00-closes:21:00|Saturday-opens:09:00-closes:21:00"
"http://www.redapplestores.com/locations.htm","Red Apple - Killarney,MB","333 Broadway Ave.","Killarney","MB","R0K 1G0","CA","27","204-523-7233","<MISSING>","49.1816007","-99.6652494","Sunday-opens:12:00-closes:18:00|Monday-opens:9:00-closes:19:00|Tuesday-opens:9:00-closes:19:00|Wednesday-opens:9:00-closes:19:00|Thursday-opens:9:00-closes:19:00|Friday-opens:9:00-closes:21:00|Saturday-opens:9:00-closes:19:00"
"http://www.redapplestores.com/locations.htm","Red Apple - Lac du Bonnet,MB","63-2nd St.","Lac du Bonnet","MB","R0E 1A0","CA","28","204-345-2794","<MISSING>","50.2573128","-96.0616812","Sunday-opens:12:00-closes:18:00|Monday-opens:9:00-closes:19:00|Tuesday-opens:9:00-closes:19:00|Wednesday-opens:9:00-closes:19:00|Thursday-opens:9:00-closes:19:00|Friday-opens:9:00-closes:21:00|Saturday-opens:9:00-closes:19:00"
"http://www.redapplestores.com/locations.htm","Red Apple - Minnedosa,MB","109 Main Street North","Minnedosa","MB","R0J 1E0","CA","116","204-867-2522","<MISSING>","50.2518716","-99.8388894","Sunday-opens:12:00-closes:18:00|Monday-opens:9:00-closes:19:00|Tuesday-opens:9:00-closes:19:00|Wednesday-opens:9:00-closes:19:00|Thursday-opens:9:00-closes:19:00|Friday-opens:9:00-closes:21:00|Saturday-opens:9:00-closes:19:00"
"http://www.redapplestores.com/locations.htm","Red Apple - Neepawa,MB","385 Mountain Avenue","Neepawa","MB","R0J 1H0","CA","94","204-476-3570","<MISSING>","50.2301313","-99.4664052","Sunday-opens:12:00-closes:18:00|Monday-opens:09:00-closes:19:00|Tuesday-opens:09:00-closes:19:00|Wednesday-opens:09:00-closes:19:00|Thursday-opens:09:00-closes:19:00|Friday-opens:9:00-closes:21:00|Saturday-opens:09:00-closes:19:00"
"http://www.redapplestores.com/locations.htm","Red Apple - Portage La Prairie,MB","80 Saskatchewan Avenue East","Portage La Prairie","MB","R1N 0L2","CA","127","204-239-7123","<MISSING>","49.9731482","-98.290384","Sunday-opens:12:00-closes:18:00|Monday-opens:9:00-closes:19:00|Tuesday-opens:9:00-closes:19:00|Wednesday-opens:9:00-closes:19:00|Thursday-opens:9:00-closes:19:00|Friday-opens:9:00-closes:21:00|Saturday-opens:9:00-closes:19:00"
"http://www.redapplestores.com/locations.htm","Red Apple - Roblin,MB","245 Main Street","Roblin","MB","R0L 1P0","CA","29","204-937-2424","<MISSING>","51.2310885","-101.3461938","Sunday-opens:12:00-closes:18:00|Monday-opens:9:00-closes:19:00|Tuesday-opens:9:00-closes:19:00|Wednesday-opens:9:00-closes:19:00|Thursday-opens:9:00-closes:19:00|Friday-opens:9:00-closes:21:00|Saturday-opens:9:00-closes:19:00"
"http://www.redapplestores.com/locations.htm","Red Apple - Russell,MB","175 Main Street","Russell","MB","R0J 1W0","CA","115","204-773-3398","<MISSING>","50.7774228","-101.2878825","Sunday-opens:12:00-closes:18:00|Monday-opens:09:00-closes:20:00|Tuesday-opens:09:00-closes:20:00|Wednesday-opens:09:00-closes:20:00|Thursday-opens:09:00-closes:20:00|Friday-opens:09:00-closes:20:00|Saturday-opens:09:00-closes:20:00"
"http://www.redapplestores.com/locations.htm","Red Apple - Steinbach,MB","20 Brant Road, Unit #9","Steinbach","MB","R5G 1Y2","CA","43","204-326-1361","<MISSING>","49.5315733","-96.6898011","Sunday-opens:12:00-closes:18:00|Monday-opens:09:00-closes:20:00|Tuesday-opens:09:00-closes:20:00|Wednesday-opens:09:00-closes:20:00|Thursday-opens:09:00-closes:20:00|Friday-opens:09:00-closes:20:00|Saturday-opens:9:00-closes:19:00"
"http://www.redapplestores.com/locations.htm","Red Apple - Stonewall,MB","436 Main Street","Stonewall","MB","R0C 2Z0","CA","117","204-467-2920","<MISSING>","50.1321683","-97.3266833","Sunday-opens:12:00-closes:18:00|Monday-opens:9:00-closes:19:00|Tuesday-opens:9:00-closes:19:00|Wednesday-opens:9:00-closes:19:00|Thursday-opens:9:00-closes:19:00|Friday-opens:9:00-closes:21:00|Saturday-opens:9:00-closes:19:00"
"http://www.redapplestores.com/locations.htm","Red Apple - Swan River,MB","111- 5th Avenue North","Swan River","MB","R0L 1Z0","CA","41","204-734-7697","<MISSING>","52.1060742","-101.269406","Sunday-opens:12:00-closes:18:00|Monday-opens:09:00-closes:21:00|Tuesday-opens:09:00-closes:21:00|Wednesday-opens:09:00-closes:21:00|Thursday-opens:09:00-closes:21:00|Friday-opens:9:00-closes:21:00|Saturday-opens:9:00-closes:19:00"
"http://www.redapplestores.com/locations.htm","Red Apple - Teulon,MB","65 Main Street","Teulon","MB","R0C 3B0","CA","104","204-886-2020","<MISSING>","50.3866513","-97.2631537","Sunday-opens:12:00-closes:18:00|Monday-opens:9:00-closes:19:00|Tuesday-opens:9:00-closes:19:00|Wednesday-opens:9:00-closes:19:00|Thursday-opens:9:00-closes:19:00|Friday-opens:9:00-closes:21:00|Saturday-opens:9:00-closes:19:00"
"http://www.redapplestores.com/locations.htm","Red Apple - The Pas,MB","Highway 10 North (Otineka Mall)","The Pas","MB","R9A 1K4","CA","30","204-623-7181","<MISSING>","53.8344032","-101.2625383","Sunday-opens:12:00-closes:18:00|Monday-opens:9:00-closes:21:00|Tuesday-opens:9:00-closes:21:00|Wednesday-opens:9:00-closes:21:00|Thursday-opens:9:00-closes:21:00|Friday-opens:9:00-closes:21:00|Saturday-opens:9:00-closes:18:00"
"http://www.redapplestores.com/locations.htm","Red Apple - Virden,MB","135 Wellington St. West","Virden","MB","R0M 2C0","CA","19","204-748-2850","<MISSING>","42.0392088","-82.7393927","Sunday-opens:12:00-closes:18:00|Monday-opens:9:00-closes:19:00|Tuesday-opens:9:00-closes:19:00|Wednesday-opens:9:00-closes:19:00|Thursday-opens:9:00-closes:19:00|Friday-opens:9:00-closes:21:00|Saturday-opens:9:00-closes:19:00"
"http://www.redapplestores.com/locations.htm","Red Apple - Florenceville,NB","8764 Main Street","Florenceville","NB","E7L 3G3","CA","153","506-278-5103","<MISSING>","46.4429851","-67.6186218","Sunday-opens:10:00-closes:18:00|Monday-opens:9:00-closes:19:00|Tuesday-opens:9:00-closes:19:00|Wednesday-opens:9:00-closes:19:00|Thursday-opens:9:00-closes:21:00|Friday-opens:9:00-closes:21:00|Saturday-opens:9:00-closes:19:00"
"http://www.redapplestores.com/locations.htm","Red Apple - Goose Bay,NL","388 Hamilton River Rd. Stn C","Goose Bay","NL","A0P 1C0","CA","11","709-896-5429","<MISSING>","53.3091069","-60.3767757","Sunday-closes:18:00-|Monday-closes:21:00-|Tuesday-closes:21:00-|Wednesday-closes:21:00-|Thursday-closes:21:00-|Friday-closes:21:00-|Saturday-opens:09:00-closes:21:00"
"http://www.redapplestores.com/locations.htm","Red Apple - Labrador City,NL","208 Humber Ave (Carol Lake S.C.)","Labrador City","NL","A2V 1K9","CA","4","709-944-6961","<MISSING>","52.943228","-66.910637","Sunday-opens:10:00-closes:18:00|Monday-opens:9:00-closes:21:00|Tuesday-opens:9:00-closes:21:00|Wednesday-opens:9:00-closes:21:00|Thursday-opens:9:00-closes:21:00|Friday-opens:9:00-closes:21:00|Saturday-opens:9:00-closes:19:00"
"http://www.redapplestores.com/locations.htm","Red Apple - St. Anthony,NL","1-25 Goose Cove Rd, Viking Mall","St. Anthony","NL","A0K 4S0","CA","16","709-454-3264","<MISSING>","51.3720763","-55.6002139","Sunday-closes:17:00-|Monday-closes:18:00-|Tuesday-closes:18:00-|Wednesday-closes:18:00-|Thursday-closes:21:00-|Friday-closes:21:00-|Saturday-opens:09:00-closes:19:00"
"http://www.redapplestores.com/locations.htm","Red Apple - Barrington Passage,NS","3541 Highway # 3","Barrington Passage","NS","B0W 1G0","CA","103","902-637-2019","<MISSING>","43.5270113","-65.6095196","Sunday-opens:11:00-closes:17:00|Monday-opens:9:00-closes:19:00|Tuesday-opens:9:00-closes:19:00|Wednesday-opens:9:00-closes:19:00|Thursday-opens:09:00-closes:19:00|Friday-opens:09:00-closes:20:00|Saturday-opens:9:00-closes:19:00"
"http://www.redapplestores.com/locations.htm","Red Apple - Cheticamp,NS","15418 Cabot Trail","Cheticamp","NS","B0E 1H0","CA","64","902-224-2477","<MISSING>","46.6358435","-61.0081071","Sunday-opens:11:00-closes:17:00|Monday-opens:09:00-closes:21:00|Tuesday-opens:09:00-closes:21:00|Wednesday-opens:09:00-closes:21:00|Thursday-opens:09:00-closes:21:00|Friday-opens:9:00-closes:21:00|Saturday-opens:9:00-closes:19:00"
"http://www.redapplestores.com/locations.htm","Red Apple - Glace Bay,NS","185 Commercial St.","Glace Bay","NS","B1A 3B9","CA","25","902-849-1088","<MISSING>","46.1957697","-59.9561756","Sunday-opens:10:00-closes:17:00|Monday-opens:9:00-closes:19:00|Tuesday-opens:9:00-closes:19:00|Wednesday-opens:9:00-closes:19:00|Thursday-opens:9:00-closes:19:00|Friday-opens:9:00-closes:21:00|Saturday-opens:9:00-closes:19:00"
"http://www.redapplestores.com/locations.htm","Red Apple - New Waterford,NS","3505 Plummer Ave.","New Waterford","NS","B1H 1Z8","CA","7","902-862-8953","<MISSING>","46.2489925","-60.0919492","Sunday-opens:10:00-closes:18:00|Monday-opens:9:00-closes:19:00|Tuesday-opens:9:00-closes:19:00|Wednesday-opens:9:00-closes:19:00|Thursday-opens:9:00-closes:19:00|Friday-opens:09:00-closes:19:00|Saturday-opens:09:00-closes:19:00"
"http://www.redapplestores.com/locations.htm","Red Apple - Shelburne,NS","115 King St #100","Shelburne","NS","B0T 1W0","CA","142","902-875-1405","<MISSING>","43.7669291","-65.3117002","Sunday-opens:10:00-closes:18:00|Monday-opens:9:00-closes:19:00|Tuesday-opens:9:00-closes:19:00|Wednesday-opens:9:00-closes:19:00|Thursday-opens:9:00-closes:19:00|Friday-opens:9:00-closes:21:00|Saturday-opens:9:00-closes:19:00"
"http://www.redapplestores.com/locations.htm","Red Apple - Atikokan,ON","102-104 Main Street","Atikokan","ON","P0T 1C0","CA","118","807-597-6071","<MISSING>","48.7575366","-91.6214543","Sunday-opens:11:00-closes:17:00|Monday-opens:9:00-closes:19:00|Tuesday-opens:9:00-closes:19:00|Wednesday-opens:9:00-closes:19:00|Thursday-opens:9:00-closes:19:00|Friday-opens:09:00-closes:20:00|Saturday-opens:9:00-closes:19:00"
"http://www.redapplestores.com/locations.htm","Red Apple - Aylmer,ON","154 Talbot Street West, Unit #1","Aylmer","ON","N5H 1K1","CA","73","519-765-1887","<MISSING>","42.7730642","-80.9856811","Sunday-opens:10:00-closes:18:00|Monday-opens:9:00-closes:19:00|Tuesday-opens:9:00-closes:19:00|Wednesday-opens:9:00-closes:19:00|Thursday-opens:9:00-closes:19:00|Friday-opens:9:00-closes:21:00|Saturday-opens:9:00-closes:19:00"
"http://www.redapplestores.com/locations.htm","Red Apple - Blind River,ON","105 Causley St.","Blind River","ON","P0R 1B0","CA","79","705-356-6225","<MISSING>","46.1838534","-82.9491938","Sunday-opens:10:00-closes:18:00|Monday-opens:9:00-closes:19:00|Tuesday-opens:9:00-closes:19:00|Wednesday-opens:9:00-closes:19:00|Thursday-opens:9:00-closes:19:00|Friday-opens:9:00-closes:21:00|Saturday-opens:9:00-closes:19:00"
"http://www.redapplestores.com/locations.htm","Red Apple - Brighton,ON","41 Prince Edward St.","Brighton","ON","K0K 1H0","CA","51","613-475-9520","<MISSING>","44.0411012","-77.7364911","Sunday-opens:10:00-closes:18:00|Monday-opens:9:00-closes:19:00|Tuesday-opens:9:00-closes:19:00|Wednesday-opens:9:00-closes:19:00|Thursday-opens:9:00-closes:19:00|Friday-opens:9:00-closes:21:00|Saturday-opens:9:00-closes:19:00"
"http://www.redapplestores.com/locations.htm","Red Apple - Chapleau,ON","54 Birch Street","Chapleau","ON","P0M 1K0","CA","62","705-864-2294","<MISSING>","47.8433329","-83.3999758","Sunday-opens:10:00-closes:18:00|Monday-opens:9:00-closes:19:00|Tuesday-opens:9:00-closes:19:00|Wednesday-opens:9:00-closes:19:00|Thursday-opens:09:00-closes:20:00|Friday-opens:09:00-closes:20:00|Saturday-opens:9:00-closes:19:00"
"http://www.redapplestores.com/locations.htm","Red Apple - Crystal Beach,ON","3874 Rebstock Rd","Crystal Beach","ON","L0S 1B0","CA","65","905-894-5682","<MISSING>","42.8710069","-79.0589094","Sunday-closes:18:00-|Monday-opens:09:00-closes:19:00|Tuesday-opens:09:00-closes:19:00|Wednesday-opens:09:00-closes:19:00|Thursday-opens:09:00-closes:19:00|Saturday-closes:19:00-|"
"http://www.redapplestores.com/locations.htm","Red Apple - Elmira,ON","44 Arthur St South","Elmira","ON","N3B 2M7","CA","84","519-669-5071","<MISSING>","43.5987245","-80.5586512","Sunday-opens:10:00-closes:18:00|Monday-opens:9:00-closes:19:00|Tuesday-opens:9:00-closes:19:00|Wednesday-opens:9:00-closes:19:00|Thursday-opens:9:00-closes:19:00|Friday-opens:9:00-closes:21:00|Saturday-opens:9:00-closes:19:00"
"http://www.redapplestores.com/locations.htm","Red Apple - Essex,ON","102 Talbot Street North","Essex","ON","N8M 2C4","CA","49","519-776-7996","<MISSING>","42.175953","-82.8236955","Sunday-opens:10:00-closes:18:00|Monday-opens:9:00-closes:19:00|Tuesday-opens:9:00-closes:19:00|Wednesday-opens:9:00-closes:19:00|Thursday-opens:9:00-closes:19:00|Friday-opens:9:00-closes:21:00|Saturday-opens:9:00-closes:19:00"
"http://www.redapplestores.com/locations.htm","Red Apple - Fenelon Falls,ON","14 Colborne St.","Fenelon Falls","ON","K0M 1N0","CA","66","705-887-4243","<MISSING>","44.5439625","-78.7311758","Sunday-opens:10:00-closes:18:00|Monday-opens:9:00-closes:19:00|Tuesday-opens:9:00-closes:19:00|Wednesday-opens:9:00-closes:19:00|Thursday-opens:9:00-closes:19:00|Friday-opens:9:00-closes:21:00|Saturday-opens:9:00-closes:19:00"
"http://www.redapplestores.com/locations.htm","Red Apple - Forest,ON","6 Main Street South","Forest","ON","N0N 1J0","CA","119","519-786-3044","<MISSING>","43.0965556","-82.000453","Sunday-closes:18:00-|Monday-opens:09:00-closes:19:00|Tuesday-opens:09:00-closes:19:00|Wednesday-opens:09:00-closes:19:00|Thursday-opens:09:00-closes:19:00|Saturday-closes:19:00-|"
"http://www.redapplestores.com/locations.htm","Red Apple - Fort Frances,ON","360 Scott Street","Fort Frances","ON","P9A 1G9","CA","70","807-274-0808","<MISSING>","48.61","-93.3939459","Sunday-opens:10:00-closes:18:00|Monday-opens:9:00-closes:19:00|Tuesday-opens:9:00-closes:19:00|Wednesday-opens:9:00-closes:19:00|Thursday-opens:9:00-closes:19:00|Friday-opens:9:00-closes:21:00|Saturday-opens:9:00-closes:19:00"
"http://www.redapplestores.com/locations.htm","Red Apple - Geraldton,ON","206-210 Main St.","Geraldton","ON","P0T 1M0","CA","63","807-854-0694","<MISSING>","49.7247736","-86.9487781","Sunday-opens:10:00-closes:18:00|Monday-opens:9:00-closes:19:00|Tuesday-opens:9:00-closes:19:00|Wednesday-opens:9:00-closes:19:00|Thursday-opens:9:00-closes:19:00|Friday-opens:9:00-closes:21:00|Saturday-opens:9:00-closes:19:00"
"http://www.redapplestores.com/locations.htm","Red Apple - Hearst,ON","1315 Front Street","Hearst","ON","P0L 1N0","CA","98","705-362-4852","<MISSING>","49.6906006","-83.6759681","Sunday-opens:11:00-closes:17:00|Monday-opens:9:00-closes:19:00|Tuesday-opens:9:00-closes:19:00|Wednesday-opens:9:00-closes:19:00|Thursday-opens:9:00-closes:19:00|Friday-opens:9:00-closes:21:00|Saturday-opens:09:00-closes:18:00"
"http://www.redapplestores.com/locations.htm","Red Apple - Iroquois Falls,ON","288 Cambridge Avenue","Iroquois Falls","ON","P0K 1E0","CA","122","705-232-4811","<MISSING>","48.4767054","-81.3230658","Sunday-opens:10:00-closes:18:00|Monday-opens:9:00-closes:19:00|Tuesday-opens:9:00-closes:19:00|Wednesday-opens:9:00-closes:19:00|Thursday-opens:9:00-closes:19:00|Friday-opens:9:00-closes:21:00|Saturday-opens:9:00-closes:19:00"
"http://www.redapplestores.com/locations.htm","Red Apple - Kenora,ON","119-123 Main Street","Kenora","ON","P9N 1T1","CA","17","807-468-9015","<MISSING>","49.7670701","-94.4905178","Sunday-opens:10:00-closes:18:00|Monday-opens:09:00-closes:20:00|Tuesday-opens:09:00-closes:20:00|Wednesday-opens:09:00-closes:20:00|Thursday-opens:09:00-closes:20:00|Friday-opens:09:00-closes:20:00|Saturday-opens:09:00-closes:20:00"
"http://www.redapplestores.com/locations.htm","Red Apple - Kincardine,ON","Sutton Park Mall, 665 Philip Place","Kincardine","ON","N2Z 2E3","CA","132","519-396-4919","<MISSING>","44.1804067","-81.6161486","Sunday-opens:10:00-closes:18:00|Monday-opens:09:00-closes:20:00|Tuesday-opens:09:00-closes:20:00|Wednesday-opens:09:00-closes:20:00|Thursday-opens:09:00-closes:20:00|Friday-opens:9:00-closes:21:00|Saturday-opens:9:00-closes:19:00"
"http://www.redapplestores.com/locations.htm","Red Apple - Kingsville,ON","33 Division Street North","Kingsville","ON","N9Y 1E1","CA","60","519-733-3744","<MISSING>","42.0392088","-82.7393927","Sunday-opens:10:00-closes:18:00|Monday-opens:9:00-closes:19:00|Tuesday-opens:9:00-closes:19:00|Wednesday-opens:9:00-closes:19:00|Thursday-opens:9:00-closes:19:00|Friday-opens:9:00-closes:21:00|Saturday-opens:9:00-closes:19:00"
"http://www.redapplestores.com/locations.htm","Red Apple - Manitouwadge,ON","21 Huron Walk","Manitouwadge","ON","P0T 2C0","CA","31","807-826-3873","<MISSING>","49.1268094","-85.8274222","Sunday-opens:11:00-closes:17:00|Monday-opens:9:00-closes:19:00|Tuesday-opens:9:00-closes:19:00|Wednesday-opens:9:00-closes:19:00|Thursday-opens:9:00-closes:19:00|Friday-opens:9:00-closes:21:00|Saturday-opens:9:00-closes:19:00"
"http://www.redapplestores.com/locations.htm","Red Apple - Marathon,ON","2 Hemlo Road, Unit #21","Marathon","ON","P0T 2E0","CA","120","807-229-9208","<MISSING>","48.7216453","-86.3735898","Sunday-opens:10:00-closes:18:00|Monday-opens:9:00-closes:19:00|Tuesday-opens:9:00-closes:19:00|Wednesday-opens:9:00-closes:19:00|Thursday-opens:9:00-closes:19:00|Friday-opens:9:00-closes:21:00|Saturday-opens:9:00-closes:19:00"
"http://www.redapplestores.com/locations.htm","Red Apple - Meaford,ON","206497 Highway 26, Unit #2-4, RR#4","Meaford","ON","N4L 1W7","CA","74","519-538-0695","<MISSING>","44.5942955","-80.5798901","Sunday-opens:10:00-closes:18:00|Monday-opens:9:00-closes:19:00|Tuesday-opens:9:00-closes:19:00|Wednesday-opens:9:00-closes:19:00|Thursday-opens:9:00-closes:19:00|Friday-opens:9:00-closes:21:00|Saturday-opens:9:00-closes:19:00"
"http://www.redapplestores.com/locations.htm","Red Apple - Nipigon,ON","56 Front Street","Nipigon","ON","P0T 2J0","CA","144","807-887-1333","<MISSING>","49.0118263","49.0118264","Sunday-opens:10:00-closes:18:00|Monday-opens:9:00-closes:19:00|Tuesday-opens:9:00-closes:19:00|Wednesday-opens:9:00-closes:19:00|Thursday-opens:09:00-closes:20:00|Friday-opens:9:00-closes:21:00|Saturday-opens:9:00-closes:19:00"
"http://www.redapplestores.com/locations.htm","Red Apple - Oshawa,ON","16 King St. W","Oshawa","ON","L1H 1A1","CA","59","905-725-8012","<MISSING>","43.8973838","-78.8644765","Sunday-closes:18:00-|Monday-closes:19:00-|Tuesday-closes:19:00-|Wednesday-closes:19:00-|Thursday-closes:19:00-|Friday-closes:21:00-|Saturday-opens:09:00-closes:19:00"
"http://www.redapplestores.com/locations.htm","Red Apple - Parry Sound,ON","42 James St.","Parry Sound","ON","P2A 1T5","CA","53","705-746-2247","<MISSING>","45.344334","-80.033842","Sunday-opens:10:00-closes:18:00|Monday-opens:9:00-closes:19:00|Tuesday-opens:9:00-closes:19:00|Wednesday-opens:9:00-closes:19:00|Thursday-opens:9:00-closes:19:00|Friday-opens:9:00-closes:21:00|Saturday-opens:9:00-closes:19:00"
"http://www.redapplestores.com/locations.htm","Red Apple - Petrolia,ON","1 - 4141 Petrolia Line","Petrolia","ON","N0N 1R0","CA","75","519-882-0057","<MISSING>","42.88197","-82.1497955","Sunday-opens:10:00-closes:18:00|Monday-opens:9:00-closes:19:00|Tuesday-opens:9:00-closes:19:00|Wednesday-opens:9:00-closes:19:00|Thursday-opens:9:00-closes:19:00|Friday-opens:9:00-closes:21:00|Saturday-opens:9:00-closes:19:00"
"http://www.redapplestores.com/locations.htm","Red Apple - Port Colborne,ON","38 Clarence St","Port Colborne","ON","L3K 3E9","CA","26","905-834-4747","<MISSING>","42.886249","-79.251439","Sunday-opens:10:00-closes:18:00|Monday-opens:9:00-closes:19:00|Tuesday-opens:9:00-closes:19:00|Wednesday-opens:9:00-closes:19:00|Thursday-opens:9:00-closes:19:00|Friday-opens:9:00-closes:21:00|Saturday-opens:9:00-closes:19:00"
"http://www.redapplestores.com/locations.htm","Red Apple - Red Lake,ON","21- Highway 105","Red Lake","ON","P0V 2M0","CA","83","807-727-1938","<MISSING>","51.0174582","-93.8217482","Sunday-opens:10:00-closes:18:00|Monday-opens:09:00-closes:21:00|Tuesday-opens:09:00-closes:21:00|Wednesday-opens:09:00-closes:21:00|Thursday-opens:09:00-closes:21:00|Friday-opens:9:00-closes:21:00|Saturday-opens:9:00-closes:19:00"
"http://www.redapplestores.com/locations.htm","Red Apple - Ridgetown,ON","50 Main Street West","Ridgetown","ON","N0P 2C0","CA","109","519-674-2389","<MISSING>","42.4380934","-81.888661","Sunday-opens:10:00-closes:18:00|Monday-opens:9:00-closes:19:00|Tuesday-opens:9:00-closes:19:00|Wednesday-opens:9:00-closes:19:00|Thursday-opens:9:00-closes:19:00|Friday-opens:9:00-closes:21:00|Saturday-opens:9:00-closes:19:00"
"http://www.redapplestores.com/locations.htm","Red Apple - Sioux Lookout,ON","81 Front Street","Sioux Lookout","ON","P8T 1B7","CA","108","807-737-9943","<MISSING>","50.097619","-91.9209471","Sunday-opens:10:00-closes:18:00|Monday-opens:9:00-closes:21:00|Tuesday-opens:9:00-closes:21:00|Wednesday-opens:9:00-closes:21:00|Thursday-opens:9:00-closes:21:00|Friday-opens:9:00-closes:21:00|Saturday-opens:9:00-closes:19:00"
"http://www.redapplestores.com/locations.htm","Red Apple - Sturgeon Falls,ON","210 Front Street (Kings Hwy 17)","Sturgeon Falls","ON","P2B 2J3","CA","129","705-753-6142","<MISSING>","46.3659093","-79.9151221","Sunday-opens:10:00-closes:18:00|Monday-opens:9:00-closes:21:00|Tuesday-opens:9:00-closes:21:00|Wednesday-opens:9:00-closes:21:00|Thursday-opens:9:00-closes:21:00|Friday-opens:9:00-closes:21:00|Saturday-opens:9:00-closes:19:00"
"http://www.redapplestores.com/locations.htm","Red Apple - Thunder Bay,ON","640 River Street","Thunder Bay","ON","P7A 3S4","CA","136","807-683-3829","<MISSING>","48.4481722","-89.2340516","Sunday-opens:10:00-closes:18:00|Monday-opens:9:00-closes:21:00|Tuesday-opens:9:00-closes:21:00|Wednesday-opens:9:00-closes:21:00|Thursday-opens:9:00-closes:21:00|Friday-opens:9:00-closes:21:00|Saturday-opens:9:00-closes:19:00"
"http://www.redapplestores.com/locations.htm","Red Apple - Thunder Bay,ON","601 Victoria Avenue East","Thunder Bay","ON","P7C 1B1","CA","138","807-622-1271","<MISSING>","48.3842292","-89.2465746","Sunday-opens:00:00-closes:00:00|Monday-opens:9:00-closes:18:00|Tuesday-opens:9:00-closes:18:00|Wednesday-opens:9:00-closes:18:00|Thursday-opens:9:00-closes:18:00|Friday-opens:9:00-closes:18:00|Saturday-opens:9:00-closes:18:00"
"http://www.redapplestores.com/locations.htm","Red Apple - Tilbury,ON","2 Canal Street West","Tilbury","ON","N0P 2L0","CA","55","519-682-1055","<MISSING>","42.2590876","-82.4327377","Sunday-closes:18:00-|Monday-closes:19:00-|Tuesday-closes:19:00-|Wednesday-closes:19:00-|Thursday-closes:19:00-|Friday-closes:21:00-|Saturday-opens:09:00-closes:21:00"
"http://www.redapplestores.com/locations.htm","Red Apple - Timmins,ON","414 Algonquin Blvd East","Timmins","ON","P4N 1B6","CA","56","705-268-3383","<MISSING>","48.4767054","-81.3230658","Sunday-opens:10:00-closes:18:00|Monday-opens:9:00-closes:19:00|Tuesday-opens:9:00-closes:19:00|Wednesday-opens:9:00-closes:19:00|Thursday-opens:9:00-closes:19:00|Friday-opens:9:00-closes:21:00|Saturday-opens:9:00-closes:19:00"
"http://www.redapplestores.com/locations.htm","Red Apple - Wawa,ON","60 Broadway Avenue","Wawa","ON","P0S 1K0","CA","143","705-856-1807","<MISSING>","47.9950928","-84.7709168","Sunday-opens:10:00-closes:18:00|Monday-opens:9:00-closes:19:00|Tuesday-opens:9:00-closes:19:00|Wednesday-opens:9:00-closes:19:00|Thursday-opens:9:00-closes:19:00|Friday-opens:9:00-closes:21:00|Saturday-opens:9:00-closes:19:00"
"http://www.redapplestores.com/locations.htm","Red Apple - Windsor,ON","1905 Tecumseh Rd West","Windsor","ON","N9B 1V4","CA","57","519-253-8501","<MISSING>","42.294089","-83.050396","Sunday-opens:10:00-closes:18:00|Monday-opens:9:00-closes:19:00|Tuesday-opens:9:00-closes:19:00|Wednesday-opens:9:00-closes:19:00|Thursday-opens:9:00-closes:19:00|Friday-opens:9:00-closes:21:00|Saturday-opens:9:00-closes:19:00"
"http://www.redapplestores.com/locations.htm","Red Apple - Windsor,ON","631 Ouellette Avenue","Windsor","ON","N9A 1B9","CA","54","519-258-2008","<MISSING>","42.3136697","-83.0366314","Sunday-opens:10:00-closes:18:00|Monday-opens:9:00-closes:19:00|Tuesday-opens:9:00-closes:19:00|Wednesday-opens:9:00-closes:19:00|Thursday-opens:9:00-closes:19:00|Friday-opens:9:00-closes:21:00|Saturday-opens:9:00-closes:19:00"
"http://www.redapplestores.com/locations.htm","Red Apple - Wingham,ON","341 Josephine St","Wingham","ON","N0G 2W0","CA","99","519-357-2663","<MISSING>","43.8887882","-81.3109865","Sunday-opens:11:00-closes:17:00|Monday-opens:09:00-closes:20:00|Tuesday-opens:09:00-closes:20:00|Wednesday-opens:09:00-closes:20:00|Thursday-opens:09:00-closes:20:00|Saturday-closes:19:00-|"
"http://www.redapplestores.com/locations.htm","Red Apple - Assiniboia,SK","120 1ST Avenue West","Assiniboia","SK","S0H 0B0","CA","34","306-642-5211","<MISSING>","49.6338378","-105.9938755","Sunday-opens:10:00-closes:18:00|Monday-opens:09:00-closes:20:00|Tuesday-opens:09:00-closes:20:00|Wednesday-opens:09:00-closes:20:00|Thursday-opens:09:00-closes:20:00|Friday-opens:09:00-closes:20:00|Saturday-opens:09:00-closes:20:00"
"http://www.redapplestores.com/locations.htm","Red Apple - Biggar,SK","102 Main Street","Biggar","SK","S0K 0M0","CA","35","306-948-3849","<MISSING>","52.0540252","-107.9864666","Sunday-opens:10:00-closes:18:00|Monday-opens:9:00-closes:19:00|Tuesday-opens:9:00-closes:19:00|Wednesday-opens:9:00-closes:19:00|Thursday-opens:9:00-closes:19:00|Friday-opens:9:00-closes:21:00|Saturday-opens:9:00-closes:19:00"
"http://www.redapplestores.com/locations.htm","Red Apple - Canora,SK","310 Main St.","Canora","SK","S0A 0L0","CA","78","306-563-4524","<MISSING>","51.6349507","-102.4369044","Sunday-opens:10:00-closes:18:00|Monday-opens:09:00-closes:20:00|Tuesday-opens:09:00-closes:20:00|Wednesday-opens:09:00-closes:20:00|Thursday-opens:09:00-closes:20:00|Friday-opens:09:00-closes:20:00|Saturday-opens:09:00-closes:20:00"
"http://www.redapplestores.com/locations.htm","Red Apple - Carlyle,SK","203 Main St.","Carlyle","SK","S0C 0R0","CA","13","306-453-6079","<MISSING>","49.6337397","-102.2670709","Sunday-opens:10:00-closes:18:00|Monday-opens:9:00-closes:19:00|Tuesday-opens:9:00-closes:19:00|Wednesday-opens:9:00-closes:19:00|Thursday-opens:09:00-closes:20:00|Friday-opens:09:00-closes:20:00|Saturday-opens:9:00-closes:19:00"
"http://www.redapplestores.com/locations.htm","Red Apple - Esterhazy,SK","500 - Veterans Ave.","Esterhazy","SK","S0A 0X0","CA","45","306-745-2131","<MISSING>","50.6550407","-102.0784372","Sunday-opens:10:00-closes:18:00|Monday-opens:9:00-closes:19:00|Tuesday-opens:9:00-closes:19:00|Wednesday-opens:9:00-closes:19:00|Thursday-opens:9:00-closes:19:00|Friday-opens:9:00-closes:21:00|Saturday-opens:9:00-closes:19:00"
"http://www.redapplestores.com/locations.htm","Red Apple - Fort Qu'Appelle,SK","402-420 Broadway Street East","Fort Qu'Appelle","SK","S0G 1S0","CA","100","306-332-1883","<MISSING>","50.7696417","-103.790336","Sunday-opens:10:00-closes:18:00|Monday-opens:9:00-closes:20:00|Tuesday-opens:9:00-closes:20:00|Wednesday-opens:9:00-closes:20:00|Thursday-opens:9:00-closes:20:00|Friday-opens:9:00-closes:20:00|Saturday-opens:09:00-closes:20:00"
"http://www.redapplestores.com/locations.htm","Red Apple - Hudson Bay,SK","202 Churchill St.","Hudson Bay","SK","S0E 0Y0","CA","36","306-865-3465","<MISSING>","52.8621084","-102.3896265","Sunday-opens:10:00-closes:18:00|Monday-opens:9:00-closes:19:00|Tuesday-opens:9:00-closes:19:00|Wednesday-opens:9:00-closes:19:00|Thursday-opens:9:00-closes:19:00|Friday-opens:9:00-closes:21:00|Saturday-opens:9:00-closes:19:00"
"http://www.redapplestores.com/locations.htm","Red Apple - Kelvington,SK","114 MainSt.","Kelvington","SK","S0A 1W0","CA","146","306-327-1225","<MISSING>","52.1630043","-103.5226462","Sunday-opens:10:00-closes:18:00|Monday-opens:9:00-closes:19:00|Tuesday-opens:9:00-closes:19:00|Wednesday-opens:9:00-closes:19:00|Thursday-opens:9:00-closes:19:00|Friday-opens:9:00-closes:21:00|Saturday-opens:9:00-closes:19:00"
"http://www.redapplestores.com/locations.htm","Red Apple - La Ronge,SK","1204 La Ronge Avenue","La Ronge","SK","S0J 1L0","CA","86","306-425-3310","<MISSING>","55.1036042","-105.2842292","Sunday-opens:10:00-closes:18:00|Monday-opens:09:00-closes:21:00|Tuesday-opens:09:00-closes:21:00|Wednesday-opens:09:00-closes:21:00|Thursday-opens:09:00-closes:21:00|Friday-opens:09:00-closes:21:00|Saturday-opens:09:00-closes:21:00"
"http://www.redapplestores.com/locations.htm","Red Apple - Maple Creek,SK","217 Jasper Street","Maple Creek","SK","S0N 1N0","CA","72","306-662-2250","<MISSING>","49.9067436","-109.4795495","Sunday-opens:10:00-closes:18:00|Monday-opens:09:00-closes:20:00|Tuesday-opens:09:00-closes:20:00|Wednesday-opens:09:00-closes:20:00|Thursday-opens:09:00-closes:20:00|Friday-opens:09:00-closes:20:00|Saturday-opens:09:00-closes:20:00"
"http://www.redapplestores.com/locations.htm","Red Apple - Meadow Lake,SK","800 - 9th Street West","Meadow Lake","SK","S9X 1Z1","CA","141","306-234-2218","<MISSING>","54.1237651","-108.4506362","Sunday-opens:10:00-closes:18:00|Monday-opens:09:00-closes:21:00|Tuesday-opens:09:00-closes:21:00|Wednesday-opens:09:00-closes:21:00|Thursday-opens:09:00-closes:21:00|Friday-opens:9:00-closes:21:00|Saturday-opens:9:00-closes:19:00"
"http://www.redapplestores.com/locations.htm","Red Apple - Melfort,SK","410 Main St.","Melfort","SK","S0E 1A0","CA","81","306-752-3434","<MISSING>","52.8628956","-104.6091619","Sunday-opens:10:00-closes:18:00|Monday-opens:09:00-closes:19:00|Tuesday-opens:09:00-closes:19:00|Wednesday-opens:09:00-closes:19:00|Thursday-opens:09:00-closes:19:00|Friday-opens:09:00-closes:21:00|Saturday-opens:9:00-closes:19:00"
"http://www.redapplestores.com/locations.htm","Red Apple - Melville,SK","166 Second Ave West","Melville","SK","S0A 2P0","CA","58","306-728-5632","<MISSING>","50.9279798","-102.808133","Sunday-opens:10:00-closes:18:00|Monday-opens:9:00-closes:19:00|Tuesday-opens:9:00-closes:19:00|Wednesday-opens:9:00-closes:19:00|Thursday-opens:9:00-closes:19:00|Friday-opens:9:00-closes:21:00|Saturday-opens:9:00-closes:19:00"
"http://www.redapplestores.com/locations.htm","Red Apple - Moosomin,SK","603 Birtle Street","Moosomin","SK","S0G 3N0","CA","5","306-435-2481","<MISSING>","50.1462595","-101.6678627","Sunday-opens:10:00-closes:18:00|Monday-opens:9:00-closes:19:00|Tuesday-opens:9:00-closes:19:00|Wednesday-opens:9:00-closes:19:00|Thursday-opens:9:00-closes:19:00|Friday-opens:9:00-closes:21:00|Saturday-opens:9:00-closes:19:00"
"http://www.redapplestores.com/locations.htm","Red Apple - Nipawin,SK","200-1st Avenue East","Nipawin","SK","S0E 1E0","CA","76","306-862-5736","<MISSING>","53.3628294","-104.0156581","Sunday-opens:10:00-closes:18:00|Monday-opens:09:00-closes:21:00|Tuesday-opens:09:00-closes:21:00|Wednesday-opens:09:00-closes:21:00|Thursday-opens:09:00-closes:21:00|Friday-opens:9:00-closes:21:00|Saturday-opens:9:00-closes:19:00"
"http://www.redapplestores.com/locations.htm","Red Apple - Outlook,SK","305 Saskatchewan Avenue East","Outlook","SK","S0L 2N0","CA","121","306-867-2161","<MISSING>","51.4882602","-107.0503012","Sunday-opens:10:00-closes:18:00|Monday-opens:9:00-closes:19:00|Tuesday-opens:9:00-closes:19:00|Wednesday-opens:9:00-closes:19:00|Thursday-opens:9:00-closes:19:00|Friday-opens:9:00-closes:21:00|Saturday-opens:9:00-closes:19:00"
"http://www.redapplestores.com/locations.htm","Red Apple - Rosetown,SK","109 Main St.","Rosetown","SK","S0L 2V0","CA","68","306-882-1313","<MISSING>","51.5497739","-107.9905469","Sunday-opens:10:00-closes:18:00|Monday-opens:9:00-closes:19:00|Tuesday-opens:9:00-closes:19:00|Wednesday-opens:9:00-closes:19:00|Thursday-opens:9:00-closes:19:00|Friday-opens:9:00-closes:21:00|Saturday-opens:9:00-closes:19:00"
"http://www.redapplestores.com/locations.htm","Red Apple - Shaunavon,SK","182-3rd Avenue West","Shaunavon","SK","S0N 2M0","CA","22","306-297-2228","<MISSING>","49.6454942","-108.4099783","Sunday-opens:10:00-closes:18:00|Monday-opens:9:00-closes:19:00|Tuesday-opens:9:00-closes:19:00|Wednesday-opens:9:00-closes:19:00|Thursday-opens:9:00-closes:19:00|Friday-opens:9:00-closes:21:00|Saturday-opens:9:00-closes:19:00"
"http://www.redapplestores.com/locations.htm","Red Apple - Tisdale,SK","1219-100th Street","Tisdale","SK","S0E 1T0","CA","106","306-873-2959","<MISSING>","52.8504055","-104.0477344","Sunday-opens:10:00-closes:18:00|Monday-opens:09:00-closes:21:00|Tuesday-opens:09:00-closes:21:00|Wednesday-opens:09:00-closes:21:00|Thursday-opens:09:00-closes:21:00|Friday-opens:9:00-closes:21:00|Saturday-opens:09:00-closes:20:00"
"http://www.redapplestores.com/locations.htm","Red Apple - Unity,SK","233 Main Street","Unity","SK","S0K 4L0","CA","37","306-228-3889","<MISSING>","52.440229","-109.1539781","Sunday-opens:10:00-closes:18:00|Monday-opens:9:00-closes:19:00|Tuesday-opens:9:00-closes:19:00|Wednesday-opens:9:00-closes:19:00|Thursday-opens:9:00-closes:19:00|Friday-opens:9:00-closes:21:00|Saturday-opens:9:00-closes:19:00"
"http://www.redapplestores.com/locations.htm","Red Apple - Wadena,SK","54 Main Street North","Wadena","SK","S0A 4J0","CA","8","306-338-3778","<MISSING>","51.9447739","-103.8015345","Sunday-opens:10:00-closes:18:00|Monday-opens:09:00-closes:20:00|Tuesday-opens:09:00-closes:20:00|Wednesday-opens:09:00-closes:20:00|Thursday-opens:09:00-closes:20:00|Friday-opens:09:00-closes:20:00|Saturday-opens:9:00-closes:19:00"
"http://www.redapplestores.com/locations.htm","Red Apple - Watrous,SK","104-3rd Avenue East St.","Watrous","SK","S0K 4T0","CA","40","306-946-3666","<MISSING>","51.6733676","-105.4662697","Sunday-opens:10:00-closes:18:00|Monday-opens:09:00-closes:20:00|Tuesday-opens:09:00-closes:20:00|Wednesday-opens:09:00-closes:20:00|Thursday-opens:09:00-closes:20:00|Friday-opens:09:00-closes:20:00|Saturday-opens:09:00-closes:20:00"
"http://www.redapplestores.com/locations.htm","Red Apple - Wynyard,SK","103 Bosworth Street","Wynyard","SK","S0A 4T0","CA","130","306-554-3014","<MISSING>","51.7710085","-104.1859192","Sunday-opens:10:00-closes:18:00|Monday-opens:9:00-closes:19:00|Tuesday-opens:9:00-closes:19:00|Wednesday-opens:9:00-closes:19:00|Thursday-opens:9:00-closes:19:00|Friday-opens:9:00-closes:21:00|Saturday-opens:9:00-closes:19:00"
