"locator_domain","location_name","street_address","city","state","zip","country_code","store_number","phone","location_type","latitude","longitude","hours_of_operation","page_url"
"https://www.tuffy.com","TUFFY SPRINGFIELD","1764 Wabash Avenue","Springfield","IL","62704","US","<MISSING>","217-793-1990","<MISSING>","39.7725","-89.6889","Mon-Fri7:30 AM - 6:00 PMSaturday7:30 AM - 2:00 PMSundayClosed","https://www.tuffy.com/location_search?zip_code=Arkansas"
"https://www.tuffy.com","TUFFY BLOOMINGTON","1505 East Vernon Ave.","Bloomington","IL","61701","US","<MISSING>","309-662-0537","<MISSING>","40.4783","-88.9893","Mon-Fri7:30 AM - 6:00 PMSaturday7:30 AM - 4:00 PMSundayClosed","https://www.tuffy.com/location_search?zip_code=Arkansas"
"https://www.tuffy.com","TUFFY RICHMOND (AZALEA AVE.)","1005 Azalea Avenue","Richmond","VA","23227","US","<MISSING>","804-264-2700","<MISSING>","37.6247","-77.4351","Mon-Fri7:30 AM - 5:30 PMSaturday7:00 AM - 2:00 PMSundayClosed","https://www.tuffy.com/location_search?zip_code=Connecticut"
"https://www.tuffy.com","TUFFY RICHMOND WEST BROAD","8817 West Broad St.","Richmond","VA","23294","US","<MISSING>","804-965-0100","<MISSING>","37.4638","-77.398","Mon-Fri7:30 AM - 5:30 PMSaturday7:00 AM - 4:00 PMSundayClosed","https://www.tuffy.com/location_search?zip_code=Connecticut"
"https://www.tuffy.com","TUFFY RICHMOND (JEFF DAVIS HWY)","3621 Jeff Davis Highway","Richmond","VA","23234","US","<MISSING>","804-271-9800","<MISSING>","37.4373","-77.4788","Mon-Fri7:30 AM - 5:30 PMSaturday7:00 AM - 2:00 PMSundayClosed","https://www.tuffy.com/location_search?zip_code=Connecticut"
"https://www.tuffy.com","TUFFY RICHMOND (BRANCHWAY)","911 Branchway Rd.","Richmond","VA","23236","US","<MISSING>","804-379-3300","<MISSING>","37.4782","-77.5854","Mon-Fri7:30 AM - 5:30 PMSaturday7:00 AM - 2:00 PMSundayClosed","https://www.tuffy.com/location_search?zip_code=Connecticut"
"https://www.tuffy.com","TUFFY COLONIAL HEIGHTS","1115 Boulevard","Colonial Heights","VA","23834","US","<MISSING>","804-526-5000","<MISSING>","37.27","-77.4038","Mon-Fri7:30 AM - 5:30 PMSaturday7:00 AM - 2:00 PMSundayClosed","https://www.tuffy.com/location_search?zip_code=Connecticut"
"https://www.tuffy.com","TUFFY MENTOR","8415 Station Street","Mentor","OH","44060","US","<MISSING>","440-255-6333","<MISSING>","41.6895","-81.3421","Mon-Fri8:00 AM - 6:00 PMSaturday8:00 AM - 4:00 PMSundayClosed","https://www.tuffy.com/location_search?zip_code=Delaware"
"https://www.tuffy.com","TUFFY MOORESVILLE","144 Williamson Rd","Mooresville","NC","28117","US","<MISSING>","704-663-6755","<MISSING>","35.584","-80.8685","Mon-Fri7:30 AM - 6:00 PMSaturday7:30 AM - 5:00 PMSundayClosed","https://www.tuffy.com/location_search?zip_code=Delaware"
"https://www.tuffy.com","TUFFY CHARLOTTE","9835 Rocky River Road","Charlotte","NC","28215","US","<MISSING>","704-598-3131","<MISSING>","35.244","-80.7387","Mon-Fri7:30 AM - 6:00 PMSaturday7:30 AM - 4:00 PMSundayClosed","https://www.tuffy.com/location_search?zip_code=Delaware"
"https://www.tuffy.com","TUFFY HUNTERSVILLE","16925 Caldwell Creek Dr","Huntersville","NC","28078","US","<MISSING>","704-895-5586","<MISSING>","35.4011","-80.8695","Mon-Fri8:00 AM - 6:00 PMSaturday8:00 AM - 4:00 PMSundayClosed","https://www.tuffy.com/location_search?zip_code=Delaware"
"https://www.tuffy.com","TUFFY LANCASTER","1285 N. Memorial Drive","Lancaster","OH","43130","US","<MISSING>","740-653-7054","<MISSING>","39.7187","-82.6031","Mon-Fri8:00 AM - 5:00 PMSaturday8:00 AM - 4:00 PMSundayClosed","https://www.tuffy.com/location_search?zip_code=Delaware"
"https://www.tuffy.com","TUFFY ELYRIA (CLEVELAND ST.)","165 Cleveland Street","Elyria","OH","44035","US","<MISSING>","440-322-3713","<MISSING>","41.3724","-82.1051","Mon-Fri8:00 AM - 6:00 PMSaturday8:00 AM - 4:00 PMSundayClosed","https://www.tuffy.com/location_search?zip_code=Delaware"
"https://www.tuffy.com","TUFFY ELYRIA (LEONA ST.)","649 Leona St.","Elyria","OH","44035","US","<MISSING>","440-324-7484","<MISSING>","41.3724","-82.1051","Mon-Fri8:00 AM - 6:00 PMSaturday8:00 AM - 4:00 PMSundayClosed","https://www.tuffy.com/location_search?zip_code=Delaware"
"https://www.tuffy.com","TUFFY LORAIN","1400 Broadway","Lorain","OH","44052","US","<MISSING>","440-245-2823","<MISSING>","41.4578","-82.171","Mon-Fri8:00 AM - 6:00 PMSaturday8:00 AM - 4:00 PMSundayClosed","https://www.tuffy.com/location_search?zip_code=Delaware"
"https://www.tuffy.com","TUFFY AMHERST - COMPLETE AUTOMOTIVE REPAIR CENTER","101 N Leavitt Road","Amherst","OH","44001","US","<MISSING>","440-988-9402","<MISSING>","41.3617","-82.2538","Mon-Fri8:00 AM - 6:00 PMSaturday8:00 AM - 4:00 PMSundayClosed","https://www.tuffy.com/location_search?zip_code=Delaware"
"https://www.tuffy.com","TUFFY PICKERINGTON","1223 Hill Road N.","Pickerington","OH","43147","US","<MISSING>","614-751-0111","<MISSING>","39.9061","-82.7563","Mon-Fri8:00 AM - 6:00 PMSaturday8:00 AM - 4:00 PMSundayClosed","https://www.tuffy.com/location_search?zip_code=Delaware"
"https://www.tuffy.com","TUFFY CHARLOTTE (TRYON STREET)","8516 South Tryon St.","Charlotte","NC","28273","US","<MISSING>","704-588-1929","<MISSING>","35.1287","-80.9338","Mon-Fri7:30 AM - 6:00 PMSaturday7:30 AM - 4:00 PMSundayClosed","https://www.tuffy.com/location_search?zip_code=Delaware"
"https://www.tuffy.com","TUFFY WHITEHALL","4744 E. Main Street","Whitehall","OH","43213","US","<MISSING>","614-864-5215","<MISSING>","39.9727","-82.8329","Mon-Fri8:00 AM - 6:00 PMSaturday8:00 AM - 4:00 PMSundayClosed","https://www.tuffy.com/location_search?zip_code=Delaware"
"https://www.tuffy.com","TUFFY GAHANNA","115 N. Hamilton Road","Gahanna","OH","43230","US","<MISSING>","614-337-8080","<MISSING>","40.0347","-82.8726","Mon-Fri7:30 AM - 6:00 PMSaturday8:00 AM - 5:00 PMSundayClosed","https://www.tuffy.com/location_search?zip_code=Delaware"
"https://www.tuffy.com","TUFFY FORT MILL","9909 Charlotte Highway","Fort Mill","SC","29707","US","<MISSING>","803-802-2466","<MISSING>","34.9773","-80.8584","Mon-Fri8:00 AM - 6:00 PMSaturday8:00 AM - 4:00 PMSundayClosed","https://www.tuffy.com/location_search?zip_code=Delaware"
"https://www.tuffy.com","TUFFY WINTER HAVEN","6906 Cypress Gardens Blvd.","Winter Haven","FL","33884","US","<MISSING>","863-318-8339","<MISSING>","27.981","-81.6736","Mon-Fri7:30 AM - 6:00 PMSaturday8:00 AM - 4:00 PMSundayClosed","https://www.tuffy.com/location_search?zip_code=Florida"
"https://www.tuffy.com","TUFFY HAINES CITY","35560 Highway 27","Haines City","FL","33844","US","<MISSING>","863-422-1110","<MISSING>","28.1145","-81.6201","Mon-Fri7:30 AM - 6:00 PMSaturday7:30 AM - 5:00 PMSundayClosed","https://www.tuffy.com/location_search?zip_code=Florida"
"https://www.tuffy.com","TUFFY MULBERRY","6597 N. Church Street","Mulberry","FL","33860","US","<MISSING>","863-425-5400","<MISSING>","27.902","-82.0015","Mon-Fri7:30 AM - 6:00 PMSaturday7:30 AM - 5:00 PMSundayClosed","https://www.tuffy.com/location_search?zip_code=Florida"
"https://www.tuffy.com","TUFFY ST. CLOUD","625 E. 13th Street St.","Cloud","FL","34769","US","<MISSING>","407-891-0094","<MISSING>","28.248","-81.2876","Mon-Fri7:30 AM - 6:00 PMSaturday8:00 AM - 4:00 PMSundayClosed","https://www.tuffy.com/location_search?zip_code=Florida"
"https://www.tuffy.com","TUFFY ORLANDO (LANDSTAR BLVD.)","13466 Landstar Blvd.","Orlando","FL","32824","US","<MISSING>","407-852-0004","<MISSING>","28.3932","-81.3622","Mon-Fri7:00 AM - 7:00 PMSaturday7:00 AM - 5:00 PMSundayClosed","https://www.tuffy.com/location_search?zip_code=Florida"
"https://www.tuffy.com","TUFFY SOUTH CLERMONT","1648 US Hwy. 27","Clermont","FL","34714","US","<MISSING>","352-242-0776","<MISSING>","28.4113","-81.7812","Mon-Fri7:30 AM - 6:00 PMSaturday8:00 AM - 4:00 PMSundayClosed","https://www.tuffy.com/location_search?zip_code=Florida"
"https://www.tuffy.com","TUFFY RIVERVIEW","10209 Big Bend Road","Riverview","FL","33578","US","<MISSING>","813-750-0461","<MISSING>","27.8633","-82.3499","Mon-Fri7:30 AM - 6:00 PMSaturday7:30 AM - 5:00 PMSundayClosed","https://www.tuffy.com/location_search?zip_code=Florida"
"https://www.tuffy.com","TUFFY ORLANDO (NARCOOSSEE RD.)","7444 Narcoossee Road","Orlando","FL","32822","US","<MISSING>","407-208-0004","<MISSING>","28.4944","-81.2902","Mon-Fri7:30 AM - 7:00 PMSaturday8:00 AM - 5:00 PMSundayClosed","https://www.tuffy.com/location_search?zip_code=Florida"
"https://www.tuffy.com","TUFFY ORLANDO (METRO WEST)","5645 Metro West Boulevard","Orlando","FL","32811","US","<MISSING>","407-532-7874","<MISSING>","28.5163","-81.4516","Mon-Fri7:30 AM - 6:00 PMSaturday8:00 AM - 5:00 PMSundayClosed","https://www.tuffy.com/location_search?zip_code=Florida"
"https://www.tuffy.com","TUFFY PORT CHARLOTTE","2572 Tamiami Trail","Port Charlotte","FL","33952","US","<MISSING>","941-764-9815","<MISSING>","26.9905","-82.0964","Mon-Fri7:30 AM - 5:30 PMSaturday8:00 AM - 3:00 PMSundayClosed","https://www.tuffy.com/location_search?zip_code=Florida"
"https://www.tuffy.com","TUFFY FLETCHER","1130 East Fletcher Ave","Tampa","FL","33612","US","<MISSING>","813-980-0792","<MISSING>","28.0502","-82.45","Mon-Fri7:30 AM - 6:00 PMSaturday7:30 AM - 5:00 PMSundayClosed","https://www.tuffy.com/location_search?zip_code=Florida"
"https://www.tuffy.com","TUFFY BRADENTON AUTO REPAIR","6025 State Road 70 East","Bradenton","FL","34203","US","<MISSING>","941-751-1818","<MISSING>","27.4547","-82.5359","Mon-Fri7:30 AM - 6:00 PMSaturday8:00 AM - 4:00 PMSundayClosed","https://www.tuffy.com/location_search?zip_code=Florida"
"https://www.tuffy.com","TUFFY ORLANDO (CURRY FORD)","10444 Curry Ford Rd.","Orlando","FL","32825","US","<MISSING>","407-823-7303","<MISSING>","28.5469","-81.2571","Mon-Fri7:30 AM - 6:00 PMSaturday8:00 AM - 5:00 PMSundayClosed","https://www.tuffy.com/location_search?zip_code=Florida"
"https://www.tuffy.com","TUFFY NORTH PORT","14970 Tamiami Trail","North Port","FL","34287","US","<MISSING>","941-423-3211","<MISSING>","27.0478","-82.2416","Mon-Fri7:30 AM - 6:00 PMSaturday7:30 AM - 4:00 PMSundayClosed","https://www.tuffy.com/location_search?zip_code=Florida"
"https://www.tuffy.com","TUFFY NORTH CLERMONT","1315 E. Highway 50","Clermont","FL","34711","US","<MISSING>","352-504-3837","<MISSING>","28.5525","-81.7574","Mon-Fri7:30 AM - 6:00 PMSaturday8:00 AM - 4:00 PMSundayClosed","https://www.tuffy.com/location_search?zip_code=Florida"
"https://www.tuffy.com","TUFFY SARASOTA (FRUITVILLE RD.)","5050 Fruitville Road","Sarasota","FL","34232","US","<MISSING>","941-343-9487","<MISSING>","27.3262","-82.4724","Mon-Fri7:30 AM - 6:00 PMSaturday8:00 AM - 4:00 PMSundayClosed","https://www.tuffy.com/location_search?zip_code=Florida"
"https://www.tuffy.com","TUFFY VIERA","7195 Dolina Court","Melbourne","FL","32940","US","<MISSING>","321-259-8494","<MISSING>","28.2061","-80.685","Mon-Fri7:30 AM - 6:00 PMSaturday7:30 AM - 5:00 PMSundayClosed","https://www.tuffy.com/location_search?zip_code=Florida"
"https://www.tuffy.com","TUFFY ORLANDO (N. SEMORAN)","1222 N. Semoran Boulevard","Orlando","FL","32807","US","<MISSING>","407-207-4045","<MISSING>","28.5515","-81.3051","Mon-Fri7:30 AM - 6:00 PMSaturday8:00 AM - 4:00 PMSundayClosed","https://www.tuffy.com/location_search?zip_code=Florida"
"https://www.tuffy.com","TUFFY ORLANDO (EAST COLONIAL)","10938-B E. Colonial Drive","Orlando","FL","32817","US","<MISSING>","407-384-0100","<MISSING>","28.5891","-81.2277","Mon-Fri7:30 AM - 6:00 PMSaturday8:00 AM - 5:00 PMSundayClosed","https://www.tuffy.com/location_search?zip_code=Florida"
"https://www.tuffy.com","TUFFY WESLEY CHAPEL","27303  Boulevard","Wesley Chapel","FL","33543","US","<MISSING>","813-907-5200","<MISSING>","28.2397","-82.3279","Monday7:30 AM - 6:00 PMTuesday7:30 AM - 6:00 PMWednesday7:30 AM - 5:30 PMThursday7:30 AM - 6:00 PMFriday7:30 AM - 6:00 PMSaturday7:30 AM - 5:00 PMSundayClosed","https://www.tuffy.com/location_search?zip_code=Florida"
"https://www.tuffy.com","TUFFY GUNN","4353 Gunn Highway","Tampa","FL","33618","US","<MISSING>","813-908-0438","<MISSING>","28.0763","-82.4852","Mon-Fri7:30 AM - 6:00 PMSaturday7:30 AM - 5:00 PMSundayClosed","https://www.tuffy.com/location_search?zip_code=Florida"
"https://www.tuffy.com","TUFFY VENICE","2371 S. Tamiami Trail","Venice","FL","34293","US","<MISSING>","941-493-8887","<MISSING>","27.0606","-82.352","Mon-Fri7:30 AM - 6:00 PMSaturday8:00 AM - 4:00 PMSundayClosed","https://www.tuffy.com/location_search?zip_code=Florida"
"https://www.tuffy.com","TUFFY LAND O LAKES","3530  Blvd.","Land O Lakes","FL","34639","US","<MISSING>","813-996-2290","<MISSING>","28.2258","-82.4547","Mon-Fri8:00 AM - 6:00 PMSaturday7:00 AM - 4:00 PMSundayClosed","https://www.tuffy.com/location_search?zip_code=Florida"
"https://www.tuffy.com","TUFFY WINTER SPRINGS","5225 Red Bug Lake Rd.","Winter Springs","FL","32708","US","<MISSING>","407-388-9800","<MISSING>","28.6831","-81.2814","Mon-Fri7:30 AM - 6:00 PMSaturday8:00 AM - 5:00 PMSundayClosed","https://www.tuffy.com/location_search?zip_code=Florida"
"https://www.tuffy.com","TUFFY APOPKA","1675 E. Semoran Boulevard","Apopka","FL","32703","US","<MISSING>","407-884-4441","<MISSING>","28.6354","-81.4888","Mon-Fri7:30 AM - 6:00 PMSaturday8:00 AM - 4:00 PMSundayClosed","https://www.tuffy.com/location_search?zip_code=Florida"
"https://www.tuffy.com","TUFFY OVIEDO","385 W. Mitchell Hammock Rd.","Oviedo","FL","32765","US","<MISSING>","407-977-7595","<MISSING>","28.6513","-81.2066","Mon-Fri7:30 AM - 6:00 PMSaturday8:00 AM - 4:00 PMSundayClosed","https://www.tuffy.com/location_search?zip_code=Florida"
"https://www.tuffy.com","TUFFY CAPE CORAL","1335 Del Prado Blvd S.","Cape Coral","FL","33990","US","<MISSING>","239-574-3313","<MISSING>","26.6265","-81.9677","Mon-Fri8:00 AM - 5:30 PMSaturday8:00 AM - 1:00 PMSundayClosed","https://www.tuffy.com/location_search?zip_code=Florida"
"https://www.tuffy.com","TUFFY FORT MYERS (DANIELS PKWY)","9230 Daniels","Pkwy","FL","33912","US","<MISSING>","239-887-4431","<MISSING>","26.4972","-81.8246","Mon-Fri7:30 AM - 6:00 PMSaturday7:30 AM - 5:00 PMSundayClosed","https://www.tuffy.com/location_search?zip_code=Florida"
"https://www.tuffy.com","TUFFY SANFORD","4303 West State Rd 46","Sanford","FL","32771-9006","US","<MISSING>","407-688-6611","<MISSING>","28.8013","-81.285","Mon-Fri7:00 AM - 6:00 PMSaturday7:00 AM - 4:00 PMSundayClosed","https://www.tuffy.com/location_search?zip_code=Florida"
"https://www.tuffy.com","TUFFY MT. DORA","16750 US Hwy 441 Mt.","Dora","FL","32757","US","<MISSING>","352-366-0348","<MISSING>","28.774","-81.6439","Mon-Fri7:30 AM - 6:00 PMSaturday7:30 AM - 5:00 PMSundayClosed","https://www.tuffy.com/location_search?zip_code=Florida"
"https://www.tuffy.com","TUFFY NEW PORT RICHEY","5049 Little Rd.","New Port Richey","FL","34655","US","<MISSING>","727-483-5686","<MISSING>","28.2129","-82.6807","Mon-Fri7:30 AM - 6:00 PMSaturday8:00 AM - 4:00 PMSunday9:00 AM - 3:00 PM","https://www.tuffy.com/location_search?zip_code=Florida"
"https://www.tuffy.com","TUFFY FORT MYERS (MCGREGOR BLVD.)","13061 McGregor Blvd","Fort Myers","FL","33919","US","<MISSING>","239-437-2993","<MISSING>","26.5567","-81.9034","Mon-Fri7:30 AM - 5:00 PMSaturday8:00 AM - 12:00 PMSundayClosed","https://www.tuffy.com/location_search?zip_code=Florida"
"https://www.tuffy.com","TUFFY SOUTH FORT MYERS","18092 S. Tamiami Trail","Fort Myers","FL","33908","US","<MISSING>","239-489-0010","<MISSING>","26.5025","-81.9276","Mon-Fri7:30 AM - 6:00 PMSaturday7:30 AM - 5:00 PMSundayClosed","https://www.tuffy.com/location_search?zip_code=Florida"
"https://www.tuffy.com","TUFFY SPRING HILL","1280 Commercial Way","Spring Hill","FL","34606","US","<MISSING>","352-587-2886","<MISSING>","28.4655","-82.5981","Mon-Fri7:30 AM - 6:00 PMSaturday7:30 AM - 5:00 PMSundayClosed","https://www.tuffy.com/location_search?zip_code=Florida"
"https://www.tuffy.com","TUFFY BONITA SPRINGS","27790 S. Tamiami Trail","Bonita Springs","FL","34134","US","<MISSING>","239-498-9940","<MISSING>","26.3626","-81.8183","Mon-Fri8:00 AM - 5:00 PMSaturday8:00 AM - 12:00 PMSundayClosed","https://www.tuffy.com/location_search?zip_code=Florida"
"https://www.tuffy.com","TUFFY SUMMERFIELD","16676 US Highway 441","Summerfield","FL","34491","US","<MISSING>","352-693-2245","<MISSING>","29.0112","-82.0325","Mon-Fri7:30 AM - 7:00 PMSaturday7:30 AM - 5:00 PMSundayClosed","https://www.tuffy.com/location_search?zip_code=Florida"
"https://www.tuffy.com","TUFFY NAPLES (VANDERBILT BEACH RD.)","7445 Vanderbilt Beach Rd.","Naples","FL","34119","US","<MISSING>","239-304-2072","<MISSING>","26.2665","-81.7146","Mon-Fri7:30 AM - 6:00 PMSaturday7:30 AM - 5:00 PMSundayClosed","https://www.tuffy.com/location_search?zip_code=Florida"
"https://www.tuffy.com","TUFFY NAPLES","9401 Tamiami Trail N","Naples","FL","34108","US","<MISSING>","239-596-1668","<MISSING>","26.2416","-81.8071","Mon-Fri7:30 AM - 6:00 PMSaturday7:30 AM - 4:00 PMSundayClosed","https://www.tuffy.com/location_search?zip_code=Florida"
"https://www.tuffy.com","TUFFY PORT ORANGE","4831 Clyde Morris Boulevard","Port Orange","FL","32129","US","<MISSING>","386-756-8889","<MISSING>","29.1372","-81.0241","Mon-Fri7:30 AM - 6:00 PMSaturday7:30 AM - 4:00 PMSundayClosed","https://www.tuffy.com/location_search?zip_code=Florida"
"https://www.tuffy.com","TUFFY OCALA","2105 Southwest College Road","Ocala","FL","34471-1615","US","<MISSING>","352-690-6111","<MISSING>","29.1605","-82.1288","Mon-Fri8:00 AM - 6:00 PMSaturday8:00 AM - 5:00 PMSundayClosed","https://www.tuffy.com/location_search?zip_code=Florida"
"https://www.tuffy.com","TUFFY PALM COAST","1430  Pkwy NW","Palm Coast","FL","32137","US","<MISSING>","386-597-4788","<MISSING>","29.5565","-81.219","Mon-Fri7:30 AM - 7:00 PMSaturday7:30 AM - 5:00 PMSundayClosed","https://www.tuffy.com/location_search?zip_code=Florida"
"https://www.tuffy.com","TUFFY JONESVILLE","14145 W  Rd","Newberry","FL","32669","US","<MISSING>","352-332-0500","<MISSING>","29.6609","-82.5852","Mon-Fri7:00 AM - 6:00 PMSaturday7:00 AM - 4:00 PMSundayClosed","https://www.tuffy.com/location_search?zip_code=Florida"
"https://www.tuffy.com","TUFFY ST. JOHNS","2770 Racetrack Rd. St.","Johns","FL","32259","US","<MISSING>","904-230-3363","<MISSING>","30.3259","-81.6119","Mon-Fri7:30 AM - 6:00 PMSaturday8:00 AM - 5:00 PMSundayClosed","https://www.tuffy.com/location_search?zip_code=Florida"
"https://www.tuffy.com","TUFFY JACKSONVILLE","14026 Beach Blvd.","Jacksonville","FL","32250","US","<MISSING>","904-992-4176","<MISSING>","30.2801","-81.4165","Mon-Fri8:00 AM - 6:00 PMSaturday8:00 AM - 4:00 PMSundayClosed","https://www.tuffy.com/location_search?zip_code=Florida"
"https://www.tuffy.com","TUFFY TALLAHASSEE","2501 N. Monroe Street","Tallahassee","FL","32303","US","<MISSING>","850-385-4411","<MISSING>","30.4874","-84.3189","Mon-Fri7:30 AM - 6:00 PMSaturday8:00 AM - 4:00 PMSundayClosed","https://www.tuffy.com/location_search?zip_code=Florida"
"https://www.tuffy.com","TUFFY LYNN HAVEN","2406 South Hwy. 77","Lynn Haven","FL","32444","US","<MISSING>","850-265-0058","<MISSING>","30.2362","-85.6467","Mon-Fri7:30 AM - 6:00 PMSaturday8:00 AM - 4:00 PMSundayClosed","https://www.tuffy.com/location_search?zip_code=Florida"
"https://www.tuffy.com","TUFFY TIRE AND AUTO EXPRESS PANAMA CITY","1417 Clay Avenue","Panama City","FL","32401","US","<MISSING>","850-898-1196","<MISSING>","30.1606","-85.6494","Mon-Fri7:30 AM - 6:00 PMSaturday8:00 AM - 4:00 PMSundayClosed","https://www.tuffy.com/location_search?zip_code=Florida"
"https://www.tuffy.com","TUFFY PANAMA CITY BEACH","13151  Parkway","Panama City Beach","FL","32407","US","<MISSING>","850-234-2202","<MISSING>","30.2007","-85.8136","Mon-Fri7:30 AM - 6:00 PMSaturday8:00 AM - 4:00 PMSunday10:00 AM - 4:00 PM","https://www.tuffy.com/location_search?zip_code=Florida"
"https://www.tuffy.com","TUFFY BEAUFORT","308 Robert Smalls Pkwy.","Beaufort","SC","29906","US","<MISSING>","843-524-1007","<MISSING>","32.3823","-80.7603","Mon-Fri7:30 AM - 6:00 PMSaturday7:30 AM - 4:00 PMSundayClosed","https://www.tuffy.com/location_search?zip_code=Florida"
"https://www.tuffy.com","TUFFY DOTHAN","3109 Ross Clark Circle","Dothan","AL","36301","US","<MISSING>","334-678-8339","<MISSING>","31.1481","-85.3718","Mon-Fri7:00 AM - 6:00 PMSaturday8:00 AM - 4:00 PMSunday10:00 AM - 4:00 PM","https://www.tuffy.com/location_search?zip_code=Florida"
"https://www.tuffy.com","TUFFY DESTIN","4604 Opa Locka Lane","Destin","FL","32541","US","<MISSING>","850-269-2300","<MISSING>","30.3949","-86.4692","Mon-Fri7:30 AM - 6:00 PMSaturday8:00 AM - 4:00 PMSunday10:00 AM - 4:00 PM","https://www.tuffy.com/location_search?zip_code=Florida"
"https://www.tuffy.com","TUFFY MARY ESTHER","141 W Miracle Strip Pkwy","Mary Esther","FL","32569","US","<MISSING>","850-243-2544","<MISSING>","30.4085","-86.7352","Mon-Fri7:30 AM - 6:00 PMSaturday8:00 AM - 4:00 PMSundayClosed","https://www.tuffy.com/location_search?zip_code=Florida"
"https://www.tuffy.com","TUFFY GULF BREEZE","3737  Parkway","Gulf Breeze","FL","32563","US","<MISSING>","850-934-8839","<MISSING>","30.3962","-87.0274","Mon-Fri7:30 AM - 6:00 PMSaturday8:00 AM - 4:00 PMSunday10:00 AM - 4:00 PM","https://www.tuffy.com/location_search?zip_code=Florida"
"https://www.tuffy.com","TUFFY PENSACOLA","9350 University Pkwy","Pensacola","FL","32514","US","<MISSING>","850-478-8884","<MISSING>","30.5241","-87.2167","Mon-Fri7:30 AM - 6:00 PMSaturday8:00 AM - 4:00 PMSundayClosed","https://www.tuffy.com/location_search?zip_code=Florida"
"https://www.tuffy.com","TUFFY BOURBONNAIS","577 William Latham Dr.","Bourbonnais","IL","60914","US","<MISSING>","815-929-1866","<MISSING>","41.1661","-87.879","Mon-Fri8:00 AM - 6:00 PMSaturday8:00 AM - 4:00 PMSundayClosed","https://www.tuffy.com/location_search?zip_code=Illinois"
"https://www.tuffy.com","TUFFY YORKVILLE","456 E. Veterans Pkwy","Yorkville","IL","60560","US","<MISSING>","630-553-9311","<MISSING>","41.6387","-88.4438","Mon-Fri8:00 AM - 6:00 PMSaturday8:00 AM - 4:00 PMSundayClosed","https://www.tuffy.com/location_search?zip_code=Illinois"
"https://www.tuffy.com","TUFFY JOLIET","2031 SR 59","Joliet","IL","60586","US","<MISSING>","815-436-1829","<MISSING>","41.5642","-88.2178","Mon-Fri7:30 AM - 6:00 PMSaturday7:30 AM - 4:00 PMSundayClosed","https://www.tuffy.com/location_search?zip_code=Illinois"
"https://www.tuffy.com","TUFFY OSWEGO","1555 US Highway 34","Oswego","IL","60543","US","<MISSING>","630-898-6220","<MISSING>","41.6849","-88.3453","Mon-Fri8:00 AM - 6:00 PMSaturday8:00 AM - 5:00 PMSundayClosed","https://www.tuffy.com/location_search?zip_code=Illinois"
"https://www.tuffy.com","TUFFY PLAINFIELD","23846 W. 135th St.","Plainfield","IL","60544","US","<MISSING>","815-436-1337","<MISSING>","41.6009","-88.1994","Mon-Fri7:30 AM - 6:00 PMSaturday7:30 AM - 5:00 PMSundayClosed","https://www.tuffy.com/location_search?zip_code=Illinois"
"https://www.tuffy.com","TUFFY LOCKPORT","600 E 9th Street","Lockport","IL","60441","US","<MISSING>","815-838-3700","<MISSING>","41.593","-88.0507","Mon-Fri8:00 AM - 6:00 PMSaturday8:00 AM - 4:00 PMSundayClosed","https://www.tuffy.com/location_search?zip_code=Illinois"
"https://www.tuffy.com","TUFFY ROMEOVILLE","652 Independence Blvd.","Romeoville","IL","60446","US","<MISSING>","815-886-5700","<MISSING>","41.6404","-88.0696","Mon-Fri8:00 AM - 6:00 PMSaturday8:00 AM - 2:00 PMSundayClosed","https://www.tuffy.com/location_search?zip_code=Illinois"
"https://www.tuffy.com","TUFFY AURORA","3190 N.  Rd.","Aurora","IL","60502","US","<MISSING>","630-898-6688","<MISSING>","41.7845","-88.2616","Mon-Fri8:00 AM - 6:00 PMSaturday8:00 AM - 4:00 PMSundayClosed","https://www.tuffy.com/location_search?zip_code=Illinois"
"https://www.tuffy.com","TUFFY BATAVIA","271 S. Randall Rd.","Batavia","IL","60510","US","<MISSING>","630-879-9941","<MISSING>","41.8482","-88.3098","Mon-Fri8:00 AM - 6:00 PMSaturday8:00 AM - 4:00 PMSundayClosed","https://www.tuffy.com/location_search?zip_code=Illinois"
"https://www.tuffy.com","TUFFY FRANKFORT","20250 S. Lagrange Rd.","Frankfort","IL","60423","US","<MISSING>","815-469-7900","<MISSING>","41.5094","-87.8248","Mon-Fri7:30 AM - 6:00 PMSaturday7:30 AM - 5:00 PMSundayClosed","https://www.tuffy.com/location_search?zip_code=Illinois"
"https://www.tuffy.com","TUFFY HOMER GLEN","15743 S. Bell Rd.","Homer Glen","IL","60491","US","<MISSING>","708-301-8885","<MISSING>","41.6028","-87.9599","Mon-Fri8:00 AM - 5:30 PMSaturday8:00 AM - 3:00 PMSundayClosed","https://www.tuffy.com/location_search?zip_code=Illinois"
"https://www.tuffy.com","TUFFY ORLAND PARK","7900 W. 159th St.","Orland Park","IL","60462","US","<MISSING>","708-444-2966","<MISSING>","41.6194","-87.8423","Mon-Fri7:30 AM - 7:00 PMSaturday7:30 AM - 6:00 PMSundayClosed","https://www.tuffy.com/location_search?zip_code=Illinois"
"https://www.tuffy.com","TUFFY ELGIN","395 S. Randall Road","Elgin","IL","60123","US","<MISSING>","847-717-4682","<MISSING>","42.0376","-88.3186","Mon-Fri7:30 AM - 6:00 PMSaturday8:00 AM - 4:00 PMSundayClosed","https://www.tuffy.com/location_search?zip_code=Illinois"
"https://www.tuffy.com","TUFFY GLENDALE HEIGHTS","1153 Bloomingdale Rd.","Glendale Heights","IL","60139","US","<MISSING>","630-588-8846","<MISSING>","41.9205","-88.0793","Mon-Fri7:30 AM - 6:00 PMSaturday8:00 AM - 4:00 PMSundayClosed","https://www.tuffy.com/location_search?zip_code=Illinois"
"https://www.tuffy.com","TUFFY ROCKFORD","6574 E. Riverside (1 Mile West of I-90)","Loves Park","IL","61111","US","<MISSING>","815-639-1239","<MISSING>","42.3295","-89.0335","Mon-Fri7:30 AM - 6:00 PMSaturday8:00 AM - 4:00 PMSundayClosed","https://www.tuffy.com/location_search?zip_code=Illinois"
"https://www.tuffy.com","TUFFY LAKE IN THE HILLS","59 West Acorn Lane Lake in the","Hills","IL","60156","US","<MISSING>","847-854-9850","<MISSING>","42.1817","-88.3304","Mon-Fri7:30 AM - 6:00 PMSaturday7:30 AM - 4:00 PMSundayClosed","https://www.tuffy.com/location_search?zip_code=Illinois"
"https://www.tuffy.com","TUFFY CHICAGO (DIVERSEY PKWY.)","1400 W. Diversey Pkwy","Chicago","IL","60614","US","<MISSING>","773-929-3622","<MISSING>","41.9229","-87.6483","Mon-Fri7:30 AM - 7:00 PMSaturday8:00 AM - 5:00 PMSunday9:00 AM - 5:00 PM","https://www.tuffy.com/location_search?zip_code=Illinois"
"https://www.tuffy.com","TUFFY IOWA CITY","909 S Riverside Dr","Iowa City","IA","52246","US","<MISSING>","319-341-7720","<MISSING>","41.6438","-91.5669","Mon-Fri7:30 AM - 6:00 PMSaturday8:00 AM - 4:00 PMSundayClosed","https://www.tuffy.com/location_search?zip_code=Illinois"
"https://www.tuffy.com","TUFFY CEDAR RAPIDS - ST AVENUE SE","3535 1st Avenue SE","Cedar Rapids","IA","52402","US","<MISSING>","319-286-1111","<MISSING>","42.0188","-91.6612","Mon-Fri7:30 AM - 6:00 PMSaturday8:00 AM - 4:00 PMSundayClosed","https://www.tuffy.com/location_search?zip_code=Illinois"
"https://www.tuffy.com","TUFFY CEDAR RAPIDS - EDGEWOOD ROAD","2160 Edgewood Road Suite #200","Cedar Rapids","IA","52404","US","<MISSING>","319-654-8405","<MISSING>","41.9521","-91.6853","Mon-Fri7:30 AM - 6:00 PMSaturday8:00 AM - 4:00 PMSundayClosed","https://www.tuffy.com/location_search?zip_code=Illinois"
"https://www.tuffy.com","TUFFY WAUKESHA","S31 W24721 Sunset Drive","Waukesha","WI","53189","US","<MISSING>","262-513-9500","<MISSING>","42.9516","-88.2963","Mon-Fri7:30 AM - 6:00 PMSaturday7:30 AM - 5:00 PMSundayClosed","https://www.tuffy.com/location_search?zip_code=Illinois"
"https://www.tuffy.com","TUFFY ELKHART","3703 S. Main","Elkhart","IN","46517","US","<MISSING>","574-875-5146","<MISSING>","41.6469","-85.9728","Mon-Fri8:00 AM - 5:30 PMSaturday8:00 AM - 4:00 PMSundayClosed","https://www.tuffy.com/location_search?zip_code=Illinois"
"https://www.tuffy.com","TUFFY WATERLOO","1325 Ansborough","Waterloo","IA","50701","US","<MISSING>","319-234-4163","<MISSING>","42.4778","-92.3661","Mon-Fri7:30 AM - 6:00 PMSaturday8:00 AM - 4:00 PMSundayClosed","https://www.tuffy.com/location_search?zip_code=Illinois"
"https://www.tuffy.com","TUFFY CEDAR FALLS","2322 Main Street","Cedar Falls","IA","50613","US","<MISSING>","319-277-0405","<MISSING>","42.5241","-92.4497","Mon-Fri7:30 AM - 6:00 PMSaturday8:00 AM - 4:00 PMSundayClosed","https://www.tuffy.com/location_search?zip_code=Illinois"
"https://www.tuffy.com","TUFFY MUNCIE","1200 W. McGalliard Rd.","Muncie","IN","47303","US","<MISSING>","765-288-9466","<MISSING>","40.218","-85.379","Mon-Fri8:00 AM - 6:00 PMSaturday8:00 AM - 2:00 PMSundayClosed","https://www.tuffy.com/location_search?zip_code=Illinois"
"https://www.tuffy.com","TUFFY FORT WAYNE (W. JEFFERSON BLVD.)","5624 W. Jefferson Blvd.","Fort Wayne","IN","46804","US","<MISSING>","260-436-5377","<MISSING>","41.0508","-85.256","Mon-Fri7:30 AM - 6:00 PMSaturday8:00 AM - 4:00 PMSunday10:00 AM - 4:00 PM","https://www.tuffy.com/location_search?zip_code=Illinois"
"https://www.tuffy.com","TUFFY STURGIS","68864 S. Centerville Rd.","Sturgis","MI","49091","US","<MISSING>","269-651-7713","<MISSING>","41.8089","-85.4264","Mon-Fri8:00 AM - 5:30 PMSaturday8:00 AM - 2:00 PMSundayClosed","https://www.tuffy.com/location_search?zip_code=Illinois"
"https://www.tuffy.com","TUFFY FORT WAYNE (DUPONT RD.)","1910 W. Dupont Rd.","Fort Wayne","IN","46818","US","<MISSING>","260-489-4800","<MISSING>","41.1468","-85.2067","Mon-Fri7:30 AM - 6:00 PMSaturday8:00 AM - 4:00 PMSundayClosed","https://www.tuffy.com/location_search?zip_code=Illinois"
"https://www.tuffy.com","TUFFY FORT WAYNE COLDWATER RD","4028 Coldwater Rd.","Fort Wayne","IN","46805","US","<MISSING>","260-483-2236","<MISSING>","41.0977","-85.1189","Mon-Fri7:30 AM - 6:00 PMSaturday8:00 AM - 4:00 PMSundayClosed","https://www.tuffy.com/location_search?zip_code=Illinois"
"https://www.tuffy.com","TUFFY PORTAGE","7027 S. Westnedge","Portage","MI","49002","US","<MISSING>","269-327-9600","<MISSING>","42.1938","-85.5639","Mon-Fri7:30 AM - 6:00 PMSaturday7:30 AM - 6:00 PMSundayClosed","https://www.tuffy.com/location_search?zip_code=Illinois"
"https://www.tuffy.com","TUFFY HOLLAND","90 Waverly Rd.","Holland","MI","49423","US","<MISSING>","616-394-0880","<MISSING>","42.7692","-86.1164","Mon-Fri8:00 AM - 6:00 PMSaturday8:00 AM - 2:00 PMSundayClosed","https://www.tuffy.com/location_search?zip_code=Illinois"
"https://www.tuffy.com","TUFFY FORT WAYNE (PLANTATION LANE)","6202 Plantation Ln.","Fort Wayne","IN","46815","US","<MISSING>","260-486-7283","<MISSING>","41.1053","-85.0624","Mon-Fri8:00 AM - 6:00 PMSaturday8:00 AM - 4:00 PMSundayClosed","https://www.tuffy.com/location_search?zip_code=Illinois"
"https://www.tuffy.com","TUFFY ANKENY","1685 SE Delaware Ave","Ankeny","IA","50021","US","<MISSING>","515-965-5570","<MISSING>","41.7212","-93.5682","Mon-Fri8:00 AM - 6:00 PMSaturday8:00 AM - 4:00 PMSundayClosed","https://www.tuffy.com/location_search?zip_code=Illinois"
"https://www.tuffy.com","TUFFY GRAND HAVEN","435 N. Beacon Blvd.","Grand Haven","MI","49417","US","<MISSING>","616-844-5557","<MISSING>","43.0378","-86.1912","Mon-Fri7:30 AM - 6:00 PMSaturday7:30 AM - 3:00 PMSundayClosed","https://www.tuffy.com/location_search?zip_code=Illinois"
"https://www.tuffy.com","TUFFY WEST DES MOINES","2135 W Grand Avenue","West Des Moines","IA","50265","US","<MISSING>","515-457-3056","<MISSING>","41.5805","-93.7447","Mon-Fri7:30 AM - 5:30 PMSaturday7:30 AM - 3:00 PMSundayClosed","https://www.tuffy.com/location_search?zip_code=Illinois"
"https://www.tuffy.com","TUFFY CLIVE","16000 Hickman Dr. Suite A","Clive","IA","50325","US","<MISSING>","515-987-0017","<MISSING>","41.6067","-93.7457","Mon-Fri7:30 AM - 6:00 PMSaturday7:30 AM - 3:00 PMSundayClosed","https://www.tuffy.com/location_search?zip_code=Illinois"
"https://www.tuffy.com","TUFFY WYOMING","4315 Clyde Park Ave. SW","Wyoming","MI","49509","US","<MISSING>","616-534-8643","<MISSING>","42.9134","-85.7053","Mon-Fri7:30 AM - 6:00 PMSaturday7:30 AM - 3:00 PMSundayClosed","https://www.tuffy.com/location_search?zip_code=Illinois"
"https://www.tuffy.com","TUFFY KENTWOOD (KALAMAZOO AVE. SE)","4384 Kalamazoo Ave. SE","Kentwood","MI","49508","US","<MISSING>","616-301-1436","<MISSING>","42.8894","-85.6219","Mon-Fri7:30 AM - 6:00 PMSaturday7:30 AM - 3:00 PMSundayClosed","https://www.tuffy.com/location_search?zip_code=Illinois"
"https://www.tuffy.com","TUFFY GRAND RAPIDS (TH ST.)","610 28th St. SE","Grand Rapids","MI","49548","US","<MISSING>","616-452-4425","<MISSING>","42.8697","-85.6628","Mon-Fri7:30 AM - 6:00 PMSaturday7:30 AM - 3:00 PMSundayClosed","https://www.tuffy.com/location_search?zip_code=Illinois"
"https://www.tuffy.com","TUFFY GRAND RAPIDS (FULLER AVE.)","1121 Fuller Ave. NE","Grand Rapids","MI","49503","US","<MISSING>","616-458-8091","<MISSING>","42.9659","-85.6527","Mon-Fri8:00 AM - 6:00 PMSaturday8:00 AM - 3:00 PMSundayClosed","https://www.tuffy.com/location_search?zip_code=Illinois"
"https://www.tuffy.com","TUFFY GRAND RAPIDS (CASCADE AVE.)","6896 Cascade Rd.","Grand Rapids","MI","49546","US","<MISSING>","616-956-7640","<MISSING>","42.928","-85.5483","Mon-Fri8:00 AM - 6:00 PMSaturday8:00 AM - 3:00 PMSundayClosed","https://www.tuffy.com/location_search?zip_code=Illinois"
"https://www.tuffy.com","TUFFY MARSHALL","824 W. Michigan Ave.","Marshall","MI","49068","US","<MISSING>","269-789-8833","<MISSING>","42.272","-84.9583","Mon-Fri8:00 AM - 5:00 PMSaturday8:00 AM - 12:00 PMSundayClosed","https://www.tuffy.com/location_search?zip_code=Illinois"
"https://www.tuffy.com","TUFFY APPLETON","2940 E. College Ave.","Appleton","WI","54915","US","<MISSING>","920-954-8500","<MISSING>","44.2425","-88.3564","Mon-Fri7:00 AM - 6:00 PMSaturday8:00 AM - 1:00 PMSundayClosed","https://www.tuffy.com/location_search?zip_code=Illinois"
"https://www.tuffy.com","TUFFY JACKSON","415 N.  St.","Jackson","MI","49201","US","<MISSING>","517-784-6173","<MISSING>","42.2545","-84.3875","Mon-Fri8:00 AM - 5:30 PMSaturday8:00 AM - 12:00 PMSundayClosed","https://www.tuffy.com/location_search?zip_code=Illinois"
"https://www.tuffy.com","TUFFY FIELDS-ERTEL CINCINNATI","9401 Fields-Ertel","Cincinnati","OH","45249","US","<MISSING>","513-683-5060","<MISSING>","39.2692","-84.3307","Mon-Fri7:30 AM - 6:00 PMSaturday8:00 AM - 4:00 PMSundayClosed","https://www.tuffy.com/location_search?zip_code=Illinois"
"https://www.tuffy.com","TUFFY WEST LANSING","4200 W. Saginaw","Lansing","MI","48917","US","<MISSING>","517-323-2222","<MISSING>","42.7376","-84.6244","Mon-Fri7:30 AM - 6:00 PMSaturday7:30 AM - 4:00 PMSundayClosed","https://www.tuffy.com/location_search?zip_code=Illinois"
"https://www.tuffy.com","TUFFY SOUTH LANSING","5217 S. Pennsylvania Ave.","Lansing","MI","48910","US","<MISSING>","517-393-7400","<MISSING>","42.7008","-84.549","Mon-Fri8:00 AM - 6:00 PMSaturday8:00 AM - 4:00 PMSundayClosed","https://www.tuffy.com/location_search?zip_code=Illinois"
"https://www.tuffy.com","TUFFY FRANDOR","3015 E. Grand River Ave.","Lansing","MI","48912","US","<MISSING>","517-351-1466","<MISSING>","42.7371","-84.5244","Mon-Fri7:30 AM - 6:00 PMSaturday7:30 AM - 4:00 PMSundayClosed","https://www.tuffy.com/location_search?zip_code=Illinois"
"https://www.tuffy.com","TUFFY EAST LANSING","2717 E. Grand River","East Lansing","MI","48823","US","<MISSING>","517-351-9100","<MISSING>","42.7388","-84.4764","Mon-Fri7:30 AM - 6:00 PMSaturday7:30 AM - 4:00 PMSundayClosed","https://www.tuffy.com/location_search?zip_code=Illinois"
"https://www.tuffy.com","TUFFY XENIA","687 N. Detroit Street","Xenia","OH","45385","US","<MISSING>","937-372-3575","<MISSING>","39.6842","-83.9369","Mon-Fri7:00 AM - 5:30 PMSaturday8:00 AM - 12:00 PMSundayClosed","https://www.tuffy.com/location_search?zip_code=Illinois"
"https://www.tuffy.com","TUFFY SPRINGFIELD (W. COLUMBIA ST.)","435 W. Columbia Street","Springfield","OH","45504","US","<MISSING>","937-323-9741","<MISSING>","39.9408","-83.8343","Mon-Fri8:00 AM - 5:30 PMSaturday8:00 AM - 2:00 PMSundayClosed","https://www.tuffy.com/location_search?zip_code=Illinois"
"https://www.tuffy.com","TUFFY BOWLING GREEN","1087 S. Main Street","Bowling Green","OH","43402","US","<MISSING>","419-353-2444","<MISSING>","41.3815","-83.6507","Mon-Fri8:00 AM - 6:00 PMSaturday8:00 AM - 4:00 PMSundayClosed","https://www.tuffy.com/location_search?zip_code=Illinois"
"https://www.tuffy.com","TUFFY TOLEDO (CENTRAL AVE.)","7403 W. Central Avenue","Toledo","OH","43617","US","<MISSING>","419-841-3033","<MISSING>","41.6668","-83.717","Mon-Fri7:30 AM - 6:00 PMSaturday7:30 AM - 5:00 PMSundayClosed","https://www.tuffy.com/location_search?zip_code=Illinois"
"https://www.tuffy.com","TUFFY FINDLAY","2026 Tiffin Avenue","Findlay","OH","45840","US","<MISSING>","419-427-2225","<MISSING>","41.0449","-83.6457","Mon-Fri8:00 AM - 6:00 PMSaturday8:00 AM - 2:00 PMSundayClosed","https://www.tuffy.com/location_search?zip_code=Illinois"
"https://www.tuffy.com","TUFFY PERRYSBURG","27140 Oakmead Dr.","Perrysburg","OH","43551","US","<MISSING>","419-873-8330","<MISSING>","41.5429","-83.5927","Mon-Fri7:30 AM - 6:00 PMSaturday8:00 AM - 4:00 PMSundayClosed","https://www.tuffy.com/location_search?zip_code=Illinois"
"https://www.tuffy.com","TUFFY TOLEDO (LASKEY RD.)","1640 Laskey","Toledo","OH","43612","US","<MISSING>","419-478-1414","<MISSING>","41.7046","-83.5656","Mon-Fri8:00 AM - 6:00 PMSaturday8:00 AM - 2:00 PMSundayClosed","https://www.tuffy.com/location_search?zip_code=Illinois"
"https://www.tuffy.com","TUFFY MOUNT PLEASANT","4703 E. Pickard Rd.","Mount Pleasant","MI","48858","US","<MISSING>","989-773-2311","<MISSING>","43.6013","-84.7736","Mon-Fri8:00 AM - 6:00 PMSaturday8:00 AM - 4:00 PMSundayClosed","https://www.tuffy.com/location_search?zip_code=Illinois"
"https://www.tuffy.com","TUFFY YPSILANTI","2441 Washtenaw Avenue","Ypsilanti","MI","48197","US","<MISSING>","734-434-1090","<MISSING>","42.2325","-83.6336","Mon-Fri8:00 AM - 6:00 PMSaturday8:00 AM - 4:00 PMSundayClosed","https://www.tuffy.com/location_search?zip_code=Illinois"
"https://www.tuffy.com","TUFFY SOUTH LYON","22750 Pontiac Trail","South Lyon","MI","48178","US","<MISSING>","248-437-4800","<MISSING>","42.4567","-83.659","Mon-Fri8:00 AM - 6:00 PMSaturday8:00 AM - 2:00 PMSundayClosed","https://www.tuffy.com/location_search?zip_code=Illinois"
"https://www.tuffy.com","TUFFY CADILLAC","1020 N Mitchell St.","Cadillac","MI","49601","US","<MISSING>","231-779-1999","<MISSING>","44.2504","-85.43","Mon-Fri8:00 AM - 6:00 PMSaturday8:00 AM - 4:00 PMSundayClosed","https://www.tuffy.com/location_search?zip_code=Illinois"
"https://www.tuffy.com","TUFFY FENTON","3509 Owen Rd.","Fenton","MI","48430","US","<MISSING>","810-629-1600","<MISSING>","42.7851","-83.7294","Mon-Fri8:00 AM - 6:00 PMSaturday8:00 AM - 1:00 PMSundayClosed","https://www.tuffy.com/location_search?zip_code=Illinois"
"https://www.tuffy.com","TUFFY HIGHLAND","2675 S. Milford Rd.","Highland","MI","48357","US","<MISSING>","248-684-8833","<MISSING>","42.6595","-83.637","Mon-Fri7:30 AM - 6:00 PMSaturday8:00 AM - 3:00 PMSundayClosed","https://www.tuffy.com/location_search?zip_code=Illinois"
"https://www.tuffy.com","TUFFY HILLIARD","4462 Cemetery Road","Hilliard","OH","43026","US","<MISSING>","614-771-6677","<MISSING>","40.0322","-83.1383","Mon-Fri7:30 AM - 7:00 PMSaturday7:30 AM - 2:00 PMSundayClosed","https://www.tuffy.com/location_search?zip_code=Illinois"
"https://www.tuffy.com","TUFFY WALLED LAKE","784 N. Pontiac Trail","Walled Lake","MI","48390","US","<MISSING>","248-624-4440","<MISSING>","42.5582","-83.4773","Mon-Fri7:30 AM - 7:00 PMSaturday7:30 AM - 5:00 PMSundayClosed","https://www.tuffy.com/location_search?zip_code=Illinois"
"https://www.tuffy.com","TUFFY FLINT (MILLER RD.)","G-3045 Miller Rd.","Flint","MI","48507","US","<MISSING>","810-239-6643","<MISSING>","42.9821","-83.734","Mon-Fri8:00 AM - 6:00 PMSaturday8:00 AM - 1:00 PMSundayClosed","https://www.tuffy.com/location_search?zip_code=Illinois"
"https://www.tuffy.com","TUFFY SAGINAW (GRATIOT RD.)","7975 Gratiot","Saginaw","MI","48609","US","<MISSING>","989-781-0440","<MISSING>","43.3869","-84.0926","Mon-Fri7:30 AM - 6:00 PMSaturday7:30 AM - 5:00 PMSundayClosed","https://www.tuffy.com/location_search?zip_code=Illinois"
"https://www.tuffy.com","TUFFY FARMINGTON HILLS","24301 Halsted Rd.  Hills","Farmington","MI","48335","US","<MISSING>","248-477-3788","<MISSING>","42.4617","-83.4053","Mon-Fri7:30 AM - 6:00 PMSaturday7:30 AM - 5:00 PMSundayClosed","https://www.tuffy.com/location_search?zip_code=Illinois"
"https://www.tuffy.com","TUFFY COLUMBUS (WEST BROAD)","4188 W. Broad","Columbus","OH","43228","US","<MISSING>","614-276-0164","<MISSING>","39.9648","-83.126","Mon-Fri8:00 AM - 6:00 PMSaturday8:00 AM - 5:00 PMSundayClosed","https://www.tuffy.com/location_search?zip_code=Illinois"
"https://www.tuffy.com","TUFFY FLINT (W. PIERSON RD.)","G-4175 W Pierson Rd.","Flint","MI","48504","US","<MISSING>","810-785-7320","<MISSING>","43.0573","-83.7498","Mon-Fri8:00 AM - 6:00 PMSaturday8:00 AM - 1:00 PMSundayClosed","https://www.tuffy.com/location_search?zip_code=Illinois"
"https://www.tuffy.com","TUFFY POWELL","7854 Smoky Row Road","Powell","OH","43065","US","<MISSING>","614-792-0770","<MISSING>","40.1834","-83.0912","Mon-Fri8:00 AM - 7:00 PMSaturday7:00 AM - 5:00 PMSundayClosed","https://www.tuffy.com/location_search?zip_code=Illinois"
"https://www.tuffy.com","TUFFY MIDLAND","2100 S. Saginaw","Midland","MI","48640","US","<MISSING>","989-835-5030","<MISSING>","43.6376","-84.268","Mon-Fri8:00 AM - 6:00 PMSaturday8:00 AM - 4:00 PMSundayClosed","https://www.tuffy.com/location_search?zip_code=Illinois"
"https://www.tuffy.com","TUFFY LEWIS CENTER","210 Hornbeam Lane","Lewis Center","OH","43035","US","<MISSING>","740-549-3332","<MISSING>","40.1879","-82.9878","Mon-Fri7:30 AM - 6:30 PMSaturday8:00 AM - 5:00 PMSundayClosed","https://www.tuffy.com/location_search?zip_code=Illinois"
"https://www.tuffy.com","TUFFY GRANDVIEW","1524 W. Fifth Avenue","Columbus","OH","43212","US","<MISSING>","614-487-8776","<MISSING>","39.9874","-83.0456","Mon-Fri8:00 AM - 5:00 PMSaturday8:00 AM - 4:00 PMSundayClosed","https://www.tuffy.com/location_search?zip_code=Illinois"
"https://www.tuffy.com","TUFFY FLINT (S. DORT HWY.)","1802 S Dort Highway","Flint","MI","48503","US","<MISSING>","810-238-2550","<MISSING>","43.0128","-83.6914","Mon-Fri8:00 AM - 6:00 PMSaturday8:00 AM - 1:00 PMSundayClosed","https://www.tuffy.com/location_search?zip_code=Illinois"
"https://www.tuffy.com","TUFFY GROVE CITY","2131 Stringtown Road","Grove City","OH","43123","US","<MISSING>","614-871-4020","<MISSING>","39.8814","-83.0839","Mon-Fri7:30 AM - 6:00 PMSaturday8:00 AM - 5:00 PMSundayClosed","https://www.tuffy.com/location_search?zip_code=Illinois"
"https://www.tuffy.com","TUFFY SAGINAW (BAY ROAD)","2929 Bay Road","Saginaw","MI","48603","US","<MISSING>","989-790-2020","<MISSING>","43.4631","-84.0297","Mon-Fri7:30 AM - 6:00 PMSaturday7:30 AM - 5:00 PMSundayClosed","https://www.tuffy.com/location_search?zip_code=Illinois"
"https://www.tuffy.com","TUFFY CLIO","11524 N. Saginaw Street","Clio","MI","48420","US","<MISSING>","810-686-1000","<MISSING>","43.1779","-83.7249","Mon-Fri8:00 AM - 6:00 PMSaturday8:00 AM - 1:00 PMSundayClosed","https://www.tuffy.com/location_search?zip_code=Illinois"
"https://www.tuffy.com","TUFFY COLUMBUS (CLEVELAND AVE.)","6853 Cleveland Avenue","Columbus","OH","43231","US","<MISSING>","614-895-1588","<MISSING>","40.081","-82.9383","Mon-Fri7:30 AM - 7:00 PMSaturday7:30 AM - 4:00 PMSundayClosed","https://www.tuffy.com/location_search?zip_code=Illinois"
"https://www.tuffy.com","TUFFY WESTERVILLE","7128 State Route 3","Westerville","OH","43082","US","<MISSING>","614-818-9036","<MISSING>","40.1524","-82.882","Mon-Fri7:30 AM - 6:00 PMSaturday8:00 AM - 5:00 PMSundayClosed","https://www.tuffy.com/location_search?zip_code=Illinois"
"https://www.tuffy.com","TUFFY TRAVERSE CITY","1124 S Garfield Avenue","Traverse City","MI","49686","US","<MISSING>","231-946-1155","<MISSING>","44.7849","-85.4907","Mon-Fri8:00 AM - 6:00 PMSaturday8:00 AM - 4:00 PMSundayClosed","https://www.tuffy.com/location_search?zip_code=Illinois"
"https://www.tuffy.com","TUFFY BELLEVUE","2204 Pratt Ave (22nd & Cornhusker Road)","Bellevue","NE","68123","US","<MISSING>","402-291-3229","<MISSING>","41.1156","-95.9393","Mon-Fri7:30 AM - 5:30 PMSaturday8:00 AM - 3:00 PMSundayClosed","https://www.tuffy.com/location_search?zip_code=Illinois"
"https://www.tuffy.com","TUFFY BAY CITY","400 S. Euclid","Bay City","MI","48706","US","<MISSING>","989-686-6060","<MISSING>","43.6088","-83.953","Mon-Fri7:30 AM - 6:00 PMSaturday7:30 AM - 5:00 PMSundayClosed","https://www.tuffy.com/location_search?zip_code=Illinois"
"https://www.tuffy.com","TUFFY PAPILLION","714 N Washington St.","Papillion","NE","68046","US","<MISSING>","402-596-0700","<MISSING>","41.1523","-96.0371","Mon-Fri7:30 AM - 6:00 PMSaturday7:30 AM - 5:00 PMSundayClosed","https://www.tuffy.com/location_search?zip_code=Illinois"
"https://www.tuffy.com","TUFFY TROY AUTO REPAIR","530 E. Maple Rd.","Troy","MI","48083","US","<MISSING>","248-585-2770","<MISSING>","42.5597","-83.1138","Mon-Fri7:00 AM - 6:00 PMSaturday7:00 AM - 4:00 PMSundayClosed","https://www.tuffy.com/location_search?zip_code=Illinois"
"https://www.tuffy.com","TUFFY ROCHESTER HILLS","2716 S.  Road  Hills","Rochester","MI","48307","US","<MISSING>","248-853-2000","<MISSING>","42.6593","-83.1225","Mon-Fri8:00 AM - 6:00 PMSaturday8:00 AM - 4:00 PMSundayClosed","https://www.tuffy.com/location_search?zip_code=Illinois"
"https://www.tuffy.com","TUFFY MILLARD","4870 S 137th Street","Omaha","NE","68137","US","<MISSING>","402-895-4274","<MISSING>","41.2075","-96.1147","Mon-Fri8:00 AM - 6:00 PMSaturday8:00 AM - 4:00 PMSundayClosed","https://www.tuffy.com/location_search?zip_code=Illinois"
"https://www.tuffy.com","TUFFY SHELBY TOWNSHIP","48124 Van Dyke Shelby","Township","MI","48317","US","<MISSING>","586-323-9550","<MISSING>","42.6413","-83.0504","Mon-Fri7:30 AM - 6:00 PMSaturday8:00 AM - 4:00 PMSundayClosed","https://www.tuffy.com/location_search?zip_code=Illinois"
"https://www.tuffy.com","TUFFY OMAHA (EVANS ST.)","17110 Evans St.","Omaha","NE","68116","US","<MISSING>","402-289-3900","<MISSING>","41.2879","-96.1495","Mon-Fri7:30 AM - 6:00 PMSaturday7:30 AM - 5:00 PMSundayClosed","https://www.tuffy.com/location_search?zip_code=Illinois"
"https://www.tuffy.com","TUFFY OMAHA (WRIGHT ST.)","18440 Wright St.","Omaha","NE","68130","US","<MISSING>","402-393-2608","<MISSING>","41.2355","-96.1688","Mon-Fri7:30 AM - 6:00 PMSaturday7:30 AM - 5:00 PMSundayClosed","https://www.tuffy.com/location_search?zip_code=Illinois"
"https://www.tuffy.com","TUFFY CLINTON TOWNSHIP","19535 15 Mile Road","Clinton Township","MI","48035","US","<MISSING>","586-792-6660","<MISSING>","42.5512","-82.9167","Mon-Fri8:00 AM - 6:00 PMSaturday7:00 AM - 3:00 PMSundayClosed","https://www.tuffy.com/location_search?zip_code=Illinois"
"https://www.tuffy.com","TUFFY LINCOLN","1525 Pine Lake Rd.","Lincoln","NE","68512","US","<MISSING>","402-421-1900","<MISSING>","40.7565","-96.6946","Mon-Fri7:30 AM - 6:00 PMSaturday8:00 AM - 4:00 PMSundayClosed","https://www.tuffy.com/location_search?zip_code=Illinois"
"https://www.tuffy.com","TUFFY PORT HURON","3991 24th Ave. Port","Huron","MI","48059","US","<MISSING>","810-982-0202","<MISSING>","43.0888","-82.4905","Mon-Fri8:00 AM - 5:30 PMSaturday8:00 AM - 1:00 PMSundayClosed","https://www.tuffy.com/location_search?zip_code=Illinois"
"https://www.tuffy.com","TUFFY FARGO","1025 45th Street South","Fargo","ND","58103","US","<MISSING>","701-281-0507","<MISSING>","46.8564","-96.8123","Mon-Fri7:30 AM - 6:00 PMSaturday8:00 AM - 4:00 PMSundayClosed","https://www.tuffy.com/location_search?zip_code=Iowa"
"https://www.tuffy.com","TUFFY PFLUGERVILLE","1009 FM 685","Pflugerville","TX","78660","US","<MISSING>","512-252-7500","<MISSING>","30.4421","-97.6299","Mon-Fri7:30 AM - 7:00 PMSaturday7:30 AM - 5:00 PMSundayClosed","https://www.tuffy.com/location_search?zip_code=Louisiana"
"https://www.tuffy.com","TUFFY ROUND ROCK","16410 FM 620","Round Rock","TX","78681","US","<MISSING>","512-310-5900","<MISSING>","30.5084","-97.7062","Mon-Fri7:30 AM - 7:00 PMSaturday7:30 AM - 5:00 PMSundayClosed","https://www.tuffy.com/location_search?zip_code=Louisiana"
"https://www.tuffy.com","TUFFY AUSTIN","11700 Anderson Mill Rd.","Austin","TX","78750","US","<MISSING>","512-258-3400","<MISSING>","30.4224","-97.7967","Mon-Fri7:30 AM - 6:00 PMSaturday7:30 AM - 5:00 PMSundayClosed","https://www.tuffy.com/location_search?zip_code=Louisiana"
