"locator_domain","location_name","street_address","city","state","zip","country_code","store_number","phone","location_type","latitude","longitude","hours_of_operation","page_url"
"https://www.thebarrecode.com","Tuscaloosa","2700 University Blvd.","Tuscaloosa","AL","35401","US","TUSC","205-523-5096","<MISSING>","<MISSING>","<MISSING>","<MISSING>","https://www.thebarrecode.com/studios/"
"https://www.thebarrecode.com","Newport Beach","2547 Eastbluff Drive","Newport Beach","CA","92660","US","OCNP","949-719-7722","<MISSING>","<MISSING>","<MISSING>","<MISSING>","https://www.thebarrecode.com/studios/"
"https://www.thebarrecode.com","South Bay – Sunnyvale","415 N. Mary Ave., Suite 110","Sunnyvale","CA","94085","US","SBSU","408-721-7936","<MISSING>","<MISSING>","<MISSING>","<MISSING>","https://www.thebarrecode.com/studios/"
"https://www.thebarrecode.com","Denver - Downtown","2252 Larimer St.","Denver","CO","80205","US","DNDT","303-704-4901","<MISSING>","<MISSING>","<MISSING>","<MISSING>","https://www.thebarrecode.com/studios/"
"https://www.thebarrecode.com","Lone Tree","7600 Park Meadows Drive","Lone Tree","CO","80124","US","LNTR","<MISSING>","<MISSING>","<MISSING>","<MISSING>","<MISSING>","https://www.thebarrecode.com/studios/"
"https://www.thebarrecode.com","Miami – Biscayne Corridor","2063 Biscayne Blvd. #C301","Miami","FL","33137","US","BSCO","786-814-8420","<MISSING>","<MISSING>","<MISSING>","<MISSING>","https://www.thebarrecode.com/studios/"
"https://www.thebarrecode.com","Alpharetta","2500 Old Milton Parkway, Suite 125","Alpharetta","GA","30009","US","ALPH","770-337-7000","<MISSING>","<MISSING>","<MISSING>","<MISSING>","https://www.thebarrecode.com/studios/"
"https://www.thebarrecode.com","Arlington Heights","100-102 E. Wing St.","Arlington Heights","IL","60004","US","AHTS","847-749-1158","<MISSING>","<MISSING>","<MISSING>","<MISSING>","https://www.thebarrecode.com/studios/"
"https://www.thebarrecode.com","Chicago - Gold Coast","1165 N. Clark St.","Chicago","IL","60610","US","GOLD","312-280-6800","<MISSING>","<MISSING>","<MISSING>","<MISSING>","https://www.thebarrecode.com/studios/"
"https://www.thebarrecode.com","Chicago - Lakeview","959 W. Belmont Ave.","Chicago","IL","60657","US","LKVW","872-802-4402","<MISSING>","<MISSING>","<MISSING>","<MISSING>","https://www.thebarrecode.com/studios/"
"https://www.thebarrecode.com","Indianapolis - Downtown","231 S College Avenue, Suite 300","Indianapolis","IN","46202","US","DIND","317-296-3431","<MISSING>","<MISSING>","<MISSING>","<MISSING>","https://www.thebarrecode.com/studios/"
"https://www.thebarrecode.com","Indianapolis - Carmel","2168 Glebe St #200","Carmel","IN","46032","US","CRML","317-588-2808","<MISSING>","<MISSING>","<MISSING>","<MISSING>","https://www.thebarrecode.com/studios/"
"https://www.thebarrecode.com","Fishers","10080 E. 121st St., Suite 121","Fishers","IN","46037","US","FSHS","317-915-6010","<MISSING>","<MISSING>","<MISSING>","<MISSING>","https://www.thebarrecode.com/studios/"
"https://www.thebarrecode.com","Louisville - Middletown","12442 Shelbyville Rd.","Louisville","KY","40243","US","LUVL","502-749-2951","<MISSING>","<MISSING>","<MISSING>","<MISSING>","https://www.thebarrecode.com/studios/"
"https://www.thebarrecode.com","New Orleans - Lakeview","787 Harrison Ave.","New Orleans","LA","70124","US","NOLA","504-900-1770","<MISSING>","<MISSING>","<MISSING>","<MISSING>","https://www.thebarrecode.com/studios/"
"https://www.thebarrecode.com","Ann Arbor - Downtown (Campus)","500 E. Washington, Suite 1","Ann Arbor","MI","48104","US","A2DT","734-769-6996","<MISSING>","<MISSING>","<MISSING>","<MISSING>","https://www.thebarrecode.com/studios/"
"https://www.thebarrecode.com","Ann Arbor - Ann Arbor North","2793 Plymouth Rd.","Ann Arbor","MI","48105","US","A2NO","734-436-4948","<MISSING>","<MISSING>","<MISSING>","<MISSING>","https://www.thebarrecode.com/studios/"
"https://www.thebarrecode.com","East Lansing","1024 Trowbridge Rd.","East Lansing","MI","48823","US","ELAN","<MISSING>","<MISSING>","<MISSING>","<MISSING>","<MISSING>","https://www.thebarrecode.com/studios/"
"https://www.thebarrecode.com","Charlotte","424 E. 36th Street, Unit D","Charlotte","NC","28205","US","NODA","<MISSING>","<MISSING>","<MISSING>","<MISSING>","<MISSING>","https://www.thebarrecode.com/studios/"
"https://www.thebarrecode.com","Omaha - Dundee","5002 Dodge St.","Omaha","NE","68132","US","DNDE","402-884-1667","<MISSING>","<MISSING>","<MISSING>","<MISSING>","https://www.thebarrecode.com/studios/"
"https://www.thebarrecode.com","West Omaha","16811 Burke St.","Omaha","NE","68118","US","WEOM","402-289-2200","<MISSING>","<MISSING>","<MISSING>","<MISSING>","https://www.thebarrecode.com/studios/"
"https://www.thebarrecode.com","Cincinnati","615 Main St.","Cincinnati","OH","45202","US","CINC","513-345-7163","<MISSING>","<MISSING>","<MISSING>","<MISSING>","https://www.thebarrecode.com/studios/"
"https://www.thebarrecode.com","Pittsburgh - North Hills","741 Providence Blvd.","Pittsburgh","PA","15237","US","PGHN","412-364-4230","<MISSING>","<MISSING>","<MISSING>","<MISSING>","https://www.thebarrecode.com/studios/"
"https://www.thebarrecode.com","Pittsburgh - Shadyside","804 South Aiken Ave.","Pittsburgh","PA","15232","US","PGHS","412-802-8585","<MISSING>","<MISSING>","<MISSING>","<MISSING>","https://www.thebarrecode.com/studios/"
"https://www.thebarrecode.com","Charleston - Mount Pleasant","1440 Ben Sawyer Blvd., Suite 1500","Mount Pleasant","SC","29464","US","MTPL","843-800-5515","<MISSING>","<MISSING>","<MISSING>","<MISSING>","https://www.thebarrecode.com/studios/"
"https://www.thebarrecode.com","Austin - Downtown","400 Nueces Street","Austin","TX","78701","US","DTAU","<MISSING>","<MISSING>","<MISSING>","<MISSING>","<MISSING>","https://www.thebarrecode.com/studios/"
"https://www.thebarrecode.com","Austin - South Lamar","2300 S. Lamar Blvd.","Austin","TX","78704","US","SOLA","512-852-9120","<MISSING>","<MISSING>","<MISSING>","<MISSING>","https://www.thebarrecode.com/studios/"
"https://www.thebarrecode.com","Dallas - Design District","1430 Dragon St., Suite 25","Dallas","TX","75207","US","BIGD","972-803-5144","<MISSING>","<MISSING>","<MISSING>","<MISSING>","https://www.thebarrecode.com/studios/"
"https://www.thebarrecode.com","Dallas - Highland Park","5757 West Lovers Ln., Suite 350","Dallas","TX","75209","US","DSHP","214-353-9900","<MISSING>","<MISSING>","<MISSING>","<MISSING>","https://www.thebarrecode.com/studios/"
"https://www.thebarrecode.com","Plano","4757 W. Park Blvd., Suite 112","Plano","TX","75093","US","PLNO","469-298-0482","<MISSING>","<MISSING>","<MISSING>","<MISSING>","https://www.thebarrecode.com/studios/"
"https://www.thebarrecode.com","Spokane","11921 N. Division Street","Spokane","WA","99218","US","SPKN","509-316-0493","<MISSING>","<MISSING>","<MISSING>","<MISSING>","https://www.thebarrecode.com/studios/"
"https://www.thebarrecode.com","Tacoma","5719 North 26th St, Suite A","Tacoma","WA","98407","US","TACO","<MISSING>","<MISSING>","<MISSING>","<MISSING>","<MISSING>","https://www.thebarrecode.com/studios/"
"https://www.thebarrecode.com","Brookfield","18000 W. Bluemound Rd.","Brookfield","WI","53045","US","BKFD","262-505-5584","<MISSING>","<MISSING>","<MISSING>","<MISSING>","https://www.thebarrecode.com/studios/"
"https://www.thebarrecode.com","Madison - Downtown","316 W. Washington Ave., Suite 125","Madison","WI","53703","US","DMSN","608-467-9708","<MISSING>","<MISSING>","<MISSING>","<MISSING>","https://www.thebarrecode.com/studios/"
"https://www.thebarrecode.com","Madison - West","5102 Silvertree Run","Madison","WI","53705","US","WMSN","<MISSING>","<MISSING>","<MISSING>","<MISSING>","<MISSING>","https://www.thebarrecode.com/studios/"
"https://www.thebarrecode.com","Milwaukee - Third Ward","225 N. Water St.","Milwaukee","WI","53202","US","TDWA","414-763-1314","<MISSING>","<MISSING>","<MISSING>","<MISSING>","https://www.thebarrecode.com/studios/"
"https://www.thebarrecode.com","Chicago - Michigan Ave.","324 N. Michigan Ave.","Chicago","IL","60601","US","MICH","312-621-8770","<MISSING>","<MISSING>","<MISSING>","<MISSING>","https://www.thebarrecode.com/studios/"
"https://www.thebarrecode.com","Chicago - River North","435 N. LaSalle Blvd.","Chicago","Illinois","60564","US","RINO","312-595-1600","<MISSING>","<MISSING>","<MISSING>","<MISSING>","https://www.thebarrecode.com/studios/"
"https://www.thebarrecode.com","Evanston","604 Davis St.","Evanston","IL","60201","US","EVAN","224-714-2157","<MISSING>","<MISSING>","<MISSING>","<MISSING>","https://www.thebarrecode.com/studios/"
"https://www.thebarrecode.com","Lombard","228A Yorktown Center","Lombard","IL","60148","US","LOMB","630-785-3299","<MISSING>","<MISSING>","<MISSING>","<MISSING>","https://www.thebarrecode.com/studios/"
"https://www.thebarrecode.com","New Lenox","2544 E. Lincoln Highway","New Lenox","IL","60451","US","NLNX","<MISSING>","<MISSING>","<MISSING>","<MISSING>","<MISSING>","https://www.thebarrecode.com/studios/"
"https://www.thebarrecode.com","Vernon Hills","850 N Milwaukee Ave., Suite 200","Vernon Hills","IL","60061","US","VNHL","224-424-4398","<MISSING>","<MISSING>","<MISSING>","<MISSING>","https://www.thebarrecode.com/studios/"
"https://www.thebarrecode.com","Grand Rapids - Heritage Hill","547 Cherry St. SE","Grand Rapids","MI","49503","US","GRHH","<MISSING>","<MISSING>","<MISSING>","<MISSING>","<MISSING>","https://www.thebarrecode.com/studios/"
"https://www.thebarrecode.com","Metro Detroit - Birmingham","2010 Cole Street","Birmingham","MI","48009","US","BHAM","248-220-4062","<MISSING>","<MISSING>","<MISSING>","<MISSING>","https://www.thebarrecode.com/studios/"
"https://www.thebarrecode.com","Metro Detroit - Rochester Hills","1260 Walton Blvd.","Rochester Hills","MI","48307","US","ROCH","248-923-2392","<MISSING>","<MISSING>","<MISSING>","<MISSING>","https://www.thebarrecode.com/studios/"
"https://www.thebarrecode.com","Metro Detroit - Royal Oak","855 S. Main St.","Royal Oak","MI","48067","US","ROAK","248-565-8372","<MISSING>","<MISSING>","<MISSING>","<MISSING>","https://www.thebarrecode.com/studios/"
"https://www.thebarrecode.com","Metro Detroit - Northville","20530 Haggerty Road","Northville","MI","48167","US","NVIL","<MISSING>","<MISSING>","<MISSING>","<MISSING>","<MISSING>","https://www.thebarrecode.com/studios/"
