"locator_domain","page_url","location_name","street_address","city","state","zip","country_code","store_number","phone","location_type","latitude","longitude","hours_of_operation"
"https://imxpilates.com/","http://imxpilates.com/branches/little_rock","little_rock","8218 Cantrell Rd.","Little Rock","AR","72227","US","4347","(501) 475-6006","<MISSING>","34.7772958","-92.3688786","<MISSING>"
"https://imxpilates.com/","http://imxpilates.com/branches/fremont","fremont","130 J Street","Fremont","CA","94536","US","411845","(510) 557-5330","<MISSING>","37.5759733","-121.9789593","<MISSING>"
"https://imxpilates.com/","http://imxdanville.com/","Danville","812 Sycamore Valley Rd West","Danville","CA","94526","US","-48677","(925) 453-6937","<MISSING>","37.812472","-121.9998658","<MISSING>"
"https://imxpilates.com/","http://imxpilates.com/branches/Livermore","Livermore","Now Serving the Tri-Valley! Kitty Hawk Plaza 2490 Nissen Drive","Livermore","CA","94551","US","-48677","(925) 453-6937","<MISSING>","37.6996874","-121.8181459","<MISSING>"
"https://imxpilates.com/","http://imxpilates.com/branches/San_Ramon","San_Ramon","2410 San Ramon Valley Blvd, Ste 112","San Ramon","CA","94583","US","-48677","(925) 791-5040","<MISSING>","37.7755472","-121.978515","<MISSING>"
"https://imxpilates.com/","http://imxpilatesyl.com/","Yorba_Linda","22343 La Palma Avenue, Suite 113","Yorba Linda","CA","92887","US","658410","(714) 461-8592","<MISSING>","33.8828841","-117.742733","<MISSING>"
"https://imxpilates.com/","http://imxpilates.com/branches/highlands_ranch","highlands_ranch","2660 East County Line Road, Suite E","Highlands Ranch","CO","80126","US","32011","(303) 790-7886","<MISSING>","39.5657422","-104.960064","<MISSING>"
"https://imxpilates.com/","http://imxpilates.com/branches/madison","madison","15 Boston Post Road, 2nd Floor","Madison","CT","06443","US","6053","(203) 779-5833","<MISSING>","41.2860198","-72.6481188","<MISSING>"
"https://imxpilates.com/","http://imxpilates.com/branches/north_branford","north_branford","999 Foxon Rd, Twin Lakes Commons West, 2nd Floor","North Branford","CT","06471","US","636072","(203) 484-4440","<MISSING>","41.3299996","-72.7911886","<MISSING>"
"https://imxpilates.com/","http://imxpilateslakenona.com/","lake_nona","10743 Narcoosee Road Suite A21","Orlando","FL","32832","US","936268","(407) 734-5984","<MISSING>","28.4111368","-81.2426347","<MISSING>"
"https://imxpilates.com/","http://imxpilates.com/branches/boise","boise","5620 West State Street","Boise","ID","83703","US","26161","(208) 853-0707","<MISSING>","43.6566415","-116.2609787","<MISSING>"
"https://imxpilates.com/","http://imxpilates.com/branches/carmel","carmel","12701 Meeting House Road","Carmel","IN","46032","US","1070","(317) 815-8701","<MISSING>","39.971587","-86.1986797","<MISSING>"
"https://imxpilates.com/","http://imxlouisville.com/","louisville","The Walk at Holiday Manor Center, 2226 Holiday Manor Center, Unit 6","Louisville","KY","40222","US","621479","(502) 384-7818","<MISSING>","38.2838719","-85.6329458","<MISSING>"
"https://imxpilates.com/","http://imxpilates.com/branches/lafayette","lafayette","2207 Kaliste Saloom Rd. Suite E","Lafayette","LA","70508","US","272866","(337) 484-1IMX","<MISSING>","30.1638488","-92.0422796","<MISSING>"
"https://imxpilates.com/","http://imxpilates.com/branches/AnnArbor","AnnArbor","1713 Plymouth Road","Ann Arbor","MI","48105","US","712366","(734) 999-0372","<MISSING>","42.2989804","-83.723462","<MISSING>"
"https://imxpilates.com/","http://imxpilates.com/branches/Minneapolis","Minneapolis","2801 Hennepin Ave","Minneapolis","MN","55408","US","556215","(612) 999-6270","<MISSING>","44.9517603","-93.3001179","<MISSING>"
"https://imxpilates.com/","http://imxpilatesstl.com/","stlouis","608 N. McKnight Rd.","St. Louis","MO","63132","US","894154","(314) 452-8407","<MISSING>","38.6611073","-90.358687","<MISSING>"
"https://imxpilates.com/","http://imxpilates.com/branches/sparks","sparks","4830 Vista Blvd, Suite 110","Sparks","NV","89436","US","3023","(775) 971-4696","<MISSING>","39.5785153","-119.7199207","<MISSING>"
"https://imxpilates.com/","http://imxpilates.com/branches/clifton","clifton","1425 Broad St. Suite 4","Clifton","NJ","07013","US","10988","(732) 705-7160","<MISSING>","40.848312","-74.1824698","<MISSING>"
"https://imxpilates.com/","http://www.imxpilatesenglewood.com/","Englewood","155 North Dean Street","Englewood","NJ","07631","US","18476","(201) 408-4466","<MISSING>","40.8986199","-73.9733916","<MISSING>"
"https://imxpilates.com/","http://imxpilateshoboken.com/","hoboken","335 River Street","Hoboken","NJ","07030","US","570056","(201) 494-7995","<MISSING>","40.7404494","-74.0298431","<MISSING>"
"https://imxpilates.com/","http://imxpilates.com/branches/wyckoff","wyckoff","391 Clinton Avenue","Wyckoff","NJ","07481","US","2778","(201) 540-6632","<MISSING>","41.0118831","-74.1738469","<MISSING>"
"https://imxpilates.com/","http://imxpilates.com/branches/Westwood","Westwood","316 Kinderkamack Rd.","Westwood","NJ","07675","US","599957","(201) 800-0736","<MISSING>","40.9922732","-74.0316731","<MISSING>"
"https://imxpilates.com/","http://imxpilates.com/branches/deer_park","deer_park","1930 Deer Park Avenue, Ste 100","Deer Park","NY","11729","US","16769","(917) 412-6496","<MISSING>","40.7629106","-73.3327597","<MISSING>"
"https://imxpilates.com/","http://imxpilates.com/branches/new_york","new_york","265 Madison Ave, 2nd Fl (Enter on 39th St)","New York","NY","10016","US","725","(212) 997-1167","<MISSING>","40.7509203","-73.982511","<MISSING>"
"https://imxpilates.com/","http://imxpilates.com/branches/charlotte","charlotte","8035 Providence Road, Ste 330","Charlotte","NC","28277","US","146693","(704) 575-5366","<MISSING>","35.0986611","-80.7786172","<MISSING>"
"https://imxpilates.com/","http://imxpilatesnorthcharlotte.com/","NorthCharlotte","13024 Eastfield Road, Suite 700A","Huntersville","NC","28078","US","531759","(704) 727-5027","<MISSING>","35.3839806","-80.7883117","<MISSING>"
"https://imxpilates.com/","http://imxpilates.com/branches/lake_oswego","lake_oswego","436 1st Street","Lake Oswego","OR","97034","US","-5351","(503) 908-0024","<MISSING>","45.4198881","-122.6664719","<MISSING>"
"https://imxpilates.com/","http://imxbethany.com/","bethany","18335 NW West Union Rd Suite A","Portland","OR","97229","US","704666","(503) 807-3459","<MISSING>","45.5590173","-122.8676147","<MISSING>"
"https://imxpilates.com/","http://imxpilates.com/branches/wexford","wexford","300 Warrendale Road","Wexford","PA","15090","US","1272","(724) 935-0022","<MISSING>","40.6526172","-80.0692076","<MISSING>"
"https://imxpilates.com/","http://imxpilates.com/branches/blue_bell","blue_bell","1524 DeKalb Pike, Suite 3 (PARKING & ENTRANCE Behind Sherwin Williams)","Blue Bell","PA","19422","US","977885","(610) 222-6433","<MISSING>","40.1539489","-75.3046398","<MISSING>"
"https://imxpilates.com/","http://imxpilatesfrisco.com/","Frisco","5353 Independence Pkwy, Suite 400","Frisco","TX","75035","US","773808","(469) 664-0111","<MISSING>","33.1219441","-96.7540135","<MISSING>"
"https://imxpilates.com/","http://imxpilates.com/branches/fort_worth","fort_worth","3805 Southwest Blvd","Fort Worth","TX","76116","US","-264745","(817) 737-7373","<MISSING>","32.7169552","-97.4439522","<MISSING>"
"https://imxpilates.com/","http://imxpilatesmuskego.com/","Muskego","S74W17086 Janesville Road","Muskego","WI","53150","US","735545","(414) 573-4831","<MISSING>","42.909305","-88.1298297","<MISSING>"
