"locator_domain","location_name","street_address","city","state","zip","country_code","store_number","phone","location_type","latitude","longitude","hours_of_operation"
"https://banks.amerisbank.com/al/abbeville/830/"," 'Abbeville Kirkland Street Ameris Bank Location',"," '204 Kirkland Street',"," 'Abbeville',"," 'AL',"," '36310',"," 'US',"," '830',"," '334.585.2265',","branch","31.56877","-85.25039","Sun:  'Closed',Mon:  '8:30 AM - 4:00 PM',Tue:  '8:30 AM - 4:00 PM',Wed:  '8:30 AM - 2:00 PM',Thur:  '8:30 AM - 5:00 PM',Fri:  '8:30 AM - 5:00 PM',Sat:  'Closed',"
"https://banks.amerisbank.com/al/auburn/166-AU/"," 'Auburn Old Stage Road Mortgage Only Ameris Bank Location',"," '710 Old Stage Road',"," 'Auburn',"," 'AL',"," '36830',"," 'US',"," '166-AU',"," '',","branch","32.6139165306123","-85.4661442857143","Sun:  'Closed',Mon:  'By Appointment Only',Tue:  'By Appointment Only',Wed:  'By Appointment Only',Thur:  'By Appointment Only',Fri:  'By Appointment Only',Sat:  'By Appointment Only',"
"https://banks.amerisbank.com/al/birmingham/166-BH/"," 'Birmingham Mortgage Only Ameris Bank Location',"," '1 Chase Corporate Center, Suite 400',"," 'Birmingham',"," 'AL',"," '35244',"," 'US',"," '166-BH',"," '205.970.6180',","branch","33.3717","-86.80137","Sun:  'Closed',Mon:  'By Appointment Only',Tue:  'By Appointment Only',Wed:  'By Appointment Only',Thur:  'By Appointment Only',Fri:  'By Appointment Only',Sat:  'By Appointment Only',"
"https://banks.amerisbank.com/al/dothan/810/"," 'Dothan East Main Street Ameris Bank Location',"," '2200 East Main Street',"," 'Dothan',"," 'AL',"," '36301',"," 'US',"," '810',"," '334.677.3063',","branch","31.21374","-85.35916","Sun:  'Closed',Mon:  '8:00 AM - 4:30 PM',Tue:  '8:00 AM - 4:30 PM',Wed:  '8:00 AM - 4:30 PM',Thur:  '8:00 AM - 4:30 PM',Fri:  '8:00 AM - 5:00 PM',Sat:  'Closed',"
"https://banks.amerisbank.com/al/dothan/800/"," 'Dothan Ross Clark Ameris Bank Location',"," '3299 Ross Clark Circle',"," 'Dothan',"," 'AL',"," '36303',"," 'US',"," '800',"," '334.671.4000',","branch","31.23752","-85.43168","Sun:  'Closed',Mon:  '8:30 AM - 4:30 PM',Tue:  '8:30 AM - 4:30 PM',Wed:  '8:30 AM - 4:30 PM',Thur:  '8:30 AM - 4:30 PM',Fri:  '8:30 AM - 5:00 PM',Sat:  'Closed',"
"https://banks.amerisbank.com/al/eufaula/850/"," 'Eufaula Ameris Bank Location',"," '1140 South Eufaula Avenue',"," 'Eufaula',"," 'AL',"," '36027',"," 'US',"," '850',"," '334.687.3260',","branch","31.87784","-85.14962","Sun:  'Closed',Mon:  '8:30 AM - 4:00 PM',Tue:  '8:30 AM - 4:00 PM',Wed:  '8:30 AM - 4:00 PM',Thur:  '8:30 AM - 4:00 PM',Fri:  '8:30 AM - 5:00 PM',Sat:  'Closed',"
"https://banks.amerisbank.com/fl/blountstown/705/"," 'Blountstown Pear Street Ameris Bank Location',"," '16763 SE Pear Street',"," 'Blountstown',"," 'FL',"," '32424',"," 'US',"," '705',"," '850.237.1000',","branch","30.4425383333333","-85.0449888888889","Sun:  'Closed',Mon:  '9:00 AM - 4:00 PM',Tue:  '9:00 AM - 4:00 PM',Wed:  '9:00 AM - 4:00 PM',Thur:  '9:00 AM - 4:00 PM',Fri:  '9:00 AM - 5:00 PM',Sat:  'Closed',"
"https://banks.amerisbank.com/fl/boca-raton/163-BR/"," 'Boca Raton Mortgage Only Ameris Bank Location',"," '2300 Glades Rd',"," 'Boca Raton',"," 'FL',"," '33431',"," 'US',"," '163-BR',"," '561.961.6400',","branch","26.36808","-80.1251500981501","Sun:  'Closed',Mon:  '8:30 AM - 5:00 PM',Tue:  '8:30 AM - 5:00 PM',Wed:  '8:30 AM - 5:00 PM',Thur:  '8:30 AM - 5:00 PM',Fri:  '8:30 AM - 5:00 PM',Sat:  'Closed',"
"https://banks.amerisbank.com/fl/crawfordville/360/"," 'Crawfordville Ameris Bank Location',"," '2628 Crawfordville Highway',"," 'Crawfordville',"," 'FL',"," '32327',"," 'US',"," '360',"," '850.926.5211',","branch","30.1933141880745","-84.3715329997758","Sun:  'Closed',Mon:  '9:00 AM - 5:00 PM',Tue:  '9:00 AM - 5:00 PM',Wed:  '9:00 AM - 5:00 PM',Thur:  '9:00 AM - 5:00 PM',Fri:  '9:00 AM - 5:00 PM',Sat:  'Closed',"
"https://banks.amerisbank.com/fl/cross-city/461/"," 'Cross City 121st Street Ameris Bank Location',"," '79 NE 121st Street',"," 'Cross City',"," 'FL',"," '32628',"," 'US',"," '461',"," '352.498.3367',","branch","29.63547","-83.12509","Sun:  'Closed',Mon:  '9:00 AM - 4:00 PM',Tue:  '9:00 AM - 4:00 PM',Wed:  '9:00 AM - 4:00 PM',Thur:  '9:00 AM - 4:00 PM',Fri:  '9:00 AM - 5:30 PM',Sat:  'Closed',"
"https://banks.amerisbank.com/fl/defuniak-springs/710/"," 'Defuniak Springs Hwy. 90 Ameris Bank Location',"," '138 US Hwy. 90 East',"," 'Defuniak Springs',"," 'FL',"," '32433',"," 'US',"," '710',"," '850.892.4862',","branch","30.736424239653","-86.1484580287874","Sun:  'Closed',Mon:  '9:00 AM - 4:00 PM',Tue:  '9:00 AM - 4:00 PM',Wed:  '9:00 AM - 4:00 PM',Thur:  '9:00 AM - 4:00 PM',Fri:  '9:00 AM - 5:00 PM',Sat:  'Closed',"
"https://banks.amerisbank.com/fl/fleming-island/660/"," 'Fleming Island Eagle Harbor Pkwy. Ameris Bank Location',"," '1775 Eagle Harbor Parkway',"," 'Fleming Island',"," 'FL',"," '32003',"," 'US',"," '660',"," '904.264.8840',","branch","30.1049780470039","-81.7042871248544","Sun:  'Closed',Mon:  '9:00 AM - 5:00 PM',Tue:  '9:00 AM - 5:00 PM',Wed:  '9:00 AM - 5:00 PM',Thur:  '9:00 AM - 5:00 PM',Fri:  '9:00 AM - 5:00 PM',Sat:  'Closed',"
"https://banks.amerisbank.com/fl/gainesville/166-GN/"," 'Gainesville 43rd Street Mortgage Only Ameris Bank Location',"," '2772 NW 43rd Street',"," 'Gainesville',"," 'FL',"," '32606',"," 'US',"," '166-GN',"," '352.333.9570',","branch","29.678462244898","-82.38896","Sun:  'Closed',Mon:  'By Appointment Only',Tue:  'By Appointment Only',Wed:  'By Appointment Only',Thur:  'By Appointment Only',Fri:  'By Appointment Only',Sat:  'By Appointment Only',"
"https://banks.amerisbank.com/fl/gainesville/452/"," 'Gainesville, FL Archer Road Ameris Bank Location',"," '7000 SW Archer Road',"," 'Gainesville',"," 'FL',"," '32608',"," 'US',"," '452',"," '352.264.2950',","branch","29.6012417525773","-82.4170221649484","Sun:  'Closed',Mon:  '9:00 AM - 4:00 PM',Tue:  '9:00 AM - 4:00 PM',Wed:  '9:00 AM - 4:00 PM',Thur:  '9:00 AM - 4:00 PM',Fri:  '9:00 AM - 5:30 PM',Sat:  'Closed',"
"https://banks.amerisbank.com/fl/gainesville/455/"," 'Gainesville, FL Hunters Crossing Ameris Bank Location',"," '5010 NW 43rd Street',"," 'Gainesville',"," 'FL',"," '32606',"," 'US',"," '455',"," '352.264.7200',","branch","29.7003853333333","-82.3888773333333","Sun:  'Closed',Mon:  '9:00 AM - 4:00 PM',Tue:  '9:00 AM - 4:00 PM',Wed:  '9:00 AM - 4:00 PM',Thur:  '9:00 AM - 4:00 PM',Fri:  '9:00 AM - 5:30 PM',Sat:  'Closed',"
"https://banks.amerisbank.com/fl/gainesville/454/"," 'Gainesville Main Street Ameris Bank Location',"," '3631 N. Main Street',"," 'Gainesville',"," 'FL',"," '32609',"," 'US',"," '454',"," '352.264.7250',","branch","29.6861680361305","-82.3193654117298","Sun:  'Closed',Mon:  '9:00 AM - 4:00 PM',Tue:  '9:00 AM - 4:00 PM',Wed:  '9:00 AM - 4:00 PM',Thur:  '9:00 AM - 4:00 PM',Fri:  '9:00 AM - 5:30 PM',Sat:  'Closed',"
"https://banks.amerisbank.com/fl/gainesville/450/"," 'Gainesville Tower Center Ameris Bank Location',"," '305 NW 75th Street',"," 'Gainesville',"," 'FL',"," '32607',"," 'US',"," '450',"," '352.264.7275',","branch","29.6555292462312","-82.4224270854271","Sun:  'Closed',Mon:  '9:00 AM - 4:00 PM',Tue:  '9:00 AM - 4:00 PM',Wed:  '9:00 AM - 4:00 PM',Thur:  '9:00 AM - 4:00 PM',Fri:  '9:00 AM - 5:30 PM',Sat:  'Closed',"
"https://banks.amerisbank.com/fl/high-springs/456/"," 'High Springs Ameris Bank Location',"," '18785 High Springs Main Street',"," 'High Springs',"," 'FL',"," '32643',"," 'US',"," '456',"," '386.454.1785',","branch","29.8291268","-82.5948455","Sun:  'Closed',Mon:  '9:00 AM - 4:00 PM',Tue:  '9:00 AM - 4:00 PM',Wed:  '9:00 AM - 4:00 PM',Thur:  '9:00 AM - 4:00 PM',Fri:  '9:00 AM - 5:30 PM',Sat:  'Closed',"
"https://banks.amerisbank.com/fl/jacksonville/648/"," 'Jacksonville Beach Boulevard Ameris Bank Location',"," '14288 Beach Boulevard',"," 'Jacksonville',"," 'FL',"," '32250',"," 'US',"," '648',"," '904.416.3150',","branch","30.287805","-81.43969","Sun:  'Closed',Mon:  '9:00 AM - 4:00 PM',Tue:  '9:00 AM - 4:00 PM',Wed:  '9:00 AM - 4:00 PM',Thur:  '9:00 AM - 4:00 PM',Fri:  '9:00 AM - 5:00 PM',Sat:  'Closed',"
"https://banks.amerisbank.com/fl/jacksonville/680/"," 'Jacksonville Mandarin Ameris Bank Location',"," '11100 San Jose Boulevard',"," 'Jacksonville',"," 'FL',"," '32223',"," 'US',"," '680',"," '904.288.8933',","branch","30.173383001652","-81.6285915557575","Sun:  'Closed',Mon:  '9:00 AM - 5:00 PM',Tue:  '9:00 AM - 5:00 PM',Wed:  '9:00 AM - 5:00 PM',Thur:  '9:00 AM - 5:00 PM',Fri:  '9:00 AM - 5:00 PM',Sat:  'Closed',"
"https://banks.amerisbank.com/fl/jacksonville/163-JX/"," 'Jacksonville Mortgage Only Ameris Bank Location',"," '10611 Deerwood Park Blvd',"," 'Jacksonville',"," 'FL',"," '32256',"," 'US',"," '163-JX',"," '904.996.1020',","branch","30.2477145636319","-81.5392674401385","Sun:  'Closed',Mon:  '8:30 AM - 5:00 PM',Tue:  '8:30 AM - 5:00 PM',Wed:  '8:30 AM - 5:00 PM',Thur:  '8:30 AM - 5:00 PM',Fri:  '8:30 AM - 5:00 PM',Sat:  'Closed',"
"https://banks.amerisbank.com/fl/jacksonville/665/"," 'Jacksonville Normandy Blvd. Ameris Bank Location',"," '8048 Normandy Boulevard',"," 'Jacksonville',"," 'FL',"," '32221',"," 'US',"," '665',"," '904.786.8224',","branch","30.2918755243854","-81.7828292154596","Sun:  'Closed',Mon:  '9:00 AM - 5:00 PM',Tue:  '9:00 AM - 5:00 PM',Wed:  '9:00 AM - 5:00 PM',Thur:  '9:00 AM - 5:00 PM',Fri:  '9:00 AM - 5:00 PM',Sat:  'Closed',"
"https://banks.amerisbank.com/fl/jacksonville/645/"," 'Jacksonville Ortega Ameris Bank Location',"," '4343 Roosevelt Boulevard',"," 'Jacksonville',"," 'FL',"," '32210',"," 'US',"," '645',"," '904.899.0400',","branch","30.2834882352941","-81.72015","Sun:  'Closed',Mon:  '9:00 AM - 4:00 PM',Tue:  '9:00 AM - 4:00 PM',Wed:  '9:00 AM - 4:00 PM',Thur:  '9:00 AM - 4:00 PM',Fri:  '9:00 AM - 5:00 PM',Sat:  'Closed',"
"https://banks.amerisbank.com/fl/jacksonville/668/"," 'Jacksonville Riverplace Tower Ameris Bank Location',"," '1301 Riverplace Boulevard',"," 'Jacksonville',"," 'FL',"," '32207',"," 'US',"," '668',"," '904.486.7238',","branch","30.31852","-81.65723","Sun:  'Closed',Mon:  '8:00 AM - 4:00 PM',Tue:  '8:00 AM - 4:00 PM',Wed:  '8:00 AM - 4:00 PM',Thur:  '8:00 AM - 4:00 PM',Fri:  '8:00 AM - 4:00 PM',Sat:  'Closed',"
"https://banks.amerisbank.com/fl/jacksonville/667/"," 'Jacksonville Town Center Ameris Bank Location',"," '4835 Town Center Parkway',"," 'Jacksonville',"," 'FL',"," '32246',"," 'US',"," '667',"," '904.996.9490',","branch","30.2549070859337","-81.5330427052336","Sun:  'Closed',Mon:  '9:00 AM - 5:00 PM',Tue:  '9:00 AM - 5:00 PM',Wed:  '9:00 AM - 5:00 PM',Thur:  '9:00 AM - 5:00 PM',Fri:  '9:00 AM - 5:00 PM',Sat:  'Closed',"
"https://banks.amerisbank.com/fl/jacksonville-beach/646/"," 'Jacksonville Beach Ameris Bank Location',"," '1315 3rd St South',"," 'Jacksonville Beach',"," 'FL',"," '32250',"," 'US',"," '646',"," '904.435.3220',","branch","30.2759471428571","-81.3892328571429","Sun:  'Closed',Mon:  '9:00 AM - 4:00 PM',Tue:  '9:00 AM - 4:00 PM',Wed:  '9:00 AM - 4:00 PM',Thur:  '9:00 AM - 4:00 PM',Fri:  '9:00 AM - 5:00 PM',Sat:  'Closed',"
"https://banks.amerisbank.com/fl/keystone-heights/440/"," 'Keystone Heights Commercial Circle Ameris Bank Location',"," '100 NE Commercial Circle',"," 'Keystone Heights',"," 'FL',"," '32656',"," 'US',"," '440',"," '352.473.7275',","branch","29.78737","-82.03015","Sun:  'Closed',Mon:  '9:00 AM - 4:00 PM',Tue:  '9:00 AM - 4:00 PM',Wed:  '9:00 AM - 4:00 PM',Thur:  '9:00 AM - 4:00 PM',Fri:  '9:00 AM - 5:30 PM',Sat:  'Closed',"
"https://banks.amerisbank.com/fl/lake-city/LCAO-949SMBLCF-6/"," 'Lake City (ATM ONLY)',"," '949 SW Main Boulevard',"," 'Lake City',"," 'FL',"," '32025',"," 'US',"," 'LCAO-949SMBLCF-6',"," '866.616.6020',","atm","30.1772424338481","-82.6393127973625","Sun:  'n/a',Mon:  'n/a',Tue:  'n/a',Wed:  'n/a',Thur:  'n/a',Fri:  'n/a',Sat:  'n/a',"
"https://banks.amerisbank.com/fl/lake-city/652/"," 'Lake City Bentley Place Ameris Bank Location',"," '355 SW Bentley Place',"," 'Lake City',"," 'FL',"," '32025',"," 'US',"," '652',"," '386.758.7805',","branch","30.1655608333333","-82.6423783333333","Sun:  'Closed',Mon:  '9:00 AM - 4:00 PM',Tue:  '9:00 AM - 4:00 PM',Wed:  '9:00 AM - 4:00 PM',Thur:  '9:00 AM - 4:00 PM',Fri:  '9:00AM - 5:00 PM',Sat:  'Closed',"
"https://banks.amerisbank.com/fl/lake-city/653/"," 'Lake City Gleason&#39;s Mall Ameris Bank Location',"," '2357 W US Highway 90',"," 'Lake City',"," 'FL',"," '32055',"," 'US',"," '653',"," '386.758.5906',","branch","30.1798762","-82.6706586","Sun:  'Closed',Mon:  '9:00 AM - 4:00 PM',Tue:  '9:00 AM - 4:00 PM',Wed:  '9:00 AM - 4:00 PM',Thur:  '9:00 AM - 4:00 PM',Fri:  '9:00AM - 5:00 PM',Sat:  'Closed',"
"https://banks.amerisbank.com/fl/live-oak/651/"," 'Live Oak - States Attorney Office (ATM ONLY)',"," '201 S Ohio Avenue',"," 'Live Oak',"," 'FL',"," '32064',"," 'US',"," 'LOSAO-201SOALOF-6',"," '866.616.6020',","atm","30.29545","-82.9848","Sun:  'n/a',Mon:  'n/a',Tue:  'n/a',Wed:  'n/a',Thur:  'n/a',Fri:  'n/a',Sat:  'n/a',"
"https://banks.amerisbank.com/fl/live-oak/LOSAO-201SOALOF-6/"," 'Live Oak - States Attorney Office (ATM ONLY)',"," '201 S Ohio Avenue',"," 'Live Oak',"," 'FL',"," '32064',"," 'US',"," 'LOSAO-201SOALOF-6',"," '866.616.6020',","atm","30.29545","-82.9848","Sun:  'n/a',Mon:  'n/a',Tue:  'n/a',Wed:  'n/a',Thur:  'n/a',Fri:  'n/a',Sat:  'n/a',"
"https://banks.amerisbank.com/fl/lynn-haven/694/"," 'Lynn Haven Ameris Bank Location',"," '2606 South Highway 77',"," 'Lynn Haven',"," 'FL',"," '32444',"," 'US',"," '694',"," '850.763.2171',","branch","30.2185067346939","-85.6495218367347","Sun:  'Closed',Mon:  '9:00 AM - 4:30 PM',Tue:  '9:00 AM - 4:30 PM',Wed:  '9:00 AM - 4:30 PM',Thur:  '9:00 AM - 4:30 PM',Fri:  '9:00 AM - 5:00 PM',Sat:  'Closed',"
"https://banks.amerisbank.com/fl/marco-island/163-MI/"," 'Marco Island Mortgage Only Ameris Bank Location',"," '583 Tallwood St',"," 'Marco Island',"," 'FL',"," '34145',"," 'US',"," '163-MI',"," '941.413.4104',","branch","25.9524358565709","-81.7213497239587","Sun:  'Closed',Mon:  '8:30 AM - 5:00 PM',Tue:  '8:30 AM - 5:00 PM',Wed:  '8:30 AM - 5:00 PM',Thur:  '8:30 AM - 5:00 PM',Fri:  '8:30 AM - 5:00 PM',Sat:  'Closed',"
"https://banks.amerisbank.com/fl/melrose/449/"," 'Melrose Ameris Bank Location',"," '25501 NE SR 26',"," 'Melrose',"," 'FL',"," '32666',"," 'US',"," '449',"," '352.475.1413',","branch","29.70966","-82.04407","Sun:  'Closed',Mon:  '8:30 AM - 4:30 PM',Tue:  '8:30 AM - 4:30 PM',Wed:  '8:30 AM - 4:30 PM',Thur:  '8:30 AM - 4:30 PM',Fri:  '8:30 AM - 5:30 PM',Sat:  '',"
"https://banks.amerisbank.com/fl/naples/163-NA/"," 'Naples Mortgage Only Ameris Bank Location',"," '5100 Tamiami Trail N',"," 'Naples',"," 'FL',"," '34103',"," 'US',"," '163-NA',"," '239.316.5266',","branch","26.208309890787","-81.8002722362348","Sun:  'Closed',Mon:  '8:30 AM - 5:00 PM',Tue:  '8:30 AM - 5:00 PM',Wed:  '8:30 AM - 5:00 PM',Thur:  '8:30 AM - 5:00 PM',Fri:  '8:30 AM - 5:00 PM',Sat:  'Closed',"
"https://banks.amerisbank.com/fl/neptune-beach/647/"," 'Jacksonville Neptune Beach Ameris Bank Location',"," '560 Atlantic Boulevard',"," 'Neptune Beach',"," 'FL',"," '32266',"," 'US',"," '647',"," '904.435.0550',","branch","30.3245","-81.40219","Sun:  'Closed',Mon:  '9:00 AM - 4:00 PM',Tue:  '9:00 AM - 4:00 PM',Wed:  '9:00 AM - 4:00 PM',Thur:  '9:00 AM - 4:00 PM',Fri:  '9:00 AM - 5:00 PM',Sat:  'Closed',"
"https://banks.amerisbank.com/fl/ocala/444/"," 'Ocala Bonnie Heath Ameris Bank Location',"," '5400 SW College Road',"," 'Ocala',"," 'FL',"," '34474',"," 'US',"," '444',"," '352.237.0358',","branch","29.12724","-82.20826","Sun:  'Closed',Mon:  '9:00 AM - 4:00 PM',Tue:  '9:00 AM - 4:00 PM',Wed:  '9:00 AM - 4:00 PM',Thur:  '9:00 AM - 4:00 PM',Fri:  '9:00 AM - 5:30 PM',Sat:  'Closed',"
"https://banks.amerisbank.com/fl/ocala/445/"," 'Ocala Maricamp Road Ameris Bank Location',"," '2601 SE Maricamp Road',"," 'Ocala',"," 'FL',"," '34471',"," 'US',"," '445',"," '352.629.3661',","branch","29.1704562157855","-82.1019281829396","Sun:  'Closed',Mon:  '9:00 AM - 4:00 PM',Tue:  '9:00 AM - 4:00 PM',Wed:  '9:00 AM - 4:00 PM',Thur:  '9:00 AM - 4:00 PM',Fri:  '9:00 AM - 5:30 PM',Sat:  'Closed',"
"https://banks.amerisbank.com/fl/orange-park/670/"," 'Orange Park Blanding Blvd. Ameris Bank Location',"," '485 Blanding Boulevard',"," 'Orange Park',"," 'FL',"," '32073',"," 'US',"," '670',"," '904.213.0883',","branch","30.15859","-81.7472","Sun:  'Closed',Mon:  '9:00 AM - 5:00 PM',Tue:  '9:00 AM - 5:00 PM',Wed:  '9:00 AM - 5:00 PM',Thur:  '9:00 AM - 5:00 PM',Fri:  '9:00 AM - 5:00 PM',Sat:  'Closed',"
"https://banks.amerisbank.com/fl/ormond-beach/688/"," 'Ormond Beach Granada Blvd. Ameris Bank Location',"," '1259 Granada Boulevard',"," 'Ormond Beach',"," 'FL',"," '32174',"," 'US',"," '688',"," '386.671.9525',","branch","29.26522","-81.10471","Sun:  'Closed',Mon:  '9:00 AM - 4:30 PM',Tue:  '9:00 AM - 4:30 PM',Wed:  '9:00 AM - 4:30 PM',Thur:  '9:00 AM - 4:30 PM',Fri:  '9:00 AM - 5:00 PM',Sat:  'Closed',"
"https://banks.amerisbank.com/fl/oxford/166-OX/"," 'Oxford Mortgage Only Ameris Bank Location',"," '4313 E County Rd 466',"," 'Oxford',"," 'FL',"," '34484',"," 'US',"," '166-OX',"," '352.461.0801',","branch","28.92743","-82.03152","Sun:  'Closed',Mon:  'By Appointment Only',Tue:  'By Appointment Only',Wed:  'By Appointment Only',Thur:  'By Appointment Only',Fri:  'By Appointment Only',Sat:  'Closed',"
"https://banks.amerisbank.com/fl/palatka/689/"," 'Palatka Reid Street Ameris Bank Location',"," '601 Reid Street',"," 'Palatka',"," 'FL',"," '32177',"," 'US',"," '689',"," '386.328.5154',","branch","29.64814","-81.63427","Sun:  'Closed',Mon:  '9:00 AM - 4:30 PM',Tue:  '9:00 AM - 4:30 PM',Wed:  '9:00 AM - 4:30 PM',Thur:  '9:00 AM - 4:30 PM',Fri:  '9:00 AM - 5:00 PM',Sat:  'Closed',"
"https://banks.amerisbank.com/fl/palatka/690/"," 'Palatka West Ameris Bank Location',"," '100 N. State Road 19',"," 'Palatka',"," 'FL',"," '32177',"," 'US',"," '690',"," '386.325.3770',","branch","29.64837","-81.6737","Sun:  'Closed',Mon:  '9:00 AM - 4:30 PM',Tue:  '9:00 AM - 4:30 PM',Wed:  '9:00 AM - 4:30 PM',Thur:  '9:00 AM - 4:30 PM',Fri:  '9:00 AM - 5:00 PM',Sat:  'Closed',"
"https://banks.amerisbank.com/fl/palm-coast/691/"," 'Palm Coast Cypress Point Pkwy. Ameris Bank Location',"," '181 Cypress Point Parkway',"," 'Palm Coast',"," 'FL',"," '32164',"," 'US',"," '691',"," '386.447.0404',","branch","29.5513726258811","-81.2267472122357","Sun:  'Closed',Mon:  '9:00 AM - 4:30 PM',Tue:  '9:00 AM - 4:30 PM',Wed:  '9:00 AM - 4:30 PM',Thur:  '9:00 AM - 4:30 PM',Fri:  '9:00 AM - 5:00 PM',Sat:  'Closed',"
"https://banks.amerisbank.com/fl/panama-city/696/"," 'Panama City Beach 23rd Street Ameris Bank Location',"," '450 East 23rd Street',"," 'Panama City',"," 'FL',"," '32405',"," 'US',"," '696',"," '850.914.0721',","branch","30.1895912698413","-85.6545384126984","Sun:  'Closed',Mon:  '9:00 AM - 4:30 PM',Tue:  '9:00 AM - 4:30 PM',Wed:  '9:00 AM - 4:30 PM',Thur:  '9:00 AM - 4:30 PM',Fri:  '9:00 AM - 5:00 PM',Sat:  'Closed',"
"https://banks.amerisbank.com/fl/panama-city-beach/695/"," 'Panama City Beach Ameris Bank Location',"," '11790 Panama City Beach Parkway',"," 'Panama City Beach',"," 'FL',"," '32407',"," 'US',"," '695',"," '850.236.9377',","branch","30.2008285185185","-85.8197062962963","Sun:  'Closed',Mon:  '9:00 AM - 4:30 PM',Tue:  '9:00 AM - 4:30 PM',Wed:  '9:00 AM - 4:30 PM',Thur:  '9:00 AM - 4:30 PM',Fri:  '9:00 AM - 5:00 PM',Sat:  'Closed',"
"https://banks.amerisbank.com/fl/sarasota/163-SA/"," 'Sarasota Mortgage Only Ameris Bank Location',"," '1819 Main St',"," 'Sarasota',"," 'FL',"," '34236',"," 'US',"," '163-SA',"," '941.413.4100',","branch","27.3364663265306","-82.5341646938775","Sun:  'Closed',Mon:  '8:30 AM - 5:00 PM',Tue:  '8:30 AM - 5:00 PM',Wed:  '8:30 AM - 5:00 PM',Thur:  '8:30 AM - 5:00 PM',Fri:  '8:30 AM - 5:00 PM',Sat:  'Closed',"
"https://banks.amerisbank.com/fl/st.-augustine/692/"," 'St. Augustine Beach Ameris Bank Location',"," '2060 A1A Highway South',"," 'St. Augustine',"," 'FL',"," '32080',"," 'US',"," '692',"," '904.471.3224',","branch","29.8579986443659","-81.2812360746478","Sun:  'Closed',Mon:  '9:00 AM - 4:30 PM',Tue:  '9:00 AM - 4:30 PM',Wed:  '9:00 AM - 4:30 PM',Thur:  '9:00 AM - 4:30 PM',Fri:  '9:00 AM - 5:00 PM',Sat:  'Closed',"
"https://banks.amerisbank.com/fl/st.-augustine/687/"," 'St. Augustine Ponce de Leon Blvd. Ameris Bank Location',"," '790 N Ponce de Leon Boulevard',"," 'St. Augustine',"," 'FL',"," '32084',"," 'US',"," '687',"," '904.824.9111',","branch","29.8976530839048","-81.3204755468101","Sun:  'Closed',Mon:  '9:00 AM - 4:30 PM',Tue:  '9:00 AM - 4:30 PM',Wed:  '9:00 AM - 4:30 PM',Thur:  '9:00 AM - 4:30 PM',Fri:  '9:00 AM - 5:00 PM',Sat:  'Closed',"
"https://banks.amerisbank.com/fl/st.-augustine/686/"," 'St. Augustine South Ameris Bank Location',"," '4070 US 1 South',"," 'St. Augustine',"," 'FL',"," '32086',"," 'US',"," '686',"," '904.794.1352',","branch","29.81683","-81.323","Sun:  'Closed',Mon:  '9:00 AM - 4:30 PM',Tue:  '9:00 AM - 4:30 PM',Wed:  '9:00 AM - 4:30 PM',Thur:  '9:00 AM - 4:30 PM',Fri:  '9:00 AM - 5:00 PM',Sat:  'Closed',"
"https://banks.amerisbank.com/fl/st.-augustine/693/"," 'St. Augustine Southpark Blvd. Ameris Bank Location',"," '100 Southpark Boulevard',"," 'St. Augustine',"," 'FL',"," '32086',"," 'US',"," '693',"," '904.824.9111',","branch","29.86253","-81.32309","Sun:  'Closed',Mon:  '9:00 AM - 4:30 PM',Tue:  '9:00 AM - 4:30 PM',Wed:  '9:00 AM - 4:30 PM',Thur:  '9:00 AM - 4:30 PM',Fri:  '9:00 AM - 5:00 PM',Sat:  'Closed',"
"https://banks.amerisbank.com/fl/st.-johns/685/"," 'Jacksonville Race Track Road Ameris Bank Location',"," '2766 Race Track Road',"," 'St. Johns',"," 'FL',"," '32259',"," 'US',"," '685',"," '904.687.2820',","branch","30.1139015076219","-81.5881175381095","Sun:  'Closed',Mon:  '9:00 AM - 4:30 PM',Tue:  '9:00 AM - 4:30 PM',Wed:  '9:00 AM - 4:30 PM',Thur:  '9:00 AM - 4:30 PM',Fri:  '9:00 AM - 5:00 PM',Sat:  'Closed',"
"https://banks.amerisbank.com/fl/tallahassee/166-TL/"," 'Tallahassee Killarney Way Mortgage Only Ameris Bank Location',"," '2121 Killarney Way',"," 'Tallahassee',"," 'FL',"," '32309',"," 'US',"," '166-TL',"," '850.383.9999',","branch","30.5122003437757","-84.2442417226916","Sun:  'Closed',Mon:  'By Appointment Only',Tue:  'By Appointment Only',Wed:  'By Appointment Only',Thur:  'By Appointment Only',Fri:  'By Appointment Only',Sat:  'Closed',"
"https://banks.amerisbank.com/fl/tallahassee/380/"," 'Tallahassee South Monroe Street Ameris Bank Location',"," '150 South Monroe Street',"," 'Tallahassee',"," 'FL',"," '32301',"," 'US',"," '380',"," '850.656.2110',","branch","30.4412785714286","-84.2806551020408","Sun:  'Closed',Mon:  '9:00 AM - 5:00 PM',Tue:  '9:00 AM - 5:00 PM',Wed:  '9:00 AM - 5:00 PM',Thur:  '9:00 AM - 5:00 PM',Fri:  '9:00 AM - 5:00 PM',Sat:  'Closed',"
"https://banks.amerisbank.com/fl/tampa/163-TA/"," 'Tampa Mortgage Only Ameris Bank Location',"," '4350 West Cypress Street',"," 'Tampa',"," 'FL',"," '33607',"," 'US',"," '163-TA',"," '813.639.7540',","branch","27.9522053061225","-82.5169759183673","Sun:  'Closed',Mon:  '8:30 AM - 5:00 PM',Tue:  '8:30 AM - 5:00 PM',Wed:  '8:30 AM - 5:00 PM',Thur:  '8:30 AM - 5:00 PM',Fri:  '8:30 AM - 5:00 PM',Sat:  'Closed',"
"https://banks.amerisbank.com/fl/trenton/460/"," 'Trenton East Way Street Ameris Bank Location',"," '530 East Wade Street',"," 'Trenton',"," 'FL',"," '32693',"," 'US',"," '460',"," '352.463.7171',","branch","29.61339625","-82.8136925","Sun:  'Closed',Mon:  '9:00 AM - 4:00 PM',Tue:  '9:00 AM - 4:00 PM',Wed:  '9:00 AM - 4:00 PM',Thur:  '9:00 AM - 4:00 PM',Fri:  '9:00 AM - 5:30 PM',Sat:  'Closed',"
"https://banks.amerisbank.com/fl/winter-park/163-WP/"," 'Winter Park Mortgage Only Ameris Bank Location',"," '1936 Lee Rd',"," 'Winter Park',"," 'FL',"," '32789',"," 'US',"," '163-WP',"," '407.204.6730',","branch","28.6058425","-81.37544","Sun:  'Closed',Mon:  '8:30 AM - 5:00 PM',Tue:  '8:30 AM - 5:00 PM',Wed:  '8:30 AM - 5:00 PM',Thur:  '8:30 AM - 5:00 PM',Fri:  '8:30 AM - 5:00 PM',Sat:  'Closed',"
"https://banks.amerisbank.com/ga/acworth/774/"," 'Acworth Jeff Davis Lane Ameris Bank Location',"," '5895 Jeff Davis Lane NW',"," 'Acworth',"," 'GA',"," '30101',"," 'US',"," '774',"," '678.905.2600',","branch","34.0617614962384","-84.7214216541279","Sun:  'Closed',Mon:  '9:00 AM - 4:00 PM',Tue:  '9:00 AM - 4:00 PM',Wed:  '9:00 AM - 4:00 PM',Thur:  '9:00 AM - 4:00 PM',Fri:  '9:00 AM - 5:00 PM',Sat:  'Closed',"
"https://banks.amerisbank.com/ga/albany/760/"," 'Albany Dawson Road Ameris Bank Location',"," '2627 Dawson Road',"," 'Albany',"," 'GA',"," '31707',"," 'US',"," '760',"," '229.888.5600',","branch","31.61729","-84.22143","Sun:  'Closed',Mon:  '9:00 AM - 4:00 PM',Tue:  '9:00 AM - 4:00 PM',Wed:  '9:00 AM - 4:00 PM',Thur:  '9:00 AM - 4:00 PM',Fri:  '9:00 AM - 5:00 PM',Sat:  'Closed',"
"https://banks.amerisbank.com/ga/albany/ASUSC-100DDAG-6/"," 'Albany State University Student Center (ATM ONLY)',"," '504 College Drive',"," 'Albany',"," 'GA',"," '31705',"," 'US',"," 'ASUSC-100DDAG-6',"," '866.616.6020',","atm","31.5678019222399","-84.143248560578","Sun:  'n/a',Mon:  'n/a',Tue:  'n/a',Wed:  'n/a',Thur:  'n/a',Fri:  'n/a',Sat:  'n/a',"
"https://banks.amerisbank.com/ga/alpharetta/168-AH/"," 'Alpharetta Mortgage Only Ameris Bank Location',"," '1000 Mansell Exchange W',"," 'Alpharetta',"," 'GA',"," '30022',"," 'US',"," '168-AH',"," '770.649.4900',","branch","34.03621","-84.29109","Sun:  'Closed',Mon:  '8:30 AM - 5:00 PM',Tue:  '8:30 AM - 5:00 PM',Wed:  '8:30 AM - 5:00 PM',Thur:  '8:30 AM - 5:00 PM',Fri:  '8:30 AM - 5:00 PM',Sat:  'Closed',"
"https://banks.amerisbank.com/ga/alpharetta/166-AP/"," 'Alpharetta Mortgage Only Ameris Bank Location',"," '8000 Avalon Blvd. Suite 223 &amp;amp; 255',"," 'Alpharetta',"," 'GA',"," '30009',"," 'US',"," '166-AP',"," '',","branch","34.0704429","-84.2742149","Sun:  'Closed',Mon:  'By Appointment Only',Tue:  'By Appointment Only',Wed:  'By Appointment Only',Thur:  'By Appointment Only',Fri:  'By Appointment Only',Sat:  'By Appointment Only',"
"https://banks.amerisbank.com/ga/athens/168-AT/"," 'Athens Mortgage Only Ameris Bank Location',"," '1045 S Milledge Ave',"," 'Athens',"," 'GA',"," '30605',"," 'US',"," '168-AT',"," '706.546.0153',","branch","33.9414902040816","-83.387597755102","Sun:  'Closed',Mon:  '8:30 AM - 5:00 PM',Tue:  '8:30 AM - 5:00 PM',Wed:  '8:30 AM - 5:00 PM',Thur:  '8:30 AM - 5:00 PM',Fri:  '8:30 AM - 5:00 PM',Sat:  'Closed',"
"https://banks.amerisbank.com/ga/atlanta/732/"," 'Atlanta Midtown Ameris Bank Location',"," '1180 Peachtree Street, NE',"," 'Atlanta',"," 'GA',"," '30309',"," 'US',"," '732',"," '404.522.2265',","branch","33.786738","-84.383176","Sun:  'Closed',Mon:  '9:00 AM - 4:00 PM',Tue:  '9:00 AM - 4:00 PM',Wed:  '9:00 AM - 4:00 PM',Thur:  '9:00 AM - 4:00 PM',Fri:  '9:00 AM - 4:00 PM',Sat:  'Closed',"
"https://banks.amerisbank.com/ga/atlanta/168-ATLA/"," 'Atlanta Mortgage Only Ameris Bank Location',"," '3490 Piedmont Rd NE',"," 'Atlanta',"," 'GA',"," '30305',"," 'US',"," '168-ATLA',"," '404.553.2900',","branch","33.84921","-84.37597","Sun:  'Closed',Mon:  '8:30 AM - 5:00 PM',Tue:  '8:30 AM - 5:00 PM',Wed:  '8:30 AM - 5:00 PM',Thur:  '8:30 AM - 5:00 PM',Fri:  '8:30 AM - 5:00 PM',Sat:  'Closed',"
"https://banks.amerisbank.com/ga/atlanta/168-ATL/"," 'Atlanta Mortgage Only Ameris Bank Location',"," '3 Corporate Square NE',"," 'Atlanta',"," 'GA',"," '30329',"," 'US',"," '168-ATL',"," '404.639.6500',","branch","33.8361747","-84.331286","Sun:  'Closed',Mon:  '8:30 AM - 5:00 PM',Tue:  '8:30 AM - 5:00 PM',Wed:  '8:30 AM - 5:00 PM',Thur:  '8:30 AM - 5:00 PM',Fri:  '8:30 AM - 5:00 PM',Sat:  'Closed',"
"https://banks.amerisbank.com/ga/augusta/166-AG/"," 'Augusta Mortgage Only Ameris Bank Location',"," '2808 Hillcreek Drive',"," 'Augusta',"," 'GA',"," '30909',"," 'US',"," '166-AG',"," '706.739.6138',","branch","33.480178","-82.090466","Sun:  'Closed',Mon:  '',Tue:  '8:30 AM - 5:00 PM',Wed:  '8:30 AM - 5:00 PM',Thur:  '8:30 AM - 5:00 PM',Fri:  '8:30 AM - 5:00 PM',Sat:  'By Appointment Only',"
"https://banks.amerisbank.com/ga/augusta/168-AU/"," 'Augusta Mortgage Only Ameris Bank Location',"," '3740 Walton Way Ext',"," 'Augusta',"," 'GA',"," '30907',"," 'US',"," '168-AU',"," '706.619.3999',","branch","33.4990644465579","-82.0815246168477","Sun:  'Closed',Mon:  '8:30 AM - 5:00 PM',Tue:  '8:30 AM - 5:00 PM',Wed:  '8:30 AM - 5:00 PM',Thur:  '8:30 AM - 5:00 PM',Fri:  '8:30 AM - 5:00 PM',Sat:  'Closed',"
"https://banks.amerisbank.com/ga/brunswick/550/"," 'Brunswick Cypress Mill Road Ameris Bank Location',"," '3440 Cypress Mill Road',"," 'Brunswick',"," 'GA',"," '31520',"," 'US',"," '550',"," '912.267.9500',","branch","31.1946552941176","-81.4826664705882","Sun:  'Closed',Mon:  '9:00 AM - 5:00 PM',Tue:  '9:00 AM - 5:00 PM',Wed:  '9:00 AM - 5:00 PM',Thur:  '9:00 AM - 5:00 PM',Fri:  '9:00 AM - 5:00 PM',Sat:  'Closed',"
"https://banks.amerisbank.com/ga/buena-vista/861/"," 'Buena Vista 6th Avenue Ameris Bank Location',"," '114 6th Avenue West',"," 'Buena Vista',"," 'GA',"," '31803',"," 'US',"," '861',"," '229.649.4600',","branch","32.3179341360406","-84.5173515715739","Sun:  'Closed',Mon:  '9:00 AM - 4:00 PM',Tue:  '9:00 AM - 4:00 PM',Wed:  '9:00 AM - 4:00 PM',Thur:  '9:00 AM - 4:00 PM',Fri:  '9:00 AM - 5:00 PM',Sat:  'Closed',"
"https://banks.amerisbank.com/ga/butler/862/"," 'Butler Broad Street Ameris Bank Location',"," '97 South Broad Street',"," 'Butler',"," 'GA',"," '31006',"," 'US',"," '862',"," '478.862.3062',","branch","32.5505582577977","-84.2404465414441","Sun:  'Closed',Mon:  '9:00 AM - 4:00 PM',Tue:  '9:00 AM - 4:00 PM',Wed:  '9:00 AM - 4:00 PM',Thur:  '9:00 AM - 4:00 PM',Fri:  '9:00 AM - 5:00 PM',Sat:  'Closed',"
"https://banks.amerisbank.com/ga/cairo/CAO-1015SNCG-6/"," 'Cairo (ATM ONLY)',"," '101 5th Street NW',"," 'Cairo',"," 'GA',"," '39828',"," 'US',"," 'CAO-1015SNCG-6',"," '866.616.6020',","atm","30.87654","-84.20137","Sun:  'n/a',Mon:  'n/a',Tue:  'n/a',Wed:  'n/a',Thur:  'n/a',Fri:  'n/a',Sat:  'n/a',"
"https://banks.amerisbank.com/ga/cairo/600/"," 'Cairo Broad Street Ameris Bank Location',"," '201 South Broad Street',"," 'Cairo',"," 'GA',"," '39828',"," 'US',"," '600',"," '229.377.1110',","branch","30.87532","-84.2081","Sun:  'Closed',Mon:  '9:00 AM - 4:00 PM',Tue:  '9:00 AM - 4:00 PM',Wed:  '9:00 AM - 4:00 PM',Thur:  '9:00 AM - 4:00 PM',Fri:  '9:00 AM - 5:00 PM',Sat:  'Closed',"
"https://banks.amerisbank.com/ga/canton/790/"," 'Canton Marietta Highway Ameris Bank Location',"," '3595 Marietta Highway',"," 'Canton',"," 'GA',"," '30114',"," 'US',"," '790',"," '770.345.7500',","branch","34.1984720362756","-84.5083458856284","Sun:  'Closed',Mon:  '9:00 AM - 5:00 PM',Tue:  '9:00 AM - 5:00 PM',Wed:  '9:00 AM - 5:00 PM',Thur:  '9:00 AM - 5:00 PM',Fri:  '9:00 AM - 5:00 PM',Sat:  'Closed',"
"https://banks.amerisbank.com/ga/canton/789/"," 'Canton Riverstone Pkwy. Ameris Bank Location',"," '1275 Riverstone Parkway',"," 'Canton',"," 'GA',"," '30114',"," 'US',"," '789',"," '770.479.3400',","branch","34.2469294117647","-84.4802711764706","Sun:  'Closed',Mon:  '9:00 AM - 5:00 PM',Tue:  '9:00 AM - 5:00 PM',Wed:  '9:00 AM - 5:00 PM',Thur:  '9:00 AM - 5:00 PM',Fri:  '9:00 AM - 5:00 PM',Sat:  'Closed',"
"https://banks.amerisbank.com/ga/cartersville/772/"," 'Cartersville East Church Street Ameris Bank Location',"," '301 E Church Street',"," 'Cartersville',"," 'GA',"," '30120',"," 'US',"," '772',"," '770.382.4223',","branch","34.16811","-84.79167","Sun:  'Closed',Mon:  '8:30 AM - 4:00 PM',Tue:  '8:30 AM - 4:00 PM',Wed:  '8:30 AM - 4:00 PM',Thur:  '8:30 AM - 4:00 PM',Fri:  '8:30 AM - 5:00 PM',Sat:  '8:30 AM - 12:00 PM',"
"https://banks.amerisbank.com/ga/cartersville/773/"," 'Cartersville Joe Frank Pkwy. Ameris Bank Location',"," '922 Joe Frank Harris Parkway SE',"," 'Cartersville',"," 'GA',"," '30120',"," 'US',"," '773',"," '770.386.8828',","branch","34.1975883934667","-84.7910453865936","Sun:  'Closed',Mon:  '8:30 AM - 4:00 PM',Tue:  '8:30 AM - 4:00 PM',Wed:  '8:30 AM - 4:00 PM',Thur:  '8:30 AM - 4:00 PM',Fri:  '8:30 AM - 5:00 PM',Sat:  'Closed',"
"https://banks.amerisbank.com/ga/colquitt/275/"," 'Colquitt Crawford Street Ameris Bank Location',"," '162 East Crawford Street',"," 'Colquitt',"," 'GA',"," '39837',"," 'US',"," '275',"," '229.758.3461',","branch","31.16983","-84.7297420895455","Sun:  'Closed',Mon:  '9:00 AM - 4:00 PM',Tue:  '9:00 AM - 4:00 PM',Wed:  '9:00 AM - 4:00 PM',Thur:  '9:00 AM - 4:00 PM',Fri:  '9:00 AM - 5:00 PM',Sat:  'Closed',"
"https://banks.amerisbank.com/ga/cordele/700/"," 'Cordele South 2nd Street Ameris Bank Location',"," '510 South 2nd Street',"," 'Cordele',"," 'GA',"," '31015',"," 'US',"," '700',"," '229.273.7700',","branch","31.9646616666667","-83.7749016666667","Sun:  'Closed',Mon:  '9:00 AM - 4:00 PM',Tue:  '9:00 AM - 4:00 PM',Wed:  '9:00 AM - 4:00 PM',Thur:  '9:00 AM - 4:00 PM',Fri:  '9:00 AM - 5:00 PM',Sat:  'Closed',"
"https://banks.amerisbank.com/ga/cumming/168-CU/"," 'Cumming Mortgage Only Ameris Bank Location',"," '304 Tribble Gap Rd',"," 'Cumming',"," 'GA',"," '30040',"," 'US',"," '168-CU',"," '770.203.4716',","branch","34.2101978378378","-84.1399697297297","Sun:  'Closed',Mon:  '8:30 AM - 5:00 PM',Tue:  '8:30 AM - 5:00 PM',Wed:  '8:30 AM - 5:00 PM',Thur:  '8:30 AM - 5:00 PM',Fri:  '8:30 AM - 5:00 PM',Sat:  'Closed',"
"https://banks.amerisbank.com/ga/doerun/210/"," 'Doerun West Broad Avenue Ameris Bank Location',"," '137 West Broad Avenue',"," 'Doerun',"," 'GA',"," '31744',"," 'US',"," '210',"," '229.782.5358',","branch","31.3195110204082","-83.917706122449","Sun:  'Closed',Mon:  '9:00 AM - 4:00 PM',Tue:  '9:00 AM - 4:00 PM',Wed:  '9:00 AM - 4:00 PM',Thur:  '9:00 AM - 4:00 PM',Fri:  '9:00 AM - 5:00 PM',Sat:  'Closed',"
"https://banks.amerisbank.com/ga/donalsonville/260/"," 'Donalsonville West Third Ameris Bank Location',"," '109 West Third Street',"," 'Donalsonville',"," 'GA',"," '39845',"," 'US',"," '260',"," '229.524.2112',","branch","31.0404624489796","-84.8826814285714","Sun:  'Closed',Mon:  '9:00 AM - 4:00 PM',Tue:  '9:00 AM - 4:00 PM',Wed:  '9:00 AM - 4:00 PM',Thur:  '9:00 AM - 4:00 PM',Fri:  '9:00 AM - 5:00 PM',Sat:  'Closed',"
"https://banks.amerisbank.com/ga/douglas/525/"," 'Douglas Bowen Mill Road Ameris Bank Location',"," '901 Bowens Mill Road, SW',"," 'Douglas',"," 'GA',"," '31533',"," 'US',"," '525',"," '912.384.2701',","branch","31.49613","-82.8723","Sun:  'Closed',Mon:  '9:00 AM - 4:00 PM',Tue:  '9:00 AM - 4:00 PM',Wed:  '9:00 AM - 4:00 PM',Thur:  '9:00 AM - 4:00 PM',Fri:  '8:30 AM - 5:30 PM',Sat:  'Closed',"
"https://banks.amerisbank.com/ga/douglas/520/"," 'Douglas South Pearl Avenue Ameris Bank Location',"," '100 South Pearl Avenue',"," 'Douglas',"," 'GA',"," '31533',"," 'US',"," '520',"," '912.384.2701',","branch","31.50882","-82.84811","Sun:  'Closed',Mon:  '9:00 AM - 4:00 PM',Tue:  '9:00 AM - 4:00 PM',Wed:  '9:00 AM - 4:00 PM',Thur:  '9:00 AM - 4:00 PM',Fri:  '9:00 AM - 5:30 PM',Sat:  'Closed',"
"https://banks.amerisbank.com/ga/douglasville/785/"," 'Douglasville Fairburn Road Ameris Bank Location',"," '6157 Fairburn Road',"," 'Douglasville',"," 'GA',"," '30134',"," 'US',"," '785',"," '770.949.2500',","branch","33.7508304594248","-84.7332705466043","Sun:  'Closed',Mon:  '9:00 AM - 4:00 PM',Tue:  '9:00 AM - 4:00 PM',Wed:  '9:00 AM - 4:00 PM',Thur:  '9:00 AM - 4:00 PM',Fri:  '9:00 AM - 5:30 PM',Sat:  '9:00 AM - 12:00 PM',"
"https://banks.amerisbank.com/ga/douglasville/786/"," 'Douglasville Stewart Pkwy. Ameris Bank Location',"," '6100 Stewart Parkway',"," 'Douglasville',"," 'GA',"," '30135',"," 'US',"," '786',"," '770.920.3180',","branch","33.7198452732397","-84.7733560693542","Sun:  'Closed',Mon:  '9:00 AM - 4:00 PM',Tue:  '9:00 AM - 400 PM',Wed:  '9:00 AM - 4:00 PM',Thur:  '9:00 AM - 4:00 PM',Fri:  '9:00 AM - 5:30 PM',Sat:  '9:00 AM - 12:00 PM',"
"https://banks.amerisbank.com/ga/dublin/539/"," 'Dublin Mall Ameris Bank Location',"," '2101 Veterans Boulevard',"," 'Dublin',"," 'GA',"," '31021',"," 'US',"," '539',"," '478.277.3765',","branch","32.54179","-82.95377","Sun:  'Closed',Mon:  '9:00 AM - 4:00 PM',Tue:  '9:00 AM - 4:00 PM',Wed:  '9:00 AM - 4:00 PM',Thur:  '9:00 AM - 4:00 PM',Fri:  '9:00 AM - 6:00 PM',Sat:  'Closed',"
"https://banks.amerisbank.com/ga/duluth/168-DL/"," 'Duluth Mortgage Only Ameris Bank Location',"," '2763 Meadow Church Rd',"," 'Duluth',"," 'GA',"," '30097',"," 'US',"," '168-DL',"," '678.957.5900',","branch","34.0","-84.08932","Sun:  'Closed',Mon:  '8:30 AM - 5:00 PM',Tue:  '8:30 AM - 5:00 PM',Wed:  '8:30 AM - 5:00 PM',Thur:  '8:30 AM - 5:00 PM',Fri:  '8:30 AM - 5:00 PM',Sat:  'Closed',"
"https://banks.amerisbank.com/ga/duluth/166-DU/"," 'Duluth Premiere Pkwy. Mortgage Only Ameris Bank Location',"," '3090 Premiere Pkwy',"," 'Duluth',"," 'GA',"," '30097',"," 'US',"," '166-DU',"," '770.429.5660',","branch","33.9970688918488","-84.096641194183","Sun:  'Closed',Mon:  'By Appointment Only',Tue:  'By Appointment Only',Wed:  'By Appointment Only',Thur:  'By Appointment Only',Fri:  'By Appointment Only',Sat:  'By Appointment Only',"
"https://banks.amerisbank.com/ga/ellaville/860/"," 'Ellaville South Broad Street Ameris Bank Location',"," '285 South Broad Street',"," 'Ellaville',"," 'GA',"," '31806',"," 'US',"," '860',"," '229.937.2507',","branch","32.2341217073171","-84.3087878048781","Sun:  'Closed',Mon:  '9:00 AM - 4:00 PM',Tue:  '9:00 AM - 4:00 PM',Wed:  '9:00 AM - 4:00 PM',Thur:  '9:00 AM - 4:00 PM',Fri:  '9:00 AM - 5:00 PM',Sat:  'Closed',"
"https://banks.amerisbank.com/ga/ellenwood/783/"," 'Ellenwood Fairview Road Ameris Bank Location',"," '295 Fairview Road',"," 'Ellenwood',"," 'GA',"," '30294',"," 'US',"," '783',"," '770.474.6051',","branch","33.6186217432068","-84.2452196321307","Sun:  'Closed',Mon:  '9:00 AM - 4:30 PM',Tue:  '9:00 AM - 4:30 PM',Wed:  '9:00 AM - 4:30 PM',Thur:  '9:00 AM - 4:30 PM',Fri:  '9:00 AM - 5:00 PM',Sat:  'Closed',"
"https://banks.amerisbank.com/ga/fayetteville/168-FV/"," 'Fayetteville Mortgage Only Ameris Bank Location',"," '1170 Hwy 54 W',"," 'Fayetteville',"," 'GA',"," '30214',"," 'US',"," '168-FV',"," '678.632.9640',","branch","33.4491873494305","-84.501566265148","Sun:  'Closed',Mon:  '8:30 AM - 5:00 PM',Tue:  '8:30 AM - 5:00 PM',Wed:  '8:30 AM - 5:00 PM',Thur:  '8:30 AM - 5:00 PM',Fri:  '8:30 AM - 5:00 PM',Sat:  'Closed',"
"https://banks.amerisbank.com/ga/gainesville/767/"," 'Gainesville, GA Washington Street Ameris Bank Location',"," '854 Washington Street NW',"," 'Gainesville',"," 'GA',"," '30501',"," 'US',"," '767',"," '678.343.2300',","branch","34.3028217201166","-83.8209141982507","Sun:  'Closed',Mon:  '9:00 AM - 5:00 PM',Tue:  '9:00 AM - 5:00 PM',Wed:  '9:00 AM - 5:00 PM',Thur:  '9:00 AM - 5:00 PM',Fri:  '9:00 AM - 5:00 PM',Sat:  'Closed',"
"https://banks.amerisbank.com/ga/greensboro/168-GB/"," 'Greensboro Mortgage Only Ameris Bank Location',"," '1010 Park Place Blvd',"," 'Greensboro',"," 'GA',"," '30642',"," 'US',"," '168-GB',"," '706.453.9887',","branch","33.46415","-83.2421","Sun:  'Closed',Mon:  '8:30 AM - 5:00 PM',Tue:  '8:30 AM - 5:00 PM',Wed:  '8:30 AM - 5:00 PM',Thur:  '8:30 AM - 5:00 PM',Fri:  '8:30 AM - 5:00 PM',Sat:  'Closed',"
"https://banks.amerisbank.com/ga/hinesville/552/"," 'Hinesville West Hendry Street Ameris Bank Location',"," '101 West Hendry Street',"," 'Hinesville',"," 'GA',"," '31313',"," 'US',"," '552',"," '912.368.2265',","branch","31.84403","-81.59709","Sun:  'Closed',Mon:  '9:00 AM - 5:00 PM',Tue:  '9:00 AM - 5:00 PM',Wed:  '9:00 AM - 5:00 PM',Thur:  '9:00 AM - 5:00 PM',Fri:  '9:00 AM - 5:00 PM',Sat:  'Closed',"
"https://banks.amerisbank.com/ga/hoschton/766/"," 'Hoschton Hwy 211 Ameris Bank Location',"," '1907 Highway 211 NW',"," 'Hoschton',"," 'GA',"," '30548',"," 'US',"," '766',"," '770.868.2660',","branch","34.0910359757044","-83.8070559757044","Sun:  'Closed',Mon:  '9:00 AM - 5:00 PM',Tue:  '9:00 AM - 5:00 PM',Wed:  '9:00 AM - 5:00 PM',Thur:  '9:00 AM - 5:00 PM',Fri:  '9:00 AM - 5:00 PM',Sat:  'Closed',"
"https://banks.amerisbank.com/ga/jackson/776/"," 'Jackson South Oak Street Ameris Bank Location',"," '210 S Oak Street',"," 'Jackson',"," 'GA',"," '30233',"," 'US',"," '776',"," '770.775.8300',","branch","33.2935795918367","-83.9673279591837","Sun:  'Closed',Mon:  '9:00 AM - 4:30 PM',Tue:  '9:00 AM - 4:30 PM',Wed:  '9:00 AM - 4:30 PM',Thur:  '9:00 AM - 4:30 PM',Fri:  '9:00 AM - 5:00 PM',Sat:  '9:00 AM - 12:00 PM',"
"https://banks.amerisbank.com/ga/jefferson/768/"," 'Jefferson Washington Street Ameris Bank Location',"," '1596 Washington Street',"," 'Jefferson',"," 'GA',"," '30549',"," 'US',"," '768',"," '706.367.1860',","branch","34.1326118763012","-83.592694690753","Sun:  'Closed',Mon:  '9:00 AM - 5:00 PM',Tue:  '9:00 AM - 5:00 PM',Wed:  '9:00 AM - 5:00 PM',Thur:  '9:00 AM - 5:00 PM',Fri:  '9:00 AM - 5:00 PM',Sat:  'Closed',"
"https://banks.amerisbank.com/ga/jekyll-island/580/"," 'Jekyll Island Main Street Ameris Bank Location',"," '31 Main Street, Unit 101',"," 'Jekyll Island',"," 'GA',"," '31527',"," 'US',"," '580',"," '912.635.9014',","branch","31.047384","-81.411173","Sun:  'Closed',Mon:  '9:00 AM - 4:00 PM',Tue:  '9:00 AM - 4:00 PM',Wed:  '9:00 AM - 4:00 PM',Thur:  '9:00 AM - 4:00 PM',Fri:  '9:00 AM - 5:00 PM',Sat:  'Closed',"
"https://banks.amerisbank.com/ga/kennesaw/168-KN/"," 'Kennesaw Mortgage Only Ameris Bank Location',"," '600 Townpark Ln NW',"," 'Kennesaw',"," 'GA',"," '30144',"," 'US',"," '168-KN',"," '404.553.2620',","branch","34.038674467218","-84.5689083607016","Sun:  'Closed',Mon:  '8:30 AM - 5:00 PM',Tue:  '8:30 AM - 5:00 PM',Wed:  '8:30 AM - 5:00 PM',Thur:  '8:30 AM - 5:00 PM',Fri:  '8:30 AM - 5:00 PM',Sat:  'Closed',"
"https://banks.amerisbank.com/ga/leesburg/LCAO-1584U19SLG-6/"," 'Lee County (ATM ONLY)',"," '1584 US 19 South',"," 'Leesburg',"," 'GA',"," '31763',"," 'US',"," 'LCAO-1584U19SLG-6',"," '866.616.6020',","atm","31.63071","-84.17685","Sun:  'n/a',Mon:  'n/a',Tue:  'n/a',Wed:  'n/a',Thur:  'n/a',Fri:  'n/a',Sat:  'n/a',"
"https://banks.amerisbank.com/ga/lithia-springs/788/"," 'Lithia Springs Skyview Drive Ameris Bank Location',"," '3491 Skyview Drive',"," 'Lithia Springs',"," 'GA',"," '30122',"," 'US',"," '788',"," '770.941.1677',","branch","33.7859708183534","-84.655573912007","Sun:  'Closed',Mon:  '9:00 AM - 4:00 PM',Tue:  '9:00 AM - 4:00 PM',Wed:  '9:00 AM - 4:00 PM',Thur:  '9:00 AM - 4:00 PM',Fri:  '9:00 AM - 5:30 PM',Sat:  'Closed',"
"https://banks.amerisbank.com/ga/locust-grove/784/"," 'Locust Grove Bill Gardner Pkwy. Ameris Bank Location',"," '4979 Bill Gardner Parkway',"," 'Locust Grove',"," 'GA',"," '30248',"," 'US',"," '784',"," '770.507.9502',","branch","33.3536783161232","-84.117202590942","Sun:  'Closed',Mon:  '9:00 AM - 4:30 PM',Tue:  '9:00 AM - 4:30 PM',Wed:  '9:00 AM - 4:30 PM',Thur:  '9:00 AM - 4:30 PM',Fri:  '9:00 AM - 5:00 PM',Sat:  '9:00 AM - 12:00 PM',"
"https://banks.amerisbank.com/ga/lyons/542/"," 'Lyons West Liberty Avenue Ameris Bank Location',"," '182 West Liberty Avenue',"," 'Lyons',"," 'GA',"," '30436',"," 'US',"," '542',"," '912.526.7007',","branch","32.2025404485515","-82.3241289113056","Sun:  'Closed',Mon:  '9:00 AM - 4:00 PM',Tue:  '9:00 AM - 4:00 PM',Wed:  '9:00 AM - 4:00 PM',Thur:  '9:00 AM - 4:00 PM',Fri:  '9:00 AM - 5:00 PM',Sat:  'Closed',"
"https://banks.amerisbank.com/ga/marietta/792/"," 'Marietta Ernest Barrett Pkwy. Ameris Bank Location',"," '3411 Ernest W. Barrett Parkway NW',"," 'Marietta',"," 'GA',"," '30064',"," 'US',"," '792',"," '678.569.4250',","branch","33.9479320715595","-84.6238933979031","Sun:  'Closed',Mon:  '9:00 AM - 4:00 PM',Tue:  '9:00 AM - 4:00 PM',Wed:  '9:00 AM - 4:00 PM',Thur:  '9:00 AM - 4:00 PM',Fri:  '9:00 AM - 4:00 PM',Sat:  'Closed',"
"https://banks.amerisbank.com/ga/marietta/166-MA/"," 'Marietta Parkway Place Mortgage Only Ameris Bank Location',"," '1800 Parkway Place',"," 'Marietta',"," 'GA',"," '30067',"," 'US',"," '166-MA',"," '770.578.3600',","branch","33.9389511654823","-84.5049766258883","Sun:  'Closed',Mon:  'By Appointment Only',Tue:  'By Appointment Only',Wed:  'By Appointment Only',Thur:  'By Appointment Only',Fri:  'By Appointment Only',Sat:  'By Appointment Only',"
"https://banks.amerisbank.com/ga/mcdonough/782/"," 'McDonough Bethany Road Ameris Bank Location',"," '1908 Highway 81 East',"," 'McDonough',"," 'GA',"," '30252',"," 'US',"," '782',"," '770.474.7829',","branch","33.4285611363636","-84.0897965909091","Sun:  'Closed',Mon:  '9:00 AM - 4:30 PM',Tue:  '9:00 AM - 4:30 PM',Wed:  '9:00 AM - 4:30 PM',Thur:  '9:00 AM - 4:30 PM',Fri:  '9:00 AM - 5:00 PM',Sat:  'Closed',"
"https://banks.amerisbank.com/ga/mcdonough/779/"," 'McDonough Hwy 155 Ameris Bank Location',"," '2316 Hwy 155 N',"," 'McDonough',"," 'GA',"," '30252',"," 'US',"," '779',"," '770.474.7267',","branch","33.512206355405","-84.1386933964793","Sun:  'Closed',Mon:  '9:00 AM - 4:30 PM',Tue:  '9:00 AM - 4:30 PM',Wed:  '9:00 AM - 4:30 PM',Thur:  '9:00 AM - 4:30 PM',Fri:  '9:00 AM - 5:00 PM',Sat:  'Closed',"
"https://banks.amerisbank.com/ga/mcdonough/781/"," 'McDonough John Frank Ward Blvd Ameris Bank Location',"," '114 John Frank Ward Boulevard',"," 'McDonough',"," 'GA',"," '30253',"," 'US',"," '781',"," '770.474.5766',","branch","33.4476694444444","-84.1431691666667","Sun:  'Closed',Mon:  '9:00 AM - 4:30 PM',Tue:  '9:00 AM - 4:30 PM',Wed:  '9:00 AM - 4:30 PM',Thur:  '9:00 AM - 4:30 PM',Fri:  '9:00 AM - 5:00 PM',Sat:  '9:00 AM - 12:00 PM',"
"https://banks.amerisbank.com/ga/monticello/777/"," 'Monticello East Greene Street Ameris Bank Location',"," '208 E Greene Street',"," 'Monticello',"," 'GA',"," '31064',"," 'US',"," '777',"," '706.468.8801',","branch","33.3041853061224","-83.6824124489796","Sun:  'Closed',Mon:  '9:00 AM - 4:30 PM',Tue:  '9:00 AM - 4:30 PM',Wed:  '9:00 AM - 4:30 PM',Thur:  '9:00 AM - 4:30 PM',Fri:  '9:00 AM - 5:00 PM',Sat:  '9:00 AM - 12:00 PM',"
"https://banks.amerisbank.com/ga/moultrie/220/"," 'Moultrie Quitman Hwy Ameris Bank Location',"," '1707 First Avenue, SE',"," 'Moultrie',"," 'GA',"," '31768',"," 'US',"," '220',"," '229.985.1111',","branch","31.17761","-83.7658375","Sun:  'Closed',Mon:  '9:00 AM - 4:00 PM',Tue:  '9:00 AM - 4:00 PM',Wed:  '9:00 AM - 4:00 PM',Thur:  '9:00 AM - 4:00 PM',Fri:  '9:00 AM - 5:00 PM',Sat:  'Closed',"
"https://banks.amerisbank.com/ga/moultrie/205/"," 'Moultrie South Main Street Ameris Bank Location',"," '300 S. Main Street',"," 'Moultrie',"," 'GA',"," '31768',"," 'US',"," '205',"," '229.985.4040',","branch","31.1768795959596","-83.7888751515151","Sun:  'Closed',Mon:  '9:00 AM - 4:00 PM',Tue:  '9:00 AM - 4:00 PM',Wed:  '9:00 AM - 4:00 PM',Thur:  '9:00 AM - 4:00 PM',Fri:  '9:00 AM - 5:00 PM',Sat:  'Closed',"
"https://banks.amerisbank.com/ga/moultrie/230/"," 'Moultrie Sunset Ameris Bank Location',"," '2513 South Main Street',"," 'Moultrie',"," 'GA',"," '31768',"," 'US',"," '230',"," '229.873.4444',","branch","31.139416969697","-83.7838795959596","Sun:  'Closed',Mon:  '9:00 AM - 4:00 PM',Tue:  '9:00 AM - 4:00 PM',Wed:  '9:00 AM - 4:00 PM',Thur:  '9:00 AM - 4:00 PM',Fri:  '9:00 AM - 5:00 PM',Sat:  'Closed',"
"https://banks.amerisbank.com/ga/oakwood/770/"," 'Oakwood Mundy Mill Road Ameris Bank Location',"," '3607 Mundy Mill Road',"," 'Oakwood',"," 'GA',"," '30566',"," 'US',"," '770',"," '678.866.0500',","branch","34.2274961016949","-83.8673793220339","Sun:  'Closed',Mon:  '9:00 AM - 5:00 PM',Tue:  '9:00 AM - 5:00 PM',Wed:  '9:00 AM - 5:00 PM',Thur:  '9:00 AM - 5:00 PM',Fri:  '9:00 AM - 5:00 PM',Sat:  'Closed',"
"https://banks.amerisbank.com/ga/ocilla/530/"," 'Ocilla Irwin Avenue Ameris Bank Location',"," '300 S. Irwin Avenue',"," 'Ocilla',"," 'GA',"," '31774',"," 'US',"," '530',"," '229.468.9411',","branch","31.59218","-83.25059","Sun:  'Closed',Mon:  '9:00 AM - 4:00 PM',Tue:  '9:00 AM - 4:00 PM',Wed:  '9:00 AM - 4:00 PM',Thur:  '9:00 AM - 4:00 PM',Fri:  '9:00 AM - 5:30 PM',Sat:  'Closed',"
"https://banks.amerisbank.com/ga/pooler/554/"," 'Pooler Godley Station Ameris Bank Location',"," '140 Towne Center Boulevard',"," 'Pooler',"," 'GA',"," '31322',"," 'US',"," '554',"," '912.644.1640',","branch","32.1431339955767","-81.2480322742435","Sun:  'Closed',Mon:  '9:00 AM - 4:00 PM',Tue:  '9:00 AM - 4:00 PM',Wed:  '9:00 AM - 4:00 PM',Thur:  '9:00 AM - 4:00 PM',Fri:  '9:00 AM - 5:00 PM',Sat:  'Closed',"
"https://banks.amerisbank.com/ga/pooler/553/"," 'Pooler West Highway Ameris Bank Location',"," '501 West Highway 80',"," 'Pooler',"," 'GA',"," '31322',"," 'US',"," '553',"," '912.201.4927',","branch","32.11832","-81.25513","Sun:  'Closed',Mon:  '9:00 AM - 4:00 PM',Tue:  '9:00 AM - 4:00 PM',Wed:  '9:00 AM - 4:00 PM',Thur:  '9:00 AM - 4:00 PM',Fri:  '9:00 AM - 5:00 PM',Sat:  'Closed',"
"https://banks.amerisbank.com/ga/quitman/300/"," 'Quitman Screven Street Ameris Bank Location',"," '1000 W. Screven Street',"," 'Quitman',"," 'GA',"," '31643',"," 'US',"," '300',"," '229.263.7525',","branch","30.78528","-83.56807","Sun:  'Closed',Mon:  '9:00 AM - 4:00 PM',Tue:  '9:00 AM - 4:00 PM',Wed:  '9:00 AM - 4:00 PM',Thur:  '9:00 AM - 4:00 PM',Fri:  '9:00 AM - 6:00 PM',Sat:  'Closed',"
"https://banks.amerisbank.com/ga/richmond-hill/166-RH/"," 'Richmond Hill Cedar Street Mortgage Only Ameris Bank Location',"," '175 Cedar Street',"," 'Richmond Hill',"," 'GA',"," '31324',"," 'US',"," '166-RH',"," '912.201.7309',","branch","31.9455867346939","-81.308077755102","Sun:  'Closed',Mon:  'By Appointment Only',Tue:  'By Appointment Only',Wed:  'By Appointment Only',Thur:  'By Appointment Only',Fri:  'By Appointment Only',Sat:  'By Appointment Only',"
"https://banks.amerisbank.com/ga/richmond-hill/551/"," 'Richmond Hill Ford Avenue Ameris Bank Location',"," '10425 Ford Avenue',"," 'Richmond Hill',"," 'GA',"," '31324',"," 'US',"," '551',"," '912.662.7037',","branch","31.9444484210526","-81.3083568421053","Sun:  'Closed',Mon:  '9:00 AM - 5:00 PM',Tue:  '9:00 AM - 5:00 PM',Wed:  '9:00 AM - 5:00 PM',Thur:  '9:00 AM - 5:00 PM',Fri:  '9:00 AM - 5:00 PM',Sat:  'Closed',"
"https://banks.amerisbank.com/ga/rincon/555/"," 'Rincon Highway 21 Ameris Bank Location',"," '5799 Highway 21 South',"," 'Rincon',"," 'GA',"," '31326',"," 'US',"," '555',"," '912.826.1600',","branch","32.2606984","-81.2186676","Sun:  'Closed',Mon:  '9:00 AM - 4:00 PM',Tue:  '9:00 AM - 4:00 PM',Wed:  '9:00 AM - 4:00 PM',Thur:  '9:00 AM - 4:00 PM',Fri:  '9:00 AM - 5:00 PM',Sat:  'Closed',"
"https://banks.amerisbank.com/ga/savannah/544/"," 'Savannah Drayton Street Ameris Bank Location',"," '24 Drayton Street',"," 'Savannah',"," 'GA',"," '31401',"," 'US',"," '544',"," '912.201.4934',","branch","32.07965","-81.09047","Sun:  'Closed',Mon:  '9:00 AM - 4:00 PM',Tue:  '9:00 AM - 4:00 PM',Wed:  '9:00 AM - 4:00 PM',Thur:  '9:00 AM - 4:00 PM',Fri:  '9:00 AM - 5:00 PM',Sat:  'Closed',"
"https://banks.amerisbank.com/ga/savannah/168-SV/"," 'Savannah Mortgage Only Ameris Bank Location',"," '200 Stephenson Ave',"," 'Savannah',"," 'GA',"," '31405',"," 'US',"," '168-SV',"," '912.692.8022',","branch","32.01325","-81.11115","Sun:  'Closed',Mon:  '8:30 AM - 5:00 PM',Tue:  '8:30 AM - 5:00 PM',Wed:  '8:30 AM - 5:00 PM',Thur:  '8:30 AM - 5:00 PM',Fri:  '8:30 AM - 5:00 PM',Sat:  'Closed',"
"https://banks.amerisbank.com/ga/savannah/556/"," 'Savannah Stephenson Avenue Ameris Bank Location',"," '412 Stephenson Avenue',"," 'Savannah',"," 'GA',"," '31405',"," 'US',"," '556',"," '912.201.4989',","branch","32.0118588349515","-81.1062587378641","Sun:  'Closed',Mon:  '9:00 AM - 4:00 PM',Tue:  '9:00 AM - 4:00 PM',Wed:  '9:00 AM - 4:00 PM',Thur:  '9:00 AM - 4:00 PM',Fri:  '9:00 AM - 5:00 PM',Sat:  'Closed',"
"https://banks.amerisbank.com/ga/smyrna/793/"," 'Smyrna Concord Road Ameris Bank Location',"," '1298 Concord Road SE',"," 'Smyrna',"," 'GA',"," '30080',"," 'US',"," '793',"," '770.333.0772',","branch","33.88026","-84.51637","Sun:  'Closed',Mon:  '9:00 AM - 4:00 PM',Tue:  '9:00 AM - 4:00 PM',Wed:  '9:00 AM - 4:00 PM',Thur:  '9:00 AM - 4:00 PM',Fri:  '9:00 AM - 4:00 PM',Sat:  'Closed',"
"https://banks.amerisbank.com/ga/st-marys/585/"," 'St Marys Osborne Road Ameris Bank Location',"," '2509 Osborne Road',"," 'St Marys',"," 'GA',"," '31558',"," 'US',"," '585',"," '912.882.3400',","branch","30.7508","-81.57368","Sun:  'Closed',Mon:  '8:30 AM - 5:00 PM',Tue:  '8:30 AM - 5:00 PM',Wed:  '8:30 AM - 5:00 PM',Thur:  '8:30 AM - 5:00 PM',Fri:  '8:30 AM - 5:30 PM',Sat:  'Closed',"
"https://banks.amerisbank.com/ga/stockbridge/166-ST/"," 'Stockbridge Corporate Center Mortgage Only Ameris Bank Location',"," '360 Corporate Center Court',"," 'Stockbridge',"," 'GA',"," '30281',"," 'US',"," '166-ST',"," '770.578.3679',","branch","33.5072897888102","-84.2208465068555","Sun:  'Closed',Mon:  'By Appointment Only',Tue:  'By Appointment Only',Wed:  'By Appointment Only',Thur:  'By Appointment Only',Fri:  'By Appointment Only',Sat:  'By Appointment Only',"
"https://banks.amerisbank.com/ga/stockbridge/780/"," 'Stockbridge Hudson Bridge Road Ameris Bank Location',"," '1810 Hudson Bridge Road',"," 'Stockbridge',"," 'GA',"," '30281',"," 'US',"," '780',"," '770.474.2836',","branch","33.50067","-84.24517","Sun:  'Closed',Mon:  '9:00 AM - 4:30 PM',Tue:  '9:00 AM - 4:30 PM',Wed:  '9:00 AM - 4:30 PM',Thur:  '9:00 AM - 4:30 PM',Fri:  '9:00 AM - 5:00 PM',Sat:  'Closed',"
"https://banks.amerisbank.com/ga/stockbridge/778/"," 'Stockbridge North Henry Blvd. Ameris Bank Location',"," '4806 N Henry Boulevard',"," 'Stockbridge',"," 'GA',"," '30281',"," 'US',"," '778',"," '770.474.7293',","branch","33.5443737370584","-84.2368099687779","Sun:  'Closed',Mon:  '9:00 AM - 4:30 PM',Tue:  '9:00 AM - 4:30 PM',Wed:  '9:00 AM - 4:30 PM',Thur:  '9:00 AM - 4:30 PM',Fri:  '9:00 AM - 5:00 PM',Sat:  '9:00 AM - 12:00 PM',"
"https://banks.amerisbank.com/ga/st.-simons-island/570/"," 'St. Simons Island Frederica Road Ameris Bank Location',"," '3811 Frederica Road',"," 'St. Simons Island',"," 'GA',"," '31522',"," 'US',"," '570',"," '912.634.1270',","branch","31.1899043434343","-81.3766634343434","Sun:  'Closed',Mon:  '9:00 AM - 5:00 PM',Tue:  '9:00 AM - 5:00 PM',Wed:  '9:00 AM - 5:00 PM',Thur:  '9:00 AM - 5:00 PM',Fri:  '9:00 AM - 5:00 PM',Sat:  'Closed',"
"https://banks.amerisbank.com/ga/thomasville/400/"," 'Thomasville Hwy 19 South Ameris Bank Location',"," '14977 US Hwy 19 South',"," 'Thomasville',"," 'GA',"," '31792',"," 'US',"," '400',"," '229.226.5755',","branch","30.85398","-83.94587","Sun:  'Closed',Mon:  '8:30 AM - 4:00 PM',Tue:  '8:30 AM - 4:00 PM',Wed:  '8:30 AM - 4:00 PM',Thur:  '8:30 AM - 4:00 PM',Fri:  '8:30 AM - 5:00 PM',Sat:  'Closed',"
"https://banks.amerisbank.com/ga/tifton/502/"," 'Tifton First Street Ameris Bank Location',"," '127 First Street',"," 'Tifton',"," 'GA',"," '31794',"," 'US',"," '502',"," '229.387.3470',","branch","31.4529644879721","-83.5099953161537","Sun:  'Closed',Mon:  '9:00 AM - 4:00 PM',Tue:  '9:00 AM - 4:00 PM',Wed:  '9:00 AM - 4:00 PM',Thur:  '9:00 AM - 4:00 PM',Fri:  '9:00 AM - 5:00 PM',Sat:  'Closed',"
"https://banks.amerisbank.com/ga/tifton/501/"," 'Tifton Old Ocilla Road Ameris Bank Location',"," '1911 Old Ocilla Road',"," 'Tifton',"," 'GA',"," '31794',"," 'US',"," '501',"," '229.387.7225',","branch","31.4733636842105","-83.48666","Sun:  'Closed',Mon:  '9:00 AM - 4:00 PM',Tue:  '9:00 AM - 4:00 PM',Wed:  '9:00 AM - 4:00 PM',Thur:  '9:00 AM - 4:00 PM',Fri:  '9:00 AM - 5:30 PM',Sat:  'Closed',"
"https://banks.amerisbank.com/ga/tifton/TTCAO-406NVATG-6/"," 'Tifton Town &amp;amp; Country (ATM ONLY)',"," '406 N. Virginia Ave',"," 'Tifton',"," 'GA',"," '31794',"," 'US',"," 'TTCAO-406NVATG-6',"," '866.616.6020',","atm","31.4603432066847","-83.5267849064813","Sun:  'n/a',Mon:  'n/a',Tue:  'n/a',Wed:  'n/a',Thur:  'n/a',Fri:  'n/a',Sat:  'n/a',"
"https://banks.amerisbank.com/ga/tifton/500/"," 'Tifton West Second Street Ameris Bank Location',"," '735 West Second Street',"," 'Tifton',"," 'GA',"," '31794',"," 'US',"," '500',"," '229.382.7311',","branch","31.4578117647059","-83.5236288235294","Sun:  'Closed',Mon:  '9:00 AM - 4:00 PM',Tue:  '9:00 AM - 4:00 PM',Wed:  '9:00 AM - 4:00 PM',Thur:  '9:00 AM - 4:00 PM',Fri:  '9:00 AM - 5:30 PM',Sat:  'Closed',"
"https://banks.amerisbank.com/ga/valdosta/320/"," 'Valdosta Inner Perimeter Road Ameris Bank Location',"," '3140 Inner Perimeter Road',"," 'Valdosta',"," 'GA',"," '31602',"," 'US',"," '320',"," '229.241.2851',","branch","30.87979","-83.29606","Sun:  'Closed',Mon:  '9:00 AM - 4:00 PM',Tue:  '9:00 AM - 4:00 PM',Wed:  '9:00 AM - 4:00 PM',Thur:  '9:00 AM - 4:00 PM',Fri:  '9:00 AM - 6:00 PM',Sat:  'Closed',"
"https://banks.amerisbank.com/ga/vidalia/VIDAO-541TEL-6/"," 'Vidalia (ATM ONLY)',"," '627 East First Street',"," 'Vidalia',"," 'GA',"," '30474',"," 'US',"," 'VIDAO-541TEL-6',"," 'n/a',","atm","32.2147475510204","-82.4065967346939","Sun:  'n/a',Mon:  'n/a',Tue:  'n/a',Wed:  'n/a',Thur:  'n/a',Fri:  'n/a',Sat:  'n/a',"
"https://banks.amerisbank.com/ga/vidalia/541/"," 'Vidalia East First Street Ameris Bank Location',"," '1705 East First Street',"," 'Vidalia',"," 'GA',"," '30474',"," 'US',"," '541',"," '912.537.7139',","branch","32.21082","-82.3908134693878","Sun:  'Closed',Mon:  '9:00 AM - 4:00 PM',Tue:  '9:00 AM - 4:00 PM',Wed:  '9:00 AM - 4:00 PM',Thur:  '9:00 AM - 4:00 PM',Fri:  '9:00 AM - 5:00 PM',Sat:  'Closed',"
"https://banks.amerisbank.com/ga/waycross/515/"," 'Waycross Haines Avenue Ameris Bank Location',"," '505 Haines Avenue',"," 'Waycross',"," 'GA',"," '31501',"," 'US',"," '515',"," '912.284.2225',","branch","31.2067809587304","-82.3595563600907","Sun:  'Closed',Mon:  '9:00 AM - 4:00 PM',Tue:  '9:00 AM - 4:00 PM',Wed:  '9:00 AM - 4:00 PM',Thur:  '9:00 AM - 4:00 PM',Fri:  '9:00 AM - 5:00 PM',Sat:  'Closed',"
"https://banks.amerisbank.com/ga/waycross/515D/"," 'Waycross Haines Avenue Drive Thru Only Ameris Bank Location',"," '400 Haines Avenue',"," 'Waycross',"," 'GA',"," '31501',"," 'US',"," '515D',"," '912.284.2225',","branch","31.20729","-82.35952","Sun:  'N/A',Mon:  'N/A',Tue:  'N/A',Wed:  'N/A',Thur:  'N/A',Fri:  'N/A',Sat:  'N/A',"
"https://banks.amerisbank.com/ga/waycross/516/"," 'Waycross Memorial Drive Ameris Bank Location',"," '2110 Memorial Drive',"," 'Waycross',"," 'GA',"," '31501',"," 'US',"," '516',"," '912.809.2944',","branch","31.2019833535445","-82.3301971300717","Sun:  'Closed',Mon:  '9:00 AM - 4:00 PM',Tue:  '9:00 AM - 4:00 PM',Wed:  '9:00 AM - 4:00 PM',Thur:  '9:00 AM - 4:00 PM',Fri:  '9:00 AM - 5:00 PM',Sat:  'Closed',"
"https://banks.amerisbank.com/ga/woodstock/791/"," 'Woodstock Square Avenue Ameris Bank Location',"," '159 Woodstock Square Avenue',"," 'Woodstock',"," 'GA',"," '30189',"," 'US',"," '791',"," '770.924.4300',","branch","34.0837645815425","-84.543952896996","Sun:  'Closed',Mon:  '9:00 AM - 5:00 PM',Tue:  '9:00 AM - 5:00 PM',Wed:  '9:00 AM - 5:00 PM',Thur:  '9:00 AM - 5:00 PM',Fri:  '9:00 AM - 5:00 PM',Sat:  'Closed',"
"https://banks.amerisbank.com/md/eldersburg/151-EL/"," 'Eldersburg Mortgage Only Ameris Bank Location',"," '1332 Londontown Blvd',"," 'Eldersburg',"," 'MD',"," '21784',"," 'US',"," '151-EL',"," '443.372.1740',","branch","39.4077133666708","-76.9471780960854","Sun:  'Closed',Mon:  '8:30 AM - 5:00 PM',Tue:  '8:30 AM - 5:00 PM',Wed:  '8:30 AM - 5:00 PM',Thur:  '8:30 AM - 5:00 PM',Fri:  '8:30 AM - 5:00 PM',Sat:  'Closed',"
"https://banks.amerisbank.com/md/lanham/151-LH/"," 'Lanham Mortgage Only Ameris Bank Location',"," '4415 Nicole Drive',"," 'Lanham',"," 'MD',"," '20706',"," 'US',"," '151-LH',"," '301.683.0268',","branch","38.9501208038879","-76.8298078968723","Sun:  'Closed',Mon:  '8:30 AM - 5:00 PM',Tue:  '8:30 AM - 5:00 PM',Wed:  '8:30 AM - 5:00 PM',Thur:  '8:30 AM - 5:00 PM',Fri:  '8:30 AM - 5:00 PM',Sat:  'Closed',"
"https://banks.amerisbank.com/nc/asheville/153-AS/"," 'Asheville Mortgage Only Ameris Bank Location',"," '28 Schenck Pkwy',"," 'Asheville',"," 'NC',"," '28803',"," 'US',"," '153-AS',"," '828.771.0865',","branch","35.4854","-82.55398","Sun:  'Closed',Mon:  '8:30 AM - 5:00 PM',Tue:  '8:30 AM - 5:00 PM',Wed:  '8:30 AM - 5:00 PM',Thur:  '8:30 AM - 5:00 PM',Fri:  '8:30 AM - 5:00 PM',Sat:  'Closed',"
"https://banks.amerisbank.com/nc/banner-elk/153-BE/"," 'Banner Elk Mortgage Only Ameris Bank Location',"," '9649 Hwy 105 S',"," 'Banner Elk',"," 'NC',"," '28604',"," 'US',"," '153-BE',"," '828.963.1400',","branch","36.1561992","-81.7834441","Sun:  'Closed',Mon:  '8:30 AM - 5:00 PM',Tue:  '8:30 AM - 5:00 PM',Wed:  '8:30 AM - 5:00 PM',Thur:  '8:30 AM - 5:00 PM',Fri:  '8:30 AM - 5:00 PM',Sat:  'Closed',"
"https://banks.amerisbank.com/nc/charlotte/153-CH/"," 'Charlotte Mortgage Only Ameris Bank Location',"," '6100 Fairview Rd',"," 'Charlotte',"," 'NC',"," '28210',"," 'US',"," '153-CH',"," '980.428.8252',","branch","35.1510341777575","-80.8384810218782","Sun:  'Closed',Mon:  '8:30 AM - 5:00 PM',Tue:  '8:30 AM - 5:00 PM',Wed:  '8:30 AM - 5:00 PM',Thur:  '8:30 AM - 5:00 PM',Fri:  '8:30 AM - 5:00 PM',Sat:  'Closed',"
"https://banks.amerisbank.com/nc/durham/153-DU/"," 'Durham Mortgage Only Ameris Bank Location',"," '6 Consultant Pl',"," 'Durham',"," 'NC',"," '27707',"," 'US',"," '153-DU',"," '919.536.5250',","branch","35.9606231638645","-78.9576349246699","Sun:  'Closed',Mon:  '8:30 AM - 5:00 PM',Tue:  '8:30 AM - 5:00 PM',Wed:  '8:30 AM - 5:00 PM',Thur:  '8:30 AM - 5:00 PM',Fri:  '8:30 AM - 5:00 PM',Sat:  'Closed',"
"https://banks.amerisbank.com/nc/hickory/153-HI/"," 'Hickory Mortgage Only Ameris Bank Location',"," '14 3rd Ave NE',"," 'Hickory',"," 'NC',"," '28601',"," 'US',"," '153-HI',"," '828.639.6200',","branch","35.73557","-81.3376648","Sun:  'Closed',Mon:  '8:30 AM - 5:00 PM',Tue:  '8:30 AM - 5:00 PM',Wed:  '8:30 AM - 5:00 PM',Thur:  '8:30 AM - 5:00 PM',Fri:  '8:30 AM - 5:00 PM',Sat:  'Closed',"
"https://banks.amerisbank.com/nc/raleigh/153-RA/"," 'Raleigh Mortgage Only Ameris Bank Location',"," '4140 Parklake Ave',"," 'Raleigh',"," 'NC',"," '27612',"," 'US',"," '153-RA',"," '919.334.0606',","branch","35.8341962453082","-78.6886445565875","Sun:  'Closed',Mon:  '8:30 AM - 5:00 PM',Tue:  '8:30 AM - 5:00 PM',Wed:  '8:30 AM - 5:00 PM',Thur:  '8:30 AM - 5:00 PM',Fri:  '8:30 AM - 5:00 PM',Sat:  'Closed',"
"https://banks.amerisbank.com/sc/beaufort/950/"," 'Beaufort Boundary Street Ameris Bank Location',"," '2348 Boundary Street',"," 'Beaufort',"," 'SC',"," '29902',"," 'US',"," '950',"," '843.521.1968',","branch","32.4409525","-80.7027225","Sun:  'Closed',Mon:  '9:00 AM - 5:00 PM',Tue:  '9:00 AM - 5:00 PM',Wed:  '9:00 AM - 5:00 PM',Thur:  '9:00 AM - 5:00 PM',Fri:  '9:00 AM - 5:30 PM',Sat:  'Closed',"
"https://banks.amerisbank.com/sc/charleston/971/"," 'Charleston West Ashley Ameris Bank Location',"," '834 Savannah Highway',"," 'Charleston',"," 'SC',"," '29407',"," 'US',"," '971',"," '843.573.8000',","branch","32.78220125","-79.9868475","Sun:  'Closed',Mon:  '9:00 AM - 5:00 PM',Tue:  '9:00 AM - 5:00 PM',Wed:  '9:00 AM - 5:00 PM',Thur:  '9:00 AM - 5:00 PM',Fri:  '9:00 AM - 5:00 PM',Sat:  'Closed',"
"https://banks.amerisbank.com/sc/charleston/WAAO-108EMRCS/"," 'Charleston West Ashley Drive Thru Only Ameris Bank Location',"," '108 E Magnolia Road',"," 'Charleston',"," 'SC',"," '29407',"," 'US',"," 'WAAO-108EMRCS',"," '866.616.6020',","branch","32.7833266666667","-79.98762","Sun:  'n/a',Mon:  'n/a',Tue:  'n/a',Wed:  'n/a',Thur:  'n/a',Fri:  'n/a',Sat:  'n/a',"
"https://banks.amerisbank.com/sc/columbia/900/"," 'Columbia Main Street Ameris Bank Location',"," '1333 Main Street',"," 'Columbia',"," 'SC',"," '29201',"," 'US',"," '900',"," '803.765.1600',","branch","34.0030273469388","-81.0343520408163","Sun:  'Closed',Mon:  '9:00 AM - 5:00 PM',Tue:  '9:00 AM - 5:00 PM',Wed:  '9:00 AM - 5:00 PM',Thur:  '9:00 AM - 5:00 PM',Fri:  '9:00 AM - 5:00 PM',Sat:  'Closed',"
"https://banks.amerisbank.com/sc/greenville/164-GV/"," 'Greenville Mortgage Only Ameris Bank Location',"," '3519 Pelham Rd',"," 'Greenville',"," 'SC',"," '29615',"," 'US',"," '164-GV',"," '864.720.6747',","branch","34.8606888420907","-82.2719297593236","Sun:  'Closed',Mon:  '8:30 AM - 5:00 PM',Tue:  '8:30 AM - 5:00 PM',Wed:  '8:30 AM - 5:00 PM',Thur:  '8:30 AM - 5:00 PM',Fri:  '8:30 AM - 5:00 PM',Sat:  'Closed',"
"https://banks.amerisbank.com/sc/greenville/912/"," 'Greenville N. Main Commercial and Mortgage Only Ameris Bank Location',"," '301 N Main Street',"," 'Greenville',"," 'SC',"," '29601',"," 'US',"," '912',"," '864.248.1740',","branch","34.85405","-82.39753","Sun:  'Closed',Mon:  '9:00 AM - 5:00 PM',Tue:  '9:00 AM - 5:00 PM',Wed:  '9:00 AM - 5:00 PM',Thur:  '9:00 AM - 5:00 PM',Fri:  '9:00 AM - 5:00 PM',Sat:  'Closed',"
"https://banks.amerisbank.com/sc/greenville/911/"," 'Greenville Woodruff Road Ameris Bank Location',"," '1614 Woodruff Road',"," 'Greenville',"," 'SC',"," '29607',"," 'US',"," '911',"," '864.286.5737',","branch","34.8196660588578","-82.2762560047071","Sun:  'Closed',Mon:  '9:00 AM - 5:00 PM',Tue:  '9:00 AM - 5:00 PM',Wed:  '9:00 AM - 5:00 PM',Thur:  '9:00 AM - 5:00 PM',Fri:  '9:00 AM - 5:00 PM',Sat:  'Closed',"
"https://banks.amerisbank.com/sc/greer/164-GR/"," 'Greer Mortgage Only Ameris Bank Location',"," '1000 W Poinsett Street',"," 'Greer',"," 'SC',"," '29650',"," 'US',"," '164-GR',"," '864.621.9519',","branch","34.94233","-82.24276","Sun:  'Closed',Mon:  '8:30 AM - 5:00 PM',Tue:  '8:30 AM - 5:00 PM',Wed:  '8:30 AM - 5:00 PM',Thur:  '8:30 AM - 5:00 PM',Fri:  '8:30 AM - 5:00 PM',Sat:  'Closed',"
"https://banks.amerisbank.com/sc/irmo/907/"," 'Irmo Lake Murray Blvd. Ameris Bank Location',"," '1200 Lake Murray Boulevard',"," 'Irmo',"," 'SC',"," '29063',"," 'US',"," '907',"," '803.749.5230',","branch","34.08693","-81.18109","Sun:  'Closed',Mon:  '9:00 AM - 5:00 PM',Tue:  '9:00 AM - 5:00 PM',Wed:  '9:00 AM - 5:00 PM',Thur:  '9:00 AM - 5:00 PM',Fri:  '9:00 AM - 5:00 PM',Sat:  'Closed',"
"https://banks.amerisbank.com/sc/lexington/906/"," 'Lexington West Main Street Ameris Bank Location',"," '701 West Main Street',"," 'Lexington',"," 'SC',"," '29072',"," 'US',"," '906',"," '803.808.4220',","branch","33.98491","-81.24907","Sun:  'Closed',Mon:  '9:00 AM - 5:00 PM',Tue:  '9:00 AM - 5:00 PM',Wed:  '9:00 AM - 5:00 PM',Thur:  '9:00 AM - 5:00 PM',Fri:  '9:00 AM - 5:00 PM',Sat:  'Closed',"
"https://banks.amerisbank.com/sc/mt.-pleasant/973/"," 'Mt. Pleasant Coleman Blvd. Ameris Bank Location',"," '349 Coleman Boulevard',"," 'Mt. Pleasant',"," 'SC',"," '29464',"," 'US',"," '973',"," '843.573.8010',","branch","32.7904898480737","-79.877255501898","Sun:  'Closed',Mon:  '9:00 AM - 5:00 PM',Tue:  '9:00 AM - 5:00 PM',Wed:  '9:00 AM - 5:00 PM',Thur:  '9:00 AM - 5:00 PM',Fri:  '9:00 AM - 5:00 PM',Sat:  'Closed',"
"https://banks.amerisbank.com/sc/myrtle-beach/166-MB/"," 'Myrtle Beach Oak Street Mortgage Only Ameris Bank Location',"," '2411 N. Oak Street',"," 'Myrtle Beach',"," 'SC',"," '29577',"," 'US',"," '166-MB',"," '843.443.4012',","branch","33.7070771395148","-78.8716825668539","Sun:  'Closed',Mon:  'By Appointment Only',Tue:  'By Appointment Only',Wed:  'By Appointment Only',Thur:  'By Appointment Only',Fri:  'By Appointment Only',Sat:  'By Appointment Only',"
"https://banks.amerisbank.com/sc/summerville/972/"," 'Summerville Old Trolley Road Ameris Bank Location',"," '1708 Old Trolley Road',"," 'Summerville',"," 'SC',"," '29485',"," 'US',"," '972',"," '843.875.2663',","branch","32.959493511521","-80.164801595594","Sun:  'Closed',Mon:  '9:00 AM - 5:00 PM',Tue:  '9:00 AM - 5:00 PM',Wed:  '9:00 AM - 5:00 PM',Thur:  '9:00 AM - 5:00 PM',Fri:  '9:00 AM - 5:00 PM',Sat:  'Closed',"
"https://banks.amerisbank.com/tn/franklin/166-TN/"," 'Franklin Mortgage Only Ameris Bank Location',"," '1000 Corporate Centre Dr.',"," 'Franklin',"," 'TN',"," '37067',"," 'US',"," '166-TN',"," '615.771.1671',","branch","35.9488","-86.80885","Sun:  'Closed',Mon:  'By Appointment Only',Tue:  'By Appointment Only',Wed:  'By Appointment Only',Thur:  'By Appointment Only',Fri:  'By Appointment Only',Sat:  'By Appointment Only',"
"https://banks.amerisbank.com/va/fairfax/152-FF/"," 'Fairfax Mortgage Only Ameris Bank Location',"," '12500 Fair Lakes Circle',"," 'Fairfax',"," 'VA',"," '22033',"," 'US',"," '152-FF',"," '703.466.4080',","branch","38.85925","-77.37949","Sun:  'Closed',Mon:  '8:30 AM - 5:00 PM',Tue:  '8:30 AM - 5:00 PM',Wed:  '8:30 AM - 5:00 PM',Thur:  '8:30 AM - 5:00 PM',Fri:  '8:30 AM - 5:00 PM',Sat:  'Closed',"
"https://banks.amerisbank.com/va/falls-church/152-FC/"," 'Falls Church Mortgage Only Ameris Bank Location',"," '3110 Fairview Park Dr',"," 'Falls Church',"," 'VA',"," '22042',"," 'US',"," '152-FC',"," '703.466.4050',","branch","38.86314","-77.21561","Sun:  'Closed',Mon:  '8:30 AM - 5:00 PM',Tue:  '8:30 AM - 5:00 PM',Wed:  '8:30 AM - 5:00 PM',Thur:  '8:30 AM - 5:00 PM',Fri:  '8:30 AM - 5:00 PM',Sat:  'Closed',"
"https://banks.amerisbank.com/va/fredericksburg/152-FB/"," 'Fredericksburg Mortgage Only Ameris Bank Location',"," '1440 Central Park Blvd',"," 'Fredericksburg',"," 'VA',"," '22401',"," 'US',"," '152-FB',"," '540.785.3320',","branch","38.3036089204412","-77.5120855397794","Sun:  'Closed',Mon:  '8:30 AM - 5:00 PM',Tue:  '8:30 AM - 5:00 PM',Wed:  '8:30 AM - 5:00 PM',Thur:  '8:30 AM - 5:00 PM',Fri:  '8:30 AM - 5:00 PM',Sat:  'Closed',"
"https://banks.amerisbank.com/va/gainesville/152-GN/"," 'Gainesville Mortgage Only Ameris Bank Location',"," '7500 Iron Bar Ln',"," 'Gainesville',"," 'VA',"," '20155',"," 'US',"," '152-GN',"," '703.466.4040',","branch","38.7951177185221","-77.6102151486708","Sun:  'Closed',Mon:  '8:30 AM - 5:00 PM',Tue:  '8:30 AM - 5:00 PM',Wed:  '8:30 AM - 5:00 PM',Thur:  '8:30 AM - 5:00 PM',Fri:  '8:30 AM - 5:00 PM',Sat:  'Closed',"
"https://banks.amerisbank.com/va/newport-news/152-NN/"," 'Newport News Mortgage Only Ameris Bank Location',"," '735 Thimble Shoals Blvd',"," 'Newport News',"," 'VA',"," '23606',"," 'US',"," '152-NN',"," '757.597.0430',","branch","37.08314","-76.46683","Sun:  'Closed',Mon:  '8:30 AM - 5:00 PM',Tue:  '8:30 AM - 5:00 PM',Wed:  '8:30 AM - 5:00 PM',Thur:  '8:30 AM - 5:00 PM',Fri:  '8:30 AM - 5:00 PM',Sat:  'Closed',"
"https://banks.amerisbank.com/va/richmond/152-RM/"," 'Richmond Mortgage Only Ameris Bank Location',"," '3900 Westerre Pkwy',"," 'Richmond',"," 'VA',"," '23233',"," 'US',"," '152-RM',"," '804.240.6107',","branch","37.6433475551971","-77.5779415885817","Sun:  'Closed',Mon:  '8:30 AM - 5:00 PM',Tue:  '8:30 AM - 5:00 PM',Wed:  '8:30 AM - 5:00 PM',Thur:  '8:30 AM - 5:00 PM',Fri:  '8:30 AM - 5:00 PM',Sat:  'Closed',"
"https://banks.amerisbank.com/va/sterling/152-ST/"," 'Sterling Mortgage Only Ameris Bank Location',"," '21525 Ridgetop Circle',"," 'Sterling',"," 'VA',"," '20166',"," 'US',"," '152-ST',"," '703.466.4000',","branch","39.0297750118207","-77.4067602606536","Sun:  'Closed',Mon:  '8:30 AM - 5:00 PM',Tue:  '8:30 AM - 5:00 PM',Wed:  '8:30 AM - 5:00 PM',Thur:  '8:30 AM - 5:00 PM',Fri:  '8:30 AM - 5:00 PM',Sat:  'Closed',"
