"locator_domain","page_url","location_name","street_address","city","state","zip","country_code","store_number","phone","location_type","latitude","longitude","hours_of_operation"
"rackroomshoes.com","https://www.rackroomshoes.com/store/320","MALL OF THE AMERICAS","7795 W FLAGLER ST STE 25A","MIAMI","FL","33144","United States","320","3052672420","Rack Room Shoes","25.7725278","-80.3229708","Sun 12:00 PM - 7:00 PM,Mon 10:00 AM - 9:00 PM,Tue 10:00 AM - 9:00 PM,Wed 10:00 AM - 9:00 PM,Thu 10:00 AM - 9:00 PM,Fri 10:00 AM - 9:00 PM,Sat 10:00 AM - 9:00 PM"
"rackroomshoes.com","https://www.rackroomshoes.com/store/305","COLONIAL PALMS PLAZA","13609 SOUTH DIXIE HIGHWAY","MIAMI","FL","33176","United States","305","3052569749","Rack Room Shoes","25.6434694","-80.3330171","Sun 11:00 AM - 6:00 PM,Mon 10:00 AM - 9:00 PM,Tue 10:00 AM - 9:00 PM,Wed 10:00 AM - 9:00 PM,Thu 10:00 AM - 9:00 PM,Fri 10:00 AM - 9:00 PM,Sat 10:00 AM - 9:00 PM"
"rackroomshoes.com","https://www.rackroomshoes.com/store/278","PEMBROKE CROSSING","11860 PINES BLVD BLDG E-2","PEMBROKE PINES","FL","33026","United States","278","9544332154","Rack Room Shoes","26.006179","-80.3082096","Sun 11:00 AM - 6:00 PM,Mon 10:00 AM - 9:00 PM,Tue 10:00 AM - 9:00 PM,Wed 10:00 AM - 9:00 PM,Thu 10:00 AM - 9:00 PM,Fri 10:00 AM - 9:00 PM,Sat 10:00 AM - 9:00 PM"
"rackroomshoes.com","https://www.rackroomshoes.com/store/729","WESTFIELD BROWARD MALL","8000 W BROWARD BLVD","PLANTATION","FL","33388","United States","729","9544724104","Rack Room Shoes","26.1178886","-80.2547834","Sun 11:00 AM - 6:00 PM,Mon 10:00 AM - 9:00 PM,Tue 10:00 AM - 9:00 PM,Wed 10:00 AM - 9:00 PM,Thu 10:00 AM - 9:00 PM,Fri 10:00 AM - 9:00 PM,Sat 10:00 AM - 9:00 PM"
"rackroomshoes.com","https://www.rackroomshoes.com/store/126","SAWGRASS MILLS","12801 W. SUNRISE BLVD. SUITE 293","SUNRISE","FL","33323","United States","126","9548469253","Rack Room Shoes","26.1493412","-80.3242048","Sun 11:00 AM - 8:00 PM,Mon 10:00 AM - 9:30 PM,Tue 10:00 AM - 9:30 PM,Wed 10:00 AM - 9:30 PM,Thu 10:00 AM - 9:30 PM,Fri 10:00 AM - 9:30 PM,Sat 10:00 AM - 9:30 PM"
"rackroomshoes.com","https://www.rackroomshoes.com/store/3025","SAWGRASS MILLS","2604 SAWGRASS MILLS CIRCLE STE 1115","SUNRISE","FL","33323","United States","3025","9548388428","Off Broadway Shoe Warehouse","26.1534952","-80.321093","Sun 11:00 AM - 8:00 PM,Mon 10:00 AM - 10:00 PM,Tue 10:00 AM - 10:00 PM,Wed 10:00 AM - 10:00 PM,Thu 10:00 AM - 10:00 PM,Fri 10:00 AM - 10:00 PM,Sat 10:00 AM - 10:00 PM"
"rackroomshoes.com","https://www.rackroomshoes.com/store/608","HOMESTEAD PAVILION","2465 NE 10 COURT","HOMESTEAD","FL","33033","United States","608","3052457724","Rack Room Shoes","25.4803312","-80.4428655","Sun 11:00 AM - 6:00 PM,Mon 10:00 AM - 9:00 PM,Tue 10:00 AM - 9:00 PM,Wed 10:00 AM - 9:00 PM,Thu 10:00 AM - 9:00 PM,Fri 10:00 AM - 9:00 PM,Sat 10:00 AM - 9:00 PM"
"rackroomshoes.com","https://www.rackroomshoes.com/store/372","LAKEWOOD SHOPPING CENTER","5317 W ATLANTIC BLVD","MARGATE","FL","33063","United States","372","9549175856","Rack Room Shoes","26.2366757","-80.1983816","Sun 12:00 PM - 6:00 PM,Mon 10:00 AM - 9:00 PM,Tue 10:00 AM - 9:00 PM,Wed 10:00 AM - 9:00 PM,Thu 10:00 AM - 9:00 PM,Fri 10:00 AM - 9:00 PM,Sat 10:00 AM - 9:00 PM"
"rackroomshoes.com","https://www.rackroomshoes.com/store/182","FLORIDA KEYS OUTLET MARKETPLACE","250 EAST PALM DR. SUITE 415","FLORIDA CITY","FL","33034","United States","182","3052452446","Rack Room Shoes","25.4523831","-80.472412","Sun 11:00 AM - 6:00 PM,Mon 10:00 AM - 7:00 PM,Tue 10:00 AM - 7:00 PM,Wed 10:00 AM - 7:00 PM,Thu 10:00 AM - 7:00 PM,Fri 10:00 AM - 9:00 PM,Sat 10:00 AM - 9:00 PM"
"rackroomshoes.com","https://www.rackroomshoes.com/store/467","POMPANO CITI CENTRE","2201 N. FEDERAL HWY STE. C-102","POMPANO BEACH","FL","33062","United States","467","9549464906","Rack Room Shoes","26.2572289","-80.1023826","Sun 12:00 PM - 6:00 PM,Mon 10:00 AM - 9:00 PM,Tue 10:00 AM - 9:00 PM,Wed 10:00 AM - 9:00 PM,Thu 10:00 AM - 9:00 PM,Fri 10:00 AM - 9:00 PM,Sat 10:00 AM - 9:00 PM"
"rackroomshoes.com","https://www.rackroomshoes.com/store/130","THE PLAZA AT DELRAY","1678 S FEDERAL HWY","DELRAY BEACH","FL","33483","United States","130","5612788810","Rack Room Shoes","26.441036","-80.0725462","Sun 11:00 AM - 6:00 PM,Mon 10:00 AM - 9:30 PM,Tue 10:00 AM - 9:30 PM,Wed 10:00 AM - 9:30 PM,Thu 10:00 AM - 9:30 PM,Fri 10:00 AM - 9:30 PM,Sat 10:00 AM - 9:30 PM"
"rackroomshoes.com","https://www.rackroomshoes.com/store/303","BOYNTON BEACH MALL","801 N. CONGRESS AVE. ROOM141","BOYNTON BEACH","FL","33426","United States","303","5617389986","Rack Room Shoes","26.5338046","-80.0959833","Sun 12:00 PM - 6:00 PM,Mon 10:00 AM - 9:00 PM,Tue 10:00 AM - 9:00 PM,Wed 10:00 AM - 9:00 PM,Thu 10:00 AM - 9:00 PM,Fri 10:00 AM - 9:00 PM,Sat 10:00 AM - 9:00 PM"
"rackroomshoes.com","https://www.rackroomshoes.com/store/3072","SHOPPES @ ISLA VERDE","980 S STATE ROAD 7","WELLINGTON","FL","33414","United States","3072","5614222133","Off Broadway Shoe Warehouse","26.6671874","-80.2027159","Sun 11:00 AM - 7:00 PM,Mon 10:00 AM - 9:00 PM,Tue 10:00 AM - 9:00 PM,Wed 10:00 AM - 9:00 PM,Thu 10:00 AM - 9:00 PM,Fri 10:00 AM - 9:00 PM,Sat 10:00 AM - 9:00 PM"
"rackroomshoes.com","https://www.rackroomshoes.com/store/641","PALM BEACH FASHION OUTLETS","1721 PALM BEACH LAKES BLVD STE E405","WEST PALM BEACH","FL","33401","United States","641","5616879371","Rack Room Shoes","26.7254283","-80.0855309","Sun 12:00 PM - 7:00 PM,Mon 10:00 AM - 9:00 PM,Tue 10:00 AM - 9:00 PM,Wed 10:00 AM - 9:00 PM,Thu 10:00 AM - 9:00 PM,Fri 10:00 AM - 9:00 PM,Sat 10:00 AM - 9:00 PM"
"rackroomshoes.com","https://www.rackroomshoes.com/store/148","STUART CENTRE","2399 SE FEDERAL HWY","STUART","FL","34994","United States","148","7722881778","Rack Room Shoes","27.1759752","-80.2339826","Sun 11:00 AM - 6:00 PM,Mon 10:00 AM - 9:00 PM,Tue 10:00 AM - 9:00 PM,Wed 10:00 AM - 9:00 PM,Thu 10:00 AM - 9:00 PM,Fri 10:00 AM - 9:00 PM,Sat 10:00 AM - 9:00 PM"
"rackroomshoes.com","https://www.rackroomshoes.com/store/259","TREASURE COAST SQUARE","3336 NW FEDERAL HWY.","JENSEN BEACH","FL","34957","United States","259","7726920227","Rack Room Shoes","27.2421615","-80.2743317","Sun 12:00 PM - 6:00 PM,Mon 11:00 AM - 7:00 PM,Tue 11:00 AM - 7:00 PM,Wed 11:00 AM - 7:00 PM,Thu 11:00 AM - 7:00 PM,Fri 10:00 AM - 8:00 PM,Sat 10:00 AM - 8:00 PM"
"rackroomshoes.com","https://www.rackroomshoes.com/store/249","COASTLAND CENTER MALL","1886 TAMIAMI TRL N","NAPLES","FL","34102","United States","249","2394030441","Rack Room Shoes","26.1699803","-81.7937814","Sun 12:00 PM - 6:00 PM,Mon 10:00 AM - 9:00 PM,Tue 10:00 AM - 9:00 PM,Wed 10:00 AM - 9:00 PM,Thu 10:00 AM - 9:00 PM,Fri 10:00 AM - 9:00 PM,Sat 10:00 AM - 9:00 PM"
"rackroomshoes.com","https://www.rackroomshoes.com/store/377","MIROMAR OUTLETS","10801 CORKSCREW ROAD UNIT 364","ESTERO","FL","33928","United States","377","2394984566","Rack Room Shoes","26.4352948","-81.774857","Sun 11:00 AM - 6:00 PM,Mon 10:00 AM - 9:00 PM,Tue 10:00 AM - 9:00 PM,Wed 10:00 AM - 9:00 PM,Thu 10:00 AM - 9:00 PM,Fri 10:00 AM - 9:00 PM,Sat 10:00 AM - 9:00 PM"
"rackroomshoes.com","https://www.rackroomshoes.com/store/427","GULF COAST TOWN CENTER","9918 GULF COAST MAIN ST SPC B-110","FORT MYERS","FL","33913","United States","427","2392675819","Rack Room Shoes","26.486929","-81.787419","Sun 11:00 AM - 6:00 PM,Mon 10:00 AM - 9:00 PM,Tue 10:00 AM - 9:00 PM,Wed 10:00 AM - 9:00 PM,Thu 10:00 AM - 9:00 PM,Fri 10:00 AM - 9:00 PM,Sat 10:00 AM - 9:00 PM"
"rackroomshoes.com","https://www.rackroomshoes.com/store/549","THE FORUM AT FT. MYERS","3242 FORUM BLVD. SUITE 405","FORT MYERS","FL","33905","United States","549","2392756493","Rack Room Shoes","26.6171195","-81.7986243","Sun 11:00 AM - 6:00 PM,Mon 10:00 AM - 9:00 PM,Tue 10:00 AM - 9:00 PM,Wed 10:00 AM - 9:00 PM,Thu 10:00 AM - 9:00 PM,Fri 10:00 AM - 9:00 PM,Sat 10:00 AM - 9:00 PM"
"rackroomshoes.com","https://www.rackroomshoes.com/store/328","EDISON MALL","4125 CLEVELAND AVE UNIT #1603","FORT MYERS","FL","33901","United States","328","2399391377","Rack Room Shoes","26.60092005","-81.86862042","Sun 11:30 AM - 5:30 PM,Mon 10:00 AM - 9:00 PM,Tue 10:00 AM - 9:00 PM,Wed 10:00 AM - 9:00 PM,Thu 10:00 AM - 9:00 PM,Fri 10:00 AM - 9:00 PM,Sat 10:00 AM - 9:00 PM"
"rackroomshoes.com","https://www.rackroomshoes.com/store/142","SANIBEL FACTORY STORES","20350 SUMMERLIN RD STE 5125","FORT MYERS","FL","33908","United States","142","2394665444","Rack Room Shoes","26.4949137","-81.9721039","Sun 10:00 AM - 6:00 PM,Mon 10:00 AM - 9:00 PM,Tue 10:00 AM - 9:00 PM,Wed 10:00 AM - 9:00 PM,Thu 10:00 AM - 9:00 PM,Fri 10:00 AM - 9:00 PM,Sat 10:00 AM - 9:00 PM"
"rackroomshoes.com","https://www.rackroomshoes.com/store/737","VERO BEACH OUTLETS","1697 94TH DR SP F120","VERO BEACH","FL","32966","United States","737","7725626698","Rack Room Shoes","27.6392589","-80.5229452","Sun 11:00 AM - 6:00 PM,Mon 11:00 AM - 7:00 PM,Tue 11:00 AM - 7:00 PM,Wed 11:00 AM - 7:00 PM,Thu 11:00 AM - 7:00 PM,Fri 11:00 AM - 7:00 PM,Sat 11:00 AM - 7:00 PM"
"rackroomshoes.com","https://www.rackroomshoes.com/store/146","LAKESHORE MALL","901 US HIGHWAY 27 N STE 32","SEBRING","FL","33870","United States","146","8633822731","Rack Room Shoes","27.4904285","-81.4874206","Sun 12:00 PM - 6:00 PM,Mon 10:00 AM - 9:00 PM,Tue 10:00 AM - 9:00 PM,Wed 10:00 AM - 9:00 PM,Thu 10:00 AM - 9:00 PM,Fri 10:00 AM - 9:00 PM,Sat 10:00 AM - 9:00 PM"
"rackroomshoes.com","https://www.rackroomshoes.com/store/248","PORT CHARLOTTE TOWN CENTER","1441 TAMIAMI TRAIL SUITE 555","PORT CHARLOTTE","FL","33948","United States","248","9412551113","Rack Room Shoes","27.009081","-82.1470547","Sun 12:00 PM - 6:00 PM,Mon 10:00 AM - 9:00 PM,Tue 10:00 AM - 9:00 PM,Wed 10:00 AM - 9:00 PM,Thu 10:00 AM - 9:00 PM,Fri 10:00 AM - 9:00 PM,Sat 10:00 AM - 9:00 PM"
"rackroomshoes.com","https://www.rackroomshoes.com/store/233","MELBOURNE SQUARE SHOPPING CTR","1700 W NEW HAVEN AVE STE 729","MELBOURNE","FL","32904","United States","233","3217268773","Rack Room Shoes","28.081342","-80.6498598","Sun 12:00 PM - 6:00 PM,Mon 10:00 AM - 9:00 PM,Tue 10:00 AM - 9:00 PM,Wed 10:00 AM - 9:00 PM,Thu 10:00 AM - 9:00 PM,Fri 10:00 AM - 9:00 PM,Sat 10:00 AM - 9:00 PM"
"rackroomshoes.com","https://www.rackroomshoes.com/store/255","EAGLE  RIDGE MALL","739 EAGLE RIDGE DR STE 314","LAKE WALES","FL","33859","United States","255","8636760766","Rack Room Shoes","27.955028","-81.614731","Sun 12:00 PM - 6:00 PM,Mon 10:00 AM - 9:00 PM,Tue 10:00 AM - 9:00 PM,Wed 10:00 AM - 9:00 PM,Thu 10:00 AM - 9:00 PM,Fri 10:00 AM - 9:00 PM,Sat 10:00 AM - 9:00 PM"
"rackroomshoes.com","https://www.rackroomshoes.com/store/211","WESTFIELD SARASOTA SQUARE","8201 S TAMIAMI TRL UNIT 38","SARASOTA","FL","34238","United States","211","9419257746","Rack Room Shoes","27.234462","-82.4949876","Sun 12:00 PM - 6:00 PM,Mon 10:00 AM - 9:00 PM,Tue 10:00 AM - 9:00 PM,Wed 10:00 AM - 9:00 PM,Thu 10:00 AM - 9:00 PM,Fri 10:00 AM - 9:00 PM,Sat 10:00 AM - 9:00 PM"
"rackroomshoes.com","https://www.rackroomshoes.com/store/313","MERRITT SQUARE","777 E MERRITT IS. CAUSEWAY SP H3","MERRITT ISLAND","FL","32952","United States","313","3214565905","Rack Room Shoes","28.3544444","-80.6866667","Sun 11:00 AM - 6:00 PM,Mon 10:00 AM - 9:00 PM,Tue 10:00 AM - 9:00 PM,Wed 10:00 AM - 9:00 PM,Thu 10:00 AM - 9:00 PM,Fri 10:00 AM - 9:00 PM,Sat 10:00 AM - 9:00 PM"
"rackroomshoes.com","https://www.rackroomshoes.com/store/68","SHOPPES AT UNIVERSITY CENTER","8473 COOPER CREEK RD","UNIVERSITY PARK","FL","34201","United States","68","9413592847","Rack Room Shoes","27.3914243","-82.4535269","Sun 11:00 AM - 6:00 PM,Mon 10:00 AM - 9:00 PM,Tue 10:00 AM - 9:00 PM,Wed 10:00 AM - 9:00 PM,Thu 10:00 AM - 9:00 PM,Fri 10:00 AM - 9:00 PM,Sat 10:00 AM - 9:00 PM"
"rackroomshoes.com","https://www.rackroomshoes.com/store/59","MERCHANTS WALK","3615 S FLORIDA AVE STE 840","LAKELAND","FL","33803","United States","59","8636473892","Rack Room Shoes","27.9996281","-81.9597463","Sun 12:00 PM - 6:00 PM,Mon 10:00 AM - 9:00 PM,Tue 10:00 AM - 9:00 PM,Wed 10:00 AM - 9:00 PM,Thu 10:00 AM - 9:00 PM,Fri 10:00 AM - 9:00 PM,Sat 10:00 AM - 9:00 PM"
"rackroomshoes.com","https://www.rackroomshoes.com/store/138","ELLENTON PREMIUM OUTLETS","5443 FACTORY SHOPS BLVD STE 220","ELLENTON","FL","34222","United States","138","9417232225","Rack Room Shoes","27.5344191","-82.5078861","Sun 10:00 AM - 7:00 PM,Mon 10:00 AM - 9:00 PM,Tue 10:00 AM - 9:00 PM,Wed 10:00 AM - 9:00 PM,Thu 10:00 AM - 9:00 PM,Fri 10:00 AM - 9:00 PM,Sat 10:00 AM - 9:00 PM"
"rackroomshoes.com","https://www.rackroomshoes.com/store/777","POSNER VILLAGE","1231 POSNER BLVD","DAVENPORT","FL","33837","United States","777","8636047442","Rack Room Shoes","28.2253272","-81.6446968","Sun 11:00 AM - 6:00 PM,Mon 10:00 AM - 9:00 PM,Tue 10:00 AM - 9:00 PM,Wed 10:00 AM - 9:00 PM,Thu 10:00 AM - 9:00 PM,Fri 10:00 AM - 9:00 PM,Sat 10:00 AM - 9:00 PM"
"rackroomshoes.com","https://www.rackroomshoes.com/store/189","BETWEEN MARKERS 13 AND 14","4677 W IRLO BRONSON MEMORIAL HWY","KISSIMMEE","FL","34746","United States","189","4073977682","Rack Room Shoes","28.3190992","-81.4695221","Sun 10:00 AM - 8:00 PM,Mon 9:00 AM - 9:00 PM,Tue 9:00 AM - 9:00 PM,Wed 9:00 AM - 9:00 PM,Thu 9:00 AM - 9:00 PM,Fri 9:00 AM - 9:00 PM,Sat 9:00 AM - 9:00 PM"
"rackroomshoes.com","https://www.rackroomshoes.com/store/420","LAKE BUENA VISTA","15649 STATE ROAD 535","ORLANDO","FL","32821","United States","420","4072381214","Rack Room Shoes","28.3496861","-81.4857952","Sun 10:00 AM - 7:00 PM,Mon 10:00 AM - 9:00 PM,Tue 10:00 AM - 9:00 PM,Wed 10:00 AM - 9:00 PM,Thu 10:00 AM - 9:00 PM,Fri 10:00 AM - 9:00 PM,Sat 10:00 AM - 9:00 PM"
"rackroomshoes.com","https://www.rackroomshoes.com/store/72","LAKELAND SQUARE MALL","3800 US HWY 98 NORTH STE 541","LAKELAND","FL","33809","United States","72","8638597088","Rack Room Shoes","28.0924418","-81.977728","Sun 12:00 PM - 6:00 PM,Mon 10:00 AM - 9:00 PM,Tue 10:00 AM - 9:00 PM,Wed 10:00 AM - 9:00 PM,Thu 10:00 AM - 9:00 PM,Fri 10:00 AM - 9:00 PM,Sat 10:00 AM - 9:00 PM"
"rackroomshoes.com","https://www.rackroomshoes.com/store/758","TITUS LANDING","2530 S WASHINGTON AVE STE 102","TITUSVILLE","FL","32780","United States","758","3212691733","Rack Room Shoes","28.5859793","-80.8030489","Sun 11:00 AM - 6:00 PM,Mon 10:00 AM - 9:00 PM,Tue 10:00 AM - 9:00 PM,Wed 10:00 AM - 9:00 PM,Thu 10:00 AM - 9:00 PM,Fri 10:00 AM - 9:00 PM,Sat 10:00 AM - 9:00 PM"
"rackroomshoes.com","https://www.rackroomshoes.com/store/558","ORLANDO VINELAND PREMIUM OUTLETS","8158 VINELAND AVE SUITE 1699B","ORLANDO","FL","32821","United States","558","4072390044","Rack Room Shoes","28.3878931","-81.4902659","Sun 10:00 AM - 11:00 PM,Mon 10:00 AM - 11:00 PM,Tue 10:00 AM - 11:00 PM,Wed 10:00 AM - 11:00 PM,Thu 10:00 AM - 11:00 PM,Fri 10:00 AM - 11:00 PM,Sat 10:00 AM - 11:00 PM"
"rackroomshoes.com","https://www.rackroomshoes.com/store/187","WESTFIELD BRANDON","314 BRANDON TOWN CENTER MALL","BRANDON","FL","33511","United States","187","8136532260","Rack Room Shoes","27.9352265","-82.3280939","Sun 11:00 AM - 6:00 PM,Mon 10:00 AM - 9:00 PM,Tue 10:00 AM - 9:00 PM,Wed 10:00 AM - 9:00 PM,Thu 10:00 AM - 9:00 PM,Fri 10:00 AM - 9:00 PM,Sat 10:00 AM - 9:00 PM"
"rackroomshoes.com","https://www.rackroomshoes.com/store/388","WATERFORD LAKES TOWN CENTER","671 ALAFAYA TRAIL","ORLANDO","FL","32828","United States","388","4072819324","Rack Room Shoes","28.554778","-81.2033683","Sun 11:00 AM - 6:00 PM,Mon 10:00 AM - 9:30 PM,Tue 10:00 AM - 9:30 PM,Wed 10:00 AM - 9:30 PM,Thu 10:00 AM - 9:30 PM,Fri 10:00 AM - 9:30 PM,Sat 10:00 AM - 9:30 PM"
"rackroomshoes.com","https://www.rackroomshoes.com/store/580","ORLANDO PREMIUM OUTLETS - INTL","4967 INTERNATIONAL DR STE 3A-13","ORLANDO","FL","32819","United States","580","4072642852","Rack Room Shoes","28.4749571","-81.4525965","Sun 10:00 AM - 11:00 PM,Mon 10:00 AM - 11:00 PM,Tue 10:00 AM - 11:00 PM,Wed 10:00 AM - 11:00 PM,Thu 10:00 AM - 11:00 PM,Fri 10:00 AM - 11:00 PM,Sat 10:00 AM - 11:00 PM"
"rackroomshoes.com","https://www.rackroomshoes.com/store/747","WESTSHORE PLAZA","129 WESTSHORE PLAZA","TAMPA","FL","33609","United States","747","8132829089","Rack Room Shoes","27.9469308","-82.5275193","Sun 12:00 PM - 6:00 PM,Mon 10:00 AM - 9:00 PM,Tue 10:00 AM - 9:00 PM,Wed 10:00 AM - 9:00 PM,Thu 10:00 AM - 9:00 PM,Fri 10:00 AM - 9:00 PM,Sat 10:00 AM - 9:00 PM"
"rackroomshoes.com","https://www.rackroomshoes.com/store/215","UNIVERSITY MALL","12257 UNIVERSITY MALL CT","TAMPA","FL","33612","United States","215","8139721110","Rack Room Shoes","28.0584409","-82.4343143","Sun 12:00 PM - 6:00 PM,Mon 10:00 AM - 8:30 PM,Tue 10:00 AM - 8:30 PM,Wed 10:00 AM - 8:30 PM,Thu 10:00 AM - 8:30 PM,Fri 10:00 AM - 9:00 PM,Sat 10:00 AM - 9:00 PM"
"rackroomshoes.com","https://www.rackroomshoes.com/store/236","TYRONE SQUARE SHOPPING CENTER","6714 TYRONE SQUARE  SUITE 288","SAINT PETERSBURG","FL","33710","United States","236","7273448550","Rack Room Shoes","27.7927898","-82.7316492","Sun 11:00 AM - 7:00 PM,Mon 10:00 AM - 9:00 PM,Tue 10:00 AM - 9:00 PM,Wed 10:00 AM - 9:00 PM,Thu 10:00 AM - 9:00 PM,Fri 10:00 AM - 9:00 PM,Sat 10:00 AM - 9:00 PM"
"rackroomshoes.com","https://www.rackroomshoes.com/store/562","THE SHOPS AT WIREGRASS","28347 PASEO DR #120","WESLEY CHAPEL","FL","33543","United States","562","8139944386","Rack Room Shoes","28.18903133","-82.34900596","Sun 12:00 PM - 6:00 PM,Mon 10:00 AM - 9:00 PM,Tue 10:00 AM - 9:00 PM,Wed 10:00 AM - 9:00 PM,Thu 10:00 AM - 9:00 PM,Fri 10:00 AM - 9:00 PM,Sat 10:00 AM - 9:00 PM"
"rackroomshoes.com","https://www.rackroomshoes.com/store/665","TAMPA PREMIUM OUTLETS","2224 GRAND CYPRESS DR STE 715","LUTZ","FL","33559","United States","665","8137780374","Rack Room Shoes","28.1903508","-82.3910856","Sun 10:00 AM - 7:00 PM,Mon 10:00 AM - 9:00 PM,Tue 10:00 AM - 9:00 PM,Wed 10:00 AM - 9:00 PM,Thu 10:00 AM - 9:00 PM,Fri 10:00 AM - 9:00 PM,Sat 10:00 AM - 9:00 PM"
"rackroomshoes.com","https://www.rackroomshoes.com/store/749","SEMINOLE CITY CENTER","7943 113TH ST N","SEMINOLE","FL","33772","United States","749","7273190018","Rack Room Shoes","27.8448454","-82.7927664","Sun 12:00 PM - 6:00 PM,Mon 10:00 AM - 9:00 PM,Tue 10:00 AM - 9:00 PM,Wed 10:00 AM - 9:00 PM,Thu 10:00 AM - 9:00 PM,Fri 10:00 AM - 9:00 PM,Sat 10:00 AM - 9:00 PM"
"rackroomshoes.com","https://www.rackroomshoes.com/store/324","WESTFIELD CITRUS PARK","7803 CITRUS PARK TWN CTR MALL SP650","TAMPA","FL","33625","United States","324","8139201591","Rack Room Shoes","28.0687278","-82.5741425","Sun 12:00 PM - 6:00 PM,Mon 10:00 AM - 9:00 PM,Tue 10:00 AM - 9:00 PM,Wed 10:00 AM - 9:00 PM,Thu 10:00 AM - 9:00 PM,Fri 10:00 AM - 9:00 PM,Sat 10:00 AM - 9:00 PM"
"rackroomshoes.com","https://www.rackroomshoes.com/store/84","LARGO MALL","10500 ULMERTON RD STE 626","LARGO","FL","33771","United States","84","7275856603","Rack Room Shoes","27.8916219","-82.7830594","Sun 11:00 AM - 6:00 PM,Mon 10:00 AM - 9:00 PM,Tue 10:00 AM - 9:00 PM,Wed 10:00 AM - 9:00 PM,Thu 10:00 AM - 9:00 PM,Fri 10:00 AM - 9:00 PM,Sat 10:00 AM - 9:00 PM"
"rackroomshoes.com","https://www.rackroomshoes.com/store/254","SEMINOLE TOWNE CENTER","104 TOWNE CENTER CIRCLE","SANFORD","FL","32771","United States","254","4073237411","Rack Room Shoes","28.8036122","-81.3387911","Sun 12:00 PM - 6:00 PM,Mon 10:00 AM - 9:00 PM,Tue 10:00 AM - 9:00 PM,Wed 10:00 AM - 9:00 PM,Thu 10:00 AM - 9:00 PM,Fri 10:00 AM - 9:00 PM,Sat 10:00 AM - 9:00 PM"
"rackroomshoes.com","https://www.rackroomshoes.com/store/230","WESTFIELD  COUNTRYSIDE MALL","27001 US HWY 19 N STE 2001","CLEARWATER","FL","33761","United States","230","7277249780","Rack Room Shoes","28.0173569","-82.7350092","Sun 12:00 PM - 6:00 PM,Mon 10:00 AM - 9:00 PM,Tue 10:00 AM - 9:00 PM,Wed 10:00 AM - 9:00 PM,Thu 10:00 AM - 9:00 PM,Fri 10:00 AM - 9:00 PM,Sat 10:00 AM - 9:00 PM"
"rackroomshoes.com","https://www.rackroomshoes.com/store/565","PAVILION AT PORT ORANGE","5517 S WILLIAMSON BLVD STE 300","PORT ORANGE","FL","32128","United States","565","3867606440","Rack Room Shoes","29.1118687","-81.0337581","Sun 12:00 PM - 6:00 PM,Mon 10:00 AM - 9:00 PM,Tue 10:00 AM - 9:00 PM,Wed 10:00 AM - 9:00 PM,Thu 10:00 AM - 9:00 PM,Fri 10:00 AM - 9:00 PM,Sat 10:00 AM - 9:00 PM"
"rackroomshoes.com","https://www.rackroomshoes.com/store/279","VOLUSIA MALL","1700 W INTERNATIONAL SPEEDWAY BLVD","DAYTONA BEACH","FL","32114","United States","279","3862523338","Rack Room Shoes","29.196993","-81.0628091","Sun 12:00 PM - 6:00 PM,Mon 10:00 AM - 9:00 PM,Tue 10:00 AM - 9:00 PM,Wed 10:00 AM - 9:00 PM,Thu 10:00 AM - 9:00 PM,Fri 10:00 AM - 9:00 PM,Sat 10:00 AM - 9:00 PM"
"rackroomshoes.com","https://www.rackroomshoes.com/store/705","TANGER OUTLET CENTER - DAYTONA","1100 CORNERSTONE BLVD. SUITE 220","DAYTONA BEACH","FL","32117","United States","705","3862741468","Rack Room Shoes","29.2125871","-81.0991539","Sun 11:00 AM - 8:00 PM,Mon 11:00 AM - 8:00 PM,Tue 11:00 AM - 8:00 PM,Wed 11:00 AM - 8:00 PM,Thu 11:00 AM - 8:00 PM,Fri 10:00 AM - 9:00 PM,Sat 10:00 AM - 9:00 PM"
"rackroomshoes.com","https://www.rackroomshoes.com/store/268","PADDOCK MALL","3100 COLLEGE ROAD ROOM 112","OCALA","FL","34474","United States","268","3528610380","Rack Room Shoes","29.1590819","-82.1730628","Sun 12:00 PM - 5:30 PM,Mon 10:00 AM - 9:00 PM,Tue 10:00 AM - 9:00 PM,Wed 10:00 AM - 9:00 PM,Thu 10:00 AM - 9:00 PM,Fri 10:00 AM - 9:00 PM,Sat 10:00 AM - 9:00 PM"
"rackroomshoes.com","https://www.rackroomshoes.com/store/609","ST. AUGUSTINE PREMIUM OUTLETS","2700 STATE ROAD 16 STE 415","SAINT AUGUSTINE","FL","32092","United States","609","9048298752","Rack Room Shoes","29.9256988","-81.4189484","Sun 12:00 PM - 6:00 PM,Mon 11:00 AM - 7:00 PM,Tue 11:00 AM - 7:00 PM,Wed 11:00 AM - 7:00 PM,Thu 11:00 AM - 7:00 PM,Fri 10:00 AM - 8:00 PM,Sat 10:00 AM - 8:00 PM"
"rackroomshoes.com","https://www.rackroomshoes.com/store/185","BUTLER PLAZA WEST","3958 S W ARCHER  ROAD","GAINESVILLE","FL","32608","United States","185","3523774813","Rack Room Shoes","29.6214867","-82.3833807","Sun 12:00 PM - 6:00 PM,Mon 10:00 AM - 9:00 PM,Tue 10:00 AM - 9:00 PM,Wed 10:00 AM - 9:00 PM,Thu 10:00 AM - 9:00 PM,Fri 10:00 AM - 9:00 PM,Sat 10:00 AM - 9:00 PM"
"rackroomshoes.com","https://www.rackroomshoes.com/store/210","THE AVENUES","10300 SOUTHSIDE BLVD. RM 2030","JACKSONVILLE","FL","32256","United States","210","9044640426","Rack Room Shoes","30.1832611","-81.5540294","Sun 12:00 PM - 6:00 PM,Mon 11:00 AM - 7:00 PM,Tue 11:00 AM - 7:00 PM,Wed 11:00 AM - 7:00 PM,Thu 11:00 AM - 7:00 PM,Fri 10:00 AM - 8:00 PM,Sat 10:00 AM - 8:00 PM"
"rackroomshoes.com","https://www.rackroomshoes.com/store/454","RIVER PLACE S/C","11111 SAN JOSE BLVD STE 27","JACKSONVILLE","FL","32223","United States","454","9042687442","Rack Room Shoes","30.1732443","-81.6256209","Sun 11:00 AM - 6:00 PM,Mon 10:00 AM - 9:00 PM,Tue 10:00 AM - 9:00 PM,Wed 10:00 AM - 9:00 PM,Thu 10:00 AM - 9:00 PM,Fri 10:00 AM - 9:00 PM,Sat 10:00 AM - 9:00 PM"
"rackroomshoes.com","https://www.rackroomshoes.com/store/153","SOUTH BEACH PARKWAY SHOPPING CTR.","602 MARSH LANDING PKWY","JACKSONVILLE BEACH","FL","32250","United States","153","9042856006","Rack Room Shoes","30.2536513","-81.3914783","Sun 11:00 AM - 6:00 PM,Mon 10:00 AM - 9:00 PM,Tue 10:00 AM - 9:00 PM,Wed 10:00 AM - 9:00 PM,Thu 10:00 AM - 9:00 PM,Fri 10:00 AM - 9:00 PM,Sat 10:00 AM - 9:00 PM"
"rackroomshoes.com","https://www.rackroomshoes.com/store/284","ORANGE PARK MALL","1910 WELLS ROAD SP J-05","ORANGE PARK","FL","32073","United States","284","9042645005","Rack Room Shoes","30.1831879","-81.7387891","Sun 12:00 PM - 6:00 PM,Mon 10:00 AM - 9:00 PM,Tue 10:00 AM - 9:00 PM,Wed 10:00 AM - 9:00 PM,Thu 10:00 AM - 9:00 PM,Fri 10:00 AM - 9:00 PM,Sat 10:00 AM - 9:00 PM"
"rackroomshoes.com","https://www.rackroomshoes.com/store/462","RIVER CITY MARKETPLACE","13221 CITY STATION DR STE 121","JACKSONVILLE","FL","32218","United States","462","9047144184","Rack Room Shoes","30.4779001","-81.6419511","Sun 11:00 AM - 6:00 PM,Mon 10:00 AM - 9:00 PM,Tue 10:00 AM - 9:00 PM,Wed 10:00 AM - 9:00 PM,Thu 10:00 AM - 9:00 PM,Fri 10:00 AM - 9:00 PM,Sat 10:00 AM - 9:00 PM"
"rackroomshoes.com","https://www.rackroomshoes.com/store/782","VILLAGES OF AMELIA","436923 STATE ROAD 200","YULEE","FL","32097","United States","782","9042770747","Rack Room Shoes","30.6266756","-81.5419345","Sun 11:00 AM - 6:00 PM,Mon 10:00 AM - 9:00 PM,Tue 10:00 AM - 9:00 PM,Wed 10:00 AM - 9:00 PM,Thu 10:00 AM - 9:00 PM,Fri 10:00 AM - 9:00 PM,Sat 10:00 AM - 9:00 PM"
"rackroomshoes.com","https://www.rackroomshoes.com/store/437","GOLDEN ISLES PLAZA","145 GOLDEN ISLES PLAZA","BRUNSWICK","GA","31520","United States","437","9124660780","Rack Room Shoes","31.2140533","-81.4926413","Sun 12:00 PM - 6:00 PM,Mon 10:00 AM - 9:00 PM,Tue 10:00 AM - 9:00 PM,Wed 10:00 AM - 9:00 PM,Thu 10:00 AM - 9:00 PM,Fri 10:00 AM - 9:00 PM,Sat 10:00 AM - 9:00 PM"
"rackroomshoes.com","https://www.rackroomshoes.com/store/825","LAKE PARK OUTLETS","5145 MILL STORE RD","LAKE PARK","GA","31636","United States","825","2295599409","Rack Room Shoes","30.6791289","-83.2196046","Sun 11:00 AM - 6:00 PM,Mon 9:00 AM - 8:00 PM,Tue 9:00 AM - 8:00 PM,Wed 9:00 AM - 8:00 PM,Thu 9:00 AM - 8:00 PM,Fri 9:00 AM - 8:00 PM,Sat 9:00 AM - 8:00 PM"
"rackroomshoes.com","https://www.rackroomshoes.com/store/169","LAKE PARK OUTLETS","5141 MILL STORE RD","LAKE PARK","GA","31636","United States","169","2295590292","Rack Room Shoes","30.6791049","-83.2196896","Sun 11:00 AM - 6:00 PM,Mon 9:00 AM - 8:00 PM,Tue 9:00 AM - 8:00 PM,Wed 9:00 AM - 8:00 PM,Thu 9:00 AM - 8:00 PM,Fri 9:00 AM - 8:00 PM,Sat 9:00 AM - 8:00 PM"
"rackroomshoes.com","https://www.rackroomshoes.com/store/721","THE MALL AT WAYCROSS","2215 MEMORIAL DR","WAYCROSS","GA","31501","United States","721","9122858033","Rack Room Shoes","31.1990741","-82.3250492","Sun 1:00 PM - 6:00 PM,Mon 10:00 AM - 9:00 PM,Tue 10:00 AM - 9:00 PM,Wed 10:00 AM - 9:00 PM,Thu 10:00 AM - 9:00 PM,Fri 10:00 AM - 9:00 PM,Sat 10:00 AM - 9:00 PM"
"rackroomshoes.com","https://www.rackroomshoes.com/store/263","VALDOSTA CORNERS CENTER","1200E NORTH ST. AUGUSTINE RD.","VALDOSTA","GA","31601","United States","263","2292590220","Rack Room Shoes","30.841554","-83.324849","Sun 11:00 AM - 6:00 PM,Mon 10:00 AM - 9:00 PM,Tue 10:00 AM - 9:00 PM,Wed 10:00 AM - 9:00 PM,Thu 10:00 AM - 9:00 PM,Fri 10:00 AM - 9:00 PM,Sat 10:00 AM - 9:00 PM"
"rackroomshoes.com","https://www.rackroomshoes.com/store/672","TARGET CENTER","2110 APALACHEE PARKWAY","TALLAHASSEE","FL","32301","United States","672","8504029324","Rack Room Shoes","30.4318282","-84.2457275","Sun 12:00 PM - 6:00 PM,Mon 10:00 AM - 9:00 PM,Tue 10:00 AM - 9:00 PM,Wed 10:00 AM - 9:00 PM,Thu 10:00 AM - 9:00 PM,Fri 10:00 AM - 9:00 PM,Sat 10:00 AM - 9:00 PM"
"rackroomshoes.com","https://www.rackroomshoes.com/store/53","SAVANNAH CENTRE","7400 ABERCORN ST. UNIT 16","SAVANNAH","GA","31406","United States","53","9123523546","Rack Room Shoes","32.0070645","-81.1124103","Sun 12:00 PM - 6:00 PM,Mon 10:00 AM - 9:00 PM,Tue 10:00 AM - 9:00 PM,Wed 10:00 AM - 9:00 PM,Thu 10:00 AM - 9:00 PM,Fri 10:00 AM - 9:00 PM,Sat 10:00 AM - 9:00 PM"
"rackroomshoes.com","https://www.rackroomshoes.com/store/3117","TANGER OUTLETS","200 TANGER OUTLET BLVD. SUITE 645","POOLER","GA","31322","United States","3117","9124501250","Off Broadway Shoe Warehouse","32.1346497","-81.2432264","Sun 10:00 AM - 7:00 PM,Mon 9:00 AM - 9:00 PM,Tue 9:00 AM - 9:00 PM,Wed 9:00 AM - 9:00 PM,Thu 9:00 AM - 9:00 PM,Fri 9:00 AM - 9:00 PM,Sat 9:00 AM - 9:00 PM"
"rackroomshoes.com","https://www.rackroomshoes.com/store/644","TANGER OUTLETS SAVANNAH","200 TANGER OUTLET BLVD  SUITE 431","POOLER","GA","31322","United States","644","9124501257","Rack Room Shoes","32.1358013","-81.2424374","Sun 10:00 AM - 7:00 PM,Mon 9:00 AM - 9:00 PM,Tue 9:00 AM - 9:00 PM,Wed 9:00 AM - 9:00 PM,Thu 9:00 AM - 9:00 PM,Fri 9:00 AM - 9:00 PM,Sat 9:00 AM - 9:00 PM"
"rackroomshoes.com","https://www.rackroomshoes.com/store/642","VILLAGE @ POOLER PARKWAY","252 POOLER PKWY.","POOLER","GA","31322","United States","642","9127484935","Rack Room Shoes","32.1420807","-81.2500333","Sun 12:00 PM - 6:00 PM,Mon 10:00 AM - 9:00 PM,Tue 10:00 AM - 9:00 PM,Wed 10:00 AM - 9:00 PM,Thu 10:00 AM - 9:00 PM,Fri 10:00 AM - 9:00 PM,Sat 10:00 AM - 9:00 PM"
"rackroomshoes.com","https://www.rackroomshoes.com/store/731","BLUFFTON-HILTON HEAD VILLAGE","1460 FORDING ISLAND ROAD STE 240","BLUFFTON","SC","29910","United States","731","8438375254","Rack Room Shoes","32.2389452","-80.8153295","Sun 11:00 AM - 6:00 PM,Mon 10:00 AM - 9:00 PM,Tue 10:00 AM - 9:00 PM,Wed 10:00 AM - 9:00 PM,Thu 10:00 AM - 9:00 PM,Fri 10:00 AM - 9:00 PM,Sat 10:00 AM - 9:00 PM"
"rackroomshoes.com","https://www.rackroomshoes.com/store/355","TANGER OUTLET HILTON HEAD","1414 FORDING ISLAND RD STE F-160","BLUFFTON","SC","29910","United States","355","8438362551","Rack Room Shoes","32.2403459","-80.8176656","Sun 10:00 AM - 7:00 PM,Mon 9:00 AM - 9:00 PM,Tue 9:00 AM - 9:00 PM,Wed 9:00 AM - 9:00 PM,Thu 9:00 AM - 9:00 PM,Fri 9:00 AM - 9:00 PM,Sat 9:00 AM - 9:00 PM"
"rackroomshoes.com","https://www.rackroomshoes.com/store/577","PIER PARK","205 BLUEFISH DRIVE SUITE 115","PANAMA CITY BEACH","FL","32413","United States","577","8502303051","Rack Room Shoes","30.2190214","-85.8706722","Sun 12:00 PM - 6:00 PM,Mon 10:00 AM - 8:00 PM,Tue 10:00 AM - 8:00 PM,Wed 10:00 AM - 8:00 PM,Thu 10:00 AM - 8:00 PM,Fri 10:00 AM - 8:00 PM,Sat 10:00 AM - 8:00 PM"
"rackroomshoes.com","https://www.rackroomshoes.com/store/532","STATESBORO CROSSING","299 HENRY BLVD. SPACE C-1","STATESBORO","GA","30458","United States","532","9124896117","Rack Room Shoes","32.4300385","-81.7594641","Sun 12:00 PM - 6:00 PM,Mon 10:00 AM - 9:00 PM,Tue 10:00 AM - 9:00 PM,Wed 10:00 AM - 9:00 PM,Thu 10:00 AM - 9:00 PM,Fri 10:00 AM - 9:00 PM,Sat 10:00 AM - 9:00 PM"
"rackroomshoes.com","https://www.rackroomshoes.com/store/615","KING STREET","245 KING STREET","CHARLESTON","SC","29401","United States","615","8435775922","Rack Room Shoes","32.7815107","-79.9335825","Sun 12:00 PM - 6:00 PM,Mon 10:00 AM - 7:00 PM,Tue 10:00 AM - 7:00 PM,Wed 10:00 AM - 7:00 PM,Thu 10:00 AM - 8:00 PM,Fri 10:00 AM - 8:00 PM,Sat 10:00 AM - 8:00 PM"
"rackroomshoes.com","https://www.rackroomshoes.com/store/390","MT. PLEASANT TOWN CENTER","1736 TOWNE CENTRE WAY","MOUNT PLEASANT","SC","29464","United States","390","8439710244","Rack Room Shoes","32.8289474","-79.8308561","Sun 12:00 PM - 6:00 PM,Mon 10:00 AM - 9:00 PM,Tue 10:00 AM - 9:00 PM,Wed 10:00 AM - 9:00 PM,Thu 10:00 AM - 9:00 PM,Fri 10:00 AM - 9:00 PM,Sat 10:00 AM - 9:00 PM"
"rackroomshoes.com","https://www.rackroomshoes.com/store/656","TANGER OUTLETS - CHARLESTON","4840 TANGER OUTLET BLVD STE 966","CHARLESTON","SC","29418","United States","656","8437450074","Rack Room Shoes","32.8741626","-80.018777","Sun 11:00 AM - 6:00 PM,Mon 10:00 AM - 9:00 PM,Tue 10:00 AM - 9:00 PM,Wed 10:00 AM - 9:00 PM,Thu 10:00 AM - 9:00 PM,Fri 10:00 AM - 9:00 PM,Sat 10:00 AM - 9:00 PM"
"rackroomshoes.com","https://www.rackroomshoes.com/store/629","THE CORNER AT WESTCOTT","9500 DORCHESTER RD","NORTH CHARLESTON","SC","29485","United States","629","8436951552","Rack Room Shoes","32.9358378","-80.1404139","Sun 11:00 AM - 6:00 PM,Mon 10:00 AM - 9:00 PM,Tue 10:00 AM - 9:00 PM,Wed 10:00 AM - 9:00 PM,Thu 10:00 AM - 9:00 PM,Fri 10:00 AM - 9:00 PM,Sat 10:00 AM - 9:00 PM"
"rackroomshoes.com","https://www.rackroomshoes.com/store/356","SILVER SANDS OUTLET","10406 EMERALD COAST PKWY. STE. 86A","DESTIN","FL","32550","United States","356","8502693225","Rack Room Shoes","30.378252","-86.3483065","Sun 10:00 AM - 6:00 PM,Mon 10:00 AM - 9:00 PM,Tue 10:00 AM - 9:00 PM,Wed 10:00 AM - 9:00 PM,Thu 10:00 AM - 9:00 PM,Fri 10:00 AM - 9:00 PM,Sat 10:00 AM - 9:00 PM"
"rackroomshoes.com","https://www.rackroomshoes.com/store/245","NORTHWOODS MALL","2150 NORTHWOODS BLVD UNIT F52","NORTH CHARLESTON","SC","29406","United States","245","8437970191","Rack Room Shoes","32.9447225","-80.0447602","Sun 12:00 PM - 6:00 PM,Mon 10:00 AM - 9:00 PM,Tue 10:00 AM - 9:00 PM,Wed 10:00 AM - 9:00 PM,Thu 10:00 AM - 9:00 PM,Fri 10:00 AM - 9:00 PM,Sat 10:00 AM - 9:00 PM"
"rackroomshoes.com","https://www.rackroomshoes.com/store/240","WIREGRASS COMMONS MALL","900 COMMONS DRIVE STE 812","DOTHAN","AL","36303","United States","240","3346711318","Rack Room Shoes","31.2540367","-85.4243382","Sun 12:00 PM - 6:00 PM,Mon 10:00 AM - 9:00 PM,Tue 10:00 AM - 9:00 PM,Wed 10:00 AM - 9:00 PM,Thu 10:00 AM - 9:00 PM,Fri 10:00 AM - 9:00 PM,Sat 10:00 AM - 9:00 PM"
"rackroomshoes.com","https://www.rackroomshoes.com/store/117","STONE MOUNTAIN SQUARE","5370 HIGHWAY 78 SUITE 100","STONE MOUNTAIN","GA","30087","United States","117","7704986426","Rack Room Shoes","32.878297","-82.4742666","Sun 12:00 PM - 6:00 PM,Mon 10:00 AM - 9:00 PM,Tue 10:00 AM - 9:00 PM,Wed 10:00 AM - 9:00 PM,Thu 10:00 AM - 9:00 PM,Fri 10:00 AM - 9:00 PM,Sat 10:00 AM - 9:00 PM"
"rackroomshoes.com","https://www.rackroomshoes.com/store/767","ENTERPRISE SHOPPING CENTER","628 BOLL WEEVIL CIRCLE","ENTERPRISE","AL","36330","United States","767","3343930054","Rack Room Shoes","31.3197638","-85.8289658","Sun 12:00 PM - 6:00 PM,Mon 10:00 AM - 9:00 PM,Tue 10:00 AM - 9:00 PM,Wed 10:00 AM - 9:00 PM,Thu 10:00 AM - 9:00 PM,Fri 10:00 AM - 9:00 PM,Sat 10:00 AM - 9:00 PM"
"rackroomshoes.com","https://www.rackroomshoes.com/store/761","WARNER ROBINS PLACE","2724 WATSON BLVD","WARNER ROBINS","GA","31093","United States","761","4789536359","Rack Room Shoes","32.6204711","-83.6747085","Sun 11:00 AM - 7:00 PM,Mon 10:00 AM - 9:00 PM,Tue 10:00 AM - 9:00 PM,Wed 10:00 AM - 9:00 PM,Thu 10:00 AM - 9:00 PM,Fri 10:00 AM - 9:00 PM,Sat 10:00 AM - 9:00 PM"
"rackroomshoes.com","https://www.rackroomshoes.com/store/826","MERCER CROSSING","3555 MERCER UNIVERISTY DR STE 105-5","MACON","GA","31204","United States","826","4784742047","Rack Room Shoes","32.8220596","-83.6930694","Sun 12:00 PM - 6:00 PM,Mon 10:00 AM - 9:00 PM,Tue 10:00 AM - 9:00 PM,Wed 10:00 AM - 9:00 PM,Thu 10:00 AM - 9:00 PM,Fri 10:00 AM - 9:00 PM,Sat 10:00 AM - 9:00 PM"
"rackroomshoes.com","https://www.rackroomshoes.com/store/1000","PAWLEY'S ISLAND PLAZA","10225 OCEAN HWY (US 17) STE 305","PAWLEY'S ISLAND","SC","29585","United States","1000","8438975136","Rack Room Shoes","33.4374078","-79.1317451","Sun 12:00 PM - 6:00 PM,Mon 10:00 AM - 9:00 PM,Tue 10:00 AM - 9:00 PM,Wed 10:00 AM - 9:00 PM,Thu 10:00 AM - 9:00 PM,Fri 10:00 AM - 9:00 PM,Sat 10:00 AM - 9:00 PM"
"rackroomshoes.com","https://www.rackroomshoes.com/store/528","MILLEDGEVILLE MALL","2400 N COLUMBIA ST STE A5","MILLEDGEVILLE","GA","31061","United States","528","4784520741","Rack Room Shoes","33.1073769","-83.2578349","Sun 1:00 PM - 6:00 PM,Mon 10:00 AM - 9:00 PM,Tue 10:00 AM - 9:00 PM,Wed 10:00 AM - 9:00 PM,Thu 10:00 AM - 9:00 PM,Fri 10:00 AM - 9:00 PM,Sat 10:00 AM - 9:00 PM"
"rackroomshoes.com","https://www.rackroomshoes.com/store/513","HITCHCOCK PLAZA","423 FABIAN DR","AIKEN","SC","29803","United States","513","8036444041","Rack Room Shoes","33.5186259","-81.7245537","Sun 12:00 PM - 6:00 PM,Mon 10:00 AM - 9:00 PM,Tue 10:00 AM - 9:00 PM,Wed 10:00 AM - 9:00 PM,Thu 10:00 AM - 9:00 PM,Fri 10:00 AM - 9:00 PM,Sat 10:00 AM - 9:00 PM"
"rackroomshoes.com","https://www.rackroomshoes.com/store/718","NORTH AUGUSTA PLAZA","362 E. MARTINTOWN RD","NORTH AUGUSTA","SC","29841","United States","718","8032795402","Rack Room Shoes","33.4973862","-81.9607919","Sun 12:00 PM - 6:00 PM,Mon 10:00 AM - 9:00 PM,Tue 10:00 AM - 9:00 PM,Wed 10:00 AM - 9:00 PM,Thu 10:00 AM - 9:00 PM,Fri 10:00 AM - 9:00 PM,Sat 10:00 AM - 9:00 PM"
"rackroomshoes.com","https://www.rackroomshoes.com/store/315","AUGUSTA EXCHANGE","213 ROBERT C. DANIEL JR. PKWY.","AUGUSTA","GA","30909","United States","315","7067338486","Rack Room Shoes","33.4922233","-82.0808441","Sun 11:00 AM - 7:00 PM,Mon 10:00 AM - 9:00 PM,Tue 10:00 AM - 9:00 PM,Wed 10:00 AM - 9:00 PM,Thu 10:00 AM - 9:00 PM,Fri 10:00 AM - 9:00 PM,Sat 10:00 AM - 9:00 PM"
"rackroomshoes.com","https://www.rackroomshoes.com/store/476","MULLINS CROSSING","4219 WASHINGTON RD # 3","EVANS","GA","30809","United States","476","7066519586","Rack Room Shoes","33.52594344","-82.11756387","Sun 12:00 PM - 6:00 PM,Mon 10:00 AM - 9:00 PM,Tue 10:00 AM - 9:00 PM,Wed 10:00 AM - 9:00 PM,Thu 10:00 AM - 9:00 PM,Fri 10:00 AM - 9:00 PM,Sat 10:00 AM - 9:00 PM"
"rackroomshoes.com","https://www.rackroomshoes.com/store/690","SAYEBROOK TOWN CENTER","130 SAYEBROOK PKWY UNIT3 BLDG6","MYRTLE BEACH","SC","29588","United States","690","8432932910","Rack Room Shoes","33.6540554","-78.9823334","Sun 12:00 PM - 6:00 PM,Mon 10:00 AM - 9:00 PM,Tue 10:00 AM - 9:00 PM,Wed 10:00 AM - 9:00 PM,Thu 10:00 AM - 9:00 PM,Fri 10:00 AM - 9:00 PM,Sat 10:00 AM - 9:00 PM"
"rackroomshoes.com","https://www.rackroomshoes.com/store/446","COLUMBUS PARK CROSSING","5555 WHITTLESEY BLVD BLDG 2220","COLUMBUS","GA","31909","United States","446","7064941155","Rack Room Shoes","32.5448833","-84.9471191","Sun 11:00 AM - 7:00 PM,Mon 10:00 AM - 9:00 PM,Tue 10:00 AM - 9:00 PM,Wed 10:00 AM - 9:00 PM,Thu 10:00 AM - 9:00 PM,Fri 10:00 AM - 9:00 PM,Sat 10:00 AM - 9:00 PM"
"rackroomshoes.com","https://www.rackroomshoes.com/store/458","COASTAL GRAND MALL","2000 COASTAL GRAND CIR SPACE 320","MYRTLE BEACH","SC","29577","United States","458","8438393254","Rack Room Shoes","33.7036339","-78.9234761","Sun 12:00 PM - 6:00 PM,Mon 10:00 AM - 9:00 PM,Tue 10:00 AM - 9:00 PM,Wed 10:00 AM - 9:00 PM,Thu 10:00 AM - 9:00 PM,Fri 10:00 AM - 9:00 PM,Sat 10:00 AM - 9:00 PM"
"rackroomshoes.com","https://www.rackroomshoes.com/store/294","BROADWAY AT THE BEACH","1201 CELEBRITY CIRCLE  SP QS-6","MYRTLE BEACH","SC","29577","United States","294","8439168354","Rack Room Shoes","33.7148106","-78.880146","Sun 10:00 AM - 9:00 PM,Mon 10:00 AM - 9:00 PM,Tue 10:00 AM - 9:00 PM,Wed 10:00 AM - 9:00 PM,Thu 10:00 AM - 9:00 PM,Fri 10:00 AM - 9:00 PM,Sat 10:00 AM - 9:00 PM"
"rackroomshoes.com","https://www.rackroomshoes.com/store/12","TANGER OUTLET CENTER - HWY. 501","4618 FACTORY STORES BLVD STE E-140","MYRTLE BEACH","SC","29579","United States","12","8432365917","Rack Room Shoes","33.7522661","-78.9552353","Sun 10:00 AM - 7:00 PM,Mon 9:00 AM - 9:00 PM,Tue 9:00 AM - 9:00 PM,Wed 9:00 AM - 9:00 PM,Thu 9:00 AM - 9:00 PM,Fri 9:00 AM - 9:00 PM,Sat 9:00 AM - 9:00 PM"
"rackroomshoes.com","https://www.rackroomshoes.com/store/108","TANGER OUTLET CENTER - HWY. 17","10835 KINGS RD STE 230","MYRTLE BEACH","SC","29572","United States","108","8434970050","Rack Room Shoes","33.7839736","-78.7758895","Sun 10:00 AM - 7:00 PM,Mon 9:00 AM - 9:00 PM,Tue 9:00 AM - 9:00 PM,Wed 9:00 AM - 9:00 PM,Thu 9:00 AM - 9:00 PM,Fri 9:00 AM - 9:00 PM,Sat 9:00 AM - 9:00 PM"
"rackroomshoes.com","https://www.rackroomshoes.com/store/156","TANGER OUTLET CENTER","2601 S MCKENZIE ST. SPACE A","FOLEY","AL","36535","United States","156","2519712525","Rack Room Shoes","30.3757446","-87.6797877","Sun 10:00 AM - 7:00 PM,Mon 9:00 AM - 9:00 PM,Tue 9:00 AM - 9:00 PM,Wed 9:00 AM - 9:00 PM,Thu 9:00 AM - 9:00 PM,Fri 9:00 AM - 9:00 PM,Sat 9:00 AM - 9:00 PM"
"rackroomshoes.com","https://www.rackroomshoes.com/store/661","COASTAL NORTH TOWN CENTER","1558 HWY 17 N SUITE C1","NORTH MYRTLE BEACH","SC","29582","United States","661","8436631615","Rack Room Shoes","33.8413956","-78.6578628","Sun 12:00 PM - 6:00 PM,Mon 10:00 AM - 9:00 PM,Tue 10:00 AM - 9:00 PM,Wed 10:00 AM - 9:00 PM,Thu 10:00 AM - 9:00 PM,Fri 10:00 AM - 9:00 PM,Sat 10:00 AM - 9:00 PM"
"rackroomshoes.com","https://www.rackroomshoes.com/store/504","TIGER TOWN","2594 ENTERPRISE DRIVE","OPELIKA","AL","36801","United States","504","3347370595","Rack Room Shoes","32.6182226","-85.4110023","Sun 11:00 AM - 7:00 PM,Mon 9:00 AM - 9:00 PM,Tue 9:00 AM - 9:00 PM,Wed 9:00 AM - 9:00 PM,Thu 9:00 AM - 9:00 PM,Fri 9:00 AM - 9:00 PM,Sat 9:00 AM - 9:00 PM"
"rackroomshoes.com","https://www.rackroomshoes.com/store/319","LEXINGTON PLACE II","5454 SUNSET BLVD.  SUITE I","LEXINGTON","SC","29072","United States","319","8033562699","Rack Room Shoes","34.0000713","-81.2187494","Sun 12:00 PM - 6:00 PM,Mon 10:00 AM - 9:00 PM,Tue 10:00 AM - 9:00 PM,Wed 10:00 AM - 9:00 PM,Thu 10:00 AM - 9:00 PM,Fri 10:00 AM - 9:00 PM,Sat 10:00 AM - 9:00 PM"
"rackroomshoes.com","https://www.rackroomshoes.com/store/352","TANGER OUTLET","1000 TANGER DR STE 606","LOCUST GROVE","GA","30248","United States","352","7709141789","Rack Room Shoes","33.3502228","-84.1232696","Sun 12:00 PM - 6:00 PM,Mon 9:00 AM - 9:00 PM,Tue 9:00 AM - 9:00 PM,Wed 9:00 AM - 9:00 PM,Thu 9:00 AM - 9:00 PM,Fri 9:00 AM - 9:00 PM,Sat 9:00 AM - 9:00 PM"
"rackroomshoes.com","https://www.rackroomshoes.com/store/333","COLUMBIANA CENTRE","100 COLUMBIANA CIRCLE SP. 1376","COLUMBIA","SC","29212","United States","333","8034071326","Rack Room Shoes","34.0777154","-81.1558975","Sun 12:00 PM - 6:00 PM,Mon 11:00 AM - 7:00 PM,Tue 11:00 AM - 7:00 PM,Wed 11:00 AM - 7:00 PM,Thu 11:00 AM - 7:00 PM,Fri 11:00 AM - 8:00 PM,Sat 11:00 AM - 8:00 PM"
"rackroomshoes.com","https://www.rackroomshoes.com/store/610","VILLAGE AT SANDHILL","661-11 PROMENADE PLACE","COLUMBIA","SC","29229","United States","610","8037889228","Rack Room Shoes","34.128249","-80.8795032","Sun 12:00 PM - 6:00 PM,Mon 10:00 AM - 9:00 PM,Tue 10:00 AM - 9:00 PM,Wed 10:00 AM - 9:00 PM,Thu 10:00 AM - 9:00 PM,Fri 10:00 AM - 9:00 PM,Sat 10:00 AM - 9:00 PM"
"rackroomshoes.com","https://www.rackroomshoes.com/store/109","COMMONS AT MAGNOLIA","2875 DAVID H MCLEOD BLVD SPC 30","FLORENCE","SC","29501","United States","109","8436612342","Rack Room Shoes","34.1905617","-79.8352621","Sun 12:00 PM - 6:00 PM,Mon 10:00 AM - 9:00 PM,Tue 10:00 AM - 9:00 PM,Wed 10:00 AM - 9:00 PM,Thu 10:00 AM - 9:00 PM,Fri 10:00 AM - 9:00 PM,Sat 10:00 AM - 9:00 PM"
"rackroomshoes.com","https://www.rackroomshoes.com/store/157","THE SHOPPES @ EASTCHASE","2448 BERRYHILL RD","MONTGOMERY","AL","36117","United States","157","3342735510","Rack Room Shoes","32.3577446","-86.1609469","Sun 11:00 AM - 7:00 PM,Mon 10:00 AM - 9:00 PM,Tue 10:00 AM - 9:00 PM,Wed 10:00 AM - 9:00 PM,Thu 10:00 AM - 9:00 PM,Fri 10:00 AM - 9:00 PM,Sat 10:00 AM - 9:00 PM"
"rackroomshoes.com","https://www.rackroomshoes.com/store/416","AVENUE AT PEACHTREE CITY","200 CITY CIRCLE   STE 100","PEACHTREE CITY","GA","30269","United States","416","6783641157","Rack Room Shoes","33.3947642","-84.5906231","Sun 12:00 PM - 6:00 PM,Mon 10:00 AM - 9:00 PM,Tue 10:00 AM - 9:00 PM,Wed 10:00 AM - 9:00 PM,Thu 10:00 AM - 9:00 PM,Fri 10:00 AM - 9:00 PM,Sat 10:00 AM - 9:00 PM"
"rackroomshoes.com","https://www.rackroomshoes.com/store/289","CONYERS CROSSROADS","1462B DOGWOOD DR SE","CONYERS","GA","30013","United States","289","7704833964","Rack Room Shoes","33.6509354","-83.9951334","Sun 12:00 PM - 6:00 PM,Mon 10:00 AM - 9:00 PM,Tue 10:00 AM - 9:00 PM,Wed 10:00 AM - 9:00 PM,Thu 10:00 AM - 9:00 PM,Fri 10:00 AM - 9:00 PM,Sat 10:00 AM - 9:00 PM"
"rackroomshoes.com","https://www.rackroomshoes.com/store/288","FAYETTE PAVILION","120 PAVILION PARKWAY","FAYETTEVILLE","GA","30214","United States","288","7707168320","Rack Room Shoes","33.4797444","-84.4396367","Sun 11:00 AM - 7:00 PM,Mon 10:00 AM - 9:00 PM,Tue 10:00 AM - 9:00 PM,Wed 10:00 AM - 9:00 PM,Thu 10:00 AM - 9:00 PM,Fri 10:00 AM - 9:00 PM,Sat 10:00 AM - 9:00 PM"
"rackroomshoes.com","https://www.rackroomshoes.com/store/363","NEWNAN CROSSINGS","557 BULLSBORO DRIVE","NEWNAN","GA","30265","United States","363","7702523293","Rack Room Shoes","33.3938058","-84.7579555","Sun 11:00 AM - 7:00 PM,Mon 10:00 AM - 9:00 PM,Tue 10:00 AM - 9:00 PM,Wed 10:00 AM - 9:00 PM,Thu 10:00 AM - 9:00 PM,Fri 10:00 AM - 9:00 PM,Sat 10:00 AM - 9:00 PM"
"rackroomshoes.com","https://www.rackroomshoes.com/store/152","EMERALD PLACE SC","227 HOSPITALITY BLVD","GREENWOOD","SC","29649","United States","152","8642235228","Rack Room Shoes","34.2037915","-82.1914583","Sun 12:00 PM - 6:00 PM,Mon 10:00 AM - 9:00 PM,Tue 10:00 AM - 9:00 PM,Wed 10:00 AM - 9:00 PM,Thu 10:00 AM - 9:00 PM,Fri 10:00 AM - 9:00 PM,Sat 10:00 AM - 9:00 PM"
"rackroomshoes.com","https://www.rackroomshoes.com/store/205","SOUTHLAKE MALL","1257 SOUTHLAKE MALL","MORROW","GA","30260","United States","205","7709611211","Rack Room Shoes","33.5757671","-84.3499101","Sun 11:00 AM - 6:00 PM,Mon 10:00 AM - 9:00 PM,Tue 10:00 AM - 9:00 PM,Wed 10:00 AM - 9:00 PM,Thu 10:00 AM - 9:00 PM,Fri 10:00 AM - 9:00 PM,Sat 10:00 AM - 9:00 PM"
"rackroomshoes.com","https://www.rackroomshoes.com/store/3104","EPPS BRIDGE CROSSING SHOPPING CTR","1791 OCONEE CONNECTOR STE 310","ATHENS","GA","30606","United States","3104","7064251825","Off Broadway Shoe Warehouse","33.9162422","-83.4556853","Sun 11:00 AM - 7:00 PM,Mon 10:00 AM - 9:00 PM,Tue 10:00 AM - 9:00 PM,Wed 10:00 AM - 9:00 PM,Thu 10:00 AM - 9:00 PM,Fri 10:00 AM - 9:00 PM,Sat 10:00 AM - 9:00 PM"
"rackroomshoes.com","https://www.rackroomshoes.com/store/497","PRATTVILLE TOWN CENTER","2758 LEGENDS PKWY","PRATTVILLE","AL","36066","United States","497","3342859942","Rack Room Shoes","32.45785","-86.3971956","Sun 10:00 AM - 8:00 PM,Mon 9:00 AM - 9:00 PM,Tue 9:00 AM - 9:00 PM,Wed 9:00 AM - 9:00 PM,Thu 9:00 AM - 9:00 PM,Fri 9:00 AM - 9:00 PM,Sat 9:00 AM - 9:00 PM"
"rackroomshoes.com","https://www.rackroomshoes.com/store/636","BEECHWOOD PROMENADE","196 ALPS RD SUITE 27","ATHENS","GA","30606","United States","636","7064258960","Rack Room Shoes","33.9449673","-83.4111086","Sun 11:00 AM - 7:00 PM,Mon 10:00 AM - 9:00 PM,Tue 10:00 AM - 9:00 PM,Wed 10:00 AM - 9:00 PM,Thu 10:00 AM - 9:00 PM,Fri 10:00 AM - 9:00 PM,Sat 10:00 AM - 9:00 PM"
"rackroomshoes.com","https://www.rackroomshoes.com/store/223","INDEPENDENCE MALL","3500 OLEANDER DR STE 6E AND 7E","WILMINGTON","NC","28403","United States","223","9103958460","Rack Room Shoes","34.2145288","-77.9067984","Sun 1:00 PM - 6:00 PM,Mon 10:00 AM - 9:00 PM,Tue 10:00 AM - 9:00 PM,Wed 10:00 AM - 9:00 PM,Thu 10:00 AM - 9:00 PM,Fri 10:00 AM - 9:00 PM,Sat 10:00 AM - 9:00 PM"
"rackroomshoes.com","https://www.rackroomshoes.com/store/7","MAYFAIR TOWN CENTER","6876 MAIN ST BLDG CD-106","WILMINGTON","NC","28405","United States","7","9102568728","Rack Room Shoes","34.2421066","-77.8290774","Sun 12:00 PM - 6:00 PM,Mon 10:00 AM - 9:00 PM,Tue 10:00 AM - 9:00 PM,Wed 10:00 AM - 9:00 PM,Thu 10:00 AM - 9:00 PM,Fri 10:00 AM - 9:00 PM,Sat 10:00 AM - 9:00 PM"
"rackroomshoes.com","https://www.rackroomshoes.com/store/261","SNELLVILLE PAVILION","2059 SCENIC HWY. SUITE D","SNELLVILLE","GA","30078","United States","261","7709820724","Rack Room Shoes","33.8666739","-84.0176218","Sun 12:00 PM - 6:00 PM,Mon 10:00 AM - 9:00 PM,Tue 10:00 AM - 9:00 PM,Wed 10:00 AM - 9:00 PM,Thu 10:00 AM - 9:00 PM,Fri 10:00 AM - 9:00 PM,Sat 10:00 AM - 9:00 PM"
"rackroomshoes.com","https://www.rackroomshoes.com/store/778","THE SHOPPES AT WEBB GIN","1350 SCENIC HIGHWAY","SNELLVILLE","GA","30078","United States","778","7709827024","Rack Room Shoes","33.8995323","-84.0043481","Sun 12:00 PM - 6:00 PM,Mon 10:00 AM - 9:00 PM,Tue 10:00 AM - 9:00 PM,Wed 10:00 AM - 9:00 PM,Thu 10:00 AM - 9:00 PM,Fri 10:00 AM - 9:00 PM,Sat 10:00 AM - 9:00 PM"
"rackroomshoes.com","https://www.rackroomshoes.com/store/787","THE DISTRICT AT HOWELL MILL","1801 HOWELL MILL RD STE 260","ATLANTA","GA","30318","United States","787","4705443028","Rack Room Shoes","33.8038217","-84.4134579","Sun 11:00 AM - 7:00 PM,Mon 10:00 AM - 9:00 PM,Tue 10:00 AM - 9:00 PM,Wed 10:00 AM - 9:00 PM,Thu 10:00 AM - 9:00 PM,Fri 10:00 AM - 9:00 PM,Sat 10:00 AM - 9:00 PM"
"rackroomshoes.com","https://www.rackroomshoes.com/store/3024","SUGARLOAF MILLS","5900 SUGARLOAF PKWY STE 569","LAWRENCEVILLE","GA","30043","United States","3024","6788475797","Off Broadway Shoe Warehouse","33.9811233","-84.079501","Sun 12:00 AM - 6:00 PM,Mon 10:00 AM - 9:00 PM,Tue 10:00 AM - 9:00 PM,Wed 10:00 AM - 9:00 PM,Thu 10:00 AM - 9:00 PM,Fri 10:00 AM - 9:00 PM,Sat 10:00 AM - 9:00 PM"
"rackroomshoes.com","https://www.rackroomshoes.com/store/411","SUGARLOAF MILLS","5900 SUGARLOAF PARKWAY SP 632","LAWRENCEVILLE","GA","30043","United States","411","6788475818","Rack Room Shoes","33.98","-84.0827778","Sun 12:00 PM - 6:00 PM,Mon 10:00 AM - 9:00 PM,Tue 10:00 AM - 9:00 PM,Wed 10:00 AM - 9:00 PM,Thu 10:00 AM - 9:00 PM,Fri 10:00 AM - 9:00 PM,Sat 10:00 AM - 9:00 PM"
"rackroomshoes.com","https://www.rackroomshoes.com/store/602","CHAMBLEE PLAZA","5496 PEACHTREE BLVD","CHAMBLEE","GA","30341","United States","602","7704556819","Rack Room Shoes","33.8983321","-84.302379","Sun 11:00 AM - 7:00 PM,Mon 10:00 AM - 9:00 PM,Tue 10:00 AM - 9:00 PM,Wed 10:00 AM - 9:00 PM,Thu 10:00 AM - 9:00 PM,Fri 10:00 AM - 9:00 PM,Sat 10:00 AM - 9:00 PM"
"rackroomshoes.com","https://www.rackroomshoes.com/store/682","MALL OF GEORGIA CROSSING","3205 WOODWARD CROSSINGS BLVD","BUFORD","GA","30519","United States","682","6784822009","Rack Room Shoes","34.0705461","-83.9812054","Sun 11:00 AM - 7:00 PM,Mon 10:00 AM - 9:00 PM,Tue 10:00 AM - 9:00 PM,Wed 10:00 AM - 9:00 PM,Thu 10:00 AM - 9:00 PM,Fri 10:00 AM - 9:00 PM,Sat 10:00 AM - 9:00 PM"
"rackroomshoes.com","https://www.rackroomshoes.com/store/252","TANGER FACTORY STORES","800 STEVEN B TANGER BLVD STE 1110","COMMERCE","GA","30529","United States","252","7063359330","Rack Room Shoes","34.2495447","-83.4746491","Sun 10:00 AM - 7:00 PM,Mon 9:00 AM - 9:00 PM,Tue 9:00 AM - 9:00 PM,Wed 9:00 AM - 9:00 PM,Thu 9:00 AM - 9:00 PM,Fri 9:00 AM - 9:00 PM,Sat 9:00 AM - 9:00 PM"
"rackroomshoes.com","https://www.rackroomshoes.com/store/115","EAST WEST CROSSING","1825 EAST WEST CONNECTOR SW","AUSTELL","GA","30106","United States","115","7709443497","Rack Room Shoes","33.8526021","-84.6068629","Sun 12:00 PM - 6:00 PM,Mon 10:00 AM - 9:00 PM,Tue 10:00 AM - 9:00 PM,Wed 10:00 AM - 9:00 PM,Thu 10:00 AM - 9:00 PM,Fri 10:00 AM - 9:00 PM,Sat 10:00 AM - 9:00 PM"
"rackroomshoes.com","https://www.rackroomshoes.com/store/40","PROVIDENCE SQUARE","4101 ROSWELL RD STE 402","MARIETTA","GA","30062","United States","40","7709773223","Rack Room Shoes","33.9809684","-84.4336778","Sun 12:00 PM - 6:00 PM,Mon 10:00 AM - 9:00 PM,Tue 10:00 AM - 9:00 PM,Wed 10:00 AM - 9:00 PM,Thu 10:00 AM - 9:00 PM,Fri 10:00 AM - 9:00 PM,Sat 10:00 AM - 9:00 PM"
"rackroomshoes.com","https://www.rackroomshoes.com/store/164","ANDERSON MALL","3101 N MAIN ST STE Q06A","ANDERSON","SC","29621","United States","164","8642266157","Rack Room Shoes","34.5391162","-82.6717675","Sun 12:30 PM - 6:00 PM,Mon 10:00 AM - 9:00 PM,Tue 10:00 AM - 9:00 PM,Wed 10:00 AM - 9:00 PM,Thu 10:00 AM - 9:00 PM,Fri 10:00 AM - 9:00 PM,Sat 10:00 AM - 9:00 PM"
"rackroomshoes.com","https://www.rackroomshoes.com/store/402","HIRAM PAVILION","4794 JIMMY LEE SMITH PKWY STE 102","HIRAM","GA","30141","United States","402","6785675040","Rack Room Shoes","33.8861973","-84.7468179","Sun 12:00 PM - 6:00 PM,Mon 10:00 AM - 9:00 PM,Tue 10:00 AM - 9:00 PM,Wed 10:00 AM - 9:00 PM,Thu 10:00 AM - 9:00 PM,Fri 10:00 AM - 9:00 PM,Sat 10:00 AM - 9:00 PM"
"rackroomshoes.com","https://www.rackroomshoes.com/store/743","PARKSIDE WEST COBB","3805 DALLAS HWY SW STE 500","MARIETTA","GA","30064","United States","743","7709190390","Rack Room Shoes","33.950814","-84.6629511","Sun 11:00 AM - 6:00 PM,Mon 10:00 AM - 9:00 PM,Tue 10:00 AM - 9:00 PM,Wed 10:00 AM - 9:00 PM,Thu 10:00 AM - 9:00 PM,Fri 10:00 AM - 9:00 PM,Sat 10:00 AM - 9:00 PM"
"rackroomshoes.com","https://www.rackroomshoes.com/store/421","ROSWELL CORNERS SHOPPING CENTER","1125 WOODSTOCK RD STE 530 BLDG D","ROSWELL","GA","30075","United States","421","6787959683","Rack Room Shoes","34.0638864","-84.3956541","Sun 11:00 AM - 7:00 PM,Mon 10:00 AM - 9:00 PM,Tue 10:00 AM - 9:00 PM,Wed 10:00 AM - 9:00 PM,Thu 10:00 AM - 9:00 PM,Fri 10:00 AM - 9:00 PM,Sat 10:00 AM - 9:00 PM"
"rackroomshoes.com","https://www.rackroomshoes.com/store/510","THE COLLECTION AT FORSYTH","410 PEACHTREE PARKWAY SUITE 226","CUMMING","GA","30041","United States","510","6783416873","Rack Room Shoes","34.1527963","-84.1767716","Sun 12:00 PM - 6:00 PM,Mon 10:00 AM - 9:00 PM,Tue 10:00 AM - 9:00 PM,Wed 10:00 AM - 9:00 PM,Thu 10:00 AM - 9:00 PM,Fri 10:00 AM - 9:00 PM,Sat 10:00 AM - 9:00 PM"
"rackroomshoes.com","https://www.rackroomshoes.com/store/616","TOWN CENTER AT COBB","400 ERNEST BARRETT PARKWAY","KENNESAW","GA","30144","United States","616","7707951288","Rack Room Shoes","34.0180253","-84.5637886","Sun 12:00 PM - 6:00 PM,Mon 10:00 AM - 9:00 PM,Tue 10:00 AM - 9:00 PM,Wed 10:00 AM - 9:00 PM,Thu 10:00 AM - 9:00 PM,Fri 10:00 AM - 9:00 PM,Sat 10:00 AM - 9:00 PM"
"rackroomshoes.com","https://www.rackroomshoes.com/store/423","CUMMING MARKETPLACE","1625 MARKET PLACE BLVD STE A","CUMMING","GA","30041","United States","423","7708866422","Rack Room Shoes","34.188844","-84.1334955","Sun 11:00 AM - 6:00 PM,Mon 10:00 AM - 9:00 PM,Tue 10:00 AM - 9:00 PM,Wed 10:00 AM - 9:00 PM,Thu 10:00 AM - 9:00 PM,Fri 10:00 AM - 9:00 PM,Sat 10:00 AM - 9:00 PM"
"rackroomshoes.com","https://www.rackroomshoes.com/store/29","FAIRVIEW CORNERS","357 HARRISON BRIDGE RD","SIMPSONVILLE","SC","29680","United States","29","8642282000","Rack Room Shoes","34.7031518","-82.2569929","Sun 12:00 PM - 6:00 PM,Mon 10:00 AM - 9:00 PM,Tue 10:00 AM - 9:00 PM,Wed 10:00 AM - 9:00 PM,Thu 10:00 AM - 9:00 PM,Fri 10:00 AM - 9:00 PM,Sat 10:00 AM - 9:00 PM"
"rackroomshoes.com","https://www.rackroomshoes.com/store/792","MARBLE CITY SQUARE","129 MCS BLVD","SYLACAUGA","AL","35150","United States","792","2562450055","Rack Room Shoes","33.1730236","-86.2827721","Sun 12:00 PM - 6:00 PM,Mon 10:00 AM - 9:00 PM,Tue 10:00 AM - 9:00 PM,Wed 10:00 AM - 9:00 PM,Thu 10:00 AM - 9:00 PM,Fri 10:00 AM - 9:00 PM,Sat 10:00 AM - 9:00 PM"
"rackroomshoes.com","https://www.rackroomshoes.com/store/750","WOODSTOCK SQUARE","126  WOODSTOCK SQUARE AVE","WOODSTOCK","GA","30189","United States","750","6784949791","Rack Room Shoes","34.0835126","-84.5463508","Sun 11:00 AM - 6:00 PM,Mon 10:00 AM - 9:00 PM,Tue 10:00 AM - 9:00 PM,Wed 10:00 AM - 9:00 PM,Thu 10:00 AM - 9:00 PM,Fri 10:00 AM - 9:00 PM,Sat 10:00 AM - 9:00 PM"
"rackroomshoes.com","https://www.rackroomshoes.com/store/739","GULFPORT PREMIUM OUTLETS","10000 FACTORY SHOP BLVD STE 630","GULFPORT","MS","39503","United States","739","2288654395","Rack Room Shoes","30.4295083","-89.097543","Sun 11:00 AM - 6:00 PM,Mon 10:00 AM - 9:00 PM,Tue 10:00 AM - 9:00 PM,Wed 10:00 AM - 9:00 PM,Thu 10:00 AM - 9:00 PM,Fri 10:00 AM - 9:00 PM,Sat 10:00 AM - 9:00 PM"
"rackroomshoes.com","https://www.rackroomshoes.com/store/741","PROMENADE AT CAROLINA RESERVE","7796 CHARLOTTE HIGHWAY STE 104","INDIAN LAND","SC","29707","United States","741","8035488720","Rack Room Shoes","34.9399854","-80.8351417","Sun 12:00 PM - 6:00 PM,Mon 10:00 AM - 9:00 PM,Tue 10:00 AM - 9:00 PM,Wed 10:00 AM - 9:00 PM,Thu 10:00 AM - 9:00 PM,Fri 10:00 AM - 9:00 PM,Sat 10:00 AM - 9:00 PM"
"rackroomshoes.com","https://www.rackroomshoes.com/store/20","ROCK HILL GALLERIA","2331 DAVE LYLE BLVD","ROCK HILL","SC","29730","United States","20","8033299899","Rack Room Shoes","34.9414292","-80.9640955","Sun 12:00 PM - 6:00 PM,Mon 10:00 AM - 9:00 PM,Tue 10:00 AM - 9:00 PM,Wed 10:00 AM - 9:00 PM,Thu 10:00 AM - 9:00 PM,Fri 10:00 AM - 9:00 PM,Sat 10:00 AM - 9:00 PM"
"rackroomshoes.com","https://www.rackroomshoes.com/store/756","HARTWELL VILLAGE","13360 CLEMSON BLVD SUITE D","SENECA","SC","29678","United States","756","8646540048","Rack Room Shoes","34.6908132","-82.8589276","Sun 11:00 AM - 7:00 PM,Mon 10:00 AM - 9:00 PM,Tue 10:00 AM - 9:00 PM,Wed 10:00 AM - 9:00 PM,Thu 10:00 AM - 9:00 PM,Fri 10:00 AM - 9:00 PM,Sat 10:00 AM - 9:00 PM"
"rackroomshoes.com","https://www.rackroomshoes.com/store/281","NORTH GEORGIA PREMIUM OUTLETS","800 HWY 400 SOUTH STE 830","DAWSONVILLE","GA","30534","United States","281","7062164322","Rack Room Shoes","34.3571013","-84.047593","Sun 11:00 AM - 7:00 PM,Mon 10:00 AM - 9:00 PM,Tue 10:00 AM - 9:00 PM,Wed 10:00 AM - 9:00 PM,Thu 10:00 AM - 9:00 PM,Fri 10:00 AM - 9:00 PM,Sat 10:00 AM - 9:00 PM"
"rackroomshoes.com","https://www.rackroomshoes.com/store/593","THE VILLAGE COMMONS","6340 WEDDINGTON RD STE B1","WESLEY CHAPEL","NC","28104","United States","593","7048433800","Rack Room Shoes","35.000034","-80.6962387","Sun 12:00 PM - 6:00 PM,Mon 10:00 AM - 9:00 PM,Tue 10:00 AM - 9:00 PM,Wed 10:00 AM - 9:00 PM,Thu 10:00 AM - 9:00 PM,Fri 10:00 AM - 9:00 PM,Sat 10:00 AM - 9:00 PM"
"rackroomshoes.com","https://www.rackroomshoes.com/store/489","OXFORD EXCHANGE","150 OXFORD EXCHANGE BLVD","OXFORD","AL","36203","United States","489","2568311709","Rack Room Shoes","33.6076553","-85.783741","Sun 12:00 PM - 6:00 PM,Mon 10:00 AM - 9:00 PM,Tue 10:00 AM - 9:00 PM,Wed 10:00 AM - 9:00 PM,Thu 10:00 AM - 9:00 PM,Fri 10:00 AM - 9:00 PM,Sat 10:00 AM - 9:00 PM"
"rackroomshoes.com","https://www.rackroomshoes.com/store/3051","SHOPS AT GREENRIDGE","1125 WOOD RUFF RD STE 400","GREENVILLE","SC","29607","United States","3051","8642880757","Off Broadway Shoe Warehouse","34.8296462","-82.295538","Sun 11:00 AM - 7:00 PM,Mon 10:00 AM - 9:00 PM,Tue 10:00 AM - 9:00 PM,Wed 10:00 AM - 9:00 PM,Thu 10:00 AM - 9:00 PM,Fri 10:00 AM - 9:00 PM,Sat 10:00 AM - 9:00 PM"
"rackroomshoes.com","https://www.rackroomshoes.com/store/531","CANTON MARKETPLACE","1810 CUMMING HWY SUITE 650","CANTON","GA","30115","United States","531","7704797310","Rack Room Shoes","34.235648","-84.4573924","Sun 12:00 PM - 6:00 PM,Mon 10:00 AM - 9:00 PM,Tue 10:00 AM - 9:00 PM,Wed 10:00 AM - 9:00 PM,Thu 10:00 AM - 9:00 PM,Fri 10:00 AM - 9:00 PM,Sat 10:00 AM - 9:00 PM"
"rackroomshoes.com","https://www.rackroomshoes.com/store/3062","CANTON MARKET PLACE","1810 CUMMING HWY STE 830","CANTON","GA","30115","United States","3062","7703450933","Off Broadway Shoe Warehouse","34.2350672","-84.4605002","Sun 11:00 AM - 7:00 PM,Mon 10:00 AM - 9:00 PM,Tue 10:00 AM - 9:00 PM,Wed 10:00 AM - 9:00 PM,Thu 10:00 AM - 9:00 PM,Fri 10:00 AM - 9:00 PM,Sat 10:00 AM - 9:00 PM"
"rackroomshoes.com","https://www.rackroomshoes.com/store/490","POPLIN PLACE","3029 W HIGHWAY 74","MONROE","NC","28110","United States","490","7042898232","Rack Room Shoes","35.0213418","-80.5827706","Sun 12:00 PM - 6:00 PM,Mon 10:00 AM - 9:00 PM,Tue 10:00 AM - 9:00 PM,Wed 10:00 AM - 9:00 PM,Thu 10:00 AM - 9:00 PM,Fri 10:00 AM - 9:00 PM,Sat 10:00 AM - 9:00 PM"
"rackroomshoes.com","https://www.rackroomshoes.com/store/247","HAYWOOD MALL","700 HAYWOOD ROAD SPACE 2119-A","GREENVILLE","SC","29607","United States","247","8642347659","Rack Room Shoes","34.8500433","-82.3320059","Sun 12:30 PM - 6:00 PM,Mon 10:00 AM - 9:00 PM,Tue 10:00 AM - 9:00 PM,Wed 10:00 AM - 9:00 PM,Thu 10:00 AM - 9:00 PM,Fri 10:00 AM - 9:00 PM,Sat 10:00 AM - 9:00 PM"
"rackroomshoes.com","https://www.rackroomshoes.com/store/3066","BLAKENEY SHOPPING CENTER","9876 REA ROAD STE A","CHARLOTTE","NC","28277","United States","3066","7045428865","Off Broadway Shoe Warehouse","35.0354297","-80.8092079","Sun 11:00 AM - 7:00 PM,Mon 10:00 AM - 9:00 PM,Tue 10:00 AM - 9:00 PM,Wed 10:00 AM - 9:00 PM,Thu 10:00 AM - 9:00 PM,Fri 10:00 AM - 9:00 PM,Sat 10:00 AM - 9:00 PM"
"rackroomshoes.com","https://www.rackroomshoes.com/store/398","TOWN AND COUNTRY SHOPPING CTR","6101 CALHOUN MEMORIAL HWY STE FF","EASLEY","SC","29640","United States","398","8648592054","Rack Room Shoes","34.8218724","-82.577854","Sun 12:00 PM - 6:00 PM,Mon 10:00 AM - 9:00 PM,Tue 10:00 AM - 9:00 PM,Wed 10:00 AM - 9:00 PM,Thu 10:00 AM - 9:00 PM,Fri 10:00 AM - 9:00 PM,Sat 10:00 AM - 9:00 PM"
"rackroomshoes.com","https://www.rackroomshoes.com/store/75","WESTGATE CROSSING SHOPPING CENTER","660 SPARTAN BLVD #100","SPARTANBURG","SC","29301","United States","75","8645878605","Rack Room Shoes","34.94325985","-81.99700754","Sun 12:00 PM - 6:00 PM,Mon 10:00 AM - 9:00 PM,Tue 10:00 AM - 9:00 PM,Wed 10:00 AM - 9:00 PM,Thu 10:00 AM - 9:00 PM,Fri 10:00 AM - 9:00 PM,Sat 10:00 AM - 9:00 PM"
"rackroomshoes.com","https://www.rackroomshoes.com/store/722","GATEWAY PLAZA","1112 HAMPTON INN WAY STE 100","JACKSONVILLE","NC","28546","United States","722","9109370059","Rack Room Shoes","34.7876071","-77.4061383","Sun 12:00 PM - 6:00 PM,Mon 10:00 AM - 9:00 PM,Tue 10:00 AM - 9:00 PM,Wed 10:00 AM - 9:00 PM,Thu 10:00 AM - 9:00 PM,Fri 10:00 AM - 9:00 PM,Sat 10:00 AM - 9:00 PM"
"rackroomshoes.com","https://www.rackroomshoes.com/store/485","HILLCREST MARKET PLACE","1985 E MAIN ST STE 1","SPARTANBURG","SC","29307","United States","485","8645970722","Rack Room Shoes","34.9693315","-81.8870072","Sun 12:00 PM - 6:00 PM,Mon 11:00 AM - 7:00 PM,Tue 11:00 AM - 7:00 PM,Wed 11:00 AM - 7:00 PM,Thu 11:00 AM - 7:00 PM,Fri 11:00 AM - 7:00 PM,Sat 11:00 AM - 7:00 PM"
"rackroomshoes.com","https://www.rackroomshoes.com/store/120","CAROLINA PLACE MALL","11025 CAROLINA PLACE PKWY STE D39","PINEVILLE","NC","28134","United States","120","7045428716","Rack Room Shoes","35.0813417","-80.8756127","Sun 12:00 PM - 6:00 PM,Mon 10:00 AM - 9:00 PM,Tue 10:00 AM - 9:00 PM,Wed 10:00 AM - 9:00 PM,Thu 10:00 AM - 9:00 PM,Fri 10:00 AM - 9:00 PM,Sat 10:00 AM - 9:00 PM"
"rackroomshoes.com","https://www.rackroomshoes.com/store/13","FAYETTEVILLE PAVILLION","2065 SKIBO RD UNIT 1","FAYETTEVILLE","NC","28314","United States","13","9108684244","Rack Room Shoes","35.053911","-78.9725263","Sun 12:00 PM - 6:00 PM,Mon 10:00 AM - 9:00 PM,Tue 10:00 AM - 9:00 PM,Wed 10:00 AM - 9:00 PM,Thu 10:00 AM - 9:00 PM,Fri 10:00 AM - 9:00 PM,Sat 10:00 AM - 9:00 PM"
"rackroomshoes.com","https://www.rackroomshoes.com/store/83","THE ARBORETUM","8036 PROVIDENCE RD STE 400","CHARLOTTE","NC","28277","United States","83","7045434622","Rack Room Shoes","35.0971424","-80.7805402","Sun 12:00 PM - 6:00 PM,Mon 10:00 AM - 9:00 PM,Tue 10:00 AM - 9:00 PM,Wed 10:00 AM - 9:00 PM,Thu 10:00 AM - 9:00 PM,Fri 10:00 AM - 9:00 PM,Sat 10:00 AM - 9:00 PM"
"rackroomshoes.com","https://www.rackroomshoes.com/store/601","PIEDMONT MARKETPLACE","1316 W WADE HAMPTON BLVD STE D","LYMAN","SC","29365","United States","601","8644190347","Rack Room Shoes","34.9411696","-82.2613406","Sun 12:00 PM - 7:00 PM,Mon 10:00 AM - 9:00 PM,Tue 10:00 AM - 9:00 PM,Wed 10:00 AM - 9:00 PM,Thu 10:00 AM - 9:00 PM,Fri 10:00 AM - 9:00 PM,Sat 10:00 AM - 9:00 PM"
"rackroomshoes.com","https://www.rackroomshoes.com/store/478","RIVERGATE CROSSING","12840 WALKER BRANCH DR STE 100","CHARLOTTE","NC","28273","United States","478","7045040239","Rack Room Shoes","35.1005292","-80.985208","Sun 12:00 PM - 6:00 PM,Mon 10:00 AM - 9:00 PM,Tue 10:00 AM - 9:00 PM,Wed 10:00 AM - 9:00 PM,Thu 10:00 AM - 9:00 PM,Fri 10:00 AM - 9:00 PM,Sat 10:00 AM - 9:00 PM"
"rackroomshoes.com","https://www.rackroomshoes.com/store/45","MATTHEWS FESTIVAL","1819 MATTHEWS TOWNSHIP PARKWAY","MATTHEWS","NC","28105","United States","45","7048478738","Rack Room Shoes","35.1257092","-80.7084906","Sun 12:00 PM - 6:00 PM,Mon 10:00 AM - 9:00 PM,Tue 10:00 AM - 9:00 PM,Wed 10:00 AM - 9:00 PM,Thu 10:00 AM - 9:00 PM,Fri 10:00 AM - 9:00 PM,Sat 10:00 AM - 9:00 PM"
"rackroomshoes.com","https://www.rackroomshoes.com/store/18","ABERDEEN COMMONS","11088 N US HIGHWAY 15 501 UNIT 400","ABERDEEN","NC","28315","United States","18","9102460055","Rack Room Shoes","35.1559755","-79.419696","Sun 12:00 PM - 6:00 PM,Mon 10:00 AM - 9:00 PM,Tue 10:00 AM - 9:00 PM,Wed 10:00 AM - 9:00 PM,Thu 10:00 AM - 9:00 PM,Fri 10:00 AM - 9:00 PM,Sat 10:00 AM - 9:00 PM"
"rackroomshoes.com","https://www.rackroomshoes.com/store/275","GAFFNEY PREMIUM OUTLETS","1 FACTORY SHOPS BLVD STE 425","GAFFNEY","SC","29341","United States","275","8644881607","Rack Room Shoes","35.0819782","-81.7121115","Sun 12:00 PM - 6:00 PM,Mon 11:00 AM - 7:00 PM,Tue 11:00 AM - 7:00 PM,Wed 11:00 AM - 7:00 PM,Thu 11:00 AM - 7:00 PM,Fri 10:00 AM - 8:00 PM,Sat 10:00 AM - 8:00 PM"
"rackroomshoes.com","https://www.rackroomshoes.com/store/738","CYPRESS BAY PLAZA","5167 HWY 70 W STE 30","MOREHEAD CITY","NC","28557","United States","738","2522400002","Rack Room Shoes","34.737028","-76.806361","Sun 12:00 PM - 6:00 PM,Mon 10:00 AM - 9:00 PM,Tue 10:00 AM - 9:00 PM,Wed 10:00 AM - 9:00 PM,Thu 10:00 AM - 9:00 PM,Fri 10:00 AM - 9:00 PM,Sat 10:00 AM - 9:00 PM"
"rackroomshoes.com","https://www.rackroomshoes.com/store/658","CHARLOTTE PREMIUM OUTLETS","5512 NEW FASHION WAY STE 972","CHARLOTTE","NC","28278","United States","658","7045884699","Rack Room Shoes","35.1700072","-80.9699715","Sun 10:00 AM - 7:00 PM,Mon 10:00 AM - 9:00 PM,Tue 10:00 AM - 9:00 PM,Wed 10:00 AM - 9:00 PM,Thu 10:00 AM - 9:00 PM,Fri 10:00 AM - 9:00 PM,Sat 10:00 AM - 9:00 PM"
"rackroomshoes.com","https://www.rackroomshoes.com/store/716","SHOPPES AT ALBERTVILLE","7360 US HWY 431 STE 5","ALBERTVILLE","AL","35950","United States","716","2568781549","Rack Room Shoes","33.7786944","-85.8945534","Sun 12:00 PM - 6:00 PM,Mon 10:00 AM - 9:00 PM,Tue 10:00 AM - 9:00 PM,Wed 10:00 AM - 9:00 PM,Thu 10:00 AM - 9:00 PM,Fri 10:00 AM - 9:00 PM,Sat 10:00 AM - 9:00 PM"
"rackroomshoes.com","https://www.rackroomshoes.com/store/496","COLONIAL PROPERTY ALABASTER PH II","320 SOUTH COLONIAL DR STE 3100","ALABASTER","AL","35007","United States","496","2056649322","Rack Room Shoes","33.2236009","-86.8037523","Sun 12:00 PM - 6:00 PM,Mon 10:00 AM - 9:00 PM,Tue 10:00 AM - 9:00 PM,Wed 10:00 AM - 9:00 PM,Thu 10:00 AM - 9:00 PM,Fri 10:00 AM - 9:00 PM,Sat 10:00 AM - 9:00 PM"
"rackroomshoes.com","https://www.rackroomshoes.com/store/3007","SOUTH BLVD. CHARLOTTE","2408 SOUTH BLVD","CHARLOTTE","NC","28203","United States","3007","7045234480","Off Broadway Shoe Warehouse","35.2042053","-80.8646752","Sun 11:00 AM - 7:00 PM,Mon 10:00 AM - 9:00 PM,Tue 10:00 AM - 9:00 PM,Wed 10:00 AM - 9:00 PM,Thu 10:00 AM - 9:00 PM,Fri 10:00 AM - 9:00 PM,Sat 10:00 AM - 9:00 PM"
"rackroomshoes.com","https://www.rackroomshoes.com/store/791","BELGATE SHOPPING CENTER","8411 IKEA BLVD. STE B","CHARLOTTE","NC","28262","United States","791","7045980709","Rack Room Shoes","35.290819","-80.761618","Sun 12:00 PM - 6:00 PM,Mon 10:00 AM - 9:00 PM,Tue 10:00 AM - 9:00 PM,Wed 10:00 AM - 9:00 PM,Thu 10:00 AM - 9:00 PM,Fri 10:00 AM - 9:00 PM,Sat 10:00 AM - 9:00 PM"
"rackroomshoes.com","https://www.rackroomshoes.com/store/195","BROOK HIGHLAND PLAZA","5287 HWY 280 SOUTH SUITE 231","BIRMINGHAM","AL","35242","United States","195","2059805750","Rack Room Shoes","33.422204","-86.681755","Sun 1:00 PM - 6:00 PM,Mon 10:00 AM - 9:00 PM,Tue 10:00 AM - 9:00 PM,Wed 10:00 AM - 9:00 PM,Thu 10:00 AM - 9:00 PM,Fri 10:00 AM - 9:00 PM,Sat 10:00 AM - 9:00 PM"
"rackroomshoes.com","https://www.rackroomshoes.com/store/700","OLIVE PLACE SHOPPING CENTER","780C LEONARD AVE","ALBEMARLE","NC","28001","United States","700","7049836158","Rack Room Shoes","35.3395796","-80.1775709","Sun 12:00 PM - 6:00 PM,Mon 10:00 AM - 9:00 PM,Tue 10:00 AM - 9:00 PM,Wed 10:00 AM - 9:00 PM,Thu 10:00 AM - 9:00 PM,Fri 10:00 AM - 9:00 PM,Sat 10:00 AM - 9:00 PM"
"rackroomshoes.com","https://www.rackroomshoes.com/store/265","RIVERCHASE GALLERIA","2000 RIVERCHASE GALLERIA SP 299A","HOOVER","AL","35244","United States","265","2059883499","Rack Room Shoes","33.3790531","-86.8087728","Sun 12:00 PM - 6:00 PM,Mon 10:00 AM - 9:00 PM,Tue 10:00 AM - 9:00 PM,Wed 10:00 AM - 9:00 PM,Thu 10:00 AM - 9:00 PM,Fri 10:00 AM - 9:00 PM,Sat 10:00 AM - 9:00 PM"
"rackroomshoes.com","https://www.rackroomshoes.com/store/151","MOUNT BERRY MALL","229 MOUNT BERRY SQ NE","ROME","GA","30165","United States","151","7062359309","Rack Room Shoes","34.301784","-85.1714539","Sun 12:00 PM - 6:00 PM,Mon 10:00 AM - 9:00 PM,Tue 10:00 AM - 9:00 PM,Wed 10:00 AM - 9:00 PM,Thu 10:00 AM - 9:00 PM,Fri 10:00 AM - 9:00 PM,Sat 10:00 AM - 9:00 PM"
"rackroomshoes.com","https://www.rackroomshoes.com/store/3067","PERIMETER WOODS","10235 PERIMETER PKWY STE A","CHARLOTTE","NC","28216","United States","3067","7045969507","Off Broadway Shoe Warehouse","35.347476","-80.853869","Sun 11:00 AM - 7:00 PM,Mon 10:00 AM - 9:00 PM,Tue 10:00 AM - 9:00 PM,Wed 10:00 AM - 9:00 PM,Thu 10:00 AM - 9:00 PM,Fri 10:00 AM - 9:00 PM,Sat 10:00 AM - 9:00 PM"
"rackroomshoes.com","https://www.rackroomshoes.com/store/358","CONCORD MILLS","8111 CONCORD MILLS BLVD STE 346","CONCORD","NC","28027","United States","358","7049797225","Rack Room Shoes","35.3686242","-80.7206188","Sun 12:00 PM - 7:00 PM,Mon 10:00 AM - 9:00 PM,Tue 10:00 AM - 9:00 PM,Wed 10:00 AM - 9:00 PM,Thu 10:00 AM - 9:00 PM,Fri 10:00 AM - 9:00 PM,Sat 10:00 AM - 9:00 PM"
"rackroomshoes.com","https://www.rackroomshoes.com/store/3085","CONCORD MILLS","8261 CONCORD MILLS BLVD","CONCORD","NC","28027","United States","3085","7049790365","Off Broadway Shoe Warehouse","35.3692837","-80.7210128","Sun 11:00 AM - 7:00 PM,Mon 10:00 AM - 9:00 PM,Tue 10:00 AM - 9:00 PM,Wed 10:00 AM - 9:00 PM,Thu 10:00 AM - 9:00 PM,Fri 10:00 AM - 9:00 PM,Sat 10:00 AM - 9:00 PM"
"rackroomshoes.com","https://www.rackroomshoes.com/store/633","FREMAUX TOWN CENTER","350 TOWN CENTER PARKWAY","SLIDELL","LA","70458","United States","633","9856430080","Rack Room Shoes","30.2641407","-89.7593549","Sun 11:00 AM - 7:00 PM,Mon 9:30 AM - 9:00 PM,Tue 9:30 AM - 9:00 PM,Wed 9:30 AM - 9:00 PM,Thu 9:30 AM - 9:00 PM,Fri 9:30 AM - 9:00 PM,Sat 9:30 AM - 9:00 PM"
"rackroomshoes.com","https://www.rackroomshoes.com/store/5115","FREMAUX TOWN CENTER","600 TOWN CENTER PARKWAY BLDG D","SLIDELL","LA","70458","United States","5115","9856907135","Off Broadway Shoe Warehouse","30.2692277","-89.7604326","Sun 11:00 AM - 7:00 PM,Mon 10:00 AM - 9:00 PM,Tue 10:00 AM - 9:00 PM,Wed 10:00 AM - 9:00 PM,Thu 10:00 AM - 9:00 PM,Fri 10:00 AM - 9:00 PM,Sat 10:00 AM - 9:00 PM"
"rackroomshoes.com","https://www.rackroomshoes.com/store/614","CALHOUN OUTLET MARKETPLACE","455 BELWOOD ROAD","CALHOUN","GA","30701","United States","614","7066029229","Rack Room Shoes","34.4619896","-84.9185353","Sun 11:00 AM - 7:00 PM,Mon 10:00 AM - 7:00 PM,Tue 10:00 AM - 7:00 PM,Wed 10:00 AM - 7:00 PM,Thu 10:00 AM - 7:00 PM,Fri 10:00 AM - 9:00 PM,Sat 10:00 AM - 9:00 PM"
"rackroomshoes.com","https://www.rackroomshoes.com/store/499","AFTON RIDGE","6230 BAYFIELD PKWY STE 600","CONCORD","NC","28027","United States","499","7047864374","Rack Room Shoes","35.416085","-80.6794823","Sun 12:00 PM - 6:00 PM,Mon 10:00 AM - 9:00 PM,Tue 10:00 AM - 9:00 PM,Wed 10:00 AM - 9:00 PM,Thu 10:00 AM - 9:00 PM,Fri 10:00 AM - 9:00 PM,Sat 10:00 AM - 9:00 PM"
"rackroomshoes.com","https://www.rackroomshoes.com/store/381","PROMENADE AT TUTWILER FARMS","1636 GASDEN HWY STE 100","BIRMINGHAM","AL","35235","United States","381","2056554243","Rack Room Shoes","33.6042521","-86.6393245","Sun 12:00 PM - 6:00 PM,Mon 10:00 AM - 9:00 PM,Tue 10:00 AM - 9:00 PM,Wed 10:00 AM - 9:00 PM,Thu 10:00 AM - 9:00 PM,Fri 10:00 AM - 9:00 PM,Sat 10:00 AM - 9:00 PM"
"rackroomshoes.com","https://www.rackroomshoes.com/store/755","NEW BERN MARKETPLACE","3565 MLK JR BLVD","NEW BERN","NC","28562","United States","755","2524949933","Rack Room Shoes","35.0970912","-77.1012801","Sun 12:00 PM - 6:00 PM,Mon 10:00 AM - 9:00 PM,Tue 10:00 AM - 9:00 PM,Wed 10:00 AM - 9:00 PM,Thu 10:00 AM - 9:00 PM,Fri 10:00 AM - 9:00 PM,Sat 10:00 AM - 9:00 PM"
"rackroomshoes.com","https://www.rackroomshoes.com/store/200","NORTHCROSS SHOPPING CENTER","9815 SAM FURR ROAD STE A","HUNTERSVILLE","NC","28078","United States","200","7048950205","Rack Room Shoes","35.44257","-80.8612587","Sun 12:00 PM - 6:00 PM,Mon 10:00 AM - 9:00 PM,Tue 10:00 AM - 9:00 PM,Wed 10:00 AM - 9:00 PM,Thu 10:00 AM - 9:00 PM,Fri 10:00 AM - 9:00 PM,Sat 10:00 AM - 9:00 PM"
"rackroomshoes.com","https://www.rackroomshoes.com/store/670","SHOPS AT CAMERON PLACE","3044 S HORNER BLVD","SANFORD","NC","27332","United States","670","9197189030","Rack Room Shoes","35.4493565","-79.1370223","Sun 12:00 PM - 6:00 PM,Mon 10:00 AM - 9:00 PM,Tue 10:00 AM - 9:00 PM,Wed 10:00 AM - 9:00 PM,Thu 10:00 AM - 9:00 PM,Fri 10:00 AM - 9:00 PM,Sat 10:00 AM - 9:00 PM"
"rackroomshoes.com","https://www.rackroomshoes.com/store/466","GOLDSBORO COMMONS","1215 N BERKELEY BLVD","GOLDSBORO","NC","27534","United States","466","9197788704","Rack Room Shoes","35.3833688","-77.9311622","Sun 12:00 PM - 6:00 PM,Mon 10:00 AM - 9:00 PM,Tue 10:00 AM - 9:00 PM,Wed 10:00 AM - 9:00 PM,Thu 10:00 AM - 9:00 PM,Fri 10:00 AM - 9:00 PM,Sat 10:00 AM - 9:00 PM"
"rackroomshoes.com","https://www.rackroomshoes.com/store/540","MIDTOWN VILLAGE","1800 MCFARLAND BLVD. EAST STE 512","TUSCALOOSA","AL","35404","United States","540","2053431836","Rack Room Shoes","33.1950693","-87.5279554","Sun 1:00 PM - 6:00 PM,Mon 10:00 AM - 9:00 PM,Tue 10:00 AM - 9:00 PM,Wed 10:00 AM - 9:00 PM,Thu 10:00 AM - 9:00 PM,Fri 10:00 AM - 9:00 PM,Sat 10:00 AM - 9:00 PM"
"rackroomshoes.com","https://www.rackroomshoes.com/store/429","WINSLOW BAY COMMONS","598-F RIVER HWY","MOORESVILLE","NC","28117","United States","429","7047999912","Rack Room Shoes","35.5983439","-80.8737971","Sun 12:00 PM - 6:00 PM,Mon 10:00 AM - 9:00 PM,Tue 10:00 AM - 9:00 PM,Wed 10:00 AM - 9:00 PM,Thu 10:00 AM - 9:00 PM,Fri 10:00 AM - 9:00 PM,Sat 10:00 AM - 9:00 PM"
"rackroomshoes.com","https://www.rackroomshoes.com/store/262","CAROLINA PREMIUM OUTLETS","1025 OUTLET CENTER DR STE 940","SMITHFIELD","NC","27577","United States","262","9199344222","Rack Room Shoes","35.5107585","-78.3122946","Sun 11:00 AM - 7:00 PM,Mon 10:00 AM - 9:00 PM,Tue 10:00 AM - 9:00 PM,Wed 10:00 AM - 9:00 PM,Thu 10:00 AM - 9:00 PM,Fri 10:00 AM - 9:00 PM,Sat 10:00 AM - 9:00 PM"
"rackroomshoes.com","https://www.rackroomshoes.com/store/201","SALISBURY","230 FAITH ROAD","SALISBURY","NC","28146","United States","201","7046470576","Rack Room Shoes","35.6526152","-80.4578062","Sun 12:00 PM - 6:00 PM,Mon 10:00 AM - 9:00 PM,Tue 10:00 AM - 9:00 PM,Wed 10:00 AM - 9:00 PM,Thu 10:00 AM - 9:00 PM,Fri 10:00 AM - 9:00 PM,Sat 10:00 AM - 9:00 PM"
"rackroomshoes.com","https://www.rackroomshoes.com/store/469","SOUTHRIDGE SHOPPING CENTER","6 MCKENNA RD","ARDEN","NC","28704","United States","469","8286848591","Rack Room Shoes","35.4465154","-82.5356441","Sun 12:00 PM - 6:00 PM,Mon 10:00 AM - 9:00 PM,Tue 10:00 AM - 9:00 PM,Wed 10:00 AM - 9:00 PM,Thu 10:00 AM - 9:00 PM,Fri 10:00 AM - 9:00 PM,Sat 10:00 AM - 9:00 PM"
"rackroomshoes.com","https://www.rackroomshoes.com/store/679","VILLAGE AT ELIZABETH ST","301 ELIZABETH ST STE 348","BOAZ","AL","35957","United States","679","2568406336","Rack Room Shoes","34.1965014","-86.160372","Sun 12:00 PM - 6:00 PM,Mon 10:00 AM - 8:00 PM,Tue 10:00 AM - 8:00 PM,Wed 10:00 AM - 8:00 PM,Thu 10:00 AM - 8:00 PM,Fri 10:00 AM - 8:00 PM,Sat 10:00 AM - 8:00 PM"
"rackroomshoes.com","https://www.rackroomshoes.com/store/102","DALTON OUTLET SHOPS","1001 MARKET ST STE 15","DALTON","GA","30720","United States","102","7062269554","Rack Room Shoes","34.7566334","-84.9990607","Sun 12:00 PM - 6:00 PM,Mon 10:00 AM - 9:00 PM,Tue 10:00 AM - 9:00 PM,Wed 10:00 AM - 9:00 PM,Thu 10:00 AM - 9:00 PM,Fri 10:00 AM - 9:00 PM,Sat 10:00 AM - 9:00 PM"
"rackroomshoes.com","https://www.rackroomshoes.com/store/337","PREMIER CENTRE","3450 HWY 190 STE 4","MANDEVILLE","LA","70471","United States","337","9856267328","Rack Room Shoes","30.3904475","-90.0858469","Sun 11:00 AM - 6:00 PM,Mon 9:30 AM - 9:00 PM,Tue 9:30 AM - 9:00 PM,Wed 9:30 AM - 9:00 PM,Thu 9:30 AM - 9:00 PM,Fri 9:30 AM - 9:00 PM,Sat 9:30 AM - 9:00 PM"
"rackroomshoes.com","https://www.rackroomshoes.com/store/775","VILLAGE MARKETPLACE","1416 EAST DIXIE DRIVE","ASHEBORO","NC","27203","United States","775","3366365413","Rack Room Shoes","35.6986245","-79.7861002","Sun 11:00 AM - 6:00 PM,Mon 10:00 AM - 9:00 PM,Tue 10:00 AM - 9:00 PM,Wed 10:00 AM - 9:00 PM,Thu 10:00 AM - 9:00 PM,Fri 10:00 AM - 9:00 PM,Sat 10:00 AM - 9:00 PM"
"rackroomshoes.com","https://www.rackroomshoes.com/store/526","VALLEY CORNERS SHOPPING CENTER","2183 US HIGHWAY 70 SE","HICKORY","NC","28602","United States","526","8283041041","Rack Room Shoes","35.7047363","-81.2978563","Sun 12:00 PM - 6:00 PM,Mon 10:00 AM - 9:00 PM,Tue 10:00 AM - 9:00 PM,Wed 10:00 AM - 9:00 PM,Thu 10:00 AM - 9:00 PM,Fri 10:00 AM - 9:00 PM,Sat 10:00 AM - 9:00 PM"
"rackroomshoes.com","https://www.rackroomshoes.com/store/691","ASHEVILLE OUTLETS","800 BREVARD ROAD STE 332","ASHEVILLE","NC","28806","United States","691","8286654561","Rack Room Shoes","35.5299517","-82.6030744","Sun 11:00 AM - 6:00 PM,Mon 10:00 AM - 6:00 PM,Tue 10:00 AM - 6:00 PM,Wed 10:00 AM - 6:00 PM,Thu 10:00 AM - 6:00 PM,Fri 10:00 AM - 9:00 PM,Sat 10:00 AM - 9:00 PM"
"rackroomshoes.com","https://www.rackroomshoes.com/store/630","WAYNESVILLE COMMONS","235 TOWN CENTER LOOP","WAYNESVILLE","NC","28786","United States","630","8284567024","Rack Room Shoes","35.46785","-83.0090704","Sun 12:00 PM - 6:00 PM,Mon 10:00 AM - 9:00 PM,Tue 10:00 AM - 9:00 PM,Wed 10:00 AM - 9:00 PM,Thu 10:00 AM - 9:00 PM,Fri 10:00 AM - 9:00 PM,Sat 10:00 AM - 9:00 PM"
"rackroomshoes.com","https://www.rackroomshoes.com/store/264","WHITE OAK CROSSING","135 SHENSTONE BLVD","GARNER","NC","27529","United States","264","9197732274","Rack Room Shoes","35.6950872","-78.5809026","Sun 12:00 PM - 6:00 PM,Mon 10:00 AM - 9:00 PM,Tue 10:00 AM - 9:00 PM,Wed 10:00 AM - 9:00 PM,Thu 10:00 AM - 9:00 PM,Fri 10:00 AM - 9:00 PM,Sat 10:00 AM - 9:00 PM"
"rackroomshoes.com","https://www.rackroomshoes.com/store/814","NEWTOWNE PLAZA","1537 EAST BROAD STREET","STATESVILLE","NC","28625","United States","814","7048839667","Rack Room Shoes","35.792327","-80.8596598","Sun 12:00 PM - 6:00 PM,Mon 10:00 AM - 8:00 PM,Tue 10:00 AM - 8:00 PM,Wed 10:00 AM - 8:00 PM,Thu 10:00 AM - 8:00 PM,Fri 10:00 AM - 8:00 PM,Sat 10:00 AM - 8:00 PM"
"rackroomshoes.com","https://www.rackroomshoes.com/store/134","CROSSROADS PLAZA","318 CROSSROADS BLVD","CARY","NC","27518","United States","134","9192332031","Rack Room Shoes","35.7595688","-78.7386162","Sun 12:00 PM - 6:00 PM,Mon 10:00 AM - 9:00 PM,Tue 10:00 AM - 9:00 PM,Wed 10:00 AM - 9:00 PM,Thu 10:00 AM - 9:00 PM,Fri 10:00 AM - 9:00 PM,Sat 10:00 AM - 9:00 PM"
"rackroomshoes.com","https://www.rackroomshoes.com/store/1001","LYNNCROFT SC","3160 EVANS ST","GREENVILLE","NC","27834","United States","1001","2522150968","Rack Room Shoes","35.5726605","-77.3839403","Sun 12:00 PM - 6:00 PM,Mon 10:00 AM - 9:00 PM,Tue 10:00 AM - 9:00 PM,Wed 10:00 AM - 9:00 PM,Thu 10:00 AM - 9:00 PM,Fri 10:00 AM - 9:00 PM,Sat 10:00 AM - 9:00 PM"
"rackroomshoes.com","https://www.rackroomshoes.com/store/618","PARK WEST VILLAGE","3017 MARKET CENTER DRIVE","MORRISVILLE","NC","27560","United States","618","9194813931","Rack Room Shoes","35.8048464","-78.8165297","Sun 12:00 PM - 6:00 PM,Mon 10:00 AM - 9:00 PM,Tue 10:00 AM - 9:00 PM,Wed 10:00 AM - 9:00 PM,Thu 10:00 AM - 9:00 PM,Fri 10:00 AM - 9:00 PM,Sat 10:00 AM - 9:00 PM"
"rackroomshoes.com","https://www.rackroomshoes.com/store/239","GREENVILLE MALL","714 GREENVILLE BLVD SE STE NW2","GREENVILLE","NC","27858","United States","239","2527563484","Rack Room Shoes","35.5856181","-77.3669","Sun 12:00 PM - 6:00 PM,Mon 10:00 AM - 9:00 PM,Tue 10:00 AM - 9:00 PM,Wed 10:00 AM - 9:00 PM,Thu 10:00 AM - 9:00 PM,Fri 10:00 AM - 9:00 PM,Sat 10:00 AM - 9:00 PM"
"rackroomshoes.com","https://www.rackroomshoes.com/store/474","SHOPPES AT MIDWAY PLANTATION","1004 E SHOPPES @ MIDWAY DRIVE","KNIGHTDALE","NC","27545","United States","474","9192174932","Rack Room Shoes","35.7972271","-78.5082082","Sun 12:00 PM - 6:00 PM,Mon 10:00 AM - 9:00 PM,Tue 10:00 AM - 9:00 PM,Wed 10:00 AM - 9:00 PM,Thu 10:00 AM - 9:00 PM,Fri 10:00 AM - 9:00 PM,Sat 10:00 AM - 9:00 PM"
"rackroomshoes.com","https://www.rackroomshoes.com/store/501","HERITAGE CROSSING","3401 RALEIGH ROAD PKWY W STE 2F","WILSON","NC","27896","United States","501","2522347463","Rack Room Shoes","35.742021","-77.9650439","Sun 12:00 PM - 6:00 PM,Mon 10:00 AM - 9:00 PM,Tue 10:00 AM - 9:00 PM,Wed 10:00 AM - 9:00 PM,Thu 10:00 AM - 9:00 PM,Fri 10:00 AM - 9:00 PM,Sat 10:00 AM - 9:00 PM"
"rackroomshoes.com","https://www.rackroomshoes.com/store/442","CRABTREE VALLEY MALL","4325 GLENWOOD AVE STE 1053","RALEIGH","NC","27612","United States","442","9197838924","Rack Room Shoes","35.8413294","-78.6814003","Sun 12:00 PM - 7:00 PM,Mon 10:00 AM - 9:00 PM,Tue 10:00 AM - 9:00 PM,Wed 10:00 AM - 9:00 PM,Thu 10:00 AM - 9:00 PM,Fri 10:00 AM - 9:00 PM,Sat 10:00 AM - 9:00 PM"
"rackroomshoes.com","https://www.rackroomshoes.com/store/676","PARKWAY PLAZA","205 PARKWAY DRIVE","FORT OGLETHORPE","GA","30742","United States","676","7068588772","Rack Room Shoes","34.9380275","-85.2194688","Sun 12:00 PM - 6:00 PM,Mon 10:00 AM - 9:00 PM,Tue 10:00 AM - 9:00 PM,Wed 10:00 AM - 9:00 PM,Thu 10:00 AM - 9:00 PM,Fri 10:00 AM - 9:00 PM,Sat 10:00 AM - 9:00 PM"
"rackroomshoes.com","https://www.rackroomshoes.com/store/42","THE STREETS AT SOUTHPOINT","6910 FAYETTEVILLE RD STE 199","DURHAM","NC","27713","United States","42","9198065131","Rack Room Shoes","35.9031077","-78.9415966","Sun 12:00 PM - 7:00 PM,Mon 10:00 AM - 9:00 PM,Tue 10:00 AM - 9:00 PM,Wed 10:00 AM - 9:00 PM,Thu 10:00 AM - 9:00 PM,Fri 10:00 AM - 9:00 PM,Sat 10:00 AM - 9:00 PM"
"rackroomshoes.com","https://www.rackroomshoes.com/store/52","BRIER CREEK COMMONS","8221 BRIER CREEK PKWY","RALEIGH","NC","27617","United States","52","9198062839","Rack Room Shoes","35.9092212","-78.7817594","Sun 12:00 PM - 6:00 PM,Mon 10:00 AM - 9:00 PM,Tue 10:00 AM - 9:00 PM,Wed 10:00 AM - 9:00 PM,Thu 10:00 AM - 9:00 PM,Fri 10:00 AM - 9:00 PM,Sat 10:00 AM - 9:00 PM"
"rackroomshoes.com","https://www.rackroomshoes.com/store/10","HIGH POINT MALL","265 EASTCHESTER DR STE 126","HIGH POINT","NC","27262","United States","10","3368893686","Rack Room Shoes","35.9844589","-80.0193447","Sun 12:00 PM - 6:00 PM,Mon 10:00 AM - 9:00 PM,Tue 10:00 AM - 9:00 PM,Wed 10:00 AM - 9:00 PM,Thu 10:00 AM - 9:00 PM,Fri 10:00 AM - 9:00 PM,Sat 10:00 AM - 9:00 PM"
"rackroomshoes.com","https://www.rackroomshoes.com/store/155","HAMILTON PLACE","2100 HAMILTON PLACE BLVD","CHATTANOOGA","TN","37421","United States","155","4238944359","Rack Room Shoes","35.0340089","-85.1587186","Sun 12:00 PM - 6:00 PM,Mon 10:00 AM - 9:00 PM,Tue 10:00 AM - 9:00 PM,Wed 10:00 AM - 9:00 PM,Thu 10:00 AM - 9:00 PM,Fri 10:00 AM - 9:00 PM,Sat 10:00 AM - 9:00 PM"
"rackroomshoes.com","https://www.rackroomshoes.com/store/735","FOUR SEASONS TOWN CENTRE","410 FOUR SEASONS BLVD STE130","GREENSBORO","NC","27427","United States","735","3365479357","Rack Room Shoes","36.0390162","-79.8376603","Sun 12:00 PM - 6:00 PM,Mon 10:00 AM - 9:00 PM,Tue 10:00 AM - 9:00 PM,Wed 10:00 AM - 9:00 PM,Thu 10:00 AM - 9:00 PM,Fri 10:00 AM - 9:00 PM,Sat 10:00 AM - 9:00 PM"
"rackroomshoes.com","https://www.rackroomshoes.com/store/779","CLEVELAND-BRADLEY SQUARE SHOPPING C","300 PAUL HUFF PKWY NW UNIT #500","CLEVELAND","TN","37312","United States","779","4234794158","Rack Room Shoes","35.207671","-84.849799","Sun 11:00 AM - 6:00 PM,Mon 10:00 AM - 9:00 PM,Tue 10:00 AM - 9:00 PM,Wed 10:00 AM - 9:00 PM,Thu 10:00 AM - 9:00 PM,Fri 10:00 AM - 9:00 PM,Sat 10:00 AM - 9:00 PM"
"rackroomshoes.com","https://www.rackroomshoes.com/store/15","HANES MALL","3320 SILAS CREEK PKWY STE 6608","WINSTON-SALEM","NC","27103","United States","15","3367686401","Rack Room Shoes","36.0703319","-80.3000694","Sun 12:00 PM - 6:00 PM,Mon 10:00 AM - 9:00 PM,Tue 10:00 AM - 9:00 PM,Wed 10:00 AM - 9:00 PM,Thu 10:00 AM - 9:00 PM,Fri 10:00 AM - 9:00 PM,Sat 10:00 AM - 9:00 PM"
"rackroomshoes.com","https://www.rackroomshoes.com/store/699","WAKE FOREST CROSSING II","12646 CAPITAL BLVD SUITE 100","WAKE FOREST","NC","27587","United States","699","9195700021","Rack Room Shoes","35.9867934","-78.5304117","Sun 12:00 PM - 6:00 PM,Mon 10:00 AM - 9:00 PM,Tue 10:00 AM - 9:00 PM,Wed 10:00 AM - 9:00 PM,Thu 10:00 AM - 9:00 PM,Fri 10:00 AM - 9:00 PM,Sat 10:00 AM - 9:00 PM"
"rackroomshoes.com","https://www.rackroomshoes.com/store/468","UNIVERSITY COMMONS","1451 UNIVERSITY DR STE B","BURLINGTON","NC","27215","United States","468","3365381698","Rack Room Shoes","36.0674792","-79.5225241","Sun 12:00 PM - 6:00 PM,Mon 10:00 AM - 9:00 PM,Tue 10:00 AM - 9:00 PM,Wed 10:00 AM - 9:00 PM,Thu 10:00 AM - 9:00 PM,Fri 10:00 AM - 9:00 PM,Sat 10:00 AM - 9:00 PM"
"rackroomshoes.com","https://www.rackroomshoes.com/store/300","FRIENDLY CENTER","620 FRIENDLY CENTER ROAD","GREENSBORO","NC","27408","United States","300","3362180680","Rack Room Shoes","36.083961","-79.8302214","Sun 12:00 PM - 6:00 PM,Mon 10:00 AM - 9:00 PM,Tue 10:00 AM - 9:00 PM,Wed 10:00 AM - 9:00 PM,Thu 10:00 AM - 9:00 PM,Fri 10:00 AM - 9:00 PM,Sat 10:00 AM - 9:00 PM"
"rackroomshoes.com","https://www.rackroomshoes.com/store/67","THRUWAY SHOPPING CENTER","220 S STRATFORD RD","WINSTON-SALEM","NC","27103","United States","67","3367219444","Rack Room Shoes","36.0932461","-80.2813048","Sun 12:00 PM - 6:00 PM,Mon 10:00 AM - 9:00 PM,Tue 10:00 AM - 9:00 PM,Wed 10:00 AM - 9:00 PM,Thu 10:00 AM - 9:00 PM,Fri 10:00 AM - 9:00 PM,Sat 10:00 AM - 9:00 PM"
"rackroomshoes.com","https://www.rackroomshoes.com/store/611","PIEDMONT OUTLET CENTER","4000 ARROWHEAD BLVD STE 660","MEBANE","NC","27302","United States","611","9195632027","Rack Room Shoes","36.0752113","-79.265773","Sun 11:00 AM - 7:00 PM,Mon 9:00 AM - 9:00 PM,Tue 9:00 AM - 9:00 PM,Wed 9:00 AM - 9:00 PM,Thu 9:00 AM - 9:00 PM,Fri 9:00 AM - 9:00 PM,Sat 9:00 AM - 9:00 PM"
"rackroomshoes.com","https://www.rackroomshoes.com/store/488","SOUTHSIDE SQUARE","1022-C SOUTH MAIN ST","KERNERSVILLE","NC","27284","United States","488","3369932501","Rack Room Shoes","36.1094779","-80.0979251","Sun 12:00 PM - 6:00 PM,Mon 10:00 AM - 9:00 PM,Tue 10:00 AM - 9:00 PM,Wed 10:00 AM - 9:00 PM,Thu 10:00 AM - 9:00 PM,Fri 10:00 AM - 9:00 PM,Sat 10:00 AM - 9:00 PM"
"rackroomshoes.com","https://www.rackroomshoes.com/store/39","NORTHWEST CENTRE","2809 BATTLEGROUND AVE","GREENSBORO","NC","27408","United States","39","3362825640","Rack Room Shoes","36.1106197","-79.8316439","Sun 12:00 PM - 6:00 PM,Mon 10:00 AM - 9:00 PM,Tue 10:00 AM - 9:00 PM,Wed 10:00 AM - 9:00 PM,Thu 10:00 AM - 9:00 PM,Fri 10:00 AM - 9:00 PM,Sat 10:00 AM - 9:00 PM"
"rackroomshoes.com","https://www.rackroomshoes.com/store/365","JEFFERSON VILLAGE","1610 HIGHWOODS BLVD STE F109","GREENSBORO","NC","27410","United States","365","3362997314","Rack Room Shoes","36.1117021","-79.8772359","Sun 12:00 PM - 6:00 PM,Mon 10:00 AM - 9:00 PM,Tue 10:00 AM - 9:00 PM,Wed 10:00 AM - 9:00 PM,Thu 10:00 AM - 9:00 PM,Fri 10:00 AM - 9:00 PM,Sat 10:00 AM - 9:00 PM"
"rackroomshoes.com","https://www.rackroomshoes.com/store/76","BELZ FACTORY OUTLET MALL","2624 TEASTER LANE","PIGEON FORGE","TN","37863","United States","76","8654530025","Rack Room Shoes","35.7940302","-83.554461","Sun 10:00 AM - 7:00 PM,Mon 10:00 AM - 7:00 PM,Tue 10:00 AM - 7:00 PM,Wed 10:00 AM - 7:00 PM,Thu 10:00 AM - 7:00 PM,Fri 10:00 AM - 7:00 PM,Sat 10:00 AM - 7:00 PM"
"rackroomshoes.com","https://www.rackroomshoes.com/store/309","PIGEON FORGE FACTORY OUTLET","2850 PARKWAY STE 8","PIGEON FORGE","TN","37863","United States","309","8659080920","Rack Room Shoes","35.79619","-83.5686339","Sun 10:00 AM - 7:00 PM,Mon 10:00 AM - 7:00 PM,Tue 10:00 AM - 7:00 PM,Wed 10:00 AM - 7:00 PM,Thu 10:00 AM - 7:00 PM,Fri 10:00 AM - 7:00 PM,Sat 10:00 AM - 7:00 PM"
"rackroomshoes.com","https://www.rackroomshoes.com/store/361","TANGER OUTLETS","310 SHOPPES ON THE PKWY STE 6","BLOWING ROCK","NC","28605","United States","361","8282953523","Rack Room Shoes","36.1402245","-81.6708362","Sun 10:00 AM - 7:00 PM,Mon 10:00 AM - 7:00 PM,Tue 10:00 AM - 7:00 PM,Wed 10:00 AM - 7:00 PM,Thu 10:00 AM - 7:00 PM,Fri 10:00 AM - 7:00 PM,Sat 10:00 AM - 7:00 PM"
"rackroomshoes.com","https://www.rackroomshoes.com/store/456","TANGER FACTORY OUTLETS @FIVE OAKS","1645 PARKWAY STE. 810","SEVIERVILLE","TN","37862","United States","456","8654531401","Rack Room Shoes","35.8316462","-83.5674272","Sun 10:00 AM - 7:00 PM,Mon 10:00 AM - 7:00 PM,Tue 10:00 AM - 7:00 PM,Wed 10:00 AM - 7:00 PM,Thu 10:00 AM - 7:00 PM,Fri 10:00 AM - 7:00 PM,Sat 10:00 AM - 7:00 PM"
"rackroomshoes.com","https://www.rackroomshoes.com/store/799","MARYVILLE COMMONS","728 WATKINS RD","MARYVILLE","TN","37801","United States","799","8659777685","Rack Room Shoes","35.7504611","-83.9914749","Sun 12:00 PM - 6:00 PM,Mon 10:00 AM - 9:00 PM,Tue 10:00 AM - 9:00 PM,Wed 10:00 AM - 9:00 PM,Thu 10:00 AM - 9:00 PM,Fri 10:00 AM - 9:00 PM,Sat 10:00 AM - 9:00 PM"
"rackroomshoes.com","https://www.rackroomshoes.com/store/334","TANGER OUTLET CENTER","2100 TANGER BLVD. STE 103","GONZALES","LA","70737","United States","334","2256474347","Rack Room Shoes","30.2137519","-90.9533328","Sun 10:00 AM - 7:00 PM,Mon 9:00 AM - 9:00 PM,Tue 9:00 AM - 9:00 PM,Wed 9:00 AM - 9:00 PM,Thu 9:00 AM - 9:00 PM,Fri 9:00 AM - 9:00 PM,Sat 9:00 AM - 9:00 PM"
"rackroomshoes.com","https://www.rackroomshoes.com/store/628","THE SHOPPES OF MADISON","8201 HWY 72 WEST SUITE B","MADISON","AL","35758","United States","628","2567219919","Rack Room Shoes","34.7490517","-86.7552293","Sun 12:00 PM - 6:00 PM,Mon 10:00 AM - 9:00 PM,Tue 10:00 AM - 9:00 PM,Wed 10:00 AM - 9:00 PM,Thu 10:00 AM - 9:00 PM,Fri 10:00 AM - 9:00 PM,Sat 10:00 AM - 9:00 PM"
"rackroomshoes.com","https://www.rackroomshoes.com/store/770","GREENEVILLE COMMONS","1365 TUSCULUM BLVD","GREENEVILLE","TN","37745","United States","770","4236360010","Rack Room Shoes","36.1742823","-82.7955639","Sun 12:00 PM - 6:00 PM,Mon 10:00 AM - 9:00 PM,Tue 10:00 AM - 9:00 PM,Wed 10:00 AM - 9:00 PM,Thu 10:00 AM - 9:00 PM,Fri 10:00 AM - 9:00 PM,Sat 10:00 AM - 9:00 PM"
"rackroomshoes.com","https://www.rackroomshoes.com/store/5016","DEANE HILL SC","264 MORRELL ROAD","KNOXVILLE","TN","37919","United States","5016","8657699996","Off Broadway Shoe Warehouse","35.9241449","-84.0312558","Sun 12:00 PM - 7:00 PM,Mon 10:00 AM - 9:00 PM,Tue 10:00 AM - 9:00 PM,Wed 10:00 AM - 9:00 PM,Thu 10:00 AM - 9:00 PM,Fri 10:00 AM - 9:00 PM,Sat 10:00 AM - 9:00 PM"
"rackroomshoes.com","https://www.rackroomshoes.com/store/30","WEST TOWN MALL","7600 KINGSTON PIKE STE 1182","KNOXVILLE","TN","37919","United States","30","8655394713","Rack Room Shoes","35.9248969","-84.0383436","Sun 12:00 PM - 6:00 PM,Mon 11:00 AM - 7:00 PM,Tue 11:00 AM - 7:00 PM,Wed 11:00 AM - 7:00 PM,Thu 11:00 AM - 7:00 PM,Fri 10:00 AM - 8:00 PM,Sat 10:00 AM - 8:00 PM"
"rackroomshoes.com","https://www.rackroomshoes.com/store/73","TURKEY CREEK PAVILLION","10984 PARKSIDE DR","KNOXVILLE","TN","37934","United States","73","8656711414","Rack Room Shoes","35.9022579","-84.1489961","Sun 11:00 AM - 6:00 PM,Mon 10:00 AM - 9:00 PM,Tue 10:00 AM - 9:00 PM,Wed 10:00 AM - 9:00 PM,Thu 10:00 AM - 9:00 PM,Fri 10:00 AM - 9:00 PM,Sat 10:00 AM - 9:00 PM"
"rackroomshoes.com","https://www.rackroomshoes.com/store/3086","TURKEY CREEK PAVILION","11449 PARKSIDE DRIVE","KNOXVILLE","TN","37934","United States","3086","8657771004","Off Broadway Shoe Warehouse","35.9004946","-84.1645187","Sun 12:00 PM - 6:00 PM,Mon 10:00 AM - 9:00 PM,Tue 10:00 AM - 9:00 PM,Wed 10:00 AM - 9:00 PM,Thu 10:00 AM - 9:00 PM,Fri 10:00 AM - 9:00 PM,Sat 10:00 AM - 9:00 PM"
"rackroomshoes.com","https://www.rackroomshoes.com/store/17","THE MALL AT JOHNSON CITY","2011 N. ROAN STREET SPACE D3","JOHNSON CITY","TN","37601","United States","17","4238549145","Rack Room Shoes","36.3387712","-82.3785384","Sun 12:00 PM - 6:00 PM,Mon 10:00 AM - 9:00 PM,Tue 10:00 AM - 9:00 PM,Wed 10:00 AM - 9:00 PM,Thu 10:00 AM - 9:00 PM,Fri 10:00 AM - 9:00 PM,Sat 10:00 AM - 9:00 PM"
"rackroomshoes.com","https://www.rackroomshoes.com/store/698","MAIN STREET AT OAK RIDGE","747 W MAIN ST","OAK RIDGE","TN","37830","United States","698","8654821850","Rack Room Shoes","36.0100938","-84.2558242","Sun 12:00 PM - 6:00 PM,Mon 10:00 AM - 9:00 PM,Tue 10:00 AM - 9:00 PM,Wed 10:00 AM - 9:00 PM,Thu 10:00 AM - 9:00 PM,Fri 10:00 AM - 9:00 PM,Sat 10:00 AM - 9:00 PM"
"rackroomshoes.com","https://www.rackroomshoes.com/store/184","THE DANVILLE MALL","325 PIEDMONT DRIVE STE 535","DANVILLE","VA","24540","United States","184","4347925025","Rack Room Shoes","36.5942591","-79.4211567","Sun 12:00 PM - 6:00 PM,Mon 10:00 AM - 9:00 PM,Tue 10:00 AM - 9:00 PM,Wed 10:00 AM - 9:00 PM,Thu 10:00 AM - 9:00 PM,Fri 10:00 AM - 9:00 PM,Sat 10:00 AM - 9:00 PM"
"rackroomshoes.com","https://www.rackroomshoes.com/store/92","TANGER FACTORY OUTLET CENTER","7100 S CROATAN HWY STE 140","NAGS HEAD","NC","27959","United States","92","2524419288","Rack Room Shoes","35.9133521","-75.6027131","Sun 11:00 AM - 6:00 PM,Mon 10:00 AM - 6:00 PM,Tue 10:00 AM - 6:00 PM,Wed 10:00 AM - 6:00 PM,Thu 10:00 AM - 6:00 PM,Fri 10:00 AM - 6:00 PM,Sat 10:00 AM - 6:00 PM"
"rackroomshoes.com","https://www.rackroomshoes.com/store/788","DOGWOOD PROMENADE","130 PROMENADE BLVD","FLOWOOD","MS","39232","United States","788","6019926246","Rack Room Shoes","32.3424874","-90.0629624","Sun 12:00 PM - 6:00 PM,Mon 10:00 AM - 9:00 PM,Tue 10:00 AM - 9:00 PM,Wed 10:00 AM - 9:00 PM,Thu 10:00 AM - 9:00 PM,Fri 10:00 AM - 9:00 PM,Sat 10:00 AM - 9:00 PM"
"rackroomshoes.com","https://www.rackroomshoes.com/store/631","OUTLETS OF MISSISSIPPI","200 BASS PRO DRIVE STE 260","PEARL","MS","39208","United States","631","6019399232","Rack Room Shoes","32.2741569","-90.1538875","Sun 12:00 PM - 7:00 PM,Mon 10:00 AM - 9:00 PM,Tue 10:00 AM - 9:00 PM,Wed 10:00 AM - 9:00 PM,Thu 10:00 AM - 9:00 PM,Fri 10:00 AM - 9:00 PM,Sat 10:00 AM - 9:00 PM"
"rackroomshoes.com","https://www.rackroomshoes.com/store/79","VILLAGE OF MARTINSVILLE","240 COMMONWEALTH BLVD W SPC 310","MARTINSVILLE","VA","24112","United States","79","2767900332","Rack Room Shoes","36.6980129","-79.8780322","Sun 12:00 PM - 6:00 PM,Mon 10:00 AM - 9:00 PM,Tue 10:00 AM - 9:00 PM,Wed 10:00 AM - 9:00 PM,Thu 10:00 AM - 9:00 PM,Fri 10:00 AM - 9:00 PM,Sat 10:00 AM - 9:00 PM"
"rackroomshoes.com","https://www.rackroomshoes.com/store/632","DARE CENTRE","1700 NORTH CROATAN HWY; MILE POST 7","KILL DEVIL HILLS","NC","27948","United States","632","2522551400","Rack Room Shoes","36.032419","-75.6740823","Sun 12:00 PM - 6:00 PM,Mon 10:00 AM - 9:00 PM,Tue 10:00 AM - 9:00 PM,Wed 10:00 AM - 9:00 PM,Thu 10:00 AM - 9:00 PM,Fri 10:00 AM - 9:00 PM,Sat 10:00 AM - 9:00 PM"
"rackroomshoes.com","https://www.rackroomshoes.com/store/225","EAST STONE COMMONS","2003 N EASTMAN RD STE 100","KINGSPORT","TN","37660","United States","225","4232466495","Rack Room Shoes","36.5440873","-82.5167974","Sun 12:00 PM - 6:00 PM,Mon 10:00 AM - 9:00 PM,Tue 10:00 AM - 9:00 PM,Wed 10:00 AM - 9:00 PM,Thu 10:00 AM - 9:00 PM,Fri 10:00 AM - 9:00 PM,Sat 10:00 AM - 9:00 PM"
"rackroomshoes.com","https://www.rackroomshoes.com/store/786","KINGSPORT PAVILLION","2626 EAST STONE DR","KINGSPORT","TN","37660","United States","786","4232470024","Rack Room Shoes","36.5513851","-82.4932057","Sun 12:00 PM - 6:00 PM,Mon 10:00 AM - 9:00 PM,Tue 10:00 AM - 9:00 PM,Wed 10:00 AM - 9:00 PM,Thu 10:00 AM - 9:00 PM,Fri 10:00 AM - 9:00 PM,Sat 10:00 AM - 9:00 PM"
"rackroomshoes.com","https://www.rackroomshoes.com/store/662","THE PINNACLE","554 PINNACLE PARKWAY UNIT 733","BRISTOL","TN","37620","United States","662","4236520580","Rack Room Shoes","36.5952009","-82.2562502","Sun 12:00 PM - 6:00 PM,Mon 10:00 AM - 9:00 PM,Tue 10:00 AM - 9:00 PM,Wed 10:00 AM - 9:00 PM,Thu 10:00 AM - 9:00 PM,Fri 10:00 AM - 9:00 PM,Sat 10:00 AM - 9:00 PM"
"rackroomshoes.com","https://www.rackroomshoes.com/store/688","SHOPPES AT TANGLEWOOD","3850 CONLON WAY STE H","ELIZABETH CITY","NC","27909","United States","688","2523304954","Rack Room Shoes","36.2962283","-76.2947936","Sun 12:00 PM - 6:00 PM,Mon 10:00 AM - 9:00 PM,Tue 10:00 AM - 9:00 PM,Wed 10:00 AM - 9:00 PM,Thu 10:00 AM - 9:00 PM,Fri 10:00 AM - 9:00 PM,Sat 10:00 AM - 9:00 PM"
"rackroomshoes.com","https://www.rackroomshoes.com/store/258","CROSSVILLE OUTLET CENTER","228 INTERSTATE DR STE 126","CROSSVILLE","TN","38555","United States","258","9314569488","Rack Room Shoes","35.981535","-85.018464","Sun 1:00 PM - 6:00 PM,Mon 10:00 AM - 7:00 PM,Tue 10:00 AM - 7:00 PM,Wed 10:00 AM - 7:00 PM,Thu 10:00 AM - 7:00 PM,Fri 10:00 AM - 7:00 PM,Sat 10:00 AM - 7:00 PM"
"rackroomshoes.com","https://www.rackroomshoes.com/store/326","JACKSON PLAZA","377 W JACKSON ST STE 7D","COOKEVILLE","TN","38501","United States","326","9315256414","Rack Room Shoes","36.1570802","-85.5180926","Sun 12:00 PM - 6:00 PM,Mon 10:00 AM - 9:00 PM,Tue 10:00 AM - 9:00 PM,Wed 10:00 AM - 9:00 PM,Thu 10:00 AM - 9:00 PM,Fri 10:00 AM - 9:00 PM,Sat 10:00 AM - 9:00 PM"
"rackroomshoes.com","https://www.rackroomshoes.com/store/119","SPRADLIN FARM SHOPPING CENTER","170 CONSTON AVE","CHRISTIANSBURG","VA","24073","United States","119","5403812092","Rack Room Shoes","37.1586844","-80.4247413","Sun 12:00 PM - 6:00 PM,Mon 9:30 AM - 9:00 PM,Tue 9:30 AM - 9:00 PM,Wed 9:30 AM - 9:00 PM,Thu 9:30 AM - 9:00 PM,Fri 9:30 AM - 9:00 PM,Sat 9:30 AM - 9:00 PM"
"rackroomshoes.com","https://www.rackroomshoes.com/store/521","STIRLING LAFAYETTE S/C","3001 LOUISIANA AVE STE 100","LAFAYETTE","LA","70501","United States","521","3372344673","Rack Room Shoes","30.2633559","-91.9959526","Sun 12:00 PM - 6:00 PM,Mon 10:00 AM - 9:00 PM,Tue 10:00 AM - 9:00 PM,Wed 10:00 AM - 9:00 PM,Thu 10:00 AM - 9:00 PM,Fri 10:00 AM - 9:00 PM,Sat 10:00 AM - 9:00 PM"
"rackroomshoes.com","https://www.rackroomshoes.com/store/5114","AMBASSADOR TOWN CENTER","111 MEADOW FARM RD STE 130","LAFAYETTE","LA","70508","United States","5114","3374060165","Off Broadway Shoe Warehouse","30.1579577","-92.0448479","Sun 11:00 AM - 7:00 PM,Mon 10:00 AM - 9:00 PM,Tue 10:00 AM - 9:00 PM,Wed 10:00 AM - 9:00 PM,Thu 10:00 AM - 9:00 PM,Fri 10:00 AM - 9:00 PM,Sat 10:00 AM - 9:00 PM"
"rackroomshoes.com","https://www.rackroomshoes.com/store/448","RIVER MARKETPLACE","4401 AMBASSADOR CAFFERY B8 STE 300","LAFAYETTE","LA","70508","United States","448","3379819989","Rack Room Shoes","30.1599025","-92.0486348","Sun 12:00 PM - 6:00 PM,Mon 10:00 AM - 9:00 PM,Tue 10:00 AM - 9:00 PM,Wed 10:00 AM - 9:00 PM,Thu 10:00 AM - 9:00 PM,Fri 10:00 AM - 9:00 PM,Sat 10:00 AM - 9:00 PM"
"rackroomshoes.com","https://www.rackroomshoes.com/store/3069","THE AVENUE AT MURFREESBORO","2615 MEDICAL CENTER PKWY STE 600","MURFREESBORO","TN","37129","United States","3069","6154945048","Off Broadway Shoe Warehouse","35.8616097","-86.448065","Sun 11:00 AM - 6:30 PM,Mon 10:00 AM - 9:00 PM,Tue 10:00 AM - 9:00 PM,Wed 10:00 AM - 9:00 PM,Thu 10:00 AM - 9:00 PM,Fri 10:00 AM - 9:00 PM,Sat 10:00 AM - 9:00 PM"
"rackroomshoes.com","https://www.rackroomshoes.com/store/66","HUNTING HILLS PLAZA","4210 FRANKLIN RD SW SUITE C","ROANOKE","VA","24014","United States","66","5407744827","Rack Room Shoes","37.2241698","-79.9656072","Sun 12:00 PM - 6:00 PM,Mon 10:00 AM - 9:00 PM,Tue 10:00 AM - 9:00 PM,Wed 10:00 AM - 9:00 PM,Thu 10:00 AM - 9:00 PM,Fri 10:00 AM - 9:00 PM,Sat 10:00 AM - 9:00 PM"
"rackroomshoes.com","https://www.rackroomshoes.com/store/484","COLUMBIA MARKETPLACE","821 S JAMES CAMPBELL BLVD STE D","COLUMBIA","TN","38401","United States","484","9314909137","Rack Room Shoes","35.5966198","-87.0600938","Sun 11:00 AM - 6:00 PM,Mon 9:30 AM - 9:00 PM,Tue 9:30 AM - 9:00 PM,Wed 9:30 AM - 9:00 PM,Thu 9:30 AM - 9:00 PM,Fri 9:30 AM - 9:00 PM,Sat 9:30 AM - 9:00 PM"
"rackroomshoes.com","https://www.rackroomshoes.com/store/96","CROSSWAYS SHOPPING CENTER","1412 GREENBRIER PKWY STE 101","CHESAPEAKE","VA","23320","United States","96","7573660280","Rack Room Shoes","36.7772076","-76.2345595","Sun 12:00 PM - 6:00 PM,Mon 10:00 AM - 9:00 PM,Tue 10:00 AM - 9:00 PM,Wed 10:00 AM - 9:00 PM,Thu 10:00 AM - 9:00 PM,Fri 10:00 AM - 9:00 PM,Sat 10:00 AM - 9:00 PM"
"rackroomshoes.com","https://www.rackroomshoes.com/store/327","CHESAPEAKE SQUARE","4200 PORTSMOUTH BLVD. SP 752","CHESAPEAKE","VA","23321","United States","327","7574055501","Rack Room Shoes","36.8263889","-76.4144444","Sun 12:00 PM - 6:00 PM,Mon 10:00 AM - 9:00 PM,Tue 10:00 AM - 9:00 PM,Wed 10:00 AM - 9:00 PM,Thu 10:00 AM - 9:00 PM,Fri 10:00 AM - 9:00 PM,Sat 10:00 AM - 9:00 PM"
"rackroomshoes.com","https://www.rackroomshoes.com/store/260","GREENBRIER MALL","1401 GREENBRIER PARKWAY SOUTH","CHESAPEAKE","VA","23320","United States","260","7574247990","Rack Room Shoes","36.7796122","-76.227374","Sun 12:00 PM - 6:00 PM,Mon 11:00 AM - 7:00 PM,Tue 11:00 AM - 7:00 PM,Wed 11:00 AM - 7:00 PM,Thu 11:00 AM - 7:00 PM,Fri 11:00 AM - 8:00 PM,Sat 11:00 AM - 8:00 PM"
"rackroomshoes.com","https://www.rackroomshoes.com/store/554","LANDSTOWN COMMONS","3300 PRINCESS ANNE RD STE 745","VIRGINIA BEACH","VA","23456","United States","554","7573684414","Rack Room Shoes","36.7725167","-76.0850394","Sun 11:00 AM - 6:00 PM,Mon 10:00 AM - 9:00 PM,Tue 10:00 AM - 9:00 PM,Wed 10:00 AM - 9:00 PM,Thu 10:00 AM - 9:00 PM,Fri 10:00 AM - 9:00 PM,Sat 10:00 AM - 9:00 PM"
"rackroomshoes.com","https://www.rackroomshoes.com/store/14","VALLEY VIEW STATION","4744 VALLEY VIEW BLVD","ROANOKE","VA","24012","United States","14","5403665174","Rack Room Shoes","37.3012726","-79.9559484","Sun 12:00 PM - 6:00 PM,Mon 10:00 AM - 9:00 PM,Tue 10:00 AM - 9:00 PM,Wed 10:00 AM - 9:00 PM,Thu 10:00 AM - 9:00 PM,Fri 10:00 AM - 9:00 PM,Sat 10:00 AM - 9:00 PM"
"rackroomshoes.com","https://www.rackroomshoes.com/store/389","RED MILL COMMONS","1169 NIMMO PKWY STE 226","VIRGINIA BEACH","VA","23456","United States","389","7574279481","Rack Room Shoes","36.760966","-76.01062","Sun 11:00 AM - 6:00 PM,Mon 10:00 AM - 9:00 PM,Tue 10:00 AM - 9:00 PM,Wed 10:00 AM - 9:00 PM,Thu 10:00 AM - 9:00 PM,Fri 10:00 AM - 9:00 PM,Sat 10:00 AM - 9:00 PM"
"rackroomshoes.com","https://www.rackroomshoes.com/store/524","THE CROSSINGS OF SPRING HILL","1026 CROSSINGS BLVD","SPRING HILL","TN","37174","United States","524","9314862400","Rack Room Shoes","35.7396223","-86.9401693","Sun 12:00 PM - 6:00 PM,Mon 10:00 AM - 9:00 PM,Tue 10:00 AM - 9:00 PM,Wed 10:00 AM - 9:00 PM,Thu 10:00 AM - 9:00 PM,Fri 10:00 AM - 9:00 PM,Sat 10:00 AM - 9:00 PM"
"rackroomshoes.com","https://www.rackroomshoes.com/store/3107","PEMBROKE MALL","4554 VIRGINIA BEACH BLVD SUITE 190","VIRGINIA BEACH","VA","23462","United States","3107","7576878825","Rack Room Shoes","36.8459401","-76.1343962","Sun 11:00 AM - 6:00 PM,Mon 10:00 AM - 9:00 PM,Tue 10:00 AM - 9:00 PM,Wed 10:00 AM - 9:00 PM,Thu 10:00 AM - 9:00 PM,Fri 10:00 AM - 9:00 PM,Sat 10:00 AM - 9:00 PM"
"rackroomshoes.com","https://www.rackroomshoes.com/store/116","WARDS CROSSING","4026 E WARDS RD","LYNCHBURG","VA","24502","United States","116","4342378568","Rack Room Shoes","37.3474003","-79.1910917","Sun 12:00 PM - 6:00 PM,Mon 10:00 AM - 9:00 PM,Tue 10:00 AM - 9:00 PM,Wed 10:00 AM - 9:00 PM,Thu 10:00 AM - 9:00 PM,Fri 10:00 AM - 9:00 PM,Sat 10:00 AM - 9:00 PM"
"rackroomshoes.com","https://www.rackroomshoes.com/store/701","NORFOLK PREMIUM OUTLETS","1600 PREMIUM OUTLETS BLVD STE 881","NORFOLK","VA","23502","United States","701","7579662464","Rack Room Shoes","36.8819171","-76.2004048","Sun 12:00 PM - 6:00 PM,Mon 11:00 AM - 7:00 PM,Tue 11:00 AM - 7:00 PM,Wed 11:00 AM - 7:00 PM,Thu 11:00 AM - 7:00 PM,Fri 10:00 AM - 8:00 PM,Sat 10:00 AM - 8:00 PM"
"rackroomshoes.com","https://www.rackroomshoes.com/store/331","LEBANON OUTLET VILLAGE","440 OUTLET VILLAGE BLVD","LEBANON","TN","37090","United States","331","6154441551","Rack Room Shoes","36.179973","-86.305858","Sun 10:00 AM - 7:00 PM,Mon 10:00 AM - 9:00 PM,Tue 10:00 AM - 9:00 PM,Wed 10:00 AM - 9:00 PM,Thu 10:00 AM - 9:00 PM,Fri 10:00 AM - 9:00 PM,Sat 10:00 AM - 9:00 PM"
"rackroomshoes.com","https://www.rackroomshoes.com/store/494","COOL SPRINGS GALLERIA","1800 GALLERIA BLVD STE 2250","FRANKLIN","TN","37067","United States","494","6157789612","Rack Room Shoes","35.958367","-86.8134629","Sun 12:00 PM - 6:00 PM,Mon 10:00 AM - 9:00 PM,Tue 10:00 AM - 9:00 PM,Wed 10:00 AM - 9:00 PM,Thu 10:00 AM - 9:00 PM,Fri 10:00 AM - 9:00 PM,Sat 10:00 AM - 9:00 PM"
"rackroomshoes.com","https://www.rackroomshoes.com/store/555","TRADEMART SHOPPING CENTER","14659 NORTH US HWY 25 E","CORBIN","KY","40701","United States","555","6062589400","Rack Room Shoes","36.9648934","-84.0826757","Sun 12:00 PM - 6:00 PM,Mon 10:00 AM - 9:00 PM,Tue 10:00 AM - 9:00 PM,Wed 10:00 AM - 9:00 PM,Thu 10:00 AM - 9:00 PM,Fri 10:00 AM - 9:00 PM,Sat 10:00 AM - 9:00 PM"
"rackroomshoes.com","https://www.rackroomshoes.com/store/790","MERCURY PLAZA","107 MARKETPLACE DR","HAMPTON","VA","23666","United States","790","7572392280","Rack Room Shoes","37.0379165","-76.4027822","Sun 12:00 PM - 6:00 PM,Mon 10:00 AM - 9:00 PM,Tue 10:00 AM - 9:00 PM,Wed 10:00 AM - 9:00 PM,Thu 10:00 AM - 9:00 PM,Fri 10:00 AM - 9:00 PM,Sat 10:00 AM - 9:00 PM"
"rackroomshoes.com","https://www.rackroomshoes.com/store/506","PROVIDENCE MARKETPLACE","401 S MOUNT JULIET RD STE 406","MOUNT JULIET","TN","37122","United States","506","6157732580","Rack Room Shoes","36.1671242","-86.5112947","Sun 12:00 PM - 6:00 PM,Mon 10:00 AM - 9:00 PM,Tue 10:00 AM - 9:00 PM,Wed 10:00 AM - 9:00 PM,Thu 10:00 AM - 9:00 PM,Fri 10:00 AM - 9:00 PM,Sat 10:00 AM - 9:00 PM"
"rackroomshoes.com","https://www.rackroomshoes.com/store/393","COMMONWEALTH CENTRE","4808 COMMONWEALTH CENTRE PKWY","MIDLOTHIAN","VA","23112","United States","393","8047445180","Rack Room Shoes","37.4175132","-77.6319203","Sun 12:00 PM - 6:00 PM,Mon 10:00 AM - 9:00 PM,Tue 10:00 AM - 9:00 PM,Wed 10:00 AM - 9:00 PM,Thu 10:00 AM - 9:00 PM,Fri 10:00 AM - 9:00 PM,Sat 10:00 AM - 9:00 PM"
"rackroomshoes.com","https://www.rackroomshoes.com/store/617","OPRY MILLS","331 OPRY MILLS DRIVE","NASHVILLE","TN","37214","United States","617","6156004545","Rack Room Shoes","36.2006958","-86.6914281","Sun 11:00 AM - 7:00 PM,Mon 10:00 AM - 9:00 PM,Tue 10:00 AM - 9:00 PM,Wed 10:00 AM - 9:00 PM,Thu 10:00 AM - 9:00 PM,Fri 10:00 AM - 9:00 PM,Sat 10:00 AM - 9:00 PM"
"rackroomshoes.com","https://www.rackroomshoes.com/store/5119","OPRY MILLS","357 OPRY MILLS DR","NASHVILLE","TN","37214","United States","5119","6158004783","Off Broadway Shoe Warehouse","36.200253","-86.692455","Sun 11:00 AM - 7:00 PM,Mon 10:00 AM - 9:00 PM,Tue 10:00 AM - 9:00 PM,Wed 10:00 AM - 9:00 PM,Thu 10:00 AM - 9:00 PM,Fri 10:00 AM - 9:00 PM,Sat 10:00 AM - 9:00 PM"
"rackroomshoes.com","https://www.rackroomshoes.com/store/572","OXFORD GALLERIA","2305 WEST JACKSON AVE SUITE 213","OXFORD","MS","38655","United States","572","6622363412","Rack Room Shoes","34.3643466","-89.5631015","Sun 12:00 PM - 6:00 PM,Mon 10:00 AM - 9:00 PM,Tue 10:00 AM - 9:00 PM,Wed 10:00 AM - 9:00 PM,Thu 10:00 AM - 9:00 PM,Fri 10:00 AM - 9:00 PM,Sat 10:00 AM - 9:00 PM"
"rackroomshoes.com","https://www.rackroomshoes.com/store/5128","ONE BELLEVUE PLACE","8153 SAWYER BROWN RD","NASHVILLE","TN","37221","United States","5128","6159023919","Off Broadway Shoe Warehouse","36.0817699","-86.9447863","Sun 11:00 AM - 6:00 PM,Mon 10:00 AM - 9:00 PM,Tue 10:00 AM - 9:00 PM,Wed 10:00 AM - 9:00 PM,Thu 10:00 AM - 9:00 PM,Fri 10:00 AM - 9:00 PM,Sat 10:00 AM - 9:00 PM"
"rackroomshoes.com","https://www.rackroomshoes.com/store/323","MONTICELLO MARKETPLACE","4640-4 MONTICELLO AVE.","WILLIAMSBURG","VA","23188","United States","323","7572599446","Rack Room Shoes","37.2725827","-76.7596161","Sun 12:00 PM - 6:00 PM,Mon 10:00 AM - 9:00 PM,Tue 10:00 AM - 9:00 PM,Wed 10:00 AM - 9:00 PM,Thu 10:00 AM - 9:00 PM,Fri 10:00 AM - 9:00 PM,Sat 10:00 AM - 9:00 PM"
"rackroomshoes.com","https://www.rackroomshoes.com/store/3125","MERCHANT POINTE","217 INDIAN LAKE BLVD STE 600","HENDERSONVILLE","TN","37075","United States","3125","6158261548","Off Broadway Shoe Warehouse","36.3214788","-86.6017281","Sun 11:00 AM - 6:00 PM,Mon 10:00 AM - 9:00 PM,Tue 10:00 AM - 9:00 PM,Wed 10:00 AM - 9:00 PM,Thu 10:00 AM - 9:00 PM,Fri 10:00 AM - 9:00 PM,Sat 10:00 AM - 9:00 PM"
"rackroomshoes.com","https://www.rackroomshoes.com/store/715","GRAND CENTRAL PLACE","2835 S HWY 27","SOMERSET","KY","42503","United States","715","6066769821","Rack Room Shoes","37.0519062","-84.6281272","Sun 12:00 PM - 6:00 PM,Mon 10:00 AM - 9:00 PM,Tue 10:00 AM - 9:00 PM,Wed 10:00 AM - 9:00 PM,Thu 10:00 AM - 9:00 PM,Fri 10:00 AM - 9:00 PM,Sat 10:00 AM - 9:00 PM"
"rackroomshoes.com","https://www.rackroomshoes.com/store/651","PIKEVILLE COMMONS","120 JUSTICE WAY UNIT 110","PIKEVILLE","KY","41501","United States","651","6064375632","Rack Room Shoes","37.5078213","-82.5417491","Sun 12:00 PM - 6:00 PM,Mon 10:00 AM - 9:00 PM,Tue 10:00 AM - 9:00 PM,Wed 10:00 AM - 9:00 PM,Thu 10:00 AM - 9:00 PM,Fri 10:00 AM - 9:00 PM,Sat 10:00 AM - 9:00 PM"
"rackroomshoes.com","https://www.rackroomshoes.com/store/561","STREETS OF INDIAN LAKE","300 INDIAN LAKE BLVD BLDG D STE 160","HENDERSONVILLE","TN","37075","United States","561","6158249883","Rack Room Shoes","36.3292704","-86.59168","Sun 11:00 AM - 6:00 PM,Mon 10:00 AM - 9:00 PM,Tue 10:00 AM - 9:00 PM,Wed 10:00 AM - 9:00 PM,Thu 10:00 AM - 9:00 PM,Fri 10:00 AM - 9:00 PM,Sat 10:00 AM - 9:00 PM"
"rackroomshoes.com","https://www.rackroomshoes.com/store/203","RIVERGATE MALL","1000 RIVERGATE PARKWAY STE. 1050","GOODLETTSVILLE","TN","37072","United States","203","6158597994","Rack Room Shoes","36.3026581","-86.6986762","Sun 12:00 PM - 6:00 PM,Mon 10:00 AM - 9:00 PM,Tue 10:00 AM - 9:00 PM,Wed 10:00 AM - 9:00 PM,Thu 10:00 AM - 9:00 PM,Fri 10:00 AM - 9:00 PM,Sat 10:00 AM - 9:00 PM"
"rackroomshoes.com","https://www.rackroomshoes.com/store/575","WHITE OAK VILLAGE","4501 S LABURNUM AVENUE  SUITE 550","RICHMOND","VA","23231","United States","575","8042225279","Rack Room Shoes","37.528532","-77.3549529","Sun 12:00 PM - 6:00 PM,Mon 10:00 AM - 9:00 PM,Tue 10:00 AM - 9:00 PM,Wed 10:00 AM - 9:00 PM,Thu 10:00 AM - 9:00 PM,Fri 10:00 AM - 9:00 PM,Sat 10:00 AM - 9:00 PM"
"rackroomshoes.com","https://www.rackroomshoes.com/store/762","TRI-LAKES VILLAGE","105 JOHN R LOVELACE DR","BATESVILLE","MS","38606","United States","762","6625631832","Rack Room Shoes","34.3083609","-89.9129847","Sun 12:00 PM - 6:00 PM,Mon 10:00 AM - 9:00 PM,Tue 10:00 AM - 9:00 PM,Wed 10:00 AM - 9:00 PM,Thu 10:00 AM - 9:00 PM,Fri 10:00 AM - 9:00 PM,Sat 10:00 AM - 9:00 PM"
"rackroomshoes.com","https://www.rackroomshoes.com/store/129","SHOPS @ WILLOW LAWN","1601 WILLOW LAWN DR STE 103B","RICHMOND","VA","23230","United States","129","8042887824","Rack Room Shoes","37.5822579","-77.4981782","Sun 12:30 PM - 5:30 PM,Mon 10:00 AM - 9:00 PM,Tue 10:00 AM - 9:00 PM,Wed 10:00 AM - 9:00 PM,Thu 10:00 AM - 9:00 PM,Fri 10:00 AM - 9:00 PM,Sat 10:00 AM - 9:00 PM"
"rackroomshoes.com","https://www.rackroomshoes.com/store/712","FOX MILL","6712 FOX CENTRE PKWY","GLOUCESTER","VA","23061","United States","712","8047925011","Rack Room Shoes","37.3973537","-76.5271769","Sun 12:00 PM - 6:00 PM,Mon 10:00 AM - 9:00 PM,Tue 10:00 AM - 9:00 PM,Wed 10:00 AM - 9:00 PM,Thu 10:00 AM - 9:00 PM,Fri 10:00 AM - 9:00 PM,Sat 10:00 AM - 9:00 PM"
"rackroomshoes.com","https://www.rackroomshoes.com/store/759","WEST BROAD MARKETPLACE","12228 W BROAD ST","RICHMOND","VA","23233","United States","759","8043603451","Rack Room Shoes","37.6616934","-77.6373473","Sun 12:00 PM - 6:00 PM,Mon 10:00 AM - 9:00 PM,Tue 10:00 AM - 9:00 PM,Wed 10:00 AM - 9:00 PM,Thu 10:00 AM - 9:00 PM,Fri 10:00 AM - 9:00 PM,Sat 10:00 AM - 9:00 PM"
"rackroomshoes.com","https://www.rackroomshoes.com/store/508","WAYNESBORO TOWN CENTER","831 TOWN CENTER DR STE F","WAYNESBORO","VA","22980","United States","508","5409425365","Rack Room Shoes","38.0551284","-78.9451761","Sun 12:00 PM - 6:00 PM,Mon 10:00 AM - 9:00 PM,Tue 10:00 AM - 9:00 PM,Wed 10:00 AM - 9:00 PM,Thu 10:00 AM - 9:00 PM,Fri 10:00 AM - 9:00 PM,Sat 10:00 AM - 9:00 PM"
"rackroomshoes.com","https://www.rackroomshoes.com/store/687","CLARKSVILLE COMMONS","2300 MADISON ST. STE E","CLARKSVILLE","TN","37043","United States","687","9316487669","Rack Room Shoes","36.5065759","-87.2716298","Sun 12:00 PM - 6:00 PM,Mon 10:00 AM - 9:00 PM,Tue 10:00 AM - 9:00 PM,Wed 10:00 AM - 9:00 PM,Thu 10:00 AM - 9:00 PM,Fri 10:00 AM - 9:00 PM,Sat 10:00 AM - 9:00 PM"
"rackroomshoes.com","https://www.rackroomshoes.com/store/181","BARRACKS ROAD SHOPPING CENTER","1105 EMMETT ST","CHARLOTTESVILLE","VA","22903","United States","181","4342938613","Rack Room Shoes","38.0516908","-78.5017226","Sun 12:00 PM - 6:00 PM,Mon 10:00 AM - 9:00 PM,Tue 10:00 AM - 9:00 PM,Wed 10:00 AM - 9:00 PM,Thu 10:00 AM - 9:00 PM,Fri 10:00 AM - 9:00 PM,Sat 10:00 AM - 9:00 PM"
"rackroomshoes.com","https://www.rackroomshoes.com/store/103","RIO HILL SHOPPING CENTER","1800 RIO HILL CENTER","CHARLOTTESVILLE","VA","22901","United States","103","4349747303","Rack Room Shoes","38.0868943","-78.4738637","Sun 12:00 PM - 6:00 PM,Mon 10:00 AM - 9:00 PM,Tue 10:00 AM - 9:00 PM,Wed 10:00 AM - 9:00 PM,Thu 10:00 AM - 9:00 PM,Fri 10:00 AM - 9:00 PM,Sat 10:00 AM - 9:00 PM"
"rackroomshoes.com","https://www.rackroomshoes.com/store/3123","CARRIAGE CROSSING","4600 MERCHANTS PARK CIR SPACE 121","COLLIERVILLE","TN","38017","United States","3123","9018613927","Rack Room Shoes","35.0234543","-89.7206564","Sun 12:00 PM - 6:00 PM,Mon 10:00 AM - 9:00 PM,Tue 10:00 AM - 9:00 PM,Wed 10:00 AM - 9:00 PM,Thu 10:00 AM - 9:00 PM,Fri 10:00 AM - 9:00 PM,Sat 10:00 AM - 9:00 PM"
"rackroomshoes.com","https://www.rackroomshoes.com/store/395","PRIEN LAKE PLAZA","1760 W PRIEN LAKE ROAD","LAKE CHARLES","LA","70601","United States","395","3374800474","Rack Room Shoes","30.2001373","-93.2471119","Sun 11:00 AM - 6:00 PM,Mon 9:30 AM - 9:00 PM,Tue 9:30 AM - 9:00 PM,Wed 9:30 AM - 9:00 PM,Thu 9:30 AM - 9:00 PM,Fri 9:30 AM - 9:00 PM,Sat 9:30 AM - 9:00 PM"
"rackroomshoes.com","https://www.rackroomshoes.com/store/369","THE COLUMNS OF JACKSON","1081 VAN DRIVE STE 110","JACKSON","TN","38305","United States","369","7316649948","Rack Room Shoes","35.6668807","-88.8612496","Sun 12:00 PM - 6:00 PM,Mon 10:00 AM - 9:00 PM,Tue 10:00 AM - 9:00 PM,Wed 10:00 AM - 9:00 PM,Thu 10:00 AM - 9:00 PM,Fri 10:00 AM - 9:00 PM,Sat 10:00 AM - 9:00 PM"
"rackroomshoes.com","https://www.rackroomshoes.com/store/196","GOVERNOR'S SQUARE","2801 WILMA RUDOLPH BLVD STE 735","CLARKSVILLE","TN","37040","United States","196","9316477738","Rack Room Shoes","36.5869696","-87.2881367","Sun 11:00 AM - 6:00 PM,Mon 10:00 AM - 9:00 PM,Tue 10:00 AM - 9:00 PM,Wed 10:00 AM - 9:00 PM,Thu 10:00 AM - 9:00 PM,Fri 10:00 AM - 9:00 PM,Sat 10:00 AM - 9:00 PM"
"rackroomshoes.com","https://www.rackroomshoes.com/store/624","WEDGEWOOD COMMONS","5060 GOODMAN ROAD","OLIVE BRANCH","MS","38654","United States","624","6628907001","Rack Room Shoes","34.9651487","-89.8989401","Sun 12:00 PM - 6:00 PM,Mon 10:00 AM - 9:00 PM,Tue 10:00 AM - 9:00 PM,Wed 10:00 AM - 9:00 PM,Thu 10:00 AM - 9:00 PM,Fri 10:00 AM - 9:00 PM,Sat 10:00 AM - 9:00 PM"
"rackroomshoes.com","https://www.rackroomshoes.com/store/553","RICHMOND CENTRE","2169 LANTERN RIDGE DR SP G","RICHMOND","KY","40475","United States","553","8596238454","Rack Room Shoes","37.7395161","-84.3273827","Sun 12:00 PM - 6:00 PM,Mon 10:00 AM - 9:00 PM,Tue 10:00 AM - 9:00 PM,Wed 10:00 AM - 9:00 PM,Thu 10:00 AM - 9:00 PM,Fri 10:00 AM - 9:00 PM,Sat 10:00 AM - 9:00 PM"
"rackroomshoes.com","https://www.rackroomshoes.com/store/748","RIDGEFIELD SC","2900 S DANVILLE BYPASS STE 122","DANVILLE","KY","40422","United States","748","8592369798","Rack Room Shoes","37.6181352","-84.7801019","Sun 12:00 PM - 6:00 PM,Mon 10:00 AM - 9:00 PM,Tue 10:00 AM - 9:00 PM,Wed 10:00 AM - 9:00 PM,Thu 10:00 AM - 9:00 PM,Fri 10:00 AM - 9:00 PM,Sat 10:00 AM - 9:00 PM"
"rackroomshoes.com","https://www.rackroomshoes.com/store/5112","TANGER OUTLETS OF SOUTHAVEN","5205 AIRWAYS BLVD. BLDG 4 STE. 400","SOUTHAVEN","MS","38671","United States","5112","6623496208","Off Broadway Shoe Warehouse","34.9362555","-89.9916172","Sun 10:00 AM - 7:00 PM,Mon 9:00 AM - 9:00 PM,Tue 9:00 AM - 9:00 PM,Wed 9:00 AM - 9:00 PM,Thu 9:00 AM - 9:00 PM,Fri 9:00 AM - 9:00 PM,Sat 9:00 AM - 9:00 PM"
"rackroomshoes.com","https://www.rackroomshoes.com/store/730","TANGER OUTLETS SOUTHAVEN","5205 AIRWAYS BLVD BLDG 1 STE 120","SOUTHAVEN","MS","38671","United States","730","6623496304","Rack Room Shoes","34.9362555","-89.9916172","Sun 10:00 AM - 7:00 PM,Mon 9:00 AM - 9:00 PM,Tue 9:00 AM - 9:00 PM,Wed 9:00 AM - 9:00 PM,Thu 9:00 AM - 9:00 PM,Fri 9:00 AM - 9:00 PM,Sat 9:00 AM - 9:00 PM"
"rackroomshoes.com","https://www.rackroomshoes.com/store/167","GERMANTOWN VILLAGE SQUARE","7690 POPLAR AVE","GERMANTOWN","TN","38138","United States","167","9017542565","Rack Room Shoes","35.0927064","-89.8066577","Sun 12:00 PM - 6:00 PM,Mon 10:00 AM - 9:00 PM,Tue 10:00 AM - 9:00 PM,Wed 10:00 AM - 9:00 PM,Thu 10:00 AM - 9:00 PM,Fri 10:00 AM - 9:00 PM,Sat 10:00 AM - 9:00 PM"
"rackroomshoes.com","https://www.rackroomshoes.com/store/396","SOUTHAVEN TOWN CENTER","6510 TOWNE CENTER LOOP","SOUTHAVEN","MS","38671","United States","396","6625361968","Rack Room Shoes","34.9553586","-89.9958227","Sun 12:00 PM - 6:00 PM,Mon 10:00 AM - 9:00 PM,Tue 10:00 AM - 9:00 PM,Wed 10:00 AM - 9:00 PM,Thu 10:00 AM - 9:00 PM,Fri 10:00 AM - 9:00 PM,Sat 10:00 AM - 9:00 PM"
"rackroomshoes.com","https://www.rackroomshoes.com/store/1009","THE COMMONS AT DEXTER LAKE","1713 N GERMANTOWN PKWY STE 101","CORDOVA","TN","38016","United States","1009","9012937967","Rack Room Shoes","35.1720333","-89.7952048","Sun 12:00 PM - 6:00 PM,Mon 10:00 AM - 9:00 PM,Tue 10:00 AM - 9:00 PM,Wed 10:00 AM - 9:00 PM,Thu 10:00 AM - 9:00 PM,Fri 10:00 AM - 9:00 PM,Sat 10:00 AM - 9:00 PM"
"rackroomshoes.com","https://www.rackroomshoes.com/store/154","EASTGATE SHOPPING CENTER","5110 PARK AVE","MEMPHIS","TN","38117","United States","154","9016821584","Rack Room Shoes","35.1076826","-89.8911968","Sun 12:00 PM - 6:00 PM,Mon 10:00 AM - 9:00 PM,Tue 10:00 AM - 9:00 PM,Wed 10:00 AM - 9:00 PM,Thu 10:00 AM - 9:00 PM,Fri 10:00 AM - 9:00 PM,Sat 10:00 AM - 9:00 PM"
"rackroomshoes.com","https://www.rackroomshoes.com/store/266","WOLFCHASE GALLERIA","2760 N GERMANTOWN PKWY STE 201","MEMPHIS","TN","38133","United States","266","9013771151","Rack Room Shoes","35.1997649","-89.7886123","Sun 12:00 PM - 6:00 PM,Mon 10:00 AM - 9:00 PM,Tue 10:00 AM - 9:00 PM,Wed 10:00 AM - 9:00 PM,Thu 10:00 AM - 9:00 PM,Fri 10:00 AM - 9:00 PM,Sat 10:00 AM - 9:00 PM"
"rackroomshoes.com","https://www.rackroomshoes.com/store/287","THE COMMONS","8075 GIACOSA PL STE 103","MEMPHIS","TN","38133","United States","287","9013728818","Rack Room Shoes","35.1975026","-89.7941409","Sun 12:00 PM - 6:00 PM,Mon 10:00 AM - 9:00 PM,Tue 10:00 AM - 9:00 PM,Wed 10:00 AM - 9:00 PM,Thu 10:00 AM - 9:00 PM,Fri 10:00 AM - 9:00 PM,Sat 10:00 AM - 9:00 PM"
"rackroomshoes.com","https://www.rackroomshoes.com/store/728","CHARLESTON TOWN CENTER","3000 CHARLESTON TOWN CENTER SP2057","CHARLESTON","WV","25389","United States","728","3043457076","Rack Room Shoes","38.3535764","-81.6380135","Sun 12:30 PM - 6:00 PM,Mon 10:00 AM - 9:00 PM,Tue 10:00 AM - 9:00 PM,Wed 10:00 AM - 9:00 PM,Thu 10:00 AM - 9:00 PM,Fri 10:00 AM - 9:00 PM,Sat 10:00 AM - 9:00 PM"
"rackroomshoes.com","https://www.rackroomshoes.com/store/482","COSNER'S CORNER","9757 JEFFERSON DAVIS HIGHWAY","FREDERICKSBURG","VA","22407","United States","482","5407106907","Rack Room Shoes","38.2284547","-77.5044593","Sun 10:00 AM - 6:00 PM,Mon 10:00 AM - 9:00 PM,Tue 10:00 AM - 9:00 PM,Wed 10:00 AM - 9:00 PM,Thu 10:00 AM - 9:00 PM,Fri 10:00 AM - 9:00 PM,Sat 10:00 AM - 9:00 PM"
"rackroomshoes.com","https://www.rackroomshoes.com/store/746","HOPKINSVILLE TOWNE CENTER","4853 FORT CAMPBELL BLVD","HOPKINSVILLE","KY","42240","United States","746","2708869164","Rack Room Shoes","36.8140036","-87.4742671","Sun 12:00 PM - 6:00 PM,Mon 10:00 AM - 9:00 PM,Tue 10:00 AM - 9:00 PM,Wed 10:00 AM - 9:00 PM,Thu 10:00 AM - 9:00 PM,Fri 10:00 AM - 9:00 PM,Sat 10:00 AM - 9:00 PM"
"rackroomshoes.com","https://www.rackroomshoes.com/store/286","VALLEY MALL","1925 E MARKET ST STE 420","HARRISONBURG","VA","22801","United States","286","5404322338","Rack Room Shoes","38.4282344","-78.8435176","Sun 12:30 PM - 5:30 PM,Mon 11:00 AM - 7:00 PM,Tue 11:00 AM - 7:00 PM,Wed 11:00 AM - 7:00 PM,Thu 11:00 AM - 7:00 PM,Fri 11:00 AM - 8:00 PM,Sat 11:00 AM - 8:00 PM"
"rackroomshoes.com","https://www.rackroomshoes.com/store/714","SHOPS @ MILLINGTON FARMS","8540 US HWY 51 N SUITE 103","MILLINGTON","TN","38053","United States","714","9018730783","Rack Room Shoes","35.3587603","-89.8903584","Sun 12:00 PM - 6:00 PM,Mon 10:00 AM - 9:00 PM,Tue 10:00 AM - 9:00 PM,Wed 10:00 AM - 9:00 PM,Thu 10:00 AM - 9:00 PM,Fri 10:00 AM - 9:00 PM,Sat 10:00 AM - 9:00 PM"
"rackroomshoes.com","https://www.rackroomshoes.com/store/190","FAYETTE MALL","3401 NICHOLASVILLE RD. SP. D-406","LEXINGTON","KY","40503","United States","190","8592735570","Rack Room Shoes","37.9884639","-84.5283695","Sun 12:00 PM - 6:00 PM,Mon 10:00 AM - 9:00 PM,Tue 10:00 AM - 9:00 PM,Wed 10:00 AM - 9:00 PM,Thu 10:00 AM - 9:00 PM,Fri 10:00 AM - 9:00 PM,Sat 10:00 AM - 9:00 PM"
"rackroomshoes.com","https://www.rackroomshoes.com/store/5048","SIR BARTON PLACE","2321 SIR BARTON WAY STE 130","LEXINGTON","KY","40509","United States","5048","8592330380","Off Broadway Shoe Warehouse","38.0215788","-84.4243239","Sun 11:00 AM - 6:00 PM,Mon 10:00 AM - 9:00 PM,Tue 10:00 AM - 9:00 PM,Wed 10:00 AM - 9:00 PM,Thu 10:00 AM - 9:00 PM,Fri 10:00 AM - 9:00 PM,Sat 10:00 AM - 9:00 PM"
"rackroomshoes.com","https://www.rackroomshoes.com/store/174","HAMBURG PAVILION","1972 PAVILLON WAY","LEXINGTON","KY","40509","United States","174","8595438060","Rack Room Shoes","38.024067","-84.4177902","Sun 12:00 PM - 6:00 PM,Mon 10:00 AM - 9:00 PM,Tue 10:00 AM - 9:00 PM,Wed 10:00 AM - 9:00 PM,Thu 10:00 AM - 9:00 PM,Fri 10:00 AM - 9:00 PM,Sat 10:00 AM - 9:00 PM"
"rackroomshoes.com","https://www.rackroomshoes.com/store/795","RUSTON MARKETPLACE","1230 WOODWARD AVE","RUSTON","LA","71270","United States","795","3182518334","Rack Room Shoes","32.5413371","-92.654385","Sun 12:00 PM - 6:00 PM,Mon 10:00 AM - 9:00 PM,Tue 10:00 AM - 9:00 PM,Wed 10:00 AM - 9:00 PM,Thu 10:00 AM - 9:00 PM,Fri 10:00 AM - 9:00 PM,Sat 10:00 AM - 9:00 PM"
"rackroomshoes.com","https://www.rackroomshoes.com/store/376","ASHLAND TOWN CENTER","500 WINCHESTER AVE STE 578","ASHLAND","KY","41101","United States","376","6063258041","Rack Room Shoes","38.4833032","-82.653408","Sun 12:00 PM - 6:00 PM,Mon 10:00 AM - 9:00 PM,Tue 10:00 AM - 9:00 PM,Wed 10:00 AM - 9:00 PM,Thu 10:00 AM - 9:00 PM,Fri 10:00 AM - 9:00 PM,Sat 10:00 AM - 9:00 PM"
"rackroomshoes.com","https://www.rackroomshoes.com/store/332","POTOMAC YARD","3551 JEFFERSON DAVIS HWY","ALEXANDRIA","VA","22305","United States","332","7035193788","Rack Room Shoes","38.4921488","-77.3806936","Sun 11:00 AM - 6:00 PM,Mon 10:00 AM - 9:00 PM,Tue 10:00 AM - 9:00 PM,Wed 10:00 AM - 9:00 PM,Thu 10:00 AM - 9:00 PM,Fri 10:00 AM - 9:00 PM,Sat 10:00 AM - 9:00 PM"
"rackroomshoes.com","https://www.rackroomshoes.com/store/238","FACTORY STORES OF AMERICA","401 OUTLET CENTER DR STE 310","GEORGETOWN","KY","40324","United States","238","5028635654","Rack Room Shoes","38.2180568","-84.5372903","Sun 12:00 PM - 6:00 PM,Mon 10:00 AM - 8:00 PM,Tue 10:00 AM - 8:00 PM,Wed 10:00 AM - 8:00 PM,Thu 10:00 AM - 8:00 PM,Fri 10:00 AM - 8:00 PM,Sat 10:00 AM - 8:00 PM"
"rackroomshoes.com","https://www.rackroomshoes.com/store/31","POTOMAC MILLS","2700 POTOMAC MILLS CIR STE 330","WOODBRIDGE","VA","22192","United States","31","7034901033","Rack Room Shoes","38.6433621","-77.2961829","Sun 11:00 AM - 6:00 PM,Mon 10:00 AM - 9:00 PM,Tue 10:00 AM - 9:00 PM,Wed 10:00 AM - 9:00 PM,Thu 10:00 AM - 9:00 PM,Fri 10:00 AM - 9:00 PM,Sat 10:00 AM - 9:00 PM"
"rackroomshoes.com","https://www.rackroomshoes.com/store/637","THE OUTLET SHOPPES OF THE BLUEGRASS","1155 BUCK CREEK RD STE F622","SIMPSONVILLE","KY","40067","United States","637","5027225154","Rack Room Shoes","38.2062338","-85.3520379","Sun 10:00 AM - 7:00 PM,Mon 10:00 AM - 9:00 PM,Tue 10:00 AM - 9:00 PM,Wed 10:00 AM - 9:00 PM,Thu 10:00 AM - 9:00 PM,Fri 10:00 AM - 9:00 PM,Sat 10:00 AM - 9:00 PM"
"rackroomshoes.com","https://www.rackroomshoes.com/store/695","SPRINGFIELD TOWN CENTER","6771 SPRINGFIELD MALL","SPRINGFIELD","VA","22150","United States","695","7039226520","Rack Room Shoes","38.7746771","-77.1744734","Sun 11:00 AM - 7:00 PM,Mon 10:00 AM - 9:30 PM,Tue 10:00 AM - 9:30 PM,Wed 10:00 AM - 9:30 PM,Thu 10:00 AM - 9:30 PM,Fri 10:00 AM - 9:30 PM,Sat 10:00 AM - 9:30 PM"
"rackroomshoes.com","https://www.rackroomshoes.com/store/673","DIXIE VALLEY SHOPPING CENTER","10441 DIXIE HWY","LOUISVILLE","KY","40272","United States","673","5029338500","Rack Room Shoes","38.10314","-85.8662955","Sun 12:00 PM - 6:00 PM,Mon 10:00 AM - 9:00 PM,Tue 10:00 AM - 9:00 PM,Wed 10:00 AM - 9:00 PM,Thu 10:00 AM - 9:00 PM,Fri 10:00 AM - 9:00 PM,Sat 10:00 AM - 9:00 PM"
"rackroomshoes.com","https://www.rackroomshoes.com/store/179","OCEAN CITY FACTORY OUTLETS","12741 OCEAN GATEWAY STE 970","OCEAN CITY","MD","21842","United States","179","4102137883","Rack Room Shoes","38.3380394","-75.1066211","Sun 11:00 AM - 6:00 PM,Mon 11:00 AM - 6:00 PM,Tue 11:00 AM - 6:00 PM,Wed 11:00 AM - 6:00 PM,Thu 11:00 AM - 6:00 PM,Fri 11:00 AM - 6:00 PM,Sat 11:00 AM - 6:00 PM"
"rackroomshoes.com","https://www.rackroomshoes.com/store/3046","SHELBYVILLE RD PLAZA","4600 SHELBYVILLE RD STE 201","LOUISVILLE","KY","40207","United States","3046","5028975232","Off Broadway Shoe Warehouse","38.2492748","-85.6299971","Sun 12:00 PM - 6:00 PM,Mon 10:00 AM - 9:00 PM,Tue 10:00 AM - 9:00 PM,Wed 10:00 AM - 9:00 PM,Thu 10:00 AM - 9:00 PM,Fri 10:00 AM - 9:00 PM,Sat 10:00 AM - 9:00 PM"
"rackroomshoes.com","https://www.rackroomshoes.com/store/3032","SEVEN CORNERS SHOPPING CENTER","6302 SEVEN CORNERS CTR","FALLS CHURCH","VA","22044","United States","3032","7032376966","Off Broadway Shoe Warehouse","38.8689144","-77.1512126","Sun 11:00 AM - 7:00 PM,Mon 10:00 AM - 9:00 PM,Tue 10:00 AM - 9:00 PM,Wed 10:00 AM - 9:00 PM,Thu 10:00 AM - 9:00 PM,Fri 10:00 AM - 9:00 PM,Sat 10:00 AM - 9:00 PM"
"rackroomshoes.com","https://www.rackroomshoes.com/store/222","DULLES TOWN CROSSING","45575 DULLES EASTERN PLZ STE 139","STERLING","VA","20166","United States","222","7034213411","Rack Room Shoes","39.0244631","-77.4223694","Sun 12:00 PM - 6:00 PM,Mon 10:00 AM - 9:00 PM,Tue 10:00 AM - 9:00 PM,Wed 10:00 AM - 9:00 PM,Thu 10:00 AM - 9:00 PM,Fri 10:00 AM - 9:00 PM,Sat 10:00 AM - 9:00 PM"
"rackroomshoes.com","https://www.rackroomshoes.com/store/5057","ASH BROOK COMMONS","20020 ASH BROOK COMMONS PLAZA 155","ASHBURN","VA","20147","United States","5057","5712233289","Off Broadway Shoe Warehouse","39.0617662","-77.4685838","Sun 11:00 AM - 7:00 PM,Mon 10:00 AM - 9:00 PM,Tue 10:00 AM - 9:00 PM,Wed 10:00 AM - 9:00 PM,Thu 10:00 AM - 9:00 PM,Fri 10:00 AM - 9:00 PM,Sat 10:00 AM - 9:00 PM"
"rackroomshoes.com","https://www.rackroomshoes.com/store/3103","BOWIE TOWN CENTER","15426 EMERALD WAY SPACE JA-03","BOWIE","MD","20716","United States","3103","3012627173","Off Broadway Shoe Warehouse","38.9436522","-76.7361291","Sun 11:00 AM - 7:00 PM,Mon 10:00 AM - 8:00 PM,Tue 10:00 AM - 8:00 PM,Wed 10:00 AM - 8:00 PM,Thu 10:00 AM - 8:00 PM,Fri 10:00 AM - 8:00 PM,Sat 10:00 AM - 8:00 PM"
"rackroomshoes.com","https://www.rackroomshoes.com/store/439","CARAWAY PLAZA","1211 CARAWAY ROAD","JONESBORO","AR","72401","United States","439","8709332537","Rack Room Shoes","35.8304707","-90.6784381","Sun 12:00 PM - 6:00 PM,Mon 10:00 AM - 9:00 PM,Tue 10:00 AM - 9:00 PM,Wed 10:00 AM - 9:00 PM,Thu 10:00 AM - 9:00 PM,Fri 10:00 AM - 9:00 PM,Sat 9:30 AM - 9:00 PM"
"rackroomshoes.com","https://www.rackroomshoes.com/store/603","FESTIVAL AT RIVA","2315 FOREST DR. STE E","ANNAPOLIS","MD","21401","United States","603","4102661656","Rack Room Shoes","38.9780581","-76.5441163","Sun 12:00 PM - 6:00 PM,Mon 10:00 AM - 9:00 PM,Tue 10:00 AM - 9:00 PM,Wed 10:00 AM - 9:00 PM,Thu 10:00 AM - 9:00 PM,Fri 10:00 AM - 9:00 PM,Sat 10:00 AM - 9:00 PM"
"rackroomshoes.com","https://www.rackroomshoes.com/store/638","WESTFIELD ANNAPOLIS","1610 ANNAPOLIS MALL SUITE 61","ANNAPOLIS","MD","21401","United States","638","4108974800","Rack Room Shoes","38.9904274","-76.5452557","Sun 11:00 AM - 7:00 PM,Mon 10:00 AM - 9:00 PM,Tue 10:00 AM - 9:00 PM,Wed 10:00 AM - 9:00 PM,Thu 10:00 AM - 9:00 PM,Fri 10:00 AM - 9:00 PM,Sat 10:00 AM - 9:00 PM"
"rackroomshoes.com","https://www.rackroomshoes.com/store/726","VILLAGE AT WAUGH CHAPEL","2640 CHAPEL LAKE DR.","GAMBRILLS","MD","21054","United States","726","4104516930","Rack Room Shoes","39.0398724","-76.6805684","Sun 12:00 PM - 6:00 PM,Mon 10:00 AM - 9:00 PM,Tue 10:00 AM - 9:00 PM,Wed 10:00 AM - 9:00 PM,Thu 10:00 AM - 9:00 PM,Fri 10:00 AM - 9:00 PM,Sat 10:00 AM - 9:00 PM"
"rackroomshoes.com","https://www.rackroomshoes.com/store/386","UNIVERSITY PLACE","7090 YOUREE DRIVE","SHREVEPORT","LA","71105","United States","386","3185240290","Rack Room Shoes","32.4404074","-93.7202263","Sun 12:00 PM - 6:00 PM,Mon 10:00 AM - 9:00 PM,Tue 10:00 AM - 9:00 PM,Wed 10:00 AM - 9:00 PM,Thu 10:00 AM - 9:00 PM,Fri 10:00 AM - 9:00 PM,Sat 10:00 AM - 9:00 PM"
"rackroomshoes.com","https://www.rackroomshoes.com/store/547","TANGER OUTLET REHOBETH BEACH II","36706 BAYSIDE OUTLET DR. STE. 490","REHOBOTH BEACH","DE","19971","United States","547","3022278205","Rack Room Shoes","38.7145313","-75.1103422","Sun 10:00 AM - 6:00 PM,Mon 10:00 AM - 6:00 PM,Tue 10:00 AM - 6:00 PM,Wed 10:00 AM - 6:00 PM,Thu 10:00 AM - 6:00 PM,Fri 10:00 AM - 6:00 PM,Sat 10:00 AM - 6:00 PM"
"rackroomshoes.com","https://www.rackroomshoes.com/store/194","TANGER OUTLETS SURFSIDE","35016 MIDWAY OUTLET DR STE 306","REHOBOTH BEACH","DE","19971","United States","194","3026440367","Rack Room Shoes","38.7333918","-75.1403548","Sun 10:00 AM - 6:00 PM,Mon 10:00 AM - 6:00 PM,Tue 10:00 AM - 6:00 PM,Wed 10:00 AM - 6:00 PM,Thu 10:00 AM - 6:00 PM,Fri 10:00 AM - 6:00 PM,Sat 10:00 AM - 6:00 PM"
"rackroomshoes.com","https://www.rackroomshoes.com/store/362","LOUISIANA BOARDWALK","515 BOARDWALK BLVD","BOSSIER CITY","LA","71111","United States","362","3187462062","Rack Room Shoes","32.5193138","-93.741381","Sun 11:00 AM - 7:00 PM,Mon 10:00 AM - 9:00 PM,Tue 10:00 AM - 9:00 PM,Wed 10:00 AM - 9:00 PM,Thu 10:00 AM - 9:00 PM,Fri 10:00 AM - 10:00 PM,Sat 10:00 AM - 10:00 PM"
"rackroomshoes.com","https://www.rackroomshoes.com/store/757","CLARKSBURG PREMIUM OUTLETS","22705 CLARKSBURG RD SUITE 724","CLARKSBURG","MD","20871","United States","757","3019164520","Rack Room Shoes","39.2281865","-77.2857697","Sun 12:00 PM - 6:00 PM,Mon 11:00 AM - 7:00 PM,Tue 11:00 AM - 7:00 PM,Wed 11:00 AM - 7:00 PM,Thu 11:00 AM - 7:00 PM,Fri 10:00 AM - 8:00 PM,Sat 10:00 AM - 8:00 PM"
"rackroomshoes.com","https://www.rackroomshoes.com/store/3022","ARUNDEL MILLS","7000 ARUNDEL MILLS CIR STE F3","HANOVER","MD","21076","United States","3022","4437551421","Off Broadway Shoe Warehouse","39.1545942","-76.725806","Sun 11:00 AM - 7:00 PM,Mon 10:00 AM - 9:30 PM,Tue 10:00 AM - 9:30 PM,Wed 10:00 AM - 9:30 PM,Thu 10:00 AM - 9:30 PM,Fri 10:00 AM - 9:30 PM,Sat 10:00 AM - 9:30 PM"
"rackroomshoes.com","https://www.rackroomshoes.com/store/479","ARUNDEL MILLS","7000 ARUNDEL MILLS CIRCLE","HANOVER","MD","21076","United States","479","4105409325","Rack Room Shoes","39.1570531","-76.7242728","Sun 11:00 AM - 7:00 PM,Mon 10:00 AM - 9:00 PM,Tue 10:00 AM - 9:00 PM,Wed 10:00 AM - 9:00 PM,Thu 10:00 AM - 9:00 PM,Fri 10:00 AM - 9:00 PM,Sat 10:00 AM - 9:00 PM"
"rackroomshoes.com","https://www.rackroomshoes.com/store/681","KEMAH MARKETPLACE","409 FM 518","KEMAH","TX","77565","United States","681","2819579259","Rack Room Shoes","29.5341814","-95.0204154","Sun 12:00 PM - 6:00 PM,Mon 10:00 AM - 9:00 PM,Tue 10:00 AM - 9:00 PM,Wed 10:00 AM - 9:00 PM,Thu 10:00 AM - 9:00 PM,Fri 10:00 AM - 9:00 PM,Sat 10:00 AM - 9:00 PM"
"rackroomshoes.com","https://www.rackroomshoes.com/store/3038","FREDERICK CROSSING","7340 GUILFORD DR","FREDERICK","MD","21704","United States","3038","3016621438","Off Broadway Shoe Warehouse","39.3975442","-77.4141645","Sun 11:00 AM - 7:00 PM,Mon 10:00 AM - 9:00 PM,Tue 10:00 AM - 9:00 PM,Wed 10:00 AM - 9:00 PM,Thu 10:00 AM - 9:00 PM,Fri 10:00 AM - 9:00 PM,Sat 10:00 AM - 9:00 PM"
"rackroomshoes.com","https://www.rackroomshoes.com/store/696","OUTLETS AT LITTLE ROCK","11201 BASS PRO PWKY SP  A-2 E125","LITTLE ROCK","AR","72210","United States","696","5014554084","Rack Room Shoes","34.6602619","-92.4069774","Sun 11:00 AM - 7:00 PM,Mon 10:00 AM - 9:00 PM,Tue 10:00 AM - 9:00 PM,Wed 10:00 AM - 9:00 PM,Thu 10:00 AM - 9:00 PM,Fri 10:00 AM - 9:00 PM,Sat 10:00 AM - 9:00 PM"
"rackroomshoes.com","https://www.rackroomshoes.com/store/444","FAIRWAY PLAZA","5762 FAIRMONT PARKWAY","PASADENA","TX","77505","United States","444","2819982782","Rack Room Shoes","29.647778","-95.1527774","Sun 12:00 PM - 6:00 PM,Mon 10:00 AM - 9:00 PM,Tue 10:00 AM - 9:00 PM,Wed 10:00 AM - 9:00 PM,Thu 10:00 AM - 9:00 PM,Fri 10:00 AM - 9:00 PM,Sat 10:00 AM - 9:00 PM"
"rackroomshoes.com","https://www.rackroomshoes.com/store/745","SHOPPES OF BENTON","20410 INTERSTATE 30N","BENTON","AR","72019","United States","745","5017945695","Rack Room Shoes","34.6047345","-92.5403383","Sun 12:00 PM - 6:00 PM,Mon 10:00 AM - 9:00 PM,Tue 10:00 AM - 9:00 PM,Wed 10:00 AM - 9:00 PM,Thu 10:00 AM - 9:00 PM,Fri 10:00 AM - 9:00 PM,Sat 10:00 AM - 9:00 PM"
"rackroomshoes.com","https://www.rackroomshoes.com/store/551","SHOPS @ STONE PARK","5930 E. SAM HOUSTON PARKWAY N.","HOUSTON","TX","77049","United States","551","2814583405","Rack Room Shoes","29.8114552","-95.1615678","Sun 12:00 PM - 6:00 PM,Mon 10:00 AM - 9:00 PM,Tue 10:00 AM - 9:00 PM,Wed 10:00 AM - 9:00 PM,Thu 10:00 AM - 9:00 PM,Fri 10:00 AM - 9:00 PM,Sat 10:00 AM - 9:00 PM"
"rackroomshoes.com","https://www.rackroomshoes.com/store/669","CENTER @ PEARLAND PKWY","2650 PEARLAND PARKWAY SUITE 140","PEARLAND","TX","77581","United States","669","2819977253","Rack Room Shoes","29.5597969","-95.2626487","Sun 12:00 PM - 6:00 PM,Mon 10:00 AM - 9:00 PM,Tue 10:00 AM - 9:00 PM,Wed 10:00 AM - 9:00 PM,Thu 10:00 AM - 9:00 PM,Fri 10:00 AM - 9:00 PM,Sat 10:00 AM - 9:00 PM"
"rackroomshoes.com","https://www.rackroomshoes.com/store/626","TOWSON TOWN CENTER STE 2265","825 DULANEY VALLEY RD","TOWSON","MD","21204","United States","626","4104941473","Rack Room Shoes","39.4042658","-76.5990278","Sun 11:00 AM - 6:00 PM,Mon 10:00 AM - 9:00 PM,Tue 10:00 AM - 9:00 PM,Wed 10:00 AM - 9:00 PM,Thu 10:00 AM - 9:00 PM,Fri 10:00 AM - 9:00 PM,Sat 10:00 AM - 9:00 PM"
"rackroomshoes.com","https://www.rackroomshoes.com/store/272","HAGERSTOWN PREMIUM OUTLETS","735 PREMIUM OUTLETS BLVD","HAGERSTOWN","MD","21740","United States","272","3017915979","Rack Room Shoes","39.6096","-77.7336084","Sun 12:00 PM - 6:00 PM,Mon 11:00 AM - 7:00 PM,Tue 11:00 AM - 7:00 PM,Wed 11:00 AM - 7:00 PM,Thu 11:00 AM - 7:00 PM,Fri 10:00 AM - 8:00 PM,Sat 10:00 AM - 8:00 PM"
"rackroomshoes.com","https://www.rackroomshoes.com/store/766","VALLEY RANCH TOWN CENTER","21448 MARKET PLACE DR","NEW CANEY","TX","77357","United States","766","2813540179","Rack Room Shoes","30.1349593","-95.2302158","Sun 12:00 PM - 6:00 PM,Mon 10:00 AM - 9:00 PM,Tue 10:00 AM - 9:00 PM,Wed 10:00 AM - 9:00 PM,Thu 10:00 AM - 9:00 PM,Fri 10:00 AM - 9:00 PM,Sat 10:00 AM - 9:00 PM"
"rackroomshoes.com","https://www.rackroomshoes.com/store/523","PEARLAND TOWN CENTER","11200 BROADWAY SUITE 1030","PEARLAND","TX","77584","United States","523","7134364834","Rack Room Shoes","29.5523131","-95.3921146","Sun 11:00 AM - 7:00 PM,Mon 10:00 AM - 9:00 PM,Tue 10:00 AM - 9:00 PM,Wed 10:00 AM - 9:00 PM,Thu 10:00 AM - 9:00 PM,Fri 10:00 AM - 9:00 PM,Sat 10:00 AM - 9:00 PM"
"rackroomshoes.com","https://www.rackroomshoes.com/store/382","TOLLGATE MARKETPLACE","615 BEL AIR ROAD","BEL AIR","MD","21014","United States","382","4108388926","Rack Room Shoes","39.5240987","-76.3543729","Sun 12:00 PM - 6:00 PM,Mon 10:00 AM - 9:00 PM,Tue 10:00 AM - 9:00 PM,Wed 10:00 AM - 9:00 PM,Thu 10:00 AM - 9:00 PM,Fri 10:00 AM - 9:00 PM,Sat 10:00 AM - 9:00 PM"
"rackroomshoes.com","https://www.rackroomshoes.com/store/336","MEYERLAND PLAZA","240 MEYERLAND PLAZA","HOUSTON","TX","77096","United States","336","7136640704","Rack Room Shoes","29.6856996","-95.4610753","Sun 12:00 PM - 6:00 PM,Mon 10:00 AM - 9:00 PM,Tue 10:00 AM - 9:00 PM,Wed 10:00 AM - 9:00 PM,Thu 10:00 AM - 9:00 PM,Fri 10:00 AM - 9:00 PM,Sat 10:00 AM - 9:00 PM"
"rackroomshoes.com","https://www.rackroomshoes.com/store/295","FOUNTAINS ON THE LAKE","12642 FOUNTAIN LAKE CIR","STAFFORD","TX","77477","United States","295","2814945858","Rack Room Shoes","29.6384722","-95.5873832","Sun 12:00 PM - 6:00 PM,Mon 10:00 AM - 9:00 PM,Tue 10:00 AM - 9:00 PM,Wed 10:00 AM - 9:00 PM,Thu 10:00 AM - 9:00 PM,Fri 10:00 AM - 9:00 PM,Sat 10:00 AM - 9:00 PM"
"rackroomshoes.com","https://www.rackroomshoes.com/store/686","PINECROFT CENTER","1240 LAKE WOODLANDS DRIVE","THE WOODLANDS","TX","77380","United States","686","2814191773","Rack Room Shoes","30.1699211","-95.4560763","Sun 12:00 PM - 6:00 PM,Mon 10:00 AM - 9:00 PM,Tue 10:00 AM - 9:00 PM,Wed 10:00 AM - 9:00 PM,Thu 10:00 AM - 9:00 PM,Fri 10:00 AM - 9:00 PM,Sat 10:00 AM - 9:00 PM"
"rackroomshoes.com","https://www.rackroomshoes.com/store/487","CONROE MARKETPLACE","2912 INTERSTATE 45 N STE 700","CONROE","TX","77303","United States","487","9367886138","Rack Room Shoes","30.3471097","-95.4807918","Sun 12:00 PM - 6:00 PM,Mon 10:00 AM - 9:00 PM,Tue 10:00 AM - 9:00 PM,Wed 10:00 AM - 9:00 PM,Thu 10:00 AM - 9:00 PM,Fri 10:00 AM - 9:00 PM,Sat 10:00 AM - 9:00 PM"
"rackroomshoes.com","https://www.rackroomshoes.com/store/535","BRAZOS TOWN CENTER","24001 BRAZOS TOWN CROSSING","ROSENBERG","TX","77471","United States","535","2812325217","Rack Room Shoes","29.542746","-95.748368","Sun 12:00 PM - 6:00 PM,Mon 10:00 AM - 9:00 PM,Tue 10:00 AM - 9:00 PM,Wed 10:00 AM - 9:00 PM,Thu 10:00 AM - 9:00 PM,Fri 10:00 AM - 9:00 PM,Sat 10:00 AM - 9:00 PM"
"rackroomshoes.com","https://www.rackroomshoes.com/store/773","THE MARKET CENTER AT ALIANA","10193 W GRAND PKWY S STE 107","RICHMOND","TX","77407","United States","773","2812770635","Rack Room Shoes","29.6606857","-95.7365172","Sun 12:00 PM - 6:00 PM,Mon 10:00 AM - 9:00 PM,Tue 10:00 AM - 9:00 PM,Wed 10:00 AM - 9:00 PM,Thu 10:00 AM - 9:00 PM,Fri 10:00 AM - 9:00 PM,Sat 10:00 AM - 9:00 PM"
"rackroomshoes.com","https://www.rackroomshoes.com/store/5120","TANGER OUTLETS - THE WALK","121 N MICHIGAN AVE. SUITE 120","ATLANTIC CITY","NJ","08401","United States","5120","6094410140","Off Broadway Shoe Warehouse","39.3618415","-74.4365333","Sun 10:00 AM - 7:00 PM,Mon 10:00 AM - 8:00 PM,Tue 10:00 AM - 8:00 PM,Wed 10:00 AM - 8:00 PM,Thu 10:00 AM - 8:00 PM,Fri 10:00 AM - 8:00 PM,Sat 10:00 AM - 8:00 PM"
"rackroomshoes.com","https://www.rackroomshoes.com/store/341","KATY MILLS","5000 KATY MILLS CIRCLE SP 401","KATY","TX","77494","United States","341","2816444606","Rack Room Shoes","29.7756349","-95.8091819","Sun 11:00 AM - 6:00 PM,Mon 10:00 AM - 9:00 PM,Tue 10:00 AM - 9:00 PM,Wed 10:00 AM - 9:00 PM,Thu 10:00 AM - 9:00 PM,Fri 10:00 AM - 9:00 PM,Sat 10:00 AM - 9:00 PM"
"rackroomshoes.com","https://www.rackroomshoes.com/store/5090","KATY MILLS","5000 KATY MILLS CIR STE 201","KATY","TX","77494","United States","5090","2816444800","Off Broadway Shoe Warehouse","29.7739641","-95.8099221","Sun 11:00 AM - 6:00 PM,Mon 10:00 AM - 9:00 PM,Tue 10:00 AM - 9:00 PM,Wed 10:00 AM - 9:00 PM,Thu 10:00 AM - 9:00 PM,Fri 10:00 AM - 9:00 PM,Sat 10:00 AM - 9:00 PM"
"rackroomshoes.com","https://www.rackroomshoes.com/store/708","TANGER OUTLET CENTER PITTSBURGH","2200 TANGER BLVD STE 507","WASHINGTON","PA","15301","United States","708","7242223784","Rack Room Shoes","40.2164085","-80.2116242","Sun 10:00 AM - 7:00 PM,Mon 9:00 AM - 9:00 PM,Tue 9:00 AM - 9:00 PM,Wed 9:00 AM - 9:00 PM,Thu 9:00 AM - 9:00 PM,Fri 9:00 AM - 9:00 PM,Sat 9:00 AM - 9:00 PM"
"rackroomshoes.com","https://www.rackroomshoes.com/store/764","RAVENWOOD VILLAGE","229 IH-45 SOUTH STE C","HUNTSVILLE","TX","77340","United States","764","9362953189","Rack Room Shoes","30.7086909","-95.5675872","Sun 12:00 PM - 6:00 PM,Mon 10:00 AM - 9:00 PM,Tue 10:00 AM - 9:00 PM,Wed 10:00 AM - 9:00 PM,Thu 10:00 AM - 9:00 PM,Fri 10:00 AM - 9:00 PM,Sat 10:00 AM - 9:00 PM"
"rackroomshoes.com","https://www.rackroomshoes.com/store/707","TANGER OUTLETS LANCASTER","1270 STANLEY K. TANGER BLVD","LANCASTER","PA","17602","United States","707","7172913270","Rack Room Shoes","40.0242834","-76.2199833","Sun 10:00 AM - 7:00 PM,Mon 9:00 AM - 9:00 PM,Tue 9:00 AM - 9:00 PM,Wed 9:00 AM - 9:00 PM,Thu 9:00 AM - 9:00 PM,Fri 9:00 AM - 9:00 PM,Sat 9:00 AM - 9:00 PM"
"rackroomshoes.com","https://www.rackroomshoes.com/store/824","ROCKVALE OUTLET CENTER","35 S WILLOWDALE DR STE706","LANCASTER","PA","17602","United States","824","7175097715","Rack Room Shoes","40.0211734","-76.1945845","Sun 11:00 AM - 6:00 PM,Mon 10:00 AM - 9:00 PM,Tue 10:00 AM - 9:00 PM,Wed 10:00 AM - 9:00 PM,Thu 10:00 AM - 9:00 PM,Fri 10:00 AM - 9:00 PM,Sat 10:00 AM - 9:00 PM"
"rackroomshoes.com","https://www.rackroomshoes.com/store/725","GLOUCESTER PREMIUM OUTLETS","100 PREMIUM OUTLETS DRIVE SUITE 933","BLACKWOOD","NJ","08012","United States","725","8563024038","Rack Room Shoes","39.7855538","-75.0524112","Sun 12:00 PM - 6:00 PM,Mon 11:00 AM - 7:00 PM,Tue 11:00 AM - 7:00 PM,Wed 11:00 AM - 7:00 PM,Thu 11:00 AM - 7:00 PM,Fri 10:00 AM - 8:00 PM,Sat 10:00 AM - 8:00 PM"
"rackroomshoes.com","https://www.rackroomshoes.com/store/751","SHOPPES AT BELMONT","1575 FRUITVILLE PIKE STE 3","LANCASTER","PA","17601","United States","751","7172918916","Rack Room Shoes","40.0648574","-76.3144962","Sun 11:00 AM - 6:00 PM,Mon 10:00 AM - 9:00 PM,Tue 10:00 AM - 9:00 PM,Wed 10:00 AM - 9:00 PM,Thu 10:00 AM - 9:00 PM,Fri 10:00 AM - 9:00 PM,Sat 10:00 AM - 9:00 PM"
"rackroomshoes.com","https://www.rackroomshoes.com/store/706","TANGER OUTLET CENTER","400 S WILSON RD STE 870","SUNBURY","OH","43074","United States","706","7409653238","Rack Room Shoes","40.2599745","-82.924321","Sun 11:00 AM - 6:00 PM,Mon 11:00 AM - 7:00 PM,Tue 11:00 AM - 7:00 PM,Wed 11:00 AM - 7:00 PM,Thu 11:00 AM - 7:00 PM,Fri 11:00 AM - 7:00 PM,Sat 11:00 AM - 7:00 PM"
"rackroomshoes.com","https://www.rackroomshoes.com/store/199","GREENWOOD PARK MALL","1251 US HWY 31 N BOX 64","GREENWOOD","IN","46142","United States","199","3178880095","Rack Room Shoes","39.6326848","-86.1207542","Sun 11:00 AM - 6:00 PM,Mon 10:00 AM - 9:00 PM,Tue 10:00 AM - 9:00 PM,Wed 10:00 AM - 9:00 PM,Thu 10:00 AM - 9:00 PM,Fri 10:00 AM - 9:00 PM,Sat 10:00 AM - 9:00 PM"
"rackroomshoes.com","https://www.rackroomshoes.com/store/639","FAIRFIELD PLACE","133 E SWEDESFORD RD","EXTON","PA","19341","United States","639","6105248284","Rack Room Shoes","40.035721","-75.6279691","Sun 11:00 AM - 6:00 PM,Mon 10:00 AM - 9:00 PM,Tue 10:00 AM - 9:00 PM,Wed 10:00 AM - 9:00 PM,Thu 10:00 AM - 9:00 PM,Fri 10:00 AM - 9:00 PM,Sat 10:00 AM - 9:00 PM"
"rackroomshoes.com","https://www.rackroomshoes.com/store/573","HOMETOWN COMMONS","1072 HOMETOWN COMMONS","MOUNTAIN HOME","AR","72653","United States","573","8704922162","Rack Room Shoes","36.3577041","-92.3353347","Sun 12:00 PM - 6:00 PM,Mon 9:00 AM - 9:00 PM,Tue 9:00 AM - 9:00 PM,Wed 9:00 AM - 9:00 PM,Thu 9:00 AM - 9:00 PM,Fri 9:00 AM - 9:00 PM,Sat 9:00 AM - 9:00 PM"
"rackroomshoes.com","https://www.rackroomshoes.com/store/5020","PHILADELPHIA MILLS","1477 FRANKLIN MILLS CIR","PHILADELPHIA","PA","19154","United States","5020","2155013251","Off Broadway Shoe Warehouse","40.0874832","-74.9611898","Sun 11:00 AM - 7:00 PM,Mon 10:00 AM - 9:00 PM,Tue 10:00 AM - 9:00 PM,Wed 10:00 AM - 9:00 PM,Thu 10:00 AM - 9:00 PM,Fri 10:00 AM - 9:00 PM,Sat 10:00 AM - 9:00 PM"
"rackroomshoes.com","https://www.rackroomshoes.com/store/684","PHILADELPHIA MILLS","1239 FRANKLIN MILLS CIRCLE","PHILADELPHIA","PA","19154","United States","684","2156376556","Rack Room Shoes","40.087695","-74.9616093","Sun 11:00 AM - 7:00 PM,Mon 10:00 AM - 9:00 PM,Tue 10:00 AM - 9:00 PM,Wed 10:00 AM - 9:00 PM,Thu 10:00 AM - 9:00 PM,Fri 10:00 AM - 9:00 PM,Sat 10:00 AM - 9:00 PM"
"rackroomshoes.com","https://www.rackroomshoes.com/store/503","CASTLETON SQUARE MALL","6020 EAST 82ND STREET STE 642A","INDIANAPOLIS","IN","46250","United States","503","3178423850","Rack Room Shoes","39.9092285","-86.0653862","Sun 11:00 AM - 6:00 PM,Mon 10:00 AM - 9:00 PM,Tue 10:00 AM - 9:00 PM,Wed 10:00 AM - 9:00 PM,Thu 10:00 AM - 9:00 PM,Fri 10:00 AM - 9:00 PM,Sat 10:00 AM - 9:00 PM"
"rackroomshoes.com","https://www.rackroomshoes.com/store/578","HAMILTON TOWNE CENTER","14002 HOARD DRIVE SUITE 200","NOBLESVILLE","IN","46060","United States","578","3177732597","Rack Room Shoes","39.9923942","-85.9279672","Sun 11:00 AM - 6:00 PM,Mon 10:00 AM - 9:00 PM,Tue 10:00 AM - 9:00 PM,Wed 10:00 AM - 9:00 PM,Thu 10:00 AM - 9:00 PM,Fri 10:00 AM - 9:00 PM,Sat 10:00 AM - 9:00 PM"
"rackroomshoes.com","https://www.rackroomshoes.com/store/583","BRYAN TOWNE CENTER","3121 WILDFLOWER DRIVE SUITE 200","BRYAN","TX","77802","United States","583","9797766215","Rack Room Shoes","30.6639571","-96.3210703","Sun 12:00 PM - 6:00 PM,Mon 10:00 AM - 9:00 PM,Tue 10:00 AM - 9:00 PM,Wed 10:00 AM - 9:00 PM,Thu 10:00 AM - 9:00 PM,Fri 10:00 AM - 9:00 PM,Sat 10:00 AM - 9:00 PM"
"rackroomshoes.com","https://www.rackroomshoes.com/store/232","OHIO STATION OUTLETS","9911 AVON LAKE RD UNIT 500","BURBANK","OH","44214","United States","232","3309489202","Rack Room Shoes","41.0022659","-81.9957123","Sun 12:00 PM - 5:00 PM,Mon 11:00 AM - 7:00 PM,Tue 11:00 AM - 7:00 PM,Wed 11:00 AM - 7:00 PM,Thu 11:00 AM - 7:00 PM,Fri 11:00 AM - 7:00 PM,Sat 11:00 AM - 7:00 PM"
"rackroomshoes.com","https://www.rackroomshoes.com/store/654","PALMER PARK MALL","148 PALMER PARK MALL","EASTON","PA","18045","United States","654","6109233627","Rack Room Shoes","40.6963453","-75.2590589","Sun 11:00 AM - 6:00 PM,Mon 10:00 AM - 8:00 PM,Tue 10:00 AM - 8:00 PM,Wed 10:00 AM - 8:00 PM,Thu 10:00 AM - 8:00 PM,Fri 10:00 AM - 8:00 PM,Sat 10:00 AM - 8:00 PM"
"rackroomshoes.com","https://www.rackroomshoes.com/store/677","MARKLAND MALL","1114 17TH ST. STE. G05C","KOKOMO","IN","46902","United States","677","7654577604","Rack Room Shoes","40.473811","-86.1093302","Sun 12:00 PM - 6:00 PM,Mon 10:00 AM - 9:00 PM,Tue 10:00 AM - 9:00 PM,Wed 10:00 AM - 9:00 PM,Thu 10:00 AM - 9:00 PM,Fri 10:00 AM - 9:00 PM,Sat 10:00 AM - 9:00 PM"
"rackroomshoes.com","https://www.rackroomshoes.com/store/475","BRANSON LANDING","615 BRANSON LANDING","BRANSON","MO","65616","United States","475","4172392774","Rack Room Shoes","36.6469076","-93.2143111","Sun 10:00 AM - 8:00 PM,Mon 10:00 AM - 9:00 PM,Tue 10:00 AM - 9:00 PM,Wed 10:00 AM - 9:00 PM,Thu 10:00 AM - 9:00 PM,Fri 10:00 AM - 10:00 PM,Sat 10:00 AM - 10:00 PM"
"rackroomshoes.com","https://www.rackroomshoes.com/store/434","TANGER OUTLET CENTER","300 TANGER BLVD STE 114A","BRANSON","MO","65616","United States","434","4172391469","Rack Room Shoes","36.6439786","-93.2648849","Sun 10:00 AM - 7:00 PM,Mon 9:00 AM - 9:00 PM,Tue 9:00 AM - 9:00 PM,Wed 9:00 AM - 9:00 PM,Thu 9:00 AM - 9:00 PM,Fri 9:00 AM - 9:00 PM,Sat 9:00 AM - 9:00 PM"
"rackroomshoes.com","https://www.rackroomshoes.com/store/680","STATEN ISLAND MALL","2655 RICHMOND AVE SPACE 1340","STATEN ISLAND","NY","10314","United States","680","7184770417","Rack Room Shoes","40.5807482","-74.1659706","Sun 11:00 AM - 6:00 PM,Mon 10:00 AM - 9:00 PM,Tue 10:00 AM - 9:00 PM,Wed 10:00 AM - 9:00 PM,Thu 10:00 AM - 9:00 PM,Fri 10:00 AM - 9:00 PM,Sat 10:00 AM - 9:00 PM"
"rackroomshoes.com","https://www.rackroomshoes.com/store/378","SUNRISE MALL","2370 N EXPRESSWAY  SP1394","BROWNSVILLE","TX","78521","United States","378","9565462630","Rack Room Shoes","25.9544568","-97.5034052","Sun 12:00 PM - 7:00 PM,Mon 10:00 AM - 9:00 PM,Tue 10:00 AM - 9:00 PM,Wed 10:00 AM - 9:00 PM,Thu 10:00 AM - 9:00 PM,Fri 10:00 AM - 9:00 PM,Sat 10:00 AM - 9:00 PM"
"rackroomshoes.com","https://www.rackroomshoes.com/store/273","TIPPECANOE MALL","2415 SAGAMORE PARKWAY S SP.F9","LAFAYETTE","IN","47905","United States","273","7654478994","Rack Room Shoes","40.390259","-86.8489734","Sun 12:00 PM - 6:00 PM,Mon 10:00 AM - 9:00 PM,Tue 10:00 AM - 9:00 PM,Wed 10:00 AM - 9:00 PM,Thu 10:00 AM - 9:00 PM,Fri 10:00 AM - 9:00 PM,Sat 10:00 AM - 9:00 PM"
"rackroomshoes.com","https://www.rackroomshoes.com/store/785","CROSSROADS AT TERRELL","650 AMERICAN WAY","TERRELL","TX","75160","United States","785","9725510711","Rack Room Shoes","32.717505","-96.32756","Sun 11:00 AM - 6:00 PM,Mon 10:00 AM - 9:00 PM,Tue 10:00 AM - 9:00 PM,Wed 10:00 AM - 9:00 PM,Thu 10:00 AM - 9:00 PM,Fri 10:00 AM - 9:00 PM,Sat 10:00 AM - 9:00 PM"
"rackroomshoes.com","https://www.rackroomshoes.com/store/640","BURLESON CROSSING","773 HWY 71 WEST SUITE B","BASTROP","TX","78602","United States","640","5123212192","Rack Room Shoes","30.1129471","-97.3551585","Sun 12:00 PM - 6:00 PM,Mon 10:00 AM - 9:00 PM,Tue 10:00 AM - 9:00 PM,Wed 10:00 AM - 9:00 PM,Thu 10:00 AM - 9:00 PM,Fri 10:00 AM - 9:00 PM,Sat 10:00 AM - 9:00 PM"
"rackroomshoes.com","https://www.rackroomshoes.com/store/822","VALLE VISTA MALL","2020 S. EXPRESSWAY 83","HARLINGEN","TX","78552","United States","822","9564286000","Rack Room Shoes","26.1839349","-97.7191393","Sun 12:00 PM - 6:00 PM,Mon 10:00 AM - 9:00 PM,Tue 10:00 AM - 9:00 PM,Wed 10:00 AM - 9:00 PM,Thu 10:00 AM - 9:00 PM,Fri 10:00 AM - 9:00 PM,Sat 10:00 AM - 9:00 PM"
"rackroomshoes.com","https://www.rackroomshoes.com/store/582","NORTHWEST ARKANSAS MALL","4201 NORTH SHILOH DRIVE #1325","FAYETTEVILLE","AR","72703","United States","582","4794446194","Rack Room Shoes","36.12901844","-94.14767331","Sun 12:00 PM - 6:00 PM,Mon 10:00 AM - 9:00 PM,Tue 10:00 AM - 9:00 PM,Wed 10:00 AM - 9:00 PM,Thu 10:00 AM - 9:00 PM,Fri 10:00 AM - 9:00 PM,Sat 10:00 AM - 9:00 PM"
"rackroomshoes.com","https://www.rackroomshoes.com/store/348","ROCKWALL MARKET CENTER","2833 MARKET CENTER DR","ROCKWALL","TX","75032","United States","348","9727223747","Rack Room Shoes","32.8958183","-96.4624568","Sun 12:00 PM - 6:00 PM,Mon 10:00 AM - 9:00 PM,Tue 10:00 AM - 9:00 PM,Wed 10:00 AM - 9:00 PM,Thu 10:00 AM - 9:00 PM,Fri 10:00 AM - 9:00 PM,Sat 10:00 AM - 9:00 PM"
"rackroomshoes.com","https://www.rackroomshoes.com/store/537","BATTLEFIELD MALL","2825 S GLENSTONE SPACE EO4D","SPRINGFIELD","MO","65804","United States","537","4178909274","Rack Room Shoes","37.1614457","-93.2652386","Sun 12:00 PM - 6:00 PM,Mon 10:00 AM - 9:00 PM,Tue 10:00 AM - 9:00 PM,Wed 10:00 AM - 9:00 PM,Thu 10:00 AM - 9:00 PM,Fri 10:00 AM - 9:00 PM,Sat 10:00 AM - 9:00 PM"
"rackroomshoes.com","https://www.rackroomshoes.com/store/550","LIBERTY CROSSING","5703 LIBERTY GROVE ROAD","ROWLETT","TX","75089","United States","550","2146071670","Rack Room Shoes","32.9106483","-96.5578846","Sun 12:00 PM - 6:00 PM,Mon 10:00 AM - 9:00 PM,Tue 10:00 AM - 9:00 PM,Wed 10:00 AM - 9:00 PM,Thu 10:00 AM - 9:00 PM,Fri 10:00 AM - 9:00 PM,Sat 10:00 AM - 9:00 PM"
"rackroomshoes.com","https://www.rackroomshoes.com/store/460","CENTRAL MARKETPLACE","2424 WEST LOOP 340","WACO","TX","76711","United States","460","2546623766","Rack Room Shoes","31.4989689","-97.1573177","Sun 12:00 PM - 6:00 PM,Mon 10:00 AM - 9:00 PM,Tue 10:00 AM - 9:00 PM,Wed 10:00 AM - 9:00 PM,Thu 10:00 AM - 9:00 PM,Fri 10:00 AM - 9:00 PM,Sat 10:00 AM - 9:00 PM"
"rackroomshoes.com","https://www.rackroomshoes.com/store/585","WOODBRIDGE CROSSING","3420 W FM544 STE 780","WYLIE","TX","75098","United States","585","9724291387","Rack Room Shoes","33.0089348","-96.5930147","Sun 12:00 PM - 6:00 PM,Mon 10:00 AM - 9:00 PM,Tue 10:00 AM - 9:00 PM,Wed 10:00 AM - 9:00 PM,Thu 10:00 AM - 9:00 PM,Fri 10:00 AM - 9:00 PM,Sat 10:00 AM - 9:00 PM"
"rackroomshoes.com","https://www.rackroomshoes.com/store/543","STONE HILL T/C SUITE 400","18700 LIMESTONE COMMERCIAL DR","PFLUGERVILLE","TX","78660","United States","543","5129900265","Rack Room Shoes","30.4673232","-97.5987853","Sun 12:00 PM - 6:00 PM,Mon 10:00 AM - 9:00 PM,Tue 10:00 AM - 9:00 PM,Wed 10:00 AM - 9:00 PM,Thu 10:00 AM - 9:00 PM,Fri 10:00 AM - 9:00 PM,Sat 10:00 AM - 9:00 PM"
"rackroomshoes.com","https://www.rackroomshoes.com/store/470","ALLEN PREMIUM OUTLETS","820 W STACY RD STE 318","ALLEN","TX","75013","United States","470","9726784560","Rack Room Shoes","33.1309905","-96.6609304","Sun 11:00 AM - 7:00 PM,Mon 10:00 AM - 9:00 PM,Tue 10:00 AM - 9:00 PM,Wed 10:00 AM - 9:00 PM,Thu 10:00 AM - 9:00 PM,Fri 10:00 AM - 9:00 PM,Sat 10:00 AM - 9:00 PM"
"rackroomshoes.com","https://www.rackroomshoes.com/store/347","CAMERON CROSSING","1751 N CENTRAL EXPY STE F","MCKINNEY","TX","75070","United States","347","9725427155","Rack Room Shoes","33.2146936","-96.6400116","Sun 12:00 PM - 6:00 PM,Mon 10:00 AM - 9:00 PM,Tue 10:00 AM - 9:00 PM,Wed 10:00 AM - 9:00 PM,Thu 10:00 AM - 9:00 PM,Fri 10:00 AM - 9:00 PM,Sat 10:00 AM - 9:00 PM"
"rackroomshoes.com","https://www.rackroomshoes.com/store/349","LA FRONTERA VILLAGE","2701 PARKER RD BLDG A  STE 600","ROUND ROCK","TX","78681","United States","349","5126000106","Rack Room Shoes","30.4809805","-97.6784798","Sun 12:00 PM - 6:00 PM,Mon 10:00 AM - 9:00 PM,Tue 10:00 AM - 9:00 PM,Wed 10:00 AM - 9:00 PM,Thu 10:00 AM - 9:00 PM,Fri 10:00 AM - 9:00 PM,Sat 10:00 AM - 9:00 PM"
"rackroomshoes.com","https://www.rackroomshoes.com/store/445","SOUTHPARK MEADOWS","9600 S INTERSTATE 35 STE N100","AUSTIN","TX","78748","United States","445","5122921995","Rack Room Shoes","30.1597669","-97.7931663","Sun 12:00 PM - 6:00 PM,Mon 10:00 AM - 9:00 PM,Tue 10:00 AM - 9:00 PM,Wed 10:00 AM - 9:00 PM,Thu 10:00 AM - 9:00 PM,Fri 10:00 AM - 9:00 PM,Sat 10:00 AM - 9:00 PM"
"rackroomshoes.com","https://www.rackroomshoes.com/store/441","WOLF RANCH SHOPPING CENTER","1021 W UNIVERSITY AVE STE 125","GEORGETOWN","TX","78628","United States","441","5128199951","Rack Room Shoes","30.6294402","-97.6974214","Sun 12:00 PM - 6:00 PM,Mon 10:00 AM - 9:00 PM,Tue 10:00 AM - 9:00 PM,Wed 10:00 AM - 9:00 PM,Thu 10:00 AM - 9:00 PM,Fri 10:00 AM - 9:00 PM,Sat 10:00 AM - 9:00 PM"
"rackroomshoes.com","https://www.rackroomshoes.com/store/591","KYLE CROSSING SHOPPING CENTER","5132 KYLE CENTER DR STE 110","KYLE","TX","78640","United States","591","5122681815","Rack Room Shoes","30.0118233","-97.8651639","Sun 12:00 PM - 6:00 PM,Mon 10:00 AM - 9:00 PM,Tue 10:00 AM - 9:00 PM,Wed 10:00 AM - 9:00 PM,Thu 10:00 AM - 9:00 PM,Fri 10:00 AM - 9:00 PM,Sat 10:00 AM - 9:00 PM"
"rackroomshoes.com","https://www.rackroomshoes.com/store/339","TRENTON CROSSING","7600 NORTH 10TH ST. STE 600 B","MCALLEN","TX","78504","United States","339","9569281299","Rack Room Shoes","26.2727858","-98.2154712","Sun 12:00 PM - 6:00 PM,Mon 10:00 AM - 9:00 PM,Tue 10:00 AM - 9:00 PM,Wed 10:00 AM - 9:00 PM,Thu 10:00 AM - 9:00 PM,Fri 10:00 AM - 9:00 PM,Sat 10:00 AM - 9:00 PM"
"rackroomshoes.com","https://www.rackroomshoes.com/store/539","OSAGE BEACH OUTLET MARKETPLACE","4540 HIGHWAY 54 STE D1","OSAGE BEACH","MO","65065","United States","539","5733024542","Rack Room Shoes","38.1364615","-92.6397505","Sun 10:00 AM - 7:00 PM,Mon 10:00 AM - 9:00 PM,Tue 10:00 AM - 9:00 PM,Wed 10:00 AM - 9:00 PM,Thu 10:00 AM - 9:00 PM,Fri 10:00 AM - 9:00 PM,Sat 10:00 AM - 9:00 PM"
"rackroomshoes.com","https://www.rackroomshoes.com/store/744","GATES OF PROSPER","1071 SOUTH PRESTON RD","PROSPER","TX","75078","United States","744","9723479559","Rack Room Shoes","33.2233192","-96.794538","Sun 12:00 PM - 6:00 PM,Mon 10:00 AM - 9:00 PM,Tue 10:00 AM - 9:00 PM,Wed 10:00 AM - 9:00 PM,Thu 10:00 AM - 9:00 PM,Fri 10:00 AM - 9:00 PM,Sat 10:00 AM - 9:00 PM"
"rackroomshoes.com","https://www.rackroomshoes.com/store/623","GRAND PRAIRIE PREMIUM OUTLETS","2950 W I-20 STE 720","GRAND PRAIRIE","TX","75052","United States","623","9725221697","Rack Room Shoes","32.6786512","-97.0545496","Sun 11:00 AM - 6:00 PM,Mon 10:00 AM - 9:00 PM,Tue 10:00 AM - 9:00 PM,Wed 10:00 AM - 9:00 PM,Thu 10:00 AM - 9:00 PM,Fri 10:00 AM - 9:00 PM,Sat 10:00 AM - 9:00 PM"
"rackroomshoes.com","https://www.rackroomshoes.com/store/343","MCARTHUR PARK SHOPPING CTR","7727 NORTH MACARTHUR BLVD","IRVING","TX","75063","United States","343","9728318766","Rack Room Shoes","32.9103867","-96.9614605","Sun 12:00 PM - 6:00 PM,Mon 10:00 AM - 9:00 PM,Tue 10:00 AM - 9:00 PM,Wed 10:00 AM - 9:00 PM,Thu 10:00 AM - 9:00 PM,Fri 10:00 AM - 9:00 PM,Sat 10:00 AM - 9:00 PM"
"rackroomshoes.com","https://www.rackroomshoes.com/store/574","IRVING MALL","3712 IRVING MALL STE EO3B","IRVING","TX","75062","United States","574","9722551384","Rack Room Shoes","32.8394103","-96.996353","Sun 12:00 PM - 6:00 PM,Mon 10:00 AM - 9:00 PM,Tue 10:00 AM - 9:00 PM,Wed 10:00 AM - 9:00 PM,Thu 10:00 AM - 9:00 PM,Fri 10:00 AM - 9:00 PM,Sat 10:00 AM - 9:00 PM"
"rackroomshoes.com","https://www.rackroomshoes.com/store/771","VISTA RIDGE VILLAGE","2325 S. STEMMONS FWY. STE 108","LEWISVILLE","TX","75067","United States","771","2144884468","Rack Room Shoes","33.0069013","-96.9772267","Sun 12:00 PM - 6:00 PM,Mon 10:00 AM - 9:00 PM,Tue 10:00 AM - 9:00 PM,Wed 10:00 AM - 9:00 PM,Thu 10:00 AM - 9:00 PM,Fri 10:00 AM - 9:00 PM,Sat 10:00 AM - 9:00 PM"
"rackroomshoes.com","https://www.rackroomshoes.com/store/464","LINCOLN SQUARE","400 LINCOLN SQ","ARLINGTON","TX","76011","United States","464","8178018595","Rack Room Shoes","32.757878","-97.098215","Sun 12:00 PM - 6:00 PM,Mon 10:00 AM - 9:00 PM,Tue 10:00 AM - 9:00 PM,Wed 10:00 AM - 9:00 PM,Thu 10:00 AM - 9:00 PM,Fri 10:00 AM - 9:00 PM,Sat 10:00 AM - 9:00 PM"
"rackroomshoes.com","https://www.rackroomshoes.com/store/465","TANGER OUTLETS","4015 IH 35 S STE 326","SAN MARCOS","TX","78666","United States","465","5123921642","Rack Room Shoes","29.7365652","-98.0712426","Sun 10:00 AM - 7:00 PM,Mon 9:00 AM - 9:00 PM,Tue 9:00 AM - 9:00 PM,Wed 9:00 AM - 9:00 PM,Thu 9:00 AM - 9:00 PM,Fri 9:00 AM - 9:00 PM,Sat 9:00 AM - 9:00 PM"
"rackroomshoes.com","https://www.rackroomshoes.com/store/683","TOWN CENTER AT CREEKSIDE","243 CREEKSIDE CROSSING","NEW BRAUNFELS","TX","78130","United States","683","8306292396","Rack Room Shoes","29.7254571","-98.0741625","Sun 12:00 PM - 6:00 PM,Mon 10:00 AM - 9:00 PM,Tue 10:00 AM - 9:00 PM,Wed 10:00 AM - 9:00 PM,Thu 10:00 AM - 9:00 PM,Fri 10:00 AM - 9:00 PM,Sat 10:00 AM - 9:00 PM"
"rackroomshoes.com","https://www.rackroomshoes.com/store/276","GRAPEVINE MILLS","3000 GRAPEVINE MILLS PKWY STE 128","GRAPEVINE","TX","76051","United States","276","9725392818","Rack Room Shoes","32.9639891","-97.0434169","Sun 11:00 AM - 7:00 PM,Mon 10:00 AM - 9:00 PM,Tue 10:00 AM - 9:00 PM,Wed 10:00 AM - 9:00 PM,Thu 10:00 AM - 9:00 PM,Fri 10:00 AM - 9:00 PM,Sat 10:00 AM - 9:00 PM"
"rackroomshoes.com","https://www.rackroomshoes.com/store/5089","GRAPEVINE MILLS","3000 GRAPEVINE MILLS PKWY STE 603","GRAPEVINE","TX","76051","United States","5089","9726914676","Off Broadway Shoe Warehouse","32.9649145","-97.044089","Sun 12:00 PM - 7:00 PM,Mon 11:00 AM - 7:00 PM,Tue 11:00 AM - 7:00 PM,Wed 11:00 AM - 7:00 PM,Thu 11:00 AM - 7:00 PM,Fri 11:00 AM - 8:00 PM,Sat 11:00 AM - 8:00 PM"
"rackroomshoes.com","https://www.rackroomshoes.com/store/719","SHOPS AT FIVE HILLS","232 ROBERT GRIFFIN III BLVD STE 400","COPPERAS COVE","TX","76522","United States","719","2545479087","Rack Room Shoes","31.1184972","-97.8666839","Sun 12:00 PM - 6:00 PM,Mon 10:00 AM - 9:00 PM,Tue 10:00 AM - 9:00 PM,Wed 10:00 AM - 9:00 PM,Thu 10:00 AM - 9:00 PM,Fri 10:00 AM - 9:00 PM,Sat 10:00 AM - 9:00 PM"
"rackroomshoes.com","https://www.rackroomshoes.com/store/544","WOOD LAKE CROSSING","6230 WOOD GLEN DR STE #101","SAN ANTONIO","TX","78244","United States","544","2103101758","Rack Room Shoes","29.48327279","-98.34963919","Sun 12:00 PM - 6:00 PM,Mon 10:00 AM - 9:00 PM,Tue 10:00 AM - 9:00 PM,Wed 10:00 AM - 9:00 PM,Thu 10:00 AM - 9:00 PM,Fri 10:00 AM - 9:00 PM,Sat 10:00 AM - 9:00 PM"
"rackroomshoes.com","https://www.rackroomshoes.com/store/519","ALLIANCE TOWN CENTER","9520 SAGE MEADOW TRAIL","FORT WORTH","TX","76177","United States","519","8177500400","Rack Room Shoes","32.9112194","-97.314154","Sun 12:00 PM - 6:00 PM,Mon 10:00 AM - 9:00 PM,Tue 10:00 AM - 9:00 PM,Wed 10:00 AM - 9:00 PM,Thu 10:00 AM - 9:00 PM,Fri 10:00 AM - 9:00 PM,Sat 10:00 AM - 9:00 PM"
"rackroomshoes.com","https://www.rackroomshoes.com/store/753","TANGER OUTLET CENTER - FORT WORTH","15829 NORTH FREEWAY SUITE 130","FORT WORTH","TX","76177","United States","753","6828311430","Rack Room Shoes","33.0213272","-97.2805444","Sun 10:00 AM - 7:00 PM,Mon 9:00 AM - 9:00 PM,Tue 9:00 AM - 9:00 PM,Wed 9:00 AM - 9:00 PM,Thu 9:00 AM - 9:00 PM,Fri 9:00 AM - 9:00 PM,Sat 9:00 AM - 9:00 PM"
"rackroomshoes.com","https://www.rackroomshoes.com/store/5130","TANGER OUTLET CENTER - FORT WORTH","15845 NORTH FREEWAY SUITE 600","FORT WORTH","TX","76177","United States","5130","6828311458","Off Broadway Shoe Warehouse","33.0222995","-97.2834531","Sun 10:00 AM - 7:00 PM,Mon 9:00 AM - 9:00 PM,Tue 9:00 AM - 9:00 PM,Wed 9:00 AM - 9:00 PM,Thu 9:00 AM - 9:00 PM,Fri 9:00 AM - 9:00 PM,Sat 9:00 AM - 9:00 PM"
"rackroomshoes.com","https://www.rackroomshoes.com/store/498","LAKE WORTH MARKETPLACE","6046 AZLE AVE STE 200","LAKE WORTH","TX","76135","United States","498","8172375338","Rack Room Shoes","32.8159698","-97.415914","Sun 12:00 PM - 6:00 PM,Mon 10:00 AM - 9:00 PM,Tue 10:00 AM - 9:00 PM,Wed 10:00 AM - 9:00 PM,Thu 10:00 AM - 9:00 PM,Fri 10:00 AM - 9:00 PM,Sat 10:00 AM - 9:00 PM"
"rackroomshoes.com","https://www.rackroomshoes.com/store/277","ALAMO QUARRY MARKET","255 E. BASSE RD STE 104","SAN ANTONIO","TX","78209","United States","277","2108225890","Rack Room Shoes","29.4957603","-98.4808168","Sun 12:00 PM - 6:00 PM,Mon 10:00 AM - 9:00 PM,Tue 10:00 AM - 9:00 PM,Wed 10:00 AM - 9:00 PM,Thu 10:00 AM - 9:00 PM,Fri 10:00 AM - 9:00 PM,Sat 10:00 AM - 9:00 PM"
"rackroomshoes.com","https://www.rackroomshoes.com/store/342","NORTHWOODS SHOPPING CENTER","18030 US HWY 281 NORTH STE116","SAN ANTONIO","TX","78232","United States","342","2104023155","Rack Room Shoes","29.6043096","-98.4673993","Sun 12:00 PM - 6:00 PM,Mon 10:00 AM - 9:00 PM,Tue 10:00 AM - 9:00 PM,Wed 10:00 AM - 9:00 PM,Thu 10:00 AM - 9:00 PM,Fri 10:00 AM - 9:00 PM,Sat 10:00 AM - 9:00 PM"
"rackroomshoes.com","https://www.rackroomshoes.com/store/781","LUTON RANCH","3740 E HWY. 377","GRANBURY","TX","76049","United States","781","8175732637","Rack Room Shoes","32.4559812","-97.7301616","Sun 12:00 PM - 6:00 PM,Mon 10:00 AM - 9:00 PM,Tue 10:00 AM - 9:00 PM,Wed 10:00 AM - 9:00 PM,Thu 10:00 AM - 9:00 PM,Fri 10:00 AM - 9:00 PM,Sat 10:00 AM - 9:00 PM"
"rackroomshoes.com","https://www.rackroomshoes.com/store/604","HUEBNER OAKS","11745 W INTERSTATE HWY 10W STE 615","SAN ANTONIO","TX","78230","United States","604","2105614469","Rack Room Shoes","29.5504423","-98.5812934","Sun 12:00 PM - 6:00 PM,Mon 10:00 AM - 9:00 PM,Tue 10:00 AM - 9:00 PM,Wed 10:00 AM - 9:00 PM,Thu 10:00 AM - 9:00 PM,Fri 10:00 AM - 9:00 PM,Sat 10:00 AM - 9:00 PM"
"rackroomshoes.com","https://www.rackroomshoes.com/store/678"," WESTBROOK OUTLETS","314 FLAT ROCK PLACE","WESTBROOK","CT","06498","United States","678","8603990072","Rack Room Shoes","41.2890701","-72.4293552","Sun 10:00 AM - 6:00 PM,Mon 10:00 AM - 6:00 PM,Tue 10:00 AM - 6:00 PM,Wed 10:00 AM - 6:00 PM,Thu 10:00 AM - 6:00 PM,Fri 10:00 AM - 6:00 PM,Sat 10:00 AM - 6:00 PM"
"rackroomshoes.com","https://www.rackroomshoes.com/store/344","INGRAM PARK MALL","6301 NW LOOP 410 #523C","SAN ANTONIO","TX","78238","United States","344","2106849638","Rack Room Shoes","29.4681","-98.6204","Sun 12:00 PM - 6:00 PM,Mon 10:00 AM - 9:00 PM,Tue 10:00 AM - 9:00 PM,Wed 10:00 AM - 9:00 PM,Thu 10:00 AM - 9:00 PM,Fri 10:00 AM - 9:00 PM,Sat 10:00 AM - 9:00 PM"
"rackroomshoes.com","https://www.rackroomshoes.com/store/438","WESTOVER MARKETPLACE","8219 STATE HIGHWAY 151 STE 122","SAN ANTONIO","TX","78245","United States","438","2106809158","Rack Room Shoes","29.4390947","-98.6486596","Sun 12:00 PM - 6:00 PM,Mon 10:00 AM - 9:00 PM,Tue 10:00 AM - 9:00 PM,Wed 10:00 AM - 9:00 PM,Thu 10:00 AM - 9:00 PM,Fri 10:00 AM - 9:00 PM,Sat 10:00 AM - 9:00 PM"
"rackroomshoes.com","https://www.rackroomshoes.com/store/370","BANDERA POINTE","11667 BANDERA ROAD","SAN ANTONIO","TX","78250","United States","370","2106823627","Rack Room Shoes","29.5502122","-98.667067","Sun 12:00 PM - 6:00 PM,Mon 10:00 AM - 9:00 PM,Tue 10:00 AM - 9:00 PM,Wed 10:00 AM - 9:00 PM,Thu 10:00 AM - 9:00 PM,Fri 10:00 AM - 9:00 PM,Sat 10:00 AM - 9:00 PM"
"rackroomshoes.com","https://www.rackroomshoes.com/store/533","ALAMO RANCH MARKET PLACE","5347 W. LOOP 1604 NORTH STE 126","SAN ANTONIO","TX","78253","United States","533","2106805878","Rack Room Shoes","29.4897135","-98.7118103","Sun 12:00 PM - 6:00 PM,Mon 10:00 AM - 9:00 PM,Tue 10:00 AM - 9:00 PM,Wed 10:00 AM - 9:00 PM,Thu 10:00 AM - 9:00 PM,Fri 10:00 AM - 9:00 PM,Sat 10:00 AM - 9:00 PM"
"rackroomshoes.com","https://www.rackroomshoes.com/store/431","WEATHERFORD MARKETPLACE","138 E INTERSTATE 20 STE 180","WEATHERFORD","TX","76087","United States","431","8175999860","Rack Room Shoes","32.7279161","-97.7847514","Sun 12:00 PM - 6:00 PM,Mon 10:00 AM - 9:00 PM,Tue 10:00 AM - 9:00 PM,Wed 10:00 AM - 9:00 PM,Thu 10:00 AM - 9:00 PM,Fri 10:00 AM - 9:00 PM,Sat 10:00 AM - 9:00 PM"
"rackroomshoes.com","https://www.rackroomshoes.com/store/517","TULSA HILLS SHOPPING CENTER","7403 S. OLYMPIA AVE","TULSA","OK","74132","United States","517","9184478846","Rack Room Shoes","36.0562817","-96.0010893","Sun 12:00 PM - 6:00 PM,Mon 10:00 AM - 9:00 PM,Tue 10:00 AM - 9:00 PM,Wed 10:00 AM - 9:00 PM,Thu 10:00 AM - 9:00 PM,Fri 10:00 AM - 9:00 PM,Sat 10:00 AM - 9:00 PM"
"rackroomshoes.com","https://www.rackroomshoes.com/store/621","THE SHOPPES AT BUCKLAND HILLS","194 BUCKLAND HILLS DRIVE","MANCHESTER","CT","06042","United States","621","8606480375","Rack Room Shoes","41.8072163","-72.5460392","Sun 11:00 AM - 6:00 PM,Mon 10:00 AM - 9:00 PM,Tue 10:00 AM - 9:00 PM,Wed 10:00 AM - 9:00 PM,Thu 10:00 AM - 9:00 PM,Fri 10:00 AM - 9:00 PM,Sat 10:00 AM - 9:00 PM"
"rackroomshoes.com","https://www.rackroomshoes.com/store/734","SILVER LAKE VILLAGE","2433 SE ADAMS BLVD","BARTLESVILLE","OK","74003","United States","734","9183319896","Rack Room Shoes","36.7407407","-95.9491452","Sun 11:00 AM - 6:00 PM,Mon 10:00 AM - 9:00 PM,Tue 10:00 AM - 9:00 PM,Wed 10:00 AM - 9:00 PM,Thu 10:00 AM - 9:00 PM,Fri 10:00 AM - 9:00 PM,Sat 10:00 AM - 9:00 PM"
"rackroomshoes.com","https://www.rackroomshoes.com/store/689","OUTLET SHOPPES AT LAREDO","1600 WATER ST. STE A150","LAREDO","TX","78040","United States","689","9567212719","Rack Room Shoes","27.5019434","-99.5115197","Sun 11:00 AM - 7:00 PM,Mon 10:00 AM - 9:00 PM,Tue 10:00 AM - 9:00 PM,Wed 10:00 AM - 9:00 PM,Thu 10:00 AM - 9:00 PM,Fri 10:00 AM - 9:00 PM,Sat 10:00 AM - 9:00 PM"
"rackroomshoes.com","https://www.rackroomshoes.com/store/5093","WARWICK MALL","400 BALD HILL ROAD STE A2","WARWICK","RI","02886","United States","5093","4017420929","Off Broadway Shoe Warehouse","41.7228101","-71.4754813","Sun 11:00 AM - 6:00 PM,Mon 10:00 AM - 9:00 PM,Tue 10:00 AM - 9:00 PM,Wed 10:00 AM - 9:00 PM,Thu 10:00 AM - 9:00 PM,Fri 10:00 AM - 9:00 PM,Sat 10:00 AM - 9:00 PM"
"rackroomshoes.com","https://www.rackroomshoes.com/store/620","HOLYOKE MALL","50 HOLYOKE STREET","HOLYOKE","MA","01040","United States","620","4135360452","Rack Room Shoes","42.1676302","-72.6413569","Sun 11:00 AM - 6:00 PM,Mon 10:00 AM - 9:30 PM,Tue 10:00 AM - 9:30 PM,Wed 10:00 AM - 9:30 PM,Thu 10:00 AM - 9:30 PM,Fri 10:00 AM - 9:30 PM,Sat 10:00 AM - 9:30 PM"
"rackroomshoes.com","https://www.rackroomshoes.com/store/625","PROVIDENCE PLACE","138 PROVIDENCE PLACE SUITE 4210","PROVIDENCE","RI","02903","United States","625","4012707536","Rack Room Shoes","41.8277511","-71.4188555","Sun 11:00 AM - 6:00 PM,Mon 10:00 AM - 9:00 PM,Tue 10:00 AM - 9:00 PM,Wed 10:00 AM - 9:00 PM,Thu 10:00 AM - 9:00 PM,Fri 10:00 AM - 9:00 PM,Sat 10:00 AM - 9:00 PM"
"rackroomshoes.com","https://www.rackroomshoes.com/store/3100","DESTINY USA","306 HIAWATHA BLVD W BOX 9805","SYRACUSE","NY","13204","United States","3100","3154224480","Off Broadway Shoe Warehouse","43.0692696","-76.1712198","Sun 11:00 AM - 6:00 PM,Mon 10:00 AM - 9:30 PM,Tue 10:00 AM - 9:30 PM,Wed 10:00 AM - 9:30 PM,Thu 10:00 AM - 9:30 PM,Fri 10:00 AM - 9:30 PM,Sat 10:00 AM - 9:30 PM"
"rackroomshoes.com","https://www.rackroomshoes.com/store/3110","CROSSGATES MALL","1 CROSSGATES MALL RD L210","ALBANY","NY","12203","United States","3110","5184526028","Off Broadway Shoe Warehouse","42.6898983","-73.8522306","Sun 11:00 AM - 6:00 PM,Mon 10:00 AM - 9:30 PM,Tue 10:00 AM - 9:30 PM,Wed 10:00 AM - 9:30 PM,Thu 10:00 AM - 9:30 PM,Fri 10:00 AM - 9:30 PM,Sat 10:00 AM - 9:30 PM"
"rackroomshoes.com","https://www.rackroomshoes.com/store/461","LAKEVIEW POINTE","2120 N PERKINS RD","STILLWATER","OK","74075","United States","461","4055331513","Rack Room Shoes","36.1430917","-97.0538476","Sun 12:00 PM - 6:00 PM,Mon 10:00 AM - 9:00 PM,Tue 10:00 AM - 9:00 PM,Wed 10:00 AM - 9:00 PM,Thu 10:00 AM - 9:00 PM,Fri 10:00 AM - 9:00 PM,Sat 10:00 AM - 9:00 PM"
"rackroomshoes.com","https://www.rackroomshoes.com/store/5092","GURNEE MILLS","6170 GRAND AVE STE 677","GURNEE","IL","60031","United States","5092","8478551167","Off Broadway Shoe Warehouse","42.3884267","-87.955688","Sun 11:00 AM - 7:00 PM,Mon 10:00 AM - 9:00 PM,Tue 10:00 AM - 9:00 PM,Wed 10:00 AM - 9:00 PM,Thu 10:00 AM - 9:00 PM,Fri 10:00 AM - 9:00 PM,Sat 10:00 AM - 9:00 PM"
"rackroomshoes.com","https://www.rackroomshoes.com/store/5080","PATRIOT PLACE","370 PATRIOT PL","FOXBOROUGH","MA","02035","United States","5080","5085432100","Off Broadway Shoe Warehouse","42.0862803","-71.2696683","Sun 11:00 AM - 6:00 PM,Mon 10:00 AM - 9:00 PM,Tue 10:00 AM - 9:00 PM,Wed 10:00 AM - 9:00 PM,Thu 10:00 AM - 9:00 PM,Fri 10:00 AM - 9:00 PM,Sat 10:00 AM - 9:00 PM"
"rackroomshoes.com","https://www.rackroomshoes.com/store/541","OKLAHOMA CITY OUTLETS","7642 W. RENO AVE. SPC D-540","OKLAHOMA CITY","OK","73127","United States","541","4057890351","Rack Room Shoes","35.4625421","-97.6477248","Sun 1:00 PM - 6:00 PM,Mon 10:00 AM - 9:00 PM,Tue 10:00 AM - 9:00 PM,Wed 10:00 AM - 9:00 PM,Thu 10:00 AM - 9:00 PM,Fri 10:00 AM - 9:00 PM,Sat 10:00 AM - 9:00 PM"
"rackroomshoes.com","https://www.rackroomshoes.com/store/5052","WARD PARKWAY MALL","8600 WARD PKWY","KANSAS CITY","MO","64114","United States","5052","8168228858","Off Broadway Shoe Warehouse","38.9706721","-94.60684","Sun 12:00 PM - 6:00 PM,Mon 10:00 AM - 9:00 PM,Tue 10:00 AM - 9:00 PM,Wed 10:00 AM - 9:00 PM,Thu 10:00 AM - 9:00 PM,Fri 10:00 AM - 9:00 PM,Sat 10:00 AM - 9:00 PM"
"rackroomshoes.com","https://www.rackroomshoes.com/store/736","THE MARKET AT CZECH HALL","12444 NW 10TH ST BLDG B","OKLAHOMA CITY","OK","73099","United States","736","4053242291","Rack Room Shoes","35.47635","-97.7480362","Sun 11:00 AM - 6:00 PM,Mon 10:00 AM - 9:00 PM,Tue 10:00 AM - 9:00 PM,Wed 10:00 AM - 9:00 PM,Thu 10:00 AM - 9:00 PM,Fri 10:00 AM - 9:00 PM,Sat 10:00 AM - 9:00 PM"
"rackroomshoes.com","https://www.rackroomshoes.com/store/5058","OLATHE POINTE","14695 W 119TH ST","OLATHE","KS","66062","United States","5058","9138295566","Off Broadway Shoe Warehouse","38.9097401","-94.7593704","Sun 11:00 AM - 6:00 PM,Mon 10:00 AM - 9:00 PM,Tue 10:00 AM - 9:00 PM,Wed 10:00 AM - 9:00 PM,Thu 10:00 AM - 9:00 PM,Fri 10:00 AM - 9:00 PM,Sat 10:00 AM - 9:00 PM"
"rackroomshoes.com","https://www.rackroomshoes.com/store/5122","LIBERTY COMMONS","253 S. STEWART ROAD","LIBERTY","MO","64068","United States","5122","8164153885","Off Broadway Shoe Warehouse","39.2420126","-94.4538009","Sun 11:00 AM - 6:00 PM,Mon 10:00 AM - 9:00 PM,Tue 10:00 AM - 9:00 PM,Wed 10:00 AM - 9:00 PM,Thu 10:00 AM - 9:00 PM,Fri 10:00 AM - 9:00 PM,Sat 10:00 AM - 9:00 PM"
"rackroomshoes.com","https://www.rackroomshoes.com/store/5056","LEGENDS OUTLETS","1811 VILLAGE WEST PKWY STE 0115","KANSAS CITY","KS","66111","United States","5056","9137882701","Off Broadway Shoe Warehouse","39.1257925","-94.8243608","Sun 11:00 AM - 7:00 PM,Mon 10:00 AM - 9:00 PM,Tue 10:00 AM - 9:00 PM,Wed 10:00 AM - 9:00 PM,Thu 10:00 AM - 9:00 PM,Fri 10:00 AM - 10:00 PM,Sat 10:00 AM - 10:00 PM"
"rackroomshoes.com","https://www.rackroomshoes.com/store/793","LEGENDS OUTLETS","1829 VILLAGE W. PKWY STE 107","KANSAS CITY","KS","66111","United States","793","9137885448","Rack Room Shoes","39.126864","-94.8239558","Sun 11:00 AM - 6:00 PM,Mon 11:00 AM - 7:00 PM,Tue 11:00 AM - 7:00 PM,Wed 11:00 AM - 7:00 PM,Thu 11:00 AM - 7:00 PM,Fri 11:00 AM - 7:00 PM,Sat 11:00 AM - 7:00 PM"
"rackroomshoes.com","https://www.rackroomshoes.com/store/622","NORTHSHORE MALL","210 ANDOVER STREET","PEABODY","MA","01960","United States","622","9789772792","Rack Room Shoes","42.5396335","-70.943273","Sun 11:00 AM - 6:00 PM,Mon 10:00 AM - 9:00 PM,Tue 10:00 AM - 9:00 PM,Wed 10:00 AM - 9:00 PM,Thu 10:00 AM - 9:00 PM,Fri 10:00 AM - 9:00 PM,Sat 10:00 AM - 9:00 PM"
"rackroomshoes.com","https://www.rackroomshoes.com/store/5084","LIBERTY TREE MALL","100 INDEPENDENCE WAY","DANVERS","MA","01923","United States","5084","9787775129","Off Broadway Shoe Warehouse","42.5528479","-70.9401907","Sun 11:00 AM - 6:00 PM,Mon 10:00 AM - 9:00 PM,Tue 10:00 AM - 9:00 PM,Wed 10:00 AM - 9:00 PM,Thu 10:00 AM - 9:00 PM,Fri 10:00 AM - 9:00 PM,Sat 10:00 AM - 9:00 PM"
"rackroomshoes.com","https://www.rackroomshoes.com/store/5045","TJ MAXX PLAZA","70 MARCH AVE","MANCHESTER","NH","03103","United States","5045","6032222049","Off Broadway Shoe Warehouse","42.9612809","-71.4419339","Sun 10:00 AM - 7:00 PM,Mon 10:00 AM - 9:00 PM,Tue 10:00 AM - 9:00 PM,Wed 10:00 AM - 9:00 PM,Thu 10:00 AM - 9:00 PM,Fri 10:00 AM - 9:00 PM,Sat 10:00 AM - 9:00 PM"
"rackroomshoes.com","https://www.rackroomshoes.com/store/5097","EAST HILLS MALL","3702 FREDERICK AVE STE 1","SAINT JOSEPH","MO","64506","United States","5097","8169019356","Off Broadway Shoe Warehouse","39.7751541","-94.8014476","Sun 12:00 PM - 5:00 PM,Mon 10:00 AM - 9:00 PM,Tue 10:00 AM - 9:00 PM,Wed 10:00 AM - 9:00 PM,Thu 10:00 AM - 9:00 PM,Fri 10:00 AM - 9:00 PM,Sat 10:00 AM - 9:00 PM"
"rackroomshoes.com","https://www.rackroomshoes.com/store/538","WEST RIDGE MALL","1801 SW WANAMAKER RD STE A05","TOPEKA","KS","66604","United States","538","7852726003","Rack Room Shoes","39.031882","-95.7666457","Sun 12:00 PM - 6:00 PM,Mon 10:00 AM - 9:00 PM,Tue 10:00 AM - 9:00 PM,Wed 10:00 AM - 9:00 PM,Thu 10:00 AM - 9:00 PM,Fri 10:00 AM - 9:00 PM,Sat 10:00 AM - 9:00 PM"
"rackroomshoes.com","https://www.rackroomshoes.com/store/472","PLAZA DEL SOL","2205 VETERANS BLVD STE G10-11","DEL RIO","TX","78840","United States","472","8307742907","Rack Room Shoes","29.3903817","-100.9035012","Sun 12:00 PM - 7:00 PM,Mon 10:00 AM - 9:00 PM,Tue 10:00 AM - 9:00 PM,Wed 10:00 AM - 9:00 PM,Thu 10:00 AM - 9:00 PM,Fri 10:00 AM - 9:00 PM,Sat 10:00 AM - 9:00 PM"
"rackroomshoes.com","https://www.rackroomshoes.com/store/760","OUTLETS OF DES MOINES","739 BASS PRO DRIVE NW STE 530","ALTOONA","IA","50302","United States","760","5159570711","Rack Room Shoes","41.6563671","-93.512875","Sun 11:00 AM - 6:00 PM,Mon 10:00 AM - 9:00 PM,Tue 10:00 AM - 9:00 PM,Wed 10:00 AM - 9:00 PM,Thu 10:00 AM - 9:00 PM,Fri 10:00 AM - 9:00 PM,Sat 10:00 AM - 9:00 PM"
"rackroomshoes.com","https://www.rackroomshoes.com/store/671","NEBRASKA CROSSING OUTLETS","21407 NEBRASKA CROSSING DR STE J-10","GRETNA","NE","68028","United States","671","4023325467","Rack Room Shoes","41.098921","-96.251673","Sun 11:00 AM - 6:00 PM,Mon 10:00 AM - 9:00 PM,Tue 10:00 AM - 9:00 PM,Wed 10:00 AM - 9:00 PM,Thu 10:00 AM - 9:00 PM,Fri 10:00 AM - 9:00 PM,Sat 10:00 AM - 9:00 PM"
"rackroomshoes.com","https://www.rackroomshoes.com/store/512","CROSSROADS CENTER","2014 E 42ND ST","ODESSA","TX","79762","United States","512","4323623040","Rack Room Shoes","31.8881408","-102.3529649","Sun 12:00 PM - 6:00 PM,Mon 10:00 AM - 9:00 PM,Tue 10:00 AM - 9:00 PM,Wed 10:00 AM - 9:00 PM,Thu 10:00 AM - 9:00 PM,Fri 10:00 AM - 9:00 PM,Sat 10:00 AM - 9:00 PM"
"rackroomshoes.com","https://www.rackroomshoes.com/store/776","WEST END","2910 W LOOP 289","LUBBOCK","TX","79407","United States","776","8067970711","Rack Room Shoes","33.5677491","-101.946983","Sun 11:00 AM - 6:00 PM,Mon 10:00 AM - 9:00 PM,Tue 10:00 AM - 9:00 PM,Wed 10:00 AM - 9:00 PM,Thu 10:00 AM - 9:00 PM,Fri 10:00 AM - 9:00 PM,Sat 10:00 AM - 9:00 PM"
"rackroomshoes.com","https://www.rackroomshoes.com/store/425","LAS PALMAS MARKETPLACE","11917 GATEWAY WEST SUITE B","EL PASO","TX","79936","United States","425","9155942910","Rack Room Shoes","31.7246468","-106.3063261","Sun 11:00 AM - 6:00 PM,Mon 10:00 AM - 9:00 PM,Tue 10:00 AM - 9:00 PM,Wed 10:00 AM - 9:00 PM,Thu 10:00 AM - 9:00 PM,Fri 10:00 AM - 9:00 PM,Sat 10:00 AM - 9:00 PM"
"rackroomshoes.com","https://www.rackroomshoes.com/store/627","FOUNTAINS AT FARAH","8889 GATEWAY BLVD. W STE 580","EL PASO","TX","79925","United States","627","9155910653","Rack Room Shoes","31.7705267","-106.3717906","Sun 12:00 PM - 6:00 PM,Mon 10:00 AM - 9:00 PM,Tue 10:00 AM - 9:00 PM,Wed 10:00 AM - 9:00 PM,Thu 10:00 AM - 9:00 PM,Fri 10:00 AM - 9:00 PM,Sat 10:00 AM - 9:00 PM"
"rackroomshoes.com","https://www.rackroomshoes.com/store/471","BASSETT PLACE MALL","6101 GATEWAY WEST SUITE 440","EL PASO","TX","79925","United States","471","9158432699","Rack Room Shoes","31.7831084","-106.4130287","Sun 12:00 PM - 6:00 PM,Mon 10:00 AM - 9:00 PM,Tue 10:00 AM - 9:00 PM,Wed 10:00 AM - 9:00 PM,Thu 10:00 AM - 9:00 PM,Fri 10:00 AM - 9:00 PM,Sat 10:00 AM - 9:00 PM"
"rackroomshoes.com","https://www.rackroomshoes.com/store/685","NORTH HILLS CROSSING","10771 GATEWAY S. BLVD SOUTH BLDG E","EL PASO","TX","79934","United States","685","9158222582","Rack Room Shoes","31.9240241","-106.4393357","Sun 12:00 PM - 6:00 PM,Mon 10:00 AM - 9:00 PM,Tue 10:00 AM - 9:00 PM,Wed 10:00 AM - 9:00 PM,Thu 10:00 AM - 9:00 PM,Fri 10:00 AM - 9:00 PM,Sat 10:00 AM - 9:00 PM"
"rackroomshoes.com","https://www.rackroomshoes.com/store/765","WEST TOWNE MARKETPLACE","6450 DESERT BLVD. NORTH BUILDING 6","EL PASO","TX","79912","United States","765","9158758208","Rack Room Shoes","31.888459","-106.5778813","Sun 12:00 PM - 6:00 PM,Mon 10:00 AM - 9:00 PM,Tue 10:00 AM - 9:00 PM,Wed 10:00 AM - 9:00 PM,Thu 10:00 AM - 9:00 PM,Fri 10:00 AM - 9:00 PM,Sat 10:00 AM - 9:00 PM"
"rackroomshoes.com","https://www.rackroomshoes.com/store/500","OUTLET SHOPPES AT EL PASO","7051 SOUTH DESERT BLVD STE D-453","CANUTILLO","TX","79835","United States","500","9158773692","Rack Room Shoes","31.9122271","-106.5862608","Sun 11:00 AM - 7:00 PM,Mon 10:00 AM - 9:00 PM,Tue 10:00 AM - 9:00 PM,Wed 10:00 AM - 9:00 PM,Thu 10:00 AM - 9:00 PM,Fri 10:00 AM - 9:00 PM,Sat 10:00 AM - 9:00 PM"
"rackroomshoes.com","https://www.rackroomshoes.com/store/426","LAGUNA SECA S/C","3050 E. LOHMAN AVENUE STE E","LAS CRUCES","NM","88011","United States","426","5755329088","Rack Room Shoes","32.3158301","-106.7402344","Sun 11:00 AM - 6:00 PM,Mon 10:00 AM - 9:00 PM,Tue 10:00 AM - 9:00 PM,Wed 10:00 AM - 9:00 PM,Thu 10:00 AM - 9:00 PM,Fri 10:00 AM - 9:00 PM,Sat 10:00 AM - 9:00 PM"
"rackroomshoes.com","https://www.rackroomshoes.com/store/428","PAVILIONS @ SAN MATEO","4900 CUTLER AVE NE STE F2","ALBUQUERQUE","NM","87110","United States","428","5058885464","Rack Room Shoes","35.1046345","-106.5902895","Sun 11:00 AM - 6:00 PM,Mon 9:00 AM - 9:00 PM,Tue 9:00 AM - 9:00 PM,Wed 9:00 AM - 9:00 PM,Thu 9:00 AM - 9:00 PM,Fri 9:00 AM - 9:00 PM,Sat 9:00 AM - 9:00 PM"
"rackroomshoes.com","https://www.rackroomshoes.com/store/5149","SOUTHLANDS SHOPPING CENTER","23901 E ORCHARD RD UNIT A","AURORA","CO","80016","United States","5149","3036275721","Off Broadway Shoe Warehouse","39.608906","-104.7092583","Sun 11:00 AM - 7:00 PM,Mon 10:00 AM - 9:00 PM,Tue 10:00 AM - 9:00 PM,Wed 10:00 AM - 9:00 PM,Thu 10:00 AM - 9:00 PM,Fri 10:00 AM - 9:00 PM,Sat 10:00 AM - 9:00 PM"
"rackroomshoes.com","https://www.rackroomshoes.com/store/713","OUTLETS AT CASTLE ROCK","5050 FACTORY SHOPS BLVD STE 217","CASTLE ROCK","CO","80108","United States","713","3036601707","Rack Room Shoes","39.4149811","-104.873921","Sun 11:00 AM - 6:00 PM,Mon 10:00 AM - 8:00 PM,Tue 10:00 AM - 8:00 PM,Wed 10:00 AM - 8:00 PM,Thu 10:00 AM - 8:00 PM,Fri 10:00 AM - 8:00 PM,Sat 10:00 AM - 8:00 PM"
"rackroomshoes.com","https://www.rackroomshoes.com/store/5064","NORTHFIELD @ STAPLETON","8510 NORTHFIELD BLVD STE 1810","DENVER","CO","80238","United States","5064","3033710131","Off Broadway Shoe Warehouse","39.7853616","-104.888822","Sun 11:00 AM - 7:00 PM,Mon 10:00 AM - 9:00 PM,Tue 10:00 AM - 9:00 PM,Wed 10:00 AM - 9:00 PM,Thu 10:00 AM - 9:00 PM,Fri 10:00 AM - 9:00 PM,Sat 10:00 AM - 9:00 PM"
"rackroomshoes.com","https://www.rackroomshoes.com/store/3076","BELLEVIEW SHORES SHOPPING CENTER","5396 S WADSWORTH BLVD","LAKEWOOD","CO","80123","United States","3076","3039339490","Off Broadway Shoe Warehouse","39.6187634","-105.0880744","Sun 10:00 AM - 7:00 PM,Mon 10:00 AM - 9:00 PM,Tue 10:00 AM - 9:00 PM,Wed 10:00 AM - 9:00 PM,Thu 10:00 AM - 9:00 PM,Fri 10:00 AM - 9:00 PM,Sat 10:00 AM - 9:00 PM"
"rackroomshoes.com","https://www.rackroomshoes.com/store/5071","ORCHARD TOWN CENTER","14458 DELAWARE ST UNIT 400","WESTMINSTER","CO","80023","United States","5071","7208726215","Off Broadway Shoe Warehouse","39.9596033","-104.9899082","Sun 11:00 AM - 7:00 PM,Mon 10:00 AM - 9:00 PM,Tue 10:00 AM - 9:00 PM,Wed 10:00 AM - 9:00 PM,Thu 10:00 AM - 9:00 PM,Fri 10:00 AM - 9:00 PM,Sat 10:00 AM - 9:00 PM"
"rackroomshoes.com","https://www.rackroomshoes.com/store/3030","COLORADO MILLS","14500 W COLFAX AVE UNIT 541","LAKEWOOD","CO","80401","United States","3030","3032710161","Off Broadway Shoe Warehouse","39.7305483","-105.1619891","Sun 11:00 AM - 6:00 PM,Mon 10:00 AM - 9:00 PM,Tue 10:00 AM - 9:00 PM,Wed 10:00 AM - 9:00 PM,Thu 10:00 AM - 9:00 PM,Fri 10:00 AM - 9:00 PM,Sat 10:00 AM - 9:00 PM"
"rackroomshoes.com","https://www.rackroomshoes.com/store/703","TUCSON PREMIUM OUTLETS","6401 W. MARANA CENTER BLVD STE 907","TUCSON","AZ","85742","United States","703","5207447712","Rack Room Shoes","32.3755531","-111.101928","Sun 10:00 AM - 7:00 PM,Mon 10:00 AM - 9:00 PM,Tue 10:00 AM - 9:00 PM,Wed 10:00 AM - 9:00 PM,Thu 10:00 AM - 9:00 PM,Fri 10:00 AM - 9:00 PM,Sat 10:00 AM - 9:00 PM"
"rackroomshoes.com","https://www.rackroomshoes.com/store/607","FLAGSTAFF MALL","4650 N. HIGHWAY 89 SPACE B038","FLAGSTAFF","AZ","86004","United States","607","9285273794","Rack Room Shoes","35.2231818","-111.581811","Sun 11:00 AM - 6:00 PM,Mon 10:00 AM - 9:00 PM,Tue 10:00 AM - 9:00 PM,Wed 10:00 AM - 9:00 PM,Thu 10:00 AM - 9:00 PM,Fri 10:00 AM - 9:00 PM,Sat 10:00 AM - 9:00 PM"
"rackroomshoes.com","https://www.rackroomshoes.com/store/650","PHOENIX PREMIUM OUTLETS","4976 PREMIUM OUTLETS WAY SUITE 732","CHANDLER","AZ","85226","United States","650","4806391913","Rack Room Shoes","33.2869949","-111.9735812","Sun 10:00 AM - 7:00 PM,Mon 10:00 AM - 9:00 PM,Tue 10:00 AM - 9:00 PM,Wed 10:00 AM - 9:00 PM,Thu 10:00 AM - 9:00 PM,Fri 10:00 AM - 9:00 PM,Sat 10:00 AM - 9:00 PM"
"rackroomshoes.com","https://www.rackroomshoes.com/store/405","ARIZONA MILLS","5000 ARIZONA MILLS CIR  SP 522","TEMPE","AZ","85282","United States","405","4807775978","Rack Room Shoes","33.3830794","-111.9643219","Sun 11:00 AM - 6:00 PM,Mon 10:00 AM - 9:00 PM,Tue 10:00 AM - 9:00 PM,Wed 10:00 AM - 9:00 PM,Thu 10:00 AM - 9:00 PM,Fri 10:00 AM - 9:00 PM,Sat 10:00 AM - 9:00 PM"
"rackroomshoes.com","https://www.rackroomshoes.com/store/3094","ARIZONA MILLS","5000 S ARIZONA MILLS CIR STE 485","TEMPE","AZ","85282","United States","3094","4804915450","Off Broadway Shoe Warehouse","33.3818617","-111.9655235","Sun 11:00 AM - 6:00 PM,Mon 10:00 AM - 9:00 PM,Tue 10:00 AM - 9:00 PM,Wed 10:00 AM - 9:00 PM,Thu 10:00 AM - 9:00 PM,Fri 10:00 AM - 9:00 PM,Sat 10:00 AM - 9:00 PM"
"rackroomshoes.com","https://www.rackroomshoes.com/store/5118","CAMELBACK COLONNADE","1919 EAST CAMELBACK ROAD","PHOENIX","AZ","85016","United States","5118","6022648142","Off Broadway Shoe Warehouse","33.5071775","-112.0422343","Sun 11:00 AM - 7:00 PM,Mon 10:00 AM - 9:00 PM,Tue 10:00 AM - 9:00 PM,Wed 10:00 AM - 9:00 PM,Thu 10:00 AM - 9:00 PM,Fri 10:00 AM - 9:00 PM,Sat 10:00 AM - 9:00 PM"
"rackroomshoes.com","https://www.rackroomshoes.com/store/436","OUTLETS AT ANTHEM","4250 W ANTHEM WAY STE 800","PHOENIX","AZ","85086","United States","436","6234650281","Rack Room Shoes","33.8734499","-112.1493089","Sun 10:00 AM - 7:00 PM,Mon 10:00 AM - 8:00 PM,Tue 10:00 AM - 8:00 PM,Wed 10:00 AM - 8:00 PM,Thu 10:00 AM - 8:00 PM,Fri 10:00 AM - 8:00 PM,Sat 10:00 AM - 8:00 PM"
"rackroomshoes.com","https://www.rackroomshoes.com/store/635","OUTLETS AT WESTGATE","6800 N 95TH AVE STE 540","GLENDALE","AZ","85305","United States","635","6238726120","Rack Room Shoes","33.5336467","-112.2673222","Sun 10:00 AM - 7:00 PM,Mon 9:00 AM - 9:00 PM,Tue 9:00 AM - 9:00 PM,Wed 9:00 AM - 9:00 PM,Thu 9:00 AM - 9:00 PM,Fri 9:00 AM - 9:00 PM,Sat 9:00 AM - 9:00 PM"
"rackroomshoes.com","https://www.rackroomshoes.com/store/645","GRAN PLAZA OUTLETS","840 2ND STREET STE K 160","CALEXICO","CA","92231","United States","645","7607682251","Rack Room Shoes","32.6666092","-115.4864136","Sun 10:00 AM - 7:00 PM,Mon 10:00 AM - 9:00 PM,Tue 10:00 AM - 9:00 PM,Wed 10:00 AM - 9:00 PM,Thu 10:00 AM - 9:00 PM,Fri 10:00 AM - 9:00 PM,Sat 10:00 AM - 9:00 PM"
"rackroomshoes.com","https://www.rackroomshoes.com/store/463","IMPERIAL VALLEY MALL","3451 S DOGWOOD RD STE 1016","EL CENTRO","CA","92243","United States","463","7603129922","Rack Room Shoes","32.7640716","-115.5304052","Sun 11:00 AM - 7:00 PM,Mon 10:00 AM - 9:00 PM,Tue 10:00 AM - 9:00 PM,Wed 10:00 AM - 9:00 PM,Thu 10:00 AM - 9:00 PM,Fri 10:00 AM - 9:00 PM,Sat 10:00 AM - 9:00 PM"
"rackroomshoes.com","https://www.rackroomshoes.com/store/455","LAS VEGAS SOUTH PREMIUM OUTLETS","7400 S LAS VEGAS BLVD SP 238 AB","LAS VEGAS","NV","89123","United States","455","7022604117","Rack Room Shoes","36.0548341","-115.1693616","Sun 9:00 AM - 8:00 PM,Mon 9:00 AM - 9:00 PM,Tue 9:00 AM - 9:00 PM,Wed 9:00 AM - 9:00 PM,Thu 9:00 AM - 9:00 PM,Fri 9:00 AM - 9:00 PM,Sat 9:00 AM - 9:00 PM"
"rackroomshoes.com","https://www.rackroomshoes.com/store/612","FASHION OUTLETS OF LAS VEGAS","32100 LAS VEGAS BLVDSSUITE 320","PRIMM","NV","89019","United States","612","7028740011","Rack Room Shoes","35.6076231","-115.3877831","Sun 10:00 AM - 8:00 PM,Mon 10:00 AM - 8:00 PM,Tue 10:00 AM - 8:00 PM,Wed 10:00 AM - 8:00 PM,Thu 10:00 AM - 8:00 PM,Fri 10:00 AM - 8:00 PM,Sat 10:00 AM - 8:00 PM"
"rackroomshoes.com","https://www.rackroomshoes.com/store/5108","DOWNTOWN SUMMERLIN","2310 PARK CENTER DR. STE. 120","LAS VEGAS","NV","89135","United States","5108","7024896020","Off Broadway Shoe Warehouse","36.1464814","-115.3323726","Sun 11:00 AM - 7:00 PM,Mon 10:00 AM - 9:00 PM,Tue 10:00 AM - 9:00 PM,Wed 10:00 AM - 9:00 PM,Thu 10:00 AM - 9:00 PM,Fri 10:00 AM - 9:00 PM,Sat 10:00 AM - 9:00 PM"
"rackroomshoes.com","https://www.rackroomshoes.com/store/648","OUTLETS AT THE BORDER","4463 CAMINO DE LAPLAZA STE 121","SAN YSIDRO","CA","92173","United States","648","6196518499","Rack Room Shoes","32.5434026","-117.0372868","Sun 10:00 AM - 7:00 PM,Mon 10:00 AM - 9:00 PM,Tue 10:00 AM - 9:00 PM,Wed 10:00 AM - 9:00 PM,Thu 10:00 AM - 9:00 PM,Fri 10:00 AM - 9:00 PM,Sat 10:00 AM - 9:00 PM"
"rackroomshoes.com","https://www.rackroomshoes.com/store/3026","ONTARIO MILLS","4380 ONTARIO MILLS PKWY","ONTARIO","CA","91764","United States","3026","9099802406","Off Broadway Shoe Warehouse","34.0730721","-117.5549957","Sun 11:00 AM - 8:00 PM,Mon 10:00 AM - 9:00 PM,Tue 10:00 AM - 9:00 PM,Wed 10:00 AM - 9:00 PM,Thu 10:00 AM - 9:00 PM,Fri 10:00 AM - 9:00 PM,Sat 10:00 AM - 9:00 PM"
"rackroomshoes.com","https://www.rackroomshoes.com/store/3063","PLAZA DE LA PAZ","27291 LA PAZ RD","LAGUNA NIGUEL","CA","92677","United States","3063","9498313792","Off Broadway Shoe Warehouse","33.5563801","-117.711954","Sun 10:00 AM - 7:00 PM,Mon 10:00 AM - 9:00 PM,Tue 10:00 AM - 9:00 PM,Wed 10:00 AM - 9:00 PM,Thu 10:00 AM - 9:00 PM,Fri 10:00 AM - 9:00 PM,Sat 10:00 AM - 9:00 PM"
"rackroomshoes.com","https://www.rackroomshoes.com/store/3088","THE OUTLETS AT ORANGE","20 CITY W BLVD STE B1","ORANGE","CA","92868","United States","3088","7149380388","Off Broadway Shoe Warehouse","33.7826672","-117.8929285","Sun 10:00 AM - 8:00 PM,Mon 10:00 AM - 9:00 PM,Tue 10:00 AM - 9:00 PM,Wed 10:00 AM - 9:00 PM,Thu 10:00 AM - 9:00 PM,Fri 10:00 AM - 9:00 PM,Sat 10:00 AM - 9:00 PM"
"rackroomshoes.com","https://www.rackroomshoes.com/store/3098","PLAZA WEST COVINA","112 PLAZA DR STE 2504","WEST COVINA","CA","91790","United States","3098","6268518455","Off Broadway Shoe Warehouse","34.070653","-117.930438","Sun 11:00 AM - 7:00 PM,Mon 10:00 AM - 9:00 PM,Tue 10:00 AM - 9:00 PM,Wed 10:00 AM - 9:00 PM,Thu 10:00 AM - 9:00 PM,Fri 10:00 AM - 9:00 PM,Sat 10:00 AM - 9:00 PM"
"rackroomshoes.com","https://www.rackroomshoes.com/store/3121","PLAZA 183","11163 183RD ST SUITE A-160","CERRITOS","CA","90703","United States","3121","5624021052","Off Broadway Shoe Warehouse","33.8675231","-118.0956708","Sun 11:00 AM - 7:00 PM,Mon 10:00 AM - 9:00 PM,Tue 10:00 AM - 9:00 PM,Wed 10:00 AM - 9:00 PM,Thu 10:00 AM - 9:00 PM,Fri 10:00 AM - 9:00 PM,Sat 10:00 AM - 9:00 PM"
"rackroomshoes.com","https://www.rackroomshoes.com/store/3035","HOLLYWOOD (GALAXY)","6920 W SUNSET BLVD","LOS ANGELES","CA","90028","United States","3035","3239620332","Off Broadway Shoe Warehouse","34.0976405","-118.3409898","Sun 10:00 AM - 10:00 PM,Mon 10:00 AM - 10:00 PM,Tue 10:00 AM - 10:00 PM,Wed 10:00 AM - 10:00 PM,Thu 10:00 AM - 10:00 PM,Fri 10:00 AM - 10:00 PM,Sat 10:00 AM - 10:00 PM"
"rackroomshoes.com","https://www.rackroomshoes.com/store/649","OUTLETS AT TEJON PARKWAY","5701 OUTLETS AT TEJON PKWY STE 470","ARVIN","CA","93203","United States","649","6618582771","Rack Room Shoes","34.9848377","-118.9415835","Sun 10:00 AM - 8:00 PM,Mon 10:00 AM - 9:00 PM,Tue 10:00 AM - 9:00 PM,Wed 10:00 AM - 9:00 PM,Thu 10:00 AM - 9:00 PM,Fri 10:00 AM - 9:00 PM,Sat 10:00 AM - 9:00 PM"
"rackroomshoes.com","https://www.rackroomshoes.com/store/559","THE PROMENADE @ CAMARILLO OUTLETS","500 W VENTURA BLVD. SUITE 1506","CAMARILLO","CA","93010","United States","559","8053836404","Rack Room Shoes","34.2154332","-119.0666426","Sun 10:00 AM - 8:00 PM,Mon 10:00 AM - 9:00 PM,Tue 10:00 AM - 9:00 PM,Wed 10:00 AM - 9:00 PM,Thu 10:00 AM - 9:00 PM,Fri 10:00 AM - 9:00 PM,Sat 10:00 AM - 9:00 PM"
"rackroomshoes.com","https://www.rackroomshoes.com/store/667","TULARE OUTLET CENTER","1401 RETHERFORD STREET","TULARE","CA","93274","United States","667","5596862591","Rack Room Shoes","36.2267517","-119.3340965","Sun 10:00 AM - 7:00 PM,Mon 10:00 AM - 9:00 PM,Tue 10:00 AM - 9:00 PM,Wed 10:00 AM - 9:00 PM,Thu 10:00 AM - 9:00 PM,Fri 10:00 AM - 9:00 PM,Sat 10:00 AM - 9:00 PM"
"rackroomshoes.com","https://www.rackroomshoes.com/store/5077","LEGENDS AT SPARKS MARINA","1420 SCHEELS DRIVE STE 120","SPARKS","NV","89434","United States","5077","7753315705","Off Broadway Shoe Warehouse","39.5321738","-119.7193567","Sun 11:00 AM - 6:00 PM,Mon 10:00 AM - 9:00 PM,Tue 10:00 AM - 9:00 PM,Wed 10:00 AM - 9:00 PM,Thu 10:00 AM - 9:00 PM,Fri 10:00 AM - 9:00 PM,Sat 10:00 AM - 9:00 PM"
"rackroomshoes.com","https://www.rackroomshoes.com/store/732","MONTE VISTA CROSSINGS","2697 COUNTRYSIDE DRIVE","TURLOCK","CA","95380","United States","732","2096344159","Rack Room Shoes","37.5150328","-120.8798135","Sun 11:00 AM - 7:00 PM,Mon 10:00 AM - 9:00 PM,Tue 10:00 AM - 9:00 PM,Wed 10:00 AM - 9:00 PM,Thu 10:00 AM - 9:00 PM,Fri 10:00 AM - 9:00 PM,Sat 10:00 AM - 9:00 PM"
"rackroomshoes.com","https://www.rackroomshoes.com/store/720","FOLSOM PREMIUM OUTLETS","13000 FOLSOM BLVD STE 1002","FOLSOM","CA","95630","United States","720","9169854431","Rack Room Shoes","38.6440912","-121.1866762","Sun 10:00 AM - 7:00 PM,Mon 10:00 AM - 9:00 PM,Tue 10:00 AM - 9:00 PM,Wed 10:00 AM - 9:00 PM,Thu 10:00 AM - 9:00 PM,Fri 10:00 AM - 9:00 PM,Sat 10:00 AM - 9:00 PM"
"rackroomshoes.com","https://www.rackroomshoes.com/store/5059","MARKETPLACE @ BIRDCAGE","6100 BIRDCAGE CENTRE LN STE 121","CITRUS HEIGHTS","CA","95610","United States","5059","9169611083","Off Broadway Shoe Warehouse","38.6746418","-121.2738631","Sun 10:00 AM - 7:00 PM,Mon 10:00 AM - 9:00 PM,Tue 10:00 AM - 9:00 PM,Wed 10:00 AM - 9:00 PM,Thu 10:00 AM - 9:00 PM,Fri 10:00 AM - 9:00 PM,Sat 10:00 AM - 9:00 PM"
"rackroomshoes.com","https://www.rackroomshoes.com/store/5060","THE PROMENADE AT NATOMAS","3651 N FREEWAY BLVD","SACRAMENTO","CA","95834","United States","5060","9164190021","Off Broadway Shoe Warehouse","38.6411778","-121.4961028","Sun 10:00 AM - 7:00 PM,Mon 10:00 AM - 9:00 PM,Tue 10:00 AM - 9:00 PM,Wed 10:00 AM - 9:00 PM,Thu 10:00 AM - 9:00 PM,Fri 10:00 AM - 9:00 PM,Sat 10:00 AM - 9:00 PM"
"rackroomshoes.com","https://www.rackroomshoes.com/store/5079","THE PLANT SHOPPING CENTER","21 CURTNER AVE","SAN JOSE","CA","95125","United States","5079","4082866203","Off Broadway Shoe Warehouse","37.3036908","-121.8636609","Sun 10:00 AM - 8:00 PM,Mon 10:00 AM - 9:00 PM,Tue 10:00 AM - 9:00 PM,Wed 10:00 AM - 9:00 PM,Thu 10:00 AM - 9:00 PM,Fri 10:00 AM - 9:00 PM,Sat 10:00 AM - 9:00 PM"
