locator_domain,location_name,street_address,city,state,zip,country_code,store_number,phone,location_type,latitude,longitude,hours_of_operation
https://www.bandanasbbq.com/list-of-locations,Bandana's Bar-B-Q Arnold,1220 Big Bill Road,Arnold,MO,63010,US,<MISSING>,6362823328,<MISSING>,38.4426,-90.379954884663,Sunday to Thursday 11am to 9pm; Friday and Saturday 11am to 10pm
https://www.bandanasbbq.com/list-of-locations,Bandana's Bar-B-Q Cape Girardeau,156 Vantage Drive,Cape Girardeau,MO,63701,US,<MISSING>,5735193009,<MISSING>,37.3034,-89.58020748432624,Sunday to Thursday 11am to 9pm; Friday and Saturday 11am to 10pm
https://www.bandanasbbq.com/list-of-locations,Bandana's Bar-B-Q Columbia,3405 Clark Lane,Columbia,MO,65202,US,<MISSING>,5732562229,<MISSING>,38.9644,-92.2886745846477,Sunday to Thursday 11am to 9pm; Friday and Saturday 11am to 10pm
https://www.bandanasbbq.com/list-of-locations,Bandana's Bar-B-Q Fenton,1160 South Hwy Drive,Fenton,MO,63026,US,<MISSING>,6363058855,<MISSING>,38.5412,-90.47088198466011,Sunday to Thursday 11am to 9pm; Friday and Saturday 11am to 10pm
https://www.bandanasbbq.com/list-of-locations,Bandana's Bar-B-Q Florissant,8234 A N. Lindbergh,Florissant,MO,63031,US,<MISSING>,3148376000,<MISSING>,38.5823,-92.2154593846589,Sunday to Thursday 11am to 9pm; Friday and Saturday 11am to 10pm
https://www.bandanasbbq.com/list-of-locations,Bandana's Bar-B-Q Jefferson City,2336 Missouri Blvd.,Jefferson City,MO,65109,US,<MISSING>,5736347427,<MISSING>,38.5823,-92.2154593846589,Sunday to Thursday 11am to 9pm; Friday and Saturday 11am to 10pm
https://www.bandanasbbq.com/list-of-locations,Bandana's Bar-B-Q Lebanon,1015 S. Jefferson Ave,Lebanon,MO,65536,US,<MISSING>,4179913044,<MISSING>,37.6718,-92.6625719,Sunday to Thursday 11am to 9pm; Friday and Saturday 11am to 10pm
https://www.bandanasbbq.com/list-of-locations,Bandana's Bar-B-Q Manchester,14141 Manchester Rd,Ballwin,MO,63011,US,<MISSING>,6363861133,<MISSING>,38.5946,-90.49811068465854,Sunday to Thursday 11am to 9pm; Friday and Saturday 11am to 10pm
https://www.bandanasbbq.com/list-of-locations,Bandana's Bar-B-Q Maryland Heights,12222 Dorsett Road,Maryland Heights,MO,63043,US,<MISSING>,3144391123,<MISSING>,38.7141,-90.44720988465502,Sunday to Thursday 11am to 9pm; Friday and Saturday 11am to 10pm
https://www.bandanasbbq.com/list-of-locations,Bandana's Bar-B-Q Mid Rivers Express,6163 Mid Rivers Mall Dr.,Cottleville / St. Peters,MO,63304,US,<MISSING>,6369289999,<MISSING>,38.7416,-90.63838528465423,Sunday to Thursday 11am to 9pm; Friday and Saturday 11am to 10pm
https://www.bandanasbbq.com/list-of-locations,Bandana's Bar-B-Q O'Fallon,3446 Pheasant Meadows Dr.,O'Fallon,MO,63368,US,<MISSING>,6362408859,<MISSING>,38.7459,-90.6996327846541,Sunday to Thursday 11am to 9pm; Friday and Saturday 11am to 10pm
https://www.bandanasbbq.com/list-of-locations,Bandana's Bar-B-Q Osage Beach,4315 Osage Beach Parkway,Osage Beach,MO,65065,US,<MISSING>,5733024500,<MISSING>,38.1497,-92.62148038467151,Sunday to Thursday 11am to 9pm; Friday and Saturday 11am to 10pm
https://www.bandanasbbq.com/list-of-locations,Bandana's Bar-B-Q Rock Hill,9500 Manchester Road,St. Louis,MO,63119,US,<MISSING>,3149637427,<MISSING>,38.6088,-90.36613268465813,Sunday to Thursday 11am to 9pm; Friday and Saturday 11am to 10pm
https://www.bandanasbbq.com/list-of-locations,Bandana's Bar-B-Q Rolla,1705 Martin Springs Drive,Rolla,MO,65401,US,<MISSING>,5734263331,<MISSING>,37.9399,-91.8042149846776,Sunday to Thursday 11am to 9pm; Friday and Saturday 11am to 10pm
https://www.bandanasbbq.com/list-of-locations,Bandana's Bar-B-Q Sedalia,2909 West Broadway Blvd.,Sedalia,MO,65301,US,<MISSING>,6608510610,<MISSING>,38.7072,-93.26503878465522,Sunday to Thursday 11am to 9pm; Friday and Saturday 11am to 10pm
https://www.bandanasbbq.com/list-of-locations,Bandana's Bar-B-Q St. Ann,10800 Pear Tree Lane #2,St. Ann,MO,63074,US,<MISSING>,3144269955,<MISSING>,38.7384,-90.3726606846543,Sunday to Thursday 11am to 9pm; Friday and Saturday 11am to 10pm
https://www.bandanasbbq.com/list-of-locations,Bandana's Bar-B-Q St. Joseph,4225 Frederick Ave,St. Joseph,MO,64506,US,<MISSING>,8166711166,<MISSING>,39.7779,-94.79407798462343,Sunday to Thursday 11am to 9pm; Friday and Saturday 11am to 10pm
https://www.bandanasbbq.com/list-of-locations,Bandana's Bar-B-Q St. Peters,4155 Veterans Memorial Pkwy ,St. Peters,MO,63376,US,<MISSING>,6364414483,<MISSING>,38.7951,-90.57550028465266,Sunday to Thursday 11am to 9pm; Friday and Saturday 11am to 10pm
https://www.bandanasbbq.com/list-of-locations,Bandana's Bar-B-Q Sunset Hills,11750 Gravois Road,St. Louis,MO,63127,US,<MISSING>,3148491162,<MISSING>,38.5309,-90.38835358466042,Sunday to Thursday 11am to 9pm; Friday and Saturday 11am to 10pm
https://www.bandanasbbq.com/list-of-locations,Bandana's Bar-B-Q Wentzville,"1 Ruggeri Drive,",Wentzville,MO,63385,US,<MISSING>,6368874050,<MISSING>,38.8086,-90.87790028465228,Sunday to Thursday 11am to 9pm; Friday and Saturday 11am to 10pm
https://www.bandanasbbq.com/list-of-locations,Bandana's Bar-B-Q Bloomington,502 IAA Dr.,Bloomington,IL,61701,US,<MISSING>,3096627427,<MISSING>,40.4889,-88.95734018460188,Sunday to Thursday 11am to 9pm; Friday and Saturday 11am to 10pm
https://www.bandanasbbq.com/list-of-locations,Bandana's Bar-B-Q Carbondale,309 E. Main St,Carbondale,IL,62901,US,<MISSING>,6184901777,<MISSING>,37.7269,-89.21445168468375,Sunday to Thursday 11am to 9pm; Friday and Saturday 11am to 10pm
https://www.bandanasbbq.com/list-of-locations,Bandana's Bar-B-Q Collinsville,#4 Commerce Drive,Collinsville,IL,62234,US,<MISSING>,6183444476,<MISSING>,38.6843,-90.01491658465592,Sunday to Thursday 11am to 9pm; Friday and Saturday 11am to 10pm
https://www.bandanasbbq.com/list-of-locations,Bandana's Bar-B-Q Fairview Heights,"Winchester Plaza, 4608 North Illinois St.",Fairview Heights,IL,62208,US,<MISSING>,6182222060,<MISSING>,38.5712,-89.98561808465924,Sunday to Thursday 11am to 9pm; Friday and Saturday 11am to 10pm
https://www.bandanasbbq.com/list-of-locations,Bandana's Bar-B-Q Mt. Vernon,308 S. 44th St.,Mt. Vernon,IL,62864,US,<MISSING>,6183156550,<MISSING>,38.3113,-88.95036788466682,Sunday to Thursday 11am to 9pm; Friday and Saturday 11am to 10pm
https://www.bandanasbbq.com/list-of-locations,Bandana's Bar-B-Q Evansville,6636 Logan Drive,Evansville,IN,47715,US,<MISSING>,8124019922,<MISSING>,37.9949,-87.47300588467601,Sunday to Thursday 11am to 9pm; Friday and Saturday 11am to 10pm
https://www.bandanasbbq.com/list-of-locations,Bandana's Bar-B-Q Terre Haute,3060 S. U.S. Highway 41,Terre Haute,IN,47802,US,<MISSING>,8128144601,<MISSING>,39.4319,-87.41476718463379,Sunday to Thursday 11am to 9pm; Friday and Saturday 11am to 10pm
https://www.bandanasbbq.com/list-of-locations,Bandana's Bar-B-Q Cedar Rapids,3707 First Avenue SE,Cedar Rapids,IA,52402,US,<MISSING>,3194326473,<MISSING>,42.0162,-91.63648348455455,Sunday to Thursday 11am to 9pm; Friday and Saturday 11am to 10pm
