"locator_domain","page_url","location_name","street_address","city","state","zip","country_code","store_number","phone","location_type","latitude","longitude","hours_of_operation"
"www.topshop.com","https://www.topshop.com/store-locator?country=United+States","Topshop Air Rs Wh Nords Dc 89","299 CENTRAL STATES DC 5050 CHAVELLE DRIVE ","<MISSING>","MISSING>","0, ","US","<MISSING>","<MISSING>","<MISSING>","<MISSING>","<MISSING>","<MISSING>"
"www.topshop.com","https://www.topshop.com/store-locator?country=United+States","Topshop Ala Moana","1519 Kapiolani Boulevard ","Honolulu","MISSING>","96814","US","<MISSING>","<MISSING>","<MISSING>","<MISSING>","<MISSING>","Mo 09:30-21:00 Tu 09:30-21:00 We 09:30-21:00 Th 09:30-21:00 Fr 09:30-21:00 Sa 09:30-21:00 Su 11:00-19:00"
"www.topshop.com","https://www.topshop.com/store-locator?country=United+States","Topshop Alderwood","3200 184th Street SW ","Lynnwood","MISSING>","98037","US","<MISSING>","<MISSING>","<MISSING>","<MISSING>","<MISSING>","Mo 10:00-21:00 Tu 10:00-21:00 We 10:00-21:00 Th 10:00-21:00 Fr 10:00-21:00 Sa 10:00-21:00 Su 11:00-19:00"
"www.topshop.com","https://www.topshop.com/store-locator?country=United+States","Topshop Anchorage","603 D Street ","Anchorage","MISSING>","99501","US","<MISSING>","<MISSING>","<MISSING>","<MISSING>","<MISSING>","Mo 10:00-20:00 Tu 10:00-20:00 We 10:00-20:00 Th 10:00-20:00 Fr 10:00-21:00 Sa 10:00-21:00 Su 11:00-18:00"
"www.topshop.com","https://www.topshop.com/store-locator?country=United+States","Topshop Arden Fair","1651 Arden Way ","Sacramento","MISSING>","95815","US","<MISSING>","<MISSING>","<MISSING>","<MISSING>","<MISSING>","Mo 10:00-21:00 Tu 10:00-21:00 We 10:00-21:00 Th 10:00-21:00 Fr 10:00-21:00 Sa 10:00-21:00 Su 11:00-19:00"
"www.topshop.com","https://www.topshop.com/store-locator?country=United+States","Topshop Aventura","19507 Biscayne Blvd ","Aventura","MISSING>","33180","US","<MISSING>","<MISSING>","<MISSING>","<MISSING>","<MISSING>","Mo 10:00-21:30 Tu 10:00-21:30 We 10:00-21:30 Th 10:00-21:30 Fr 10:00-21:30 Sa 10:00-21:30 Su 12:00-20:00"
"www.topshop.com","https://www.topshop.com/store-locator?country=United+States","Topshop Barton Crk Sq","2901 Capital Of Texas Highway South ","Austin","MISSING>","78746","US","<MISSING>","<MISSING>","<MISSING>","<MISSING>","<MISSING>","Mo 10:00-21:00 Tu 10:00-21:00 We 10:00-21:00 Th 10:00-21:00 Fr 10:00-21:00 Sa 10:00-21:00 Su 11:00-19:00"
"www.topshop.com","https://www.topshop.com/store-locator?country=United+States","Topshop Beachwood","26200 Cedar Rd ","Beachwood","MISSING>","44122","US","<MISSING>","<MISSING>","<MISSING>","<MISSING>","<MISSING>","Mo 10:00-21:00 Tu 10:00-21:00 We 10:00-21:00 Th 10:00-21:00 Fr 10:00-21:00 Sa 10:00-21:00 Su 12:00-18:00"
"www.topshop.com","https://www.topshop.com/store-locator?country=United+States","Topshop Bellevue","100 Bellevue Square ","Bellevue","MISSING>","98004","US","<MISSING>","<MISSING>","<MISSING>","<MISSING>","<MISSING>","Mo 10:00-21:00 Tu 10:00-21:00 We 10:00-21:00 Th 10:00-21:00 Fr 10:00-21:00 Sa 10:00-21:00 Su 11:00-19:00"
"www.topshop.com","https://www.topshop.com/store-locator?country=United+States","Topshop Boca Town Center","5820 Glades Road ","Boca Raton","MISSING>","33431","US","<MISSING>","<MISSING>","<MISSING>","<MISSING>","<MISSING>","Mo 10:00-21:00 Tu 10:00-21:00 We 10:00-21:00 Th 10:00-21:00 Fr 10:00-21:00 Sa 10:00-21:00 Su 11:30-18:00"
"www.topshop.com","https://www.topshop.com/store-locator?country=United+States","Topshop Brea","500 Brea Mall Way ","Brea","MISSING>","92821","US","<MISSING>","<MISSING>","<MISSING>","<MISSING>","<MISSING>","Mo 10:00-21:00 Tu 10:00-21:00 We 10:00-21:00 Th 10:00-21:00 Fr 10:00-21:00 Sa 10:00-21:00 Su 11:00-19:00"
"www.topshop.com","https://www.topshop.com/store-locator?country=United+States","Topshop Burlington","75 Middlesex Turnpike ","Burlington","MISSING>","1803","US","<MISSING>","<MISSING>","<MISSING>","<MISSING>","<MISSING>","Mo 10:00-21:00 Tu 10:00-21:00 We 10:00-21:00 Th 10:00-21:00 Fr 10:00-21:00 Sa 10:00-21:00 Su 11:00-19:00"
"www.topshop.com","https://www.topshop.com/store-locator?country=United+States","Topshop Cerritos","300 Los Cerritos Center ","Cerritos","MISSING>","90703","US","<MISSING>","<MISSING>","<MISSING>","<MISSING>","<MISSING>","Mo 10:00-21:00 Tu 10:00-21:00 We 10:00-21:00 Th 10:00-21:00 Fr 10:00-21:00 Sa 10:00-21:00 Su 11:00-19:00"
"www.topshop.com","https://www.topshop.com/store-locator?country=United+States","Topshop Chandler Ctr","3199 West Chandler Boulevard ","Chandler","MISSING>","85226","US","<MISSING>","<MISSING>","<MISSING>","<MISSING>","<MISSING>","Mo 10:00-21:00 Tu 10:00-21:00 We 10:00-21:00 Th 10:00-21:00 Fr 10:00-21:00 Sa 10:00-21:00 Su 11:00-18:00"
"www.topshop.com","https://www.topshop.com/store-locator?country=United+States","Topshop Cherry Creek","2810 East First Avenue ","Denver","MISSING>","80206","US","<MISSING>","<MISSING>","<MISSING>","<MISSING>","<MISSING>","Mo 10:00-21:00 Tu 10:00-21:00 We 10:00-21:00 Th 10:00-21:00 Fr 10:00-21:00 Sa 10:00-21:00 Su 11:00-18:00"
"www.topshop.com","https://www.topshop.com/store-locator?country=United+States","Topshop City Creek","55 South West Temple ","Salt Lake City","MISSING>","84101","US","<MISSING>","<MISSING>","<MISSING>","<MISSING>","<MISSING>","Mo 10:00-21:00 Tu 10:00-21:00 We 10:00-21:00 Th 10:00-21:00 Fr 10:00-21:00 Sa 10:00-21:00 Su Closed"
"www.topshop.com","https://www.topshop.com/store-locator?country=United+States","Topshop Dadeland","7239 N Kendal Drive ","Miami","MISSING>","33156","US","<MISSING>","<MISSING>","<MISSING>","<MISSING>","<MISSING>","Mo 10:00-21:30 Tu 10:00-21:30 We 10:00-21:30 Th 10:00-21:30 Fr 10:00-21:30 Sa 10:00-21:30 Su 11:00-19:00"
"www.topshop.com","https://www.topshop.com/store-locator?country=United+States","Topshop Dallas Galleria","5220 Alpha Road ","Dallas","MISSING>","75240","US","<MISSING>","<MISSING>","<MISSING>","<MISSING>","<MISSING>","Mo 10:00-21:00 Tu 10:00-21:00 We 10:00-21:00 Th 10:00-21:00 Fr 10:00-21:00 Sa 10:00-21:00 Su 12:00-19:00"
"www.topshop.com","https://www.topshop.com/store-locator?country=United+States","Topshop Downtown Seattle","500 Pine Street ","Seattle","MISSING>","98101","US","<MISSING>","<MISSING>","<MISSING>","<MISSING>","<MISSING>","Mo 09:30-21:00 Tu 09:30-21:00 We 09:30-21:00 Th 09:30-21:00 Fr 09:30-21:00 Sa 10:00-21:00 Su 10:30-19:00"
"www.topshop.com","https://www.topshop.com/store-locator?country=United+States","Topshop Dt Portland","701 SW Broadway ","?Portland","MISSING>","97205","US","<MISSING>","<MISSING>","<MISSING>","<MISSING>","<MISSING>","Mo 10:00-20:00 Tu 10:00-20:00 We 10:00-20:00 Th 10:00-20:00 Fr 10:00-20:00 Sa 10:00-20:00 Su 11:00-18:00"
"www.topshop.com","https://www.topshop.com/store-locator?country=United+States","Topshop Easton","4000 Worth Ave ","Columbus","MISSING>","43219","US","<MISSING>","<MISSING>","<MISSING>","<MISSING>","<MISSING>","Mo 10:00-21:00 Tu 10:00-21:00 We 10:00-21:00 Th 10:00-21:00 Fr 10:00-21:00 Sa 10:00-21:00 Su 12:00-18:00"
"www.topshop.com","https://www.topshop.com/store-locator?country=United+States","Topshop Fashion Island","901 Newport Centre Drive ","Newport Beach","MISSING>","92660","US","<MISSING>","<MISSING>","<MISSING>","<MISSING>","<MISSING>","Mo 10:00-21:00 Tu 10:00-21:00 We 10:00-21:00 Th 10:00-21:00 Fr 10:00-21:00 Sa 10:00-20:00 Su 11:00-19:00"
"www.topshop.com","https://www.topshop.com/store-locator?country=United+States","Topshop Fashion Valley","6997 Friars Road ","San Diego","MISSING>","92108","US","<MISSING>","<MISSING>","<MISSING>","<MISSING>","<MISSING>","Mo 10:00-21:00 Tu 10:00-21:00 We 10:00-21:00 Th 10:00-21:00 Fr 10:00-21:00 Sa 10:00-21:00 Su 11:00-19:00"
"www.topshop.com","https://www.topshop.com/store-locator?country=United+States","Topshop Flatiron Crossing","21 West Flatiron Crossing Drive ","Broomfield","MISSING>","80021","US","<MISSING>","<MISSING>","<MISSING>","<MISSING>","<MISSING>","Mo 10:00-21:00 Tu 10:00-21:00 We 10:00-21:00 Th 10:00-21:00 Fr 10:00-21:00 Sa 10:00-21:00 Su 11:00-18:00"
"www.topshop.com","https://www.topshop.com/store-locator?country=United+States","Topshop Garden State","501 Garden State Plaza ","Paramus","MISSING>","7652","US","<MISSING>","<MISSING>","<MISSING>","<MISSING>","<MISSING>","Mo 10:00-21:30 Tu 10:00-21:30 We 10:00-21:30 Th 10:00-21:30 Fr 10:00-21:30 Sa 10:00-21:30 Su Closed"
"www.topshop.com","https://www.topshop.com/store-locator?country=United+States","Topshop Glendale","102 Caruso Avenue ","Glendale","MISSING>","91210","US","<MISSING>","<MISSING>","<MISSING>","<MISSING>","<MISSING>","Mo 10:00-21:00 Tu 10:00-21:00 We 10:00-21:00 Th 10:00-21:00 Fr 10:00-22:00 Sa 10:00-22:00 Su 11:00-20:00"
"www.topshop.com","https://www.topshop.com/store-locator?country=United+States","Topshop Houston Galleria","5192 Hidalgo Street ","Houston","MISSING>","77056","US","<MISSING>","<MISSING>","<MISSING>","<MISSING>","<MISSING>","Mo 10:00-21:00 Tu 10:00-21:00 We 10:00-21:00 Th 10:00-21:00 Fr 10:00-21:00 Sa 10:00-21:00 Su 11:00-19:00"
"www.topshop.com","https://www.topshop.com/store-locator?country=United+States","Topshop International Plaza","2223 N Westshore Blvd ","Tampa","MISSING>","33607","US","<MISSING>","<MISSING>","<MISSING>","<MISSING>","<MISSING>","Mo 10:00-21:00 Tu 10:00-21:00 We 10:00-21:00 Th 10:00-21:00 Fr 10:00-21:30 Sa 10:00-21:30 Su 11:00-18:30"
"www.topshop.com","https://www.topshop.com/store-locator?country=United+States","Topshop Irvine Spectrum","101 Fortune Drive ","Irvine","MISSING>","92618","US","<MISSING>","<MISSING>","<MISSING>","<MISSING>","<MISSING>","Mo 10:00-21:00 Tu 10:00-21:00 We 10:00-21:00 Th 10:00-21:00 Fr 10:00-21:30 Sa 10:00-21:30 Su 11:00-20:00"
"www.topshop.com","https://www.topshop.com/store-locator?country=United+States","Topshop Jacksonville","4835 Town Crossing Drive ","Jacksonville","MISSING>","32246","US","<MISSING>","<MISSING>","<MISSING>","<MISSING>","<MISSING>","Mo 10:00-21:00 Tu 10:00-21:00 We 10:00-21:00 Th 10:00-21:00 Fr 10:00-21:00 Sa 10:00-21:00 Su 11:00-18:00"
"www.topshop.com","https://www.topshop.com/store-locator?country=United+States","Topshop King Of Prussia","190 North Gulph Road ","King Of Prussia","MISSING>","19406","US","<MISSING>","<MISSING>","<MISSING>","<MISSING>","<MISSING>","Mo 10:00-21:30 Tu 10:00-21:30 We 10:00-21:30 Th 10:00-21:30 Fr 10:00-21:30 Sa 10:00-21:30 Su 11:00-19:00"
"www.topshop.com","https://www.topshop.com/store-locator?country=United+States","Topshop La Cantera","15900 La Cantera Parkway ","San Antonio","MISSING>","78256","US","<MISSING>","<MISSING>","<MISSING>","<MISSING>","<MISSING>","Mo 10:00-21:00 Tu 10:00-21:00 We 10:00-21:00 Th 10:00-21:00 Fr 10:00-21:00 Sa 10:00-21:00 Su 12:00-18:00"
"www.topshop.com","https://www.topshop.com/store-locator?country=United+States","Topshop Mall Of America","1000 NW Court ","Bloomington","MISSING>","55425","US","<MISSING>","<MISSING>","<MISSING>","<MISSING>","<MISSING>","Mo 10:00-21:30 Tu 10:00-21:30 We 10:00-21:30 Th 10:00-21:30 Fr 10:00-21:30 Sa 10:00-21:30 Su 11:00-19:00"
"www.topshop.com","https://www.topshop.com/store-locator?country=United+States","Topshop Merrick Park","4310 Ponce De Leon Blvd ","Coral Gables","MISSING>","33146","US","<MISSING>","<MISSING>","<MISSING>","<MISSING>","<MISSING>","Mo 10:00-21:00 Tu 10:00-21:00 We 10:00-21:00 Th 10:00-21:00 Fr 10:00-21:00 Sa 10:00-21:00 Su 12:00-19:00"
"www.topshop.com","https://www.topshop.com/store-locator?country=United+States","Topshop Michigan Avenue","55 East Grand Ave ","Chicago","MISSING>","60611","US","<MISSING>","<MISSING>","<MISSING>","<MISSING>","<MISSING>","Mo 10:00-21:00 Tu 10:00-21:00 We 10:00-21:00 Th 10:00-21:00 Fr 10:00-21:00 Sa 10:00-21:00 Su 11:00-19:00"
"www.topshop.com","https://www.topshop.com/store-locator?country=United+States","Topshop Mission Viejo","100 The Shops at Mission Viejo ","Mission Viejo","MISSING>","92691","US","<MISSING>","<MISSING>","<MISSING>","<MISSING>","<MISSING>","Mo 10:00-21:00 Tu 10:00-21:00 We 10:00-21:00 Th 10:00-21:00 Fr 10:00-21:00 Sa 10:00-20:00 Su 11:00-19:00"
"www.topshop.com","https://www.topshop.com/store-locator?country=United+States","Topshop Montgomery Mall","7111 Democracy Boulevard ","Bethesda","MISSING>","20817","US","<MISSING>","<MISSING>","<MISSING>","<MISSING>","<MISSING>","Mo 10:00-21:30 Tu 10:00-21:30 We 10:00-21:30 Th 10:00-21:30 Fr 10:00-21:30 Sa 10:00-21:30 Su 11:00-19:00"
"www.topshop.com","https://www.topshop.com/store-locator?country=United+States","Topshop Murray","6191 South State Street Suite 200 ","Murray","MISSING>","84107","US","<MISSING>","<MISSING>","<MISSING>","<MISSING>","<MISSING>","Mo 10:00-21:00 Tu 10:00-21:00 We 10:00-21:00 Th 10:00-21:00 Fr 10:00-21:00 Sa 10:00-21:00 Su 12:00-18:00"
"www.topshop.com","https://www.topshop.com/store-locator?country=United+States","Topshop Natick","290 Speen Street ","Natick","MISSING>","1760","US","<MISSING>","<MISSING>","<MISSING>","<MISSING>","<MISSING>","Mo 10:00-21:00 Tu 10:00-21:00 We 10:00-21:00 Th 10:00-21:00 Fr 10:00-21:00 Sa 10:00-21:00 Su 11:00-18:00"
"www.topshop.com","https://www.topshop.com/store-locator?country=United+States","Topshop Nords Web Cedar Rapids","Nordstrom 808 ","<MISSING>","<MISSING>","<MISSING>","US","<MISSING>","<MISSING>","<MISSING>","<MISSING>","<MISSING>","<MISSING>"
"www.topshop.com","https://www.topshop.com/store-locator?country=United+States","Topshop North Park","8687 N Central Expressway ","Dallas","MISSING>","75225","US","<MISSING>","<MISSING>","<MISSING>","<MISSING>","<MISSING>","Mo 10:00-21:00 Tu 10:00-21:00 We 10:00-21:00 Th 10:00-21:00 Fr 10:00-21:00 Sa 10:00-21:00 Su 11:00-19:00"
"www.topshop.com","https://www.topshop.com/store-locator?country=United+States","Topshop Oak Park","11143 West 95th St ","Overland Park","MISSING>","66214","US","<MISSING>","<MISSING>","<MISSING>","<MISSING>","<MISSING>","Mo 10:00-21:00 Tu 10:00-21:00 We 10:00-21:00 Th 10:00-21:00 Fr 10:00-21:00 Sa 10:00-21:00 Su 11:00-18:00"
"www.topshop.com","https://www.topshop.com/store-locator?country=United+States","Topshop Oakbrook","10 Oakbrook Center ","Oak Brook","MISSING>","60523","US","<MISSING>","<MISSING>","<MISSING>","<MISSING>","<MISSING>","Mo 10:00-21:00 Tu 10:00-21:00 We 10:00-21:00 Th 10:00-21:00 Fr 10:00-21:00 Sa 10:00-21:00 Su 11:00-19:00"
"www.topshop.com","https://www.topshop.com/store-locator?country=United+States","Topshop Old Orchard","4937 Old Orchard Center ","Skokie","MISSING>","60077","US","<MISSING>","<MISSING>","<MISSING>","<MISSING>","<MISSING>","Mo 10:00-21:00 Tu 10:00-21:00 We 10:00-21:00 Th 10:00-21:00 Fr 10:00-21:00 Sa 10:00-21:00 Su 11:00-18:00"
"www.topshop.com","https://www.topshop.com/store-locator?country=United+States","Topshop Palo Alto","550 Stanford Shopping Center ","Palo Alto","MISSING>","94304","US","<MISSING>","<MISSING>","<MISSING>","<MISSING>","<MISSING>","Mo 10:00-21:00 Tu 10:00-21:00 We 10:00-21:00 Th 10:00-21:00 Fr 10:00-21:00 Sa 10:00-21:00 Su 11:00-19:00"
"www.topshop.com","https://www.topshop.com/store-locator?country=United+States","Topshop Park Meadows","8465 Park Meadows Center Drive ","Lone Tree","MISSING>","80124","US","<MISSING>","<MISSING>","<MISSING>","<MISSING>","<MISSING>","Mo 10:00-21:00 Tu 10:00-21:00 We 10:00-21:00 Th 10:00-21:00 Fr 10:00-21:00 Sa 10:00-21:00 Su 11:00-18:00"
"www.topshop.com","https://www.topshop.com/store-locator?country=United+States","Topshop Pentagon","1400 South Hayes Street ","Arlington","MISSING>","22202","US","<MISSING>","<MISSING>","<MISSING>","<MISSING>","<MISSING>","Mo 10:00-21:00 Tu 10:00-21:00 We 10:00-21:00 Th 10:00-21:00 Fr 10:00-21:00 Sa 10:00-21:00 Su 11:00-18:00"
"www.topshop.com","https://www.topshop.com/store-locator?country=United+States","Topshop Phipps Plaza","3500 Peachtree Road NE ","Atlanta","MISSING>","30326","US","<MISSING>","<MISSING>","<MISSING>","<MISSING>","<MISSING>","Mo 10:00-21:00 Tu 10:00-21:00 We 10:00-21:00 Th 10:00-21:00 Fr 10:00-21:00 Sa 10:00-21:00 Su 12:00-18:30"
"www.topshop.com","https://www.topshop.com/store-locator?country=United+States","Topshop Puerto Rico","4000 Mall of San Juan Boulevard ","San Juan","MISSING>","924","US","<MISSING>","<MISSING>","<MISSING>","<MISSING>","<MISSING>","Mo 10:00-20:00 Tu 10:00-20:00 We 10:00-20:00 Th 10:00-21:00 Fr 10:00-21:00 Sa 10:00-21:00 Su 11:00-19:00"
"www.topshop.com","https://www.topshop.com/store-locator?country=United+States","Topshop Richmond","11812 West Broad Street ","Richmond","MISSING>","23233","US","<MISSING>","<MISSING>","<MISSING>","<MISSING>","<MISSING>","Mo 10:00-21:00 Tu 10:00-21:00 We 10:00-21:00 Th 10:00-21:00 Fr 10:00-21:00 Sa 10:00-21:00 Su 11:00-19:00"
"www.topshop.com","https://www.topshop.com/store-locator?country=United+States","Topshop Roosevelt","630 Old Country Road ","Garden City","MISSING>","11530","US","<MISSING>","<MISSING>","<MISSING>","<MISSING>","<MISSING>","Mo 10:00-21:30 Tu 10:00-21:30 We 10:00-21:30 Th 10:00-21:30 Fr 10:00-21:30 Sa 10:00-21:30 Su 11:00-19:00"
"www.topshop.com","https://www.topshop.com/store-locator?country=United+States","Topshop Roseville","1131 Galleria Blvd ","Roseville","MISSING>","95678","US","<MISSING>","<MISSING>","<MISSING>","<MISSING>","<MISSING>","Mo 10:00-21:00 Tu 10:00-21:00 We 10:00-21:00 Th 10:00-21:00 Fr 10:00-21:00 Sa 10:00-21:00 Su 11:00-19:00"
"www.topshop.com","https://www.topshop.com/store-locator?country=United+States","Topshop Ross Park","1000 Ross Park Mall Drive ","Pittsburgh","MISSING>","15237","US","<MISSING>","<MISSING>","<MISSING>","<MISSING>","<MISSING>","Mo 10:00-21:00 Tu 10:00-21:00 We 10:00-21:00 Th 10:00-21:00 Fr 10:00-21:00 Sa 10:00-21:00 Su 11:00-18:00"
"www.topshop.com","https://www.topshop.com/store-locator?country=United+States","Topshop San Francisco Centre","865 Market Street ","San Francisco","MISSING>","94103","US","<MISSING>","<MISSING>","<MISSING>","<MISSING>","<MISSING>","Mo 10:00-20:30 Tu 10:00-20:30 We 10:00-20:30 Th 10:00-20:30 Fr 10:00-20:30 Sa 10:00-20:30 Su 11:00-19:00"
"www.topshop.com","https://www.topshop.com/store-locator?country=United+States","Topshop San Jose Valley Fair","2400 Forest Avenue ","San Jose","MISSING>","95128","US","<MISSING>","<MISSING>","<MISSING>","<MISSING>","<MISSING>","Mo 10:00-21:30 Tu 10:00-21:30 We 10:00-21:30 Th 10:00-21:30 Fr 10:00-21:30 Sa 10:00-21:00 Su 11:00-19:00"
"www.topshop.com","https://www.topshop.com/store-locator?country=United+States","Topshop Santa Anita","400 South Baldwin Avenue ","Arcadia","MISSING>","91007","US","<MISSING>","<MISSING>","<MISSING>","<MISSING>","<MISSING>","Mo 10:00-21:00 Tu 10:00-21:00 We 10:00-21:00 Th 10:00-21:00 Fr 10:00-21:00 Sa 10:00-21:00 Su 11:00-19:30"
"www.topshop.com","https://www.topshop.com/store-locator?country=United+States","Topshop Santa Monica","220 Broadway ","Santa Monica","MISSING>","90401","US","<MISSING>","<MISSING>","<MISSING>","<MISSING>","<MISSING>","Mo 10:00-21:00 Tu 10:00-21:00 We 10:00-21:00 Th 10:00-21:00 Fr 10:00-21:00 Sa 10:00-21:00 Su 11:00-20:00"
"www.topshop.com","https://www.topshop.com/store-locator?country=United+States","Topshop Scottsdale","7055 East Camelback Road ","Scottsdale","MISSING>","85251","US","<MISSING>","<MISSING>","<MISSING>","<MISSING>","<MISSING>","Mo 10:00-21:00 Tu 10:00-21:00 We 10:00-21:00 Th 10:00-21:00 Fr 10:00-21:00 Sa 10:00-21:00 Su 11:00-19:00"
"www.topshop.com","https://www.topshop.com/store-locator?country=United+States","Topshop Seafreight Rs Wh Nords Dc 89","299 CENTRAL STATES DC 5050 CHAVELLE DRIVE ","<MISSING>","MISSING>","0, ","US","<MISSING>","<MISSING>","<MISSING>","<MISSING>","<MISSING>","<MISSING>"
"www.topshop.com","https://www.topshop.com/store-locator?country=United+States","Topshop Seattle South Centre","100 Southcenter Mall ","Tukwila","MISSING>","98188","US","<MISSING>","<MISSING>","<MISSING>","<MISSING>","<MISSING>","Mo 10:00-21:00 Tu 10:00-21:00 We 10:00-21:00 Th 10:00-21:00 Fr 10:00-21:00 Sa 10:00-21:00 Su 11:00-19:00"
"www.topshop.com","https://www.topshop.com/store-locator?country=United+States","Topshop Short Hills Mall","1200 Morris Turnpike ","Short Hills","MISSING>","7078","US","<MISSING>","<MISSING>","<MISSING>","<MISSING>","<MISSING>","Mo 10:00-21:00 Tu 10:00-21:00 We 10:00-21:00 Th 10:00-21:00 Fr 10:00-21:00 Sa 10:00-20:00 Su 11:00-19:00"
"www.topshop.com","https://www.topshop.com/store-locator?country=United+States","Topshop Somerset North","2850 West Big Beaver Road ","Troy","MISSING>","48084","US","<MISSING>","<MISSING>","<MISSING>","<MISSING>","<MISSING>","Mo 10:00-21:00 Tu 10:00-21:00 We 10:00-21:00 Th 10:00-21:00 Fr 10:00-21:00 Sa 10:00-21:00 Su 12:00-18:00"
"www.topshop.com","https://www.topshop.com/store-locator?country=United+States","Topshop South Park","4400 Sharon Road ","Charlotte","MISSING>","28211","US","<MISSING>","<MISSING>","<MISSING>","<MISSING>","<MISSING>","Mo 10:00-21:00 Tu 10:00-21:00 We 10:00-21:00 Th 10:00-21:00 Fr 10:00-21:00 Sa 10:00-21:00 Su 11:00-19:00"
"www.topshop.com","https://www.topshop.com/store-locator?country=United+States","Topshop Southcoast","3333 Bristol Street ","Costa Mesa","MISSING>","92626","US","<MISSING>","<MISSING>","<MISSING>","<MISSING>","<MISSING>","Mo 10:00-21:00 Tu 10:00-21:00 We 10:00-21:00 Th 10:00-21:00 Fr 10:00-21:00 Sa 10:00-21:00 Su 11:00-19:00"
"www.topshop.com","https://www.topshop.com/store-locator?country=United+States","Topshop Southpoint","6910 Fayetteville Road Suite 500 ","Durham","MISSING>","27713","US","<MISSING>","<MISSING>","<MISSING>","<MISSING>","<MISSING>","Mo 10:00-21:00 Tu 10:00-21:00 We 10:00-21:00 Th 10:00-21:00 Fr 10:00-21:00 Sa 10:00-21:00 Su 12:00-19:00"
"www.topshop.com","https://www.topshop.com/store-locator?country=United+States","Topshop St. Louis Galleria","1453 St Louis Galleria ","St Louis","MISSING>","63117","US","<MISSING>","<MISSING>","<MISSING>","<MISSING>","<MISSING>","Mo 10:00-21:00 Tu 10:00-21:00 We 10:00-21:00 Th 10:00-21:00 Fr 10:00-21:00 Sa 10:00-21:00 Su 11:00-18:00"
"www.topshop.com","https://www.topshop.com/store-locator?country=United+States","Topshop Stoneridge","1600 Stoneridge Mall Road ","Pleasanton","MISSING>","94588","US","<MISSING>","<MISSING>","<MISSING>","<MISSING>","<MISSING>","Mo 10:00-21:00 Tu 10:00-21:00 We 10:00-21:00 Th 10:00-21:00 Fr 10:00-21:00 Sa 10:00-21:00 Su 11:00-19:00"
"www.topshop.com","https://www.topshop.com/store-locator?country=United+States","Topshop Stonestown","285 Winston Drive ","San Francisco","MISSING>","94132","US","<MISSING>","<MISSING>","<MISSING>","<MISSING>","<MISSING>","Mo 10:00-21:00 Tu 10:00-21:00 We 10:00-21:00 Th 10:00-21:00 Fr 10:00-21:00 Sa 10:00-21:00 Su 11:00-19:00"
"www.topshop.com","https://www.topshop.com/store-locator?country=United+States","Topshop The Oaks","346 West Hillcrest Drive ","Thousand Oaks","MISSING>","91360","US","<MISSING>","<MISSING>","<MISSING>","<MISSING>","<MISSING>","Mo 10:00-21:00 Tu 10:00-21:00 We 10:00-21:00 Th 10:00-21:00 Fr 10:00-21:00 Sa 10:00-21:00 Su 11:00-19:00"
"www.topshop.com","https://www.topshop.com/store-locator?country=United+States","Topshop Topanga","21725 Victory Boulevard ","Canoga Park","MISSING>","91303","US","<MISSING>","<MISSING>","<MISSING>","<MISSING>","<MISSING>","Mo 10:00-21:00 Tu 10:00-21:00 We 10:00-21:00 Th 10:00-21:00 Fr 10:00-21:00 Sa 10:00-21:00 Su 11:00-19:00"
"www.topshop.com","https://www.topshop.com/store-locator?country=United+States","Topshop Twelve Oaks","27640 Novi Road ","Novi","MISSING>","48377","US","<MISSING>","<MISSING>","<MISSING>","<MISSING>","<MISSING>","Mo 10:00-21:00 Tu 10:00-21:00 We 10:00-21:00 Th 10:00-21:00 Fr 10:00-21:00 Sa 10:00-21:00 Su 11:00-18:00"
"www.topshop.com","https://www.topshop.com/store-locator?country=United+States","Topshop Tysons Corner","8075 Tysons Corner Center ","McLean","MISSING>","22102","US","<MISSING>","<MISSING>","<MISSING>","<MISSING>","<MISSING>","Mo 10:00-21:30 Tu 10:00-21:30 We 10:00-21:30 Th 10:00-21:30 Fr 10:00-22:00 Sa 10:00-22:00 Su 11:00-19:30"
"www.topshop.com","https://www.topshop.com/store-locator?country=United+States","Topshop Walnut Creek","1200 Broadway Plaza ","Walnut Creek","MISSING>","94596","US","<MISSING>","<MISSING>","<MISSING>","<MISSING>","<MISSING>","Mo 10:00-21:00 Tu 10:00-21:00 We 10:00-21:00 Th 10:00-21:00 Fr 10:00-21:00 Sa 10:00-21:00 Su 11:00-19:00"
"www.topshop.com","https://www.topshop.com/store-locator?country=United+States","Topshop Washington Square","9700 SW Washington Square Rd ","Tigard","MISSING>","97223","US","<MISSING>","<MISSING>","<MISSING>","<MISSING>","<MISSING>","Mo 10:00-21:00 Tu 10:00-21:00 We 10:00-21:00 Th 10:00-21:00 Fr 10:00-21:00 Sa 10:00-21:00 Su 10:00-19:00"
"www.topshop.com","https://www.topshop.com/store-locator?country=United+States","Topshop West County","47 West County Center ","Des Peres","MISSING>","63131","US","<MISSING>","<MISSING>","<MISSING>","<MISSING>","<MISSING>","Mo 10:00-21:00 Tu 10:00-21:00 We 10:00-21:00 Th 10:00-21:00 Fr 10:00-21:00 Sa 10:00-21:00 Su 11:00-18:00"
"www.topshop.com","https://www.topshop.com/store-locator?country=United+States","Topshop West Farm","600 Westfarms Mall ","Farmington","MISSING>","6032","US","<MISSING>","<MISSING>","<MISSING>","<MISSING>","<MISSING>","Mo 10:00-21:00 Tu 10:00-21:00 We 10:00-21:00 Th 10:00-21:00 Fr 10:00-21:00 Sa 10:00-21:00 Su 11:00-18:00"
"www.topshop.com","https://www.topshop.com/store-locator?country=United+States","Topshop Woodfield","6 Woodfield Shopping Center ","Schaumburg","MISSING>","60173","US","<MISSING>","<MISSING>","<MISSING>","<MISSING>","<MISSING>","Mo 10:00-21:00 Tu 10:00-21:00 We 10:00-21:00 Th 10:00-21:00 Fr 10:00-21:00 Sa 10:00-21:00 Su 11:00-18:00"
"www.topshop.com","https://www.topshop.com/store-locator?country=United+States","Topshop Woodlands","1201 Lake Woodlands Drive Suite 1 ","Woodlands","MISSING>","77380","US","<MISSING>","<MISSING>","<MISSING>","<MISSING>","<MISSING>","Mo 10:00-21:00 Tu 10:00-21:00 We 10:00-21:00 Th 10:00-21:00 Fr 10:00-21:00 Sa 10:00-21:00 Su 11:00-18:00"
"www.topshop.com","https://www.topshop.com/store-locator?country=Canada","Topshop Abbotsford","7 OAKS SHOPPING CENTRE 32900 SOUTH FRASER WAY ","ABBOTSFORD","MISSING>","BC, ","CA","<MISSING>","<MISSING>","<MISSING>","<MISSING>","<MISSING>","<MISSING>"
"www.topshop.com","https://www.topshop.com/store-locator?country=Canada","Topshop Anjou","<MISSING>","Anjou","<MISSING>","<MISSING>","CA","<MISSING>","<MISSING>","<MISSING>","<MISSING>","<MISSING>","<MISSING>"
"www.topshop.com","https://www.topshop.com/store-locator?country=Canada","Topshop Banff","125 BANFF AVENUE BANFF ","<MISSING>","<MISSING>","<MISSING>","CA","<MISSING>","<MISSING>","<MISSING>","<MISSING>","<MISSING>","<MISSING>"
"www.topshop.com","https://www.topshop.com/store-locator?country=Canada","Topshop Barrie","GEORGIAN MALL 465 BAYFIELD STREET ","BARRIE, ON, ","<MISSING>","L4M 4Z9, ","CA","<MISSING>","<MISSING>","<MISSING>","<MISSING>","<MISSING>","<MISSING>"
"www.topshop.com","https://www.topshop.com/store-locator?country=Canada","Topshop Bayshore","BAYSHORE SHOPPING CENTRE 100 BAYSHORE DR. ","OTTAWA","MISSING>","ON, ","CA","<MISSING>","<MISSING>","<MISSING>","<MISSING>","<MISSING>","<MISSING>"
"www.topshop.com","https://www.topshop.com/store-locator?country=Canada","Topshop Bloor St","2 BLOOR ST EAST TORONTO ON ","M4W 3H7","MISSING>","CANADA, ","CA","<MISSING>","<MISSING>","<MISSING>","<MISSING>","<MISSING>","<MISSING>"
"www.topshop.com","https://www.topshop.com/store-locator?country=Canada","Topshop Boulevard","CENTRE D'ACHATS LE BOULEVARD 4150 RUE JEAN-TALON E ","MONTREAL","MISSING>","QC, ","CA","<MISSING>","<MISSING>","<MISSING>","<MISSING>","<MISSING>","<MISSING>"
"www.topshop.com","https://www.topshop.com/store-locator?country=Canada","Topshop Bramalea","Masonville Place 1680 Richmond Street ","London, ON, ","<MISSING>","N6G 3Y9, ","CA","<MISSING>","<MISSING>","<MISSING>","<MISSING>","<MISSING>","<MISSING>"
"www.topshop.com","https://www.topshop.com/store-locator?country=Canada","Topshop Brossard","MAIL CHAMPLAIN 2151 BOUL. LAPINIERE ","BROSSARD","MISSING>","QC, ","CA","<MISSING>","<MISSING>","<MISSING>","<MISSING>","<MISSING>","<MISSING>"
"www.topshop.com","https://www.topshop.com/store-locator?country=Canada","Topshop Burlington Mall","BURLINGTON MALL 777 GUELPH LINE ","BURLINGTON","MISSING>","ON, ","CA","<MISSING>","<MISSING>","<MISSING>","<MISSING>","<MISSING>","<MISSING>"
"www.topshop.com","https://www.topshop.com/store-locator?country=Canada","Topshop Cambridge","CAMBRIDGE CENTRE 355 HESPELER ROAD ","355 HESPELER ROAD","MISSING>","ON, ","CA","<MISSING>","<MISSING>","<MISSING>","<MISSING>","<MISSING>","<MISSING>"
"www.topshop.com","https://www.topshop.com/store-locator?country=Canada","Topshop Capitale","LES GALERIES DE LA CAPITALE 5401 BOUL. DES GALERIES ","QUEBEC","MISSING>","QC, ","CA","<MISSING>","<MISSING>","<MISSING>","<MISSING>","<MISSING>","<MISSING>"
"www.topshop.com","https://www.topshop.com/store-locator?country=Canada","Topshop Carrefour Laval","<MISSING>","Carrefour Laval","<MISSING>","<MISSING>","CA","<MISSING>","<MISSING>","<MISSING>","<MISSING>","<MISSING>","<MISSING>"
"www.topshop.com","https://www.topshop.com/store-locator?country=Canada","Topshop Centrepoint","CENTERPOINT MALL 6500 YONGE STREET ","WILLOWDALE","MISSING>","ON, ","CA","<MISSING>","<MISSING>","<MISSING>","<MISSING>","<MISSING>","<MISSING>"
"www.topshop.com","https://www.topshop.com/store-locator?country=Canada","Topshop Chinook","<MISSING>","Chinook","<MISSING>","<MISSING>","CA","<MISSING>","<MISSING>","<MISSING>","<MISSING>","<MISSING>","<MISSING>"
"www.topshop.com","https://www.topshop.com/store-locator?country=Canada","Topshop Coquitlam","COQUITLAM CENTRE 100 2929 BARNET HIGHWAY ","COQUITLAM","MISSING>","BC, ","CA","<MISSING>","<MISSING>","<MISSING>","<MISSING>","<MISSING>","<MISSING>"
"www.topshop.com","https://www.topshop.com/store-locator?country=Canada","Topshop Darmouth","MICMAC MALL 21 MICMAC BLVD. ","DARTMOUTH","MISSING>","NS, ","CA","<MISSING>","<MISSING>","<MISSING>","<MISSING>","<MISSING>","<MISSING>"
"www.topshop.com","https://www.topshop.com/store-locator?country=Canada","Topshop Dorval","LES PROMENADES GATINEAU 1100 BOUL. MALONEY O. ","GATINEAU","MISSING>","QC, ","CA","<MISSING>","<MISSING>","<MISSING>","<MISSING>","<MISSING>","<MISSING>"
"www.topshop.com","https://www.topshop.com/store-locator?country=Canada","Topshop Edmonton Centre","EDMONTON CITY CENTRE 1200-10250 102 AVENUE NW ","EDMONTON","MISSING>","AB, ","CA","<MISSING>","<MISSING>","<MISSING>","<MISSING>","<MISSING>","<MISSING>"
"www.topshop.com","https://www.topshop.com/store-locator?country=Canada","Topshop Eglinton","EGLINTON SQUARE 1 EGLINTON SQUARE ","TORONTO","MISSING>","ON, ","CA","<MISSING>","<MISSING>","<MISSING>","<MISSING>","<MISSING>","<MISSING>"
"www.topshop.com","https://www.topshop.com/store-locator?country=Canada","Topshop Erin Mills","ERIN MILLS TOWN CENTRE 5100 ERIN MILLS PARKWAY ","MISSISSAUGA","MISSING>","ON, ","CA","<MISSING>","<MISSING>","<MISSING>","<MISSING>","<MISSING>","<MISSING>"
"www.topshop.com","https://www.topshop.com/store-locator?country=Canada","Topshop Fairview","FAIRVIEW MALL 1800 SHEPPARD AVE. EAST ","WILLOWDALE","MISSING>","ON, ","CA","<MISSING>","<MISSING>","<MISSING>","<MISSING>","<MISSING>","<MISSING>"
"www.topshop.com","https://www.topshop.com/store-locator?country=Canada","Topshop Gatineaul","LES PROMENADES GATINEAU 1100 BOUL. MALONEY O. ","GATINEAU","MISSING>","QC, ","CA","<MISSING>","<MISSING>","<MISSING>","<MISSING>","<MISSING>","<MISSING>"
"www.topshop.com","https://www.topshop.com/store-locator?country=Canada","Topshop Guildford","GUILDFORD TOWN CENTRE 1400 GUILDFORD TOWN CENTRE ","SURREY","MISSING>","BC, ","CA","<MISSING>","<MISSING>","<MISSING>","<MISSING>","<MISSING>","<MISSING>"
"www.topshop.com","https://www.topshop.com/store-locator?country=Canada","Topshop Kamloops","PACIFIC CENTRE 674 GRANVILLE STREET ","VANCOUVER","MISSING>","BC, ","CA","<MISSING>","<MISSING>","<MISSING>","<MISSING>","<MISSING>","<MISSING>"
"www.topshop.com","https://www.topshop.com/store-locator?country=Canada","Topshop Kingston Cataraqi Centre","Cataraqui Centre ","945 Gardiners Road","MISSING>","Kingston, ","CA","<MISSING>","<MISSING>","<MISSING>","<MISSING>","<MISSING>","<MISSING>"
"www.topshop.com","https://www.topshop.com/store-locator?country=Canada","Topshop Kingsway","KINGSWAY GARDEN MALL 109TH ST PRINCESS ELIZ AVE ","EDMONTON","MISSING>","AB, ","CA","<MISSING>","<MISSING>","<MISSING>","<MISSING>","<MISSING>","<MISSING>"
"www.topshop.com","https://www.topshop.com/store-locator?country=Canada","Topshop Kitchener","FAIRVIEW PARK SHOPPING CT 3050 KINGSWAY DRIVE ","KITCHENER","MISSING>","ON  N2C 2J7, ","CA","<MISSING>","<MISSING>","<MISSING>","<MISSING>","<MISSING>","<MISSING>"
"www.topshop.com","https://www.topshop.com/store-locator?country=Canada","Topshop Langley","WILLOWBROOK MALL #320 - 19705 FRASER HWY ","LANGLEY, BC, ","<MISSING>","V3A 7E9, ","CA","<MISSING>","<MISSING>","<MISSING>","<MISSING>","<MISSING>","<MISSING>"
"www.topshop.com","https://www.topshop.com/store-locator?country=Canada","Topshop Lasalle","CARREFOUR ANGRIGNON 7091 BOUL ","<MISSING>","<MISSING>","<MISSING>","CA","<MISSING>","<MISSING>","<MISSING>","<MISSING>","<MISSING>","<MISSING>"
"www.topshop.com","https://www.topshop.com/store-locator?country=Canada","Topshop Laurier","PLACE LAURIER 2740 BOUL. LAURIER ","SAINT-FOY","MISSING>","QC, ","CA","<MISSING>","<MISSING>","<MISSING>","<MISSING>","<MISSING>","<MISSING>"
"www.topshop.com","https://www.topshop.com/store-locator?country=Canada","Topshop Laval","CENTRE LAVAL 1600 BOUL. LE CORBUSIER ","DORVAL","MISSING>","QC, ","CA","<MISSING>","<MISSING>","<MISSING>","<MISSING>","<MISSING>","<MISSING>"
"www.topshop.com","https://www.topshop.com/store-locator?country=Canada","Topshop Lethbridge","LETHBRIDGE CENTRE MALL 200 4TH AVENUE SOUTH ","LETHBRIDGE","MISSING>","AB, ","CA","<MISSING>","<MISSING>","<MISSING>","<MISSING>","<MISSING>","<MISSING>"
"www.topshop.com","https://www.topshop.com/store-locator?country=Canada","Topshop Limeridge","LIMERIDGE MALL 999 UPPER WENTWORTH ST. ","HAMILTON","MISSING>","ON, ","CA","<MISSING>","<MISSING>","<MISSING>","<MISSING>","<MISSING>","<MISSING>"
"www.topshop.com","https://www.topshop.com/store-locator?country=Canada","Topshop London White Oaks","WHITE OAKS MALL 1105 WELLINGTON RD. SOUTH ","LONDON","MISSING>","ON, ","CA","<MISSING>","<MISSING>","<MISSING>","<MISSING>","<MISSING>","<MISSING>"
"www.topshop.com","https://www.topshop.com/store-locator?country=Canada","Topshop Londonderry","LONDONDERRY MALL N.W. EDMONTON ","<MISSING>","<MISSING>","<MISSING>","CA","<MISSING>","<MISSING>","<MISSING>","<MISSING>","<MISSING>","<MISSING>"
"www.topshop.com","https://www.topshop.com/store-locator?country=Canada","Topshop Lougheed","LOUGHEED MALL 9855 AUSTIN ROAD ","BURNABY","MISSING>","BC, ","CA","<MISSING>","<MISSING>","<MISSING>","<MISSING>","<MISSING>","<MISSING>"
"www.topshop.com","https://www.topshop.com/store-locator?country=Canada","Topshop Mapleview The Bay","Mapleview Mall 900 Maple Avenue ","Burlington","MISSING>","Ontario L7s 2j8, ","CA","<MISSING>","<MISSING>","<MISSING>","<MISSING>","<MISSING>","<MISSING>"
"www.topshop.com","https://www.topshop.com/store-locator?country=Canada","Topshop Market Mall The Bay","Market Mall 3625 Shaganappi Trail Nw ","Calgary Alberta","MISSING>","Canada T3a 0e2, ","CA","<MISSING>","<MISSING>","<MISSING>","<MISSING>","<MISSING>","<MISSING>"
"www.topshop.com","https://www.topshop.com/store-locator?country=Canada","Topshop Markville","MARKVILLE SHOPPING CENTRE 5000 HWY 7 ","MARKHAM","MISSING>","ON, ","CA","<MISSING>","<MISSING>","<MISSING>","<MISSING>","<MISSING>","<MISSING>"
"www.topshop.com","https://www.topshop.com/store-locator?country=Canada","Topshop Masonville","1680 Richmond Street London ","Ontario","MISSING>","N6g 3y9, ","CA","<MISSING>","<MISSING>","<MISSING>","<MISSING>","<MISSING>","<MISSING>"
"www.topshop.com","https://www.topshop.com/store-locator?country=Canada","Topshop Mayfair","MAYFAIR SHOPPING CENTRE #221 - 3125 DOUGLAS STREET ","VICTORIA, BC, ","<MISSING>","V8Z 6E3, ","CA","<MISSING>","<MISSING>","<MISSING>","<MISSING>","<MISSING>","<MISSING>"
"www.topshop.com","https://www.topshop.com/store-locator?country=Canada","Topshop Medicine Hat","MEDICINE HAT SHOPPING MALL 3292 DUNMORE ROAD SE ","MEDICINE HAT","MISSING>","AB, ","CA","<MISSING>","<MISSING>","<MISSING>","<MISSING>","<MISSING>","<MISSING>"
"www.topshop.com","https://www.topshop.com/store-locator?country=Canada","Topshop Metrotown Centre The Bay","Metrotown Centre 4850 Kingsway ","Burnaby Bc","MISSING>","V5h 4p2, ","CA","<MISSING>","<MISSING>","<MISSING>","<MISSING>","<MISSING>","<MISSING>"
"www.topshop.com","https://www.topshop.com/store-locator?country=Canada","Topshop Midtown Plaza The Bay","Midtown Plaza 201 First Avenue South ","Saskatoon Sk","MISSING>","S7k 3m1, ","CA","<MISSING>","<MISSING>","<MISSING>","<MISSING>","<MISSING>","<MISSING>"
"www.topshop.com","https://www.topshop.com/store-locator?country=Canada","Topshop Montreal Temp","<MISSING>","Montreal Temp","<MISSING>","<MISSING>","CA","<MISSING>","<MISSING>","<MISSING>","<MISSING>","<MISSING>","<MISSING>"
"www.topshop.com","https://www.topshop.com/store-locator?country=Canada","Topshop Nanaimo","WOODGROVE CENTRE 6631 ISLAND HWY. ","NANAIMO, BC, ","<MISSING>","V9T 4T7, ","CA","<MISSING>","<MISSING>","<MISSING>","<MISSING>","<MISSING>","<MISSING>"
"www.topshop.com","https://www.topshop.com/store-locator?country=Canada","Topshop Oakridge","OAKRIDGE SHOPPING CENTRE 650 41ST AVENUE ","WEST VANCOUVER, BC, ","<MISSING>","V5Z 2M9, ","CA","<MISSING>","<MISSING>","<MISSING>","<MISSING>","<MISSING>","<MISSING>"
"www.topshop.com","https://www.topshop.com/store-locator?country=Canada","Topshop Oakville Place","240 Leighland Ave Oakville ","Ontario","MISSING>","On L6h 3h6, ","CA","<MISSING>","<MISSING>","<MISSING>","<MISSING>","<MISSING>","<MISSING>"
"www.topshop.com","https://www.topshop.com/store-locator?country=Canada","Topshop Orchard Park The Bay","Orchard Park Shopping Centre 1415-2271 Harvey Ave. ","Kelowna Bc","MISSING>","V1y 6h3, ","CA","<MISSING>","<MISSING>","<MISSING>","<MISSING>","<MISSING>","<MISSING>"
"www.topshop.com","https://www.topshop.com/store-locator?country=Canada","Topshop Orleans","PLACE D'ORLEANS 110 PLACE D'ORLEANS DRIVE ","ORLEANS","MISSING>","ON, ","CA","<MISSING>","<MISSING>","<MISSING>","<MISSING>","<MISSING>","<MISSING>"
"www.topshop.com","https://www.topshop.com/store-locator?country=Canada","Topshop Oshawa","OSHAWA SHOPPING CENTRE 419 KING STREET W ","OSHAWA, ON, ","<MISSING>","L1J 2K5, ","CA","<MISSING>","<MISSING>","<MISSING>","<MISSING>","<MISSING>","<MISSING>"
"www.topshop.com","https://www.topshop.com/store-locator?country=Canada","Topshop Park Royal","PARK ROYAL SHOPPING CTR 725 PARK ROYAL NORTH ","W VANCOUVER, BC, ","<MISSING>","V7T 1H9, ","CA","<MISSING>","<MISSING>","<MISSING>","<MISSING>","<MISSING>","<MISSING>"
"www.topshop.com","https://www.topshop.com/store-locator?country=Canada","Topshop Pen Centre","PEN CENTRE SHOPPING PLAZA 221 GLENDALE AVENUE ","ST.CATHERINES","MISSING>","ON, ","CA","<MISSING>","<MISSING>","<MISSING>","<MISSING>","<MISSING>","<MISSING>"
"www.topshop.com","https://www.topshop.com/store-locator?country=Canada","Topshop Penticton","CHERRY LANE SHOPPING CTR 2111 MAIN STREET ","PENTICTON, BC, ","<MISSING>","V2A 6V1, ","CA","<MISSING>","<MISSING>","<MISSING>","<MISSING>","<MISSING>","<MISSING>"
"www.topshop.com","https://www.topshop.com/store-locator?country=Canada","Topshop Pickering","PICKERING TOWN CENTRE 1355 KINGSTON ROAD ","PICKERING, ON, ","<MISSING>","L1V 1B8, ","CA","<MISSING>","<MISSING>","<MISSING>","<MISSING>","<MISSING>","<MISSING>"
"www.topshop.com","https://www.topshop.com/store-locator?country=Canada","Topshop Pointe Claire Temp","La Baie D?udson - Fairview Pointe Claire ","6790 Route Transcanada","MISSING>","Pointe-claire, ","CA","<MISSING>","<MISSING>","<MISSING>","<MISSING>","<MISSING>","<MISSING>"
"www.topshop.com","https://www.topshop.com/store-locator?country=Canada","Topshop Polo Park","Polo Park ","1485 Portage Avenue","MISSING>","Winnipeg, ","CA","<MISSING>","<MISSING>","<MISSING>","<MISSING>","<MISSING>","<MISSING>"
"www.topshop.com","https://www.topshop.com/store-locator?country=Canada","Topshop Prince George","PARKWOOD SHOPPING CENTRE 140- 1600 15TH AVENUE ","PRINCE GEORGE","MISSING>","BC, ","CA","<MISSING>","<MISSING>","<MISSING>","<MISSING>","<MISSING>","<MISSING>"
"www.topshop.com","https://www.topshop.com/store-locator?country=Canada","Topshop Queen Street","<MISSING>","Queen Street","<MISSING>","<MISSING>","CA","<MISSING>","<MISSING>","<MISSING>","<MISSING>","<MISSING>","<MISSING>"
"www.topshop.com","https://www.topshop.com/store-locator?country=Canada","Topshop Red Deer","BOWER MALL 4900 MOLLY BANNISTER DR. ","RED DEER, AB, ","<MISSING>","T4R 1N9, ","CA","<MISSING>","<MISSING>","<MISSING>","<MISSING>","<MISSING>","<MISSING>"
"www.topshop.com","https://www.topshop.com/store-locator?country=Canada","Topshop Regina","CORNWALL CENTRE REGINA 2150 -11TH AVENUE ","REGINA, SK, ","<MISSING>","S4P 0J5, ","CA","<MISSING>","<MISSING>","<MISSING>","<MISSING>","<MISSING>","<MISSING>"
"www.topshop.com","https://www.topshop.com/store-locator?country=Canada","Topshop Richmond Hill","L4C4X5 9350 YONGE STREET ","RICHMOND HILL","MISSING>","ON, ","CA","<MISSING>","<MISSING>","<MISSING>","<MISSING>","<MISSING>","<MISSING>"
"www.topshop.com","https://www.topshop.com/store-locator?country=Canada","Topshop Rideau","73 Rideau St ","Ottawa","MISSING>","K1N 5W8","CA","<MISSING>","<MISSING>","<MISSING>","<MISSING>","<MISSING>","<MISSING>"
"www.topshop.com","https://www.topshop.com/store-locator?country=Canada","Topshop Rockland","CENTRE ROCKLAND 2435 ROCKLAND ROAD ","TMR","MISSING>","QC, ","CA","<MISSING>","<MISSING>","<MISSING>","<MISSING>","<MISSING>","<MISSING>"
"www.topshop.com","https://www.topshop.com/store-locator?country=Canada","Topshop Rosemere","PLACE ROSEMERE 401 BOUL. LABELLE ","ROSEMERE, QC, ","<MISSING>","J7A 3T2, ","CA","<MISSING>","<MISSING>","<MISSING>","<MISSING>","<MISSING>","<MISSING>"
"www.topshop.com","https://www.topshop.com/store-locator?country=Canada","Topshop Saskatoon","MIDTOWN PLAZA 201 FIRST AVENUE SOUTH ","SASKATOON, SK, ","<MISSING>","S7K 3M1, ","CA","<MISSING>","<MISSING>","<MISSING>","<MISSING>","<MISSING>","<MISSING>"
"www.topshop.com","https://www.topshop.com/store-locator?country=Canada","Topshop Scarborough Toronto","Scarborough Town Centre 300 Borough Drive ","Scarborough, On, ","<MISSING>","M1P 45P","CA","<MISSING>","<MISSING>","<MISSING>","<MISSING>","<MISSING>","<MISSING>"
"www.topshop.com","https://www.topshop.com/store-locator?country=Canada","Topshop Sherbrooke","CARREFOUR DE L'ESTRIE 3000 BOUL. DE PORTLAND ","SHERBROOKE","MISSING>","QC, ","CA","<MISSING>","<MISSING>","<MISSING>","<MISSING>","<MISSING>","<MISSING>"
"www.topshop.com","https://www.topshop.com/store-locator?country=Canada","Topshop Sherway","<MISSING>","Sherway","<MISSING>","<MISSING>","CA","<MISSING>","<MISSING>","<MISSING>","<MISSING>","<MISSING>","<MISSING>"
"www.topshop.com","https://www.topshop.com/store-locator?country=Canada","Topshop South Centre Calgary","100 Anderson Road Se ","South Centre Mall","MISSING>","Calgary, ","CA","<MISSING>","<MISSING>","<MISSING>","<MISSING>","<MISSING>","<MISSING>"
"www.topshop.com","https://www.topshop.com/store-locator?country=Canada","Topshop Southgate Centre The Bay","150-5015 111th Street Edmonton ","Alberta","MISSING>","Ab T6h 4m6, ","CA","<MISSING>","<MISSING>","<MISSING>","<MISSING>","<MISSING>","<MISSING>"
"www.topshop.com","https://www.topshop.com/store-locator?country=Canada","Topshop Square One","<MISSING>","Square One","<MISSING>","<MISSING>","CA","<MISSING>","<MISSING>","<MISSING>","<MISSING>","<MISSING>","<MISSING>"
"www.topshop.com","https://www.topshop.com/store-locator?country=Canada","Topshop St Bruno","LES PROMENADES SAIN-BRUNO 800 BOUL DES PROMENADES ","ST-BRUNO","MISSING>","QC, ","CA","<MISSING>","<MISSING>","<MISSING>","<MISSING>","<MISSING>","<MISSING>"
"www.topshop.com","https://www.topshop.com/store-locator?country=Canada","Topshop St. Albert","ST. ALBERT CENTRE 375 ST. ALBERT TRAIL ","ST. ALBERT, AB, ","<MISSING>","T8N 3K8, ","CA","<MISSING>","<MISSING>","<MISSING>","<MISSING>","<MISSING>","<MISSING>"
"www.topshop.com","https://www.topshop.com/store-locator?country=Canada","Topshop St.Laurent","ST. LAURENT CENTER 1200 ST. LAUREN BOUL ","OTTAWA","MISSING>","ON, ","CA","<MISSING>","<MISSING>","<MISSING>","<MISSING>","<MISSING>","<MISSING>"
"www.topshop.com","https://www.topshop.com/store-locator?country=Canada","Topshop St.Vital","ST. VITAL CENTRE 1225 ST. MARY'S ROAD ","WINNIPEG","MISSING>","MB, ","CA","<MISSING>","<MISSING>","<MISSING>","<MISSING>","<MISSING>","<MISSING>"
"www.topshop.com","https://www.topshop.com/store-locator?country=Canada","Topshop Sunridge","SUNRIDGE MALL 2525 36 STREET NE ","CALGARY","MISSING>","AB, ","CA","<MISSING>","<MISSING>","<MISSING>","<MISSING>","<MISSING>","<MISSING>"
"www.topshop.com","https://www.topshop.com/store-locator?country=Canada","Topshop Sydney","MAYFLOWER SHOPPING MALL 800 GRAND LAKE ROAD ","SYDNEY","MISSING>","NS, ","CA","<MISSING>","<MISSING>","<MISSING>","<MISSING>","<MISSING>","<MISSING>"
"www.topshop.com","https://www.topshop.com/store-locator?country=Canada","Topshop Temp Calagary Dtn","<MISSING>","Temp Calagary Dtn","<MISSING>","<MISSING>","CA","<MISSING>","<MISSING>","<MISSING>","<MISSING>","<MISSING>","<MISSING>"
"www.topshop.com","https://www.topshop.com/store-locator?country=Canada","Topshop The Bay Website","100 Metropolitan Rd Scarborough ON ","<MISSING>","<MISSING>","<MISSING>","CA","<MISSING>","<MISSING>","<MISSING>","<MISSING>","<MISSING>","<MISSING>"
"www.topshop.com","https://www.topshop.com/store-locator?country=Canada","Topshop Upper Canada Mall Newmarket","Upper Canada Mall 17600 Yonge St. N. ","Newmarket, On, ","<MISSING>","L3Y 4Z1","CA","<MISSING>","<MISSING>","<MISSING>","<MISSING>","<MISSING>","<MISSING>"
"www.topshop.com","https://www.topshop.com/store-locator?country=Canada","Topshop Vancouver","<MISSING>","Vancouver","<MISSING>","<MISSING>","CA","<MISSING>","<MISSING>","<MISSING>","<MISSING>","<MISSING>","<MISSING>"
"www.topshop.com","https://www.topshop.com/store-locator?country=Canada","Topshop Vernon","VILLAGE GREEN MALL STE 104900  27TH STREET VERNON ","VERNON, BC, ","<MISSING>","V1T 2C7, ","CA","<MISSING>","<MISSING>","<MISSING>","<MISSING>","<MISSING>","<MISSING>"
"www.topshop.com","https://www.topshop.com/store-locator?country=Canada","Topshop Victoria","THE BAY CENTRE 1150 DOUGLAS STREET ","VICTORIA, BC, ","<MISSING>","V8Z 2C8, ","CA","<MISSING>","<MISSING>","<MISSING>","<MISSING>","<MISSING>","<MISSING>"
"www.topshop.com","https://www.topshop.com/store-locator?country=Canada","Topshop Waterloo","CONESTOGA MALL 550 KING STREET NORTH ","WATERLOO","MISSING>","ON, ","CA","<MISSING>","<MISSING>","<MISSING>","<MISSING>","<MISSING>","<MISSING>"
"www.topshop.com","https://www.topshop.com/store-locator?country=Canada","Topshop West Edmonton Temp","Hudson's Bay - West Edmonton Mall ","8882 170 St Nw","MISSING>","Edmonton, ","CA","<MISSING>","<MISSING>","<MISSING>","<MISSING>","<MISSING>","<MISSING>"
"www.topshop.com","https://www.topshop.com/store-locator?country=Canada","Topshop Windsor","DEVONSHIRE MALL 3030 HOWARD AVENUE ","WINDSOR","MISSING>","ON, ","CA","<MISSING>","<MISSING>","<MISSING>","<MISSING>","<MISSING>","<MISSING>"
"www.topshop.com","https://www.topshop.com/store-locator?country=Canada","Topshop Winnipeg Dtn","450 PORTAGE AVE. WINNIPEG ","<MISSING>","<MISSING>","<MISSING>","CA","<MISSING>","<MISSING>","<MISSING>","<MISSING>","<MISSING>","<MISSING>"
"www.topshop.com","https://www.topshop.com/store-locator?country=Canada","Topshop Woodbine","WOODBINE PLAZA 500 REXDALE BLVD ","TORONTO","MISSING>","ON, ","CA","<MISSING>","<MISSING>","<MISSING>","<MISSING>","<MISSING>","<MISSING>"
"www.topshop.com","https://www.topshop.com/store-locator?country=Canada","Topshop Yorkdale","<MISSING>","Yorkdale","<MISSING>","<MISSING>","CA","<MISSING>","<MISSING>","<MISSING>","<MISSING>","<MISSING>","<MISSING>"
