"locator_domain","page_url","location_name","street_address","city","state","zip","country_code","store_number","phone","location_type","latitude","longitude","hours_of_operation"
"puttputt.com","https://puttputt.com/burlington/hoursinfo","Putt-Putt Fun Center","1340 N Church St.","Burlington","NC","27217","US","<MISSING>","(336) 228-6217","<MISSING>","36.0980877","-79.4161925","Monday - Thursday: 2pm - 9pm Friday: 12noon - 10pm Saturday: 10am - 10pm Sunday: 12noon - 10pm"
"puttputt.com","https://puttputt.com/hickory/hoursinfo","Putt-Putt Fun Center","533 7th Avenue Place SW","Hickory","NC","28601","US","<MISSING>","(828) 327-2316","<MISSING>","35.744328","-81.3449488","Thursday: 5pm to 9pm Friday: 5pm to 9pm Saturday: Noon to 9pm Sunday: 1pm to 9pm"
"puttputt.com","https://puttputt.com/hope-mills/hoursinfo","Putt-Putt Hope Mills","3311 Footbridge Ln.","Fayetteville","NC","<MISSING>","US","<MISSING>","910-424-7888","<MISSING>","<MISSING>","<MISSING>","<MISSING>"
"puttputt.com","https://puttputt.com/wilson/hoursinfo","Putt-Putt Fun Center","418 Ward Blvd.","Wilson","NC","27893","US","<MISSING>","(252) 237-6225","<MISSING>","35.7097973","-77.9266403","Friday: 6pm - 9pm Saturday: 2pm - 9pm Sunday: 2pm - 9pm"
"puttputt.com","https://puttputt.com/high-point/hoursinfo","Putt-Putt Fun Center","2418 N Main St.","High Point","NC","27260","US","<MISSING>","(336) 869-4273","<MISSING>","35.9883617","-80.0255672","Monday-Thursday: 10am-10pm Friday: 10am-11pm Saturday: 9am-11pm Sunday: 1pm-10pm"
"puttputt.com","https://puttputt.com/white-lake/hoursinfo","Putt-Putt Fun Center","1608 White Lake Dr.","Elizabethtown","NC","28337","US","<MISSING>","(910) 862-4064","<MISSING>","34.6356136","-78.4841489","<MISSING>"
"puttputt.com","https://puttputt.com/bristol/hoursinfo","Putt-Putt Fun Center","319 Bluff City Hwy.","Bristol","TN","37620","US","<MISSING>","(423) 764-7511","<MISSING>","36.5701429","-82.1914028","<MISSING>"
"puttputt.com","https://puttputt.com/locations-tn/","Putt-Putt Fun Center","164 West End Ave.","Knoxville","TN","<INACCESSIBLE>","US","<MISSING>","865-675-5558","<MISSING>","<MISSING>","<MISSING>","<INACCESSIBLE>"
"puttputt.com","https://puttputt.com/locations-tn/","Putt-Putt Fun Center","10770 Lebanon Rd.","Mount Juliet","TN","<INACCESSIBLE>","US","<MISSING>","615-754-2744","<MISSING>","<MISSING>","<MISSING>","<INACCESSIBLE>"
"puttputt.com","https://puttputt.com/kingsport/hoursinfo","Putt-Putt Fun Center","346 W Stone Dr.","Kingsport","TN","37660","US","<MISSING>","(423) 247-3531","<MISSING>","36.5602415","-82.5578766","<MISSING>"
"puttputt.com","https://puttputt.com/locations-tn/","Putt-Putt Fun Center","5484 Summer Ave.","Memphis","TN","<INACCESSIBLE>","US","<MISSING>","901-386-2992","<MISSING>","<MISSING>","<MISSING>","<INACCESSIBLE>"
"puttputt.com","https://puttputt.com/erlanger/hoursinfo","Putt-Putt Fun Center","3143 Dixie Hwy.","Erlanger","KY","41018","US","<MISSING>","(859) 341-3144","<MISSING>","39.0181404","-84.5941721","<MISSING>"
"puttputt.com","https://puttputt.com/louisville/hoursinfo","Putt-Putt Fun Center","5720 Bardstown Road","Louisville","KY","40291","US","<MISSING>","(502) 239-7336","<MISSING>","38.1622187","-85.5958631","<MISSING>"
"puttputt.com","https://puttputt.com/charlottesville/hoursinfo","Putt-Putt Fun Center","1515 Putt-Putt Pl.","Charlottesville","VA","22901","US","<MISSING>","(434) 531-3513","<MISSING>","38.078291","-78.469866","Sunday - Thursday 9am - 8pm Friday - Saturday 9am - 10pm Sunday - Thursday 9am - 10pm Friday - Saturday 9am - 11pm"
"puttputt.com","https://puttputt.com/locations-va/","Putt-Putt Fun Center","7901 Midlothian Pike","Richmond","VA","<INACCESSIBLE>","US","<MISSING>","804-272-4373","<MISSING>","<MISSING>","<MISSING>","<INACCESSIBLE>"
"puttputt.com","https://puttputt.com/locations-va/","Putt-Putt Fun Center","8105 Timberlake Rd.","Lynchburg","VA","<INACCESSIBLE>","US","<MISSING>","434-237-7888","<MISSING>","<MISSING>","<MISSING>","<INACCESSIBLE>"
"puttputt.com","https://puttputt.com/locations-va/","Putt-Putt Fun Center","6801 Peters Creek Rd.","Roanoke","VA","<INACCESSIBLE>","US","<MISSING>","540-366-3660","<MISSING>","<MISSING>","<MISSING>","<INACCESSIBLE>"
"puttputt.com","https://puttputt.com/augusta/hoursinfo","Putt-Putt Fun Center","3763 Martinez Blvd.","Martinez","GA","30907","US","<MISSING>","(706) 868-0083","<MISSING>","<MISSING>","<MISSING>","Sunday-Thursday: 11am - 10pm Friday: 11am - Midnight Saturday: 10am - Midnight"
"puttputt.com","http://www.puttputtpa.com/mini_about.html","Putt-Putt Fun Center","5300 W Baltimore Pike","Clifton Heights","PA","19018","US","<MISSING>","(610) 626-5766","<MISSING>","39.92672","-75.304327","MON - THURS NOON - 10 PM FRIDAY NOON - 11 PM SATURDAY 11 AM - 11 PM SUNDAY 11 AM - 10 PM"
"puttputt.com","https://puttputt.com/defiance/hoursinfo","Putt-Putt Fun Center","8830 State Rte. 66","Defiance","OH","43512","US","<MISSING>","(419) 782-1801","<MISSING>","41.3147864","-84.3624301","Sunday: 12-8:00 PM Monday-Thursday: 4:30-8:00 PM Friday: 4:30-9:00 PM Saturday: 11 AM-10 PM"
"puttputt.com","https://puttputt.com/locations-oh/","Putt-Putt Fun Center","3937 Youngstown Rd.","Warren","OH","<INACCESSIBLE>","US","<MISSING>","330-369-1965","<MISSING>","<MISSING>","<MISSING>","<INACCESSIBLE>"
"puttputt.com","https://puttputt.com/columbus/hoursinfo","Putt-Putt Fun Center","1080 North Marr Rd.","Columbus","IN","47201","US","<MISSING>","(812) 376-3136","<MISSING>","39.209968","-85.885098","<MISSING>"
"puttputt.com","https://puttputt.com/mishawaka/hoursinfo","Putt-Putt Fun Center","3615 N Main St.","Mishawaka","IN","46545","US","<MISSING>","(574) 259-4171","<MISSING>","41.6933782","-86.182577","<MISSING>"
"puttputt.com","https://puttputt.com/locations-in/","Putt-Putt Fun Center","4530 Speedway Dr.","Fort Wayne","IN","<INACCESSIBLE>","US","<MISSING>","260-483-7618","<MISSING>","<MISSING>","<MISSING>","<INACCESSIBLE>"
"puttputt.com","https://puttputt.com/amelia-island/hoursinfo","Putt-Putt Fun Center","6 North Fletcher Ave.","Fernandina Beach","FL","32034","US","<MISSING>","(123) 456-7890","<MISSING>","<MISSING>","<MISSING>","Sunday - Thursday: 12pm - 8pm Friday - Saturday: 12pm - 9pm"
"puttputt.com","https://puttputt.com/kissimmee/hoursinfo","Putt-Putt Fun Center","8505 W. Irlo Bronson Memorial Hwy.","Kissimmee","FL","34747","US","<MISSING>","(407) 239-0000","<MISSING>","28.3492164","-81.6250875","Open 9am - 10pm Daily"
"puttputt.com","https://puttputt.com/lake-charles/hoursinfo","Putt-Putt Fun Center","620 Petro Point Dr.","Lake Charles","LA","70607","US","<MISSING>","(337) 480-1954","<MISSING>","30.164599","-93.2128819","<MISSING>"
"puttputt.com","https://puttputt.com/abilene/hoursinfo","Putt-Putt Fun Center","201 S Danville Dr.","Abilene","TX","79605","US","<MISSING>","(325) 692-7596","<MISSING>","32.4497626","-99.78473","<MISSING>"
"puttputt.com","https://puttputt.com/locations-tx/","Putt-Putt Fun Center","2630 Bill Owens Pky.","Longview","TX","<INACCESSIBLE>","US","<MISSING>","903-759-0416","<MISSING>","<MISSING>","<MISSING>","<INACCESSIBLE>"
"puttputt.com","https://puttputt.com/arlington/hoursinfo","Putt-Putt Fun Center (South Arlington)","2004 W Pleasant Ridge Rd.","Arlington","TX","76015","US","<MISSING>","(817) 467-6565","<MISSING>","32.676013","-97.141093","<MISSING>"
"puttputt.com","https://puttputt.com/tyler/hoursinfo","Putt-Putt Fun Center","Loop 323 Old Troop Hwy.","Tyler","TX","75703","US","<MISSING>","(903) 561-7750","<MISSING>","32.3112062","-95.271369","Sunday: 1 pm - 10 pm Monday - Thursday: 4 pm - 10 pm Friday: 3 pm - 11 pm Saturday: 10 am - 11 pm"
"puttputt.com","https://puttputt.com/waco/hoursinfo","Putt-Putt Fun Center","1716 N 42nd St.","Waco","TX","76710","US","<MISSING>","(254) 772-3681","<MISSING>","31.5411918","-97.1822481","Monday - Friday: 6pm - 10pm Saturday: 11am - 10pm Sunday: 1pm - 9pm"
"puttputt.com","https://funworksfuncompany.com/directions-hours","FUNWORKS! Family Fun Company","4307 Coffee Road","Modesto","CA","95357","US","<MISSING>","209-578-4386","<MISSING>","<MISSING>","<MISSING>","Monday - Thursday: 12 p.m. - 7 p.m. Friday - Sunday: 12 p.m. - 8 p.m."
