"locator_domain","page_url","location_name","street_address","city","state","zip","country_code","store_number","phone","location_type","latitude","longitude","hours_of_operation"
"https://locations.bannerbank.com/","https://locations.bannerbank.com/ca/carlsbad/5901-priestly-dr","Banner Bank Carlsbad","5901 Priestly Dr Suite 160","Carlsbad","CA","92008","US","8439491","(760) 448-8300","Branch","33.13405070672722","-117.27634951901439","Monday9:00 AM - 5:00 PM|Tuesday9:00 AM - 5:00 PM|Wednesday9:00 AM - 5:00 PM|Thursday9:00 AM - 5:00 PM|Friday9:00 AM - 5:00 PM|SaturdayClosed|SundayClosed"
"https://locations.bannerbank.com/","https://locations.bannerbank.com/ca/chico/2485-notre-dame-blvd","Banner Bank Chico","2485 Notre Dame Blvd Suite B","Chico","CA","95928","US","8439465","(530) 895-5200","Branch | ATM","39.71604912642099","-121.79493590674588","Monday9:00 AM - 5:00 PM|Tuesday9:00 AM - 5:00 PM|Wednesday9:00 AM - 5:00 PM|Thursday9:00 AM - 5:00 PM|Friday9:00 AM - 5:00 PM|SaturdayClosed|SundayClosed"
"https://locations.bannerbank.com/","https://locations.bannerbank.com/ca/chula-vista/279-f-st","Banner Bank Chula Vista","279 F St","Chula Vista","CA","91910","US","8439493","(619) 827-8100","Branch | ATM","32.64174980180832","-117.0792281627655","Monday9:00 AM - 5:00 PM|Tuesday9:00 AM - 5:00 PM|Wednesday9:00 AM - 5:00 PM|Thursday9:00 AM - 5:00 PM|Friday9:00 AM - 6:00 PM|SaturdayClosed|SundayClosed"
"https://locations.bannerbank.com/","https://locations.bannerbank.com/ca/corning/1201-solano-st","Banner Bank Corning","1201 Solano St","Corning","CA","96021","US","8439543","(530) 824-4605","Branch | ATM","39.92763948905411","-122.18130066990847","Monday9:00 AM - 5:00 PM|Tuesday9:00 AM - 5:00 PM|Wednesday9:00 AM - 5:00 PM|Thursday9:00 AM - 5:00 PM|Friday9:00 AM - 6:00 PM|SaturdayClosed|SundayClosed"
"https://locations.bannerbank.com/","https://locations.bannerbank.com/ca/davis/333-f-st","Banner Bank Davis","333 F St Suite A","Davis","CA","95616","US","8439508","(530) 758-6250","Branch | ATM","38.545678539771586","-121.74079209566116","Monday9:00 AM - 5:00 PM|Tuesday9:00 AM - 5:00 PM|Wednesday9:00 AM - 5:00 PM|Thursday9:00 AM - 5:00 PM|Friday9:00 AM - 6:00 PM|SaturdayClosed|SundayClosed"
"https://locations.bannerbank.com/","https://locations.bannerbank.com/ca/el-cajon/742-fletcher-pkwy","Banner Bank El Cajon","742 Fletcher Pkwy","El Cajon","CA","92020","US","8439494","(619) 440-3992","Branch | ATM","32.80802261271725","-116.9720162527392","Monday9:00 AM - 5:00 PM|Tuesday9:00 AM - 5:00 PM|Wednesday9:00 AM - 5:00 PM|Thursday9:00 AM - 5:00 PM|Friday9:00 AM - 6:00 PM|SaturdayClosed|SundayClosed"
"https://locations.bannerbank.com/","https://locations.bannerbank.com/ca/elk-grove/9340-e-stockton-blvd","Banner Bank Elk Grove","9340 E Stockton Blvd","Elk Grove","CA","95624","US","8439513","(916) 685-6546","Branch | ATM","38.418491818222314","-121.3923624157905","Monday9:00 AM - 5:00 PM|Tuesday9:00 AM - 5:00 PM|Wednesday9:00 AM - 5:00 PM|Thursday9:00 AM - 5:00 PM|Friday9:00 AM - 6:00 PM|SaturdayClosed|SundayClosed"
"https://locations.bannerbank.com/","https://locations.bannerbank.com/ca/escondido/355-w-grand-ave","Banner Bank Escondido","355 W Grand Ave","Escondido","CA","92027","US","8439441","(760) 520-0400","Branch | ATM","33.1195919","-117.0851848","Monday9:00 AM - 5:00 PM|Tuesday9:00 AM - 5:00 PM|Wednesday9:00 AM - 5:00 PM|Thursday9:00 AM - 5:00 PM|Friday9:00 AM - 5:00 PM|SaturdayClosed|SundayClosed"
"https://locations.bannerbank.com/","https://locations.bannerbank.com/ca/folsom/701-e-bidwell-st","Banner Bank Folsom","701 E Bidwell St","Folsom","CA","95630","US","8439459","(916) 984-8880","Branch | ATM","38.67136854967563","-121.16096422076225","Monday9:00 AM - 5:00 PM|Tuesday9:00 AM - 5:00 PM|Wednesday9:00 AM - 5:00 PM|Thursday9:00 AM - 5:00 PM|Friday9:00 AM - 5:00 PM|SaturdayClosed|SundayClosed"
"https://locations.bannerbank.com/","https://locations.bannerbank.com/ca/galt/701-c-st","Banner Bank Galt","701 C St","Galt","CA","95632","US","8439594","(209) 745-7000","Branch | ATM","38.25356391682049","-121.30136981606483","Monday9:00 AM - 5:00 PM|Tuesday9:00 AM - 5:00 PM|Wednesday9:00 AM - 5:00 PM|Thursday9:00 AM - 5:00 PM|Friday9:00 AM - 5:00 PM|SaturdayClosed|SundayClosed"
"https://locations.bannerbank.com/","https://locations.bannerbank.com/ca/grass-valley/115-w-mcknight-way","Banner Bank Grass Valley","115 W McKnight Way","Grass Valley","CA","95949","US","8439545","(530) 272-4286","Branch | ATM","39.19932883196331","-121.06120213866234","Monday9:00 AM - 5:00 PM|Tuesday9:00 AM - 5:00 PM|Wednesday9:00 AM - 5:00 PM|Thursday9:00 AM - 5:00 PM|Friday9:00 AM - 6:00 PM|SaturdayClosed|SundayClosed"
"https://locations.bannerbank.com/","https://locations.bannerbank.com/ca/greenview/6701-n-highway-3","Banner Bank Greenview","6701 N Highway 3","Greenview","CA","96037","US","8439443","(530) 468-5363","Branch | ATM","41.548403","-122.902527","Monday9:00 AM - 5:00 PM|Tuesday9:00 AM - 5:00 PM|Wednesday9:00 AM - 5:00 PM|Thursday9:00 AM - 5:00 PM|Friday9:00 AM - 5:00 PM|SaturdayClosed|SundayClosed"
"https://locations.bannerbank.com/","https://locations.bannerbank.com/ca/lakewood/4146-woodruff-ave","Banner Bank Lakewood","4146 Woodruff Ave","Lakewood","CA","90713","US","8439519","(562) 213-1100","Branch | ATM","33.83376176619717","-118.11579667031765","Monday9:00 AM - 5:00 PM|Tuesday9:00 AM - 5:00 PM|Wednesday9:00 AM - 5:00 PM|Thursday9:00 AM - 5:00 PM|Friday9:00 AM - 6:00 PM|SaturdayClosed|SundayClosed"
"https://locations.bannerbank.com/","https://locations.bannerbank.com/ca/los-angeles/7182-beverly-blvd","Banner Bank Los Angeles","7182 Beverly Blvd","Los Angeles","CA","90036","US","8439591","(323) 935-6132","Branch","34.07581789331704","-118.34605425596237","Monday9:00 AM - 5:00 PM|Tuesday9:00 AM - 5:00 PM|Wednesday9:00 AM - 5:00 PM|Thursday9:00 AM - 5:00 PM|Friday9:00 AM - 6:00 PM|SaturdayClosed|SundayClosed"
"https://locations.bannerbank.com/","https://locations.bannerbank.com/ca/monrovia/404-e-huntington-dr","Banner Bank Monrovia","404 E Huntington Dr","Monrovia","CA","91016","US","8439518","(626) 357-9611","Branch","34.139992831203216","-117.99446360038019","Monday9:00 AM - 5:00 PM|Tuesday9:00 AM - 5:00 PM|Wednesday9:00 AM - 5:00 PM|Thursday9:00 AM - 5:00 PM|Friday9:00 AM - 6:00 PM|SaturdayClosed|SundayClosed"
"https://locations.bannerbank.com/","https://locations.bannerbank.com/ca/mount-shasta/312-maple-st","Banner Bank Mt. Shasta","312 Maple St","Mount Shasta","CA","96067","US","8439442","(530) 926-1680","Branch | ATM","41.31327716561464","-122.31371663891423","Monday9:00 AM - 5:00 PM|Tuesday9:00 AM - 5:00 PM|Wednesday9:00 AM - 5:00 PM|Thursday9:00 AM - 5:00 PM|Friday9:00 AM - 5:00 PM|SaturdayClosed|SundayClosed"
"https://locations.bannerbank.com/","https://locations.bannerbank.com/ca/rancho-cucamonga/11930-e-foothill-blvd","Banner Bank Rancho Cucamonga","11930 E Foothill Blvd","Rancho Cucamonga","CA","91739","US","8439515","(909) 483-8888","Branch | ATM","34.10674560179046","-117.54422396421432","Monday9:00 AM - 5:00 PM|Tuesday9:00 AM - 5:00 PM|Wednesday9:00 AM - 5:00 PM|Thursday9:00 AM - 5:00 PM|Friday9:00 AM - 6:00 PM|SaturdayClosed|SundayClosed"
"https://locations.bannerbank.com/","https://locations.bannerbank.com/ca/red-bluff/950-main-st","Banner Bank Red Bluff","950 Main St","Red Bluff","CA","96080","US","8439544","(530) 527-7610","Branch | ATM","40.1799123008934","-122.2366896271705","Monday9:00 AM - 5:00 PM|Tuesday9:00 AM - 5:00 PM|Wednesday9:00 AM - 5:00 PM|Thursday9:00 AM - 5:00 PM|Friday9:00 AM - 6:00 PM|SaturdayClosed|SundayClosed"
"https://locations.bannerbank.com/","https://locations.bannerbank.com/ca/redding/880-cypress-ave","Banner Bank Redding","880 Cypress Ave","Redding","CA","96001","US","8439467","(530) 245-1004","Branch | ATM","40.575797270900885","-122.38323211669922","Monday9:00 AM - 5:00 PM|Tuesday9:00 AM - 5:00 PM|Wednesday9:00 AM - 5:00 PM|Thursday9:00 AM - 5:00 PM|Friday9:00 AM - 5:00 PM|SaturdayClosed|SundayClosed"
"https://locations.bannerbank.com/","https://locations.bannerbank.com/ca/rialto/255-s-riverside-ave","Banner Bank Rialto","255 S Riverside Ave","Rialto","CA","92376","US","8439514","(909) 874-4444","Branch","34.0975412","-117.3700343","Monday9:00 AM - 5:00 PM|Tuesday9:00 AM - 5:00 PM|Wednesday9:00 AM - 5:00 PM|Thursday9:00 AM - 5:00 PM|Friday9:00 AM - 6:00 PM|SaturdayClosed|SundayClosed"
"https://locations.bannerbank.com/","https://locations.bannerbank.com/ca/riverside/5030-arlington-ave","Banner Bank Riverside","5030 Arlington Ave","Riverside","CA","92504","US","8439458","(951) 588-1450","Branch | ATM","33.94579643307826","-117.41270050406456","Monday9:00 AM - 5:00 PM|Tuesday9:00 AM - 5:00 PM|Wednesday9:00 AM - 5:00 PM|Thursday9:00 AM - 5:00 PM|Friday9:00 AM - 6:00 PM|SaturdayClosed|SundayClosed"
"https://locations.bannerbank.com/","https://locations.bannerbank.com/ca/rocklin/2320-sunset-blvd","Banner Bank Rocklin","2320 Sunset Blvd","Rocklin","CA","95765","US","8439460","(916) 648-3806","Branch","38.7969392","-121.266416","Monday9:00 AM - 5:00 PM|Tuesday9:00 AM - 5:00 PM|Wednesday9:00 AM - 5:00 PM|Thursday9:00 AM - 5:00 PM|Friday9:00 AM - 6:00 PM|SaturdayClosed|SundayClosed"
"https://locations.bannerbank.com/","https://locations.bannerbank.com/ca/sacramento/1-parkcenter-drive","Banner Bank Sacramento - 1 Parkcenter","1 Parkcenter Drive","Sacramento","CA","95825","US","8439461","(916) 648-2100","Branch | ATM","38.57207055040988","-121.41433880366753","Monday9:00 AM - 5:00 PM|Tuesday9:00 AM - 5:00 PM|Wednesday9:00 AM - 5:00 PM|Thursday9:00 AM - 5:00 PM|Friday9:00 AM - 5:00 PM|SaturdayClosed|SundayClosed"
"https://locations.bannerbank.com/","https://locations.bannerbank.com//ca/san-diego/12770-high-bluff-dr","Banner Bank San Diego - Carmel Valley","12770 High Bluff Dr Suite 180","San Diego","CA","92130","US","8439517","(858) 523-1940","Branch","32.950788831226795","-117.24039942026138","Monday9:00 AM - 5:00 PM|Tuesday9:00 AM - 5:00 PM|Wednesday9:00 AM - 5:00 PM|Thursday9:00 AM - 5:00 PM|Friday9:00 AM - 5:00 PM|SaturdayClosed|SundayClosed"
"https://locations.bannerbank.com/","https://locations.bannerbank.com//ca/san-diego/1350-rosecrans-st","Banner Bank San Diego - Point Loma","1350 Rosecrans St","San Diego","CA","92106","US","8439495","(619) 243-7900","Branch | ATM","32.72467572133165","-117.22956597805023","Monday9:00 AM - 5:00 PM|Tuesday9:00 AM - 5:00 PM|Wednesday9:00 AM - 5:00 PM|Thursday9:00 AM - 5:00 PM|Friday9:00 AM - 5:30 PM|SaturdayClosed|SundayClosed"
"https://locations.bannerbank.com/","https://locations.bannerbank.com//ca/san-diego/4445-eastgate-mall","Banner Bank San Diego  - Golden Triangle","4445 Eastgate Mall Suite 110","San Diego","CA","92121","US","8439516","(858) 625-9050","Branch","32.87783745322104","-117.21010000000001","Monday9:00 AM - 5:00 PM|Tuesday9:00 AM - 5:00 PM|Wednesday9:00 AM - 5:00 PM|Thursday9:00 AM - 5:00 PM|Friday9:00 AM - 5:00 PM|SaturdayClosed|SundayClosed"
"https://locations.bannerbank.com/","https://locations.bannerbank.com//ca/san-diego/5508-balboa-ave","Banner Bank San Diego - Balboa Clairemont","5508 Balboa Ave","San Diego","CA","92111","US","8439490","(858) 751-2700","Branch | ATM","32.82023264963727","-117.18098312616348","Monday9:00 AM - 5:00 PM|Tuesday9:00 AM - 5:00 PM|Wednesday9:00 AM - 5:00 PM|Thursday9:00 AM - 5:00 PM|Friday9:00 AM - 6:00 PM|SaturdayClosed|SundayClosed"
"https://locations.bannerbank.com/","https://locations.bannerbank.com//ca/san-diego/701-b-st","Banner Bank San Diego - Downtown","701 B St Suite 100","San Diego","CA","92101","US","8439496","(619) 231-8500","Branch","32.71749","-117.157955","Monday9:00 AM - 5:00 PM|Tuesday9:00 AM - 5:00 PM|Wednesday9:00 AM - 5:00 PM|Thursday9:00 AM - 5:00 PM|Friday9:00 AM - 5:00 PM|SaturdayClosed|SundayClosed"
"https://locations.bannerbank.com/","https://locations.bannerbank.com/ca/santa-monica/3130-wilshire-blvd","Banner Bank Multifamily & Commercial Real Estate Lending Santa Monica Multifamily Commercial Real Estate","3130 Wilshire Blvd Ste 250","Santa Monica","CA","90403","US","9019000","(855) 203-2030","Branch","34.04013156439534","-118.47186094418032","Monday9:00 AM - 5:00 PM|Tuesday9:00 AM - 5:00 PM|Wednesday9:00 AM - 5:00 PM|Thursday9:00 AM - 5:00 PM|Friday9:00 AM - 5:00 PM|SaturdayClosed|SundayClosed"
"https://locations.bannerbank.com/","https://locations.bannerbank.com/ca/temecula/27425-ynez-rd","Banner Bank Temecula","27425 Ynez Rd","Temecula","CA","92591","US","8439512","(951) 760-7200","Branch | ATM","33.50584536304437","-117.15048708398172","Monday9:00 AM - 5:00 PM|Tuesday9:00 AM - 5:00 PM|Wednesday9:00 AM - 5:00 PM|Thursday9:00 AM - 5:00 PM|Friday9:00 AM - 5:00 PM|SaturdayClosed|SundayClosed"
"https://locations.bannerbank.com/","https://locations.bannerbank.com/ca/yreka/123-n-main-st","Banner Bank Yreka","123 N Main St","Yreka","CA","96097","US","8439542","(530) 842-6191","Branch | ATM","41.73208792961169","-122.63578154527295","Monday9:00 AM - 5:00 PM|Tuesday9:00 AM - 5:00 PM|Wednesday9:00 AM - 5:00 PM|Thursday9:00 AM - 5:00 PM|Friday9:00 AM - 6:00 PM|SaturdayClosed|SundayClosed"
"https://locations.bannerbank.com/","https://locations.bannerbank.com//id/boise/1550-s-kimball-way","Banner Bank Boise - Overland","1550 S Kimball Way","Boise","ID","83709","US","8439485","(208) 424-2820","Branch | ATM","43.59079770641473","-116.29697799682617","Monday9:00 AM - 5:00 PM|Tuesday9:00 AM - 5:00 PM|Wednesday9:00 AM - 5:00 PM|Thursday9:00 AM - 5:00 PM|Friday9:00 AM - 6:00 PM|SaturdayClosed|SundayClosed"
"https://locations.bannerbank.com/","https://locations.bannerbank.com//id/boise/6850-w-fairview-ave","Banner Bank Boise - Fairview","6850 W Fairview Ave","Boise","ID","83704","US","8439600","(208) 424-2800","Branch | ATM","43.61948712369762","-116.26692652702337","Monday9:00 AM - 5:00 PM|Tuesday9:00 AM - 5:00 PM|Wednesday9:00 AM - 5:00 PM|Thursday9:00 AM - 5:00 PM|Friday9:00 AM - 6:00 PM|SaturdayClosed|SundayClosed"
"https://locations.bannerbank.com/","https://locations.bannerbank.com//id/boise/950-w-bannock-st-8439436","Banner Bank Mortgage Lending Boise - 10th & Bannock Home Loans","950 W Bannock St Suite 102","Boise","ID","83702","US","8439436","(208) 424-2870","Branch","43.61841987021795","-116.20371015234241","Monday9:00 AM - 5:00 PM|Tuesday9:00 AM - 5:00 PM|Wednesday9:00 AM - 5:00 PM|Thursday9:00 AM - 5:00 PM|Friday9:00 AM - 5:00 PM|SaturdayClosed|SundayClosed"
"https://locations.bannerbank.com/","https://locations.bannerbank.com//id/boise/950-w-bannock-st-8439484","Banner Bank Boise - 10th & Bannock","950 W Bannock St Suite 100","Boise","ID","83702","US","8439484","(208) 424-2840","Branch | ATM","43.6183804","-116.2038712","Monday9:00 AM - 5:00 PM|Tuesday9:00 AM - 5:00 PM|Wednesday9:00 AM - 5:00 PM|Thursday9:00 AM - 5:00 PM|Friday9:00 AM - 5:00 PM|SaturdayClosed|SundayClosed"
"https://locations.bannerbank.com/","https://locations.bannerbank.com/id/hayden/255-w-hayden-ave","Banner Bank Hayden","255 W Hayden Ave","Hayden","ID","83835","US","8439455","(208) 772-3450","Branch | ATM","47.75938314341272","-116.78998410701752","Monday9:00 AM - 5:00 PM|Tuesday9:00 AM - 5:00 PM|Wednesday9:00 AM - 5:00 PM|Thursday9:00 AM - 5:00 PM|Friday9:00 AM - 5:00 PM|SaturdayClosed|SundayClosed"
"https://locations.bannerbank.com/","https://locations.bannerbank.com//id/lewiston/1005-bryden-ave","Banner Bank Lewiston - Bryden","1005 Bryden Ave","Lewiston","ID","83501","US","8439597","(208) 743-2537","Branch | ATM","46.38071078245864","-116.98049336671829","Monday9:00 AM - 5:00 PM|Tuesday9:00 AM - 5:00 PM|Wednesday9:00 AM - 5:00 PM|Thursday9:00 AM - 5:00 PM|Friday9:00 AM - 6:00 PM|SaturdayClosed|SundayClosed"
"https://locations.bannerbank.com/","https://locations.bannerbank.com//id/lewiston/1031-21st-st","Banner Bank Lewiston - 21st Street","1031 21st St","Lewiston","ID","83501","US","8439596","(208) 743-6070","Branch | ATM","46.40985060233762","-117.0016251580546","Monday9:00 AM - 5:00 PM|Tuesday9:00 AM - 5:00 PM|Wednesday9:00 AM - 5:00 PM|Thursday9:00 AM - 5:00 PM|Friday9:00 AM - 6:00 PM|SaturdayClosed|SundayClosed"
"https://locations.bannerbank.com/","https://locations.bannerbank.com/id/meridian/900-e-fairview-ave","Banner Bank Meridian","900 E Fairview Ave","Meridian","ID","83642","US","8439595","(208) 898-3900","Branch | ATM","43.61980362828924","-116.38270944356918","Monday9:00 AM - 5:00 PM|Tuesday9:00 AM - 5:00 PM|Wednesday9:00 AM - 5:00 PM|Thursday9:00 AM - 5:00 PM|Friday9:00 AM - 6:00 PM|SaturdayClosed|SundayClosed"
"https://locations.bannerbank.com/","https://locations.bannerbank.com/id/moscow/600-s-jackson-st","Banner Bank Moscow","600 S Jackson St","Moscow","ID","83843","US","8439454","(208) 882-0809","Branch | ATM","46.72984359168379","-117.00245931744576","Monday9:00 AM - 5:00 PM|Tuesday9:00 AM - 5:00 PM|Wednesday9:00 AM - 5:00 PM|Thursday9:00 AM - 5:00 PM|Friday9:00 AM - 5:00 PM|SaturdayClosed|SundayClosed"
"https://locations.bannerbank.com/","https://locations.bannerbank.com/id/nampa/16292-n-marketplace-blvd","Banner Bank Nampa","16292 N Marketplace Blvd","Nampa","ID","83687","US","8439599","(208) 463-4513","Branch | ATM","43.609204260626576","-116.59155375214965","Monday9:00 AM - 5:00 PM|Tuesday9:00 AM - 5:00 PM|Wednesday9:00 AM - 5:00 PM|Thursday9:00 AM - 5:00 PM|Friday9:00 AM - 6:00 PM|SaturdayClosed|SundayClosed"
"https://locations.bannerbank.com/","https://locations.bannerbank.com/id/orofino/100-main-st","Banner Bank Orofino","100 Main St","Orofino","ID","83544","US","8439456","(208) 476-9200","Branch | ATM","46.479406462010175","-116.25472649931908","Monday9:00 AM - 5:00 PM|Tuesday9:00 AM - 5:00 PM|Wednesday9:00 AM - 5:00 PM|Thursday9:00 AM - 5:00 PM|Friday9:00 AM - 6:00 PM|SaturdayClosed|SundayClosed"
"https://locations.bannerbank.com/","https://locations.bannerbank.com/id/saint-maries/1500-main-ave","Banner Bank St. Maries","1500 Main Ave","Saint Maries","ID","83861","US","8439457","(208) 245-4700","Branch | ATM","47.316354737010414","-116.57607659697533","Monday9:00 AM - 5:00 PM|Tuesday9:00 AM - 5:00 PM|Wednesday9:00 AM - 5:00 PM|Thursday9:00 AM - 5:00 PM|Friday9:00 AM - 5:00 PM|SaturdayClosed|SundayClosed"
"https://locations.bannerbank.com/","https://locations.bannerbank.com//id/twin-falls/1340-blue-lakes-blvd-n","Banner Bank Twin Falls","1340 Blue Lakes Blvd N","Twin Falls","ID","83301","US","8439598","(208) 737-1040","Branch | ATM","42.585498327437456","-114.45983111858368","Monday9:00 AM - 5:00 PM|Tuesday9:00 AM - 5:00 PM|Wednesday9:00 AM - 5:00 PM|Thursday9:00 AM - 5:00 PM|Friday9:00 AM - 6:00 PM|SaturdayClosed|SundayClosed"
"https://locations.bannerbank.com/","https://locations.bannerbank.com//id/twin-falls/746-n-college-rd","Banner Commercial Banking Twin Falls - Magic Valley Commercial Banking","746 N College Rd Suite E","Twin Falls","ID","83301","US","8439483","(208) 735-8057","Branch","42.583107656137436","-114.4635191712041","Monday9:00 AM - 5:00 PM|Tuesday9:00 AM - 5:00 PM|Wednesday9:00 AM - 5:00 PM|Thursday9:00 AM - 5:00 PM|Friday9:00 AM - 5:00 PM|SaturdayClosed|SundayClosed"
"https://locations.bannerbank.com/","https://locations.bannerbank.com/or/ashland/2235-ashland-st","Banner Bank Ashland","2235 Ashland St","Ashland","OR","97520","US","8439534","(541) 482-1822","Branch | ATM","42.18572732612277","-122.6738078892231","Monday9:00 AM - 5:00 PM|Tuesday9:00 AM - 5:00 PM|Wednesday9:00 AM - 5:00 PM|Thursday9:00 AM - 5:00 PM|Friday9:00 AM - 6:00 PM|SaturdayClosed|SundayClosed"
"https://locations.bannerbank.com/","https://locations.bannerbank.com/or/baker-city/2024-washington-ave","Banner Bank Baker City","2024 Washington Ave","Baker City","OR","97814","US","8439533","(541) 523-4240","Branch | ATM","44.777362806118056","-117.8317004442215","Monday9:00 AM - 5:00 PM|Tuesday9:00 AM - 5:00 PM|Wednesday9:00 AM - 5:00 PM|Thursday9:00 AM - 5:00 PM|Friday9:00 AM - 6:00 PM|SaturdayClosed|SundayClosed"
"https://locations.bannerbank.com/","https://locations.bannerbank.com/or/bandon/1095-oregon-ave-se","Banner Bank Bandon","1095 Oregon Ave SE","Bandon","OR","97411","US","8439539","(541) 347-2441","Branch | ATM","43.11364370808281","-124.41471509635448","Monday9:00 AM - 5:00 PM|Tuesday9:00 AM - 5:00 PM|Wednesday9:00 AM - 5:00 PM|Thursday9:00 AM - 5:00 PM|Friday9:00 AM - 6:00 PM|SaturdayClosed|SundayClosed"
"https://locations.bannerbank.com/","https://locations.bannerbank.com//or/beaverton/14800-sw-murray-scholls-dr","Banner Bank Beaverton - Murray Scholls","14800 SW Murray Scholls Dr Suite 104","Beaverton","OR","97007","US","8439573","(503) 579-1947","Branch | ATM","45.43707980794531","-122.82904207706451","Monday9:00 AM - 5:00 PM|Tuesday9:00 AM - 5:00 PM|Wednesday9:00 AM - 5:00 PM|Thursday9:00 AM - 5:00 PM|Friday9:00 AM - 6:00 PM|SaturdayClosed|SundayClosed"
"https://locations.bannerbank.com/","https://locations.bannerbank.com//or/beaverton/3600-sw-cedar-hills-blvd","Banner Bank Beaverton - Cedar Hills","3600 SW Cedar Hills Blvd","Beaverton","OR","97005","US","8439572","(503) 684-2340","Branch | ATM","45.49334760643784","-122.81006853541311","Monday9:00 AM - 5:00 PM|Tuesday9:00 AM - 5:00 PM|Wednesday9:00 AM - 5:00 PM|Thursday9:00 AM - 5:00 PM|Friday9:00 AM - 6:00 PM|SaturdayClosed|SundayClosed"
"https://locations.bannerbank.com/","https://locations.bannerbank.com/or/boardman/204-n-main-st","Banner Bank Boardman","204 N Main St","Boardman","OR","97818","US","8439535","(541) 481-9201","Branch | ATM","45.84043241010031","-119.70223814249039","Monday9:00 AM - 5:00 PM|Tuesday9:00 AM - 5:00 PM|Wednesday9:00 AM - 5:00 PM|Thursday9:00 AM - 5:00 PM|Friday9:00 AM - 6:00 PM|SaturdayClosed|SundayClosed"
"https://locations.bannerbank.com/","https://locations.bannerbank.com/or/central-point/300-e-pine-st","Banner Bank Central Point","300 E Pine St","Central Point","OR","97502","US","8439530","(541) 665-8009","Branch | ATM","42.37502311110308","-122.91494893254088","Monday9:00 AM - 5:00 PM|Tuesday9:00 AM - 5:00 PM|Wednesday9:00 AM - 5:00 PM|Thursday9:00 AM - 5:00 PM|Friday9:00 AM - 6:00 PM|SaturdayClosed|SundayClosed"
"https://locations.bannerbank.com/","https://locations.bannerbank.com//or/coos-bay/150-s-wall-st","Banner Bank Coos Bay - Empire","150 S Wall St","Coos Bay","OR","97420","US","8439499","(541) 888-3261","Branch | ATM","43.391604356335456","-124.27586150429914","Monday9:00 AM - 5:00 PM|Tuesday9:00 AM - 5:00 PM|Wednesday9:00 AM - 5:00 PM|Thursday9:00 AM - 5:00 PM|Friday9:00 AM - 6:00 PM|SaturdayClosed|SundayClosed"
"https://locations.bannerbank.com/","https://locations.bannerbank.com//or/coos-bay/1900-woodland-dr","Banner Bank - ATM North Bend Medical ATM","1900 Woodland Dr","Coos Bay","OR","97420","US","8467911","(800) 272-9933","Branch | ATM","43.380853505594445","-124.23803489814759","Monday7:00 AM - 7:00 PM|Tuesday7:00 AM - 7:00 PM|Wednesday7:00 AM - 7:00 PM|Thursday7:00 AM - 7:00 PM|Friday7:00 AM - 7:00 PM|Saturday8:00 AM - 4:00 PM|SundayClosed"
"https://locations.bannerbank.com/","https://locations.bannerbank.com//or/coos-bay/212-s-5th-st","Banner Bank Coos Bay","212 S 5th St","Coos Bay","OR","97420","US","8439507","(541) 269-4248","Branch | ATM","43.36701324760281","-124.21688139438629","Monday9:00 AM - 5:00 PM|Tuesday9:00 AM - 5:00 PM|Wednesday9:00 AM - 5:00 PM|Thursday9:00 AM - 5:00 PM|Friday9:00 AM - 6:00 PM|SaturdayClosed|SundayClosed"
"https://locations.bannerbank.com/","https://locations.bannerbank.com/or/coquille/259-n-adams-st","Banner Bank Coquille","259 N Adams St","Coquille","OR","97423","US","8439506","(541) 396-3132","Branch | ATM","43.17650480199608","-124.18819404662702","Monday9:00 AM - 5:00 PM|Tuesday9:00 AM - 5:00 PM|Wednesday9:00 AM - 5:00 PM|Thursday9:00 AM - 5:00 PM|Friday9:00 AM - 6:00 PM|SaturdayClosed|SundayClosed"
"https://locations.bannerbank.com/","https://locations.bannerbank.com/or/cottage-grove/25-gateway-blvd","Banner Bank Cottage Grove","25 Gateway Blvd","Cottage Grove","OR","97424","US","8439524","(541) 942-3331","Branch | ATM","43.797496911597776","-123.049036860466","Monday9:00 AM - 5:00 PM|Tuesday9:00 AM - 5:00 PM|Wednesday9:00 AM - 5:00 PM|Thursday9:00 AM - 5:00 PM|Friday9:00 AM - 6:00 PM|SaturdayClosed|SundayClosed"
"https://locations.bannerbank.com/","https://locations.bannerbank.com/or/creswell/265-e-oregon-ave","Banner Bank Creswell","265 E Oregon Ave","Creswell","OR","97426","US","8439526","(541) 895-4511","Branch | ATM","43.91761270665168","-123.01619723439211","Monday9:00 AM - 5:00 PM|Tuesday9:00 AM - 5:00 PM|Wednesday9:00 AM - 5:00 PM|Thursday9:00 AM - 5:00 PM|Friday9:00 AM - 6:00 PM|SaturdayClosed|SundayClosed"
"https://locations.bannerbank.com/","https://locations.bannerbank.com/or/eagle-point/44-w-linn-rd","Banner Bank Eagle Point","44 W Linn Rd","Eagle Point","OR","97524","US","8439501","(541) 826-0580","Branch | ATM","42.472637","-122.81248800000003","Monday9:00 AM - 5:00 PM|Tuesday9:00 AM - 5:00 PM|Wednesday9:00 AM - 5:00 PM|Thursday9:00 AM - 5:00 PM|Friday9:00 AM - 6:00 PM|SaturdayClosed|SundayClosed"
"https://locations.bannerbank.com/","https://locations.bannerbank.com//or/eugene/1175-valley-river-drive","Banner Bank Eugene - Valley River","1175 Valley River Drive","Eugene","OR","97401","US","8439529","(541) 684-9300","Branch | ATM","44.071797640640014","-123.1074654871025","Monday9:00 AM - 5:00 PM|Tuesday9:00 AM - 5:00 PM|Wednesday9:00 AM - 5:00 PM|Thursday9:00 AM - 5:00 PM|Friday9:00 AM - 6:00 PM|SaturdayClosed|SundayClosed"
"https://locations.bannerbank.com/","https://locations.bannerbank.com//or/eugene/169-w-6th-ave","Banner Bank Eugene - Downtown","169 W 6th Ave","Eugene","OR","97401","US","8439464","(541) 284-7900","Branch | ATM","44.05348913215766","-123.09520700000007","Monday9:00 AM - 5:00 PM|Tuesday9:00 AM - 5:00 PM|Wednesday9:00 AM - 5:00 PM|Thursday9:00 AM - 5:00 PM|Friday9:00 AM - 5:00 PM|SaturdayClosed|SundayClosed"
"https://locations.bannerbank.com/","https://locations.bannerbank.com/or/florence/777-hwy-101","Banner Bank Florence","777 Hwy 101","Florence","OR","97439","US","8439497","(541) 997-3486","Branch | ATM","43.973445339729395","-124.10457998514175","Monday9:00 AM - 5:00 PM|Tuesday9:00 AM - 5:00 PM|Wednesday9:00 AM - 5:00 PM|Thursday9:00 AM - 5:00 PM|Friday9:00 AM - 6:00 PM|SaturdayClosed|SundayClosed"
"https://locations.bannerbank.com/","https://locations.bannerbank.com//or/grants-pass/1409-ne-7th-st","Banner Bank Grants Pass - North","1409 NE 7th St","Grants Pass","OR","97526","US","8439522","(541) 956-6450","Branch | ATM","42.453074366146694","-123.32011298106409","Monday9:00 AM - 5:00 PM|Tuesday9:00 AM - 5:00 PM|Wednesday9:00 AM - 5:00 PM|Thursday9:00 AM - 5:00 PM|Friday9:00 AM - 6:00 PM|SaturdayClosed|SundayClosed"
"https://locations.bannerbank.com/","https://locations.bannerbank.com//or/grants-pass/1689-williams-hwy","Banner Bank Grants Pass - South","1689 Williams Hwy","Grants Pass","OR","97527","US","8439523","(541) 955-4589","Branch | ATM","42.41910723602612","-123.33562419571535","Monday9:00 AM - 5:00 PM|Tuesday9:00 AM - 5:00 PM|Wednesday9:00 AM - 5:00 PM|Thursday9:00 AM - 5:00 PM|Friday9:00 AM - 6:00 PM|SaturdayClosed|SundayClosed"
"https://locations.bannerbank.com/","https://locations.bannerbank.com//or/hermiston/100-e-gladys-ave","Banner Commercial Banking Hermiston Commercial Banking","100 E Gladys Ave Suite A","Hermiston","OR","97838","US","8439428","(541) 564-4250","Branch | ATM","45.84069774855264","-119.29000943899155","Monday8:00 AM - 5:00 PM|Tuesday8:00 AM - 5:00 PM|Wednesday8:00 AM - 5:00 PM|Thursday8:00 AM - 5:00 PM|Friday8:00 AM - 5:00 PM|SaturdayClosed|SundayClosed"
"https://locations.bannerbank.com/","https://locations.bannerbank.com//or/hermiston/101-e-main-st","Banner Bank Hermiston","101 E Main St","Hermiston","OR","97838","US","8439532","(541) 567-2291","Branch | ATM","45.840739607427366","-119.28998859091053","Monday9:00 AM - 5:00 PM|Tuesday9:00 AM - 5:00 PM|Wednesday9:00 AM - 5:00 PM|Thursday9:00 AM - 5:00 PM|Friday9:00 AM - 6:00 PM|SaturdayClosed|SundayClosed"
"https://locations.bannerbank.com/","https://locations.bannerbank.com//or/hermiston/610-nw-11th-st","Banner Bank - ATM Hermiston - Good Shepherd Hospital ATM","610 NW 11th St","Hermiston","OR","97838","US","8467908","(800) 272-9933","Branch | ATM","45.846876786879214","-119.30908799171448","MondayOpen 24 hours|TuesdayOpen 24 hours|WednesdayOpen 24 hours|ThursdayOpen 24 hours|FridayOpen 24 hours|SaturdayOpen 24 hours|SundayOpen 24 hours"
"https://locations.bannerbank.com/","https://locations.bannerbank.com//or/hermiston/950-n-1st-st","Banner Bank - ATM Hermiston Drive-Thru Only","950 N 1st St","Hermiston","OR","97838","US","8467910","(541) 564-4227","Branch | ATM","45.84728595811215","-119.28978815674782","|Day of the WeekHours"
"https://locations.bannerbank.com/","https://locations.bannerbank.com//or/hermiston/990-s-hwy-395","Banner Bank - ATM Hermiston - Safeway ATM","990 S Hwy 395","Hermiston","OR","97838","US","8467909","(800) 272-9933","Branch | ATM","45.83266672158858","-119.28654882209008","MondayOpen 24 hours|TuesdayOpen 24 hours|WednesdayOpen 24 hours|ThursdayOpen 24 hours|FridayOpen 24 hours|SaturdayOpen 24 hours|SundayOpen 24 hours"
"https://locations.bannerbank.com/","https://locations.bannerbank.com/or/hillsboro/2072-ne-stucki-ave","Banner Bank Hillsboro - Tanasbourne","2072 NE Stucki Ave","Hillsboro","OR","97124","US","8439576","(503) 533-5933","Branch | ATM","45.535240994971595","-122.8769838809967","Monday9:00 AM - 5:00 PM|Tuesday9:00 AM - 5:00 PM|Wednesday9:00 AM - 5:00 PM|Thursday9:00 AM - 5:00 PM|Friday9:00 AM - 6:00 PM|SaturdayClosed|SundayClosed"
"https://locations.bannerbank.com/","https://locations.bannerbank.com/or/la-grande/2720-island-ave","Banner Bank La Grande","2720 Island Ave","La Grande","OR","97850","US","8439521","(541) 963-0252","Branch | ATM","45.33354174089089","-118.06723204662705","Monday9:00 AM - 5:00 PM|Tuesday9:00 AM - 5:00 PM|Wednesday9:00 AM - 5:00 PM|Thursday9:00 AM - 5:00 PM|Friday9:00 AM - 6:00 PM|SaturdayClosed|SundayClosed"
"https://locations.bannerbank.com/","https://locations.bannerbank.com//or/lake-oswego/16099-boones-ferry-rd","Banner Bank Lake Oswego - Lake Grove","16099 Boones Ferry Rd","Lake Oswego","OR","97035","US","8439575","(503) 534-1000","Branch | ATM","45.40950052777553","-122.72177651524544","Monday9:00 AM - 5:00 PM|Tuesday9:00 AM - 5:00 PM|Wednesday9:00 AM - 5:00 PM|Thursday9:00 AM - 5:00 PM|Friday9:00 AM - 6:00 PM|SaturdayClosed|SundayClosed"
"https://locations.bannerbank.com/","https://locations.bannerbank.com//or/lake-oswego/412-a-ave-8439431","Banner Bank Mortgage Lending Lake Oswego - Portland Home Loans","412 A Ave Suite 120","Lake Oswego","OR","97034","US","8439431","(503) 636-4800","Branch","45.41958633149318","-122.66837843139001","Monday8:00 AM - 5:00 PM|Tuesday8:00 AM - 5:00 PM|Wednesday8:00 AM - 5:00 PM|Thursday8:00 AM - 5:00 PM|Friday8:00 AM - 5:00 PM|SaturdayClosed|SundayClosed"
"https://locations.bannerbank.com/","https://locations.bannerbank.com//or/lake-oswego/412-a-ave-8439574","Banner Bank Lake Oswego - Downtown","412 A Ave Suite 100","Lake Oswego","OR","97034","US","8439574","(503) 534-5301","Branch | ATM","45.419568055709654","-122.66823694109917","Monday9:00 AM - 5:00 PM|Tuesday9:00 AM - 5:00 PM|Wednesday9:00 AM - 5:00 PM|Thursday9:00 AM - 5:00 PM|Friday9:00 AM - 6:00 PM|SaturdayClosed|SundayClosed"
"https://locations.bannerbank.com/","https://locations.bannerbank.com//or/lake-oswego/412-a-ave-8570928","Banner Commercial Banking Commercial Banking","412 A Ave Suite 300","Lake Oswego","OR","97034","US","8570928","(503) 684-2300","Branch","45.41955675969518","-122.66836568713188","Monday8:00 AM - 5:00 PM|Tuesday8:00 AM - 5:00 PM|Wednesday8:00 AM - 5:00 PM|Thursday8:00 AM - 5:00 PM|Friday8:00 AM - 5:00 PM|SaturdayClosed|SundayClosed"
"https://locations.bannerbank.com/","https://locations.bannerbank.com/or/mapleton/10756-hwy-126","Banner Bank Mapleton","10756 Hwy 126","Mapleton","OR","97453","US","8439439","(541) 268-4462","Branch | ATM","44.0267792172645","-123.85705098509789","Monday9:30 AM - 12:30 PM|Tuesday9:30 AM - 12:30 PM|Wednesday9:30 AM - 12:30 PM|Thursday9:30 AM - 12:30 PM|Friday9:30 AM - 12:30 PM|SaturdayClosed|SundayClosed"
"https://locations.bannerbank.com/","https://locations.bannerbank.com//or/medford/1455-e-mcandrews-rd","Banner Bank Medford - McAndrews","1455 E McAndrews Rd","Medford","OR","97504","US","8439528","(541) 776-7480","Branch | ATM","42.34153804183268","-122.86655679345131","Monday9:00 AM - 5:00 PM|Tuesday9:00 AM - 5:00 PM|Wednesday9:00 AM - 5:00 PM|Thursday9:00 AM - 5:00 PM|Friday9:00 AM - 6:00 PM|SaturdayClosed|SundayClosed"
"https://locations.bannerbank.com/","https://locations.bannerbank.com//or/medford/2600-e-barnett-rd","Banner Bank Medford - Black Oak","2600 E Barnett Rd","Medford","OR","97504","US","8439527","(541) 857-2676","Branch | ATM","42.31625265231228","-122.83531978726387","Monday9:00 AM - 5:00 PM|Tuesday9:00 AM - 5:00 PM|Wednesday9:00 AM - 5:00 PM|Thursday9:00 AM - 5:00 PM|Friday9:00 AM - 6:00 PM|SaturdayClosed|SundayClosed"
"https://locations.bannerbank.com/","https://locations.bannerbank.com//or/medford/3369-crater-lake-hwy","Banner Bank Medford - Crater Lake Plaza","3369 Crater Lake Hwy","Medford","OR","97504","US","8439531","(541) 618-8247","Branch | ATM","42.36308930039892","-122.85690353081918","Monday9:00 AM - 5:00 PM|Tuesday9:00 AM - 5:00 PM|Wednesday9:00 AM - 5:00 PM|Thursday9:00 AM - 5:00 PM|Friday9:00 AM - 6:00 PM|SaturdayClosed|SundayClosed"
"https://locations.bannerbank.com/","https://locations.bannerbank.com/or/north-bend/1611-virginia-ave","Banner Bank North Bend","1611 Virginia Ave","North Bend","OR","97459","US","8439503","(541) 756-3171","Branch | ATM","43.404748897344895","-124.23414081349176","Monday9:00 AM - 5:00 PM|Tuesday9:00 AM - 5:00 PM|Wednesday9:00 AM - 5:00 PM|Thursday9:00 AM - 5:00 PM|Friday9:00 AM - 6:00 PM|SaturdayClosed|SundayClosed"
"https://locations.bannerbank.com/","https://locations.bannerbank.com//or/oakridge/47720-highway-58","Banner Bank - ATM Oakridge - Dairy Queen ATM","47720 Highway 58","Oakridge","OR","97463","US","8467912","(800) 272-9933","Branch | ATM","43.745795","-122.479647","MondayOpen 24 hours|TuesdayOpen 24 hours|WednesdayOpen 24 hours|ThursdayOpen 24 hours|FridayOpen 24 hours|SaturdayOpen 24 hours|SundayOpen 24 hours"
"https://locations.bannerbank.com/","https://locations.bannerbank.com//or/oakridge/48257-e-first-st","Banner Bank Oakridge","48257 E First St","Oakridge","OR","97463","US","8439502","(541) 782-4261","Branch | ATM","43.748005038156016","-122.45939880609512","Monday9:00 AM - 5:00 PM|Tuesday9:00 AM - 5:00 PM|Wednesday9:00 AM - 5:00 PM|Thursday9:00 AM - 5:00 PM|Friday9:00 AM - 6:00 PM|SaturdayClosed|SundayClosed"
"https://locations.bannerbank.com/","https://locations.bannerbank.com//or/pendleton/1220-southgate","Banner Bank Pendleton - Southgate","1220 Southgate","Pendleton","OR","97801","US","8439520","(541) 966-9694","Branch | ATM","45.65392567924573","-118.81070673465729","Monday9:00 AM - 5:00 PM|Tuesday9:00 AM - 5:00 PM|Wednesday9:00 AM - 5:00 PM|Thursday9:00 AM - 5:00 PM|Friday9:00 AM - 6:00 PM|SaturdayClosed|SundayClosed"
"https://locations.bannerbank.com/","https://locations.bannerbank.com//or/pendleton/125-se-court-ave","Banner Bank Pendleton","125 SE Court Ave","Pendleton","OR","97801","US","8439540","(541) 276-4111","Branch | ATM","45.673366257458106","-118.78603041172028","Monday9:00 AM - 5:00 PM|Tuesday9:00 AM - 5:00 PM|Wednesday9:00 AM - 5:00 PM|Thursday9:00 AM - 5:00 PM|Friday9:00 AM - 6:00 PM|SaturdayClosed|SundayClosed"
"https://locations.bannerbank.com/","https://locations.bannerbank.com/or/pleasant-hill/35867-hwy-58","Banner Bank Pleasant Hill","35867 Hwy 58","Pleasant Hill","OR","97455","US","8439505","(541) 726-7211","Branch | ATM","43.96956823971414","-122.93724775314331","Monday9:00 AM - 5:00 PM|Tuesday9:00 AM - 5:00 PM|Wednesday9:00 AM - 5:00 PM|Thursday9:00 AM - 5:00 PM|Friday9:00 AM - 6:00 PM|SaturdayClosed|SundayClosed"
"https://locations.bannerbank.com/","https://locations.bannerbank.com/or/portland/101-sw-main-st","Banner Bank Portland - Downtown","101 SW Main St Suite 154","Portland","OR","97204","US","8439511","(971) 255-5655","Branch | ATM","45.515574341217864","-122.67505847298253","Monday9:00 AM - 5:00 PM|Tuesday9:00 AM - 5:00 PM|Wednesday9:00 AM - 5:00 PM|Thursday9:00 AM - 5:00 PM|Friday9:00 AM - 6:00 PM|SaturdayClosed|SundayClosed"
"https://locations.bannerbank.com/","https://locations.bannerbank.com/or/riddle/315-n-main-st","Banner Bank Riddle","315 N Main St","Riddle","OR","97469","US","8439500","(541) 874-2224","Branch | ATM","42.950835462110845","-123.36581245064735","Monday9:00 AM - 5:00 PM|Tuesday9:00 AM - 5:00 PM|Wednesday9:00 AM - 5:00 PM|Thursday9:00 AM - 5:00 PM|Friday9:00 AM - 6:00 PM|SaturdayClosed|SundayClosed"
"https://locations.bannerbank.com/","https://locations.bannerbank.com//or/roseburg/350-ne-garden-valley-blvd","Banner Bank Roseburg - Garden Valley","350 NE Garden Valley Blvd","Roseburg","OR","97470","US","8439538","(541) 440-2651","Branch | ATM","43.227231000383455","-123.3515015244484","Monday9:00 AM - 5:00 PM|Tuesday9:00 AM - 5:00 PM|Wednesday9:00 AM - 5:00 PM|Thursday9:00 AM - 5:00 PM|Friday9:00 AM - 6:00 PM|SaturdayClosed|SundayClosed"
"https://locations.bannerbank.com/","https://locations.bannerbank.com//or/roseburg/555-se-kane-st","Banner Bank Roseburg - Kane Street","555 SE Kane St","Roseburg","OR","97470","US","8439463","(541) 440-2600","Branch | ATM","43.20832813621004","-123.34220365451074","Monday9:00 AM - 5:00 PM|Tuesday9:00 AM - 5:00 PM|Wednesday9:00 AM - 5:00 PM|Thursday9:00 AM - 5:00 PM|Friday9:00 AM - 5:00 PM|SaturdayClosed|SundayClosed"
"https://locations.bannerbank.com/","https://locations.bannerbank.com/or/springfield/707-main-st","Banner Bank Springfield","707 Main St","Springfield","OR","97477","US","8439504","(541) 746-7900","Branch | ATM","44.04601336837095","-123.0166532099247","Monday9:00 AM - 5:00 PM|Tuesday9:00 AM - 5:00 PM|Wednesday9:00 AM - 5:00 PM|Thursday9:00 AM - 5:00 PM|Friday9:00 AM - 6:00 PM|SaturdayClosed|SundayClosed"
"https://locations.bannerbank.com/","https://locations.bannerbank.com/or/stanfield/100-s-main-st","Banner Bank Stanfield","100 S Main St","Stanfield","OR","97875","US","8439536","(541) 449-3827","Branch | ATM","45.780229293943776","-119.21713395337292","Monday9:00 AM - 5:00 PM|Tuesday9:00 AM - 5:00 PM|Wednesday9:00 AM - 5:00 PM|Thursday9:00 AM - 5:00 PM|Friday9:00 AM - 6:00 PM|SaturdayClosed|SundayClosed"
"https://locations.bannerbank.com/","https://locations.bannerbank.com/or/sutherlin/731-w-central-ave","Banner Bank Sutherlin","731 W Central Ave","Sutherlin","OR","97479","US","8439462","(541) 459-2246","Branch | ATM","43.388664813959295","-123.32384526729584","Monday9:00 AM - 5:00 PM|Tuesday9:00 AM - 5:00 PM|Wednesday9:00 AM - 5:00 PM|Thursday9:00 AM - 5:00 PM|Friday9:00 AM - 5:00 PM|SaturdayClosed|SundayClosed"
"https://locations.bannerbank.com/","https://locations.bannerbank.com/or/tualatin/7675-sw-nyberg-st","Banner Bank Tualatin","7675 SW Nyberg St","Tualatin","OR","97062","US","8439571","(503) 783-0600","Branch | ATM","45.38307202780689","-122.75541812181473","Monday9:00 AM - 5:00 PM|Tuesday9:00 AM - 5:00 PM|Wednesday9:00 AM - 5:00 PM|Thursday9:00 AM - 5:00 PM|Friday9:00 AM - 6:00 PM|SaturdayClosed|SundayClosed"
"https://locations.bannerbank.com/","https://locations.bannerbank.com/or/umatilla/634-6th-st","Banner Bank Umatilla","634 6th St","Umatilla","OR","97882","US","8439525","(541) 922-5522","Branch | ATM","45.91687300463641","-119.3449021951983","Monday9:00 AM - 5:00 PM|Tuesday9:00 AM - 5:00 PM|Wednesday9:00 AM - 5:00 PM|Thursday9:00 AM - 5:00 PM|Friday9:00 AM - 6:00 PM|SaturdayClosed|SundayClosed"
"https://locations.bannerbank.com/","https://locations.bannerbank.com/or/veneta/88312-territorial-rd","Banner Bank Veneta","88312 Territorial Rd","Veneta","OR","97487","US","8439498","(541) 935-4141","Branch | ATM","44.054665253753996","-123.35297271609306","Monday9:00 AM - 5:00 PM|Tuesday9:00 AM - 5:00 PM|Wednesday9:00 AM - 5:00 PM|Thursday9:00 AM - 5:00 PM|Friday9:00 AM - 6:00 PM|SaturdayClosed|SundayClosed"
"https://locations.bannerbank.com/","https://locations.bannerbank.com/or/winston/40-nw-glenhart-ave","Banner Bank Winston","40 NW Glenhart Ave","Winston","OR","97496","US","8439537","(541) 440-2655","Branch | ATM","43.12143707605863","-123.41707617044449","Monday9:00 AM - 5:00 PM|Tuesday9:00 AM - 5:00 PM|Wednesday9:00 AM - 5:00 PM|Thursday9:00 AM - 5:00 PM|Friday9:00 AM - 6:00 PM|SaturdayClosed|SundayClosed"
"https://locations.bannerbank.com/","https://locations.bannerbank.com/wa/anacortes/1400-commercial-avenue","Banner Bank Anacortes","1400 Commercial Avenue","Anacortes","WA","98221","US","11945700","(360) 293-2151","Branch | ATM","48.510803","-122.613227","Monday9:00 AM - 5:00 PM|Tuesday9:00 AM - 5:00 PM|Wednesday9:00 AM - 5:00 PM|Thursday9:00 AM - 5:00 PM|Friday9:00 AM - 6:00 PM|Saturday9:00 AM - 1:00 PM|SundayClosed"
"https://locations.bannerbank.com/","https://locations.bannerbank.com/wa/arlington/20313-77th-avenue-ne","Banner Bank Arlington","20313 77th Avenue NE","Arlington","WA","98223","US","11945704","(360) 403-7300","Branch | ATM","48.180499","-122.12603","Monday9:00 AM - 5:00 PM|Tuesday9:00 AM - 5:00 PM|Wednesday9:00 AM - 5:00 PM|Thursday9:00 AM - 5:00 PM|Friday9:00 AM - 6:00 PM|SaturdayClosed|SundayClosed"
"https://locations.bannerbank.com/","https://locations.bannerbank.com//wa/bellevue/13033-bel-red-rd-ne","Banner Bank Bellevue - Bel-Red","13033 Bel-Red Rd NE","Bellevue","WA","98005","US","8439581","(425) 451-2125","Branch | ATM","47.62128637212389","-122.1665096282959","Monday9:00 AM - 5:00 PM|Tuesday9:00 AM - 5:00 PM|Wednesday9:00 AM - 5:00 PM|Thursday9:00 AM - 5:00 PM|Friday9:00 AM - 6:00 PM|SaturdayClosed|SundayClosed"
"https://locations.bannerbank.com/","https://locations.bannerbank.com//wa/bellevue/3001-112th-ave-ne","Banner Commercial Banking Bellevue Commercial Banking","3001 112th Ave NE Suite 100","Bellevue","WA","98004","US","8439433","(425) 576-4309","Branch","47.636078","-122.19451","Monday8:00 AM - 5:00 PM|Tuesday8:00 AM - 5:00 PM|Wednesday8:00 AM - 5:00 PM|Thursday8:00 AM - 5:00 PM|Friday8:00 AM - 5:00 PM|SaturdayClosed|SundayClosed"
"https://locations.bannerbank.com/","https://locations.bannerbank.com//wa/bellevue/3005-112th-ave-ne","Banner Bank Mortgage Lending Bellevue Home Loans","3005 112th Ave NE Suite 100","Bellevue","WA","98004","US","8439432","(425) 828-8823","Branch","47.63701621123602","-122.19527095556253","Monday8:00 AM - 5:00 PM|Tuesday8:00 AM - 5:00 PM|Wednesday8:00 AM - 5:00 PM|Thursday8:00 AM - 5:00 PM|Friday8:00 AM - 5:00 PM|SaturdayClosed|SundayClosed"
"https://locations.bannerbank.com/","https://locations.bannerbank.com//wa/bellevue/400-112th-ave-ne","Banner Bank Bellevue - Downtown","400 112th Ave. NE Suite 100","Bellevue","WA","98004","US","8439578","(425) 637-4648","Branch | ATM","47.614174576915914","-122.19004601240158","Monday9:00 AM - 5:00 PM|Tuesday9:00 AM - 5:00 PM|Wednesday9:00 AM - 5:00 PM|Thursday9:00 AM - 5:00 PM|Friday9:00 AM - 6:00 PM|SaturdayClosed|SundayClosed"
"https://locations.bannerbank.com/","https://locations.bannerbank.com//wa/bellingham/1250-barkley-blvd","Banner Bank Bellingham - Barkley Boulevard","1250 Barkley Blvd","Bellingham","WA","98226","US","8439477","(360) 752-8288","Branch | ATM","48.77079621294339","-122.4587094783783","Monday9:00 AM - 5:00 PM|Tuesday9:00 AM - 5:00 PM|Wednesday9:00 AM - 5:00 PM|Thursday9:00 AM - 5:00 PM|Friday9:00 AM - 5:00 PM|SaturdayClosed|SundayClosed"
"https://locations.bannerbank.com/","https://locations.bannerbank.com//wa/bellingham/1600-cornwall-ave","Banner Bank Bellingham - Downtown","1600 Cornwall Ave","Bellingham","WA","98225","US","8439478","(360) 738-8090","Branch | ATM","48.752727084336804","-122.47412701471518","Monday9:00 AM - 5:00 PM|Tuesday9:00 AM - 5:00 PM|Wednesday9:00 AM - 5:00 PM|Thursday9:00 AM - 5:00 PM|Friday9:00 AM - 5:00 PM|SaturdayClosed|SundayClosed"
"https://locations.bannerbank.com/","https://locations.bannerbank.com/wa/blaine/435-martin-st","Banner Bank Blaine","435 Martin St Suite 1000","Blaine","WA","98230","US","8439480","(360) 332-7700","Branch | ATM","48.99294471307867","-122.74704024195671","Monday9:00 AM - 5:00 PM|Tuesday9:00 AM - 5:00 PM|Wednesday9:00 AM - 5:00 PM|Thursday9:00 AM - 5:00 PM|Friday9:00 AM - 5:00 PM|SaturdayClosed|SundayClosed"
"https://locations.bannerbank.com/","https://locations.bannerbank.com/wa/bothell/18203-bothell-way-ne","Banner Bank Bothell","18203 Bothell Way NE","Bothell","WA","98011","US","8439582","(425) 398-0559","Branch | ATM","47.7604474","-122.20845","Monday9:00 AM - 5:00 PM|Tuesday9:00 AM - 5:00 PM|Wednesday9:00 AM - 5:00 PM|Thursday9:00 AM - 5:00 PM|Friday9:00 AM - 6:00 PM|SaturdayClosed|SundayClosed"
"https://locations.bannerbank.com/","https://locations.bannerbank.com/wa/burlington/301-e-fairhaven-avenue","Banner Bank Burlington","301 E Fairhaven Avenue","Burlington","WA","98233","US","11945706","(360) 757-9080","Branch | ATM","48.47577","-122.33169","Monday9:00 AM - 5:00 PM|Tuesday9:00 AM - 5:00 PM|Wednesday9:00 AM - 5:00 PM|Thursday9:00 AM - 5:00 PM|Friday9:00 AM - 6:00 PM|Saturday9:00 AM - 1:00 PM|SundayClosed"
"https://locations.bannerbank.com/","https://locations.bannerbank.com/wa/cheney/5-cheney-spokane-rd","Banner Bank Cheney","5 Cheney-Spokane Rd","Cheney","WA","99004","US","8439556","(509) 892-4400","Branch | ATM","47.49846302305673","-117.56416618824005","Monday9:00 AM - 5:00 PM|Tuesday9:00 AM - 5:00 PM|Wednesday9:00 AM - 5:00 PM|Thursday9:00 AM - 5:00 PM|Friday9:00 AM - 6:00 PM|SaturdayClosed|SundayClosed"
"https://locations.bannerbank.com/","https://locations.bannerbank.com/wa/chewelah/s-106-2nd-st-east","Banner Bank Chewelah","S 106 2nd St East","Chewelah","WA","99109","US","8439444","(509) 935-6789","Branch | ATM","48.27554844749922","-117.71390721963144","Monday9:00 AM - 5:00 PM|Tuesday9:00 AM - 5:00 PM|Wednesday9:00 AM - 5:00 PM|Thursday9:00 AM - 5:00 PM|Friday9:00 AM - 5:00 PM|SaturdayClosed|SundayClosed"
"https://locations.bannerbank.com/","https://locations.bannerbank.com/wa/clarkston/749-6th-st","Banner Bank Clarkston","749 6th St","Clarkston","WA","99403","US","8439559","(509) 758-3388","Branch | ATM","46.41492873535188","-117.04526603974949","Monday9:00 AM - 5:00 PM|Tuesday9:00 AM - 5:00 PM|Wednesday9:00 AM - 5:00 PM|Thursday9:00 AM - 5:00 PM|Friday9:00 AM - 6:00 PM|SaturdayClosed|SundayClosed"
"https://locations.bannerbank.com/","https://locations.bannerbank.com/wa/college-place/1125-ne-c-st","Banner Bank College Place","1125 NE C St","College Place","WA","99324","US","8439565","(509) 527-3646","Branch | ATM","46.0530433641581","-118.37200328707695","Monday9:00 AM - 5:00 PM|Tuesday9:00 AM - 5:00 PM|Wednesday9:00 AM - 5:00 PM|Thursday9:00 AM - 5:00 PM|Friday9:00 AM - 6:00 PM|SaturdayClosed|SundayClosed"
"https://locations.bannerbank.com/","https://locations.bannerbank.com/wa/colville/621-s-main-st","Banner Bank Colville","621 S Main St","Colville","WA","99114","US","8439472","(509) 684-5017","Branch | ATM","48.53872835476168","-117.90498375892639","Monday9:00 AM - 5:00 PM|Tuesday9:00 AM - 5:00 PM|Wednesday9:00 AM - 5:00 PM|Thursday9:00 AM - 5:00 PM|Friday9:00 AM - 5:00 PM|SaturdayClosed|SundayClosed"
"https://locations.bannerbank.com/","https://locations.bannerbank.com/wa/dayton/126-e-main-st","Banner Bank Dayton","126 E Main St","Dayton","WA","99328","US","8439567","(509) 382-4714","Branch | ATM","46.31888682775253","-117.98179820179939","Monday9:00 AM - 5:00 PM|Tuesday9:00 AM - 5:00 PM|Wednesday9:00 AM - 5:00 PM|Thursday9:00 AM - 5:00 PM|Friday9:00 AM - 6:00 PM|SaturdayClosed|SundayClosed"
"https://locations.bannerbank.com/","https://locations.bannerbank.com/wa/east-wenatchee/255-rock-island-rd","Banner Bank East Wenatchee","255 Rock Island Rd","East Wenatchee","WA","98802","US","8439557","(509) 884-1390","Branch | ATM","47.40062664113421","-120.2856199519465","Monday9:00 AM - 5:00 PM|Tuesday9:00 AM - 5:00 PM|Wednesday9:00 AM - 5:00 PM|Thursday9:00 AM - 5:00 PM|Friday9:00 AM - 6:00 PM|SaturdayClosed|SundayClosed"
"https://locations.bannerbank.com/","https://locations.bannerbank.com/wa/edmonds/7009-212th-st-sw","Banner Bank Edmonds","7009 212th St SW","Edmonds","WA","98026","US","8439586","(425) 248-4540","Branch | ATM","47.80716235103963","-122.32805773615837","Monday9:00 AM - 5:00 PM|Tuesday9:00 AM - 5:00 PM|Wednesday9:00 AM - 5:00 PM|Thursday9:00 AM - 5:00 PM|Friday9:00 AM - 6:00 PM|SaturdayClosed|SundayClosed"
"https://locations.bannerbank.com/","https://locations.bannerbank.com/wa/ephrata/447-basin-st-sw","Banner Bank Ephrata","447 Basin St SW","Ephrata","WA","98823","US","8439447","(509) 754-5650","Branch | ATM","47.315963778867435","-119.55546766519547","Monday9:00 AM - 5:00 PM|Tuesday9:00 AM - 5:00 PM|Wednesday9:00 AM - 5:00 PM|Thursday9:00 AM - 5:00 PM|Friday9:00 AM - 5:00 PM|SaturdayClosed|SundayClosed"
"https://locations.bannerbank.com/","https://locations.bannerbank.com//wa/everett/2531-colby-ave","Banner Bank Everett - Colby","2531 Colby Ave","Everett","WA","98201","US","8439585","(425) 252-2781","Branch | ATM","47.983466088654254","-122.20814019441605","Monday9:00 AM - 5:00 PM|Tuesday9:00 AM - 5:00 PM|Wednesday9:00 AM - 5:00 PM|Thursday9:00 AM - 5:00 PM|Friday9:00 AM - 6:00 PM|SaturdayClosed|SundayClosed"
"https://locations.bannerbank.com/","https://locations.bannerbank.com//wa/everett/8519-evergreen-way","Banner Bank Everett - Evergreen Way","8519 Evergreen Way","Everett","WA","98208","US","8439589","(425) 212-4700","Branch | ATM","47.920226630277845","-122.22893536090851","Monday9:00 AM - 5:00 PM|Tuesday9:00 AM - 5:00 PM|Wednesday9:00 AM - 5:00 PM|Thursday9:00 AM - 5:00 PM|Friday9:00 AM - 6:00 PM|SaturdayClosed|SundayClosed"
"https://locations.bannerbank.com/","https://locations.bannerbank.com/wa/federal-way/34600-pacific-hwy-s","Banner Bank Federal Way","34600 Pacific Hwy S","Federal Way","WA","98003","US","8439592","(253) 661-3404","Branch | ATM","47.2915486243939","-122.31635928153992","Monday9:00 AM - 5:00 PM|Tuesday9:00 AM - 5:00 PM|Wednesday9:00 AM - 5:00 PM|Thursday9:00 AM - 5:00 PM|Friday9:00 AM - 6:00 PM|SaturdayClosed|SundayClosed"
"https://locations.bannerbank.com/","https://locations.bannerbank.com/wa/ferndale/1815-main-st","Banner Bank Ferndale (Inside Haggen)","1815 Main St","Ferndale","WA","98248","US","8439423","(360) 384-3300","Branch | ATM","48.843092","-122.58036506745907","Monday9:00 AM - 6:00 PM|Tuesday9:00 AM - 6:00 PM|Wednesday9:00 AM - 6:00 PM|Thursday9:00 AM - 6:00 PM|Friday9:00 AM - 6:00 PM|Saturday9:00 AM - 2:00 PM|SundayClosed"
"https://locations.bannerbank.com/","https://locations.bannerbank.com/wa/issaquah/1375-nw-mall-st","Banner Bank Issaquah","1375 NW Mall St Suite 1","Issaquah","WA","98027","US","8439451","(425) 395-1199","Branch","47.54411614873469","-122.05937048710251","Monday9:00 AM - 5:00 PM|Tuesday9:00 AM - 5:00 PM|Wednesday9:00 AM - 5:00 PM|Thursday9:00 AM - 5:00 PM|Friday9:00 AM - 5:00 PM|SaturdayClosed|SundayClosed"
"https://locations.bannerbank.com/","https://locations.bannerbank.com//wa/kennewick/203-w-1st-ave","Banner Bank Kennewick","203 W 1st Ave","Kennewick","WA","99336","US","8439562","(509) 586-4141","Branch | ATM","46.207432856278594","-119.12035837769508","Monday9:00 AM - 5:00 PM|Tuesday9:00 AM - 5:00 PM|Wednesday9:00 AM - 5:00 PM|Thursday9:00 AM - 5:00 PM|Friday9:00 AM - 6:00 PM|SaturdayClosed|SundayClosed"
"https://locations.bannerbank.com/","https://locations.bannerbank.com//wa/kennewick/5920-w-clearwater-ave","Banner Bank Kennewick - Clearwater","5920 W Clearwater Ave","Kennewick","WA","99336","US","8439448","(509) 735-4663","Branch | ATM","46.21289915659506","-119.2006328701973","Monday9:00 AM - 5:00 PM|Tuesday9:00 AM - 5:00 PM|Wednesday9:00 AM - 5:00 PM|Thursday9:00 AM - 5:00 PM|Friday9:00 AM - 5:00 PM|SaturdayClosed|SundayClosed"
"https://locations.bannerbank.com/","https://locations.bannerbank.com//wa/kennewick/8200-w-gage-blvd","Banner Bank Kennewick - Columbia Center","8200 W Gage Blvd","Kennewick","WA","99336","US","8439558","(509) 783-3200","Branch | ATM","46.22754226215249","-119.23171162605286","Monday9:00 AM - 5:00 PM|Tuesday9:00 AM - 5:00 PM|Wednesday9:00 AM - 5:00 PM|Thursday9:00 AM - 5:00 PM|Friday9:00 AM - 6:00 PM|SaturdayClosed|SundayClosed"
"https://locations.bannerbank.com/","https://locations.bannerbank.com/wa/kent/1140-w-meeker-st","Banner Bank Kent","1140 W Meeker St","Kent","WA","98032","US","8439593","(253) 478-5200","Branch | ATM","47.38096578907244","-122.24682837724686","Monday9:00 AM - 5:00 PM|Tuesday9:00 AM - 5:00 PM|Wednesday9:00 AM - 5:00 PM|Thursday9:00 AM - 5:00 PM|Friday9:00 AM - 6:00 PM|SaturdayClosed|SundayClosed"
"https://locations.bannerbank.com/","https://locations.bannerbank.com/wa/kettle-falls/365-w-third-ave","Banner Bank Kettle Falls","365 W Third Ave","Kettle Falls","WA","99141","US","8439471","(509) 738-2393","Branch | ATM","48.61024231288133","-118.06097030639648","Monday9:00 AM - 5:00 PM|Tuesday9:00 AM - 5:00 PM|Wednesday9:00 AM - 5:00 PM|Thursday9:00 AM - 5:00 PM|Friday9:00 AM - 5:00 PM|SaturdayClosed|SundayClosed"
"https://locations.bannerbank.com/","https://locations.bannerbank.com/wa/kirkland/201-park-lane","Banner Bank Kirkland","201 Park Lane","Kirkland","WA","98033","US","8439579","(425) 576-1514","Branch | ATM","47.676362","-122.204927","Monday9:00 AM - 5:00 PM|Tuesday9:00 AM - 5:00 PM|Wednesday9:00 AM - 5:00 PM|Thursday9:00 AM - 5:00 PM|Friday9:00 AM - 6:00 PM|SaturdayClosed|SundayClosed"
"https://locations.bannerbank.com/","https://locations.bannerbank.com/wa/liberty-lake/1221-n-liberty-lake-rd","Banner Bank Liberty Lake","1221 N Liberty Lake Rd","Liberty Lake","WA","99019","US","8439555","(509) 892-4420","Branch | ATM","47.66831613025852","-117.10583166041033","Monday9:00 AM - 5:00 PM|Tuesday9:00 AM - 5:00 PM|Wednesday9:00 AM - 5:00 PM|Thursday9:00 AM - 5:00 PM|Friday9:00 AM - 6:00 PM|SaturdayClosed|SundayClosed"
"https://locations.bannerbank.com/","https://locations.bannerbank.com/wa/lynden/138-birch-bay-lynden-road","Banner Bank Lynden","138 Birch Bay-Lynden Road","Lynden","WA","98264","US","11945705","(360) 354-8100","Branch | ATM","48.93562","-122.48754","Monday9:00 AM - 5:00 PM|Tuesday9:00 AM - 5:00 PM|Wednesday9:00 AM - 5:00 PM|Thursday9:00 AM - 5:00 PM|Friday9:00 AM - 5:00 PM|SaturdayClosed|SundayClosed"
"https://locations.bannerbank.com/","https://locations.bannerbank.com/wa/lynnwood/18415-33rd-ave-west","Banner Bank Lynnwood - Alderwood","18415 33rd Ave West Suite Q","Lynnwood","WA","98037","US","8439587","(425) 248-2215","Branch | ATM","47.831621135373005","-122.27724462747574","Monday9:00 AM - 5:00 PM|Tuesday9:00 AM - 5:00 PM|Wednesday9:00 AM - 5:00 PM|Thursday9:00 AM - 5:00 PM|Friday9:00 AM - 6:00 PM|SaturdayClosed|SundayClosed"
"https://locations.bannerbank.com/","https://locations.bannerbank.com/wa/mabton/408-b-st","Banner Bank Mabton","408 B St","Mabton","WA","98935","US","8439425","(509) 894-4670","Branch","46.21341420438536","-119.99686002731323","Monday12:30 PM - 4:00 PM|Tuesday12:30 PM - 4:00 PM|Wednesday12:30 PM - 4:00 PM|Thursday12:30 PM - 4:00 PM|Friday12:30 PM - 4:00 PM|SaturdayClosed|SundayClosed"
"https://locations.bannerbank.com/","https://locations.bannerbank.com/wa/mercer-island/2918-78th-ave-se","Banner Bank Mercer Island","2918 78th Ave SE","Mercer Island","WA","98040","US","8439603","(206) 232-2804","Branch | ATM","47.58393481060612","-122.23334491252899","Monday9:00 AM - 5:00 PM|Tuesday9:00 AM - 5:00 PM|Wednesday9:00 AM - 5:00 PM|Thursday9:00 AM - 5:00 PM|Friday9:00 AM - 6:00 PM|SaturdayClosed|SundayClosed"
"https://locations.bannerbank.com/","https://locations.bannerbank.com/wa/mill-creek/15129-main-st","Banner Bank Mill Creek","15129 Main St","Mill Creek","WA","98012","US","8439588","(425) 212-4721","Branch | ATM","47.86028197081526","-122.22018465399742","Monday9:00 AM - 5:00 PM|Tuesday9:00 AM - 5:00 PM|Wednesday9:00 AM - 5:00 PM|Thursday9:00 AM - 5:00 PM|Friday9:00 AM - 6:00 PM|SaturdayClosed|SundayClosed"
"https://locations.bannerbank.com/","https://locations.bannerbank.com/wa/moses-lake/322-s-division-st","Banner Bank Moses Lake","322 S Division St","Moses Lake","WA","98837","US","8439470","(509) 766-5929","Branch | ATM","47.12938871273507","-119.27763640880585","Monday9:00 AM - 5:00 PM|Tuesday9:00 AM - 5:00 PM|Wednesday9:00 AM - 5:00 PM|Thursday9:00 AM - 5:00 PM|Friday9:00 AM - 5:00 PM|SaturdayClosed|SundayClosed"
"https://locations.bannerbank.com/","https://locations.bannerbank.com//wa/mount-vernon/1301-memorial-highway","Banner Bank Mount Vernon - Westside","1301 Memorial Highway","Mount Vernon","WA","98273","US","11945701","(360) 424-1011","Branch | ATM","48.423181","-122.352251","Monday9:00 AM - 5:00 PM|Tuesday9:00 AM - 5:00 PM|Wednesday9:00 AM - 5:00 PM|Thursday9:00 AM - 5:00 PM|Friday9:00 AM - 6:00 PM|SaturdayClosed|SundayClosed"
"https://locations.bannerbank.com/","https://locations.bannerbank.com//wa/mount-vernon/1620-continental-place","Banner Bank Mount Vernon - College Way","1620 Continental Place","Mount Vernon","WA","98273","US","11945703","(360) 848-1100","Branch | ATM","48.435397197994696","-122.32519914329396","Monday9:00 AM - 5:00 PM|Tuesday9:00 AM - 5:00 PM|Wednesday9:00 AM - 5:00 PM|Thursday9:00 AM - 5:00 PM|Friday9:00 AM - 6:00 PM|Saturday9:00 AM - 1:00 PM|SundayClosed"
"https://locations.bannerbank.com/","https://locations.bannerbank.com//wa/mount-vernon/901-s-cleveland-avenue","Banner Bank Mount Vernon - Downtown","901 S Cleveland Avenue","Mount Vernon","WA","98273","US","11945699","(360) 336-5795","Branch | ATM","48.41638862838535","-122.33911756864575","Monday9:00 AM - 5:00 PM|Tuesday9:00 AM - 5:00 PM|Wednesday9:00 AM - 5:00 PM|Thursday9:00 AM - 5:00 PM|Friday9:00 AM - 6:00 PM|SaturdayClosed|SundayClosed"
"https://locations.bannerbank.com/","https://locations.bannerbank.com/wa/naches/22-e-2nd-st","Banner Bank Naches","22 E 2nd St","Naches","WA","98937","US","8439449","(509) 653-2217","Branch | ATM","46.73074444483046","-120.70064418017859","Monday9:00 AM - 5:00 PM|Tuesday9:00 AM - 5:00 PM|Wednesday9:00 AM - 5:00 PM|Thursday9:00 AM - 5:00 PM|Friday9:00 AM - 5:00 PM|SaturdayClosed|SundayClosed"
"https://locations.bannerbank.com/","https://locations.bannerbank.com/wa/oak-harbor/570-ne-midway-blvd","Banner Bank Oak Harbor","570 NE Midway Blvd","Oak Harbor","WA","98277","US","8439481","(360) 279-1007","Branch | ATM","48.302954768500406","-122.64287665486336","Monday9:00 AM - 5:00 PM|Tuesday9:00 AM - 5:00 PM|Wednesday9:00 AM - 5:00 PM|Thursday9:00 AM - 5:00 PM|Friday9:00 AM - 5:00 PM|SaturdayClosed|SundayClosed"
"https://locations.bannerbank.com/","https://locations.bannerbank.com/wa/palouse/150-n-bridge-st","Banner Bank Palouse","150 N Bridge St","Palouse","WA","99161","US","8439445","(509) 878-1300","Branch","46.9103433294993","-117.07652181386948","Monday9:00 AM - 5:00 PM|Tuesday9:00 AM - 5:00 PM|Wednesday9:00 AM - 5:00 PM|Thursday9:00 AM - 5:00 PM|Friday9:00 AM - 5:00 PM|SaturdayClosed|SundayClosed"
"https://locations.bannerbank.com/","https://locations.bannerbank.com/wa/pasco/3945-w-court-st","Banner Bank Pasco - Court St.","3945 W Court St","Pasco","WA","99301","US","8439473","(509) 545-0258","Branch | ATM","46.24196813170241","-119.14299219846725","Monday9:00 AM - 5:00 PM|Tuesday9:00 AM - 5:00 PM|Wednesday9:00 AM - 5:00 PM|Thursday9:00 AM - 5:00 PM|Friday9:00 AM - 5:00 PM|SaturdayClosed|SundayClosed"
"https://locations.bannerbank.com/","https://locations.bannerbank.com/wa/point-roberts/480-tyee-dr","Banner Bank Point Roberts (Inside International Market Place)","480 Tyee Dr","Point Roberts","WA","98281","US","8439422","(360) 945-3132","Branch | ATM","48.985516438806535","-123.06610472023772","Monday9:00 AM - 6:00 PM|Tuesday9:00 AM - 6:00 PM|Wednesday9:00 AM - 6:00 PM|Thursday9:00 AM - 6:00 PM|Friday9:00 AM - 6:00 PM|Saturday9:00 AM - 2:00 PM|SundayClosed"
"https://locations.bannerbank.com/","https://locations.bannerbank.com/wa/prosser/1115-meade-ave","Banner Bank Prosser","1115 Meade Ave","Prosser","WA","99350","US","8439446","(509) 786-3545","Branch | ATM","46.2045287209707","-119.77004170417786","Monday9:00 AM - 5:00 PM|Tuesday9:00 AM - 5:00 PM|Wednesday9:00 AM - 5:00 PM|Thursday9:00 AM - 5:00 PM|Friday9:00 AM - 5:00 PM|SaturdayClosed|SundayClosed"
"https://locations.bannerbank.com/","https://locations.bannerbank.com/wa/pullman/1550-se-harvest-drive","Banner Bank Pullman","1550 SE Harvest Drive","Pullman","WA","99163","US","8439568","(509) 332-1561","Branch | ATM","46.7150298","-117.1755829","Monday9:00 AM - 5:00 PM|Tuesday9:00 AM - 5:00 PM|Wednesday9:00 AM - 5:00 PM|Thursday9:00 AM - 5:00 PM|Friday9:00 AM - 6:00 PM|SaturdayClosed|SundayClosed"
"https://locations.bannerbank.com/","https://locations.bannerbank.com//wa/puyallup/13605-meridian-e","Banner Bank Puyallup","13605 Meridian E","Puyallup","WA","98373","US","8439482","(253) 445-6626","Branch | ATM","47.132657635361845","-122.2925265208687","Monday9:00 AM - 5:00 PM|Tuesday9:00 AM - 5:00 PM|Wednesday9:00 AM - 5:00 PM|Thursday9:00 AM - 5:00 PM|Friday9:00 AM - 5:00 PM|SaturdayClosed|SundayClosed"
"https://locations.bannerbank.com/","https://locations.bannerbank.com//wa/puyallup/437-29th-st-ne","Banner Bank Mortgage Lending Puyallup Home Loans","437 29th St NE Suite C","Puyallup","WA","98372","US","8439435","(253) 845-0950","Branch","47.194644000000004","-122.25359500000002","Monday8:00 AM - 5:00 PM|Tuesday8:00 AM - 5:00 PM|Wednesday8:00 AM - 5:00 PM|Thursday8:00 AM - 5:00 PM|Friday8:00 AM - 5:00 PM|SaturdayClosed|SundayClosed"
"https://locations.bannerbank.com/","https://locations.bannerbank.com//wa/redmond/11431-willows-rd-ne","Banner Commercial Banking Redmond - Eastside Commercial Banking Center","11431 Willows Rd NE Suite 140","Redmond","WA","98052","US","8439427","(425) 739-1064","Branch","47.703411137894356","-122.15394683068848","Monday8:00 AM - 5:00 PM|Tuesday8:00 AM - 5:00 PM|Wednesday8:00 AM - 5:00 PM|Thursday8:00 AM - 5:00 PM|Friday8:00 AM - 5:00 PM|SaturdayClosed|SundayClosed"
"https://locations.bannerbank.com/","https://locations.bannerbank.com//wa/redmond/7950-164th-ave-ne","Banner Bank Redmond","7950 164th Ave NE","Redmond","WA","98052","US","8439577","(425) 869-8558","Branch | ATM","47.67455923809767","-122.12127149105072","Monday9:00 AM - 5:00 PM|Tuesday9:00 AM - 5:00 PM|Wednesday9:00 AM - 5:00 PM|Thursday9:00 AM - 5:00 PM|Friday9:00 AM - 6:00 PM|SaturdayClosed|SundayClosed"
"https://locations.bannerbank.com/","https://locations.bannerbank.com/wa/renton/54-rainier-ave-s","Banner Bank Renton","54 Rainier Ave S","Renton","WA","98057","US","8439584","(425) 254-9934","Branch","47.48470709118244","-122.21686439355835","Monday9:00 AM - 5:00 PM|Tuesday9:00 AM - 5:00 PM|Wednesday9:00 AM - 5:00 PM|Thursday9:00 AM - 5:00 PM|Friday9:00 AM - 6:00 PM|SaturdayClosed|SundayClosed"
"https://locations.bannerbank.com/","https://locations.bannerbank.com/wa/richland/1221-jadwin-ave","Banner Bank Richland","1221 Jadwin Ave","Richland","WA","99352","US","8439547","(509) 946-6191","Branch | ATM","46.284691000000024","-119.27819181349184","Monday9:00 AM - 5:00 PM|Tuesday9:00 AM - 5:00 PM|Wednesday9:00 AM - 5:00 PM|Thursday9:00 AM - 5:00 PM|Friday9:00 AM - 6:00 PM|SaturdayClosed|SundayClosed"
"https://locations.bannerbank.com/","https://locations.bannerbank.com/wa/rockford/2-n-1st-st","Banner Bank Rockford","2 N 1st St","Rockford","WA","99030","US","8439468","(509) 892-4410","Branch | ATM","47.452423884877064","-117.13172972202301","Monday9:00 AM - 5:00 PM|Tuesday9:00 AM - 5:00 PM|Wednesday9:00 AM - 5:00 PM|Thursday9:00 AM - 5:00 PM|Friday9:00 AM - 5:00 PM|SaturdayClosed|SundayClosed"
"https://locations.bannerbank.com/","https://locations.bannerbank.com//wa/seattle/1000-2nd-ave-8439437","Banner Commercial Banking Seattle Commercial Banking","1000 2nd Ave Suite 1580","Seattle","WA","98104","US","8439437","(206) 770-7180","Branch","47.60587731480155","-122.33526349067688","Monday8:00 AM - 5:00 PM|Tuesday8:00 AM - 5:00 PM|Wednesday8:00 AM - 5:00 PM|Thursday8:00 AM - 5:00 PM|Friday8:00 AM - 5:00 PM|SaturdayClosed|SundayClosed"
"https://locations.bannerbank.com/","https://locations.bannerbank.com//wa/seattle/1000-2nd-ave-8439489","Banner Bank Seattle - Downtown","1000 2nd Ave Suite 110","Seattle","WA","98104","US","8439489","(206) 302-2100","Branch | ATM","47.6056406","-122.3353376","Monday9:00 AM - 5:00 PM|Tuesday9:00 AM - 5:00 PM|Wednesday9:00 AM - 5:00 PM|Thursday9:00 AM - 5:00 PM|Friday9:00 AM - 5:00 PM|SaturdayClosed|SundayClosed"
"https://locations.bannerbank.com/","https://locations.bannerbank.com//wa/seattle/1222-e-madison-st","Banner Bank Seattle - Madison","1222 E Madison St Suite A","Seattle","WA","98122","US","8439601","(206) 709-8314","Branch | ATM","47.61345764850476","-122.31573700904846","Monday9:00 AM - 5:00 PM|Tuesday9:00 AM - 5:00 PM|Wednesday9:00 AM - 5:00 PM|Thursday9:00 AM - 5:00 PM|Friday9:00 AM - 6:00 PM|SaturdayClosed|SundayClosed"
"https://locations.bannerbank.com/","https://locations.bannerbank.com//wa/seattle/2237-nw-57th-st","Banner Bank Seattle - Ballard","2237 NW 57th St","Seattle","WA","98107","US","8439487","(206) 784-2200","Branch | ATM","47.669984335892146","-122.38634482026094","Monday9:00 AM - 5:00 PM|Tuesday9:00 AM - 5:00 PM|Wednesday9:00 AM - 5:00 PM|Thursday9:00 AM - 5:00 PM|Friday9:00 AM - 6:00 PM|SaturdayClosed|SundayClosed"
"https://locations.bannerbank.com/","https://locations.bannerbank.com//wa/seattle/2901-2nd-ave","Banner Bank Seattle - Belltown","2901 2nd Ave","Seattle","WA","98121","US","8439602","(206) 441-3467","Branch | ATM","47.6175796","-122.3519455","Monday9:00 AM - 5:00 PM|Tuesday9:00 AM - 5:00 PM|Wednesday9:00 AM - 5:00 PM|Thursday9:00 AM - 5:00 PM|Friday9:00 AM - 5:00 PM|SaturdayClosed|SundayClosed"
"https://locations.bannerbank.com/","https://locations.bannerbank.com//wa/seattle/4219-othello-street","Banner Bank Mortgage Lending Othello Station Home Loans","4219 Othello Street Suite 111-A","Seattle","WA","98118","US","11004122","(206) 422-7064","Branch","47.5364491","-122.2800925","Monday8:00 AM - 5:00 PM|Tuesday8:00 AM - 5:00 PM|Wednesday8:00 AM - 5:00 PM|Thursday8:00 AM - 5:00 PM|Friday8:00 AM - 5:00 PM|SaturdayClosed|SundayClosed"
"https://locations.bannerbank.com/","https://locations.bannerbank.com//wa/seattle/5701-first-ave-south","Banner Bank South Seattle","5701 First Ave South","Seattle","WA","98108","US","8439488","(206) 768-1088","Branch | ATM","47.55139573268587","-122.33453392982483","Monday9:00 AM - 5:00 PM|Tuesday9:00 AM - 5:00 PM|Wednesday9:00 AM - 5:00 PM|Thursday9:00 AM - 5:00 PM|Friday9:00 AM - 5:00 PM|SaturdayClosed|SundayClosed"
"https://locations.bannerbank.com/","https://locations.bannerbank.com/wa/sedro-woolley/300-ferry-street","Banner Bank Sedro-Woolley","300 Ferry Street","Sedro-Woolley","WA","98284","US","11945702","(360) 855-2141","Branch | ATM","48.50568","-122.23639","Monday9:00 AM - 5:00 PM|Tuesday9:00 AM - 5:00 PM|Wednesday9:00 AM - 5:00 PM|Thursday9:00 AM - 5:00 PM|Friday9:00 AM - 6:00 PM|Saturday9:00 AM - 1:00 PM|SundayClosed"
"https://locations.bannerbank.com/","https://locations.bannerbank.com/wa/selah/598-n-park-dr","Banner Bank Selah","598 N Park Dr","Selah","WA","98942","US","8439560","(509) 697-7236","Branch | ATM","46.66150039870398","-120.52319794893265","Monday9:00 AM - 5:00 PM|Tuesday9:00 AM - 5:00 PM|Wednesday9:00 AM - 5:00 PM|Thursday9:00 AM - 5:00 PM|Friday9:00 AM - 6:00 PM|SaturdayClosed|SundayClosed"
"https://locations.bannerbank.com/","https://locations.bannerbank.com//wa/spokane/3002-s-southeast-blvd","Banner Bank Spokane - Southeast Boulevard","3002 S Southeast Blvd","Spokane","WA","99223","US","8439553","(509) 892-4460","Branch | ATM","47.627060434585765","-117.37559482455254","Monday9:00 AM - 5:00 PM|Tuesday9:00 AM - 5:00 PM|Wednesday9:00 AM - 5:00 PM|Thursday9:00 AM - 5:00 PM|Friday9:00 AM - 6:00 PM|SaturdayClosed|SundayClosed"
"https://locations.bannerbank.com/","https://locations.bannerbank.com//wa/spokane/3919-n-market-st","Banner Bank Spokane - Market Street (Inside Safeway)","3919 N Market St Suite B","Spokane","WA","99207","US","8439421","(509) 892-4490","Branch | ATM","47.694141","-117.367378","Monday9:00 AM - 6:00 PM|Tuesday9:00 AM - 6:00 PM|Wednesday9:00 AM - 6:00 PM|Thursday9:00 AM - 6:00 PM|Friday9:00 AM - 6:00 PM|Saturday9:00 AM - 1:00 PM|SundayClosed"
"https://locations.bannerbank.com/","https://locations.bannerbank.com//wa/spokane/41-w-riverside-ave-8439430","Banner Bank Mortgage Lending Spokane - Inland Empire Home Loans","41 W Riverside Ave Suite 200","Spokane","WA","99201","US","8439430","(509) 228-0201","Branch","47.65755474309236","-117.41293525644875","Monday8:00 AM - 5:00 PM|Tuesday8:00 AM - 5:00 PM|Wednesday8:00 AM - 5:00 PM|Thursday8:00 AM - 5:00 PM|Friday8:00 AM - 5:00 PM|SaturdayClosed|SundayClosed"
"https://locations.bannerbank.com/","https://locations.bannerbank.com//wa/spokane/41-w-riverside-ave-8439475","Banner Bank Spokane - Downtown","41 W Riverside Ave Suite 100","Spokane","WA","99201","US","8439475","(509) 232-1515","Branch | ATM","47.657502254128666","-117.41291972883607","Monday9:00 AM - 5:00 PM|Tuesday9:00 AM - 5:00 PM|Wednesday9:00 AM - 5:00 PM|Thursday9:00 AM - 5:00 PM|Friday9:00 AM - 5:00 PM|SaturdayClosed|SundayClosed"
"https://locations.bannerbank.com/","https://locations.bannerbank.com//wa/spokane/506-e-hastings-rd","Banner Bank Spokane - Hastings","506 E Hastings Rd","Spokane","WA","99218","US","8439549","(509) 892-4640","Branch | ATM","47.76886209453134","-117.4012716114521","Monday9:00 AM - 5:00 PM|Tuesday9:00 AM - 5:00 PM|Wednesday9:00 AM - 5:00 PM|Thursday9:00 AM - 5:00 PM|Friday9:00 AM - 6:00 PM|SaturdayClosed|SundayClosed"
"https://locations.bannerbank.com/","https://locations.bannerbank.com//wa/spokane/508-w-3rd-ave","Banner Bank Spokane - 3rd & Stevens","508 W 3rd Ave","Spokane","WA","99201","US","8439551","(509) 892-4605","Branch | ATM","47.653696573958086","-117.41994448386777","Monday9:00 AM - 5:00 PM|Tuesday9:00 AM - 5:00 PM|Wednesday9:00 AM - 5:00 PM|Thursday9:00 AM - 5:00 PM|Friday9:00 AM - 6:00 PM|SaturdayClosed|SundayClosed"
"https://locations.bannerbank.com/","https://locations.bannerbank.com//wa/spokane/6622-n-division-st","Banner Bank Spokane - Division Street","6622 N Division St","Spokane","WA","99208","US","8439550","(509) 892-4622","Branch | ATM","47.71841907304912","-117.41077870130539","Monday9:00 AM - 5:00 PM|Tuesday9:00 AM - 5:00 PM|Wednesday9:00 AM - 5:00 PM|Thursday9:00 AM - 5:00 PM|Friday9:00 AM - 6:00 PM|SaturdayClosed|SundayClosed"
"https://locations.bannerbank.com/","https://locations.bannerbank.com//wa/spokane/9506-n-newport-hwy","Banner Bank Spokane - Northpointe","9506 N Newport Hwy","Spokane","WA","99218","US","8439450","(509) 467-9084","Branch | ATM","47.74484990585146","-117.40555375814438","Monday9:00 AM - 5:00 PM|Tuesday9:00 AM - 5:00 PM|Wednesday9:00 AM - 5:00 PM|Thursday9:00 AM - 5:00 PM|Friday9:00 AM - 6:00 PM|SaturdayClosed|SundayClosed"
"https://locations.bannerbank.com/","https://locations.bannerbank.com//wa/spokane-valley/10-n-argonne-rd","Banner Bank Spokane Valley - Sprague & Mullan","10 N Argonne Rd","Spokane Valley","WA","99212","US","8439552","(509) 892-4513","Branch | ATM","47.65733218299805","-117.28180602192879","Monday9:00 AM - 5:00 PM|Tuesday9:00 AM - 5:00 PM|Wednesday9:00 AM - 5:00 PM|Thursday9:00 AM - 5:00 PM|Friday9:00 AM - 6:00 PM|SaturdayClosed|SundayClosed"
"https://locations.bannerbank.com/","https://locations.bannerbank.com//wa/spokane-valley/8909-e-trent-ave","Banner Bank Spokane Valley - Millwood","8909 E Trent Ave","Spokane Valley","WA","99212","US","8439554","(509) 892-4440","Branch | ATM","47.6811178","-117.2845897","Monday9:00 AM - 5:00 PM|Tuesday9:00 AM - 5:00 PM|Wednesday9:00 AM - 5:00 PM|Thursday9:00 AM - 5:00 PM|Friday9:00 AM - 6:00 PM|SaturdayClosed|SundayClosed"
"https://locations.bannerbank.com/","https://locations.bannerbank.com/wa/sunnyside/1010-yakima-valley-hwy","Banner Bank Sunnyside - Yakima Valley","1010 Yakima Valley Hwy","Sunnyside","WA","98944","US","8439469","(509) 839-5545","Branch | ATM","46.329209521025206","-120.00717972883598","Monday9:00 AM - 5:00 PM|Tuesday9:00 AM - 5:00 PM|Wednesday9:00 AM - 5:00 PM|Thursday9:00 AM - 5:00 PM|Friday9:00 AM - 6:00 PM|SaturdayClosed|SundayClosed"
"https://locations.bannerbank.com/","https://locations.bannerbank.com/wa/tacoma/1015-a-st","Banner Bank Tacoma","1015 A St Suite 100","Tacoma","WA","98402","US","8439453","(253) 722-2900","Branch","47.25380610277397","-122.43689789814755","Monday9:00 AM - 5:00 PM|Tuesday9:00 AM - 5:00 PM|Wednesday9:00 AM - 5:00 PM|Thursday9:00 AM - 5:00 PM|Friday9:00 AM - 5:00 PM|SaturdayClosed|SundayClosed"
"https://locations.bannerbank.com/","https://locations.bannerbank.com/wa/tekoa/147-n-broadway-st","Banner Bank Tekoa","147 N Broadway St","Tekoa","WA","99033","US","8439474","(509) 284-5000","Branch","47.223894981296226","-117.07212800000002","Monday9:00 AM - 5:00 PM|Tuesday9:00 AM - 5:00 PM|Wednesday9:00 AM - 5:00 PM|Thursday9:00 AM - 5:00 PM|Friday9:00 AM - 5:00 PM|SaturdayClosed|SundayClosed"
"https://locations.bannerbank.com/","https://locations.bannerbank.com//wa/vancouver/1111-main-st","Banner Bank Mortgage Lending Vancouver Home Loans","1111 Main St Suite 301","Vancouver","WA","98660","US","8439434","(360) 213-0579","Branch","45.62973462175811","-122.67101181349182","Monday8:00 AM - 5:00 PM|Tuesday8:00 AM - 5:00 PM|Wednesday8:00 AM - 5:00 PM|Thursday8:00 AM - 5:00 PM|Friday8:00 AM - 5:00 PM|SaturdayClosed|SundayClosed"
"https://locations.bannerbank.com/","https://locations.bannerbank.com//wa/vancouver/3100-se-164th-ave","Banner Bank Vancouver - East Vancouver","3100 SE 164th Ave","Vancouver","WA","98683","US","8439590","(360) 896-6684","Branch | ATM","45.59847426732352","-122.5044733285904","Monday9:00 AM - 5:00 PM|Tuesday9:00 AM - 5:00 PM|Wednesday9:00 AM - 5:00 PM|Thursday9:00 AM - 5:00 PM|Friday9:00 AM - 6:00 PM|SaturdayClosed|SundayClosed"
"https://locations.bannerbank.com/","https://locations.bannerbank.com//wa/vancouver/500-ne-139th-st","Banner Bank Vancouver - Salmon Creek","500 NE 139th St","Vancouver","WA","98685","US","8439510","(360) 213-0568","Branch | ATM","45.72214586280537","-122.66616091893411","Monday9:00 AM - 5:00 PM|Tuesday9:00 AM - 5:00 PM|Wednesday9:00 AM - 5:00 PM|Thursday9:00 AM - 5:00 PM|Friday9:00 AM - 6:00 PM|SaturdayClosed|SundayClosed"
"https://locations.bannerbank.com/","https://locations.bannerbank.com/wa/veradale/15606-e-sprague-ave","Banner Bank Spokane Valley Sullivan","15606 E Sprague Ave","Veradale","WA","99037","US","8439509","(509) 927-3028","Branch | ATM","47.6566798","-117.1952538","Monday9:00 AM - 5:00 PM|Tuesday9:00 AM - 5:00 PM|Wednesday9:00 AM - 5:00 PM|Thursday9:00 AM - 5:00 PM|Friday9:00 AM - 6:00 PM|SaturdayClosed|SundayClosed"
"https://locations.bannerbank.com/","https://locations.bannerbank.com/wa/waitsburg/215-main-st","Banner Bank Waitsburg","215 Main St","Waitsburg","WA","99361","US","8439424","(509) 337-6664","Branch | ATM","46.269977","-118.154677","Monday9:00 AM - 1:00 PM|Tuesday9:00 AM - 1:00 PM|Wednesday9:00 AM - 1:00 PM|Thursday9:00 AM - 1:00 PM|Friday1:00 PM - 5:00 PM|SaturdayClosed|SundayClosed"
"https://locations.bannerbank.com/","https://locations.bannerbank.com//wa/walla-walla/1-e-alder-st","Banner Bank Walla Walla","1 E Alder St","Walla Walla","WA","99362","US","8439566","(509) 526-8731","Branch | ATM","46.06621886875924","-118.33866477012634","Monday9:00 AM - 5:00 PM|Tuesday9:00 AM - 5:00 PM|Wednesday9:00 AM - 5:00 PM|Thursday9:00 AM - 5:00 PM|Friday9:00 AM - 6:00 PM|SaturdayClosed|SundayClosed"
"https://locations.bannerbank.com/","https://locations.bannerbank.com//wa/walla-walla/10-s-1st-ave","Banner Bank Corporate Headquarters","10 S 1st Ave","Walla Walla","WA","99362","US","8570926","(509) 527-3636","Branch | ATM","46.06620529729196","-118.3386466689808","Monday8:00 AM - 5:00 PM|Tuesday8:00 AM - 5:00 PM|Wednesday8:00 AM - 5:00 PM|Thursday8:00 AM - 5:00 PM|Friday8:00 AM - 5:00 PM|SaturdayClosed|SundayClosed"
"https://locations.bannerbank.com/","https://locations.bannerbank.com//wa/walla-walla/11-s-2nd-ave","Banner Bank Mortgage Lending Walla Walla Home Loans","11 S 2nd Ave","Walla Walla","WA","99362","US","8439429","(509) 526-8702","Branch | ATM","46.066204911349004","-118.33866342902184","Monday8:00 AM - 5:00 PM|Tuesday8:00 AM - 5:00 PM|Wednesday8:00 AM - 5:00 PM|Thursday8:00 AM - 5:00 PM|Friday8:00 AM - 5:00 PM|SaturdayClosed|SundayClosed"
"https://locations.bannerbank.com/","https://locations.bannerbank.com//wa/walla-walla/2121-e-isaacs-ave","Banner Bank Walla Walla - Eastgate","2121 E Isaacs Ave","Walla Walla","WA","99362","US","8439564","(509) 529-8181","Branch | ATM","46.076098899153976","-118.30392479896545","Monday9:00 AM - 5:00 PM|Tuesday9:00 AM - 5:00 PM|Wednesday9:00 AM - 5:00 PM|Thursday9:00 AM - 5:00 PM|Friday9:00 AM - 6:00 PM|SaturdayClosed|SundayClosed"
"https://locations.bannerbank.com/","https://locations.bannerbank.com//wa/walla-walla/340-boyer-ave","Banner Bank - ATM Walla Walla - Boyer Lobby ATM","340 Boyer Ave","Walla Walla","WA","99362","US","8467915","(800) 272-9933","Branch | ATM","46.0703802","-118.3300248","MondayOpen 24 hours|TuesdayOpen 24 hours|WednesdayOpen 24 hours|ThursdayOpen 24 hours|FridayOpen 24 hours|SaturdayOpen 24 hours|SundayOpen 24 hours"
"https://locations.bannerbank.com/","https://locations.bannerbank.com//wa/walla-walla/6-w-rose-st","Banner Bank - ATM Walla Walla - Marcus Whitman Hotel & Conference Center ATM","6 W Rose St","Walla Walla","WA","99362","US","8467916","(800) 272-9933","Branch | ATM","46.0679064416506","-118.3409902605672","MondayOpen 24 hours|TuesdayOpen 24 hours|WednesdayOpen 24 hours|ThursdayOpen 24 hours|FridayOpen 24 hours|SaturdayOpen 24 hours|SundayOpen 24 hours"
"https://locations.bannerbank.com/","https://locations.bannerbank.com//wa/walla-walla/600-s-9th-ave","Banner Bank Walla Walla - 9th Avenue","600 S 9th Ave","Walla Walla","WA","99362","US","8439420","(509) 527-6460","Branch | ATM","46.05687","-118.34644895337294","Monday9:00 AM - 6:00 PM|Tuesday9:00 AM - 6:00 PM|Wednesday9:00 AM - 6:00 PM|Thursday9:00 AM - 6:00 PM|Friday9:00 AM - 6:00 PM|Saturday10:00 AM - 5:00 PM|SundayClosed"
"https://locations.bannerbank.com/","https://locations.bannerbank.com//wa/walla-walla/710-s-9th-ave","Banner Bank - ATM Walla Walla - Super1 ATM","710 S 9th Ave","Walla Walla","WA","99362","US","8467917","(800) 272-9933","Branch | ATM","46.05569847431177","-118.34743157790399","Monday5:00 AM - 11:00 PM|Tuesday5:00 AM - 11:00 PM|Wednesday5:00 AM - 11:00 PM|Thursday5:00 AM - 11:00 PM|Friday5:00 AM - 11:00 PM|Saturday5:00 AM - 11:00 PM|Sunday5:00 AM - 11:00 PM"
"https://locations.bannerbank.com/","https://locations.bannerbank.com/wa/wenatchee/501-n-mission-st","Banner Bank Wenatchee","501 N Mission St","Wenatchee","WA","98801","US","8439561","(509) 662-9221","Branch | ATM","47.430490429945834","-120.31753823922367","Monday9:00 AM - 5:00 PM|Tuesday9:00 AM - 5:00 PM|Wednesday9:00 AM - 5:00 PM|Thursday9:00 AM - 5:00 PM|Friday9:00 AM - 6:00 PM|SaturdayClosed|SundayClosed"
"https://locations.bannerbank.com/","https://locations.bannerbank.com/wa/woodinville/17530-132nd-ave-ne","Banner Bank Woodinville","17530 132nd Ave NE Suite A","Woodinville","WA","98072","US","8439580","(425) 486-2265","Branch","47.75562083267982","-122.16260969638824","Monday9:00 AM - 5:00 PM|Tuesday9:00 AM - 5:00 PM|Wednesday9:00 AM - 5:00 PM|Thursday9:00 AM - 5:00 PM|Friday9:00 AM - 6:00 PM|SaturdayClosed|SundayClosed"
"https://locations.bannerbank.com/","https://locations.bannerbank.com//wa/yakima/3030-w-nob-hill-blvd","Banner Bank Yakima - Nob Hill","3030 W Nob Hill Blvd","Yakima","WA","98902","US","8439569","(509) 248-7170","Branch | ATM","46.58524674167343","-120.54985509075777","Monday9:00 AM - 5:00 PM|Tuesday9:00 AM - 5:00 PM|Wednesday9:00 AM - 5:00 PM|Thursday9:00 AM - 5:00 PM|Friday9:00 AM - 6:00 PM|SaturdayClosed|SundayClosed"
"https://locations.bannerbank.com/","https://locations.bannerbank.com//wa/yakima/4104-terrace-heights-dr","Banner Bank Yakima - Terrace Heights","4104 Terrace Heights Dr","Yakima","WA","98901","US","8439563","(509) 575-4754","Branch | ATM","46.60615455453753","-120.44540718197823","Monday9:00 AM - 5:00 PM|Tuesday9:00 AM - 5:00 PM|Wednesday9:00 AM - 5:00 PM|Thursday9:00 AM - 5:00 PM|Friday9:00 AM - 6:00 PM|SaturdayClosed|SundayClosed"
"https://locations.bannerbank.com/","https://locations.bannerbank.com//wa/yakima/5005-summitview-ave","Banner Bank Yakima - Summitview","5005 Summitview Ave","Yakima","WA","98908","US","8439546","(509) 966-7050","Branch | ATM","46.60019861115775","-120.57634457945824","Monday9:00 AM - 5:00 PM|Tuesday9:00 AM - 5:00 PM|Wednesday9:00 AM - 5:00 PM|Thursday9:00 AM - 5:00 PM|Friday9:00 AM - 6:00 PM|SaturdayClosed|SundayClosed"
"https://locations.bannerbank.com/","https://locations.bannerbank.com//wa/yakima/502-w-yakima-ave","Banner Bank Yakima","502 W Yakima Ave","Yakima","WA","98902","US","8439570","(509) 248-0250","Branch | ATM","46.599597820614264","-120.51609478890896","Monday9:00 AM - 5:00 PM|Tuesday9:00 AM - 5:00 PM|Wednesday9:00 AM - 5:00 PM|Thursday9:00 AM - 5:00 PM|Friday9:00 AM - 6:00 PM|SaturdayClosed|SundayClosed"
