"locator_domain","location_name","street_address","city","state","zip","country_code","store_number","phone","location_type","latitude","longitude","hours_of_operation","page_url"
"https://www.kia.com/","Anderson KIA","806 S. Belt Highway","St. Joseph","MO","64507","US","013","(816) 279-0354","<MISSING>","39.75944","-94.80537","<MISSING>","http://www.andersonkia.com"
"https://www.kia.com/","Oakes KIA","2900 Burlington Street","North Kansas City","MO","64116","US","033","(816) 474-2900","<MISSING>","39.14986","-94.58115","<MISSING>","http://www.oakeskia.com"
"https://www.kia.com/","Bob Sight Independence KIA","1700 South Noland Road","Independence","MO","64055","US","018","(816) 461-0200","<MISSING>","39.0715","-94.41551","<MISSING>","http://www.bobsightkia.com"
"https://www.kia.com/","Shawnee Mission KIA","7951 Shawnee Mission Parkway","Merriam","KS","66202","US","011","(913) 384-9100","<MISSING>","39.01442","-94.67766","<MISSING>","http://www.shawneemissionkia.com"
"https://www.kia.com/","Cable Dahmer KIA of Lees Summit","400 Ne Colbern Road","Lees Summit","MO","64086","US","029","(816) 207-6200","<MISSING>","38.94681","-94.36985","<MISSING>","http://www.cabledahmerkia.com"
"https://www.kia.com/","Edwards KIA","3134 S. 9th Street","Council Bluffs","IA","51501","US","006","(712) 890-2542","<MISSING>","41.2290536","-95.8574451","<MISSING>","http://www.lakemanawakia.com"
"https://www.kia.com/","Olathe KIA","130 North Fir","Olathe","KS","66061","US","004","(913) 390-6800","<MISSING>","38.88284","-94.79263","<MISSING>","http://www.olathekia.com"
"https://www.kia.com/","Lawrence KIA","1225 E. 23rd Street","Lawrence","KS","66046","US","010","(785) 856-8700","<MISSING>","38.94191","-95.2178","<MISSING>","http://www.lawrencekia.com"
"https://www.kia.com/","H & H KIA","4040 South 84th Street","Omaha","NE","68127","US","005","(402) 331-9100","<MISSING>","41.22035","-96.04417","<MISSING>","http://hhkia.com"
"https://www.kia.com/","Briggs KIA","3137 S. Kansas Avenue","Topeka","KS","66611","US","008","(785) 267-7474","<MISSING>","39.01171","-95.68206","<MISSING>","http://www.briggskia.com"
"https://www.kia.com/","KIA of Des Moines","4475 Merle Hay Road","Des Moines","IA","50310","US","001","(515) 270-0706","<MISSING>","41.64172","-93.69517","<MISSING>","http://www.kiadm.com"
"https://www.kia.com/","KIA of Lincoln","1145 N. 48th Street","Lincoln","NE","68504","US","003","(402) 434-7000","<MISSING>","40.82479","-96.65446","<MISSING>","http://www.kiaoflincoln.com"
"https://www.kia.com/","KIA of Manhattan","8223 Southport Drive","Manhattan","KS","66502","US","015","(785) 236-7002","<MISSING>","39.19482","-96.52342","<MISSING>","http://www.manhattan-kia.com"
"https://www.kia.com/","KIA of Columbia","710 Business Loop 70 W","Columbia","MO","65203","US","030","(573) 442-9200","<MISSING>","38.9657","-92.34798","<MISSING>","http://www.kiaofcolumbia.com"
"https://www.kia.com/","Billion KIA of Sioux City","3701 Singing Hills Blvd.","Sioux City","IA","51106","US","011","(712) 244-5050","<MISSING>","42.43948","-96.35981","<MISSING>","http://www.billionkiaofsiouxcity.com"
"https://www.kia.com/","Shottenkirk KIA of Quincy","1330 N. 24th Street","Quincy","IL","62301","US","055","(217) 224-1000","<MISSING>","39.94749","-91.37711","<MISSING>","http://www.shottenkirkkia.com"
"https://www.kia.com/","Shottenkirk KIA","309 S. Gear Avenue","West Burlington","IA","52655","US","010","(319) 758-5900","<MISSING>","40.82337","-91.17154","<MISSING>","http://www.kiaofwestburlington.com/"
"https://www.kia.com/","Billion KIA of Iowa City","2845 Mormon Trek Blvd.","Iowa City","IA","52246","US","015","(319) 512-7930","<MISSING>","41.63268","-91.56246","<MISSING>","http://www.billionkiaofiowacity.com"
"https://www.kia.com/","Dick Witham KIA","2033 Laporte Road","Waterloo","IA","50702","US","004","(319) 234-4200","<MISSING>","42.4659","-92.3183","<MISSING>","http://www.withamkia.com"
"https://www.kia.com/","McGrath KIA","1020 N. Center Point Road","Hiawatha","IA","52233","US","014","(319) 393-3300","<MISSING>","42.04732","-91.68505","<MISSING>","http://www.mcgrathkia.com"
"https://www.kia.com/","Napleton's Mid Rivers KIA","4955 Veterns Memorial Pwky","St. Peters","MO","63376","US","027","(636) 926-2110","<MISSING>","38.79696","-90.59067","<MISSING>","http://www.midriverskia.com"
"https://www.kia.com/","Jim Butler KIA","722 Long Road Crossing","Chesterfield","MO","63005","US","022","(636) 256-9600","<MISSING>","38.67099","-90.62002","<MISSING>","http://www.jimbutlerkia.com"
"https://www.kia.com/","HW Kia of West County","14116 Manchester Road","Ballwin","MO","63011","US","031","(636) 591-2900","<MISSING>","38.59347","-90.49513","<MISSING>","http://www.hwkia.com"
"https://www.kia.com/","Lou Fusz KIA","1025 N. Lindbergh Bvld.","St. Louis","MO","63132","US","003","(314) 595-4900","<MISSING>","38.67576","-90.40545","<MISSING>","http://www.kia.fusz.com"
"https://www.kia.com/","Steve Schmitt KIA","11655 New Halls Ferry Road","Florissant","MO","63033","US","034","(314) 831-0200","<MISSING>","38.77785","-90.27661","<MISSING>","http://www.steveschmittkia.com"
"https://www.kia.com/","Suntrup KIA","6263 S. Lindbergh Blvd.","St. Louis","MO","63123","US","017","(314) 894-2311","<MISSING>","38.51603","-90.34424","<MISSING>","http://www.suntrupkiasouth.com"
"https://www.kia.com/","Kingdom KIA","2600 North Bishop Avenue","Rolla","MO","65401","US","020","(573) 426-3100","<MISSING>","37.97053","-91.75972","<MISSING>","http://www.kingdomkia.com"
"https://www.kia.com/","Federico KIA","1911 East Edwardsville Road","Wood River","IL","62095","US","079","(618) 216-8080","<MISSING>","38.8564026","-90.0638961","<MISSING>","http://www.federicokia.com"
"https://www.kia.com/","Auffenberg KIA","106 Auto Court","O'Fallon","IL","62269","US","014","(618) 624-2277","<MISSING>","38.59284","-89.95866","<MISSING>","http://www.auffenbergkia.com"
"https://www.kia.com/","Green KIA","3861 W. Wabash","Springfield","IL","62711","US","047","(217) 522-1222","<MISSING>","39.75716","-89.72708","<MISSING>","http://www.greenkia.com"
"https://www.kia.com/","Mike Miller KIA","2007 W. Pioneer Parkway","Peoria","IL","61615","US","017","(309) 693-1222","<MISSING>","40.78444","-89.62368","<MISSING>","http://www.mikemillerkia.com/"
"https://www.kia.com/","O'Brien KIA of Bloomington","1608 S. Morrissey Drive","Bloomington","IL","61704","US","081","(309) 664-1222","<MISSING>","40.45775","-88.96867","<MISSING>","http://www.obrienteamkia.com"
"https://www.kia.com/","Mark Martin KIA","1601 Batesville Blvd","Batesville","AR","72501","US","015","(870) 793-4461","<MISSING>","35.71422","-91.63355","<MISSING>","http://www.markmartinkia.com"
"https://www.kia.com/","Cavenaugh KIA","3315 Stadium Blvd.","Jonesboro","AR","72404","US","012","(870) 802-4451","<MISSING>","35.79965","-90.67044","<MISSING>","http://www.cavenaughkia.com"
"https://www.kia.com/","Crain KIA of Conway","810 South Amity Road","Conway","AR","72032","US","019","(501) 470-7000","<MISSING>","35.06878","-92.41595","<MISSING>","http://www.crainkiaofconway.com"
"https://www.kia.com/","Crain KIA","5830 Warden Road","Sherwood","AR","72120","US","007","(501) 542-5200","<MISSING>","34.80937","-92.20864","<MISSING>","http://www.crainkia.com"
"https://www.kia.com/","John Youngblood KIA","3525 S. Campbell","Springfield","MO","65807","US","006","(417) 882-3838","<MISSING>","37.15019","-93.2971","<MISSING>","http://www.springfieldkia.com"
"https://www.kia.com/","Steve Landers KIA","201 Colonel Glenn Plaza Loop","Little Rock","AR","72210","US","022","(877) 552-9504","<MISSING>","34.70725","-92.40747","<MISSING>","http://www.stevelanderskia.com"
"https://www.kia.com/","Gossett KIA","1900 Covington Pike","Memphis","TN","38128","US","027","(901) 388-8989","<MISSING>","35.17759","-89.89493","<MISSING>","http://www.gossettmotors.com/gossettkia/"
"https://www.kia.com/","Gossett KIA South","2680 Mt. Moriah","Memphis","TN","38115","US","036","(901) 363-6556","<MISSING>","35.07608","-89.87899","<MISSING>","http://www.gossettkiasouth.com/"
"https://www.kia.com/","Auffenberg KIA Cape Girardeau","611 South Kings Highway","Cape Girardeau","MO","63703","US","009","(573) 339-1000","<MISSING>","37.29158","-89.55613","<MISSING>","http://www.capekia.com"
"https://www.kia.com/","Crain KIA of Fayetteville","3195 N. College Avenue","Fayetteville","AR","72703","US","025","(479) 387-9000","<MISSING>","36.10916","-94.14588","<MISSING>","http://www.crainkiaoffayetteville.com"
"https://www.kia.com/","Crain KIA of Bentonville","2901 Moberly Lane","Bentonville","AR","72712","US","021","(479) 695-6500","<MISSING>","36.34156","-94.18282","<MISSING>","http://www.crainkiaofbentonville.com"
"https://www.kia.com/","Serra KIA of Jackson","175 Stonebridge Blvd.","Jackson","TN","38305","US","038","(731) 660-5501","<MISSING>","35.67877","-88.85297","<MISSING>","http://www.serrakiajackson.com"
"https://www.kia.com/","Larry Stovesand KIA","528 San Diego Road","Carbondale","IL","62901","US","082","(618) 319-4690","<MISSING>","37.74683","-89.14652","<MISSING>","http://www.larrystovesandkia.com"
"https://www.kia.com/","Roper KIA","320 Hodgdon Road","Joplin","MO","64801","US","012","(417) 626-3800","<MISSING>","37.0934","-94.4796","<MISSING>","http://www.roper-kia.net"
"https://www.kia.com/","Crain KIA of Fort Smith","8200 Us 71","Fort Smith","AR","72908","US","024","(479) 424-1002","<MISSING>","35.30649","-94.3959","<MISSING>","http://www.crainkiaftsmith.com"
"https://www.kia.com/","Gerald KIA of North Aurora","201 Hansen Blvd.","North Aurora","IL","60542","US","071","(630) 907-0770","<MISSING>","41.80118","-88.37079","<MISSING>","http://www.geraldkianorthaurora.com"
"https://www.kia.com/","Bill Walsh KIA","2900 Columbus Street","Ottawa","IL","61350","US","063","(815) 434-4800","<MISSING>","41.37257","-88.83539","<MISSING>","http://www.billwalshkia.com"
"https://www.kia.com/","Gerald KIA of Naperville","1661 Aurora Ave.","Naperville","IL","60540","US","054","(630) 445-2542","<MISSING>","41.76511","-88.18814","<MISSING>","http://www.geraldkianaperville.com"
"https://www.kia.com/","Napleton's Elgin KIA","909 E. Chicago Street","Elgin","IL","60120","US","072","(847) 717-8800","<MISSING>","42.0338","-88.25691","<MISSING>","http://www.napletonselginkia.com"
"https://www.kia.com/","World KIA Joliet","2525 W. Jefferson Street","Joliet","IL","60435","US","074","(815) 725-2575","<MISSING>","41.52267","-88.14584","<MISSING>","http://www.worldkiajoliet.com"
"https://www.kia.com/","Rock River KIA","226 North Alpine Road","Rockford","IL","61107","US","036","(815) 391-6113","<MISSING>","42.26695","-89.0298","<MISSING>","http://www.driverockriverkia.com"
"https://www.kia.com/","Bob Rohrman Schaumburg KIA","1100 E. Golf Road","Schaumburg","IL","60173","US","064","(847) 908-0502","<MISSING>","42.05116","-88.05174","<MISSING>","http://www.schaumburgkia.com"
"https://www.kia.com/","Willowbrook KIA","7345 South Kingery Hwy.","Willowbrook","IL","60527","US","016","(630) 986-5000","<MISSING>","41.75409","-87.94335","<MISSING>","http://willowbrookkia.com"
"https://www.kia.com/","Napleton's KIA of Elmhurst","727 W. Grand","Elmhurst","IL","60126","US","035","(630) 782-9300","<MISSING>","41.92434","-87.96289","<MISSING>","http://www.napletonkia.com/"
"https://www.kia.com/","Gary Lang KIA","1121 S. Route 31","Mchenry","IL","60050","US","057","(815) 385-2100","<MISSING>","42.31164","-88.28025","<MISSING>","http://www.garylangkia.com"
"https://www.kia.com/","McGrath KIA of Palatine","1400 East Dundee Road","Palatine","IL","60074","US","080","(847) 202-3900","<MISSING>","42.1398","-88.0111","<MISSING>","http://www.mcgratharlingtonkia.com"
"https://www.kia.com/","International KIA","8821 W. 159th Street","Orland Hills","IL","60487","US","073","(708) 468-0000","<MISSING>","41.60113","-87.83474","<MISSING>","http://www.kiaoforland.com"
"https://www.kia.com/","Berwyn KIA","7050 Ogden Avenue","Berwyn","IL","60402","US","066","(708) 797-0300","<MISSING>","41.82455","-87.79962","<MISSING>","http://www.berwynkia.com"
"https://www.kia.com/","Liberty KIA","921 South Milwaukee Avenue","Libertyville","IL","60048","US","003","(847) 680-8000","<MISSING>","42.27082","-87.95157","<MISSING>","http://www.libertyvillekia.com"
"https://www.kia.com/","Hawkinson KIA","5501 Miller Circle Drive","Matteson","IL","60443","US","061","(708) 720-8999","<MISSING>","41.50486","-87.74718","<MISSING>","http://www.hawkinsonkia.com"
"https://www.kia.com/","KIA of Lincolnwood","6750 N. Lincoln Avenue","Lincolnwood","IL","60712","US","083","(847) 581-7500","<MISSING>","42.00337","-87.7292","<MISSING>","http://www.grossingerkia.com"
"https://www.kia.com/","Evergreen KIA","9205 S. Western Ave.","Chicago","IL","60643","US","040","(773) 779-4281","<MISSING>","41.72596","-87.68176","<MISSING>","http://www.evergreenkia.net"
"https://www.kia.com/","Raymond KIA","119 Route 173","Antioch","IL","60002","US","051","(847) 395-3600","<MISSING>","42.47013","-88.08622","<MISSING>","http://raymondkia.com"
"https://www.kia.com/","Classic KIA","425 N. Green Bay Road","Waukegan","IL","60085","US","058","(847) 336-4300","<MISSING>","42.36637","-87.87715","<MISSING>","http://www.classickiaonline.com"
"https://www.kia.com/","Napleton's River Oaks KIA","1951 River Oaks Drive","Calumet City","IL","60409","US","062","(708) 360-2222","<MISSING>","41.60037","-87.57254","<MISSING>","http://www.riveroakskia.com"
"https://www.kia.com/","G&G KIA","10868 W. Wyatt Earp Blvd.","Dodge City","KS","67801","US","014","(620) 227-3171","<MISSING>","37.7548414","-100.0578934","<MISSING>","http://www.buyggkia.com"
"https://www.kia.com/","KIA of Grand Island","3515 Old Potash Highway","Grand Island","NE","68803","US","004","(308) 384-1700","<MISSING>","40.91685","-98.38493","<MISSING>","http://www.kiaofgrandisland.com"
"https://www.kia.com/","Midwest KIA","8725 West Kellogg","Wichita","KS","67209","US","012","(316) 652-2201","<MISSING>","37.66979","-97.44274","<MISSING>","http://www.midwestkia.com"
"https://www.kia.com/","Dale Spradley KIA","2145 Hwy 50 West","Pueblo","CO","81008","US","009","(719) 543-6710","<MISSING>","38.31129","-104.63741","<MISSING>","http://www.dalespradleykia.com"
"https://www.kia.com/","Peak KIA Chapel Hills","1560 Auto Mall Loop","Colorado Springs","CO","80920","US","036","(719) 785-6100","<MISSING>","38.95407","-104.79657","<MISSING>","http://www.peakkiachapelhills.com"
"https://www.kia.com/","Phil Long KIA of Colorado Springs","1020 Motor City Drive","Colorado Springs","CO","80905","US","005","(719) 575-7500","<MISSING>","38.81951","-104.83775","<MISSING>","http://www.phillongkia.com"
"https://www.kia.com/","Arapahoe KIA","9701 East Arapahoe Road","Centennial","CO","80112","US","031","(303) 874-2500","<MISSING>","39.59575","-104.87546","<MISSING>","http://www.coloradokia.com"
"https://www.kia.com/","Grand KIA","1950 W. 104th Ave.","Denver","CO","80234","US","007","(303) 904-1177","<MISSING>","39.88429","-105.01062","<MISSING>","http://www.grandkia.com"
"https://www.kia.com/","Peak KIA","5077 S. Wadsworth Blvd.","Littleton","CO","80123","US","023","(303) 904-7800","<MISSING>","39.62613","-105.09137","<MISSING>","http://www.peakkia.com"
"https://www.kia.com/","Ehrlich I-25 KIA","10258 E. I25 Frontage Road","Longmont","CO","80504","US","034","(303) 532-4617","<MISSING>","40.14976","-104.97784","<MISSING>","http://www.i25kia.com"
"https://www.kia.com/","Peak KIA North","1111 Southgate Drive","Windsor","CO","80550","US","033","(970) 576-3100","<MISSING>","40.40781","-104.91241","<MISSING>","http://www.peakkianorth.com"
"https://www.kia.com/","Medved KIA","11201 W I-70 Frontage Road N","Wheat Ridge","CO","80033","US","037","(303) 421-0100","<MISSING>","39.7845414","-105.1234856","<MISSING>","http://www.medvedkia.com"
"https://www.kia.com/","Fort Collins KIA","2849 S. College Avenue","Fort Collins","CO","80525","US","039","(970) 377-6900","<MISSING>","40.54737","-105.07813","<MISSING>","http://www.fortcollinskia.com"
"https://www.kia.com/","Bob Moore KIA Northwest","7340 Nw Expressway","Oklahoma City","OK","73132","US","021","(405) 720-3800","<MISSING>","35.55963","-97.64423","<MISSING>","http://www.bobmoorekia.com"
"https://www.kia.com/","KIA of Cerritos","18201 Studebaker Road","Cerritos","CA","90703","US","243","(562) 860-2424","<MISSING>","33.86629","-118.09988","<MISSING>","http://www.kiacerritos.com"
"https://www.kia.com/","KIA of Carson","22020 Recreation Road","Carson","CA","90745","US","313","(310) 507-8740","<MISSING>","33.82707","-118.25003","<MISSING>","http://www.kiaofcarson.com"
"https://www.kia.com/","Garden Grove KIA","13731 Harbor Blvd.","Garden Grove","CA","92843","US","245","(714) 823-4949","<MISSING>","33.76343","-117.92109","<MISSING>","http://www.ggkia.com"
"https://www.kia.com/","Car Pros KIA Huntington Beach","18835 Beach Blvd.","Huntington Beach","CA","92648","US","246","(714) 274-6176","<MISSING>","33.6887","-117.98943","<MISSING>","http://www.orangecountykia.com/"
"https://www.kia.com/","KIA Downtown Los Angeles","1945 S. Figueroa Street","Los Angeles","CA","90007","US","308","(866) 414-5619","<MISSING>","34.03328","-118.27308","<MISSING>","http://www.kiaofdtla.com/"
"https://www.kia.com/","KIA of Alhambra","1247 West Main Street","Alhambra","CA","91801","US","270","(626) 377-4770","<MISSING>","34.09189","-118.13666","<MISSING>","http://www.kiaofalhambra.com"
"https://www.kia.com/","Covina Valley KIA","626 South Citrus Avenue","Covina","CA","91723","US","266","(888)791-8382","<MISSING>","34.07827","-117.88934","<MISSING>","http://www.covinakia.com"
"https://www.kia.com/","Car Pros KIA Glendale","400 South Brand Blvd.","Glendale","CA","91204","US","283","(818) 745-1400","<MISSING>","34.14137","-118.25465","<MISSING>","http://www.glendalekia.com/"
"https://www.kia.com/","Pomona KIA","8 Rio Rancho Road","Pomona","CA","91766","US","310","(909) 664-2200","<MISSING>","34.03244","-117.75669","<MISSING>","http://www.pomonakia.com"
"https://www.kia.com/","KIA of Irvine","45 Oldfield","Irvine","CA","92618","US","273","(949) 777-2300","<MISSING>","33.63565","-117.72157","<MISSING>","http://www.kiaofirvine.com"
"https://www.kia.com/","Citrus KIA","1350 Woodruff Way","Ontario","CA","91761","US","212","(855) 451-7127","<MISSING>","34.04967","-117.55376","<MISSING>","http://www.citruskia.net/"
"https://www.kia.com/","Riverside KIA","8100 Auto Drive","Riverside","CA","92504","US","211","(951) 509-1000","<MISSING>","33.92711","-117.41438","<MISSING>","http://www.riversidekia.com/"
"https://www.kia.com/","Valley KIA","16272 S. Highland Blvd.","Fontana","CA","92336","US","233","(909) 350-2700","<MISSING>","34.13481","-117.45006","<MISSING>","http://www.valleykia.com"
"https://www.kia.com/","KIA of Valencia","24095 Creekside Road","Santa Clarita","CA","91355","US","316","(855) 995-7915","<MISSING>","34.42031","-118.5564","<MISSING>","http://www.kiaofvalencia.com"
"https://www.kia.com/","First KIA","2081 First Street","Simi Valley","CA","93065","US","139","(805) 306-3868","<MISSING>","34.27315","-118.77971","<MISSING>","http://www.1stkia.com"
"https://www.kia.com/","Allstar KIA","735 Showcase Drive North","San Bernardino","CA","92408","US","242","(909) 763-4740","<MISSING>","34.07343","-117.29819","<MISSING>","http://www.allstarkiasanbernardino.com"
"https://www.kia.com/","Rally KIA","438 Auto Vista Drive","Palmdale","CA","93551","US","259","(661) 349-4639","<MISSING>","34.59254","-118.13793","<MISSING>","http://www.rallykia.com"
"https://www.kia.com/","Perris Valley KIA","707 East 4th Street","Perris","CA","92570","US","137","(951) 657-7371","<MISSING>","33.782","-117.21673","<MISSING>","http://www.perrisvalleykia.com/"
"https://www.kia.com/","Dch KIA of Temecula","26799 Ynez Road","Temecula","CA","92591","US","269","(951) 699-3331","<MISSING>","33.51331","-117.15442","<MISSING>","http://www.dchkiaoftemecula.com"
"https://www.kia.com/","Valley-HI KIA","14644 Valley Center Drive","Victorville","CA","92392","US","250","(760) 955-0046","<MISSING>","34.51823","-117.31773","<MISSING>","http://www.valleyhikia.com"
"https://www.kia.com/","Ferguson KIA","1501 N. Elm Place","Broken Arrow","OK","74012","US","007","(918) 258-1800","<MISSING>","36.06809","-95.7973","<MISSING>","http://www.fergusonkia.com"
"https://www.kia.com/","Midtown KIA","4747 S. Yale Avenue","Tulsa","OK","74135","US","032","(918) 622-3160","<MISSING>","36.09271","-95.92113","<MISSING>","http://www.midtownkia.com"
"https://www.kia.com/","Classic KIA","902 Walton Drive","Texarkana","TX","75503","US","105","(903) 793-4623","<MISSING>","33.45055","-94.10165","<MISSING>","http://www.classictexarkanakia.com"
"https://www.kia.com/","Bob Utter KIA","2433 Texoma Parkway","Sherman","TX","75090","US","102","(903) 892-3555","<MISSING>","33.66513","-96.5959","<MISSING>","http://www.bobutterkia.com"
"https://www.kia.com/","Big Red KIA","418 N. Interstate Drive","Norman","OK","73072","US","024","(405) 364-4400","<MISSING>","35.22438","-97.48645","<MISSING>","http://www.bigredsports.com"
"https://www.kia.com/","Boomer KIA","339 Sw 74th Street","Oklahoma City","OK","73139","US","031","(405) 898-8800","<MISSING>","35.39335","-97.51793","<MISSING>","http://boomerkia.com"
"https://www.kia.com/","Kalidy KIA","14205 Broadway Ext.","Edmond","OK","73013","US","033","(405) 330-0009","<MISSING>","35.61577","-97.49364","<MISSING>","http://www.kalidykia.com"
"https://www.kia.com/","Huffines KIA McKinney","1201 N. Central Expressway","Mckinney","TX","75070","US","099","(469) 525-4400","<MISSING>","33.2075","-96.63944","<MISSING>","http://www.huffineskiamckinney.com/"
"https://www.kia.com/","Southwest KIA - Rw","1790 East I-30","Rockwall","TX","75087","US","103","(469) 402-2900","<MISSING>","32.9164","-96.42633","<MISSING>","http://www.southwestkia.com"
"https://www.kia.com/","Central KIA of Plano","3401 N. Central Expy","Plano","TX","75023","US","129","(972) 422-5300","<MISSING>","33.04204","-96.70307","<MISSING>","http://www.centralkia-plano.com"
"https://www.kia.com/","Huffines KIA Corinth","6940 South I-35 E","Corinth","TX","76210","US","026","(940) 321-2504","<MISSING>","33.159468","-97.071199","<MISSING>","http://www.huffineskiacorinth.com"
"https://www.kia.com/","Sparks KIA","1200 Auto Mall Drive","Monroe","LA","71203","US","027","(318) 322-1800","<MISSING>","32.50022","-92.07897","<MISSING>","http://www.sparks-kia.com"
"https://www.kia.com/","Orr KIA of Bossier","3601 Benton Road","Bossier City","LA","71111","US","051","(866) 761-7057","<MISSING>","32.56507","-93.7296","<MISSING>","http://www.orrkiabossier.com"
"https://www.kia.com/","Wilson KIA On Lakeland","4204 Lakeland Drive","Flowood","MS","39232","US","016","(601) 914-4200","<MISSING>","32.3364721","-90.0963778","<MISSING>","http://www.wilsonkia.com"
"https://www.kia.com/","Orr KIA of Shreveport Bossier","1111 E. Bert Kouns Industrial Loop","Shreveport","LA","71105","US","048","(318) 798-7350","<MISSING>","32.41658","-93.72265","<MISSING>","http://www.orrkiashreveport.com"
"https://www.kia.com/","Barnes Crossing KIA","3003 Tom Watson Drive","Saltillo","MS","38866","US","027","(662) 205-4500","<MISSING>","34.31257","-88.69859","<MISSING>","https://www.bckiaoftupelo.com/"
"https://www.kia.com/","Walker KIA","1515 Dorchester Drive","Alexandria","LA","71301","US","045","(318) 445-4122","<MISSING>","31.28124","-92.47519","<MISSING>","http://www.walkerautomotive.com"
"https://www.kia.com/","Peltier KIA Longview","2001 W. Loop 281","Longview","TX","75604","US","148","(903) 759-4667","<MISSING>","32.52119","-94.78788","<MISSING>","http://www.peltierkialongview.com"
"https://www.kia.com/","KIA of McComb","1030 Long Leaf Drive","Mccomb","MS","39648","US","017","(601) 250-1005","<MISSING>","31.26559","-90.47247","<MISSING>","http://www.kiaofmccomb.com"
"https://www.kia.com/","Rimrock KIA","4040 King Avenue","Billings","MT","59106","US","007","(888) 631-5500","<MISSING>","45.75439","-108.61936","<MISSING>","http://rimrockkia.com"
"https://www.kia.com/","Stone's KIA","1222 North Woodruff Avenue","Idaho Falls","ID","83401","US","011","(208) 524-2400","<MISSING>","43.50726","-111.99916","<MISSING>","http://www.stoneskia.net"
"https://www.kia.com/","Billion KIA of Missoula","5243 Trumpeter Court","Missoula","MT","59801","US","009","(406) 542-2277","<MISSING>","46.92004","-114.0731","<MISSING>","https://www.billionauto.com/missoula-kia"
"https://www.kia.com/","Pocatello KIA","1900 Flandro Drive","Pocatello","ID","83202","US","014","(208) 232-1062","<MISSING>","42.90966","-112.45049","<MISSING>","http://www.pocatellokia.com"
"https://www.kia.com/","White's Mountain KIA","2300 East Yellowstone Highway","Casper","WY","82601","US","004","(307) 237-2438","<MISSING>","42.85514","-106.29475","<MISSING>","http://www.whitesmountainkia.com"
"https://www.kia.com/","Wasatch Front KIA","770 W. Riverdale Road","Ogden","UT","84405","US","005","(801) 627-1300","<MISSING>","41.17987","-111.99858","<MISSING>","http://www.wasatchfrontkia.com"
"https://www.kia.com/","Young KIA","308 North Main Street","Layton","UT","84041","US","011","(801) 444-2277","<MISSING>","41.0654","-111.96974","<MISSING>","http://www.youngkia.com"
"https://www.kia.com/","Dennis Dillon KIA","9501 W. Fairview Avenue","Boise","ID","83704","US","010","(208) 388-4444","<MISSING>","43.6193351","-116.2998437","<MISSING>","http://www.dennisdillonkia.com"
"https://www.kia.com/","George Gee KIA","317 W. Dalton Ave.","Coeur D'Alene","ID","83815","US","009","(208) 667-7416","<MISSING>","47.72213","-116.7912","<MISSING>","http://www.geekia.net/"
"https://www.kia.com/","Billion KIA of Rapid City","1400 Cambell Street","Rapid City","SD","57701","US","006","(605) 342-2886","<MISSING>","44.07164","-103.19086","<MISSING>","http://www.billionkiaofrapidcity.com"
"https://www.kia.com/","Kendall KIA","5907 East Gate Blvd.","Nampa","ID","83687","US","015","(208) 467-7000","<MISSING>","43.60087","-116.51132","<MISSING>","http://www.kendallkianampa.com"
"https://www.kia.com/","George Gee KIA","21602 E. George Gee Ave.","Liberty Lake","WA","99019","US","030","(509) 210-2000","<MISSING>","47.67028","-117.1141","<MISSING>","http://www.spokanekia.com/"
"https://www.kia.com/","Jerry Seiner KIA, Salt Lake","1532 South 500 West","Salt Lake City","UT","84115","US","010","(801) 952-5850","<MISSING>","40.73735","-111.90824","<MISSING>","http://seinerkiaslc.com"
"https://www.kia.com/","Jerry Seiner KIA","10301 South Jordan Gateway","South Jordan","UT","84095","US","008","(801) 495-6950","<MISSING>","40.56066","-111.90256","<MISSING>","http://www.christopherkiasouthjordan.com/"
"https://www.kia.com/","Doug Smith KIA","501 West Main Street","American Fork","UT","84003","US","013","(801) 692-4390","<MISSING>","40.37537","-111.81174","<MISSING>","http://www.dougsmithkia.com"
"https://www.kia.com/","KIA of Cheyenne","2999 Nationway","Cheyenne","WY","82001","US","002","(307) 775-0123","<MISSING>","41.13174","-104.78012","<MISSING>","http://www.kiaofcheyenne.com"
"https://www.kia.com/","Bill Barth KIA","3334 Memorial Highway","Mandan","ND","58554","US","002","(701) 667-9999","<MISSING>","46.81756","-100.84785","<MISSING>","http://www.billbarthkia.com"
"https://www.kia.com/","Overturf KIA","1016 W. Columbia Dr.","Kennewick","WA","99336","US","013","(509) 586-3185","<MISSING>","46.21703","-119.13195","<MISSING>","http://www.overturfkia.com"
"https://www.kia.com/","Van Syckle KIA","729 Hogan Road","Bangor","ME","04401","US","003","(207) 947-4559","<MISSING>","44.83916","-68.74218","<MISSING>","http://www.vansycklekia.com"
"https://www.kia.com/","Charlie's KIA","475 Western Ave.","Augusta","ME","04330","US","001","(207) 622-7327","<MISSING>","44.32009","-69.82345","<MISSING>","http://www.charlieskia.com"
"https://www.kia.com/","Rowe KIA","707 Center Street","Auburn","ME","04210","US","007","(207) 784-2321","<MISSING>","44.12402","-70.22466","<MISSING>","http://rowekiaauburn.com"
"https://www.kia.com/","Bill Dodge KIA","3 Saunders Way","Westbrook","ME","04092","US","002","(207) 854-3200","<MISSING>","43.67409","-70.33804","<MISSING>","http://www.billdodgekia.net"
"https://www.kia.com/","Bill Dodge KIA of Saco","858 Portland Road","Saco","ME","04072","US","010","(207) 284-9190","<MISSING>","43.5388247","-70.4199758","<MISSING>","http://www.billdodgekiaofsaco.com"
"https://www.kia.com/","Berlin City KIA","485 Main Street","Gorham","NH","03581","US","006","(603) 752-6644","<MISSING>","44.41397","-71.19571","<MISSING>","http://www.berlincitykianh.com/index.htm"
"https://www.kia.com/","Dan O'Brien KIA North Hampton","137 Lafayette Road","North Hampton","NH","03862","US","017","(603) 758-3180","<MISSING>","42.98604","-70.82715","<MISSING>","http://www.danobrienkianorthhampton.com"
"https://www.kia.com/","Autoserv KIA","40 Tilton Road","Tilton","NH","03276","US","008","(603) 524-0552","<MISSING>","43.45321","-71.56342","<MISSING>","http://www.autoservkia.com"
"https://www.kia.com/","Dan O'Brien KIA","158 Manchester Street","Concord","NH","03301","US","016","(603) 227-0550","<MISSING>","43.18694","-71.50039","<MISSING>","http://www.danobrienkia.com"
"https://www.kia.com/","Commonwealth KIA","One Commonwealth Drive","Lawrence","MA","01841","US","014","(978) 687-3000","<MISSING>","42.71515","-71.13916","<MISSING>","http://www.commonwealthkia.com"
"https://www.kia.com/","Quirk KIA Manchester","1300 South Porter Street","Manchester","NH","03103","US","014","(603) 836-7600","<MISSING>","42.95981","-71.4303","<MISSING>","http://www.quirkcars.com"
"https://www.kia.com/","Pride KIA","793 Lynnway","Lynn","MA","01905","US","039","(781) 596-1010","<MISSING>","42.4486","-70.96485","<MISSING>","http://www.pridekiaoflynn.com/"
"https://www.kia.com/","Gervais KIA","6 Industrial Avenue","Lowell","MA","01851","US","026","(978) 454-1202","<MISSING>","42.61486","-71.32135","<MISSING>","http://www.gervaiskia.com"
"https://www.kia.com/","Herb Chambers KIA of Burlington","93 Cambridge Street","Burlington","MA","01803","US","044","(781) 202-3456","<MISSING>","42.49588","-71.19508","<MISSING>","http://www.herbchamberskiaofburlington.com"
"https://www.kia.com/","Nashua KIA","107 Daniel Webster Highway","Nashua","NH","03060","US","015","(603) 888-8080","<MISSING>","42.72905","-71.44909","<MISSING>","http://www.nashuakia.net"
"https://www.kia.com/","Quirk KIA","280 Quincy Avenue","Braintree","MA","02184","US","006","(781) 228-6731","<MISSING>","42.2304973","-70.9728487","<MISSING>","http://www.quirkkia.com"
"https://www.kia.com/","Cape & Islands KIA","760 Route 28","South Yarmouth","MA","02664","US","051","(508) 394-5500","<MISSING>","41.6514","-70.21979","<MISSING>","http://www.capeislandskia.com"
"https://www.kia.com/","Dan O'Brien KIA Norwood","105-107 Boston Providence Hwy","Norwood","MA","02062","US","053","(781) 762-8100","<MISSING>","42.209042","-71.185422","<MISSING>","http://www.danobrienkianorwood.com"
"https://www.kia.com/","Capitol City KIA","51 Gallison Hill Road","Montpelier","VT","05602","US","002","(802) 262-2030","<MISSING>","44.24258","-72.5436","<MISSING>","http://www.capcitykia.com"
"https://www.kia.com/","Lev KIA of Framingham","510 Cochituate Road","Framingham","MA","01701","US","042","(508) 879-5555","<MISSING>","42.30689","-71.39343","<MISSING>","http://www.levkia.com"
"https://www.kia.com/","KIA of Meridian","1219-B Highway 39 North","Meridian","MS","39301","US","005","(601) 483-6444","<MISSING>","32.3691326","-88.6779353","<MISSING>","http://www.kiaofmeridian.com/index.htm"
"https://www.kia.com/","KIA of Laurel","2018 Hwy. 15 North","Laurel","MS","39442","US","003","(601) 649-4511","<MISSING>","31.7153","-89.15028","<MISSING>","http://www.kiaoflaurelms.com"
"https://www.kia.com/","Dean McCrary KIA","603 Broadway Drive","Hattiesburg","MS","39401","US","015","(601) 544-4007","<MISSING>","31.31403","-89.31013","<MISSING>","http://kiaofhattiesburg.com/"
"https://www.kia.com/","Julio Jones KIA","4301 Greensboro Avenue","Tuscaloosa","AL","35405","US","039","(205) 345-8040","<MISSING>","33.16657","-87.54481","<MISSING>","http://www.juliojoneskia.com"
"https://www.kia.com/","Greenway KIA of The Shoals","4109 N. Jackson Highway","Sheffield","AL","35660","US","033","(256) 978-1000","<MISSING>","34.77298","-87.6693","<MISSING>","http://www.greenwaykiashoals.com"
"https://www.kia.com/","Riverchase KIA","2200 Highway 31 South","Pelham","AL","35124","US","028","(205) 987-6518","<MISSING>","33.33763","-86.79214","<MISSING>","http://www.riverchasekia.com"
"https://www.kia.com/","All Star KIA East","27700 Juban Road Building #2","Denham Springs","LA","70726","US","046","(225) 490-7970","<MISSING>","30.4546344","-90.9155136","<MISSING>","http://www.allstarkiaeast.com"
"https://www.kia.com/","Pat Peck KIA","10611 Boney Avenue","D'Iberville","MS","39540","US","019","(228) 679-5200","<MISSING>","30.44352","-88.89591","<MISSING>","http://www.peckkia.com"
"https://www.kia.com/","Serra KIA of Gardendale","630 Fieldstown Road","Gardendale","AL","35071","US","015","(205) 631-2277","<MISSING>","33.65337","-86.82536","<MISSING>","http://www.serragardendalekia.com"
"https://www.kia.com/","Lakeshore KIA","330 E. Howze Beach Road","Slidell","LA","70461","US","047","(985) 641-9595","<MISSING>","30.23752","-89.76657","<MISSING>","http://www.lakeshorekia.com"
"https://www.kia.com/","KIA of Baton Rouge","5740 Siegen Lane","Baton Rouge","LA","70809","US","001","(225) 490-8000","<MISSING>","30.39827","-91.05777","<MISSING>","http://www.allstarkiaofbatonrouge.com"
"https://www.kia.com/","Billion KIA","3015 S. Minnesota Ave.","Sioux Falls","SD","57105","US","004","(877) 245-5466","<MISSING>","43.51715","-96.73195","<MISSING>","http://www.billionkiaofsiouxfalls.com"
"https://www.kia.com/","KIA of Mankato","160 St. Andrews Drive","Mankato","MN","56001","US","016","(507) 345-4542","<MISSING>","44.17986","-93.96361","<MISSING>","http://www.kiaofmankato.com"
"https://www.kia.com/","Performance KIA","4225 Birney Avenue","Moosic","PA","18507","US","095","(570) 457-6600","<MISSING>","41.3629773","-75.7172575","<MISSING>","http://www.performancekiapa.com"
"https://www.kia.com/","Planet KIA","3007 Scranton Carbondale Highway","Blakely","PA","18447","US","101","(570) 382-3297","<MISSING>","41.4874686","-75.6082432","<MISSING>","http://www.planetkiapa.com"
"https://www.kia.com/","Abeloff KIA","1169 N. 9th Street","Stroudsburg","PA","18360","US","090","(570) 421-9900","<MISSING>","40.9873787","-75.2235523","<MISSING>","http://www.abeloffkia.com"
"https://www.kia.com/","Wyoming Valley KIA","126 Narrows Road - Route 11","Larksville","PA","18651","US","017","(570) 288-7411","<MISSING>","41.2492528","-75.9193205","<MISSING>","http://wyomingvalleykia.com"
"https://www.kia.com/","Lehighton KIA","1502 Blakeslee Blvd. Drive East","Lehighton","PA","18235","US","037","(610) 377-1570","<MISSING>","40.81438","-75.73654","<MISSING>","http://www.lehightonkia.com/"
"https://www.kia.com/","KIA of Sussex","20 Route 206","Newton","NJ","07860","US","077","(973) 383-1799","<MISSING>","41.06862","-74.74162","<MISSING>","http://www.kiaofsussex.com"
"https://www.kia.com/","Brown-Daub KIA","3600 William Penn Highway","Easton","PA","18045","US","005","(610) 253-1601","<MISSING>","40.67395","-75.26628","<MISSING>","http://www.browndaubkia.com"
"https://www.kia.com/","Motion KIA","379 Route 46 East","Hackettstown","NJ","07840","US","060","(908) 850-8200","<MISSING>","40.8544889","-74.792602","<MISSING>","http://www.motionkia.com"
"https://www.kia.com/","Allentown KIA","2340 Lehigh Street","Allentown","PA","18103","US","097","(610) 791-1900","<MISSING>","40.56991","-75.48274","<MISSING>","http://www.allentownkia.com"
"https://www.kia.com/","KIA of Middletown","4961 Route 17m","New Hampton","NY","10958","US","007","(845) 374-6555","<MISSING>","41.40815","-74.41454","<MISSING>","http://www.kiaofmiddletown.com"
"https://www.kia.com/","Gateway KIA of Denville","3101 Route 10","Denville","NJ","07834","US","068","(973) 361-0400","<MISSING>","40.86742","-74.51191","<MISSING>","http://www.kiadenvillenj.com"
"https://www.kia.com/","Gateway KIA of Quakertown","400 South West End Blvd.","Quakertown","PA","18951","US","060","(215) 538-3500","<MISSING>","40.43333","-75.35268","<MISSING>","http://www.kiaquakertown.com"
"https://www.kia.com/","Outten KIA","900 S. 4th Street","Hamburg","PA","19526","US","088","(610) 562-7577","<MISSING>","40.54315","-75.97869","<MISSING>","http://www.outtenkia.com/"
"https://www.kia.com/","Route 23 KIA","1 Windbeam Road","Riverdale","NJ","07457","US","072","(973) 839-9600","<MISSING>","40.9844","-74.30376","<MISSING>","http://www.route23kia.com"
"https://www.kia.com/","Bridgewater KIA","300 Finderne Avenue","Bridgewater","NJ","08807","US","074","(732) 469-4500","<MISSING>","40.57536","-74.5735","<MISSING>","http://bridgewaterkia.com"
"https://www.kia.com/","Matthews KIA","3013 Old Vestal Road","Vestal","NY","13850","US","073","(607) 729-6261","<MISSING>","42.10193","-76.00409","<MISSING>","http://www.matthewskiany.com"
"https://www.kia.com/","Global KIA","1099 Route 22 West","North Plainfield","NJ","07060","US","037","(908) 757-4000","<MISSING>","40.61647","-74.45534","<MISSING>","http://www.globalkia.com"
"https://www.kia.com/","Liberty KIA","815 Route 17 South","Ramsey","NJ","07446","US","073","(201) 818-8995","<MISSING>","41.06294","-74.12685","<MISSING>","http://www.libertykiaofnj.com"
"https://www.kia.com/","Savage KIA","2725 Centre Avenue","Reading","PA","19605","US","011","(610) 678-0650","<MISSING>","40.37487","-75.9329","<MISSING>","http://www.savagekia.com"
"https://www.kia.com/","Healey KIA","114 Route 17k","Newburgh","NY","12550","US","112","(845) 565-7033","<MISSING>","41.50807","-74.08168","<MISSING>","http://www.healeykia.com"
"https://www.kia.com/","Dorschel KIA","3817 W. Henrietta Road","Rochester","NY","14623","US","023","(585) 334-9440","<MISSING>","43.07748","-77.64488","<MISSING>","http://www.dorschelkia.com"
"https://www.kia.com/","Fuccillo KIA","4321 Ridge Road West","Rochester","NY","14626","US","082","(585) 720-8000","<MISSING>","43.21358","-77.74428","<MISSING>","http://www.fuccillokiagreece.com/"
"https://www.kia.com/","Vision KIA","201 East Linden Avenue","East Rochester","NY","14445","US","068","(585) 249-9000","<MISSING>","43.11935","-77.4855","<MISSING>","http://www.visionkiafairport.com"
"https://www.kia.com/","Transitowne KIA of West Seneca","3160 Transit Road","West Seneca","NY","14224","US","092","(716) 668-3700","<MISSING>","42.8537201","-78.6970949","<MISSING>","http://transitownekia.com"
"https://www.kia.com/","Vision KIA of Canandaigua","2445 Rochester Road","Canandaigua","NY","14424","US","100","(585) 394-4542","<MISSING>","42.91297","-77.29957","<MISSING>","http://www.visionkiacanandaigua.com"
"https://www.kia.com/","West-Herr KIA","3565 Southwestern Blvd.","Orchard Park","NY","14127","US","044","(716) 662-3565","<MISSING>","42.78513","-78.76319","<MISSING>","http://www.westherrkia.com"
"https://www.kia.com/","Northtown KIA","3900 Sheridan Drive","Amherst","NY","14226","US","022","(716) 217-2391","<MISSING>","42.97951","-78.78842","<MISSING>","http://northtownkia.com"
"https://www.kia.com/","Paul Brown KIA","1211 E. State Street","Olean","NY","14760","US","103","(716) 372-0080","<MISSING>","42.07389","-78.40553","<MISSING>","http://www.paulbrownkia.com"
"https://www.kia.com/","Williams KIA","951 County Road 64","Elmira","NY","14903","US","136","(607) 442-3000","<MISSING>","42.15553","-76.87146","<MISSING>","http://williamskiaofelmira.com"
"https://www.kia.com/","Maguire KIA","370 Elmira Road","Ithaca","NY","14850","US","096","(607) 257-1515","<MISSING>","42.42261","-76.51819","<MISSING>","http://www.maguirekia.com"
"https://www.kia.com/","KIA of Jamestown","1700 Washington St.","Jamestown","NY","14701","US","085","(716) 664-1222","<MISSING>","42.10776","-79.24502","<MISSING>","http://www.kiaofjamestown.com"
"https://www.kia.com/","Fuccillo KIA of Clay","3885 State Route 31","Liverpool","NY","13090","US","093","(315) 657-9000","<MISSING>","43.18623","-76.24367","<MISSING>","http://www.fuccillokiaclay.com"
"https://www.kia.com/","Burdick KIA","5885 E. Circle Drive","Cicero","NY","13039","US","021","(315) 233-5308","<MISSING>","43.1477","-76.11619","<MISSING>","http://www.burdickkia.com"
"https://www.kia.com/","KIA of East Syracuse","6717 Manilus Center Road","East Syracuse","NY","13057","US","058","(315) 701-5898","<MISSING>","43.06359","-76.05511","<MISSING>","http://www.kiaofeastsyracuse.com/"
"https://www.kia.com/","Auto Express KIA","10320 Wattsburg Road","Erie","PA","16509","US","093","(814) 825-4747","<MISSING>","42.05894","-79.92767","<MISSING>","http://www.autoexpresskia.com"
"https://www.kia.com/","Alexander KIA","2501 Lycoming Creek Road","Williamsport","PA","17701","US","058","(570) 494-0121","<MISSING>","41.27177","-77.05088","<MISSING>","http://www.alexanderkia.net"
"https://www.kia.com/","F.X. Caprara KIA","18675 Us Route 11","Watertown","NY","13601","US","138","(315) 788-5427","<MISSING>","43.93761","-75.92758","<MISSING>","http://www.fxkia.com"
"https://www.kia.com/","Cooper KIA","5056 Commercial Drive","Yorkville","NY","13495","US","030","(315) 736-6660","<MISSING>","43.10892","-75.29402","<MISSING>","http://www.cooperkia.com"
"https://www.kia.com/","Lion Country KIA","1334 Dreibelbis Street","State College","PA","16801","US","076","(814) 308-9041","<MISSING>","40.83306","-77.80988","<MISSING>","http://www.lioncountrykia.com"
"https://www.kia.com/","Geweke KIA","1234 Sunsweet Blvd.","Yuba City","CA","95991","US","085","5306346161","<MISSING>","39.13534","-121.63378","<MISSING>","http://www.gewekekia.com"
"https://www.kia.com/","Hanlees KIA","4318 Chiles Road","Davis","CA","95618","US","300","5307573770","<MISSING>","38.55082","-121.69876","<MISSING>","http://hanleesdaviskia.com"
"https://www.kia.com/","John L. Sullivan's Roseville KIA","110 Automall Drive","Roseville","CA","95661","US","301","8665225150","<MISSING>","38.75224","-121.26037","<MISSING>","http://rosevillekia.com"
"https://www.kia.com/","KIA of Vacaville","651 Orange Drive","Vacaville","CA","95687","US","305","7073596400","<MISSING>","38.38027","-121.94277","<MISSING>","http://www.kiavacaville.com"
"https://www.kia.com/","Jim Bone KIA of Santa Rosa","1255 Santa Rosa Avenue","Santa Rosa","CA","95404","US","258","7075457050","<MISSING>","38.42629","-122.71424","<MISSING>","http://www.jimbonekia.com"
"https://www.kia.com/","Folsom Lake KIA","12751 Folsom Blvd.","Folsom","CA","95630","US","202","9163532121","<MISSING>","38.6374","-121.20025","<MISSING>","http://folsomlakekia.com"
"https://www.kia.com/","Elk Grove KIA","8480 Laguna Grove Drive","Elk Grove","CA","95757","US","292","9167531000","<MISSING>","38.40564","-121.39115","<MISSING>","http://www.elkgrovekia.com"
"https://www.kia.com/","KIA of Marin","105 Vintage Way","Novato","CA","94945","US","235","4158953211","<MISSING>","38.09336","-122.55585","<MISSING>","http://www.kiamarin.com"
"https://www.kia.com/","Michael Stead's Hilltop KIA","3280 Auto Plaza","Richmond","CA","94806","US","234","5102224444","<MISSING>","37.9848","-122.32045","<MISSING>","http://www.hilltopkia.com"
"https://www.kia.com/","Redding KIA","418 E. Cypress Ave.","Redding","CA","96002","US","206","5302260418","<MISSING>","40.57138","-122.36429","<MISSING>","http://www.reddingkia.com"
"https://www.kia.com/","Concord KIA","2199 Meridian Park Blvd.","Concord","CA","94520","US","267","9256827100","<MISSING>","37.97707","-122.05813","<MISSING>","http://www.concordkia.com"
"https://www.kia.com/","KIA of Stockton","6215 Holman Road","Stockton","CA","95212","US","281","2098517111","<MISSING>","38.01678","-121.27145","<MISSING>","http://www.stocktonkia.com"
"https://www.kia.com/","Oakland KIA","2424 Webster Street","Oakland","CA","94612","US","282","5102670688","<MISSING>","37.8138","-122.26446","<MISSING>","http://www.oaklandkia.com"
"https://www.kia.com/","San Leandro KIA","1066 Marina Blvd.","San Leandro","CA","94577","US","314","5103473000","<MISSING>","37.71292","-122.16141","<MISSING>","http://www.sanleandrokia.com"
"https://www.kia.com/","KIA Country","1515 N. Main Street.","Manteca","CA","95336","US","080","2092396203","<MISSING>","37.819","-121.21791","<MISSING>","http://www.kiacountry.com"
"https://www.kia.com/","Winn KIA of Fremont","5633 John Muir Drive","Newark","CA","94560","US","309","5107711500","<MISSING>","37.52433","-121.99408","<MISSING>","http://www.winnkiaoffremont.com"
"https://www.kia.com/","Valley KIA","4369 Mchenry Avenue","Modesto","CA","95356","US","291","2092321542","<MISSING>","37.70322","-120.99481","<MISSING>","http://www.valleykiaofmodesto.com"
"https://www.kia.com/","Tom Dolan's Reno KIA","9455 South Virginia Street","Reno","NV","89511","US","010","7758289666","<MISSING>","39.44469","-119.77505","<MISSING>","http://www.dolanrenokia.com"
"https://www.kia.com/","Stevens Creek KIA","3566 Stevens Creek Blvd.","San Jose","CA","95117","US","278","4085331500","<MISSING>","37.32187","-121.96238","<MISSING>","http://www.stevenscreekkia.com/index.htm"
"https://www.kia.com/","Capitol KIA","755 Capitol Expressway","San Jose","CA","95136","US","261","4082665900","<MISSING>","37.27611","-121.86832","<MISSING>","http://www.capitolkia.com"
"https://www.kia.com/","Hometown KIA","111 Midtown Avenue","Mount Hope","WV","25880","US","011","3042551406","<MISSING>","37.8382222","-81.1945134","<MISSING>","http://www.hometownkia.com/"
"https://www.kia.com/","Dutch Miller KIA","335 Maccorkle Avenue","South Charleston","WV","25303","US","016","3043437700","<MISSING>","38.243","-81.56594","<MISSING>","http://www.dutchmillerkiaofcharleston.com"
"https://www.kia.com/","Bruce Walters Ford L/M KIA","302 S. Mayo Trail","Pikeville","KY","41501","US","014","6064379641","<MISSING>","37.46901","-82.53457","<MISSING>","http://www.brucewalterskia.com"
"https://www.kia.com/","Cole KIA","Route 460 West Green Valley","Bluefield","WV","24701","US","013","3043270511","<MISSING>","37.255","-81.19794","<MISSING>","http://www.colekia.com"
"https://www.kia.com/","Dutch Miller KIA","6400 Route 60 East","Barboursville","WV","25504","US","005","3047362600","<MISSING>","38.41535","-82.30114","<MISSING>","http://dutchmillerkia.com"
"https://www.kia.com/","Wallace KIA of Bristol","320 Volunteer Parkway","Bristol","TN","37620","US","034","4237641145","<MISSING>","36.59081","-82.18776","<MISSING>","http://www.wallacekiaofbristol.com"
"https://www.kia.com/","Chantz Scott KIA","929 East Stone Drive","Kingsport","TN","37660","US","043","4232304542","<MISSING>","36.55557","-82.53694","<MISSING>","http://www.chantzscottkia.com"
"https://www.kia.com/","Motor Mile KIA","2260 Roanoke Street","Christiansburg","VA","24073","US","044","5403822981","<MISSING>","37.13663","-80.36517","<MISSING>","http://www.motormilekia.com"
"https://www.kia.com/","Grindstaff KIA","3608 Bristol Highway","Johnson City","TN","37601","US","010","4232624200","<MISSING>","36.37617","-82.37002","<MISSING>","http://www.grindstaffkia.com"
"https://www.kia.com/","Hart KIA","1361 E. Main St.","Salem","VA","24153","US","007","5403892364","<MISSING>","37.29817","-80.0325","<MISSING>","http://www.hartkia.com"
"https://www.kia.com/","Warner KIA","501 Seventh Street","Parkersburg","WV","26101","US","003","3044223502","<MISSING>","39.26505","-81.55596","<MISSING>","http://www.warnerkia.com"
"https://www.kia.com/","Nelson KIA","4730 Virginia Ave.","Bassett","VA","24055","US","047","2766471775","<MISSING>","36.74037","-79.93144","<MISSING>","http://www.autosbynelson.com"
"https://www.kia.com/","Herrnstein KIA","133 Marietta Road","Chillicothe","OH","45601","US","067","7407732220","<MISSING>","39.35167","-82.9721","<MISSING>","http://www.herrnsteinkia.com"
"https://www.kia.com/","Rusty Wallace KIA Morristown","300 King Avenue","Morristown","TN","37814","US","037","4235861441","<MISSING>","36.2219","-83.28055","<MISSING>","http://www.rustywallacekiamorristown.com"
"https://www.kia.com/","Freedom KIA of Clarksburg","97 Joy Lane","Bridgeport","WV","26330","US","014","3045667830","<MISSING>","39.336117","-80.2201303","<MISSING>","http://www.freedomkiaofclarksburg.com"
"https://www.kia.com/","Paramount KIA","1205 South Center Street","Hickory","NC","28602","US","004","8283284012","<MISSING>","35.7141","-81.33671","<MISSING>","http://www.paramountkia.com"
"https://www.kia.com/","Bob King KIA","1725 Link Road","Winston-Salem","NC","27103","US","009","3367243866","<MISSING>","36.07134","-80.26241","<MISSING>","http://www.bobkingkia.com"
"https://www.kia.com/","Tri-City KIA","833 South Van Buren Rd","Eden","NC","27288","US","028","3366232186","<MISSING>","36.48326","-79.74011","<MISSING>","http://www.tricitykia.com"
"https://www.kia.com/","Matt Taylor KIA","2784 N. Columbus Street","Lancaster","OH","43130","US","075","7404153130","<MISSING>","39.74482","-82.64518","<MISSING>","http://www.matttaylorkia.com"
"https://www.kia.com/","KIA of Lynchburg","3400 Old Forest Road","Lynchburg","VA","24501","US","042","4348473292","<MISSING>","37.40956","-79.21558","<MISSING>","http://www.kiaoflynchburg.com"
"https://www.kia.com/","Alan Jay KIA","401 Us 27 South","Sebring","FL","33870","US","068","8634024230","<MISSING>","27.47839","-81.47678","<MISSING>","http://www.alanjaykia.com"
"https://www.kia.com/","Dyer KIA","23280 U.S. Highway 27","Lake Wales","FL","33859","US","137","8669231210","<MISSING>","27.9498207","-81.6184566","<MISSING>","http://www.dyerkialakewales.com"
"https://www.kia.com/","Regal KIA","1025 Hwy 98 S","Lakeland","FL","33801","US","113","8639041170","<MISSING>","28.03095","-81.9336","<MISSING>","https://regalkia.com/"
"https://www.kia.com/","Fuccillo KIA of Port Charlotte","202 Tamiami Trail","Port Charlotte","FL","33953","US","125","9412496171","<MISSING>","27.02827","-82.19742","<MISSING>","http://www.kiaofportcharlotte.com"
"https://www.kia.com/","Courtesy KIA of Brandon","9205 E. Adamo Drive","Tampa","FL","33619","US","056","8136215757","<MISSING>","27.94888","-82.35223","<MISSING>","http://www.brandonkia.com"
"https://www.kia.com/","City KIA of Greater Orlando","9550 S. Orange Blossom Trail","Orlando","FL","32837","US","112","4078391000","<MISSING>","28.41936","-81.40536","<MISSING>","http://www.citykia.com"
"https://www.kia.com/","Boniface-Hiers KIA","880 S. Apollo Blvd.","Melbourne","FL","32901","US","021","3219519595","<MISSING>","28.0947671","-80.6179971","<MISSING>","http://www.bonifacehierskia.com"
"https://www.kia.com/","Fuccillo KIA of Cape Coral","404 N.E. Pine Island Road","Cape Coral","FL","33909","US","117","2392427000","<MISSING>","26.65474","-81.96645","<MISSING>","http://www.fuccillokiacapecoral.com"
"https://www.kia.com/","KIA of Vero Beach","1105 U.S. Highway 1 South","Vero Beach","FL","32962","US","076","7725698000","<MISSING>","27.58251","-80.37744","<MISSING>","http://www.kiaofverobeach.com"
"https://www.kia.com/","Sunset KIA of Venice","1179 Us Highway 41 Bypass S.","Venice","FL","34285","US","074","9414120515","<MISSING>","27.08585","-82.42766","<MISSING>","http://www.sunsetkiavenice.com/"
"https://www.kia.com/","Sunset KIA of Sarasota","7777 S. Tamiami Trail","Sarasota","FL","34231","US","123","9413087707","<MISSING>","27.24072","-82.50476","<MISSING>","http://www.sunsetkiasarasota.com/"
"https://www.kia.com/","Gettel KIA of Bradenton","6423 14th St West","Bradenton","FL","34207","US","153","9414175210","<MISSING>","27.42662","-82.57463","<MISSING>","http://www.gettelkiaofbradenton.com"
"https://www.kia.com/","Bev Smith KIA","5655 U.S. Highway One","Fort Pierce","FL","34982","US","093","7724658589","<MISSING>","27.36276","-80.32653","<MISSING>","http://www.bevsmithkia.net"
"https://www.kia.com/","Galeana KIA","14483 S. Tamiami Trail","Ft. Myers","FL","33912","US","019","2394378300","<MISSING>","26.53254","-81.86942","<MISSING>","http://www.galeanakia.com"
"https://www.kia.com/","Cocoa KIA","3660 West King Street","Cocoa","FL","32926","US","146","3214528282","<MISSING>","28.3576","-80.78086","<MISSING>","http://www.cocoakia.com"
"https://www.kia.com/","Greenway KIA West","3407 West Colonial Drive","Orlando","FL","32808","US","083","4075322217","<MISSING>","28.55321","-81.41869","<MISSING>","http://www.greenwaykiawest.com"
"https://www.kia.com/","Century KIA","4340 W. Hillsborough Ave.","Tampa","FL","33614","US","010","8138720210","<MISSING>","27.99487","-82.51569","<MISSING>","http://www.centurykia.com"
"https://www.kia.com/","Greenway KIA East","8701 E. Colonial Drive","Orlando","FL","32817","US","106","4076781717","<MISSING>","28.56904","-81.26936","<MISSING>","http://www.greenwaykiaeast.com"
"https://www.kia.com/","KIA of Wesley Chapel","28555 State Road 54","Wesley Chapel","FL","33543","US","154","8447467657","<MISSING>","28.23908","-82.34334","<MISSING>","http://www.kiaofwesleychapel.com"
"https://www.kia.com/","Crown KIA","5500 34th Street North","St. Petersburg","FL","33714","US","060","7275255785","<MISSING>","27.82242","-82.68001","<MISSING>","http://www.crownkia.com"
"https://www.kia.com/","Dennis Eakin KIA","5200 E. Central Tx Expressway","Killeen","TX","76543","US","021","2546992909","<MISSING>","31.07538","-97.68947","<MISSING>","http://www.killeenkia.com"
"https://www.kia.com/","Southwest KIA Rr","600 Jeffrey Way","Round Rock","TX","78665","US","125","8882260114","<MISSING>","30.54078","-97.6911","<MISSING>","http://www.southwestkia.com"
"https://www.kia.com/","Southwest KIA Au","13175 N. Us Highway 183","Austin","TX","78750","US","072","5125831900","<MISSING>","30.44138","-97.78135","<MISSING>","http://www.southwestkia.com"
"https://www.kia.com/","University KIA","2718 Lasalle Avenue","Waco","TX","76706","US","143","2546623610","<MISSING>","31.5217","-97.13367","<MISSING>","http://www.university-kia.com"
"https://www.kia.com/","KIA of South Austin","5306 South Ih-35","Austin","TX","78745","US","132","5123547596","<MISSING>","30.20273","-97.76191","<MISSING>","http://www.kiaofsouthaustin.com"
"https://www.kia.com/","Sterling KIA","197 N. Earl Rudder Freeway","Bryan","TX","77802","US","116","9798460607","<MISSING>","30.64879","-96.3176","<MISSING>","http://kia.sterlingautogroup.net/"
"https://www.kia.com/","Van Griffith KIA","4301 Highway 377 East","Granbury","TX","76049","US","073","8175730400","<MISSING>","32.4589","-97.72102","<MISSING>","http://www.vgkia.com"
"https://www.kia.com/","World Car KIA New Braunfels","3363 Ih 35 South","New Braunfels","TX","78132","US","041","8306064200","<MISSING>","29.67162","-98.15579","<MISSING>","http://www.worldcarkiaonline.com/"
"https://www.kia.com/","World Car KIA North","12115 Ih 35 North","San Antonio","TX","78233","US","055","2106509969","<MISSING>","29.55131","-98.36071","<MISSING>","http://www.worldcarkianorth.com"
"https://www.kia.com/","Moritz KIA","8501 I-30 West Freeway","Fort Worth","TX","76116","US","071","8175606000","<MISSING>","32.73707","-97.46543","<MISSING>","http://www.moritzkiafw.com"
"https://www.kia.com/","Vanguard KIA of Arlington","1501 E. Interstate 20","Arlington","TX","76018","US","146","8173752700","<MISSING>","32.67917","-97.08768","<MISSING>","http://www.vanguardkia.com"
"https://www.kia.com/","World Car KIA","4220 Fredericksburg Road","San Antonio","TX","78201","US","093","2107356000","<MISSING>","29.48682","-98.54715","<MISSING>","http://www.kiaworldcar.com"
"https://www.kia.com/","Ancira KIA","6139 Bandera Road","San Antonio","TX","78238","US","002","2106844000","<MISSING>","29.48723","-98.60689","<MISSING>","http://www.ancirakiasa.com"
"https://www.kia.com/","Southwest KIA","39650 Lbj Freeway South","Dallas","TX","75237","US","056","8882260114","<MISSING>","32.64388","-96.85927","<MISSING>","http://www.southwestkia.com"
"https://www.kia.com/","Moritz KIA of Hurst","110 Ne Loop 820","Hurst","TX","76053","US","104","8175958200","<MISSING>","32.81009","-97.20828","<MISSING>","http://www.moritzkiahurst.com/"
"https://www.kia.com/","World Car KIA","7915 Ih-35 South","San Antonio","TX","78224","US","032","2102546000","<MISSING>","29.34979","-98.53875","<MISSING>","http://www.worldcarkiasouth.com/"
"https://www.kia.com/","Moritz KIA of Alliance","11210 North Freeway","Fort Worth","TX","76177","US","126","8174828000","<MISSING>","32.9376296","-97.3134657","<MISSING>","http://www.moritzkiaalliance.com"
"https://www.kia.com/","Clay Cooley KIA","1247 East Airport Freeway","Irving","TX","75062","US","138","9726592204","<MISSING>","32.83763","-96.93079","<MISSING>","http://www.claycooleykia.com"
"https://www.kia.com/","Southwest KIA-Nw","1919 Oates Drive","Mesquite","TX","75150","US","097","2146942800","<MISSING>","32.83839","-96.63131","<MISSING>","http://www.southwestkia.com"
"https://www.kia.com/","Classic KIA of Carrollton","2920 North I-35 East","Carrollton","TX","75007","US","140","8886901541","<MISSING>","32.99113","-96.94038","<MISSING>","http://www.classickiacarrollton.com"
"https://www.kia.com/","Cowboy KIA of Conroe","443 I-45 South","Conroe","TX","77301","US","090","9364940600","<MISSING>","30.30142","-95.4661","<MISSING>","http://www.cowboykiaconroe.com"
"https://www.kia.com/","Parkway Family KIA","22555 Highway 59 North","Kingwood","TX","77339","US","117","2813126200","<MISSING>","30.03832","-95.25638","<MISSING>","http://www.parkwayfamilykia.com"
"https://www.kia.com/","Beck & Masten KIA","25503 State Highway 249","Tomball","TX","77375","US","107","2815391111","<MISSING>","30.04749","-95.61396","<MISSING>","http://www.beckmastenkia.com"
"https://www.kia.com/","Demontrond KIA","14101 North Freeway","Houston","TX","77090","US","022","2818727200","<MISSING>","29.9703","-95.42272","<MISSING>","http://www.demontrondkia.com"
"https://www.kia.com/","Premier KIA","1705 South 1st Street","Lufkin","TX","75901","US","137","9366395588","<MISSING>","31.31665","-94.72759","<MISSING>","http://www.premierkiatx.com"
"https://www.kia.com/","Joe Myers KIA","16484 Northwest Freeway","Houston","TX","77040","US","010","7139377800","<MISSING>","29.88139","-95.56958","<MISSING>","http://www.joemyerskia.com"
"https://www.kia.com/","Community KIA","4221 I-10 East","Baytown","TX","77521","US","098","2814213737","<MISSING>","29.8036","-94.99563","<MISSING>","http://www.communitykia.com"
"https://www.kia.com/","Westside KIA","23001 Katy Freeway","Katy","TX","77450","US","079","2813923200","<MISSING>","29.78376","-95.7709","<MISSING>","http://www.westsidekia.com"
"https://www.kia.com/","Archer KIA","11614 Southwest Freeway","Houston","TX","77031","US","106","2815307500","<MISSING>","29.65324","-95.56817","<MISSING>","http://www.archerkia.com"
"https://www.kia.com/","Fredy KIA","11711 Gulf Freeway","Houston","TX","77034","US","108","7139413600","<MISSING>","29.62746","-95.22772","<MISSING>","http://www.fredykia.com"
"https://www.kia.com/","Happy KIA","1565 Highway 96 Bypass","Silsbee","TX","77656","US","145","4092026602","<MISSING>","30.334303","-94.154207","<MISSING>","http://www.silsbeekia.com"
"https://www.kia.com/","Classic KIA","3875 Eastex Freeway","Beaumont","TX","77706","US","083","4098965050","<MISSING>","30.1154063","-94.1442642","<MISSING>","http://www.classickia.com"
"https://www.kia.com/","Fort Bend KIA","26633 Southwest Freeway","Rosenberg","TX","77471","US","124","2812391000","<MISSING>","29.53227","-95.78714","<MISSING>","http://www.fortbendkia.com"
"https://www.kia.com/","Gay Family KIA","3001 Gulf Freeway","Dickinson","TX","77539","US","114","2813373333","<MISSING>","29.45548","-95.08095","<MISSING>","http://www.gayfamilykia.com"
"https://www.kia.com/","Peltier KIA Tyler","4818 Troup Highway","Tyler","TX","75703","US","147","9035817688","<MISSING>","32.299","-95.26491","<MISSING>","http://www.peltierkiatyler.com"
"https://www.kia.com/","KIA of Lake Charles","1900 Siebarth Drive","Lake Charles","LA","70615","US","043","3374379995","<MISSING>","30.21424","-93.17132","<MISSING>","http://www.kiaoflakecharles.com"
"https://www.kia.com/","Bergstrom KIA 116","3325 S. Washburn Street","Oshkosh","WI","54904","US","029","9202304848","<MISSING>","43.97751","-88.58363","<MISSING>","http://www.bergstromkiaoshkosh.com/"
"https://www.kia.com/","Bergstrom KIA Appleton","2445 W. College Avenue","Appleton","WI","54914","US","030","9209933000","<MISSING>","44.26068","-88.4451","<MISSING>","http://www.bergstromkiaappleton.com"
"https://www.kia.com/","Kocourek KIA","2700 North 20th Avenue","Wausau","WI","54401","US","025","7152987283","<MISSING>","44.99705","-89.66199","<MISSING>","http://www.kocourekkia.com"
"https://www.kia.com/","Metro KIA of Madison","5442 Wayne Terrace","Madison","WI","53718","US","028","6084435700","<MISSING>","43.1439","-89.28456","<MISSING>","http://www.metrokiaofmadison.com"
"https://www.kia.com/","Dorsch KIA","2641 Eaton Road","Green Bay","WI","54311","US","010","9204693000","<MISSING>","44.46589","-87.95168","<MISSING>","http://www.dorschkia.com"
"https://www.kia.com/","Russ Darrow Madison KIA","6525 Odana Road","Madison","WI","53719","US","016","6082757700","<MISSING>","43.05418","-89.49379","<MISSING>","http://www.russdarrowmadison.com"
"https://www.kia.com/","Brenengen KIA","1440 Heritage Blvd.","West Salem","WI","54669","US","020","6087864511","<MISSING>","43.89857","-91.10471","<MISSING>","https://www.brenengenkia.com/"
"https://www.kia.com/","Ewald KIA of Oconomowoc","36883 East Wisconsin Ave.","Oconomowoc","WI","53066","US","003","2625696500","<MISSING>","43.10621","-88.47666","<MISSING>","http://www.ewaldkia.com"
"https://www.kia.com/","Dick Brantmeier KIA","3624 Kohler Memorial Drive","Sheboygan","WI","53081","US","023","9204586111","<MISSING>","43.75652","-87.75522","<MISSING>","http://www.dickbrantmeierkia.com"
"https://www.kia.com/","Russ Darrow KIA Waukesha","2141 E. Moreland Blvd.","Waukesha","WI","53186","US","019","2625471761","<MISSING>","43.02708","-88.18677","<MISSING>","http://www.kiaofwaukesha.com"
"https://www.kia.com/","Prestige KIA","3525 Highway 93","Eau Claire","WI","54701","US","014","7158330177","<MISSING>","44.78064","-91.45928","<MISSING>","http://www.prestigekia.com"
"https://www.kia.com/","Janesville KIA","3419 Ryan Road","Janesville","WI","53545","US","031","6087439600","<MISSING>","42.72348","-88.99198","<MISSING>","http://www.kiaofjanesville.com"
"https://www.kia.com/","Russ Darrow KIA of Wauwatosa","1901 N. Mayfair Road","Wauwatosa","WI","53226","US","022","4147785700","<MISSING>","43.05483","-88.04879","<MISSING>","http://www.russdarrowwauwatosa.com"
"https://www.kia.com/","Lupient KIA Milwaukee","6030 N. Green Bay Avenue","Glendale","WI","53209","US","033","4143513000","<MISSING>","43.12654","-87.93378","<MISSING>","http://www.lupientkiamilwaukee.com"
"https://www.kia.com/","Rosen KIA","5565 S. 27th Street","Milwaukee","WI","53221","US","032","4142829300","<MISSING>","42.9433919","-87.9493549","<MISSING>","http://www.kiamilwaukee.com"
"https://www.kia.com/","Frank Boucher KIA","9601 Washington Ave.","Racine","WI","53406","US","006","2628862886","<MISSING>","42.71899","-87.90351","<MISSING>","http://www.boucherkia.com"
"https://www.kia.com/","Finnin KIA","4355 Dodge Street","Dubuque","IA","52003","US","013","5635838825","<MISSING>","42.48838","-90.74029","<MISSING>","http://www.finnin-kia.com/"
"https://www.kia.com/","Palmen KIA of Kenosha","5301 75th Street","Kenosha","WI","53142","US","008","2626973100","<MISSING>","42.56599","-87.87165","<MISSING>","http://www.palmenkia.com"
"https://www.kia.com/","Laurel KIA","14921 Baltimore Avenue","Laurel","MD","20707","US","025","3016041339","<MISSING>","39.09496","-76.85233","<MISSING>","http://www.laurelkia.com"
"https://www.kia.com/","KIA of Bowie","16620 Governor Bridge Road","Bowie","MD","20716","US","048","3018207500","<MISSING>","38.95018","-76.71697","<MISSING>","http://www.kiaofbowie.com"
"https://www.kia.com/","Darcars KIA of Lanham","9020 Lanham Severn Road","Lanham","MD","20706","US","008","3014591100","<MISSING>","38.96308","-76.86158","<MISSING>","http://www.darcarslanhamkia.com/index.htm"
"https://www.kia.com/","Bob Bell KIA of Essex","7900 Eastern Avenue","Baltimore","MD","21224","US","038","4102882500","<MISSING>","39.29664","-76.50897","<MISSING>","http://bobbellkiaessex.com"
"https://www.kia.com/","Nationwide KIA","1600 York Road","Lutherville","MD","21093","US","004","4105619000","<MISSING>","39.42391","-76.61885","<MISSING>","http://www.nationwide-kia.com/"
"https://www.kia.com/","Darcars KIA","4700 Branch Ave.","Temple Hills","MD","20748","US","002","3016307000","<MISSING>","38.82692","-76.9257","<MISSING>","http://www.darcarskiaoftemplehills.com/index.htm"
"https://www.kia.com/","Herson's KIA","15531 Frederick Road","Rockville","MD","20855","US","047","3013403100","<MISSING>","39.11103","-77.15968","<MISSING>","http://www.hersonskia.com"
"https://www.kia.com/","King KIA","953 N. Frederick Ave.","Gaithersburg","MD","20879","US","032","3019483333","<MISSING>","39.15887","-77.21754","<MISSING>","http://www.kingautokia.com/"
"https://www.kia.com/","Jones KIA","2001 Bel Air Road","Fallston","MD","21047","US","051","4108771700","<MISSING>","39.49623","-76.38817","<MISSING>","http://www.joneskia.com/"
"https://www.kia.com/","Beyer KIA Falls Church","1125 West Broad Street","Falls Church","VA","22046","US","049","7032375000","<MISSING>","38.89358","-77.18929","<MISSING>","http://www.beyerkiafallschurch.com"
"https://www.kia.com/","Buchanan KIA","119 Railroad Ave.","Westminster","MD","21157","US","049","4108762251","<MISSING>","39.57785","-76.99122","<MISSING>","http://www.buchanankia.com"
"https://www.kia.com/","Bayside KIA of Waldorf","3188 Crain Highway","Waldorf","MD","20603","US","042","3016451711","<MISSING>","38.62399","-76.91188","<MISSING>","http://www.kiaofwaldorf.com"
"https://www.kia.com/","Fairfax KIA","10595 Warwick Avenue","Fairfax","VA","22030","US","055","7039348877","<MISSING>","38.85642","-77.31102","<MISSING>","http://www.fairfaxkia.com"
"https://www.kia.com/","Darcars KIA of Frederick","5826 Urbana Pike","Frederick","MD","21704","US","058","3016961200","<MISSING>","39.3927","-77.40633","<MISSING>","http://www.darcars.com"
"https://www.kia.com/","Hertrich KIA of Easton","6546 Ocean Gateway","Easton","MD","21601","US","055","4108227717","<MISSING>","38.72845","-76.06836","<MISSING>","http://www.hertrichkia.com"
"https://www.kia.com/","Ourisman Chantilly KIA","4105 Auto Park Circle","Chantilly","VA","20151","US","051","7032632500","<MISSING>","38.90332","-77.45884","<MISSING>","http://www.ourismankia.net/"
"https://www.kia.com/","Koons KIA","14208 Jefferson Davis Highway","Woodbridge","VA","22191","US","052","7034943333","<MISSING>","38.6442653","-77.2650933","<MISSING>","http://www.koonskia.com"
"https://www.kia.com/","Dulles KIA","107 Catoctin Circle, Se","Leesburg","VA","20175","US","013","7037777077","<MISSING>","39.10652","-77.56131","<MISSING>","http://www.dulleskia.com"
"https://www.kia.com/","Brown's Manassas KIA","9030 Liberia Avenue","Manassas","VA","20110","US","058","7033318080","<MISSING>","38.75923","-77.45699","<MISSING>","http://www.brownsmanassaskia.com"
"https://www.kia.com/","Renn Kirby KIA","85 V Twin Drive","Gettysburg","PA","17325","US","102","7173340126","<MISSING>","39.84562","-77.18474","<MISSING>","http://www.rennkirbykia.com"
"https://www.kia.com/","KIA of Fargo","3901 2nd Avenue Sw","Fargo","ND","58103","US","003","7012819165","<MISSING>","46.87794","-96.80229","<MISSING>","http://www.kiaoffargo.com"
"https://www.kia.com/","KIA of St. Cloud","901 2nd Street South","Waite Park","MN","56387","US","012","3202594542","<MISSING>","45.55008","-94.22792","<MISSING>","http://www.kiaofstcloud.com"
"https://www.kia.com/","Cornerstone KIA","17094 Vance Street Nw","Elk River","MN","55330","US","015","7637108300","<MISSING>","45.28087","-93.54792","<MISSING>","http://cornerstonekia.com"
"https://www.kia.com/","Jeff Belzer's KIA","21111 Cedar Avenue","Lakeville","MN","55044","US","010","9524694444","<MISSING>","44.64237","-93.2194","<MISSING>","http://www.jeffbelzerkia.com"
"https://www.kia.com/","Luther KIA of Bloomington","1701 American Blvd.","Bloomington","MN","55431","US","014","9522588400","<MISSING>","44.85827","-93.30104","<MISSING>","http://www.lutherkiaofbloomington.com"
"https://www.kia.com/","Lupient KIA","7911 Lakeland Avenue North","Brooklyn Park","MN","55445","US","003","7634249100","<MISSING>","45.0985","-93.38617","<MISSING>","http://www.lupientkia.com/"
"https://www.kia.com/","Luther KIA","1470 50th Street","Inver Grove Heights","MN","55077","US","005","6514575757","<MISSING>","44.87733","-93.07671","<MISSING>","http://lutherkiamn.com"
"https://www.kia.com/","Barnett KIA","3610 Highway 61","White Bear Lake","MN","55110","US","001","6514293391","<MISSING>","45.05163","-93.03445","<MISSING>","http://www.barnettkia.com"
"https://www.kia.com/","Tom Kadlec KIA","4444 Highway 52 North","Rochester","MN","55901","US","017","5072812222","<MISSING>","44.06875","-92.50067","<MISSING>","http://www.tomkadleckia.com"
"https://www.kia.com/","Grand Forks KIA","2400 Gateway Drive","Grand Forks","ND","58203","US","001","7017464335","<MISSING>","47.9337","-97.06241","<MISSING>","http://www.grandforkskia.com"
"https://www.kia.com/","Serra KIA","12300 30 Mile Road","Washington","MI","48095","US","033","5862812801","<MISSING>","42.77061","-83.01151","<MISSING>","http://www.driveserrakia.com"
"https://www.kia.com/","Thelen KIA","4191 N. Euclid Ave.","Bay City","MI","48706","US","014","9896867100","<MISSING>","43.61876","-83.91373","<MISSING>","http://www.thelenkia.com"
"https://www.kia.com/","KIA of Grand Blanc","6201 S. Saginaw Street","Grand Blanc","MI","48439","US","026","8106945440","<MISSING>","42.9404474","-83.6453389","<MISSING>","http://www.kiaofgrandblanc.com"
"https://www.kia.com/","Summit Place KIA East","44900 Gratiot Avenue","Clinton Township","MI","48036","US","036","5864631521","<MISSING>","42.62879","-82.86128","<MISSING>","http://www.summitplacekia.com"
"https://www.kia.com/","Summit Place KIA","4200 Interpark Drive","Auburn Hills","MI","48326","US","024","2486826002","<MISSING>","42.7054","-83.24154","<MISSING>","http://www.summitplacekiaauburnhills.com"
"https://www.kia.com/","McDonald KIA","5355 State Street","Saginaw","MI","48603","US","038","9897992277","<MISSING>","43.43615","-84.02187","<MISSING>","http://www.mcdonaldkia.com"
"https://www.kia.com/","Jeffrey KIA","30800 Gratiot Avenue","Roseville","MI","48066","US","002","5862961300","<MISSING>","42.5235559","-82.9190991","<MISSING>","http://www.jeffreykia.com"
"https://www.kia.com/","Glassman KIA","28000 Telegraph Road","Southfield","MI","48034","US","001","2483543300","<MISSING>","42.49397","-83.28337","<MISSING>","http://www.glassmankia.com"
"https://www.kia.com/","Feldman KIA","42235 Grand River Avenue","Novi","MI","48375","US","031","2484783800","<MISSING>","42.47749","-83.46338","<MISSING>","http://www.feldmankia.com/"
"https://www.kia.com/","Lafontaine KIA","2027 S. Telegraph Rd.","Dearborn","MI","48124","US","012","3135616600","<MISSING>","42.29661","-83.27053","<MISSING>","http://www.lafontainekia.com"
"https://www.kia.com/","KIA of Canton","41840 Michigan Avenue","Canton","MI","48188","US","047","7343979900","<MISSING>","42.27851","-83.45222","<MISSING>","http://www.kiaofcanton.com"
"https://www.kia.com/","Lafontaine KIA of Ann Arbor","82 Aprill Drive","Ann Arbor","MI","48103","US","044","7342497700","<MISSING>","42.28386","-83.80775","<MISSING>","http://www.lafontainekiaannarbor.com"
"https://www.kia.com/","KIA of Lansing","5737 S. Pennsylvania Avenue","Lansing","MI","48911","US","023","5173935700","<MISSING>","42.674","-84.53714","<MISSING>","http://www.kiaoflansing.com"
"https://www.kia.com/","KIA of Jackson","3500 Page Avenue","Jackson","MI","49203","US","030","5177644500","<MISSING>","42.24104","-84.35425","<MISSING>","http://www.kiaofjackson.com/"
"https://www.kia.com/","Taylor KIA","6300 W. Central Avenue","Toledo","OH","43615","US","025","4198428811","<MISSING>","41.67695","-83.69286","<MISSING>","http://www.taylorkiatoledo.com"
"https://www.kia.com/","Mentor KIA","9090 Mentor Ave.","Mentor","OH","44060","US","051","4409531000","<MISSING>","41.67495","-81.31468","<MISSING>","http://www.mentorkia.com/"
"https://www.kia.com/","Halleen KIA of Sandusky","7515 Milan Road","Sandusky","OH","44870","US","076","4194190108","<MISSING>","41.3790541","-82.6445784","<MISSING>","http://www.kiasandusky.com"
"https://www.kia.com/","Montrose KIA","5033 Detroit Road","Sheffield","OH","44054","US","060","4409346699","<MISSING>","41.42305","-82.08795","<MISSING>","http://www.montrosekia.com"
"https://www.kia.com/","Summit Place KIA West","4575 Plainfield Ave. Ne","Grand Rapids","MI","49525","US","043","6163231400","<MISSING>","43.04583","-85.60736","<MISSING>","http://www.summitplacekiawest.com"
"https://www.kia.com/","Fox KIA","4141 28th Street Se","Grand Rapids","MI","49512","US","022","6169425000","<MISSING>","42.91372","-85.56527","<MISSING>","http://www.foxkiausa.com"
"https://www.kia.com/","Bramlett KIA","3326 Highway 31 South","Decatur","AL","35603","US","019","2563536232","<MISSING>","34.54604","-86.9725","<MISSING>","http://www.bramlettkia.com"
"https://www.kia.com/","Serra KIA of Trussville","5009 Brookes Crossing Blvd.","Birmingham","AL","35235","US","037","2053148010","<MISSING>","33.60552","-86.63226","<MISSING>","http://www.serratrussvillekia.com"
"https://www.kia.com/","University KIA","6519 University Drive Nw","Huntsville","AL","35806","US","024","2562171700","<MISSING>","34.74668","-86.68918","<MISSING>","http://www.universitykia.com"
"https://www.kia.com/","KIA Store","950 W. Grand Avenue","Rainbow City","AL","35906","US","034","2564423232","<MISSING>","33.97612","-86.06152","<MISSING>","http://www.kiaofrainbowcity.com"
"https://www.kia.com/","Greenway KIA Franklin","1413 Murfreesboro Road","Franklin","TN","37067","US","044","6152247973","<MISSING>","35.91446","-86.8222","<MISSING>","http://www.franklinkia.com"
"https://www.kia.com/","Russell Barnett KIA","915 S. Anderson Street","Tullahoma","TN","37388","US","024","9314556066","<MISSING>","35.35745","-86.19556","<MISSING>","http://www.rbkia.com"
"https://www.kia.com/","KIA Store - Anniston","1401 South Quintard Avenue","Anniston","AL","36201","US","031","8777604542","<MISSING>","33.6302645","-85.8259033","<MISSING>","http://www.kiaofanniston.com"
"https://www.kia.com/","Ron Bouchard KIA","488 Old Union Turnpike","Lancaster","MA","01523","US","020","9783451800","<MISSING>","42.51953","-71.70168","<MISSING>","http://www.ronbouchardskia.com/index.htm"
"https://www.kia.com/","Wagner KIA of Shrewsbury","730 Boston Turnpike","Shrewsbury","MA","01545","US","034","5085815700","<MISSING>","42.27671","-71.69606","<MISSING>","http://www.wagnerkiaofshrewsbury.com"
"https://www.kia.com/","Fairfield KIA","440 Winchester Street","Keene","NH","03431","US","011","6033525900","<MISSING>","42.9185","-72.29139","<MISSING>","http://www.fairfieldkia.com"
"https://www.kia.com/","KIA of Attleboro","795 Newport Avenue Rt. 1a","South Attleboro","MA","02703","US","054","5087619300","<MISSING>","41.91375","-71.35976","<MISSING>","http://www.kiaofattleboro.com"
"https://www.kia.com/","Putnam KIA","157 Providence Pike","Putnam","CT","06260","US","022","8609632277","<MISSING>","41.92583","-71.86762","<MISSING>","http://www.putnamkia.com"
"https://www.kia.com/","Tasca KIA","1660 Hartford Avenue","Johnston","RI","02919","US","006","4013513600","<MISSING>","41.82687","-71.51131","<MISSING>","http://www.tascakia.com"
"https://www.kia.com/","Mastria KIA","1555 New State Highway","Raynham","MA","02767","US","052","5088026800","<MISSING>","41.90334","-71.00893","<MISSING>","http://www.mastriakia.com"
"https://www.kia.com/","Route 6 Automall KIA","1049 G A R Highway","Swansea","MA","02777","US","033","5086469700","<MISSING>","41.75038","-71.22307","<MISSING>","http://www.route6automall.com"
"https://www.kia.com/","KIA of Augusta","1770 Gordon Highway","Augusta","GA","30904","US","008","7063129200","<MISSING>","33.44584","-82.03193","<MISSING>","http://www.kiaofaugusta.com"
"https://www.kia.com/","KIA Country of Savannah","1 Park Of Commerce Blvd.","Savannah","GA","31405","US","055","9129210555","<MISSING>","32.06496","-81.16055","<MISSING>","http://www.kiacountryofsavannah.com"
"https://www.kia.com/","Evans KIA","4580 Washington Road","Evans","GA","30809","US","086","7063054000","<MISSING>","33.54934","-82.153","<MISSING>","http://www.evanskia.com"
"https://www.kia.com/","Superior KIA","875 Five Chop Road","Orangeburg","SC","29115","US","027","8035364542","<MISSING>","33.4871","-80.83202","<MISSING>","http://www.superiormotorskia.com"
"https://www.kia.com/","Galeana KIA","180 Greystone Blvd.","Columbia","SC","29210","US","009","8037797300","<MISSING>","34.02254","-81.07646","<MISSING>","http://www.kiacolumbia.com/"
"https://www.kia.com/","KIA Country","2361 Savannah Highway","Charleston","SC","29414","US","019","8435732300","<MISSING>","32.79162","-80.04608","<MISSING>","http://www.kiacountryofcharleston.com"
"https://www.kia.com/","Mike Murphy KIA of Brunswick","6150 Altama Avenue","Brunswick","GA","31525","US","070","9123424190","<MISSING>","31.22515","-81.47727","<MISSING>","http://www.mikemurphykia.com"
"https://www.kia.com/","Stokes KIA","202 South Goose Creek Blvd.","Goose Creek","SC","29445","US","003","8435727300","<MISSING>","32.98877","-80.04128","<MISSING>","http://www.stokeskia.com"
"https://www.kia.com/","Quality KIA of Greenwood","1706 Montague Avenue Ext.","Greenwood","SC","29649","US","012","8642232542","<MISSING>","34.22309","-82.18806","<MISSING>","http://www.qualitykiasc.com"
"https://www.kia.com/","Jts KIA","230 Killian Commons Parkway","Columbia","SC","29203","US","030","8035095555","<MISSING>","34.12972","-80.96131","<MISSING>","http://www.jtskia.com/"
"https://www.kia.com/","Hutchinson KIA","3931 River Place Drive","Macon","GA","31210","US","077","4787570077","<MISSING>","32.90528","-83.68511","<MISSING>","http://www.kiaofmacon.com"
"https://www.kia.com/","Jeff Smith KIA","103 Iffie Road","Perry","GA","31069","US","074","4789888444","<MISSING>","32.4455","-83.75288","<MISSING>","http://www.kiakool.com"
"https://www.kia.com/","Bulldog KIA","4305 Atlanta Highway","Athens","GA","30606","US","084","7066121200","<MISSING>","33.93995","-83.48498","<MISSING>","http://www.bulldogkia.com"
"https://www.kia.com/","KIA of Anderson","5281 Highway 76","Pendleton","SC","29670","US","025","8643280542","<MISSING>","34.58292","-82.73771","<MISSING>","http://www.kiaofanderson.com"
"https://www.kia.com/","Sons KIA","100 Sons Drive","Mcdonough","GA","30253","US","098","6787832299","<MISSING>","33.42952","-84.18799","<MISSING>","http://www.sonskia.com"
"https://www.kia.com/","KIA of Greenville","2424 Laurens Road","Greenville","SC","29607","US","033","8645162710","<MISSING>","34.82829","-82.34808","<MISSING>","http://www.kiaofgreenville.com"
"https://www.kia.com/","Nalley KIA","7849 Mall Parkway","Lithonia","GA","30038","US","093","7708799060","<MISSING>","33.69781","-84.10585","<MISSING>","http://www.nalleykia.com"
"https://www.kia.com/","Car Town KIA USA Florence","2185 West Evans Street","Florence","SC","29501","US","031","8432928585","<MISSING>","34.18688","-79.81276","<MISSING>","http://www.cartownflorence.com/"
"https://www.kia.com/","Langdale KIA of Valdosta","1508 North Ashley Street","Valdosta","GA","31602","US","079","2292420715","<MISSING>","30.84946","-83.28114","<MISSING>","http://langdalekia.com"
"https://www.kia.com/","KIA of Greer","14435 E. Wade Hampton Blvd.","Greer","SC","29651","US","020","8648793800","<MISSING>","34.9476834","-82.2178191","<MISSING>","http://www.kiaofgreer.com"
"https://www.kia.com/","Patterson KIA","2910 Old Jacksboro Highway","Wichita Falls","TX","76302","US","112","9407611011","<MISSING>","33.88432","-98.49213","<MISSING>","http://www.kiaofwichitafalls.com/"
"https://www.kia.com/","Lawton KIA","4455 Nw Cache Road","Lawton","OK","73505","US","026","5802488900","<MISSING>","34.6236984","-98.4490523","<MISSING>","http://www.lawtonkia.com"
"https://www.kia.com/","Spitzer KIA","1771 West 4th Street","Ontario","OH","44906","US","070","4195242511","<MISSING>","40.7700466","-82.5765867","<MISSING>","http://www.mansfieldkia.com"
"https://www.kia.com/","Ken Ganley KIA","2925 Medina Road","Medina","OH","44256","US","087","3307219500","<MISSING>","41.13653","-81.79248","<MISSING>","http://www.kenganleykia.com"
"https://www.kia.com/","Halleen KIA","27932 Lorain Road","North Olmsted","OH","44070","US","003","4407772424","<MISSING>","41.41254","-81.93151","<MISSING>","http://www.halleenkia.com"
"https://www.kia.com/","Taylor KIA-Findlay","3785 Speedway Drive","Findlay","OH","45840","US","069","5674297100","<MISSING>","41.08716","-83.6565","<MISSING>","http://www.taylorkiafindlay.com"
"https://www.kia.com/","Spitzer KIA West","3414 Brookpark Road","Cleveland","OH","44134","US","048","2163983000","<MISSING>","41.4195","-81.70966","<MISSING>","http://www.clevelandkia.com"
"https://www.kia.com/","Byers KIA","5342 Columbus Pike","Lewis Center","OH","43035","US","057","7402015550","<MISSING>","40.21884","-83.03531","<MISSING>","http://www.byerskia.com"
"https://www.kia.com/","Vandevere KIA","328 West Market Street","Akron","OH","44303","US","054","3302538800","<MISSING>","41.08999","-81.52831","<MISSING>","http://www.kiavandevere.com"
"https://www.kia.com/","KIA of Bedford","18180 Rockside Road","Bedford","OH","44146","US","055","4407354000","<MISSING>","41.40506","-81.54951","<MISSING>","http://www.kiaofbedford.com"
"https://www.kia.com/","Coughlin KIA","1475 Mount Vernon Road","Newark","OH","43055","US","062","7403667979","<MISSING>","40.09671","-82.42356","<MISSING>","http://www.coughlinkia.com"
"https://www.kia.com/","Waikem KIA","3750 Lincoln Way East","Massillon","OH","44646","US","016","3304780281","<MISSING>","40.79416","-81.46122","<MISSING>","http://www.waikemkia.com"
"https://www.kia.com/","Capital KIA","2950 Morse Road","Columbus","OH","43231","US","080","6145222800","<MISSING>","40.0590989","-82.9410284","<MISSING>","http://www.kiaofeaston.com"
"https://www.kia.com/","Crown KIA","6400 Perimeter Loop Road","Dublin","OH","43017","US","037","6147612360","<MISSING>","40.10031","-83.15409","<MISSING>","http://www.crownkiadublin.com"
"https://www.kia.com/","KIA of Streetsboro","835 Classic Drive","Streetsboro","OH","44241","US","084","3304227100","<MISSING>","41.24732","-81.36369","<MISSING>","http://www.kiaofstreetsboro.com"
"https://www.kia.com/","Taylor KIA of Lima","2100 N. Cable Road","Lima","OH","45805","US","071","5677126604","<MISSING>","40.7664","-84.1462","<MISSING>","http://www.taylorkia-lima.com"
"https://www.kia.com/","Ricart KIA","4255 S. Hamilton Road","Groveport","OH","43125","US","028","6148365321","<MISSING>","39.88917","-82.88681","<MISSING>","http://www.ricartkia.com"
"https://www.kia.com/","Germain KIA of Columbus","1455 Auto Mall Drive","Columbus","OH","43228","US","085","6144654650","<MISSING>","39.92337","-83.12488","<MISSING>","<MISSING>"
"https://www.kia.com/","KIA of Alliance","2010 West State Street","Alliance","OH","44601","US","063","3306804507","<MISSING>","40.90167","-81.13858","<MISSING>","http://www.kiaofalliance.com"
"https://www.kia.com/","Terre Haute KIA","3968 Us Highway 41","Terre Haute","IN","47802","US","032","8129172665","<MISSING>","39.41891","-87.4153","<MISSING>","http://www.terrehautekia.com"
"https://www.kia.com/","Community KIA of Bloomington","2200 South Walnut","Bloomington","IN","47401","US","010","8123312250","<MISSING>","39.14095","-86.53233","<MISSING>","<MISSING>"
"https://www.kia.com/","Andy Mohr KIA","8789 East Us Highway 36","Avon","IN","46123","US","030","3175635100","<MISSING>","39.76213","-86.36533","<MISSING>","http://www.andymohrkia.com"
"https://www.kia.com/","Evansville KIA","4000 E. Division St.","Evansville","IN","47715","US","008","8124730215","<MISSING>","37.9777","-87.50117","<MISSING>","https://www.evansvillekia.com/"
"https://www.kia.com/","Ray Skillman KIA","8424 U.S. 31 South","Indianapolis","IN","46227","US","004","3178889500","<MISSING>","39.64345","-86.13378","<MISSING>","http://www.rayskillmansouthsidekia.com/"
"https://www.kia.com/","Ray Skillman Westside KIA","5336 Pike Plaza Road","Indianapolis","IN","46254","US","022","3172938060","<MISSING>","39.83121","-86.25359","<MISSING>","http://www.rayskillmankiawest.com"
"https://www.kia.com/","Napleton's KIA of Urbana","1111 Napleton Way","Urbana","IL","61802","US","075","2173671222","<MISSING>","40.138","-88.19636","<MISSING>","http://www.napletonskiaofurbana.com"
"https://www.kia.com/","Ray Skillman Shadeland KIA","1300 North Shadeland Avenue","Indianapolis","IN","46219","US","018","3173529500","<MISSING>","39.78576","-86.04632","<MISSING>","http://www.rayskillmanshadelandkia.com"
"https://www.kia.com/","Napleton KIA of Carmel","3355 Harper Road","Indianapolis","IN","46240","US","033","3172511441","<MISSING>","39.92375","-86.1099","<MISSING>","http://www.napletonkiaofcarmel.com"
"https://www.kia.com/","Bob Rohrman KIA","801 Sagamore Parkway South","Lafayette","IN","47905","US","003","7654481000","<MISSING>","40.40815","-86.85707","<MISSING>","http://www.rohrmankia.com"
"https://www.kia.com/","Napleton KIA of Fishers","13417 Britton Park Road","Fishers","IN","46038","US","034","3178630029","<MISSING>","39.98572","-86.00522","<MISSING>","http://www.napletonkiaoffishers.com"
"https://www.kia.com/","KIA of Clarksville","826 E. Lewis & Clark Parkway","Clarksville","IN","47129","US","016","8122884200","<MISSING>","38.31607","-85.75817","<MISSING>","http://www.kiastoreclarksville.com"
"https://www.kia.com/","The KIA Store","5325 Preston Highway","Louisville","KY","40213","US","008","5029686111","<MISSING>","38.16934","-85.70649","<MISSING>","http://www.kiastorepreston.com"
"https://www.kia.com/","KIA Store East","7301 New Lagrange Road","Louisville","KY","40222","US","012","5024251234","<MISSING>","38.25042","-85.6163","<MISSING>","http://www.kiastoreeast.com"
"https://www.kia.com/","The KIA Store - Elizabethtown","1501 N. Dixie Highway","Elizabethtown","KY","42701","US","001","2707370005","<MISSING>","37.72465","-85.88121","<MISSING>","http://www.kiastoreetown.com/"
"https://www.kia.com/","KIA of Muncie","6732 W. Hometown Blvd.","Muncie","IN","47304","US","026","7655875421","<MISSING>","40.21849","-85.46451","<MISSING>","http://www.kiaofmuncie.com"
"https://www.kia.com/","Cronin KIA","10700 New Haven Rd.","Harrison","OH","45030","US","059","5133675300","<MISSING>","39.26174","-84.79651","<MISSING>","http://www.croninkia.com"
"https://www.kia.com/","KIA of Murfreesboro","2505 South Church Street","Murfreesboro","TN","37128","US","045","6156921644","<MISSING>","35.8051","-86.39672","<MISSING>","http://www.kiaofmurfreesboro.com"
"https://www.kia.com/","KIA of Chattanooga","2136 Chapman Road","Chattanooga","TN","37421","US","039","4238551022","<MISSING>","35.05802","-85.18784","<MISSING>","http://www.kiaofchattanooga.com/"
"https://www.kia.com/","Greenway KIA Hickory Hollow","5406 Target Drive","Antioch","TN","37013","US","031","6157310099","<MISSING>","36.04361","-86.66038","<MISSING>","http://www.nashvillekiaofhickoryhollow.com"
"https://www.kia.com/","Pye KIA of Dalton","2801 East Walnut Avenue","Dalton","GA","30721","US","080","7062265122","<MISSING>","34.76956","-84.92557","<MISSING>","http://www.pyekia.com"
"https://www.kia.com/","KIA of Cleveland","2492 South Lee Highway","Cleveland","TN","37311","US","041","4236930505","<MISSING>","35.14555","-84.92271","<MISSING>","http://www.kiaofcleveland.com"
"https://www.kia.com/","Matthews KIA of Cartersville","595 East Main Street","Cartersville","GA","30121","US","102","7703868400","<MISSING>","34.17101","-84.78188","<MISSING>","http://www.matthewskiaofcartersville.com"
"https://www.kia.com/","Greenway KIA Rivergate","1536 Gallatin Pike North","Madison","TN","37115","US","030","6158609888","<MISSING>","36.28894","-86.70542","<MISSING>","http://www.universalkiarivergate.com"
"https://www.kia.com/","Wyatt Johnson KIA","2285 Trenton Road","Clarksville","TN","37040","US","047","9312451120","<MISSING>","36.57225","-87.31486","<MISSING>","http://www.wyattjohnsonkia.com"
"https://www.kia.com/","Smart KIA of Davenport","3707 N. Harrison St.","Davenport","IA","52806","US","012","5634479547","<MISSING>","41.55725","-90.57579","<MISSING>","https://www.smartkiadavenport.com/"
"https://www.kia.com/","Courtesy KIA","2401 39th Avenue","Moline","IL","61265","US","029","3097646700","<MISSING>","41.474","-90.50352","<MISSING>","http://www.courtesykiamoline.com/index.htm"
"https://www.kia.com/","Southern KIA Lynnhaven","2369 Virginia Beach Blvd.","Virginia Beach","VA","23454","US","026","7573400800","<MISSING>","36.84125","-76.05213","<MISSING>","http://www.southernkialynnhaven.com/"
"https://www.kia.com/","Southern KIA Greenbrier","1300 S. Military Highway","Chesapeake","VA","23320","US","006","7574246380","<MISSING>","36.80178","-76.22745","<MISSING>","http://www.southernkiagreenbrier.com/"
"https://www.kia.com/","First Team KIA","4834-A Bridge Road, Parcel B","Suffolk","VA","23435","US","060","7573370990","<MISSING>","36.86636","-76.42318","<MISSING>","http://www.firstteamkia.com"
"https://www.kia.com/","Casey KIA","11999 Jefferson Avenue","Newport News","VA","23606","US","043","7572498000","<MISSING>","37.09651","-76.48994","<MISSING>","http://www.caseykia.com"
"https://www.kia.com/","Williamsburg KIA","3012 Richmond Road","Williamsburg","VA","23185","US","028","7572291050","<MISSING>","37.30351","-76.72918","<MISSING>","http://williamsburgkia.com"
"https://www.kia.com/","Cma's Colonial KIA","2300 Walthall Center Drive","Chester","VA","23836","US","057","8044313838","<MISSING>","37.3092","-77.39351","<MISSING>","http://www.colonialkia.com"
"https://www.kia.com/","Lee KIA of Greenville","615 Sw Greenville Blvd.","Greenville","NC","27834","US","058","2523783600","<MISSING>","35.57109","-77.39795","<MISSING>","http://www.leekiaofgreenville.com"
"https://www.kia.com/","Joey Griffin KIA","3249 N. Church Street","Rocky Mount","NC","27804","US","044","2529372222","<MISSING>","35.98731","-77.78063","<MISSING>","http://www.joeygriffinkia.com"
"https://www.kia.com/","KIA of New Bern","1715 Highway 70 East","New Bern","NC","28560","US","074","2526336161","<MISSING>","35.06852","-77.02531","<MISSING>","http://www.kiaofnewbern.com"
"https://www.kia.com/","Hyman Bros KIA","11901 Midlothian Turnpike","Midlothian","VA","23113","US","063","8043783000","<MISSING>","37.50302","-77.61923","<MISSING>","http://www.pencekiamidlothian.com"
"https://www.kia.com/","West Broad KIA","9001 W. Broad Street","Richmond","VA","23294","US","064","8042709000","<MISSING>","37.63343","-77.54809","<MISSING>","http://www.westbroadkia.com"
"https://www.kia.com/","Sale KIA","1053 Highway 258n","Kinston","NC","28504","US","027","2525223611","<MISSING>","35.26497","-77.64283","<MISSING>","http://www.salekia.com"
