"page_url","location_name","street_address","city","state","zip","country_code","store_number","phone","location_type","latitude","longitude","locator_domain","hours_of_operation","raw_address","record_id"
"https://all.accor.com/hotel/7075/index.en.shtml","Mercure Hotel Khamis Mushayt","Khamis MushaytPO BOX 892","KHAMIS MUSHAYT","<MISSING>","<MISSING>","SAUDI ARABIA","<MISSING>","(+966)172233466","Hotel","18.304464","42.716727","accor.com","<MISSING>","<MISSING>","location_name:street_address"
"https://all.accor.com/hotel/7583/index.en.shtml","Mercure Al Khobar Hotel","Prince Turki Bin Abdul AzizSt CornicheEastern Province","AL KHOBAR","<MISSING>","31952","SAUDI ARABIA","<MISSING>","(+966)13/8989880","Hotel","26.297474","50.221081","accor.com","<MISSING>","<MISSING>","location_name:street_address"
"https://all.accor.com/hotel/9243/index.en.shtml","Mercure Jeddah Al Hamra","2718, Al Iskandariyah StreetAl Hamra DistrictPO BOX 48144","Jeddah","<MISSING>","23212","SAUDI ARABIA","<MISSING>","(+966)12/6644466","Hotel","21.515664","39.159468","accor.com","<MISSING>","<MISSING>","location_name:street_address"
"https://all.accor.com/hotel/0546/index.en.shtml","Mercure Grand Hotel Doha City Centre","Musherib StreetMusherib DowntownPO BOX 7566","DOHA","<MISSING>","<MISSING>","QATAR","<MISSING>","(+974)44462222","Hotel","25.283333","51.527778","accor.com","<MISSING>","<MISSING>","location_name:street_address"
"https://all.accor.com/hotel/7838/index.en.shtml","Mercure Sohar","As Suwayhrah StreetAl Humbar WestAl Batinah Highway","SOHAR","<MISSING>","311","OMAN","<MISSING>","(+968)22354800","Hotel","24.328611","56.740556","accor.com","<MISSING>","<MISSING>","location_name:street_address"
"https://all.accor.com/hotel/8500/index.en.shtml","Mercure Gold Hotel Al Mina Road Dubai","Al Mina Road Bur DubaiP O Box 66431BUR DUBAI","DUBAI","<MISSING>","66431","UNITED ARAB EMIRATES","<MISSING>","(+971)4/3019888","Hotel","25.242944","55.275497","accor.com","<MISSING>","<MISSING>","location_name:street_address"
"https://all.accor.com/hotel/3573/index.en.shtml","Mercure Grand Jebel Hafeet Al Ain Hotel","Jebel HafeetP O BOX 24476P.O.Box 24476","AL AIN","<MISSING>","24476","UNITED ARAB EMIRATES","<MISSING>","(+971)3/7046888","Hotel","24.077793","55.768983","accor.com","<MISSING>","<MISSING>","location_name:street_address"
"https://all.accor.com/hotel/5685/index.en.shtml","Mercure Grand Hotel Seef - All Suites","Road 2827PO Box 18084Seef District","MANAMA","<MISSING>","<MISSING>","BAHRAIN","<MISSING>","(+973)17584400","Hotel","26.232111","50.540889","accor.com","<MISSING>","<MISSING>","location_name:street_address"
"https://all.accor.com/hotel/1994/index.en.shtml","Mercure Queenstown Resort","Sainsbury RoadFernhillPrivate Bag 50071","QUEENSTOWN","<MISSING>","9300","NEW ZEALAND","<MISSING>","(+64)3/4426600","Hotel","-45.038529","168.638685","accor.com","<MISSING>","<MISSING>","location_name:street_address"
"https://all.accor.com/hotel/B1R9/index.en.shtml","Mercure Auckland Queen Street","500 Queen Street","AUCKLAND","<MISSING>","1010","NEW ZEALAND","<MISSING>","(+64)9/2816363","Hotel","-36.8567927","174.7619403","accor.com","<MISSING>","<MISSING>","location_name:street_address"
"https://all.accor.com/hotel/8607/index.en.shtml","Mercure Wellington Central City - Hotel & Apartments","130 Victoria StreetTe Aro","WELLINGTON","<MISSING>","6142","NEW ZEALAND","<MISSING>","(+64)4/3854166","Hotel","-41.291042","174.775376","accor.com","<MISSING>","<MISSING>","location_name:street_address"
"https://all.accor.com/hotel/A018/index.en.shtml","Mercure Wellington Abel Tasman","169 Willis StreetTe Aro","WELLINGTON","<MISSING>","6011","NEW ZEALAND","<MISSING>","(+64)4/3851304","Hotel","-41.290791","174.774078","accor.com","<MISSING>","<MISSING>","location_name:street_address"
"https://all.accor.com/hotel/A209/index.en.shtml","Mercure Darwin Airport Resort","1 Sir Norman Brearly Drive","DARWIN","<MISSING>","0812","AUSTRALIA","<MISSING>","(+61)8/89203333","Hotel","-12.404874","130.879934","accor.com","<MISSING>","<MISSING>","location_name:street_address"
"https://all.accor.com/hotel/9616/index.en.shtml","Mercure Kakadu Crocodile Hotel","Flinders Street","JABIRU","<MISSING>","0886","AUSTRALIA","<MISSING>","(+61)8/89799000","Hotel","-12.671082","132.831457","accor.com","<MISSING>","<MISSING>","location_name:street_address"
"https://all.accor.com/hotel/B3X7/index.en.shtml","The Lost Camel Hotel - a member of Mercure Hotels","Yulara DriveAyers Rock","YULARA","<MISSING>","0872","AUSTRALIA","<MISSING>","(+61)282968010","Hotel","-25.240746","130.983085","accor.com","<MISSING>","<MISSING>","location_name:street_address"
"https://all.accor.com/hotel/B0K7/index.en.shtml","Mercure Alice Springs Resort","34 Stott Terrace","ALICE SPRINGS","<MISSING>","0870","AUSTRALIA","<MISSING>","(+61)8/89514545","Hotel","-23.702813","133.886296","accor.com","<MISSING>","<MISSING>","location_name:street_address"
"https://all.accor.com/hotel/5509/index.en.shtml","Mercure Canberra","Corner of Ainslieand Limestone Avenue","BRADDON","<MISSING>","2612","AUSTRALIA","<MISSING>","(+61)2/62430000","Hotel","-35.276066","149.143494","accor.com","<MISSING>","<MISSING>","location_name:street_address"
"https://all.accor.com/hotel/B390/index.en.shtml","Mercure Canberra Belconnen","59 Cameron AvenueBelconnen","CANBERRA","<MISSING>","2617","AUSTRALIA","<MISSING>","(+61)2/51043000","Hotel","-35.240793","149.07085","accor.com","<MISSING>","<MISSING>","location_name:street_address"
"https://all.accor.com/hotel/6206/index.en.shtml","Mercure Bunbury Sanctuary Golf Resort","Lot 100Old Coast RoadPelican Point","BUNBURY","<MISSING>","6230","AUSTRALIA","<MISSING>","(+61)8/97252777","Hotel","-33.325263","115.695584","accor.com","<MISSING>","<MISSING>","location_name:street_address"
"https://all.accor.com/hotel/1754/index.en.shtml","Mercure Perth","10  Irwin Street","PERTH","<MISSING>","6000","AUSTRALIA","<MISSING>","(+61)8/93267000","Hotel","-31.95676","115.863106","accor.com","<MISSING>","<MISSING>","location_name:street_address"
"https://all.accor.com/hotel/2123/index.en.shtml","Mercure Sydney Parramatta","106 Hassall Street","SYDNEY","<MISSING>","2142","AUSTRALIA","<MISSING>","(+61)2/88361000","Hotel","-33.81897","151.021591","accor.com","<MISSING>","<MISSING>","location_name:street_address"
"https://all.accor.com/hotel/7015/index.en.shtml","Mercure Sydney Liverpool","424 - 458 Hoxton Park Road","PRESTONS","<MISSING>","2170","AUSTRALIA","<MISSING>","(+61)2/87770600","Hotel","-33.928934","150.875525","accor.com","<MISSING>","<MISSING>","location_name:street_address"
"https://all.accor.com/hotel/8482/index.en.shtml","Mercure Kooindah Waters Central Coast","40 Kooindah Boulevard","WYONG","<MISSING>","2259","AUSTRALIA","<MISSING>","(+61)2/43555777","Hotel","-33.282806","151.440582","accor.com","<MISSING>","<MISSING>","location_name:street_address"
"https://all.accor.com/hotel/8610/index.en.shtml","Mercure Gerringong Resort","1 Fern Street","GERRINGONG","<MISSING>","2534","AUSTRALIA","<MISSING>","(+61)2/42341359","Hotel","-34.734797","150.826771","accor.com","<MISSING>","<MISSING>","location_name:street_address"
"https://all.accor.com/hotel/9724/index.en.shtml","Mercure Goulburn","2 Lockyer Street","GOULBURN","<MISSING>","2580","AUSTRALIA","<MISSING>","(+61)2/48225445","Hotel","-34.773657","149.691843","accor.com","<MISSING>","<MISSING>","location_name:street_address"
"https://all.accor.com/hotel/8862/index.en.shtml","Mercure Wagga Wagga","1 Morgan StP O Box 2537","WAGGA WAGGA","<MISSING>","2650","AUSTRALIA","<MISSING>","(+61)2/69397200","Hotel","-35.1165","147.37576","accor.com","<MISSING>","<MISSING>","location_name:street_address"
"https://all.accor.com/hotel/B2V4/index.en.shtml","Mercure Albury","579 Olive Street","ALBURY","<MISSING>","2640","AUSTRALIA","<MISSING>","(+61)2/60216100","Hotel","-36.077909","146.918134","accor.com","<MISSING>","<MISSING>","location_name:street_address"
"https://all.accor.com/hotel/A205/index.en.shtml","Mercure Tamworth","Scully ParkKent StreetPO Box 3040","TAMWORTH","<MISSING>","2340","AUSTRALIA","<MISSING>","(+61)2/67651200","Hotel","-31.102","150.917","accor.com","<MISSING>","<MISSING>","location_name:street_address"
"https://all.accor.com/hotel/6941/index.en.shtml","Mercure Resort Hunter Valley Gardens","Cnr Broke and MacDonald Road","POKOLBIN","<MISSING>","2320","AUSTRALIA","<MISSING>","(+61)2/49982000","Hotel","-32.772691","151.300447","accor.com","<MISSING>","<MISSING>","location_name:street_address"
"https://all.accor.com/hotel/A0C4/index.en.shtml","Mercure Maitland Monte Pio","Cnr New England HighwayAnd Dwyer Street","MAITLAND","<MISSING>","2320","AUSTRALIA","<MISSING>","(+61)2/49325288","Hotel","-32.722716","151.544214","accor.com","<MISSING>","<MISSING>","location_name:street_address"
"https://all.accor.com/hotel/8854/index.en.shtml","Mercure Charlestown","109 Madison Drive","CHARLESTOWN","<MISSING>","2290","AUSTRALIA","<MISSING>","(+61)249438899","Hotel","-32.955011","151.704792","accor.com","<MISSING>","<MISSING>","location_name:street_address"
"https://all.accor.com/hotel/9000/index.en.shtml","Mercure Newcastle Airport","2 Williamtown Drive","WILLIAMTOWN","<MISSING>","2318","AUSTRALIA","<MISSING>","(+61)2/40338900","Hotel","-32.810072","151.843465","accor.com","<MISSING>","<MISSING>","location_name:street_address"
"https://all.accor.com/hotel/7352/index.en.shtml","Mercure Kangaroo Island Lodge","73Scenic DriveAmerican River","KANGAROO ISLAND","<MISSING>","5221","AUSTRALIA","<MISSING>","(+61)8/85537053","Hotel","-35.777336","137.775286","accor.com","<MISSING>","<MISSING>","location_name:street_address"
"https://all.accor.com/hotel/9177/index.en.shtml","Mercure Port of Echuca","465 High Street","ECHUCA","<MISSING>","3564","AUSTRALIA","<MISSING>","(+61)354825666","Hotel","-36.125292","144.747218","accor.com","<MISSING>","<MISSING>","location_name:street_address"
"https://all.accor.com/hotel/7509/index.en.shtml","Mercure Hotel Mildura","120 Eighth Street","MILDURA","<MISSING>","3500","AUSTRALIA","<MISSING>","(+61)3/50512500","Hotel","-34.185473","142.163601","accor.com","<MISSING>","<MISSING>","location_name:street_address"
"https://all.accor.com/hotel/B6S3/index.en.shtml","Mercure Bendigo Schaller","60 Lucan Street","BENDIGO","<MISSING>","3550","AUSTRALIA","<MISSING>","(+61)3/44336100","Hotel","-36.7486251","144.2843204","accor.com","<MISSING>","<MISSING>","location_name:street_address"
"https://all.accor.com/hotel/8249/index.en.shtml","Mercure Melbourne Caroline Springs","10 20 Lake Street","CAROLINE SPRINGS","<MISSING>","3023","AUSTRALIA","<MISSING>","(+61)03/83580555","Hotel","-37.733893","144.74202","accor.com","<MISSING>","<MISSING>","location_name:street_address"
"https://all.accor.com/hotel/8755/index.en.shtml","Mercure Portsea","46 London Bridge Road","PORTSEA","<MISSING>","3944","AUSTRALIA","<MISSING>","(+61)3/59816100","Hotel","-38.326844","144.704704","accor.com","<MISSING>","<MISSING>","location_name:street_address"
"https://all.accor.com/hotel/9947/index.en.shtml","Mercure Warragul","23 Mason Street","WARRAGUL","<MISSING>","3820","AUSTRALIA","<MISSING>","(+61)3/56183500","Hotel","-38.162985","145.933241","accor.com","<MISSING>","<MISSING>","location_name:street_address"
"https://all.accor.com/hotel/A019/index.en.shtml","Mercure Launceston","3 Brisbane Street","LAUNCESTON","<MISSING>","7250","AUSTRALIA","<MISSING>","(+61)3/63312055","Hotel","-41.432576","147.145793","accor.com","<MISSING>","<MISSING>","location_name:street_address"
"https://all.accor.com/hotel/8780/index.en.shtml","Mercure Brisbane King George Square","Corner of Ann and Roma Streets","BRISBANE","<MISSING>","4000","AUSTRALIA","<MISSING>","(+61)7/32299111","Hotel","-27.4683","153.02308","accor.com","<MISSING>","<MISSING>","location_name:street_address"
"https://all.accor.com/hotel/7580/index.en.shtml","Mercure Clear Mountain Lodge","564 Clear Mountain Road","CLEAR MOUNTAIN","<MISSING>","4500","AUSTRALIA","<MISSING>","(+61)7/32985100","Hotel","-27.305105","152.885475","accor.com","<MISSING>","<MISSING>","location_name:street_address"
"https://all.accor.com/hotel/B6V8/index.en.shtml","Mercure Rockhampton","86 Victoria Parade","ROCKHAMPTON","<MISSING>","4700","AUSTRALIA","<MISSING>","(+61)7/49945000","Hotel","-23.3736","150.5101","accor.com","<MISSING>","<MISSING>","location_name:street_address"
"https://all.accor.com/hotel/9052/index.en.shtml","Mercure Gold Coast Resort","64 Palm Meadows DriveCARRARA","GOLD COAST","<MISSING>","4211","AUSTRALIA","<MISSING>","(+61)7/55557700","Hotel","-28.029533","153.377278","accor.com","<MISSING>","<MISSING>","location_name:street_address"
"https://all.accor.com/hotel/B6V9/index.en.shtml","Mercure Sunshine Coast Kawana Waters","9 Florey Boulevard","BIRTINYA","<MISSING>","4575","AUSTRALIA","<MISSING>","(+61)7/53349500","Hotel","-26.746001","153.116362","accor.com","<MISSING>","<MISSING>","location_name:street_address"
"https://all.accor.com/hotel/1753/index.en.shtml","Mercure Townsville","166 Woolcock St","TOWNSVILLE","<MISSING>","4812","AUSTRALIA","<MISSING>","(+61)7/47594900","Hotel","-19.2709","146.786014","accor.com","<MISSING>","<MISSING>","location_name:street_address"
"https://all.accor.com/hotel/5930/index.en.shtml","Mercure Nadi","Queens RoadNadi Airport","NADI","<MISSING>","<MISSING>","FIJI","<MISSING>","(+679)6722255","Hotel","-17.777908","177.432386","accor.com","<MISSING>","<MISSING>","location_name:street_address"
"https://all.accor.com/hotel/B095/index.en.shtml","Mercure Cayenne Royal Amazonia hotel","45 Rue De L Ara Bleu","CAYENNE","<MISSING>","97300","FRENCH GUIANA","<MISSING>","(+594)594391515","Hotel","4.934794","-52.304628","accor.com","<MISSING>","<MISSING>","location_name:street_address"
"https://all.accor.com/hotel/1592/index.en.shtml","Hotel Mercure Kourou Ariatel","Avenue de St ExupéryBP 164","KOUROU","<MISSING>","97310","FRENCH GUIANA","<MISSING>","(+594)5/94328900","Hotel","5.17502","-52.659488","accor.com","<MISSING>","<MISSING>","location_name:street_address"
"https://all.accor.com/hotel/B466/index.en.shtml","MERCURE CONCEPCIÓN (EX ATTON)","Cochrane Poniente 75","CONCEPCIÓN","<MISSING>","4030000","CHILE","<MISSING>","(+56)41/2748100","Hotel","-36.833496","-73.059822","accor.com","<MISSING>","<MISSING>","location_name:street_address"
"https://all.accor.com/hotel/8924/index.en.shtml","Mercure Santiago Centro","Avda Lib Bernardo O'Higgins,632Santiago Centro","SANTIAGO","<MISSING>","8330066","CHILE","<MISSING>","(+56)2/25956622","Hotel","-33.442807","-70.645634","accor.com","<MISSING>","<MISSING>","location_name:street_address"
"https://all.accor.com/hotel/8431/index.en.shtml","Mercure Iguazu Hotel Iru","Selva Iryapu S NPredio 600 HasMISIONES","PUERTO IGUAZU","<MISSING>","3370","ARGENTINA","<MISSING>","(+54)3757/493300","Hotel","-25.60345","-54.551239","accor.com","<MISSING>","<MISSING>","location_name:street_address"
"https://all.accor.com/hotel/8811/index.en.shtml","Mercure Melbourne Albert Park","65 Queens RoadALBERT PARK","MELBOURNE","<MISSING>","3004","AUSTRALIA","<MISSING>","(+61)3/95294300","Hotel","-37.84978","144.978662","accor.com","<MISSING>","<MISSING>","location_name:street_address"
"https://all.accor.com/hotel/A002/index.en.shtml","Mercure London Hyde Park Hotel","8-14 Talbot SquarePaddington","LONDON","<MISSING>","W2 1TS","UNITED KINGDOM","<MISSING>","(+44)207/2626699","Hotel","51.515033","-0.174291","accor.com","<MISSING>","<MISSING>","location_name:street_address"
"https://all.accor.com/hotel/A029/index.en.shtml","Mercure Santa Rosa La Pampa","Av Santiago Marzo N 25Interseccion Ruta 5 Y 35","SANTA ROSA","<MISSING>","L6300BCS","ARGENTINA","<MISSING>","(+54)2954700200","Hotel","-36.620634","-64.269821","accor.com","<MISSING>","<MISSING>","location_name:street_address"
"https://all.accor.com/hotel/9556/index.en.shtml","Mercure Santa Marta Emile","CALLE 115 NO 2 39Bello Horizonte","SANTA MARTA","<MISSING>","470001","COLOMBIA","<MISSING>","(+57)54368484","Hotel","11.149766","-74.225336","accor.com","<MISSING>","<MISSING>","location_name:street_address"
"https://all.accor.com/hotel/A536/index.en.shtml","Mercure Bogota BH Retiro","Av Cll 80 no 10-11","BOGOTA","<MISSING>","110221","COLOMBIA","<MISSING>","(+57)1/7563177","Hotel","4.6637916","-74.053359","accor.com","<MISSING>","<MISSING>","location_name:street_address"
"https://all.accor.com/hotel/B471/index.en.shtml","Mercure Bogotá Calle 100","Transv. 23 98 27 Chico N.","BOGOTA","<MISSING>","110010","COLOMBIA","<MISSING>","(+57)1/7477776","Hotel","4.6858166","-74.0586229","accor.com","<MISSING>","<MISSING>","location_name:street_address"
"https://all.accor.com/hotel/A535/index.en.shtml","Mercure Bogotá BH Zona Financiera","Carrera 7 65 01","BOGOTÁ","<MISSING>","110231","COLOMBIA","<MISSING>","(+57)1/7424095","Hotel","4.6492144","-74.0591567999","accor.com","<MISSING>","<MISSING>","location_name:street_address"
"https://all.accor.com/hotel/B203/index.en.shtml","Mercure Belem Boulevard Hotel","Trav Dom Romualdo De Seixas1560Umarizal","BELÉM","<MISSING>","66055200","BRAZIL","<MISSING>","(+55)91/33667575","Hotel","-1.445973","-48.48403","accor.com","<MISSING>","<MISSING>","location_name:street_address"
"https://all.accor.com/hotel/6663/index.en.shtml","Mercure Maceio Pajucara Hotel","Avenida Dr Antonio Gouveianumero 627 PajucaraAlagoas","MACEIO","<MISSING>","57030 170","BRAZIL","<MISSING>","(+55)82/21229500","Hotel","-9.668527","-35.714078","accor.com","<MISSING>","<MISSING>","location_name:street_address"
"https://all.accor.com/hotel/9564/index.en.shtml","Mercure Itajaí Navegantes","Rua DR. PEDRO FERREIRA, 363","ITAJAI","<MISSING>","88301030","BRAZIL","<MISSING>","(+55)4732474850","Hotel","-26.902527","-48.659469","accor.com","<MISSING>","<MISSING>","location_name:street_address"
"https://all.accor.com/hotel/6661/index.en.shtml","Mercure Camboriu Hotel","Av Atlantica 2010FRENTE A PRAÇA TAMANDARÉ","BALNEARIO CAMBORIU","<MISSING>","88330012","BRAZIL","<MISSING>","(+55)47/30569500","Hotel","-26.987444","-48.631917","accor.com","<MISSING>","<MISSING>","location_name:street_address"
"https://all.accor.com/hotel/5693/index.en.shtml","Mercure Florianópolis","R. Admar Gonzaga 600Itacorubi.","FLORIANOPOLIS","<MISSING>","88034000","BRAZIL","<MISSING>","(+55)4832311700","Hotel","-27.578308","-48.509514","accor.com","<MISSING>","<MISSING>","location_name:street_address"
"https://all.accor.com/hotel/0768/index.en.shtml","Mercure Joinville Prinz Hotel","Rua Otto Boehm 525CentroJOINVILLE - SC","JOINVILLE","<MISSING>","89201700","BRAZIL","<MISSING>","(+55)4734819111","Hotel","-26.302215","-48.854134","accor.com","<MISSING>","<MISSING>","location_name:street_address"
"https://all.accor.com/hotel/3624/index.en.shtml","Mercure Jaragua do Sul Hotel","Presidente Epitacio Pessoa 23989251-100 CentroSanta Catarina (SC)","JARAGUA DO SUL","<MISSING>","89251100","BRAZIL","<MISSING>","(+55)47/33725800","Hotel","-26.48012","-49.081903","accor.com","<MISSING>","<MISSING>","location_name:street_address"
"https://all.accor.com/hotel/5628/index.en.shtml","Mercure São Caetano do Sul Hotel","Rua Alegre  440Bairro Santa Paula","SÃO CAETANO DO SUL","<MISSING>","09550250","BRAZIL","<MISSING>","(+55)11/42289000","Hotel","-23.620251","-46.553455","accor.com","<MISSING>","<MISSING>","location_name:street_address"
"https://all.accor.com/hotel/3473/index.en.shtml","Mercure Fortaleza Meireles","Rua Joaquim Nabuco 166Meirelles","FORTALEZA","<MISSING>","60125120","BRAZIL","<MISSING>","(+55)8534863000","Hotel","-3.726928","-38.498821","accor.com","<MISSING>","<MISSING>","location_name:street_address"
"https://all.accor.com/hotel/2171/index.en.shtml","Mercure Recife Navegantes Hotel","Rua dos Navegantes 1706Boa Viagem","RECIFE","<MISSING>","51020010","BRAZIL","<MISSING>","(+55)8140091185","Hotel","-8.118104","-34.894619","accor.com","<MISSING>","<MISSING>","location_name:street_address"
"https://all.accor.com/hotel/5111/index.en.shtml","Mercure Alameda Quito","Roca E4-122 and Amazonas Ave.","QUITO","<MISSING>","170526","ECUADOR","<MISSING>","(+593)2/2994000","Hotel","-0.204749","-78.495029","accor.com","<MISSING>","<MISSING>","location_name:street_address"
"https://all.accor.com/hotel/3173/index.en.shtml","Mercure Alger Aeroport","Route de l'université BP 12Cité 5 juillet Bab EzzouarBab Ezzouar","ALGER","<MISSING>","16311","ALGERIA","<MISSING>","(+213)21/245970","Hotel","36.714025","3.19595","accor.com","<MISSING>","<MISSING>","location_name:street_address"
"https://all.accor.com/hotel/3006/index.en.shtml","Mercure Ismailia Forsan Island Hotel","Forsan islandPO box 77  IsmailiaPO box 77","ISMAILIA","<MISSING>","011","EGYPT","<MISSING>","(+20)64/3916316","Hotel","30.586611","32.288167","accor.com","<MISSING>","<MISSING>","location_name:street_address"
"https://all.accor.com/hotel/1815/index.en.shtml","Mercure Hurghada Hotel","Safaga road km 12","HURGHADA","<MISSING>","<MISSING>","EGYPT","<MISSING>","(+20)65/3464646","Hotel","27.132575","33.828042","accor.com","<MISSING>","<MISSING>","location_name:street_address"
"https://all.accor.com/hotel/0977/index.en.shtml","Mercure Parc du Coudray Demeure de Campagne","route de Milly","LE COUDRAY MONTCEAUX","<MISSING>","91830","FRANCE","<MISSING>","(+33)1/64990000","Hotel","48.55579","2.485163","accor.com","<MISSING>","<MISSING>","location_name:street_address"
"https://all.accor.com/hotel/1246/index.en.shtml","Hotel Mercure Paris Orly Tech Airport","12 AVENUE JACQUELINE AURIOLOrlytech","PARAY-VIEILLE-POSTE","<MISSING>","91550","FRANCE","<MISSING>","(+33)1/85120060","Hotel","48.740693","2.360966","accor.com","<MISSING>","<MISSING>","location_name:street_address"
"https://all.accor.com/hotel/0376/index.en.shtml","Mercure Paris Sud Les Ulis Courtaboeuf Hotel","3 rue du Rio SaladoCourtaboeuf","LES ULIS","<MISSING>","91952","FRANCE","<MISSING>","(+33)1/69076396","Hotel","48.679287","2.198776","accor.com","<MISSING>","<MISSING>","location_name:street_address"
"https://all.accor.com/hotel/8518/index.en.shtml","Mercure Paris Levallois Perret Hotel","48 rue Chaptal","LEVALLOIS PERRET","<MISSING>","92300","FRANCE","<MISSING>","(+33)1/47572483","Hotel","48.889634","2.282697","accor.com","<MISSING>","<MISSING>","location_name:street_address"
"https://all.accor.com/hotel/B132/index.en.shtml","Mercure Paris Pont de Levallois Neuilly Hotel","19 Rue Paul Vaillant Couturier","LEVALLOIS PERRET","<MISSING>","92300","FRANCE","<MISSING>","(+33)1/47571787","Hotel","48.894045","2.278538","accor.com","<MISSING>","<MISSING>","location_name:street_address"
"https://all.accor.com/hotel/A027/index.en.shtml","Hôtel Mercure Paris Saint Cloud Hippodrome","43 Boulevard De La Republique","SAINT CLOUD","<MISSING>","92210","FRANCE","<MISSING>","(+33)1/46025930","Hotel","48.84497","2.211331","accor.com","<MISSING>","<MISSING>","location_name:street_address"
"https://all.accor.com/hotel/1546/index.en.shtml","Mercure Paris La Defense hotel","30 rue BaudinPlace Charras","COURBEVOIE","<MISSING>","92400","FRANCE","<MISSING>","(+33)825802727","Hotel","48.895167","2.250352","accor.com","<MISSING>","<MISSING>","location_name:street_address"
"https://all.accor.com/hotel/6243/index.en.shtml","Mercure Paris Boulogne Aparthotel","63 Place René Clair","BOULOGNE BILLANCOURT","<MISSING>","92100","FRANCE","<MISSING>","(+33)1/49104910","Hotel","48.833827","2.256274","accor.com","<MISSING>","<MISSING>","location_name:street_address"
"https://all.accor.com/hotel/6188/index.en.shtml","Mercure Paris Boulogne hotel","37 place René Clair","BOULOGNE BILLANCOURT","<MISSING>","92100","FRANCE","<MISSING>","(+33)1/49104910","Hotel","48.833827","2.256274","accor.com","<MISSING>","<MISSING>","location_name:street_address"
"https://all.accor.com/hotel/B096/index.en.shtml","Hotel Mercure Paris Suresnes Longchamp","30 Avenue General De Gaulle","SURESNES","<MISSING>","92150","FRANCE","<MISSING>","(+33)145061552","Hotel","48.870715","2.224794","accor.com","<MISSING>","<MISSING>","location_name:street_address"
"https://all.accor.com/hotel/1627/index.en.shtml","Mercure Château de Fontainebleau Demeure de Campagne","41 rue Royale","FONTAINEBLEAU","<MISSING>","77300","FRANCE","<MISSING>","(+33)1/64693434","Hotel","48.404969","2.688362","accor.com","<MISSING>","<MISSING>","location_name:street_address"
"https://all.accor.com/hotel/0388/index.en.shtml","Mercure Paris Le Bourget Hotel","2  Rue Jean PerrinLE BLANC MESNIL CEDEXLE BLANC MESNIL CEDEX","LE BLANC MESNIL","<MISSING>","93150","FRANCE","<MISSING>","(+33)1/48674888","Hotel","48.953152","2.450349","accor.com","<MISSING>","<MISSING>","location_name:street_address"
"https://all.accor.com/hotel/2799/index.en.shtml","Mercure Paris Porte de Pantin Hotel","22 Avenue Jean Lolive","PANTIN","<MISSING>","93500","FRANCE","<MISSING>","(+33)1/48916600","Hotel","48.890229","2.39929","accor.com","<MISSING>","<MISSING>","location_name:street_address"
"https://all.accor.com/hotel/1245/index.en.shtml","Mercure Paris Roissy Charles de Gaulle Hotel","3 Allee du Verger","ROISSY EN FRANCE","<MISSING>","95700","FRANCE","<MISSING>","(+33)1/34294000","Hotel","49.004324","2.520723","accor.com","<MISSING>","<MISSING>","location_name:street_address"
"https://all.accor.com/hotel/0577/index.en.shtml","Hotel Mercure Paris CDG Airport & Convention","Roissypôle OuestRoute de la CommuneCedex","ROISSY CDG CEDEX","<MISSING>","95713","FRANCE","<MISSING>","(+33)1/49192929","Hotel","49.00759","2.54931","accor.com","<MISSING>","<MISSING>","location_name:street_address"
"https://all.accor.com/hotel/3452/index.en.shtml","Mercure Cergy Pontoise Centre Hotel","3 Rue des Chênes Emeraude","CERGY","<MISSING>","95000","FRANCE","<MISSING>","(+33)1/34249494","Hotel","49.041012","2.072875","accor.com","<MISSING>","<MISSING>","location_name:street_address"
"https://all.accor.com/hotel/6357/index.en.shtml","Mercure Paris Ivry Quai de Seine Hotel","5 allée de la Seine","IVRY SUR SEINE","<MISSING>","94200","FRANCE","<MISSING>","(+33)1/46701717","Hotel","48.818298","2.400242","accor.com","<MISSING>","<MISSING>","location_name:street_address"
"https://all.accor.com/hotel/1037/index.en.shtml","Mercure Paris Val de Fontenay Hotel","20, Avenue des Olympiades","FONTENAY SOUS BOIS","<MISSING>","94120","FRANCE","<MISSING>","(+33)1/49748888","Hotel","48.85407","2.488382","accor.com","<MISSING>","<MISSING>","location_name:street_address"
"https://all.accor.com/hotel/1983/index.en.shtml","Mercure Saint Quentin en Yvelines Centre Hotel","9 place E.F ChoiseulAvenue du centre","MONTIGNY LE BRETONNEUX","<MISSING>","78180","FRANCE","<MISSING>","(+33)1/39301800","Hotel","48.785433","2.045649","accor.com","<MISSING>","<MISSING>","location_name:street_address"
"https://all.accor.com/hotel/0379/index.en.shtml","Mercure Versailles Parly 2 Hotel","Rue de Marly le Roi","LE CHESNAY","<MISSING>","78150","FRANCE","<MISSING>","(+33)1/39551141","Hotel","48.829816","2.117798","accor.com","<MISSING>","<MISSING>","location_name:street_address"
"https://all.accor.com/hotel/9781/index.en.shtml","Mercure Maurepas Saint Quentin hotel","1 Rocade De Camargue","MAUREPAS","<MISSING>","78310","FRANCE","<MISSING>","(+33)1/30515727","Hotel","48.759426","1.94565","accor.com","<MISSING>","<MISSING>","location_name:street_address"
"https://all.accor.com/hotel/9685/index.en.shtml","Mercure Paris Notre Dame Saint Germain des Prés","20 Rue Sommerard","PARIS","<MISSING>","75005","FRANCE","<MISSING>","(+33)1/43544760","Hotel","48.850247","2.345198","accor.com","<MISSING>","<MISSING>","location_name:street_address"
"https://all.accor.com/hotel/2897/index.en.shtml","Mercure Paris La Sorbonne Saint Germain des Prés Hotel","14 rue de la Sorbonne","PARIS","<MISSING>","75005","FRANCE","<MISSING>","(+33)1/56243434","Hotel","48.849171","2.343006","accor.com","<MISSING>","<MISSING>","location_name:street_address"
"https://all.accor.com/hotel/1614/index.en.shtml","Mercure Paris Opéra Louvre Hotel","95 Rue de Richelieu","PARIS","<MISSING>","75002","FRANCE","<MISSING>","(+33)8/25803939","Hotel","48.871137","2.339519","accor.com","<MISSING>","<MISSING>","location_name:street_address"
"https://all.accor.com/hotel/0351/index.en.shtml","Mercure Paris Montparnasse Raspail Hotel","207 boulevard Raspail","PARIS","<MISSING>","75014","FRANCE","<MISSING>","(+33)1/43206294","Hotel","48.841369","2.329842","accor.com","<MISSING>","<MISSING>","location_name:street_address"
"https://all.accor.com/hotel/0905/index.en.shtml","Mercure Paris Gare Montparnasse Hotel","20 rue de la Gaité","PARIS","<MISSING>","75014","FRANCE","<MISSING>","(+33)1/73160241","Hotel","48.839752","2.323791","accor.com","<MISSING>","<MISSING>","location_name:street_address"
"https://all.accor.com/hotel/9734/index.en.shtml","Mercure Paris Alesia hotel","185 Boulevard Brune","PARIS","<MISSING>","75014","FRANCE","<MISSING>","(+33)1/45396850","Hotel","48.823818","2.324083","accor.com","<MISSING>","<MISSING>","location_name:street_address"
"https://all.accor.com/hotel/1191/index.en.shtml","Mercure Paris Place d'Italie Hotel","25 boulevard Auguste Blanqui","PARIS","<MISSING>","75013","FRANCE","<MISSING>","(+33)1/45808223","Hotel","48.830305","2.352828","accor.com","<MISSING>","<MISSING>","location_name:street_address"
"https://all.accor.com/hotel/A6S7/index.en.shtml","Hotel Mercure Paris 17 Batignolles","118 Rue De Tocqueville","PARIS","<MISSING>","75017","FRANCE","<MISSING>","(+33)140541925","Hotel","48.888137","2.306853","accor.com","<MISSING>","<MISSING>","location_name:street_address"
"https://all.accor.com/hotel/2053/index.en.shtml","Mercure Paris Arc de Triomphe Wagram Hotel","3 rue Brey","PARIS","<MISSING>","75017","FRANCE","<MISSING>","(+33)1/56680001","Hotel","48.875976","2.295988","accor.com","<MISSING>","<MISSING>","location_name:street_address"
"https://all.accor.com/hotel/0372/index.en.shtml","Mercure Paris Arc de Triomphe Étoile Hotel","27 avenue des Ternes","PARIS","<MISSING>","75017","FRANCE","<MISSING>","(+33)8/25801919","Hotel","48.878381","2.295069","accor.com","<MISSING>","<MISSING>","location_name:street_address"
"https://all.accor.com/hotel/B8G5/index.en.shtml","MERCURE PARIS OPERA LAFAYETTE","7 Rue De Trevise","PARIS","<MISSING>","75009","FRANCE","<MISSING>","(+33)1/47702675","Hotel","48.8729123","2.3449796","accor.com","<MISSING>","<MISSING>","location_name:street_address"
"https://all.accor.com/hotel/0981/index.en.shtml","Mercure Paris Opéra Faubourg Montmartre Hotel","5  rue de Montyon","Paris","<MISSING>","75009","FRANCE","<MISSING>","(+33)1/47702610","Hotel","48.873059","2.344612","accor.com","<MISSING>","<MISSING>","location_name:street_address"
"https://all.accor.com/hotel/8652/index.en.shtml","Hotel Mercure Paris Bastille Saint Antoine","64 Rue Crozatier","PARIS","<MISSING>","75012","FRANCE","<MISSING>","(+33)1/43442250","Hotel","48.849686","2.379615","accor.com","<MISSING>","<MISSING>","location_name:street_address"
"https://all.accor.com/hotel/8575/index.en.shtml","Mercure Paris Gare du Nord La Fayette Hotel","175 rue la Fayette","PARIS","<MISSING>","75010","FRANCE","<MISSING>","(+33)1/44898910","Hotel","48.8799","2.35939","accor.com","<MISSING>","<MISSING>","location_name:street_address"
"https://all.accor.com/hotel/1131/index.en.shtml","Mercure Paris Vaugirard Porte de Versailles Hotel","69 boulevard Victor","PARIS","<MISSING>","75015","FRANCE","<MISSING>","(+33)1/44190303","Hotel","48.832895","2.288085","accor.com","<MISSING>","<MISSING>","location_name:street_address"
"https://all.accor.com/hotel/0375/index.en.shtml","Mercure Paris Porte de Versailles Expo Hotel","36 38  rue du moulin","VANVES","<MISSING>","92170","FRANCE","<MISSING>","(+33)8/25805757","Hotel","48.827125","2.292001","accor.com","<MISSING>","<MISSING>","location_name:street_address"
"https://all.accor.com/hotel/0903/index.en.shtml","Hotel Mercure Paris 15 Porte de Versailles","6,  rue Saint Lambert","Paris","<MISSING>","75015","FRANCE","<MISSING>","(+33)1/45586100","Hotel","48.838385","2.290459","accor.com","<MISSING>","<MISSING>","location_name:street_address"
"https://all.accor.com/hotel/1913/index.en.shtml","Mercure Paris Opéra Garnier Hotel & Spa","4 rue de l 'Isly","PARIS","<MISSING>","75008","FRANCE","<MISSING>","(+33)1/43873055","Hotel","48.874806","2.326376","accor.com","<MISSING>","<MISSING>","location_name:street_address"
"https://all.accor.com/hotel/2175/index.en.shtml","Mercure Paris Centre Eiffel Tower Hotel","20 rue Jean Rey","PARIS","<MISSING>","75015","FRANCE","<MISSING>","(+33)1/45785000","Hotel","48.855381","2.291969","accor.com","<MISSING>","<MISSING>","location_name:street_address"
"https://all.accor.com/hotel/6223/index.en.shtml","Mercure Paris Gare de l'Est Magenta Hotel","1-3 Cour de la Ferme St LazareAngle 79/81 boulevard Magenta","PARIS","<MISSING>","75010","FRANCE","<MISSING>","(+33)1/48248484","Hotel","48.876006","2.355741","accor.com","<MISSING>","<MISSING>","location_name:street_address"
"https://all.accor.com/hotel/9688/index.en.shtml","Mercure Paris Opera Grands Boulevards Hotel","42 rue des Petites Ecuries","PARIS","<MISSING>","75010","FRANCE","<MISSING>","(+33)1/42469186","Hotel","48.874042","2.350098","accor.com","<MISSING>","<MISSING>","location_name:street_address"
"https://all.accor.com/hotel/8816/index.en.shtml","Hotel Mercure Paris 19 Philharmonie La Villette","216 Avenue Jean Jaures","PARIS","<MISSING>","75019","FRANCE","<MISSING>","(+33)1/44841818","Hotel","48.8889580678","2.3940970661","accor.com","<MISSING>","<MISSING>","location_name:street_address"
"https://all.accor.com/hotel/A025/index.en.shtml","Mercure Paris 9 Pigalle Sacre-Coeur hotel","21 Boulevard De Clichy","Paris","<MISSING>","75009","FRANCE","<MISSING>","(+33)1/48740112","Hotel","48.8825","2.336389","accor.com","<MISSING>","<MISSING>","location_name:street_address"
"https://all.accor.com/hotel/0373/index.en.shtml","Mercure Paris Montmartre Sacré-Coeur Hotel","3  rue Caulaincourt","PARIS","<MISSING>","75018","FRANCE","<MISSING>","(+33)0144697070","Hotel","48.885048","2.329923","accor.com","<MISSING>","<MISSING>","location_name:street_address"
"https://all.accor.com/hotel/2217/index.en.shtml","Mercure Paris Gare de Lyon TGV hotel","2 place Louis Armand","Paris","<MISSING>","75012","FRANCE","<MISSING>","(+33)1/43448484","Hotel","48.844779","2.372532","accor.com","<MISSING>","<MISSING>","location_name:street_address"
"https://all.accor.com/hotel/0934/index.en.shtml","Mercure Paris Bercy Bibliothèque Hotel","6, boulevard Vincent Auriol","PARIS","<MISSING>","75013","FRANCE","<MISSING>","(+33)1/45824800","Hotel","48.837457","2.373111","accor.com","<MISSING>","<MISSING>","location_name:street_address"
"https://all.accor.com/hotel/A4A5/index.en.shtml","Hotel Mercure Brest Centre Les Voyageurs","2 Rue Yves Collet","BREST","<MISSING>","29200","FRANCE","<MISSING>","(+33)2/29610909","Hotel","48.389136","-4.483951","accor.com","<MISSING>","<MISSING>","location_name:street_address"
"https://all.accor.com/hotel/1421/index.en.shtml","Mercure Quimper Centre Hotel","21 bis avenue de la gare","QUIMPER","<MISSING>","29000","FRANCE","<MISSING>","(+33)2/98903171","Hotel","47.994104","-4.093662","accor.com","<MISSING>","<MISSING>","location_name:street_address"
"https://all.accor.com/hotel/B535/index.en.shtml","Hôtel Mercure Roscoff Bord de Mer","27 Place Lacaze Duthiers","ROSCOFF","<MISSING>","29680","FRANCE","<MISSING>","(+33)298612495","Hotel","48.726656","-3.985163","accor.com","<MISSING>","<MISSING>","location_name:street_address"
"https://all.accor.com/hotel/0873/index.en.shtml","Mercure Lorient Centre Hotel","31, place Jules Ferry","LORIENT","<MISSING>","56100","FRANCE","<MISSING>","(+33)2/97213573","Hotel","47.74552","-3.363031","accor.com","<MISSING>","<MISSING>","location_name:street_address"
"https://all.accor.com/hotel/A011/index.en.shtml","Mercure Dinan Port Le Jerzual","26 Quai du Tallard","LANVALLAY","<MISSING>","22100","FRANCE","<MISSING>","(+33)2/96870202","Hotel","48.457391","-2.035986","accor.com","<MISSING>","<MISSING>","location_name:street_address"
"https://all.accor.com/hotel/2182/index.en.shtml","Mercure Vannes Le Port Hotel","19 Rue Daniel GilardLe Parc du Golfe","VANNES","<MISSING>","56000","FRANCE","<MISSING>","(+33)2/97404452","Hotel","47.638107","-2.764821","accor.com","<MISSING>","<MISSING>","location_name:street_address"
"https://all.accor.com/hotel/3225/index.en.shtml","Mercure St Malo Front de Mer Hotel","36  chaussée du Sillon","SAINT MALO","<MISSING>","35400","FRANCE","<MISSING>","(+33)2/23184747","Hotel","48.652687","-2.013996","accor.com","<MISSING>","<MISSING>","location_name:street_address"
"https://all.accor.com/hotel/5971/index.en.shtml","Mercure Rennes Cesson Hotel","40 rue du BignonForum de la rocade","CESSON SEVIGNE","<MISSING>","35510","FRANCE","<MISSING>","(+33)2/99323221","Hotel","48.09945","-1.615173","accor.com","<MISSING>","<MISSING>","location_name:street_address"
"https://all.accor.com/hotel/2027/index.en.shtml","Mercure Rennes Place Bretagne Hotel","6 rue Lanjuinais","RENNES","<MISSING>","35000","FRANCE","<MISSING>","(+33)2/99791236","Hotel","48.109485","-1.682072","accor.com","<MISSING>","<MISSING>","location_name:street_address"
"https://all.accor.com/hotel/1056/index.en.shtml","Mercure Rennes Centre Parlement Hotel","1 rue Paul Louis Courier","RENNES","<MISSING>","35000","FRANCE","<MISSING>","(+33)2/99788220","Hotel","48.109072","-1.677293","accor.com","<MISSING>","<MISSING>","location_name:street_address"
"https://all.accor.com/hotel/1249/index.en.shtml","Mercure Rennes Centre Gare Hotel","1 rue du Capitaine Maignan","RENNES","<MISSING>","35000","FRANCE","<MISSING>","(+33)2/99297373","Hotel","48.104336","-1.678371","accor.com","<MISSING>","<MISSING>","location_name:street_address"
"https://all.accor.com/hotel/A1B8/index.en.shtml","Mercure Saint Malo Balmoral hotel","24 Rue Theodore Monod","SAINT-MALO","<MISSING>","35400","FRANCE","<MISSING>","(+33)2/99561673","Hotel","48.646488","-2.005849","accor.com","<MISSING>","<MISSING>","location_name:street_address"
"https://all.accor.com/hotel/5955/index.en.shtml","Mercure Limoges Royal Limousin Hotel","7 Boulevard CarnotDrop-off area","LIMOGES CEDEX 1","<MISSING>","87000","FRANCE","<MISSING>","(+33)5/55346530","Hotel","45.832236","1.261124","accor.com","<MISSING>","<MISSING>","location_name:street_address"
"https://all.accor.com/hotel/0358/index.en.shtml","Mercure Brive Hotel","Le Griffolet","USSAC","<MISSING>","19270","FRANCE","<MISSING>","(+33)5/55863636","Hotel","45.167102","1.483228","accor.com","<MISSING>","<MISSING>","location_name:street_address"
"https://all.accor.com/hotel/5440/index.en.shtml","Hôtel Mercure Abbeville Centre - Porte de La Baie de Somme","19 Place du Pilori","ABBEVILLE","<MISSING>","80100","FRANCE","<MISSING>","(+33)3/22240042","Hotel","50.107746","1.835693","accor.com","<MISSING>","<MISSING>","location_name:street_address"
"https://all.accor.com/hotel/7076/index.en.shtml","Mercure Amiens Cathedrale Hotel","21 23 rue Flatters","AMIENS","<MISSING>","80000","FRANCE","<MISSING>","(+33)3/22806060","Hotel","49.895899","2.299715","accor.com","<MISSING>","<MISSING>","location_name:street_address"
"https://all.accor.com/hotel/B0Y0/index.en.shtml","Mercure Beauvais Centre Cathédrale hotel","1 Cours Scellier","BEAUVAIS","<MISSING>","60000","FRANCE","<MISSING>","(+33)344040411","Hotel","49.43272","2.077776","accor.com","<MISSING>","<MISSING>","location_name:street_address"
"https://all.accor.com/hotel/B4C3/index.en.shtml","Hôtel Mercure Chantilly Resort & Conventions","Route D Apremont","VINEUIL SAINT FIRMIN","<MISSING>","60500","FRANCE","<MISSING>","(+33)344584777","Hotel","49.201336","2.489843","accor.com","<MISSING>","<MISSING>","location_name:street_address"
"https://all.accor.com/hotel/1623/index.en.shtml","Mercure Compiègne Sud Hotel","Rue Robert Schuman","LACROIX SAINT OUEN","<MISSING>","60610","FRANCE","<MISSING>","(+33)3/44303030","Hotel","49.380119","2.785925","accor.com","<MISSING>","<MISSING>","location_name:street_address"
"https://all.accor.com/hotel/A9F1/index.en.shtml","Mercure Moulins Centre - Hôtel de Paris","21 Rue De Paris","MOULINS","<MISSING>","03000","FRANCE","<MISSING>","(+33)470440058","Hotel","46.568063","3.330452","accor.com","<MISSING>","<MISSING>","location_name:street_address"
"https://all.accor.com/hotel/0460/index.en.shtml","Mercure Vichy Thermalia Hotel","1 Avenue Thermale","VICHY","<MISSING>","03200","FRANCE","<MISSING>","(+33)4/70305252","Hotel","46.126507","3.419778","accor.com","<MISSING>","<MISSING>","location_name:street_address"
"https://all.accor.com/hotel/9171/index.en.shtml","Mercure Clermont Ferrand Centre Jaude Hotel","1 Avenue Julien","CLERMONT FERRAND","<MISSING>","63000","FRANCE","<MISSING>","(+33)4/63662100","Hotel","45.775457","3.081903","accor.com","<MISSING>","<MISSING>","location_name:street_address"
"https://all.accor.com/hotel/1814/index.en.shtml","Mercure Saint Nectaire Spa & Bien-être Hotel","Les Bains Romains","SAINT NECTAIRE","<MISSING>","63710","FRANCE","<MISSING>","(+33)4/73885700","Hotel","45.579166","2.996494","accor.com","<MISSING>","<MISSING>","location_name:street_address"
"https://all.accor.com/hotel/5511/index.en.shtml","Mercure Luxeuil Les Bains Hexagone Hotel","19 Avenue Labienus..","LUXEUIL LES BAINS","<MISSING>","70300","FRANCE","<MISSING>","(+33)3/84936169","Hotel","47.8168","6.373755","accor.com","<MISSING>","<MISSING>","location_name:street_address"
"https://all.accor.com/hotel/B825/index.en.shtml","MERCURE BELFORT CENTRE","2A Avenue Jean Moulin","BELFORT","<MISSING>","90000","FRANCE","<MISSING>","(+33)384228484","Hotel","47.6447805282","6.863097354","accor.com","<MISSING>","<MISSING>","location_name:street_address"
"https://all.accor.com/hotel/1220/index.en.shtml","Mercure Besancon Parc Micaud Hotel","3 avenue Edouard Droz","BESANCON","<MISSING>","25000","FRANCE","<MISSING>","(+33)3/81403434","Hotel","47.242014","6.031634","accor.com","<MISSING>","<MISSING>","location_name:street_address"
"https://all.accor.com/hotel/1976/index.en.shtml","Mercure Forbach Hotel","70 rue Felix Barth","FORBACH","<MISSING>","57600","FRANCE","<MISSING>","(+33)3/87870606","Hotel","49.178155","6.898963","accor.com","<MISSING>","<MISSING>","location_name:street_address"
"https://all.accor.com/hotel/0500/index.en.shtml","Mercure Hotel Saarbruecken Sued","Zinzinger Str. 9","SAARBRUECKEN","<MISSING>","66117","GERMANY","<MISSING>","(+49)681/58630","Hotel","49.20972","6.966023","accor.com","<MISSING>","<MISSING>","location_name:street_address"
"https://all.accor.com/hotel/1307/index.en.shtml","Mercure Hotel Saarbruecken City","Hafenstr. 8","SAARBRUECKEN","<MISSING>","66111","GERMANY","<MISSING>","(+49)681/38900","Hotel","49.237552","6.989343","accor.com","<MISSING>","<MISSING>","location_name:street_address"
"https://all.accor.com/hotel/1233/index.en.shtml","Mercure Metz Centre Hotel","29 Place Saint Thiebault","METZ","<MISSING>","57000","FRANCE","<MISSING>","(+33)3/87385050","Hotel","49.112824","6.177082","accor.com","<MISSING>","<MISSING>","location_name:street_address"
"https://all.accor.com/hotel/7239/index.en.shtml","Hotel Mercure Thionville Centre Porte du Luxembourg","2 Rue Georges Ditsch","THIONVILLE","<MISSING>","57100","FRANCE","<MISSING>","(+33)3/82518422","Hotel","49.357222","6.168249","accor.com","<MISSING>","<MISSING>","location_name:street_address"
"https://all.accor.com/hotel/1068/index.en.shtml","Mercure Nancy Centre Place Stanislas Hotel","5 rue des CarmesAccès Parking : 31 rue Gambetta","NANCY","<MISSING>","54000","FRANCE","<MISSING>","(+33)3/83309260","Hotel","48.692127","6.180276","accor.com","<MISSING>","<MISSING>","location_name:street_address"
"https://all.accor.com/hotel/A038/index.en.shtml","Hôtel Mercure Nancy Centre Gare","11 Rue Raymond Poincare","NANCY","<MISSING>","54000","FRANCE","<MISSING>","(+33)3/83397575","Hotel","48.690611","6.174585","accor.com","<MISSING>","<MISSING>","location_name:street_address"
"https://all.accor.com/hotel/0831/index.en.shtml","Mercure Épinal Centre Hotel","13 place Emile SteinBP 242","EPINAL","<MISSING>","88007","FRANCE","<MISSING>","(+33)3/29291291","Hotel","48.173116","6.445488","accor.com","<MISSING>","<MISSING>","location_name:street_address"
"https://all.accor.com/hotel/7287/index.en.shtml","Mercure Vittel Hotel","158 Avenue Bouloumie","VITTEL","<MISSING>","88800","FRANCE","<MISSING>","(+33)3/29092000","Hotel","48.204513","5.942222","accor.com","<MISSING>","<MISSING>","location_name:street_address"
"https://all.accor.com/hotel/B5V9/index.en.shtml","Mercure Figeac Viguier du Roy","52 Rue Emile Zola","FIGEAC","<MISSING>","46100","FRANCE","<MISSING>","(+33)565500505","Hotel","44.6088","2.036439","accor.com","<MISSING>","<MISSING>","location_name:street_address"
"https://all.accor.com/hotel/B803/index.en.shtml","Mercure Peyragudes Loudenvielle Pyrenees","Chemin Du Rioutor","LOUDENVIELLE","<MISSING>","65510","FRANCE","<MISSING>","(+33)0536303030","Hotel","42.798779","0.410019","accor.com","<MISSING>","<MISSING>","location_name:street_address"
"https://all.accor.com/hotel/2904/index.en.shtml","Mercure Saint Lary Sensoria Hotel","Jardin des thermes18 Rue de Soulan","SAINT LARY-SOULAN","<MISSING>","65170","FRANCE","<MISSING>","(+33)5/62995000","Hotel","42.81999","0.321929","accor.com","<MISSING>","<MISSING>","location_name:street_address"
"https://all.accor.com/hotel/5445/index.en.shtml","Mercure Lourdes Impérial Hotel","3 Avenue du Paradis","LOURDES","<MISSING>","65100","FRANCE","<MISSING>","(+33)5/62940630","Hotel","43.095013","-0.052174","accor.com","<MISSING>","<MISSING>","location_name:street_address"
"https://all.accor.com/hotel/5614/index.en.shtml","Mercure Millau Hotel","1 Place de la Tine","MILLAU","<MISSING>","12100","FRANCE","<MISSING>","(+33)5/65592900","Hotel","44.100674","3.0792","accor.com","<MISSING>","<MISSING>","location_name:street_address"
"https://all.accor.com/hotel/7013/index.en.shtml","4-star Mercure Rodez Cathédrale & Mercure Residence","1 avenue Victor Hugo","RODEZ","<MISSING>","12000","FRANCE","<MISSING>","(+33)5/65685519","Hotel","44.351005","2.572157","accor.com","<MISSING>","<MISSING>","location_name:street_address"
"https://all.accor.com/hotel/1211/index.en.shtml","Mercure Albi Bastides Hotel","41 bis rue Porta","ALBI","<MISSING>","81000","FRANCE","<MISSING>","(+33)5/63476666","Hotel","43.932802","2.146379","accor.com","<MISSING>","<MISSING>","location_name:street_address"
"https://all.accor.com/hotel/A4C2/index.en.shtml","Hotel Mercure Castres L'Occitan","201 Avenue Charles De Gaulle","CASTRES","<MISSING>","81100","FRANCE","<MISSING>","(+33)563353420","Hotel","43.599602","2.257524","accor.com","<MISSING>","<MISSING>","location_name:street_address"
"https://all.accor.com/hotel/8244/index.en.shtml","Mercure Toulouse Airport Golf de Seilh Hotel","Route de GrenadeToulouse","SEILH","<MISSING>","31840","FRANCE","<MISSING>","(+33)5/62131415","Hotel","43.684089","1.357756","accor.com","<MISSING>","<MISSING>","location_name:street_address"
"https://all.accor.com/hotel/1260/index.en.shtml","Mercure Toulouse Centre Wilson Capitole hotel","7 rue Labeda","TOULOUSE","<MISSING>","31000","FRANCE","<MISSING>","(+33)5/34454060","Hotel","43.604654","1.448382","accor.com","<MISSING>","<MISSING>","location_name:street_address"
"https://all.accor.com/hotel/0370/index.en.shtml","Mercure Toulouse Centre Saint-Georges Hotel","rue saint JéromePour GPS : 1 rue Paul Mériel","TOULOUSE","<MISSING>","31000","FRANCE","<MISSING>","(+33)5/62277979","Hotel","43.603511","1.448394","accor.com","<MISSING>","<MISSING>","location_name:street_address"
"https://all.accor.com/hotel/1585/index.en.shtml","Mercure Toulouse Centre Compans hotel","Boulevard Lascrosses8 Esplanade Compans Caffarelli","TOULOUSE","<MISSING>","31000","FRANCE","<MISSING>","(+33)5/61110909","Hotel","43.610705","1.434822","accor.com","<MISSING>","<MISSING>","location_name:street_address"
"https://all.accor.com/hotel/0369/index.en.shtml","Hôtel Mercure Strasbourg Airport","26, rue du 23 Novembre","OSTWALD","<MISSING>","67540","FRANCE","<MISSING>","(+33)3/90405151","Hotel","48.533459","7.702017","accor.com","<MISSING>","<MISSING>","location_name:street_address"
"https://all.accor.com/hotel/0978/index.en.shtml","Mercure Colmar Centre Unterlinden Hotel","15 rue Golbery","COLMAR","<MISSING>","68000","FRANCE","<MISSING>","(+33)3/89417171","Hotel","48.081106","7.357523","accor.com","<MISSING>","<MISSING>","location_name:street_address"
"https://all.accor.com/hotel/1106/index.en.shtml","Mercure Strasbourg Centre Hotel","25 rue Thomann","STRASBOURG","<MISSING>","67000","FRANCE","<MISSING>","(+33)3/90227070","Hotel","48.584833","7.7452","accor.com","<MISSING>","<MISSING>","location_name:street_address"
"https://all.accor.com/hotel/1813/index.en.shtml","Mercure Strasbourg Centre Petite France hotel","3, rue du Maire Kuss","STRASBOURG","<MISSING>","67000","FRANCE","<MISSING>","(+33)3/88328080","Hotel","48.583572","7.738053","accor.com","<MISSING>","<MISSING>","location_name:street_address"
"https://all.accor.com/hotel/2149/index.en.shtml","Mercure Strasbourg Centre Gare Hotel","14-15 Place de la gare","STRASBOURG","<MISSING>","67000","FRANCE","<MISSING>","(+33)3/88157815","Hotel","48.584997","7.736245","accor.com","<MISSING>","<MISSING>","location_name:street_address"
"https://all.accor.com/hotel/1264/index.en.shtml","Mercure Mulhouse Centre Hotel","4  place du Général de Gaulle","MULHOUSE","<MISSING>","68100","FRANCE","<MISSING>","(+33)3/89362939","Hotel","47.743616","7.342099","accor.com","<MISSING>","<MISSING>","location_name:street_address"
"https://all.accor.com/hotel/B7A8/index.en.shtml","Mercure Bale Mulhouse Aeroport (Opening March 2020)","3 Rue De L Industrie","BLOTZHEIM","<MISSING>","68730","FRANCE","<MISSING>","(+33)351252525","Hotel","47.6082","7.5022","accor.com","<MISSING>","<MISSING>","location_name:street_address"
"https://all.accor.com/hotel/A6Q0/index.en.shtml","Hotel Mercure Villeneuve-sur-Lot-Le Moulin de Madame","Route De Casseneuil","VILLENEUVE SUR LOT","<MISSING>","47300","FRANCE","<MISSING>","(+33)5/53361440","Hotel","44.424525","0.700464","accor.com","<MISSING>","<MISSING>","location_name:street_address"
"https://all.accor.com/hotel/6237/index.en.shtml","Mercure Périgueux Centre Hotel","7 place Francheville","PERIGUEUX","<MISSING>","24000","FRANCE","<MISSING>","(+33)5/53066500","Hotel","45.182335","0.717284","accor.com","<MISSING>","<MISSING>","location_name:street_address"
"https://all.accor.com/hotel/1281/index.en.shtml","Hotel Mercure Bordeaux Centre Ville","5 rue Robert Lateulade","BORDEAUX","<MISSING>","33000","FRANCE","<MISSING>","(+33)5/56564343","Hotel","44.83851","-0.586266","accor.com","<MISSING>","<MISSING>","location_name:street_address"
"https://all.accor.com/hotel/1508/index.en.shtml","Mercure Bordeaux Airport Hotel","1 avenue Charles Lindbergh","MERIGNAC","<MISSING>","33700","FRANCE","<MISSING>","(+33)5/56347474","Hotel","44.835513","-0.691978","accor.com","<MISSING>","<MISSING>","location_name:street_address"
"https://all.accor.com/hotel/6238/index.en.shtml","Mercure Libourne Saint Emilion Hotel","3 Quai Souchet","LIBOURNE","<MISSING>","33500","FRANCE","<MISSING>","(+33)5/57256418","Hotel","44.915619","-0.247742","accor.com","<MISSING>","<MISSING>","location_name:street_address"
"https://all.accor.com/hotel/2877/index.en.shtml","Mercure Bordeaux Cité Mondiale Centre Ville Hotel","18 Parvis des Chartrons20 quais des Chartrons","BORDEAUX","<MISSING>","33080","FRANCE","<MISSING>","(+33)5/56017979","Hotel","44.849964","-0.571135","accor.com","<MISSING>","<MISSING>","location_name:street_address"
"https://all.accor.com/hotel/0551/index.en.shtml","Mercure Bordeaux Lac Hotel","Rue du grand BarailQuartier du lac","BORDEAUX","<MISSING>","33300","FRANCE","<MISSING>","(+33)5/56433672","Hotel","44.889323","-0.563521","accor.com","<MISSING>","<MISSING>","location_name:street_address"
"https://all.accor.com/hotel/1810/index.en.shtml","Mercure Bordeaux Château Chartrons Hotel","81 cours Saint-Louis","BORDEAUX","<MISSING>","33300","FRANCE","<MISSING>","(+33)5/56431500","Hotel","44.859339","-0.569155","accor.com","<MISSING>","<MISSING>","location_name:street_address"
"https://all.accor.com/hotel/7286/index.en.shtml","Hotel Mercure President Biarritz Plage","18 Place Georges Clemenceau","BIARRITZ","<MISSING>","64200","FRANCE","<MISSING>","(+33)5/59246640","Hotel","43.481926","-1.559665","accor.com","<MISSING>","<MISSING>","location_name:street_address"
"https://all.accor.com/hotel/5681/index.en.shtml","Mercure Biarritz Centre Plaza Hotel","10 avenue Edouard VII","BIARRITZ","<MISSING>","64200","FRANCE","<MISSING>","(+33)5/59247400","Hotel","43.482804","-1.558653","accor.com","<MISSING>","<MISSING>","location_name:street_address"
"https://all.accor.com/hotel/A0Y1/index.en.shtml","Hôtel Mercure Bayonne Centre Le Grand Hotel","21 Rue Thiers","BAYONNE","<MISSING>","64100","FRANCE","<MISSING>","(+33)5/59596200","Hotel","43.492304","-1.476461","accor.com","<MISSING>","<MISSING>","location_name:street_address"
"https://all.accor.com/hotel/0952/index.en.shtml","Mercure Pau Palais des Sports Hotel","106 Avenue de l Europe","PAU","<MISSING>","64000","FRANCE","<MISSING>","(+33)559842970","Hotel","43.329243","-0.352751","accor.com","<MISSING>","<MISSING>","location_name:street_address"
"https://all.accor.com/hotel/9172/index.en.shtml","Mercure Bastia Biguglia Hotel (opening May 2018)","Route d'Ortale","BASTIA","<MISSING>","20600","FRANCE","<MISSING>","(+33)495349610","Hotel","42.594849","9.436626","accor.com","<MISSING>","<MISSING>","location_name:street_address"
"https://all.accor.com/hotel/1358/index.en.shtml","Mercure Ajaccio Hotel","115 cours Napoléon","AJACCIO","<MISSING>","20090","FRANCE","<MISSING>","(+33)4/95100909","Hotel","41.932319","8.74045","accor.com","<MISSING>","<MISSING>","location_name:street_address"
"https://all.accor.com/hotel/6851/index.en.shtml","Mercure Angers Centre Gare Hotel","18 Boulevard Foch","ANGERS","<MISSING>","49100","FRANCE","<MISSING>","(+33)2/41873720","Hotel","47.469162","-0.549639","accor.com","<MISSING>","<MISSING>","location_name:street_address"
"https://all.accor.com/hotel/0540/index.en.shtml","Mercure Angers Congress Center","1 place Mendes France","ANGERS","<MISSING>","49100","FRANCE","<MISSING>","(+33)2/41603481","Hotel","47.474041","-0.545272","accor.com","<MISSING>","<MISSING>","location_name:street_address"
"https://all.accor.com/hotel/1212/index.en.shtml","Mercure Angers Lac de Maine Hotel","2 allée du Grand Launay","ANGERS","<MISSING>","49000","FRANCE","<MISSING>","(+33)2/41480212","Hotel","47.468616","-0.593973","accor.com","<MISSING>","<MISSING>","location_name:street_address"
"https://all.accor.com/hotel/6648/index.en.shtml","Mercure Bords de Loire Saumur Hotel","1 Rue du vieux Pont","SAUMUR","<MISSING>","49400","FRANCE","<MISSING>","(+33)2/41672242","Hotel","47.26182","-0.071706","accor.com","<MISSING>","<MISSING>","location_name:street_address"
"https://all.accor.com/hotel/7363/index.en.shtml","Mercure Cholet Centre Hotel","81 Place Travot","CHOLET","<MISSING>","49300","FRANCE","<MISSING>","(+33)02/41294025","Hotel","47.06138","-0.880412","accor.com","<MISSING>","<MISSING>","location_name:street_address"
"https://all.accor.com/hotel/5641/index.en.shtml","Mercure Le Mans Centre Hotel","19 rue Chanzy","LE MANS","<MISSING>","72000","FRANCE","<MISSING>","(+33)2/43402240","Hotel","48.001888","0.202744","accor.com","<MISSING>","<MISSING>","location_name:street_address"
"https://all.accor.com/hotel/0344/index.en.shtml","Mercure Le Mans Batignolles Hotel","bd d'Estienne d'Orves17 rue de la pointe","LE MANS","<MISSING>","72100","FRANCE","<MISSING>","(+33)2/43722720","Hotel","47.983531","0.188488","accor.com","<MISSING>","<MISSING>","location_name:street_address"
"https://all.accor.com/hotel/1552/index.en.shtml","Mercure La Roche Sur Yon Centre Hotel","117 boulevard Aristide Briand","LA ROCHE SUR YON","<MISSING>","85000","FRANCE","<MISSING>","(+33)2/51462800","Hotel","46.668574","-1.431095","accor.com","<MISSING>","<MISSING>","location_name:street_address"
"https://all.accor.com/hotel/5692/index.en.shtml","Mercure La Baule Majestic Hotel","02 Avenue de la Noue","LA BAULE","<MISSING>","44500","FRANCE","<MISSING>","(+33)2/40602486","Hotel","47.280514","-2.408253","accor.com","<MISSING>","<MISSING>","location_name:street_address"
"https://all.accor.com/hotel/B262/index.en.shtml","Mercure Zénith Nantes Saint-Herblain Hotel","Esplanade Ella FitzgeraldZAC Ar Mor","SAINT-HERBLAIN","<MISSING>","44800","FRANCE","<MISSING>","(+33)2/72010000","Hotel","47.227961","-1.624509","accor.com","<MISSING>","<MISSING>","location_name:street_address"
"https://all.accor.com/hotel/1985/index.en.shtml","Mercure Nantes Centre Grand Hotel Hotel","4  Rue du CouedicAccès GPS Zone Pietonne :N 47°12'48.91"" W 1°33'24.19""","NANTES","<MISSING>","44000","FRANCE","<MISSING>","(+33)2/51821000","Hotel","47.214005","-1.557058","accor.com","<MISSING>","<MISSING>","location_name:street_address"
"https://all.accor.com/hotel/B094/index.en.shtml","Hôtel Mercure Nantes Centre Passage Pommeraye","2 Rue Boileau","NANTES","<MISSING>","44000","FRANCE","<MISSING>","(+33)2/40487879","Hotel","47.214108","-1.560276","accor.com","<MISSING>","<MISSING>","location_name:street_address"
"https://all.accor.com/hotel/3448/index.en.shtml","Mercure Nantes Centre Gare Hotel","50/51 Quai Malakoff","NANTES","<MISSING>","44000","FRANCE","<MISSING>","(+33)2/40353030","Hotel","47.216141","-1.543981","accor.com","<MISSING>","<MISSING>","location_name:street_address"
"https://all.accor.com/hotel/A0H8/index.en.shtml","Mercure Aberdeen Caledonian Hotel","10 14 Union Terrace","ABERDEEN","<MISSING>","AB101WE","UNITED KINGDOM","<MISSING>","(+44)1224640233","Hotel","57.14628","-2.103435","accor.com","<MISSING>","<MISSING>","location_name:street_address"
"https://all.accor.com/hotel/8344/index.en.shtml","Mercure Ayr Hotel","Dalblair RoadAyr","AYR","<MISSING>","KA7 1UG","UNITED KINGDOM","<MISSING>","(+44)01292844299","Hotel","55.460657","-4.63166","accor.com","<MISSING>","<MISSING>","location_name:street_address"
"https://all.accor.com/hotel/B4Y6/index.en.shtml","Mercure Barnsley Tankersley Manor Hotel","Church LaneTankerlsey","BARNSLEY","<MISSING>","S75 3DQ","UNITED KINGDOM","<MISSING>","(+44)1226/744700","Hotel","53.489647","-1.48685","accor.com","<MISSING>","<MISSING>","location_name:street_address"
"https://all.accor.com/hotel/6619/index.en.shtml","Mercure Winchester Wessex Hotel","Paternoster Row","WINCHESTER","<MISSING>","SO23 9LQ","UNITED KINGDOM","<MISSING>","(+44)1962/861611","Hotel","51.06123","-1.311941","accor.com","<MISSING>","<MISSING>","location_name:street_address"
"https://all.accor.com/hotel/6698/index.en.shtml","Mercure Bristol Holland House","Redcliffe Hill","BRISTOL","<MISSING>","BS1 6SQ","UNITED KINGDOM","<MISSING>","(+44)117/9689900","Hotel","51.447341","-2.591025","accor.com","<MISSING>","<MISSING>","location_name:street_address"
"https://all.accor.com/hotel/6548/index.en.shtml","Mercure Bristol Brigstow Hotel","Welsh Back 5-7","BRISTOL","<MISSING>","BS1 4SP","UNITED KINGDOM","<MISSING>","(+44)117/9291030","Hotel","51.453117","-2.592749","accor.com","<MISSING>","<MISSING>","location_name:street_address"
"https://all.accor.com/hotel/B541/index.en.shtml","Mercure Bedford Centre Hotel","2 St Marys Street","BEDFORD","<MISSING>","MK42 0AR","UNITED KINGDOM","<MISSING>","(+44)01234799988","Hotel","52.133977","-0.465752","accor.com","<MISSING>","<MISSING>","location_name:street_address"
"https://all.accor.com/hotel/B538/index.en.shtml","Mercure Birmingham West Hotel","Birmingham Road","WEST BROMWICH","<MISSING>","B70 6TU","UNITED KINGDOM","<MISSING>","(+44)01216099988","Hotel","52.513438","-1.976012","accor.com","<MISSING>","<MISSING>","location_name:street_address"
"https://all.accor.com/hotel/6617/index.en.shtml","Mercure Blackburn Dunkenhalgh Hotel & Spa","Blackburn RoadClayton Le Moors Lancashire","BLACKBURN","<MISSING>","BB5 5JP","UNITED KINGDOM","<MISSING>","(+44)1254/303400","Hotel","53.768386","-2.39473","accor.com","<MISSING>","<MISSING>","location_name:street_address"
"https://all.accor.com/hotel/8327/index.en.shtml","Mercure Bolton Georgian House Hotel","Manchester RoadBlackrod","BOLTON","<MISSING>","BL6 5RU","UNITED KINGDOM","<MISSING>","(+44)01942330012","Hotel","53.576499","-2.560394","accor.com","<MISSING>","<MISSING>","location_name:street_address"
"https://all.accor.com/hotel/B740/index.en.shtml","Mercure Hotel Luebeck City Center","Hansestrasse 3","LUEBECK","<MISSING>","23558","GERMANY","<MISSING>","(+49)451/88090","Hotel","53.866064","10.672163","accor.com","<MISSING>","<MISSING>","location_name:street_address"
"https://all.accor.com/hotel/2004/index.en.shtml","Mercure Hotel Koblenz","Julius-Wegeler-Str. 6","KOBLENZ","<MISSING>","56068","GERMANY","<MISSING>","(+49)2611360","Hotel","50.353722","7.600685","accor.com","<MISSING>","<MISSING>","location_name:street_address"
"https://all.accor.com/hotel/0676/index.en.shtml","Mercure Hotel Bonn Hardtberg","Max Habermann Strasse 2","BONN","<MISSING>","53123","GERMANY","<MISSING>","(+49)228/25990","Hotel","50.704577","7.053881","accor.com","<MISSING>","<MISSING>","location_name:street_address"
"https://all.accor.com/hotel/5338/index.en.shtml","Mercure Hotel Bad Duerkheim An Den Salinen","Kurbrunnenstrasse 30-32","BAD DUERKHEIM","<MISSING>","67098","GERMANY","<MISSING>","(+49)63226010","Hotel","49.465961","8.173575","accor.com","<MISSING>","<MISSING>","location_name:street_address"
"https://all.accor.com/hotel/5379/index.en.shtml","Mercure Hotel Frankfurt Eschborn Helfmann Park","Helfmann-Park 1","ESCHBORN","<MISSING>","65760","GERMANY","<MISSING>","(+49)6196/96970","Hotel","50.139643","8.584861","accor.com","<MISSING>","<MISSING>","location_name:street_address"
"https://all.accor.com/hotel/1204/index.en.shtml","Mercure Hotel & Residenz Frankfurt Messe","Voltastr. 29","FRANKFURT AM MAIN","<MISSING>","60486","GERMANY","<MISSING>","(+49)69/79260","Hotel","50.116781","8.638955","accor.com","<MISSING>","<MISSING>","location_name:street_address"
"https://all.accor.com/hotel/5356/index.en.shtml","Mercure Hotel Trier Porta Nigra","Porta-Nigra-Platz 1","TRIER","<MISSING>","54292","GERMANY","<MISSING>","(+49)651/27010","Hotel","49.760239","6.644096","accor.com","<MISSING>","<MISSING>","location_name:street_address"
"https://all.accor.com/hotel/2898/index.en.shtml","Hotel Mercure Luxembourg Kikuoka Golf and Spa","100 Scheierhaff","CANACH","<MISSING>","5412","LUXEMBOURG","<MISSING>","(+352)263541","Hotel","49.593783","6.312542","accor.com","<MISSING>","<MISSING>","location_name:street_address"
"https://all.accor.com/hotel/2937/index.en.shtml","Mercure Hotel Bad Homburg Friedrichsdorf","Im Dammwald 1","FRIEDRICHSDORF","<MISSING>","61381","GERMANY","<MISSING>","(+49)061727390","Hotel","50.252426","8.635458","accor.com","<MISSING>","<MISSING>","location_name:street_address"
"https://all.accor.com/hotel/0491/index.en.shtml","Mercure Hotel Frankfurt Eschborn Ost","Helfmann-Park 6","ESCHBORN","<MISSING>","65760","GERMANY","<MISSING>","(+49)61969010","Hotel","50.138077","8.582898","accor.com","<MISSING>","<MISSING>","location_name:street_address"
"https://all.accor.com/hotel/8115/index.en.shtml","Mercure Hotel Kaiserhof Frankfurt City Center","Kaiserstr 62Hessen","FRANKFURT AM MAIN","<MISSING>","60329","GERMANY","<MISSING>","(+49)69/2561790","Hotel","50.10827","8.667662","accor.com","<MISSING>","<MISSING>","location_name:street_address"
"https://all.accor.com/hotel/9224/index.en.shtml","Mercure Hotel Frankfurt City Messe","Duesseldorfer Str 20","FRANKFURT AM MAIN","<MISSING>","60329","GERMANY","<MISSING>","(+49)69/272120","Hotel","50.109252","8.661615","accor.com","<MISSING>","<MISSING>","location_name:street_address"
"https://all.accor.com/hotel/5381/index.en.shtml","Mercure Neu-Isenburg","Frankfurter Str. 190","NEU ISENBURG","<MISSING>","63263","GERMANY","<MISSING>","(+49)6102/59940","Hotel","50.047754","8.695288","accor.com","<MISSING>","<MISSING>","location_name:street_address"
"https://all.accor.com/hotel/3128/index.en.shtml","Mercure Hotel Frankfurt Eschborn Sued","Frankfurter Strasse 71-75","ESCHBORN","<MISSING>","65760","GERMANY","<MISSING>","(+49)6196/77900","Hotel","50.136269","8.572475","accor.com","<MISSING>","<MISSING>","location_name:street_address"
"https://all.accor.com/hotel/B829/index.en.shtml","Mercure Hotel Mainz City Center","Kaiserstrasse 7","MAINZ","<MISSING>","55116","GERMANY","<MISSING>","(+49)6131/971070","Hotel","50.00302","8.2615","accor.com","<MISSING>","<MISSING>","location_name:street_address"
"https://all.accor.com/hotel/9753/index.en.shtml","Mercure Hotel Wiesbaden City","Bahnhofstrasse 10 bis 12","WIESBADEN","<MISSING>","65185","GERMANY","<MISSING>","(+49)06111620","Hotel","50.078563","8.242863","accor.com","<MISSING>","<MISSING>","location_name:street_address"
"https://all.accor.com/hotel/5029/index.en.shtml","Mercure Hotel Halle Leipzig","An der Windmühle 1","LANDSBERG-OT PEISSEN","<MISSING>","06188","GERMANY","<MISSING>","(+49)345/57500","Hotel","51.509365","12.051073","accor.com","<MISSING>","<MISSING>","location_name:street_address"
"https://all.accor.com/hotel/2126/index.en.shtml","Mercure Hotel Riesa Dresden Elbland","Bahnhofstr. 40","RIESA","<MISSING>","01587","GERMANY","<MISSING>","(+49)3525/7090","Hotel","51.308679","13.295109","accor.com","<MISSING>","<MISSING>","location_name:street_address"
"https://all.accor.com/hotel/0485/index.en.shtml","Mercure Hotel Stuttgart Boeblingen","Otto-Lilienthal-Str. 18","BOEBLINGEN","<MISSING>","71034","GERMANY","<MISSING>","(+49)70316450","Hotel","48.68535","8.987546","accor.com","<MISSING>","<MISSING>","location_name:street_address"
"https://all.accor.com/hotel/2938/index.en.shtml","Mercure Hotel Bristol Stuttgart Sindelfingen","Wilhelm-Haspel-Str. 101","SINDELFINGEN","<MISSING>","71065","GERMANY","<MISSING>","(+49)070316150","Hotel","48.707207","9.032709","accor.com","<MISSING>","<MISSING>","location_name:street_address"
"https://all.accor.com/hotel/2939/index.en.shtml","Mercure Hotel Stuttgart Sindelfingen an der Messe","Schwertstr. 65","SINDELFINGEN","<MISSING>","71065","GERMANY","<MISSING>","(+49)7031/61960","Hotel","48.704585","9.039484","accor.com","<MISSING>","<MISSING>","location_name:street_address"
"https://all.accor.com/hotel/0492/index.en.shtml","Mercure Hotel Freiburg Am Muenster","Auf der Zinnen 1","FREIBURG","<MISSING>","79098","GERMANY","<MISSING>","(+49)761/38510","Hotel","47.99752","7.854613","accor.com","<MISSING>","<MISSING>","location_name:street_address"
"https://all.accor.com/hotel/1128/index.en.shtml","Mercure Hotel Panorama Freiburg","Wintererstr. 89","FREIBURG","<MISSING>","79104","GERMANY","<MISSING>","(+49)761/51030","Hotel","48.007489","7.871822","accor.com","<MISSING>","<MISSING>","location_name:street_address"
"https://all.accor.com/hotel/5410/index.en.shtml","Mercure Hotel Mannheim am Rathaus","F7, 5-13Baden-Wuerttemberg","MANNHEIM","<MISSING>","68159","GERMANY","<MISSING>","(+49)621/336990","Hotel","49.490849","8.461704","accor.com","<MISSING>","<MISSING>","location_name:street_address"
"https://all.accor.com/hotel/5388/index.en.shtml","Mercure Hotel Greifswald Am Gorzberg","Am Gorzberg","GREIFSWALD","<MISSING>","17489","GERMANY","<MISSING>","(+49)38345440","Hotel","54.074715","13.393412","accor.com","<MISSING>","<MISSING>","location_name:street_address"
"https://all.accor.com/hotel/3120/index.en.shtml","Mercure Hotel & Residenz Berlin Checkpoint Charlie","Schuetzenstrasse 11","BERLIN","<MISSING>","10117","GERMANY","<MISSING>","(+49)30/206320","Hotel","52.508738","13.393399","accor.com","<MISSING>","<MISSING>","location_name:street_address"
"https://all.accor.com/hotel/5341/index.en.shtml","Mercure Hotel Berlin City","Invalidenstrasse 38","BERLIN","<MISSING>","10115","GERMANY","<MISSING>","(+49)30/308260","Hotel","52.53024","13.381882","accor.com","<MISSING>","<MISSING>","location_name:street_address"
"https://all.accor.com/hotel/A0F7/index.en.shtml","Mercure Hotel MOA Berlin","Stephanstrasse 41","BERLIN","<MISSING>","10559","GERMANY","<MISSING>","(+49)30/3940430","Hotel","52.532171","13.344161","accor.com","<MISSING>","<MISSING>","location_name:street_address"
"https://all.accor.com/hotel/4988/index.en.shtml","Mercure Hotel Berlin Mitte","Luckenwalder Strasse 11","BERLIN","<MISSING>","10963","GERMANY","<MISSING>","(+49)30/5165130","Hotel","52.500157","13.375511","accor.com","<MISSING>","<MISSING>","location_name:street_address"
"https://all.accor.com/hotel/9147/index.en.shtml","Mercure Hotel Berlin Wittenbergplatz","Wittenbergplatz 3","BERLIN","<MISSING>","10789","GERMANY","<MISSING>","(+49)30/2593550","Hotel","52.501029","13.342554","accor.com","<MISSING>","<MISSING>","location_name:street_address"
"https://all.accor.com/hotel/1894/index.en.shtml","Mercure Hotel Berlin Tempelhof","Hermannstrasse  214-216Eingang Rollbergstrasse","BERLIN","<MISSING>","12049","GERMANY","<MISSING>","(+49)30/627800","Hotel","52.478378","13.426339","accor.com","<MISSING>","<MISSING>","location_name:street_address"
"https://all.accor.com/hotel/7960/index.en.shtml","Mercure Hotel Chateau Berlin am Kurfuerstendamm","Knesebeckstrasse 38-49","BERLIN","<MISSING>","10719","GERMANY","<MISSING>","(+49)30/88911980","Hotel","52.500999","13.32118","accor.com","<MISSING>","<MISSING>","location_name:street_address"
"https://all.accor.com/hotel/9068/index.en.shtml","Mercure Hotel Berlin Zentrum","Fuggerstr 8","Berlin","<MISSING>","10777","GERMANY","<MISSING>","(+49)30/213030","Hotel","52.499228","13.347975","accor.com","<MISSING>","<MISSING>","location_name:street_address"
"https://all.accor.com/hotel/0483/index.en.shtml","Mercure Hotel Berlin City West","Ohmstrasse  4-6","BERLIN","<MISSING>","13629","GERMANY","<MISSING>","(+49)30/38030","Hotel","52.536032","13.273297","accor.com","<MISSING>","<MISSING>","location_name:street_address"
"https://all.accor.com/hotel/B279/index.en.shtml","Mercure Hotel Plaza Magdeburg","Halberstaedter Strasse 146-150","MAGDEBURG","<MISSING>","39112","GERMANY","<MISSING>","(+49)391/60510","Hotel","52.10905","11.59725","accor.com","<MISSING>","<MISSING>","location_name:street_address"
"https://all.accor.com/hotel/5375/index.en.shtml","Mercure Hotel Erfurt Altstadt","Meienbergstr. 26-27","ERFURT","<MISSING>","99084","GERMANY","<MISSING>","(+49)361/59490","Hotel","50.978365","11.034533","accor.com","<MISSING>","<MISSING>","location_name:street_address"
"https://all.accor.com/hotel/B8T4/index.en.shtml","Mercure Hotel Gera City","Gutenbergstrasse 2a","GERA CITY","<MISSING>","07548","GERMANY","<MISSING>","(+49)36529090","Hotel","50.883764","12.069974","accor.com","<MISSING>","<MISSING>","location_name:street_address"
"https://all.accor.com/hotel/5326/index.en.shtml","Mercure Hotel Aachen am Dom","Peterstrasse 1","AACHEN","<MISSING>","52062","GERMANY","<MISSING>","(+49)241/18010","Hotel","50.77494","6.087791","accor.com","<MISSING>","<MISSING>","location_name:street_address"
"https://all.accor.com/hotel/0482/index.en.shtml","Mercure Hotel Aachen Europaplatz","Joseph-von-Goerres-Strasse 21","AACHEN","<MISSING>","52068","GERMANY","<MISSING>","(+49)241/16870","Hotel","50.781249","6.107808","accor.com","<MISSING>","<MISSING>","location_name:street_address"
"https://all.accor.com/hotel/B0Q9/index.en.shtml","Mercure Hotel Bielefeld Johannisberg","Am Johannisberg 5","BIELEFELD","<MISSING>","33615","GERMANY","<MISSING>","(+49)521/92380","Hotel","52.019163","8.518584","accor.com","<MISSING>","<MISSING>","location_name:street_address"
"https://all.accor.com/hotel/2091/index.en.shtml","Mercure Hotel Bad Oeynhausen City","Koenigstrasse 3-7","BAD OEYNHAUSEN","<MISSING>","32545","GERMANY","<MISSING>","(+49)5731/25890","Hotel","52.204937","8.799319","accor.com","<MISSING>","<MISSING>","location_name:street_address"
"https://all.accor.com/hotel/A007/index.en.shtml","Mercure Hotel Bochum City","Massenbergstrasse 19 21","BOCHUM","<MISSING>","44787","GERMANY","<MISSING>","(+49)2349690","Hotel","51.48042","7.22364","accor.com","<MISSING>","<MISSING>","location_name:street_address"
"https://all.accor.com/hotel/1206/index.en.shtml","Mercure Hotel Severinshof Koeln City","Severinstr. 199Einfahrt Tiefgarage:Kleine Spitzengasse","KOELN","<MISSING>","50676","GERMANY","<MISSING>","(+49)221/20130","Hotel","50.929514","6.957017","accor.com","<MISSING>","<MISSING>","location_name:street_address"
"https://all.accor.com/hotel/A006/index.en.shtml","Mercure Hotel Dortmund Centrum","Olpe 2","DORTMUND","<MISSING>","44135","GERMANY","<MISSING>","(+49)231/543200","Hotel","51.512047","7.467771","accor.com","<MISSING>","<MISSING>","location_name:street_address"
"https://all.accor.com/hotel/2900/index.en.shtml","Mercure Hotel Dortmund City","Kampstraße 35-37","DORTMUND","<MISSING>","44137","GERMANY","<MISSING>","(+49)231/58970","Hotel","51.515096","7.463358","accor.com","<MISSING>","<MISSING>","location_name:street_address"
"https://all.accor.com/hotel/9169/index.en.shtml","Mercure Hotel Dortmund Messe & Kongress","Strobelallee 41","DORTMUND","<MISSING>","44139","GERMANY","<MISSING>","(+49)231/1204245","Hotel","51.49439","7.4556","accor.com","<MISSING>","<MISSING>","location_name:street_address"
"https://all.accor.com/hotel/A005/index.en.shtml","Mercure Hotel Kamen Unna","Kamen Karree 2","KAMEN","<MISSING>","59174","GERMANY","<MISSING>","(+49)23079690","Hotel","51.57192","7.67049","accor.com","<MISSING>","<MISSING>","location_name:street_address"
"https://all.accor.com/hotel/2922/index.en.shtml","Mercure Hotel Hagen","Wasserloses Tal 4","HAGEN","<MISSING>","58093","GERMANY","<MISSING>","(+49)23313910","Hotel","51.35368","7.484758","accor.com","<MISSING>","<MISSING>","location_name:street_address"
"https://all.accor.com/hotel/2941/index.en.shtml","Mercure Hotel Hamm","Neue Bahnhofstr. 3","HAMM","<MISSING>","59065","GERMANY","<MISSING>","(+49)2381/91920","Hotel","51.67845","7.813071","accor.com","<MISSING>","<MISSING>","location_name:street_address"
"https://all.accor.com/hotel/2927/index.en.shtml","Mercure Hotel Luedenscheid","Parkstr. 66","LUEDENSCHEID","<MISSING>","58509","GERMANY","<MISSING>","(+49)23511560","Hotel","51.217604","7.610669","accor.com","<MISSING>","<MISSING>","location_name:street_address"
"https://all.accor.com/hotel/0743/index.en.shtml","Mercure Hotel Duisburg City","Landfermann Strasse  20","DUISBURG","<MISSING>","47051","GERMANY","<MISSING>","(+49)203/300030","Hotel","51.433406","6.773823","accor.com","<MISSING>","<MISSING>","location_name:street_address"
"https://all.accor.com/hotel/5404/index.en.shtml","Mercure Parkhotel Krefelder Hof","Uerdinger Str. 245","KREFELD","<MISSING>","47800","GERMANY","<MISSING>","(+49)21515840","Hotel","51.338073","6.589059","accor.com","<MISSING>","<MISSING>","location_name:street_address"
"https://all.accor.com/hotel/4990/index.en.shtml","Mercure Hotel Plaza Essen","Bismarckstr. 48-50","ESSEN","<MISSING>","45128","GERMANY","<MISSING>","(+49)201/878580","Hotel","51.444225","7.00579","accor.com","<MISSING>","<MISSING>","location_name:street_address"
"https://all.accor.com/hotel/5373/index.en.shtml","Mercure Hotel Duesseldorf City Center","Am Stresemannplatz 1","DUESSELDORF","<MISSING>","40210","GERMANY","<MISSING>","(+49)211/35540","Hotel","51.21939","6.787725","accor.com","<MISSING>","<MISSING>","location_name:street_address"
"https://all.accor.com/hotel/9302/index.en.shtml","Mercure Hotel Duesseldorf Zentrum","Roßstraße 61","DUESSELDORF","<MISSING>","40476","GERMANY","<MISSING>","(+49)211/948530","Hotel","51.245745","6.779938","accor.com","<MISSING>","<MISSING>","location_name:street_address"
"https://all.accor.com/hotel/5371/index.en.shtml","Mercure Hotel Duesseldorf City Nord","Noerdlicher Zubringer 7Moersenbroicher Ei","DUESSELDORF","<MISSING>","40470","GERMANY","<MISSING>","(+49)211/989040","Hotel","51.2538221602","6.8001767786","accor.com","<MISSING>","<MISSING>","location_name:street_address"
"https://all.accor.com/hotel/0497/index.en.shtml","Mercure Hotel Duesseldorf Neuss","Navigation: Am GoldbergAm Derikumer Hof 1Navigation Am Derikumer Hof 8","NEUSS","<MISSING>","41469","GERMANY","<MISSING>","(+49)21311380","Hotel","51.167423","6.730918","accor.com","<MISSING>","<MISSING>","location_name:street_address"
"https://all.accor.com/hotel/B0Q8/index.en.shtml","Mercure Hotel Duesseldorf Sued","Am Schönenkamp 9","DUESSELDORF","<MISSING>","40599","GERMANY","<MISSING>","(+49)211/875750","Hotel","51.189465","6.86391","accor.com","<MISSING>","<MISSING>","location_name:street_address"
"https://all.accor.com/hotel/1631/index.en.shtml","Mercure Hotel Hannover Medical Park","Feodor-Lynen- Str. 1","HANNOVER","<MISSING>","30625","GERMANY","<MISSING>","(+49)511/95660","Hotel","52.388526","9.805463","accor.com","<MISSING>","<MISSING>","location_name:street_address"
"https://all.accor.com/hotel/1016/index.en.shtml","Mercure Hotel Hannover City","Willy Brandt-Allee 3","HANNOVER","<MISSING>","30169","GERMANY","<MISSING>","(+49)511/80080","Hotel","52.366829","9.740032","accor.com","<MISSING>","<MISSING>","location_name:street_address"
"https://all.accor.com/hotel/5391/index.en.shtml","Mercure Hotel Hannover Mitte","Postkamp 10Niedersachsen","HANNOVER","<MISSING>","30159","GERMANY","<MISSING>","(+49)511/473900","Hotel","52.380129","9.729856","accor.com","<MISSING>","<MISSING>","location_name:street_address"
"https://all.accor.com/hotel/2129/index.en.shtml","Mercure Hotel Am Entenfang Hannover","Eichsfelder Str. 4","HANNOVER","<MISSING>","30419","GERMANY","<MISSING>","(+49)511/97950","Hotel","52.405929","9.679977","accor.com","<MISSING>","<MISSING>","location_name:street_address"
"https://all.accor.com/hotel/5397/index.en.shtml","Mercure Hotel Hameln","164er Ring 3","HAMELN","<MISSING>","31785","GERMANY","<MISSING>","(+49)51517920","Hotel","52.106314","9.363055","accor.com","<MISSING>","<MISSING>","location_name:street_address"
"https://all.accor.com/hotel/A008/index.en.shtml","Mercure Hotel Hannover Oldenburger Allee","Oldenburger Allee 1","HANNOVER","<MISSING>","30659","GERMANY","<MISSING>","(+49)511/61550","Hotel","52.41676","9.8271","accor.com","<MISSING>","<MISSING>","location_name:street_address"
"https://all.accor.com/hotel/6166/index.en.shtml","Mercure Plaza Biel","40 NeumarktstrassePostfach 3376","BIEL","<MISSING>","2502","SWITZERLAND","<MISSING>","(+41)32/3286868","Hotel","47.13857","7.249614","accor.com","<MISSING>","<MISSING>","location_name:street_address"
"https://all.accor.com/hotel/B7Z9/index.en.shtml","Mercure Chur City West","Comercialstrasse 32","Chur","<MISSING>","7000","SWITZERLAND","<MISSING>","(+41)81/2565500","Hotel","46.846999","9.508297","accor.com","<MISSING>","<MISSING>","location_name:street_address"
"https://all.accor.com/hotel/9673/index.en.shtml","Mercure Algeciras","Calle Malta 1","ALGECIRAS","<MISSING>","11204","SPAIN","<MISSING>","(+34)95/6639748","Hotel","36.142744","-5.448355","accor.com","<MISSING>","<MISSING>","location_name:street_address"
"https://all.accor.com/hotel/A057/index.en.shtml","Mercure Bilbao Jardines De Albia","Calle San Vicente 6","BILBAO","<MISSING>","48001","SPAIN","<MISSING>","(+34)94/4354140","Hotel","43.263993","-2.92785","accor.com","<MISSING>","<MISSING>","location_name:street_address"
"https://all.accor.com/hotel/1987/index.en.shtml","Mercure San Sebastián Monte Igueldo","Paseo del Faro 134HSS00345PASEO DEL FARO, 134","SAN SEBASTIAN","<MISSING>","20008","SPAIN","<MISSING>","(+34)943/210211","Hotel","43.321766","-2.009642","accor.com","<MISSING>","<MISSING>","location_name:street_address"
"https://all.accor.com/hotel/9267/index.en.shtml","Mercure Barcelona Condor","Via Augusta 127HB003342","Barcelona","<MISSING>","8006","SPAIN","<MISSING>","(+34)932094511","Hotel","41.4","2.145193","accor.com","<MISSING>","<MISSING>","location_name:street_address"
"https://all.accor.com/hotel/9241/index.en.shtml","Mercure Atenea Aventura","Avda Ramon d olzina 52","VILA SECA","<MISSING>","43480","SPAIN","<MISSING>","(+34)977/396278","Hotel","41.107878","1.147428","accor.com","<MISSING>","<MISSING>","location_name:street_address"
"https://all.accor.com/hotel/A147/index.en.shtml","Mercure Rio Badajoz","Avenida Adolfo Diaz Ambrona 13","BADAJOZ","<MISSING>","06006","SPAIN","<MISSING>","(+34)924272600","Hotel","38.883759","-6.984772","accor.com","<MISSING>","<MISSING>","location_name:street_address"
"https://all.accor.com/hotel/B344/index.en.shtml","Mercure Lugo Center (Opening November 2021)","Calle Marina Espanola No 29","LUGO","<MISSING>","27002","SPAIN","<MISSING>","<MISSING>","Hotel","43.0099","-7.556","accor.com","<MISSING>","<MISSING>","location_name:street_address"
"https://all.accor.com/hotel/9618/index.en.shtml","Mercure Madrid Centro","Calle Lope De Vega 49","Madrid","<MISSING>","28014","SPAIN","<MISSING>","(+34)91/3600011","Hotel","40.4139175","-3.6944082999","accor.com","<MISSING>","<MISSING>","location_name:street_address"
"https://all.accor.com/hotel/1320/index.en.shtml","Mercure Madrid Plaza de Espana","Calle de Tutor 1Esquina Ventura Rodriguez","MADRID","<MISSING>","28008","SPAIN","<MISSING>","(+34)91/5419880","Hotel","40.425659","-3.713799","accor.com","<MISSING>","<MISSING>","location_name:street_address"
"https://all.accor.com/hotel/A336/index.en.shtml","Mercure Kaliningrad","Ozerniy Proezd, 2","KALININGRAD","<MISSING>","236040","RUSSIAN FEDERATION","<MISSING>","(+7)4012/558800","Hotel","54.721366","20.51667","accor.com","<MISSING>","<MISSING>","location_name:street_address"
"https://all.accor.com/hotel/8470/index.en.shtml","Mercure Rosa Khutor","4, LAVANDA EMBANKMENTESTOSADOK VILLAGE,KRASNAYA POLYANA, ADLER DISTR","SOCHI","<MISSING>","354392","RUSSIAN FEDERATION","<MISSING>","(+7)862/2431380","Hotel","43.671812","40.292951","accor.com","<MISSING>","<MISSING>","location_name:street_address"
"https://all.accor.com/hotel/7315/index.en.shtml","Mercure Tyumen Center","14, 50-let Oktyabrya street","Tyumen","<MISSING>","625048","RUSSIAN FEDERATION","<MISSING>","(+7)3452/534242","Hotel","57.151875","65.56707","accor.com","<MISSING>","<MISSING>","location_name:street_address"
"https://all.accor.com/hotel/B1C6/index.en.shtml","Mercure Blagoveshchensk","4 Pionerskaya Street","BLAGOVESHCHENSK","<MISSING>","675000","RUSSIAN FEDERATION","<MISSING>","(+7)4162/528528","Hotel","50.257459","127.529607","accor.com","<MISSING>","<MISSING>","location_name:street_address"
"https://all.accor.com/hotel/9441/index.en.shtml","Hotel Mercure Bydgoszcz Sepia","Marszalka Focha 20","BYDGOSZCZ","<MISSING>","85070","POLAND","<MISSING>","(+48)52/5252410","Hotel","53.124749","17.99959","accor.com","<MISSING>","<MISSING>","location_name:street_address"
"https://all.accor.com/hotel/3403/index.en.shtml","Hotel Mercure Czestochowa Centrum","2 Ks J Popieluszki St","CZESTOCHOWA","<MISSING>","42-200","POLAND","<MISSING>","(+48)34/3603100","Hotel","50.813606","19.10414","accor.com","<MISSING>","<MISSING>","location_name:street_address"
"https://all.accor.com/hotel/3399/index.en.shtml","Hotel Mercure Zakopane Kasprowy","Szymaszkowa str","ZAKOPANE","<MISSING>","34 500","POLAND","<MISSING>","(+48)18/2024000","Hotel","49.295553","19.931204","accor.com","<MISSING>","<MISSING>","location_name:street_address"
"https://all.accor.com/hotel/3390/index.en.shtml","Mercure Gdansk Stare Miasto","Ul. Jana Heweliusza 22","GDANSK","<MISSING>","80-890","POLAND","<MISSING>","(+48)583210000","Hotel","54.356546","18.651961","accor.com","<MISSING>","<MISSING>","location_name:street_address"
"https://all.accor.com/hotel/3391/index.en.shtml","Mercure Gdansk Posejdon","UL KAPLICZNA 30","GDANSK","<MISSING>","80341","POLAND","<MISSING>","(+48)58/5113000","Hotel","54.423397","18.59725","accor.com","<MISSING>","<MISSING>","location_name:street_address"
"https://all.accor.com/hotel/3420/index.en.shtml","Mercure Cieszyn","Motelowa 21","CIESZYN","<MISSING>","43400","POLAND","<MISSING>","(+48)33/8516900","Hotel","49.765055","18.6345","accor.com","<MISSING>","<MISSING>","location_name:street_address"
"https://all.accor.com/hotel/3429/index.en.shtml","Mercure Karpacz Skalny","Obroncow Pokoju St. 5","KARPACZ","<MISSING>","58-540","POLAND","<MISSING>","(+48)75/7527000","Hotel","50.772375","15.7637","accor.com","<MISSING>","<MISSING>","location_name:street_address"
"https://all.accor.com/hotel/3417/index.en.shtml","Mercure Gdynia Centrum","Armii Krajowej 22","GDYNIA","<MISSING>","81372","POLAND","<MISSING>","(+48)58/6663040","Hotel","54.517261","18.543287","accor.com","<MISSING>","<MISSING>","location_name:street_address"
"https://all.accor.com/hotel/B580/index.en.shtml","Mercure Katowice Centrum","Mlynska 6","KATOWICE","<MISSING>","40-098","POLAND","<MISSING>","(+48)327978800","Hotel","50.2584887","19.0191879","accor.com","<MISSING>","<MISSING>","location_name:street_address"
"https://all.accor.com/hotel/9076/index.en.shtml","Hotel Mercure Krynica Zdroj Resort & Spa","ul. Lesna 1","KRYNICA ZDROJ","<MISSING>","33-380","POLAND","<MISSING>","(+48)18/4777500","Hotel","49.420118","20.970399","accor.com","<MISSING>","<MISSING>","location_name:street_address"
"https://all.accor.com/hotel/1971/index.en.shtml","Mercure Villa Romanazzi Carducci Bari","Via Giuseppe Capruzzi 326","Bari","<MISSING>","70124","ITALY","<MISSING>","(+39)0809184704","Hotel","41.116321","16.859526","accor.com","<MISSING>","<MISSING>","location_name:street_address"
"https://all.accor.com/hotel/7504/index.en.shtml","Mercure Delfino Taranto","V le Virgilio 66","TARANTO","<MISSING>","74100","ITALY","<MISSING>","(+39)099/7323232","Hotel","40.461239","17.248573","accor.com","<MISSING>","<MISSING>","location_name:street_address"
"https://all.accor.com/hotel/1601/index.en.shtml","Mercure Napoli Centro Angioino","Via Depretis 123","NAPOLI","<MISSING>","80133","ITALY","<MISSING>","(+39)081/4910111","Hotel","40.840234","14.253838","accor.com","<MISSING>","<MISSING>","location_name:street_address"
"https://all.accor.com/hotel/1310/index.en.shtml","Mercure Bologna Centro","VIALE PIETRO PIETRAMELLARA N. 59","BOLOGNA","<MISSING>","40121","ITALY","<MISSING>","(+39)051/42211","Hotel","44.505079","11.343472","accor.com","<MISSING>","<MISSING>","location_name:street_address"
"https://all.accor.com/hotel/B4S2/index.en.shtml","Mercure Ferrara","Largo Castello 36Ferrara","Ferrara","<MISSING>","44121","ITALY","<MISSING>","(+39)0532205048","Hotel","44.83773","11.61867","accor.com","<MISSING>","<MISSING>","location_name:street_address"
"https://all.accor.com/hotel/9093/index.en.shtml","Mercure Parma Centro Stendhal","Via Bodoni 3","PARMA","<MISSING>","43121","ITALY","<MISSING>","(+39)0521/208057","Hotel","44.805849","10.327706","accor.com","<MISSING>","<MISSING>","location_name:street_address"
"https://all.accor.com/hotel/1964/index.en.shtml","Mercure Reggio Emilia Centro Astoria","Viale Leopoldo Nobili N°2","REGGIO EMILIA","<MISSING>","42121","ITALY","<MISSING>","(+39)0522/435245","Hotel","44.702637","10.632107","accor.com","<MISSING>","<MISSING>","location_name:street_address"
"https://all.accor.com/hotel/8018/index.en.shtml","Mercure Rimini Artis","Viale Vespucci 38RN Emilia Romagna","RIMINI","<MISSING>","47921","ITALY","<MISSING>","(+39)0541/382340","Hotel","44.066326","12.582511","accor.com","<MISSING>","<MISSING>","location_name:street_address"
"https://all.accor.com/hotel/8017/index.en.shtml","Mercure Rimini Lungomare","Viale Vespucci 18","RIMINI","<MISSING>","47921","ITALY","<MISSING>","(+39)(0)541/23015","Hotel","44.069451","12.57916","accor.com","<MISSING>","<MISSING>","location_name:street_address"
"https://all.accor.com/hotel/B2D2/index.en.shtml","Mercure Civitavecchia Sunbay Park Hotel","Via Aurelia Sud Km 68 750","CIVITAVECCHIA","<MISSING>","00053","ITALY","<MISSING>","(+39)0766/22801","Hotel","42.069216","11.811102","accor.com","<MISSING>","<MISSING>","location_name:street_address"
"https://all.accor.com/hotel/B834/index.en.shtml","Mercure Roma Centro Termini - NEW OPENING","Via Agostino Depretis 104","ROME","<MISSING>","00184","ITALY","<MISSING>","(+39)0687165320","Hotel","41.900771","12.494326","accor.com","<MISSING>","<MISSING>","location_name:street_address"
"https://all.accor.com/hotel/2909/index.en.shtml","Mercure Rome Colosseum Centre","Via Labicana 144","ROME","<MISSING>","00184","ITALY","<MISSING>","(+39)06/770021","Hotel","41.890007","12.49812","accor.com","<MISSING>","<MISSING>","location_name:street_address"
"https://all.accor.com/hotel/3304/index.en.shtml","Mercure Rome Piazza Bologna","Via Reggio Calabria 54","ROME","<MISSING>","00161","ITALY","<MISSING>","(+39)06/440741","Hotel","41.912208","12.518617","accor.com","<MISSING>","<MISSING>","location_name:street_address"
"https://all.accor.com/hotel/3320/index.en.shtml","Mercure Rome Corso Trieste","Via Gradisca 29","ROME","<MISSING>","00198","ITALY","<MISSING>","(+39)06/852021","Hotel","41.920619","12.513735","accor.com","<MISSING>","<MISSING>","location_name:street_address"
"https://all.accor.com/hotel/9617/index.en.shtml","Mercure Genova San Biagio","Via Romairone 14","GENOVA","<MISSING>","16163","ITALY","<MISSING>","(+39)010/989751","Hotel","44.476013","8.897402","accor.com","<MISSING>","<MISSING>","location_name:street_address"
"https://all.accor.com/hotel/3653/index.en.shtml","Mercure Bergamo Centro Palazzo Dolci","Viale Papa Giovanni XXIII  100","Bergamo","<MISSING>","24121","ITALY","<MISSING>","(+39)035/227411","Hotel","45.692409","9.672681","accor.com","<MISSING>","<MISSING>","location_name:street_address"
"https://all.accor.com/hotel/8894/index.en.shtml","Mercure Bergamo Aeroporto","Via Arrigo Boito 12","STEZZANO","<MISSING>","24040","ITALY","<MISSING>","(+39)035/4541050","Hotel","45.650866","9.632138","accor.com","<MISSING>","<MISSING>","location_name:street_address"
"https://all.accor.com/hotel/7926/index.en.shtml","Mercure Milano Solari","Via Pietro Orseolo 1","MILANO","<MISSING>","20144","ITALY","<MISSING>","(+39)02/5817801","Hotel","45.456848","9.168612","accor.com","<MISSING>","<MISSING>","location_name:street_address"
"https://all.accor.com/hotel/5705/index.en.shtml","Mercure Milano Centro","Piazza Oberdan 12","MILANO","<MISSING>","20129","ITALY","<MISSING>","(+39)02/29403907","Hotel","45.47472","9.205507","accor.com","<MISSING>","<MISSING>","location_name:street_address"
"https://all.accor.com/hotel/7935/index.en.shtml","Mercure Olbia","Via Puglie snc","OLBIA","<MISSING>","07026","ITALY","<MISSING>","(+39)0789/1890067","Hotel","40.922333","9.491989","accor.com","<MISSING>","<MISSING>","location_name:street_address"
"https://all.accor.com/hotel/9801/index.en.shtml","Mercure Catania Excelsior","Piazza Giovanni Verga 39","CATANIA","<MISSING>","95129","ITALY","<MISSING>","(+39)095/7476111","Hotel","37.513431","15.093618","accor.com","<MISSING>","<MISSING>","location_name:street_address"
"https://all.accor.com/hotel/5932/index.en.shtml","Mercure Palermo Centro","Via Mariano Stabile 112","PALERMO","<MISSING>","90139","ITALY","<MISSING>","(+39)091/324911","Hotel","38.123982","13.360426","accor.com","<MISSING>","<MISSING>","location_name:street_address"
"https://all.accor.com/hotel/6443/index.en.shtml","Mercure Siracusa Prometeo","Viale Teracati 20","SIRACUSA","<MISSING>","96100","ITALY","<MISSING>","(+39)0931/464646","Hotel","37.0761","15.281811","accor.com","<MISSING>","<MISSING>","location_name:street_address"
"https://all.accor.com/hotel/8089/index.en.shtml","Mercure Nerocubo Rovereto","Via per Marco 16Mori Stazione","ROVERETO","<MISSING>","38068","ITALY","<MISSING>","(+39)0464/022022","Hotel","45.855661","11.002035","accor.com","<MISSING>","<MISSING>","location_name:street_address"
"https://all.accor.com/hotel/9131/index.en.shtml","Mercure Florence Center","Via Nazionale 21/23 R","FLORENCE","<MISSING>","50123","ITALY","<MISSING>","(+39)0555300700","Hotel","43.776466","11.250824","accor.com","<MISSING>","<MISSING>","location_name:street_address"
"https://all.accor.com/hotel/B2D3/index.en.shtml","Mercure Argentario Hotel Filippo II","Localita Poggio Calvello 17Porto Santo Stefano","MONTE ARGENTARIO","<MISSING>","58019","ITALY","<MISSING>","(+39)0564811611","Hotel","42.4367688","11.1374616","accor.com","<MISSING>","<MISSING>","location_name:street_address"
"https://all.accor.com/hotel/B2S1/index.en.shtml","Mercure Tirrenia Green Park","Via Dei Tulipani 1","CALAMBRONE","<MISSING>","56128","ITALY","<MISSING>","(+39)0503135711","Hotel","43.6007286","10.2951406","accor.com","<MISSING>","<MISSING>","location_name:street_address"
"https://all.accor.com/hotel/A745/index.en.shtml","Mercure Viareggio","Viale Einaudi 11","VIAREGGIO","<MISSING>","55049","ITALY","<MISSING>","(+39)0584/1661348","Hotel","43.890732","10.234413","accor.com","<MISSING>","<MISSING>","location_name:street_address"
"https://all.accor.com/hotel/8030/index.en.shtml","Hotel Mercure Venezia Marghera","Via Malamocco, 14 MargheraVia Trieste / Entr. Autostrada","VENEZIA","<MISSING>","30175","ITALY","<MISSING>","(+39)041/5380968","Hotel","45.476135","12.212505","accor.com","<MISSING>","<MISSING>","location_name:street_address"
"https://all.accor.com/hotel/8996/index.en.shtml","Mercure Hotel Amersfoort Centre","De Nieuwe Poort 20","AMERSFOORT","<MISSING>","3812 PA","NETHERLANDS","<MISSING>","(+31)33/2851000","Hotel","52.159283","5.378778","accor.com","<MISSING>","<MISSING>","location_name:street_address"
"https://all.accor.com/hotel/1032/index.en.shtml","Mercure Hotel Amsterdam Centre Canal District","Noorderstraat 46","Amsterdam","<MISSING>","1017 TV","NETHERLANDS","<MISSING>","(+31)20/6220328","Hotel","52.360944","4.893435","accor.com","<MISSING>","<MISSING>","location_name:street_address"
"https://all.accor.com/hotel/1244/index.en.shtml","Mercure Amsterdam City Hotel","Joan Muyskenweg 10","AMSTERDAM","<MISSING>","1096 CJ","NETHERLANDS","<MISSING>","(+31)20/7219176","Hotel","52.335579","4.913228","accor.com","<MISSING>","<MISSING>","location_name:street_address"
"https://all.accor.com/hotel/9844/index.en.shtml","Mercure Hotel Amsterdam Sloterdijk Station","Naritaweg 1","Amsterdam","<MISSING>","1043 BP","NETHERLANDS","<MISSING>","(+31)20/8202999","Hotel","52.387911","4.834296","accor.com","<MISSING>","<MISSING>","location_name:street_address"
"https://all.accor.com/hotel/1730/index.en.shtml","Mercure Hotel Schiphol Terminal","AMSTERDAM AIRPORT SCHIPHOLTERMINAL BUILDINGPO Box 75041","SCHIPHOL","<MISSING>","1117 ZN","NETHERLANDS","<MISSING>","(+31)20/6041339","Hotel","52.309883","4.761096","accor.com","<MISSING>","<MISSING>","location_name:street_address"
"https://all.accor.com/hotel/1315/index.en.shtml","Mercure Hotel Amsterdam West","Oude Haagseweg 20","AMSTERDAM","<MISSING>","1066 BW","NETHERLANDS","<MISSING>","(+31)20/5126767","Hotel","52.337578","4.817787","accor.com","<MISSING>","<MISSING>","location_name:street_address"
"https://all.accor.com/hotel/1239/index.en.shtml","Mercure Hotel Tilburg Centrum","Heuvel 37","TILBURG","<MISSING>","5038 CP","NETHERLANDS","<MISSING>","(+31)13/5354675","Hotel","51.557116","5.090865","accor.com","<MISSING>","<MISSING>","location_name:street_address"
"https://all.accor.com/hotel/1317/index.en.shtml","Mercure Hotel Den Haag Central","Spui 180","DEN HAAG","<MISSING>","2511 BW","NETHERLANDS","<MISSING>","(+31)70/3636700","Hotel","52.076229","4.317884","accor.com","<MISSING>","<MISSING>","location_name:street_address"
"https://all.accor.com/hotel/1241/index.en.shtml","Mercure Hotel Groningen Martiniplaza","Expositielaan 7","GRONINGEN","<MISSING>","9727 KA","NETHERLANDS","<MISSING>","(+31)50/5258400","Hotel","53.201909","6.555828","accor.com","<MISSING>","<MISSING>","location_name:street_address"
"https://all.accor.com/hotel/B661/index.en.shtml","Mercure Antwerp City Centre","Quinten Matsijslei 25","ANTWERPEN","<MISSING>","2018","BELGIUM","<MISSING>","(+32)3/2311515","Hotel","51.213259","4.416751","accor.com","<MISSING>","<MISSING>","location_name:street_address"
"https://all.accor.com/hotel/B664/index.en.shtml","Mercure Antwerp City South","Desguinlei 94","ANTWERPEN","<MISSING>","2018","BELGIUM","<MISSING>","(+32)32448211","Hotel","51.194751","4.40636","accor.com","<MISSING>","<MISSING>","location_name:street_address"
"https://all.accor.com/hotel/9547/index.en.shtml","Hotel Mercure Blankenberge Station","Koning Leopold III Plein","Blankenberge","<MISSING>","8370","BELGIUM","<MISSING>","(+32)50600000","Hotel","51.313667","3.1327511","accor.com","<MISSING>","<MISSING>","location_name:street_address"
"https://all.accor.com/hotel/7233/index.en.shtml","Hotel Mercure Brussels Centre Midi","Boulevard Jamar 25 29","Brussels","<MISSING>","1060","BELGIUM","<MISSING>","(+32)2/5281890","Hotel","50.839375","4.338568","accor.com","<MISSING>","<MISSING>","location_name:street_address"
"https://all.accor.com/hotel/0958/index.en.shtml","Hotel Mercure Brussels Airport","74 avenue Jules Bordet","BRUSSELS","<MISSING>","1140","BELGIUM","<MISSING>","(+32)2/7267335","Hotel","50.874828","4.41281","accor.com","<MISSING>","<MISSING>","location_name:street_address"
"https://all.accor.com/hotel/5742/index.en.shtml","Hotel Mercure Graz City","Lendplatz 36- 37","GRAZ","<MISSING>","8020","AUSTRIA","<MISSING>","(+43)316/751405","Hotel","47.075346","15.430673","accor.com","<MISSING>","<MISSING>","location_name:street_address"
"https://all.accor.com/hotel/0984/index.en.shtml","Hotel Mercure Salzburg City","Bayerhamerstrasse 14 a","SALZBURG","<MISSING>","5020","AUSTRIA","<MISSING>","(+43)662881438","Hotel","47.809379","13.050953","accor.com","<MISSING>","<MISSING>","location_name:street_address"
"https://all.accor.com/hotel/0781/index.en.shtml","Hotel Mercure Wien Zentrum","Fleischmarkt 1a","VIENNA","<MISSING>","1010","AUSTRIA","<MISSING>","(+43)1534600","Hotel","48.211361","16.374772","accor.com","<MISSING>","<MISSING>","location_name:street_address"
"https://all.accor.com/hotel/1568/index.en.shtml","Hotel Mercure Wien City","Hollandstrasse 3","VIENNA","<MISSING>","1020","AUSTRIA","<MISSING>","(+43)1/213130","Hotel","48.215123","16.376181","accor.com","<MISSING>","<MISSING>","location_name:street_address"
"https://all.accor.com/hotel/9959/index.en.shtml","Mercure Vienna First","Desider Friedmann Platz 2","VIENNA","<MISSING>","1010","AUSTRIA","<MISSING>","(+43)1/905828","Hotel","48.211414","16.374053","accor.com","<MISSING>","<MISSING>","location_name:street_address"
"https://all.accor.com/hotel/5357/index.en.shtml","Mercure Grand Hotel Biedermeier Wien","Landstrasser Hauptstrasse 28","VIENNA","<MISSING>","1030","AUSTRIA","<MISSING>","(+43)1/716710","Hotel","48.204055","16.388774","accor.com","<MISSING>","<MISSING>","location_name:street_address"
"https://all.accor.com/hotel/0962/index.en.shtml","Mercure Nice Marche aux Fleurs Hotel","91 quai des états unisPromenade des anglais","NICE","<MISSING>","06300","FRANCE","<MISSING>","(+33)4/93857419","Hotel","43.695152","7.272317","accor.com","<MISSING>","<MISSING>","location_name:street_address"
"https://all.accor.com/hotel/1291/index.en.shtml","Mercure Nice Centre Notre Dame Hotel","28 avenue Notre Dame","NICE","<MISSING>","06000","FRANCE","<MISSING>","(+33)4/93133636","Hotel","43.703529","7.266458","accor.com","<MISSING>","<MISSING>","location_name:street_address"
"https://all.accor.com/hotel/2186/index.en.shtml","Mercure Nice Centre Grimaldi Hotel","6 rue Grimaldi","NICE","<MISSING>","06000","FRANCE","<MISSING>","(+33)4/93877007","Hotel","43.698193","7.265536","accor.com","<MISSING>","<MISSING>","location_name:street_address"
"https://all.accor.com/hotel/0360/index.en.shtml","Mercure Nice Promenade des Anglais Hotel","2 rue Halevy","NICE","<MISSING>","06000","FRANCE","<MISSING>","(+33)4/93826222","Hotel","43.695385","7.265471","accor.com","<MISSING>","<MISSING>","location_name:street_address"
"https://all.accor.com/hotel/9923/index.en.shtml","Mercure Maldives Kooddoo Resort","Gaafu Alifu Atoll","KOODDOO ISLAND","<MISSING>","20219","MALDIVES","<MISSING>","(+960)6820003","Hotel","0.731723","73.432291","accor.com","<MISSING>","<MISSING>","location_name:street_address"
"https://all.accor.com/hotel/B6Q9/index.en.shtml","Mercure Hefei City Center","Intersection of Huaihe RoadLuyang District Hefei CityAnhui Province PR China","HEFEI","<MISSING>","230001","CHINA","<MISSING>","(+86)551/66821999","Hotel","31.8644044","117.2923469","accor.com","<MISSING>","<MISSING>","location_name:street_address"
"https://all.accor.com/hotel/A5G6/index.en.shtml","Mercure Hefei Sunac","No 356 Wannianbu RoadSunac ResortBaohe District","HEFEI","<MISSING>","230000","CHINA","<MISSING>","(+86)0551/65808888","Hotel","31.7030488","117.3074278","accor.com","<MISSING>","<MISSING>","location_name:street_address"
"https://all.accor.com/hotel/7565/index.en.shtml","Mercure Beijing Downtown","No.16 Jia, Xi Da Wang RoadChao Yang District","BEIJING","<MISSING>","100124","CHINA","<MISSING>","(+86)10/87956688","Hotel","39.899909","116.479454","accor.com","<MISSING>","<MISSING>","location_name:street_address"
"https://all.accor.com/hotel/B4Z7/index.en.shtml","Mercure Beijing Zhongguancun","No 31 ZhongguancunHaidian District","BEIJING","<MISSING>","100000","CHINA","<MISSING>","(+86)10/68118888","Hotel","39.975486","116.316961","accor.com","<MISSING>","<MISSING>","location_name:street_address"
"https://all.accor.com/hotel/B4Z5/index.en.shtml","Mercure Beijing Chang An West","No 65 B Fuxing RoadHaidian District","BEIJING","<MISSING>","100089","CHINA","<MISSING>","(+86)10/88219960","Hotel","39.909572","116.285017","accor.com","<MISSING>","<MISSING>","location_name:street_address"
"https://all.accor.com/hotel/B330/index.en.shtml","Mercure Chongqing Downtown","No 183 Bayi RoadYuzhong District","CHONGQING","<MISSING>","400010","CHINA","<MISSING>","(+86)23/63835555","Hotel","29.555231","106.577596","accor.com","<MISSING>","<MISSING>","location_name:street_address"
"https://all.accor.com/hotel/B5F6/index.en.shtml","Mercure Xiamen On the Bund","No 96 Lujiang AvenueSiming District","XIAMEN","<MISSING>","361000","CHINA","<MISSING>","(+86)592/2353897","Hotel","24.45678","118.073511","accor.com","<MISSING>","<MISSING>","location_name:street_address"
"https://all.accor.com/hotel/A5Z8/index.en.shtml","Mercure Xiamen Exhibition Centre","No 299 West Lingdou RoadQianpu Siming District","XIAMEN","<MISSING>","361009","CHINA","<MISSING>","(+86)592/6500666","Hotel","24.480637","118.174551","accor.com","<MISSING>","<MISSING>","location_name:street_address"
"https://all.accor.com/hotel/B7D6/index.en.shtml","Mercure Lanzhou Zhengning Road","No 11 South Yongchang RoadChengguan District","LANZHOU","<MISSING>","730000","CHINA","<MISSING>","(+86)0931/8423888","Hotel","36.05143","103.818915","accor.com","<MISSING>","<MISSING>","location_name:street_address"
"https://all.accor.com/hotel/B3B9/index.en.shtml","Mercure Lanzhou Downtown","No 5160 South Binhe RoadChengguan District","LANZHOU","<MISSING>","730000","CHINA","<MISSING>","(+86)931/2171000","Hotel","36.075185","103.864789","accor.com","<MISSING>","<MISSING>","location_name:street_address"
"https://all.accor.com/hotel/B7S4/index.en.shtml","Mercure Lanzhou Dongfanghong","No 4 6 Guangchang South RoadChengguan DistrictLanzhou Gansu Province","LANZHOU","<MISSING>","730000","CHINA","<MISSING>","(+86)931/8813999","Hotel","36.0524503","103.8438963","accor.com","<MISSING>","<MISSING>","location_name:street_address"
"https://all.accor.com/hotel/B5Y7/index.en.shtml","Mercure Shenzhen Futian","No 3001 1 Hongling North RoadFutian District","SHENZHEN","<MISSING>","518000","CHINA","<MISSING>","(+86)755/25923888","Hotel","22.566602","114.103897","accor.com","<MISSING>","<MISSING>","location_name:street_address"
"https://all.accor.com/hotel/B7M7/index.en.shtml","Mercure Shenzhen Nanshan","No 4 Houhai RoadNanshan District","SHENZHEN","<MISSING>","518000","CHINA","<MISSING>","(+86)0755/26692888","Hotel","22.499604","113.938608","accor.com","<MISSING>","<MISSING>","location_name:street_address"
"https://all.accor.com/hotel/B1K9/index.en.shtml","Mercure Shenzhen Pinghu","No 33 Fenghuang RoadLonggang DistrictLonggang District","SHENZHEN","<MISSING>","518111","CHINA","<MISSING>","(+86)755/89698333","Hotel","22.688672","114.15243","accor.com","<MISSING>","<MISSING>","location_name:street_address"
"https://all.accor.com/hotel/B6B3/index.en.shtml","Mercure Shijiazhuang City Center","195 Zhongshan RoadChangan DistrictShijiazhuang","SHIJIAZHUANG","<MISSING>","50004","CHINA","<MISSING>","(+86)311/89881888","Hotel","38.0504564","114.6555903","accor.com","<MISSING>","<MISSING>","location_name:street_address"
"https://all.accor.com/hotel/B5R6/index.en.shtml","Mercure Shijiazhuang Downtown","No 447 Zhongshan RoadChang'an DistrictBuilding D,Jianhua City Square","SHIJIAZHUANG","<MISSING>","050000","CHINA","<MISSING>","(+86)311/85693333","Hotel","38.050565","114.664688","accor.com","<MISSING>","<MISSING>","location_name:street_address"
"https://all.accor.com/hotel/B7N1/index.en.shtml","Mercure Harbin Institute Of Technology","No 81 Hexing RoadXiangfang District","HARBIN","<MISSING>","150040","CHINA","<MISSING>","(+86)0451/84111999","Hotel","45.726148","126.636498","accor.com","<MISSING>","<MISSING>","location_name:street_address"
"https://all.accor.com/hotel/B702/index.en.shtml","Mercure Harbin West Railway Station","263 Nan Xing StreetNangang District","HARBIN","<MISSING>","150088","CHINA","<MISSING>","(+86)451/86627722","Hotel","45.6963857","126.5839966","accor.com","<MISSING>","<MISSING>","location_name:street_address"
"https://all.accor.com/hotel/B4S1/index.en.shtml","Mercure Harbin Central Street Sophia Church","No 92 Zhaolin RoadDaoli District","HARBIN","<MISSING>","150010","CHINA","<MISSING>","(+86)451/87509999","Hotel","45.772751","126.624575","accor.com","<MISSING>","<MISSING>","location_name:street_address"
"https://all.accor.com/hotel/B2P1/index.en.shtml","Mercure Harbin Songbei","No999 Keji Second StreetSongbei District","HARBIN","<MISSING>","B2P1","CHINA","<MISSING>","(+86)451/51517999","Hotel","45.798611","126.501508","accor.com","<MISSING>","<MISSING>","location_name:street_address"
"https://all.accor.com/hotel/b4a7/index.en.shtml","Mercure Zhumadian West","Yicheng Ave And Kaiyuan AveZhumadian City","ZHUMADIAN","<MISSING>","463000","CHINA","<MISSING>","(+86)396/2989999","Hotel","33.014463","114.062129","accor.com","<MISSING>","<MISSING>","location_name:street_address"
"https://all.accor.com/hotel/B6V1/index.en.shtml","Mercure Anyang Downtown","166 Zhonghua RoadWenfeng District","ANYANG","<MISSING>","455000","CHINA","<MISSING>","(+86)0372/5598888","Hotel","36.07707","114.39338","accor.com","<MISSING>","<MISSING>","location_name:street_address"
"https://all.accor.com/hotel/b4d9/index.en.shtml","Mercure Kaifeng North","No 6 Beiguan StreetKailiu Road Longting District","KAIFENG","<MISSING>","475000","CHINA","<MISSING>","(+86)37122168999","Hotel","34.8222001","114.3572324","accor.com","<MISSING>","<MISSING>","location_name:street_address"
"https://all.accor.com/hotel/B6V2/index.en.shtml","Mercure Xinyang East Railway Station","New 24 StreetYangshan New District","XINYANG","<MISSING>","464100","CHINA","<MISSING>","(+86)3733766319888","Hotel","32.1535807","114.1289248","accor.com","<MISSING>","<MISSING>","location_name:street_address"
"https://all.accor.com/hotel/B2X2/index.en.shtml","Mercure Zhengzhou North","NO 218 Huayuan North RoadHuiji District","ZHENGZHOU","<MISSING>","271000","CHINA","<MISSING>","(+86)371/63703333","Hotel","34.862298","113.678595","accor.com","<MISSING>","<MISSING>","location_name:street_address"
"https://all.accor.com/hotel/7590/index.en.shtml","Mercure Banjarmasin","JL Achmad Yani KM 2 N 98","BANJARMASIN","<MISSING>","70232","INDONESIA","<MISSING>","(+62)511/3268888","Hotel","-3.322745","114.60327","accor.com","<MISSING>","<MISSING>","location_name:street_address"
"https://all.accor.com/hotel/6925/index.en.shtml","Mercure Pontianak City Center","Jalan Jenderal Ahmad Yani, 91West Kalimantan","PONTIANAK","<MISSING>","78124","INDONESIA","<MISSING>","(+62)561/577888","Hotel","-0.055007","109.348544","accor.com","<MISSING>","<MISSING>","location_name:street_address"
"https://all.accor.com/hotel/B5E4/index.en.shtml","Mercure Samarinda","Jalan Mulawarman No 171PelabuhanKecamatan Samarinda Kota","SAMARINDA","<MISSING>","75112","INDONESIA","<MISSING>","(+62)541/526000","Hotel","-0.503027","117.151889","accor.com","<MISSING>","<MISSING>","location_name:street_address"
"https://all.accor.com/hotel/5474/index.en.shtml","Mercure Resort Sanur","Jl. Mertasari,Sanur,Bali, Indonesia","Denpasar","<MISSING>","80228","INDONESIA","<MISSING>","(+62)361/288833","Hotel","-8.710925","115.25405","accor.com","<MISSING>","<MISSING>","location_name:street_address"
"https://all.accor.com/hotel/8006/index.en.shtml","Mercure Bali Nusa Dua","Jalan Nusa Dua SelatanLot SW 03Badung Bali","NUSA DUA","<MISSING>","80363","INDONESIA","<MISSING>","(+62)361/8467000","Hotel","-8.80692","115.22074","accor.com","<MISSING>","<MISSING>","location_name:street_address"
"https://all.accor.com/hotel/8450/index.en.shtml","Mercure Bali Legian","Jl Legian No 328Legian Kelod KutaKuta, Bali","BALI","<MISSING>","80361","INDONESIA","<MISSING>","(+62)361/9386100","Hotel","-8.708029","115.171947","accor.com","<MISSING>","<MISSING>","location_name:street_address"
"https://all.accor.com/hotel/3713/index.en.shtml","Mercure Kuta Bali","Jalan Pantai Kuta 10 XBr Pande Mas","KUTA","<MISSING>","80361","INDONESIA","<MISSING>","(+62)361/767411","Hotel","-8.72085","115.169742","accor.com","<MISSING>","<MISSING>","location_name:street_address"
"https://all.accor.com/hotel/B151/index.en.shtml","Mercure Jakarta Gatot Subroto","Jalan Gatot Subroto Kav. 1Kuningan BaratJakarta Selatan","JAKARTA","<MISSING>","12790","INDONESIA","<MISSING>","(+62)21/50825400","Hotel","-6.2391334","106.828591","accor.com","<MISSING>","<MISSING>","location_name:street_address"
"https://all.accor.com/hotel/9414/index.en.shtml","Mercure Jakarta Sabang","Jl H Agus Salim No 11Gambir Jakarta Pusat","JAKARTA","<MISSING>","10110","INDONESIA","<MISSING>","(+62)21/3503066","Hotel","-6.182188","106.824887","accor.com","<MISSING>","<MISSING>","location_name:street_address"
"https://all.accor.com/hotel/8455/index.en.shtml","Mercure Serpong Alam Sutera","Jl Alam Sutera Boulevard Kav23SerpongSouth Tangerang","TANGERANG","<MISSING>","15325","INDONESIA","<MISSING>","(+62)21/29668668","Hotel","-6.244335","106.651789","accor.com","<MISSING>","<MISSING>","location_name:street_address"
"https://all.accor.com/hotel/A6P9/index.en.shtml","Mercure Tangerang BSD City","Jl EdutownCbd 55 Kavling Lot II No 8Bsd City Pagedangan","TANGERANG","<MISSING>","15339","INDONESIA","<MISSING>","(+62)21/50898440","Hotel","-6.302602","106.645256","accor.com","<MISSING>","<MISSING>","location_name:street_address"
"https://all.accor.com/hotel/B1R6/index.en.shtml","Mercure Tangerang Centre (Opening February 2022)","Ji Mh Thamrin No 5Cikokol TangerangBanten","TANGERANG","<MISSING>","15117","INDONESIA","<MISSING>","(+62)21/50835158","Hotel","-6.213419","106.6301438","accor.com","<MISSING>","<MISSING>","location_name:street_address"
"https://all.accor.com/hotel/B2U4/index.en.shtml","Mercure Bandung Nexa Supratman","JL. Supratman No. 66","BANDUNG","<MISSING>","40122","INDONESIA","<MISSING>","(+62)22/86017000","Hotel","-6.9050168","107.6291198","accor.com","<MISSING>","<MISSING>","location_name:street_address"
"https://all.accor.com/hotel/9598/index.en.shtml","Mercure Bandung City Centre","Jalan Lengkong Besar No 8","BANDUNG","<MISSING>","40261","INDONESIA","<MISSING>","(+62)2230008000","Hotel","-6.923887","107.611619","accor.com","<MISSING>","<MISSING>","location_name:street_address"
"https://all.accor.com/hotel/9019/index.en.shtml","Mercure Karawang","Jl Galuh Mas RayaTeluk JambeWest Karawang Indonesia","KARAWANG","<MISSING>","41361","INDONESIA","<MISSING>","(+62)267/8638888","Hotel","-6.328304","107.290948","accor.com","<MISSING>","<MISSING>","location_name:street_address"
"https://all.accor.com/hotel/6155/index.en.shtml","Mercure Surabaya","Jl Raya Darmo 68 - 78","SURABAYA","<MISSING>","60264","INDONESIA","<MISSING>","(+62)31/5623000","Hotel","-7.28505","112.739236","accor.com","<MISSING>","<MISSING>","location_name:street_address"
"https://all.accor.com/hotel/B750/index.en.shtml","Mercure Surabaya Manyar","JL Manyar Kertoarjo No 44MulyorejoJawa Timur","SURABAYA","<MISSING>","60116","INDONESIA","<MISSING>","(+62)315967400","Hotel","-7.28009","112.76594","accor.com","<MISSING>","<MISSING>","location_name:street_address"
"https://all.accor.com/hotel/B2V1/index.en.shtml","Mercure Makassar Nexa Pettarani","Jl A P Pettarani No 4Gunung SariRappocini","MAKASSAR","<MISSING>","90222","INDONESIA","<MISSING>","(+62)411/3605000","Hotel","-5.171376","119.430229","accor.com","<MISSING>","<MISSING>","location_name:street_address"
"https://all.accor.com/hotel/9265/index.en.shtml","Mercure Manado Tateli Resort and Convention","JALAN RAYA TANAWANGKODESA TATELIMINAHASA","MANADO","<MISSING>","95661","INDONESIA","<MISSING>","(+62)431/825888","Hotel","1.453548","124.754922","accor.com","<MISSING>","<MISSING>","location_name:street_address"
"https://all.accor.com/hotel/B6X1/index.en.shtml","Mercure Jayapura","Jl Ahmad YaniGurabesi No 12Jayapura","JAYAPURA","<MISSING>","99111","INDONESIA","<MISSING>","(+62)9675161888","Hotel","-2.54258","140.703166","accor.com","<MISSING>","<MISSING>","location_name:street_address"
"https://all.accor.com/hotel/7854/index.en.shtml","Mercure Padang","Jl Purus IV No 8 PadangWest Sumatra Indonesia","PADANG","<MISSING>","25115","INDONESIA","<MISSING>","(+62)751/891188","Hotel","-0.936285","100.352313","accor.com","<MISSING>","<MISSING>","location_name:street_address"
"https://all.accor.com/hotel/B063/index.en.shtml","Mercure Bengkulu","Jalan S Parman No. 27Bengkulu","BENGKULU","<MISSING>","38227","INDONESIA","<MISSING>","(+62)736/7343030","Hotel","-3.801137","102.27515373","accor.com","<MISSING>","<MISSING>","location_name:street_address"
"https://all.accor.com/hotel/B4F9/index.en.shtml","Mercure Goa Devaaya Retreat","Divar Island","Panjim Goa","<MISSING>","403403","INDIA","<MISSING>","(+91)832 2280500","Hotel","15.539019","73.908535","accor.com","<MISSING>","<MISSING>","location_name:street_address"
"https://all.accor.com/hotel/9249/index.en.shtml","Mercure Chennai Sriperumbudur","CP 8 SIPCOT Industrial ParkOragadam SriperumbudurTamil Nadu","CHENNAI","<MISSING>","602105","INDIA","<MISSING>","(+91)04467118500","Hotel","12.854458","79.942146","accor.com","<MISSING>","<MISSING>","location_name:street_address"
"https://all.accor.com/hotel/8725/index.en.shtml","Mercure Okinawa Naha","3-3-19 TsubogawaNaha","OKINAWA","<MISSING>","900 0025","JAPAN","<MISSING>","(+81)98/8557111","Hotel","26.205548","127.679079","accor.com","<MISSING>","<MISSING>","location_name:street_address"
"https://all.accor.com/hotel/B4F4/index.en.shtml","Mercure Kyoto Station","288 Aburanokojicho Shimogyo ku","KYOTO","<MISSING>","600-8231","JAPAN","<MISSING>","(+81)75/3435533","Hotel","34.988349","135.7535","accor.com","<MISSING>","<MISSING>","location_name:street_address"
"https://all.accor.com/hotel/5300/index.en.shtml","Mercure Nagoya Cypress","2-43-6 Meieki Nakamura-Ku","NAGOYA","<MISSING>","450-0002","JAPAN","<MISSING>","(+81)52/5710111","Hotel","35.17408","136.884047","accor.com","<MISSING>","<MISSING>","location_name:street_address"
"https://all.accor.com/hotel/7023/index.en.shtml","Mercure Sapporo","2-4 Minami 4-joNishi 2-chome Chuo-ku","SAPPORO","<MISSING>","064 0804","JAPAN","<MISSING>","(+81)11/5131100","Hotel","43.055595","141.355682","accor.com","<MISSING>","<MISSING>","location_name:street_address"
"https://all.accor.com/hotel/5701/index.en.shtml","Mercure Tokyo Ginza","2 9 4GinzaChuo ku","TOKYO","<MISSING>","1040061","JAPAN","<MISSING>","(+81)3/43351111","Hotel","35.672855","139.768367","accor.com","<MISSING>","<MISSING>","location_name:street_address"
"https://all.accor.com/hotel/7490/index.en.shtml","Mercure Yokosuka","3-27 HonchoKanagawa","YOKOSUKA","<MISSING>","238-0041","JAPAN","<MISSING>","(+81)46/8211111","Hotel","35.281039","139.662286","accor.com","<MISSING>","<MISSING>","location_name:street_address"
"https://all.accor.com/hotel/B8C1/index.en.shtml","Mercure Ambassador Jeju","365 Hanchangro Andeokmyeon","SEOGWIPOSI","<MISSING>","63526","KOREA, REPUBLIC OF","<MISSING>","(+82)647931131","Hotel","33.2917697","126.346071","accor.com","<MISSING>","<MISSING>","location_name:street_address"
"https://all.accor.com/hotel/B696/index.en.shtml","Mercure Ambassador Seoul Hongdae","144 Yanghwa RoMapo Gu","SEOUL","<MISSING>","04050","KOREA, REPUBLIC OF","<MISSING>","(+82)2/37741101","Hotel","37.555135","126.922511","accor.com","<MISSING>","<MISSING>","location_name:street_address"
"https://all.accor.com/hotel/A3N6/index.en.shtml","Mercure Ambassador Ulsan","7 Gangdongsanha 2 ro BukGuBukgu","ULSAN","<MISSING>","683260","KOREA, REPUBLIC OF","<MISSING>","(+82)0529801101","Hotel","35.625662","129.441716","accor.com","<MISSING>","<MISSING>","location_name:street_address"
"https://all.accor.com/hotel/A3M8/index.en.shtml","Mercure Mandalay Hill Resort","9 Kwin 416 B 10th StreetAt The Foot Of MandalayAungmyaythazan Township","MANDALAY","<MISSING>","100101","MYANMAR","<MISSING>","(+95)2/4035638","Hotel","22.0067314","96.102218","accor.com","<MISSING>","<MISSING>","location_name:street_address"
"https://all.accor.com/hotel/A3N7/index.en.shtml","Mercure Yangon Kaba Aye","No 17 Kaba Aye Pagoda RoadYankin Township","YANGON","<MISSING>","11081","MYANMAR","<MISSING>","(+95)1/8650933","Hotel","16.84","96.157","accor.com","<MISSING>","<MISSING>","location_name:street_address"
"https://all.accor.com/hotel/b4a2/index.en.shtml","Mercure Ordos Downtown","No 5 Building Lijing HomeEjin Horo QiInner Mongolia Autonomous Region","ORDOS","<MISSING>","017200","CHINA","<MISSING>","(+86)4778885888","Hotel","39.344","109.4426","accor.com","<MISSING>","<MISSING>","location_name:street_address"
"https://all.accor.com/hotel/1148/index.en.shtml","Mercure Marseille Centre Vieux Port Hotel","1 rue Neuve Saint Martin","MARSEILLE","<MISSING>","13001","FRANCE","<MISSING>","(+33)4/96172222","Hotel","43.298807","5.375029","accor.com","<MISSING>","<MISSING>","location_name:street_address"
