"locator_domain","location_name","street_address","city","state","zip","country_code","store_number","phone","location_type","latitude","longitude","hours_of_operation"
"https://www.cicis.com/","CICIS OPELIKA RD","1550 Opelika Rd Suite #30","Auburn,","AL","36830","US","<MISSING>","(334) 821-2600","<MISSING>","32.623230918744675","-85.4476623237133","Monday
11:00 AM - 10:00 PM
Tuesday
11:00 AM - 10:00 PM
Wednesday
11:00 AM - 10:00 PM
Thursday
11:00 AM - 10:00 PM
Friday
11:00 AM - 11:00 PM
Saturday
11:00 AM - 11:00 PM
Sunday
11:00 AM - 10:00 PM"
"https://www.cicis.com/","CICIS PATRIOT WAY","1842 Patriot Way Bldg 1/ Unit B","Cullman,","AL","35055","US","<MISSING>","(256) 736-2662","<MISSING>","34.15220684144404","-86.8395837396929","Monday
11:00 AM - 10:00 PM
Tuesday
11:00 AM - 10:00 PM
Wednesday
11:00 AM - 10:00 PM
Thursday
11:00 AM - 10:00 PM
Friday
11:00 AM - 11:00 PM
Saturday
11:00 AM - 11:00 PM
Sunday
11:00 AM - 10:00 PM"
"https://www.cicis.com/","CICIS DAPHNE","6882 Hwy. 90 Suite G-01","Daphne,","AL","36526","US","<MISSING>","(251) 621-6820","<MISSING>","30.6527302","-87.9044543","Monday
11:00 AM - 10:00 PM
Tuesday
11:00 AM - 10:00 PM
Wednesday
11:00 AM - 10:00 PM
Thursday
11:00 AM - 10:00 PM
Friday
11:00 AM - 10:00 PM
Saturday
11:00 AM - 10:00 PM
Sunday
11:00 AM - 10:00 PM"
"https://www.cicis.com/","CICIS BELTLINE PLACE S.W.","303 Beltline Place S.W. Bldg 1/ Unit B","Decatur,","AL","35603","US","<MISSING>","(256) 301-5524","<MISSING>","34.558923275486855","-86.98988154530525","Monday
11:00 AM - 10:00 PM
Tuesday
11:00 AM - 10:00 PM
Wednesday
11:00 AM - 10:00 PM
Thursday
11:00 AM - 10:00 PM
Friday
11:00 AM - 11:00 PM
Saturday
11:00 AM - 11:00 PM
Sunday
11:00 AM - 10:00 PM"
"https://www.cicis.com/","CICIS ROSS CLARK CIR","3702 Ross Clark Cir Ste 7","Dothan,","AL","36303","US","<MISSING>","(334) 673-3500","<MISSING>","31.25156135270367","-85.41796758770943","Monday
11:00 AM - 10:00 PM
Tuesday
11:00 AM - 10:00 PM
Wednesday
11:00 AM - 10:00 PM
Thursday
11:00 AM - 10:00 PM
Friday
11:00 AM - 11:00 PM
Saturday
11:00 AM - 10:00 PM
Sunday
11:00 AM - 10:00 PM"
"https://www.cicis.com/","CICIS COX CREEK PKWY S","157 Cox Creek Pkwy S Bldg 1/ Unit B","Florence,","AL","35630","US","<MISSING>","(256) 765-2424","<MISSING>","34.826768408640426","-87.6257354021073","Monday
11:00 AM - 10:00 PM
Tuesday
11:00 AM - 10:00 PM
Wednesday
11:00 AM - 10:00 PM
Thursday
11:00 AM - 10:00 PM
Friday
11:00 AM - 11:00 PM
Saturday
11:00 AM - 11:00 PM
Sunday
11:00 AM - 10:00 PM"
"https://www.cicis.com/","CICIS S MCKENZIE ST","3061 S McKenzie St Suite G-01","Foley,","AL","36535","US","<MISSING>","(251) 970-3242","<MISSING>","30.36898976346947","-87.68239438533783","Monday
11:00 AM - 10:00 PM
Tuesday
11:00 AM - 10:00 PM
Wednesday
11:00 AM - 10:00 PM
Thursday
11:00 AM - 10:00 PM
Friday
11:00 AM - 10:00 PM
Saturday
11:00 AM - 10:00 PM
Sunday
11:00 AM - 10:00 PM"
"https://www.cicis.com/","CICIS US HIGHWAY 431","11521 Us Highway 431 Ste 162","Guntersville,","AL","35976","US","<MISSING>","(256) 486-3721","<MISSING>","34.29924051119514","-86.27539068460464","Monday
11:00 AM - 10:00 PM
Tuesday
11:00 AM - 10:00 PM
Wednesday
11:00 AM - 10:00 PM
Thursday
11:00 AM - 10:00 PM
Friday
11:00 AM - 11:00 PM
Saturday
11:00 AM - 11:00 PM
Sunday
11:00 AM - 10:00 PM"
"https://www.cicis.com/","CICIS HOMEWOOD","808 Greensprings Highway Suite 132","Homewood,","AL","35209","US","<MISSING>","(205) 582-8098","<MISSING>","33.46094624671912","-86.81946346627052","Monday
11:00 AM - 10:00 PM
Tuesday
11:00 AM - 10:00 PM
Wednesday
11:00 AM - 10:00 PM
Thursday
11:00 AM - 10:00 PM
Friday
11:00 AM - 11:00 PM
Saturday
11:00 AM - 11:00 PM
Sunday
11:00 AM - 10:00 PM"
"https://www.cicis.com/","CICIS HOOVER","1851 Montgomery Highway Suites 107, 109 And 111","Hoover,","AL","35244","US","<MISSING>","(205) 379-0100","<MISSING>","33.3701408","-86.7983433","Monday
11:00 AM - 10:00 PM
Tuesday
11:00 AM - 10:00 PM
Wednesday
11:00 AM - 10:00 PM
Thursday
11:00 AM - 10:00 PM
Friday
11:00 AM - 11:00 PM
Saturday
11:00 AM - 11:00 PM
Sunday
11:00 AM - 10:00 PM"
"https://www.cicis.com/","CICIS UNIVERSITY DR NW","4925 University Dr Nw Ste 162","Huntsville,","AL","35816","US","<MISSING>","(256) 864-2224","<MISSING>","34.7365701","-86.65644","Monday
11:00 AM - 10:00 PM
Tuesday
11:00 AM - 10:00 PM
Wednesday
11:00 AM - 10:00 PM
Thursday
11:00 AM - 10:00 PM
Friday
11:00 AM - 11:00 PM
Saturday
11:00 AM - 11:00 PM
Sunday
11:00 AM - 10:00 PM"
"https://www.cicis.com/","CICIS AIRPORT BLVD","6750 Airport Blvd Suite 1","Mobile,","AL","36608","US","<MISSING>","(251) 341-0880","<MISSING>","30.682684248445188","-88.19872096180916","Monday
11:00 AM - 10:00 PM
Tuesday
11:00 AM - 10:00 PM
Wednesday
11:00 AM - 10:00 PM
Thursday
11:00 AM - 10:00 PM
Friday
11:00 AM - 11:00 PM
Saturday
11:00 AM - 11:00 PM
Sunday
11:00 AM - 10:00 PM"
"https://www.cicis.com/","CICIS MONTGOMERY","6633 Atlanta Highway #340","Montgomery,","AL","36117","US","<MISSING>","(334) 230-7990","<MISSING>","32.3825293","-86.18068799999999","Monday
11:00 AM - 10:00 PM
Tuesday
11:00 AM - 10:00 PM
Wednesday
11:00 AM - 10:00 PM
Thursday
11:00 AM - 10:00 PM
Friday
11:00 AM - 11:00 PM
Saturday
11:00 AM - 11:00 PM
Sunday
11:00 AM - 10:00 PM"
"https://www.cicis.com/","CICIS ANN ST","981 Ann St #340","Montgomery,","AL","36107","US","<MISSING>","(334) 386-3086","<MISSING>","32.368245263853325","-86.26952201128006","Monday
11:00 AM - 10:00 PM
Tuesday
11:00 AM - 10:00 PM
Wednesday
11:00 AM - 10:00 PM
Thursday
11:00 AM - 10:00 PM
Friday
11:00 AM - 11:00 PM
Saturday
11:00 AM - 11:00 PM
Sunday
11:00 AM - 10:00 PM"
"https://www.cicis.com/","CICIS MCFARLAND BLVD","929 Mcfarland Blvd Suites 107, 109 And 111","Northport,","AL","35476","US","<MISSING>","(205) 333-3920","<MISSING>","33.2365718","-87.5679143","Monday
11:00 AM - 10:00 PM
Tuesday
11:00 AM - 10:00 PM
Wednesday
11:00 AM - 10:00 PM
Thursday
11:00 AM - 10:00 PM
Friday
11:00 AM - 10:00 PM
Saturday
11:00 AM - 10:00 PM
Sunday
11:00 AM - 10:00 PM"
"https://www.cicis.com/","CICIS SNOW ST","657 Snow St Suite 125","Oxford,","AL","36203","US","<MISSING>","(256) 835-3595","<MISSING>","33.61621301545544","-85.82451403141027","Monday
11:00 AM - 10:00 PM
Tuesday
11:00 AM - 10:00 PM
Wednesday
11:00 AM - 10:00 PM
Thursday
11:00 AM - 10:00 PM
Friday
11:00 AM - 11:00 PM
Saturday
11:00 AM - 11:00 PM
Sunday
11:00 AM - 10:00 PM"
"https://www.cicis.com/","CICIS LEGENDS PKWY","2782 Legends Pkwy #340","Prattville,","AL","36066","US","<MISSING>","(334) 387-4640","<MISSING>","32.45844932578713","-86.39712743461132","Monday
11:00 AM - 10:00 PM
Tuesday
11:00 AM - 10:00 PM
Wednesday
11:00 AM - 10:00 PM
Thursday
11:00 AM - 10:00 PM
Friday
11:00 AM - 11:00 PM
Saturday
11:00 AM - 11:00 PM
Sunday
11:00 AM - 10:00 PM"
"https://www.cicis.com/","CICIS TRUSSVILLE CROSSING PARKWAY","5915 Trussville Crossing Parkway Suite 125","Trussville,","AL","35235","US","<MISSING>","(205) 203-8661","<MISSING>","33.64037212337416","-86.6306626796723","Monday
11:00 AM - 10:00 PM
Tuesday
11:00 AM - 10:00 PM
Wednesday
11:00 AM - 10:00 PM
Thursday
11:00 AM - 10:00 PM
Friday
11:00 AM - 11:00 PM
Saturday
11:00 AM - 11:00 PM
Sunday
11:00 AM - 10:00 PM"
"https://www.cicis.com/","CICIS MESA","1411 S. Power Road Suite 102","Mesa,","AZ","85206","US","<MISSING>","(480) 582-4008","<MISSING>","33.3899374","-111.6839144","Monday
11:00 AM - 10:00 PM
Tuesday
11:00 AM - 10:00 PM
Wednesday
11:00 AM - 10:00 PM
Thursday
11:00 AM - 10:00 PM
Friday
11:00 AM - 11:00 PM
Saturday
11:00 AM - 11:00 PM
Sunday
11:00 AM - 10:00 PM"
"https://www.cicis.com/","CICIS PHOENIX","1818 W. Montebello Ave, Suite 106 Ste 101","Phoenix,","AZ","85015","US","<MISSING>","(480) 702-3644","<MISSING>","33.52021845800364","-112.09864373743437","Monday
11:00 AM - 10:00 PM
Tuesday
11:00 AM - 10:00 PM
Wednesday
11:00 AM - 10:00 PM
Thursday
11:00 AM - 10:00 PM
Friday
11:00 AM - 11:00 PM
Saturday
11:00 AM - 11:00 PM
Sunday
11:00 AM - 10:00 PM"
"https://www.cicis.com/","CICIS N 75TH AVE","2270 N 75Th Ave Ste 101","Phoenix,","AZ","85035","US","<MISSING>","(623) 247-4992","<MISSING>","33.4726082","-112.221515","Monday
11:00 AM - 10:00 PM
Tuesday
11:00 AM - 10:00 PM
Wednesday
11:00 AM - 10:00 PM
Thursday
11:00 AM - 10:00 PM
Friday
11:00 AM - 10:00 PM
Saturday
11:00 AM - 10:00 PM
Sunday
11:00 AM - 10:00 PM"
"https://www.cicis.com/","CICIS OLD MORRILTON HWY","1250 Old Morrilton Hwy Ste C","Conway,","AR","72032","US","<MISSING>","(501) 764-0600","<MISSING>","35.11091303308622","-92.44113877415657","Monday
11:00 AM - 10:00 PM
Tuesday
11:00 AM - 10:00 PM
Wednesday
11:00 AM - 10:00 PM
Thursday
11:00 AM - 10:00 PM
Friday
11:00 AM - 10:00 PM
Saturday
11:00 AM - 10:00 PM
Sunday
11:00 AM - 10:00 PM"
"https://www.cicis.com/","CICIS E JOYCE BLVD","637 E Joyce Blvd Ste 101","Fayetteville,","AR","72703","US","<MISSING>","(479) 582-9292","<MISSING>","36.122787481275296","-94.14858005940914","Monday
11:00 AM - 9:00 PM
Tuesday
11:00 AM - 9:00 PM
Wednesday
11:00 AM - 9:00 PM
Thursday
11:00 AM - 9:00 PM
Friday
11:00 AM - 10:00 PM
Saturday
11:00 AM - 10:00 PM
Sunday
11:00 AM - 9:00 PM"
"https://www.cicis.com/","CICIS ROGERS AVE","8323 Rogers Ave","Fort Smith,","AR","72903","US","<MISSING>","(479) 484-0909","<MISSING>","35.349715847657855","-94.33724597096443","Monday
11:00 AM - 10:00 PM
Tuesday
11:00 AM - 10:00 PM
Wednesday
11:00 AM - 10:00 PM
Thursday
11:00 AM - 10:00 PM
Friday
11:00 AM - 10:00 PM
Saturday
11:00 AM - 10:00 PM
Sunday
11:00 AM - 10:00 PM"
"https://www.cicis.com/","CICIS CENTRAL AVE","3321 Central Avenue","Hot Springs National Park,","AR","71913","US","<MISSING>","(501) 321-2400","<MISSING>","34.4749399534759","-93.05937722325325","Monday
11:00 AM - 10:00 PM
Tuesday
11:00 AM - 10:00 PM
Wednesday
11:00 AM - 10:00 PM
Thursday
11:00 AM - 10:00 PM
Friday
11:00 AM - 10:00 PM
Saturday
11:00 AM - 10:00 PM
Sunday
11:00 AM - 10:00 PM"
"https://www.cicis.com/","CICIS S CARAWAY RD","2116 S. Caraway Rd.","Jonesboro,","AR","72401","US","<MISSING>","(870) 275-6500","<MISSING>","35.81895880185548","-90.6761268134918","Monday
11:00 AM - 10:00 PM
Tuesday
11:00 AM - 10:00 PM
Wednesday
11:00 AM - 10:00 PM
Thursday
11:00 AM - 10:00 PM
Friday
11:00 AM - 10:00 PM
Saturday
11:00 AM - 10:00 PM
Sunday
11:00 AM - 10:00 PM"
"https://www.cicis.com/","CICIS LAKEWOOD VILLAGE DR","2815 Lakewood Village Drive","North Little Rock,","AR","72116","US","<MISSING>","(501) 753-1182","<MISSING>","34.79658090047957","-92.23055720329285","Monday
11:00 AM - 10:00 PM
Tuesday
11:00 AM - 10:00 PM
Wednesday
11:00 AM - 10:00 PM
Thursday
11:00 AM - 10:00 PM
Friday
11:00 AM - 10:00 PM
Saturday
11:00 AM - 10:00 PM
Sunday
11:00 AM - 10:00 PM"
"https://www.cicis.com/","CICIS ROGERS","3604 W. Walnut Ste 101","Rogers,","AR","72756","US","<MISSING>","(479) 903-7200","<MISSING>","36.33407699545552","-94.16896877546606","Monday
11:00 AM - 9:00 PM
Tuesday
11:00 AM - 9:00 PM
Wednesday
11:00 AM - 9:00 PM
Thursday
11:00 AM - 9:00 PM
Friday
11:00 AM - 10:00 PM
Saturday
11:00 AM - 10:00 PM
Sunday
11:00 AM - 9:00 PM"
"https://www.cicis.com/","CICIS E MAIN ST","3063 E Main St Ste C","Russellville,","AR","72802","US","<MISSING>","(479) 880-2424","<MISSING>","35.28025479326385","-93.09740960597992","Monday
11:00 AM - 10:00 PM
Tuesday
11:00 AM - 10:00 PM
Wednesday
11:00 AM - 10:00 PM
Thursday
11:00 AM - 10:00 PM
Friday
11:00 AM - 10:00 PM
Saturday
11:00 AM - 10:00 PM
Sunday
11:00 AM - 10:00 PM"
"https://www.cicis.com/","CICIS N MCKINLEY ST","591 N Mckinley St Ste 103","Corona,","CA","92879","US","<MISSING>","(951) 278-2424","<MISSING>","33.89159873964841","-117.51823604106897","Monday
11:00 AM - 10:00 PM
Tuesday
11:00 AM - 10:00 PM
Wednesday
11:00 AM - 10:00 PM
Thursday
11:00 AM - 10:00 PM
Friday
11:00 AM - 10:00 PM
Saturday
11:00 AM - 10:00 PM
Sunday
11:00 AM - 10:00 PM"
"https://www.cicis.com/","CICIS MURRIETA HOT SPRINGS
CLOSED","29910 Murrieta Hot Springs Ste S","Murrieta,","CA","92563","US","<MISSING>","(951) 461-3336","<MISSING>","33.5526968","-117.1381338","Monday Closed
Tuesday Closed
Wednesday Closed
Thursday Closed
Friday Closed
Saturday Closed
Sunday Closed"
"https://www.cicis.com/","CICIS E MISSISSIPPI AVE","14000 E. Mississippi Avenue #7","Aurora,","CO","80012","US","<MISSING>","(303) 597-0080","<MISSING>","39.69503997100808","-104.82489109039307","Monday
11:00 AM - 10:00 PM
Tuesday
11:00 AM - 10:00 PM
Wednesday
11:00 AM - 10:00 PM
Thursday
11:00 AM - 10:00 PM
Friday
11:00 AM - 10:00 PM
Saturday
11:00 AM - 10:00 PM
Sunday
11:00 AM - 10:00 PM"
"https://www.cicis.com/","CICIS E PLATTE AVE","3255 E Platte Ave","Colorado Springs,","CO","80909","US","<MISSING>","(719) 473-6311","<MISSING>","38.83908921297066","-104.76909041404724","Monday
11:00 AM - 10:00 PM
Tuesday
11:00 AM - 10:00 PM
Wednesday
11:00 AM - 10:00 PM
Thursday
11:00 AM - 10:00 PM
Friday
11:00 AM - 11:00 PM
Saturday
11:00 AM - 10:00 PM
Sunday
11:00 AM - 10:00 PM"
"https://www.cicis.com/","CICIS W 88TH AVE","5740 W 88Th Ave #7","Westminster,","CO","80031","US","<MISSING>","(303) 996-0853","<MISSING>","39.85539097799039","-105.06066530942917","Monday
11:00 AM - 10:00 PM
Tuesday
11:00 AM - 10:00 PM
Wednesday
11:00 AM - 10:00 PM
Thursday
11:00 AM - 10:00 PM
Friday
11:00 AM - 10:00 PM
Saturday
11:00 AM - 10:00 PM
Sunday
11:00 AM - 10:00 PM"
"https://www.cicis.com/","CICIS W LUMSDEN RD","1991 W Lumsden Rd","Brandon,","FL","33511","US","<MISSING>","(813) 657-8400","<MISSING>","27.9211061","-82.3178664","Monday
11:00 AM - 10:00 PM
Tuesday
11:00 AM - 10:00 PM
Wednesday
11:00 AM - 10:00 PM
Thursday
11:00 AM - 10:00 PM
Friday
11:00 AM - 10:00 PM
Saturday
11:00 AM - 10:00 PM
Sunday
11:00 AM - 10:00 PM"
"https://www.cicis.com/","CICIS CORTEZ BLVD","12109 Cortez Blvd","Brooksville,","FL","34613","US","<MISSING>","(352) 596-9544","<MISSING>","28.534295151637007","-82.52609230577946","Monday
11:00 AM - 10:00 PM
Tuesday
11:00 AM - 10:00 PM
Wednesday
11:00 AM - 10:00 PM
Thursday
11:00 AM - 10:00 PM
Friday
11:00 AM - 10:00 PM
Saturday
11:00 AM - 10:00 PM
Sunday
11:00 AM - 10:00 PM"
"https://www.cicis.com/","CICIS DEL PRADO BLVD S","1430 Del Prado Blvd S Bldg 300, Unit 2","Cape Coral,","FL","33990","US","<MISSING>","(239) 573-7225","<MISSING>","26.6253452","-81.9423581","Monday
11:00 AM - 10:00 PM
Tuesday
11:00 AM - 10:00 PM
Wednesday
11:00 AM - 10:00 PM
Thursday
11:00 AM - 10:00 PM
Friday
11:00 AM - 10:00 PM
Saturday
11:00 AM - 11:00 PM
Sunday
11:00 AM - 10:00 PM"
"https://www.cicis.com/","CICIS MCMULLEN BOOTH","1560 N. Mcmullen Booth Rd","Clearwater,","FL","33759","US","<MISSING>","(727) 474-5419","<MISSING>","27.98166164417781","-82.71120089042563","Monday
11:00 AM - 9:00 PM
Tuesday
11:00 AM - 9:00 PM
Wednesday
11:00 AM - 9:00 PM
Thursday
11:00 AM - 9:00 PM
Friday
11:00 AM - 9:00 PM
Saturday
11:00 AM - 10:00 PM
Sunday
11:00 AM - 9:00 PM"
"https://www.cicis.com/","CICIS VICTOR POSNER BLVD","1850 Victor Posner Blvd Suite 101","Davenport,","FL","33837","US","<MISSING>","(863) 424-3800","<MISSING>","28.228000407971","-81.64576649665838","Monday
11:00 AM - 9:00 PM
Tuesday
11:00 AM - 9:00 PM
Wednesday
11:00 AM - 9:00 PM
Thursday
11:00 AM - 9:00 PM
Friday
11:00 AM - 9:00 PM
Saturday
11:00 AM - 9:00 PM
Sunday
11:00 AM - 9:00 PM"
"https://www.cicis.com/","CICIS W HILLSBORO BLVD","3912 W Hillsboro Blvd Ste 1","Deerfield Beach,","FL","33442","US","<MISSING>","(954) 570-9900","<MISSING>","26.3157631","-80.1581241","Monday
11:00 AM - 10:00 PM
Tuesday
11:00 AM - 10:00 PM
Wednesday
11:00 AM - 10:00 PM
Thursday
11:00 AM - 10:00 PM
Friday
11:00 AM - 11:00 PM
Saturday
11:00 AM - 11:00 PM
Sunday
11:00 AM - 10:00 PM"
"https://www.cicis.com/","CICIS MARY ESTHER CUTOFF","417D Mary Esther Cutoff","Fort Walton Beach,","FL","32548","US","<MISSING>","(850) 243-4000","<MISSING>","30.4268426","-86.6433257","Monday
11:00 AM - 10:00 PM
Tuesday
11:00 AM - 10:00 PM
Wednesday
11:00 AM - 10:00 PM
Thursday
11:00 AM - 10:00 PM
Friday
11:00 AM - 10:00 PM
Saturday
11:00 AM - 10:00 PM
Sunday
11:00 AM - 10:00 PM"
"https://www.cicis.com/","CICIS SW 35TH BLVD
CLOSED","3246 Sw 35Th Blvd.","Gainesville,","FL","32608","US","<MISSING>","(352) 692-1260","<MISSING>","29.623633204027623","-82.37794210018365","Monday Closed
Tuesday Closed
Wednesday Closed
Thursday Closed
Friday Closed
Saturday Closed
Sunday Closed"
"https://www.cicis.com/","CICIS W 68TH ST","2885 W 68Th St. Ste 1","Hialeah,","FL","33018","US","<MISSING>","(305) 822-0000","<MISSING>","25.884643","-80.341483","Monday
11:00 AM - 11:00 PM
Tuesday
11:00 AM - 11:00 PM
Wednesday
11:00 AM - 11:00 PM
Thursday
11:00 AM - 11:00 PM
Friday
11:00 AM - 12:00 AM
Saturday
11:00 AM - 12:00 AM
Sunday
11:00 AM - 11:00 PM"
"https://www.cicis.com/","CICIS W 49TH ST","410 W 49Th St Unit 107","Hialeah,","FL","33012","US","<MISSING>","(305) 822-5151","<MISSING>","25.8652909","-80.2916889","Monday
11:00 AM - 11:00 PM
Tuesday
11:00 AM - 11:00 PM
Wednesday
11:00 AM - 11:00 PM
Thursday
11:00 AM - 11:00 PM
Friday
11:00 AM - 12:00 AM
Saturday
11:00 AM - 12:00 AM
Sunday
11:00 AM - 11:00 PM"
"https://www.cicis.com/","CICIS ATLANTIC BLVD","12777 Atlantic Blvd Ste 31","Jacksonville,","FL","32225","US","<MISSING>","(904) 220-1000","<MISSING>","30.320242228134685","-81.47042647004128","Monday
11:00 AM - 10:00 PM
Tuesday
11:00 AM - 10:00 PM
Wednesday
11:00 AM - 10:00 PM
Thursday
11:00 AM - 10:00 PM
Friday
11:00 AM - 10:00 PM
Saturday
11:00 AM - 10:00 PM
Sunday
11:00 AM - 10:00 PM"
"https://www.cicis.com/","CICIS DUNN AVE
CLOSED","900-10 Dunn Ave Ste 31","Jacksonville,","FL","32218","US","<MISSING>","(904) 757-4997","<MISSING>","30.4289082","-81.6601801","Monday Closed
Tuesday Closed
Wednesday Closed
Thursday Closed
Friday Closed
Saturday Closed
Sunday Closed"
"https://www.cicis.com/","CICIS E VINE ST","1400 E Vine St Ste F","Kissimmee,","FL","34744","US","<MISSING>","(407) 870-7711","<MISSING>","28.303471491158053","-81.38844072818756","Monday
11:00 AM - 10:00 PM
Tuesday
11:00 AM - 10:00 PM
Wednesday
11:00 AM - 10:00 PM
Thursday
11:00 AM - 10:00 PM
Friday
11:00 AM - 10:00 PM
Saturday
11:00 AM - 10:00 PM
Sunday
11:00 AM - 10:00 PM"
"https://www.cicis.com/","CICIS W VINE ST","3815 W Vine St Ste F","Kissimmee,","FL","34741","US","<MISSING>","(407) 518-5067","<MISSING>","28.30496397854874","-81.44230954349041","Monday
11:00 AM - 10:00 PM
Tuesday
11:00 AM - 10:00 PM
Wednesday
11:00 AM - 10:00 PM
Thursday
11:00 AM - 10:00 PM
Friday
11:00 AM - 11:00 PM
Saturday
11:00 AM - 11:00 PM
Sunday
11:00 AM - 10:00 PM"
"https://www.cicis.com/","CICIS W IRLO BRONSON MEMORIAL HWY","5035 W Irlo Bronson Memorial Hwy Suite 101","Kissimmee,","FL","34746","US","<MISSING>","(407) 390-9001","<MISSING>","28.333639520278297","-81.48587264120579","Monday
11:00 AM - 11:00 PM
Tuesday
11:00 AM - 11:00 PM
Wednesday
11:00 AM - 11:00 PM
Thursday
11:00 AM - 11:00 PM
Friday
11:00 AM - 12:00 AM
Saturday
11:00 AM - 12:00 AM
Sunday
11:00 AM - 11:00 PM"
"https://www.cicis.com/","CICIS W. IRLO BRONSON MEMORIAL HWY","7763 W Irlo Bronson Memorial Hwy Suite 101","Kissimmee,","FL","34746","US","<MISSING>","(407) 390-6171","<MISSING>","28.3392702","-81.5947748","Monday
11:00 AM - 11:00 PM
Tuesday
11:00 AM - 11:00 PM
Wednesday
11:00 AM - 11:00 PM
Thursday
11:00 AM - 11:00 PM
Friday
11:00 AM - 12:00 AM
Saturday
11:00 AM - 12:00 AM
Sunday
11:00 AM - 11:00 PM"
"https://www.cicis.com/","CICIS S JOG RD","3024-3028 S Jog Rd","Lake Worth,","FL","33467","US","<MISSING>","(561) 641-5888","<MISSING>","26.63124452429574","-80.14432355761528","Monday
11:00 AM - 10:00 PM
Tuesday
11:00 AM - 10:00 PM
Wednesday
11:00 AM - 10:00 PM
Thursday
11:00 AM - 10:00 PM
Friday
11:00 AM - 11:00 PM
Saturday
11:00 AM - 11:00 PM
Sunday
11:00 AM - 10:00 PM"
"https://www.cicis.com/","CICIS S FLORIDA AVE
CLOSED","4271 S Florida Ave","Lakeland,","FL","33813","US","<MISSING>","(863) 644-4477","<MISSING>","27.9878887","-81.9586632","Monday Closed
Tuesday Closed
Wednesday Closed
Thursday Closed
Friday Closed
Saturday Closed
Sunday Closed"
"https://www.cicis.com/","CICIS W ATLANTIC BLVD","5379 W Atlantic Blvd Ste 1","Margate,","FL","33063","US","<MISSING>","(954) 979-7747","<MISSING>","26.23675003541191","-80.19949324429035","Monday
11:00 AM - 10:00 PM
Tuesday
11:00 AM - 10:00 PM
Wednesday
11:00 AM - 10:00 PM
Thursday
11:00 AM - 10:00 PM
Friday
11:00 AM - 10:00 PM
Saturday
11:00 AM - 10:00 PM
Sunday
11:00 AM - 10:00 PM"
"https://www.cicis.com/","CICIS SW 117TH AVE","7572 Sw 117Th Ave Unit 107","Miami,","FL","33183","US","<MISSING>","(305) 274-0530","<MISSING>","25.697530063075497","-80.38268208503729","Monday
11:00 AM - 11:00 PM
Tuesday
11:00 AM - 11:00 PM
Wednesday
11:00 AM - 11:00 PM
Thursday
11:00 AM - 11:00 PM
Friday
11:00 AM - 12:00 AM
Saturday
11:00 AM - 12:00 AM
Sunday
11:00 AM - 11:00 PM"
"https://www.cicis.com/","CICIS W FLAGLER ST","9609 W Flagler St Unit 107","Miami,","FL","33174","US","<MISSING>","(786) 558-8086","<MISSING>","25.7703868","-80.3524602","Monday
11:00 AM - 11:00 PM
Tuesday
11:00 AM - 11:00 PM
Wednesday
11:00 AM - 11:00 PM
Thursday
11:00 AM - 11:00 PM
Friday
11:00 AM - 12:00 AM
Saturday
11:00 AM - 12:00 AM
Sunday
11:00 AM - 11:00 PM"
"https://www.cicis.com/","CICIS IMMOKALEE RD","2650 Immokalee Rd Bldg 300, Unit 2","Naples,","FL","34110","US","<MISSING>","(239) 597-0306","<MISSING>","26.2708582","-81.7675246","Monday
11:00 AM - 10:00 PM
Tuesday
11:00 AM - 10:00 PM
Wednesday
11:00 AM - 10:00 PM
Thursday
11:00 AM - 10:00 PM
Friday
11:00 AM - 11:00 PM
Saturday
11:00 AM - 11:00 PM
Sunday
11:00 AM - 10:00 PM"
"https://www.cicis.com/","CICIS TO GO NW BLITCHTON ROAD
CLOSED","3801 Nw Blitchton Rd.","Ocala,","FL","34482","US","<MISSING>","(352) 629-0580","<MISSING>","29.207706851307066","-82.18568176031113","Monday Closed
Tuesday Closed
Wednesday Closed
Thursday Closed
Friday Closed
Saturday Closed
Sunday Closed"
"https://www.cicis.com/","CICIS W COLONIAL DR","10151 W Colonial Dr Suite 2200","Ocoee,","FL","34761","US","<MISSING>","(407) 292-1277","<MISSING>","28.5524011","-81.5270841","Monday
11:00 AM - 10:00 PM
Tuesday
11:00 AM - 10:00 PM
Wednesday
11:00 AM - 10:00 PM
Thursday
11:00 AM - 10:00 PM
Friday
11:00 AM - 11:00 PM
Saturday
11:00 AM - 11:00 PM
Sunday
11:00 AM - 10:00 PM"
"https://www.cicis.com/","CICIS S VOLUSIA AVE","2448 S Volusia Ave. Ste 19","Orange City,","FL","32763","US","<MISSING>","(386) 960-0073","<MISSING>","28.9201846","-81.2988117","Monday
11:00 AM - 10:00 PM
Tuesday
11:00 AM - 10:00 PM
Wednesday
11:00 AM - 10:00 PM
Thursday
11:00 AM - 10:00 PM
Friday
11:00 AM - 10:00 PM
Saturday
11:00 AM - 10:00 PM
Sunday
11:00 AM - 10:00 PM"
"https://www.cicis.com/","CICIS BLANDING BLVD","410 Blanding Blvd Ste 5","Orange Park,","FL","32073","US","<MISSING>","(904) 272-3733","<MISSING>","30.163124525765756","-81.74848437309265","Monday
11:00 AM - 9:00 PM
Tuesday
11:00 AM - 9:00 PM
Wednesday
11:00 AM - 9:00 PM
Thursday
11:00 AM - 9:00 PM
Friday
11:00 AM - 10:00 PM
Saturday
11:00 AM - 10:00 PM
Sunday
11:00 AM - 10:00 PM"
"https://www.cicis.com/","CICIS INTERNATIONAL DR","11701 International Dr Suite 2200","Orlando,","FL","32821","US","<MISSING>","(407) 778-4900","<MISSING>","28.393337583789418","-81.46531149744987","Monday
11:00 AM - 10:00 PM
Tuesday
11:00 AM - 10:00 PM
Wednesday
11:00 AM - 10:00 PM
Thursday
11:00 AM - 10:00 PM
Friday
11:00 AM - 11:00 PM
Saturday
11:00 AM - 11:00 PM
Sunday
11:00 AM - 10:00 PM"
"https://www.cicis.com/","CICIS SR 535","13605 Sr 535 Suite 101","Orlando,","FL","32821","US","<MISSING>","(407) 239-4450","<MISSING>","28.36770151726685","-81.50177612900734","Monday
11:00 AM - 11:00 PM
Tuesday
11:00 AM - 11:00 PM
Wednesday
11:00 AM - 11:00 PM
Thursday
11:00 AM - 11:00 PM
Friday
11:00 AM - 12:00 AM
Saturday
11:00 AM - 12:00 AM
Sunday
11:00 AM - 11:00 PM"
"https://www.cicis.com/","CICIS S SEMORAN BLVD","4538 S Semoran Blvd Ste 19","Orlando,","FL","32822","US","<MISSING>","(407) 249-3939","<MISSING>","28.497596009299198","-81.31192065775394","Monday
11:00 AM - 10:00 PM
Tuesday
11:00 AM - 10:00 PM
Wednesday
11:00 AM - 10:00 PM
Thursday
11:00 AM - 10:00 PM
Friday
11:00 AM - 10:00 PM
Saturday
11:00 AM - 10:00 PM
Sunday
11:00 AM - 10:00 PM"
"https://www.cicis.com/","CICIS INTERNATIONAL DR","7437 International Dr Suite 2200","Orlando,","FL","32819","US","<MISSING>","(407) 226-9822","<MISSING>","28.4541198340502","-81.47030241787434","Monday
11:00 AM - 11:00 PM
Tuesday
11:00 AM - 11:00 PM
Wednesday
11:00 AM - 11:00 PM
Thursday
11:00 AM - 11:00 PM
Friday
11:00 AM - 12:00 AM
Saturday
11:00 AM - 12:00 AM
Sunday
11:00 AM - 11:00 PM"
"https://www.cicis.com/","CICIS INTERNATIONAL DR","8540 International Dr Suite 2200","Orlando,","FL","32819","US","<MISSING>","(407) 363-5559","<MISSING>","28.44100155920703","-81.47133439779287","Monday
11:00 AM - 11:00 PM
Tuesday
11:00 AM - 11:00 PM
Wednesday
11:00 AM - 11:00 PM
Thursday
11:00 AM - 11:00 PM
Friday
11:00 AM - 12:00 AM
Saturday
11:00 AM - 12:00 AM
Sunday
11:00 AM - 11:00 PM"
"https://www.cicis.com/","CICIS PALM PKWY","8586 Palm Pkwy Suite 101","Orlando,","FL","32836","US","<MISSING>","(407) 238-7711","<MISSING>","28.384847584152805","-81.50195315480232","Monday
11:00 AM - 11:00 PM
Tuesday
11:00 AM - 11:00 PM
Wednesday
11:00 AM - 11:00 PM
Thursday
11:00 AM - 11:00 PM
Friday
11:00 AM - 12:00 AM
Saturday
11:00 AM - 12:00 AM
Sunday
11:00 AM - 11:00 PM"
"https://www.cicis.com/","CICIS PANAMA CITY","660 W 23Rd St Ste.523","Panama City,","FL","32405","US","<MISSING>","(850) 481-8419","<MISSING>","30.191577222230194","-85.67019171548054","Monday
10:30 AM - 10:00 PM
Tuesday
10:30 AM - 10:00 PM
Wednesday
10:30 AM - 10:00 PM
Thursday
10:30 AM - 10:00 PM
Friday
10:30 AM - 10:00 PM
Saturday
10:30 AM - 10:00 PM
Sunday
10:30 AM - 10:00 PM"
"https://www.cicis.com/","CICIS PANAMA CITY BEACH","493 Richard Jackson Boulevard Ste.523","Panama City Beach,","FL","32407","US","<MISSING>","(850) 249-4400","<MISSING>","30.1853295","-85.8164994","Monday
11:00 AM - 10:00 PM
Tuesday
11:00 AM - 10:00 PM
Wednesday
11:00 AM - 10:00 PM
Thursday
11:00 AM - 10:00 PM
Friday
11:00 AM - 11:00 PM
Saturday
11:00 AM - 10:00 PM
Sunday
11:00 AM - 10:00 PM"
"https://www.cicis.com/","CICIS N 9TH AVE","7145-C N 9Th Ave. Suite G-01","Pensacola,","FL","32504","US","<MISSING>","(850) 476-6464","<MISSING>","30.498742655666486","-87.18800693750376","Monday
11:00 AM - 10:00 PM
Tuesday
11:00 AM - 10:00 PM
Wednesday
11:00 AM - 10:00 PM
Thursday
11:00 AM - 10:00 PM
Friday
11:00 AM - 11:00 PM
Saturday
11:00 AM - 11:00 PM
Sunday
11:00 AM - 10:00 PM"
"https://www.cicis.com/","CICIS TAMIAMI TRL","1700 Tamiami Trl Suite G-5","Port Charlotte,","FL","33948","US","<MISSING>","(941) 627-3303","<MISSING>","27.009104357037586","-82.13561832904816","Monday
11:00 AM - 10:00 PM
Tuesday
11:00 AM - 10:00 PM
Wednesday
11:00 AM - 10:00 PM
Thursday
11:00 AM - 10:00 PM
Friday
11:00 AM - 10:00 PM
Saturday
11:00 AM - 10:00 PM
Sunday
11:00 AM - 10:00 PM"
"https://www.cicis.com/","CICIS PORT ORANGE","3830-B S Nova Rd Ste 19","Port Orange,","FL","32127","US","<MISSING>","(386) 333-9034","<MISSING>","29.1247661","-81.0053257","Monday
11:00 AM - 10:00 PM
Tuesday
11:00 AM - 10:00 PM
Wednesday
11:00 AM - 10:00 PM
Thursday
11:00 AM - 10:00 PM
Friday
11:00 AM - 10:00 PM
Saturday
11:00 AM - 10:00 PM
Sunday
11:00 AM - 10:00 PM"
"https://www.cicis.com/","CICIS 66TH ST N","4743 66Th St N","Saint Petersburg,","FL","33709","US","<MISSING>","(727) 548-8888","<MISSING>","27.815218","-82.727241","Monday
11:00 AM - 10:00 PM
Tuesday
11:00 AM - 10:00 PM
Wednesday
11:00 AM - 10:00 PM
Thursday
11:00 AM - 10:00 PM
Friday
11:00 AM - 10:00 PM
Saturday
11:00 AM - 10:00 PM
Sunday
11:00 AM - 10:00 PM"
"https://www.cicis.com/","CICIS S ORLANDO DR","3695 S Orlando Dr Ste 19","Sanford,","FL","32773","US","<MISSING>","(407) 330-7676","<MISSING>","28.758986","-81.2838399","Monday
11:00 AM - 10:00 PM
Tuesday
11:00 AM - 10:00 PM
Wednesday
11:00 AM - 10:00 PM
Thursday
11:00 AM - 10:00 PM
Friday
11:00 AM - 10:00 PM
Saturday
11:00 AM - 10:00 PM
Sunday
11:00 AM - 10:00 PM"
"https://www.cicis.com/","CICIS E FOWLER AVE","5771 E Fowler Ave","Tampa,","FL","33617","US","<MISSING>","(813) 914-7788","<MISSING>","28.053192063326076","-82.3917619138956","Monday
11:00 AM - 10:00 PM
Tuesday
11:00 AM - 10:00 PM
Wednesday
11:00 AM - 10:00 PM
Thursday
11:00 AM - 10:00 PM
Friday
11:00 AM - 10:00 PM
Saturday
11:00 AM - 10:00 PM
Sunday
11:00 AM - 10:00 PM"
"https://www.cicis.com/","CICIS CYPRESS GARDENS BLVD","347 Cypress Gardens Blvd","Winter Haven,","FL","33880","US","<MISSING>","(863) 293-9292","<MISSING>","28.006305380563756","-81.723243445158","Monday
11:00 AM - 10:00 PM
Tuesday
11:00 AM - 10:00 PM
Wednesday
11:00 AM - 10:00 PM
Thursday
11:00 AM - 10:00 PM
Friday
11:00 AM - 10:00 PM
Saturday
11:00 AM - 10:00 PM
Sunday
11:00 AM - 10:00 PM"
"https://www.cicis.com/","CICIS ATLANTA HWY","3190 Atlanta Hwy Stes 5 / 6","Athens,","GA","30606","US","<MISSING>","(706) 613-2424","<MISSING>","33.94165547712318","-83.45115065574646","Monday
11:00 AM - 10:00 PM
Tuesday
11:00 AM - 10:00 PM
Wednesday
11:00 AM - 10:00 PM
Thursday
11:00 AM - 10:00 PM
Friday
11:00 AM - 11:00 PM
Saturday
11:00 AM - 11:00 PM
Sunday
11:00 AM - 10:00 PM"
"https://www.cicis.com/","CICIS WASHINGTON RD","4025 Wheeler Road","Augusta,","GA","30907","US","<MISSING>","(706) 364-6659","<MISSING>","33.4890158","-82.10861009999999","Monday
11:00 AM - 10:00 PM
Tuesday
11:00 AM - 10:00 PM
Wednesday
11:00 AM - 10:00 PM
Thursday
11:00 AM - 10:00 PM
Friday
11:00 AM - 11:00 PM
Saturday
11:00 AM - 11:00 PM
Sunday
11:00 AM - 10:00 PM"
"https://www.cicis.com/","CICIS CHEROKEE PL","240 Cherokee Place Ste 220","Cartersville,","GA","30121","US","<MISSING>","(770) 387-9797","<MISSING>","34.17288561920845","-84.78436410427088","Monday
11:00 AM - 10:00 PM
Tuesday
11:00 AM - 10:00 PM
Wednesday
11:00 AM - 10:00 PM
Thursday
11:00 AM - 10:00 PM
Friday
11:00 AM - 11:00 PM
Saturday
11:00 AM - 11:00 PM
Sunday
11:00 AM - 10:00 PM"
"https://www.cicis.com/","CICIS WHITTLESEY RD","1660 Whittlesey Rd Ste 300","Columbus,","GA","31904","US","<MISSING>","(706) 317-3332","<MISSING>","32.536723010535276","-84.96820941567427","Monday
11:00 AM - 10:00 PM
Tuesday
11:00 AM - 10:00 PM
Wednesday
11:00 AM - 10:00 PM
Thursday
11:00 AM - 10:00 PM
Friday
11:00 AM - 10:00 PM
Saturday
11:00 AM - 10:00 PM
Sunday
11:00 AM - 10:00 PM"
"https://www.cicis.com/","CICIS AUBURN AVE","1931 Auburn Ave Ste 300","Columbus,","GA","31906","US","<MISSING>","(706) 569-9096","<MISSING>","32.4809491","-84.9465884","Monday
11:00 AM - 10:00 PM
Tuesday
11:00 AM - 10:00 PM
Wednesday
11:00 AM - 10:00 PM
Thursday
11:00 AM - 10:00 PM
Friday
11:00 AM - 10:00 PM
Saturday
11:00 AM - 10:00 PM
Sunday
11:00 AM - 10:00 PM"
"https://www.cicis.com/","CICIS HIGHWAY 138 SE","1503 Highway 138 Se B-102 & B-104","Conyers,","GA","30013","US","<MISSING>","(770) 929-3350","<MISSING>","33.651225","-84.010637","Monday
11:00 AM - 10:00 PM
Tuesday
11:00 AM - 10:00 PM
Wednesday
11:00 AM - 10:00 PM
Thursday
11:00 AM - 10:00 PM
Friday
11:00 AM - 11:00 PM
Saturday
11:00 AM - 11:00 PM
Sunday
11:00 AM - 10:00 PM"
"https://www.cicis.com/","CICIS RONALD REAGAN BLVD","2920 Ronald Reagan Blvd Ste 220","Cumming,","GA","30041","US","<MISSING>","(770) 886-7800","<MISSING>","34.15279356947533","-84.16997194290161","Monday
11:00 AM - 10:00 PM
Tuesday
11:00 AM - 10:00 PM
Wednesday
11:00 AM - 10:00 PM
Thursday
11:00 AM - 10:00 PM
Friday
11:00 AM - 11:00 PM
Saturday
11:00 AM - 11:00 PM
Sunday
11:00 AM - 10:00 PM"
"https://www.cicis.com/","CICIS W WALNUT AVE","1345 W Walnut Ave Ste. 302-A","Dalton,","GA","30720","US","<MISSING>","(706) 278-2424","<MISSING>","34.75816070643402","-84.99382853507996","Monday
11:00 AM - 10:00 PM
Tuesday
11:00 AM - 10:00 PM
Wednesday
11:00 AM - 10:00 PM
Thursday
11:00 AM - 10:00 PM
Friday
11:00 AM - 11:00 PM
Saturday
11:00 AM - 11:00 PM
Sunday
11:00 AM - 10:00 PM"
"https://www.cicis.com/","CICIS N DRUID HILLS RD","3912 N. Druid Hills Road Ste 220","Decatur,","GA","30033","US","<MISSING>","(404) 329-1535","<MISSING>","33.81165051876749","-84.27360445261007","Monday
11:00 AM - 10:00 PM
Tuesday
11:00 AM - 10:00 PM
Wednesday
11:00 AM - 10:00 PM
Thursday
11:00 AM - 10:00 PM
Friday
11:00 AM - 10:00 PM
Saturday
11:00 AM - 10:00 PM
Sunday
11:00 AM - 10:00 PM"
"https://www.cicis.com/","CICIS BATTLEFIELD PKWY","723 Battlefield Pkwy Ste. 302-A","Fort Oglethorpe,","GA","30742","US","<MISSING>","(706) 858-7401","<MISSING>","34.9556423","-85.2531179","Monday
11:00 AM - 10:00 PM
Tuesday
11:00 AM - 10:00 PM
Wednesday
11:00 AM - 10:00 PM
Thursday
11:00 AM - 10:00 PM
Friday
11:00 AM - 11:00 PM
Saturday
11:00 AM - 10:00 PM
Sunday
11:00 AM - 10:00 PM"
"https://www.cicis.com/","CICIS PEACHTREE PKWY","6050 Peachtree Pkwy Ste 220","Peachtree Corners,","GA","30092","US","<MISSING>","(770) 300-0535","<MISSING>","33.9542090068929","-84.23208922147751","Monday
11:00 AM - 10:00 PM
Tuesday
11:00 AM - 10:00 PM
Wednesday
11:00 AM - 10:00 PM
Thursday
11:00 AM - 10:00 PM
Friday
11:00 AM - 11:00 PM
Saturday
11:00 AM - 11:00 PM
Sunday
11:00 AM - 10:00 PM"
"https://www.cicis.com/","CICIS REDMOND CIR NW","2519 Redmond Cir Nw","Rome,","GA","30165","US","<MISSING>","(706) 235-8800","<MISSING>","34.27251717843666","-85.22770076564399","Monday
11:00 AM - 10:00 PM
Tuesday
11:00 AM - 10:00 PM
Wednesday
11:00 AM - 10:00 PM
Thursday
11:00 AM - 10:00 PM
Friday
11:00 AM - 11:00 PM
Saturday
11:00 AM - 11:00 PM
Sunday
11:00 AM - 10:00 PM"
"https://www.cicis.com/","CICIS ALPHARETTA HWY","10516 Alpharetta Hwy Ste 220","Roswell,","GA","30076","US","<MISSING>","(770) 645-1550","<MISSING>","34.03900245641394","-84.34450931847095","Monday
11:00 AM - 10:00 PM
Tuesday
11:00 AM - 10:00 PM
Wednesday
11:00 AM - 10:00 PM
Thursday
11:00 AM - 10:00 PM
Friday
11:00 AM - 11:00 PM
Saturday
11:00 AM - 11:00 PM
Sunday
11:00 AM - 10:00 PM"
"https://www.cicis.com/","CICIS ABERCORN ST","7400 Abercorn St Ste 801","Savannah,","GA","31406","US","<MISSING>","(912) 691-2777","<MISSING>","32.008155564722394","-81.11063495278358","Monday
11:00 AM - 10:00 PM
Tuesday
11:00 AM - 10:00 PM
Wednesday
11:00 AM - 10:00 PM
Thursday
11:00 AM - 10:00 PM
Friday
11:00 AM - 11:00 PM
Saturday
11:00 AM - 11:00 PM
Sunday
11:00 AM - 10:00 PM"
"https://www.cicis.com/","CICIS NORMAN DR","1717 Norman Dr","Valdosta,","GA","31601","US","<MISSING>","(229) 469-7288","<MISSING>","30.841774","-83.317522","Monday
11:00 AM - 10:00 PM
Tuesday
11:00 AM - 10:00 PM
Wednesday
11:00 AM - 10:00 PM
Thursday
11:00 AM - 10:00 PM
Friday
11:00 AM - 11:00 PM
Saturday
11:00 AM - 10:00 PM
Sunday
11:00 AM - 10:00 PM"
"https://www.cicis.com/","CICIS LOCKPORT","16131 S. Farrell Road Suite B","Lockport,","IL","60441","US","<MISSING>","(815) 838-0202","<MISSING>","41.59355744801213","-88.02350465739443","Monday
11:00 AM - 9:00 PM
Tuesday
11:00 AM - 9:00 PM
Wednesday
11:00 AM - 9:00 PM
Thursday
11:00 AM - 9:00 PM
Friday
11:00 AM - 10:00 PM
Saturday
11:00 AM - 10:00 PM
Sunday
11:00 AM - 9:00 PM"
"https://www.cicis.com/","CICIS S ROUTE 59","618 S Route 59","Naperville,","IL","60540","US","<MISSING>","(630) 357-1202","<MISSING>","41.76180499218383","-88.20420742034918","Monday
11:00 AM - 10:00 PM
Tuesday
11:00 AM - 10:00 PM
Wednesday
11:00 AM - 10:00 PM
Thursday
11:00 AM - 10:00 PM
Friday
11:00 AM - 11:00 PM
Saturday
11:00 AM - 11:00 PM
Sunday
11:00 AM - 10:00 PM"
"https://www.cicis.com/","CICIS W GOLF RD","8225 W Golf Rd","Niles,","IL","60714","US","<MISSING>","(847) 965-3911","<MISSING>","42.05319231644522","-87.83162713050842","Monday
11:00 AM - 9:00 PM
Tuesday
11:00 AM - 9:00 PM
Wednesday
11:00 AM - 9:00 PM
Thursday
11:00 AM - 9:00 PM
Friday
11:00 AM - 10:00 PM
Saturday
11:00 AM - 10:00 PM
Sunday
11:00 AM - 9:00 PM"
"https://www.cicis.com/","CICIS S ROUTE 59","11830-A S Route 59","Plainfield,","IL","60585","US","<MISSING>","(815) 782-8366","<MISSING>","41.667431","-88.20614695337292","Monday
11:00 AM - 9:00 PM
Tuesday
11:00 AM - 9:00 PM
Wednesday
11:00 AM - 9:00 PM
Thursday
11:00 AM - 9:00 PM
Friday
11:00 AM - 10:00 PM
Saturday
11:00 AM - 10:00 PM
Sunday
11:00 AM - 9:00 PM"
"https://www.cicis.com/","CICIS STREAMWOOD","127 E. Irving Park Road","Streamwood,","IL","60107","US","<MISSING>","(630) 855-6499","<MISSING>","42.011497","-88.1793622","Monday
11:00 AM - 9:00 PM
Tuesday
11:00 AM - 9:00 PM
Wednesday
11:00 AM - 9:00 PM
Thursday
11:00 AM - 9:00 PM
Friday
11:00 AM - 10:00 PM
Saturday
11:00 AM - 10:00 PM
Sunday
11:00 AM - 9:00 PM"
"https://www.cicis.com/","CICIS N GREEN RIVER RD","101-B N Green River Rd","Evansville,","IN","47715","US","<MISSING>","(812) 477-2424","<MISSING>","37.9781048","-87.4904599","Monday
11:00 AM - 10:00 PM
Tuesday
11:00 AM - 10:00 PM
Wednesday
11:00 AM - 10:00 PM
Thursday
11:00 AM - 10:00 PM
Friday
11:00 AM - 11:00 PM
Saturday
11:00 AM - 11:00 PM
Sunday
11:00 AM - 10:00 PM"
"https://www.cicis.com/","CICIS RIETH BLVD","1830 Rieth Blvd","Goshen,","IN","46526","US","<MISSING>","(574) 875-0888","<MISSING>","41.6159201","-85.8934347","Monday
11:00 AM - 9:00 PM
Tuesday
11:00 AM - 9:00 PM
Wednesday
11:00 AM - 9:00 PM
Thursday
11:00 AM - 9:00 PM
Friday
11:00 AM - 10:00 PM
Saturday
11:00 AM - 10:00 PM
Sunday
11:00 AM - 9:00 PM"
"https://www.cicis.com/","CICIS S EAST ST","3652 S East St","Indianapolis,","IN","46227","US","<MISSING>","(317) 786-8799","<MISSING>","39.71395039796305","-86.1507135629654","Monday
11:00 AM - 9:00 PM
Tuesday
11:00 AM - 9:00 PM
Wednesday
11:00 AM - 9:00 PM
Thursday
11:00 AM - 9:00 PM
Friday
11:00 AM - 9:00 PM
Saturday
11:00 AM - 9:00 PM
Sunday
11:00 AM - 9:00 PM"
"https://www.cicis.com/","CICIS GRAPE RD","4320 N. Grape Rd","Mishawaka,","IN","46545","US","<MISSING>","(574) 272-3000","<MISSING>","41.69944748873322","-86.18343517184258","Monday
11:00 AM - 9:00 PM
Tuesday
11:00 AM - 9:00 PM
Wednesday
11:00 AM - 9:00 PM
Thursday
11:00 AM - 9:00 PM
Friday
11:00 AM - 10:00 PM
Saturday
11:00 AM - 10:00 PM
Sunday
11:00 AM - 9:00 PM"
"https://www.cicis.com/","CICIS CENTRAL AVE","6028 Central Ave Suite B","Portage,","IN","46368","US","<MISSING>","(219) 764-8045","<MISSING>","41.5772941","-87.1820551","Monday
11:00 AM - 10:00 PM
Tuesday
11:00 AM - 10:00 PM
Wednesday
11:00 AM - 10:00 PM
Thursday
11:00 AM - 10:00 PM
Friday
11:00 AM - 11:00 PM
Saturday
11:00 AM - 11:00 PM
Sunday
11:00 AM - 10:00 PM"
"https://www.cicis.com/","CICIS INDIANAPOLIS BLVD","1686 Indianapolis Blvd Suite B","Schererville,","IN","46375","US","<MISSING>","(219) 865-8111","<MISSING>","41.491491988280835","-87.47269928455358","Monday
11:00 AM - 10:00 PM
Tuesday
11:00 AM - 10:00 PM
Wednesday
11:00 AM - 10:00 PM
Thursday
11:00 AM - 10:00 PM
Friday
11:00 AM - 11:00 PM
Saturday
11:00 AM - 11:00 PM
Sunday
11:00 AM - 10:00 PM"
"https://www.cicis.com/","CICIS W 23RD ST","2020 W 23Rd St Ste A","Lawrence,","KS","66046","US","<MISSING>","(785) 832-1110","<MISSING>","38.943850122744784","-95.25998756289482","Monday
11:00 AM - 10:00 PM
Tuesday
11:00 AM - 10:00 PM
Wednesday
11:00 AM - 10:00 PM
Thursday
11:00 AM - 10:00 PM
Friday
11:00 AM - 11:00 PM
Saturday
11:00 AM - 10:00 PM
Sunday
11:00 AM - 10:00 PM"
"https://www.cicis.com/","CICIS ROE BLVD","4990 Roe Blvd. Ste A / B / C","Mission,","KS","66205","US","<MISSING>","(913) 677-9605","<MISSING>","39.03800299350514","-94.6403074264527","Monday
11:00 AM - 10:00 PM
Tuesday
11:00 AM - 10:00 PM
Wednesday
11:00 AM - 10:00 PM
Thursday
11:00 AM - 10:00 PM
Friday
11:00 AM - 10:00 PM
Saturday
11:00 AM - 10:00 PM
Sunday
11:00 AM - 10:00 PM"
"https://www.cicis.com/","CICIS SW WANAMAKER RD","2130 Sw Wanamaker Rd Ste 110","Topeka,","KS","66614","US","<MISSING>","(785) 273-9300","<MISSING>","39.0278292","-95.7596894","Monday
11:00 AM - 10:00 PM
Tuesday
11:00 AM - 10:00 PM
Wednesday
11:00 AM - 10:00 PM
Thursday
11:00 AM - 10:00 PM
Friday
11:00 AM - 11:00 PM
Saturday
11:00 AM - 10:00 PM
Sunday
11:00 AM - 10:00 AM"
"https://www.cicis.com/","CICIS W CENTRAL AVE","8320 W Central Ave","Wichita,","KS","67212","US","<MISSING>","(316) 773-1782","<MISSING>","37.6946904","-97.4392656","Monday
11:00 AM - 10:00 PM
Tuesday
11:00 AM - 10:00 PM
Wednesday
11:00 AM - 10:00 PM
Thursday
11:00 AM - 10:00 PM
Friday
11:00 AM - 10:00 PM
Saturday
11:00 AM - 10:00 PM
Sunday
11:00 AM - 10:00 PM"
"https://www.cicis.com/","CICIS CAMPBELL LN","760 Campbell Ln Ste 117","Bowling Green,","KY","42104","US","<MISSING>","(270) 843-9299","<MISSING>","36.96234032336023","-86.46349668502802","Monday
10:30 AM - 10:00 PM
Tuesday
10:30 AM - 10:00 PM
Wednesday
10:30 AM - 10:00 PM
Thursday
10:30 AM - 10:00 PM
Friday
10:30 AM - 10:00 PM
Saturday
10:30 AM - 10:00 PM
Sunday
10:30 AM - 10:00 PM"
"https://www.cicis.com/","CICIS HOUSTON RD","4989 Houston Rd","Florence,","KY","41042","US","<MISSING>","(859) 525-6380","<MISSING>","39.0153898","-84.6401374","Monday
11:00 AM - 10:00 PM
Tuesday
11:00 AM - 10:00 PM
Wednesday
11:00 AM - 10:00 PM
Thursday
11:00 AM - 10:00 PM
Friday
11:00 AM - 10:00 PM
Saturday
11:00 AM - 10:00 PM
Sunday
11:00 AM - 10:00 PM"
"https://www.cicis.com/","CICIS MACARTHUR DR","1420 Macarthur Dr","Alexandria,","LA","71301","US","<MISSING>","(318) 442-6969","<MISSING>","31.284322841437678","-92.47549384832382","Monday
11:00 AM - 10:00 PM
Tuesday
11:00 AM - 10:00 PM
Wednesday
11:00 AM - 10:00 PM
Thursday
11:00 AM - 10:00 PM
Friday
11:00 AM - 10:00 PM
Saturday
11:00 AM - 10:00 PM
Sunday
11:00 AM - 10:00 PM"
"https://www.cicis.com/","CICIS SIEGEN LN","7060 Siegen Ln","Baton Rouge,","LA","70809","US","<MISSING>","(225) 291-2424","<MISSING>","30.3857568462594","-91.06586024165154","Monday
11:00 AM - 10:00 PM
Tuesday
11:00 AM - 10:00 PM
Wednesday
11:00 AM - 10:00 PM
Thursday
11:00 AM - 10:00 PM
Friday
11:00 AM - 10:00 PM
Saturday
11:00 AM - 10:00 PM
Sunday
11:00 AM - 10:00 PM"
"https://www.cicis.com/","CICIS LAFAYETTE","4510 Caffery Parkway Suite F","Lafayette,","LA","70508","US","<MISSING>","(337) 769-3834","<MISSING>","30.154522","-92.0485653","Monday
11:00 AM - 10:00 PM
Tuesday
11:00 AM - 10:00 PM
Wednesday
11:00 AM - 10:00 PM
Thursday
11:00 AM - 10:00 PM
Friday
11:00 AM - 11:00 PM
Saturday
11:00 AM - 11:00 PM
Sunday
11:00 AM - 10:00 PM"
"https://www.cicis.com/","CICIS RYAN ST","3533 Ryan Street","Lake Charles,","LA","70605","US","<MISSING>","(337) 562-2223","<MISSING>","30.19262865102633","-93.21789041161537","Monday
10:00 AM - 10:00 PM
Tuesday
10:00 AM - 10:00 PM
Wednesday
10:00 AM - 10:00 PM
Thursday
10:00 AM - 10:00 PM
Friday
10:00 AM - 11:00 PM
Saturday
10:00 AM - 11:00 PM
Sunday
10:00 AM - 10:00 PM"
"https://www.cicis.com/","CICIS AIRLINE PARK SHOPPING CENTER","6311 Airline Park Shopping Center","Metairie,","LA","70003","US","<MISSING>","(504) 818-2422","<MISSING>","29.978075727479506","-90.20337581634521","Monday
11:00 AM - 10:00 PM
Tuesday
11:00 AM - 10:00 PM
Wednesday
11:00 AM - 10:00 PM
Thursday
11:00 AM - 10:00 PM
Friday
11:00 AM - 10:00 PM
Saturday
11:00 AM - 10:00 PM
Sunday
11:00 AM - 10:00 PM"
"https://www.cicis.com/","CICIS YOUREE DR","6570 Youree Dr Suite 205","Shreveport,","LA","71105","US","<MISSING>","(318) 798-6151","<MISSING>","32.44755363823879","-93.7218976020813","Monday
11:00 AM - 10:00 PM
Tuesday
11:00 AM - 10:00 PM
Wednesday
11:00 AM - 10:00 PM
Thursday
11:00 AM - 10:00 PM
Friday
11:00 AM - 11:00 PM
Saturday
11:00 AM - 11:00 PM
Sunday
11:00 AM - 10:00 PM"
"https://www.cicis.com/","CICIS PINES RD","6730 Pines Rd Suite 205","Shreveport,","LA","71129","US","<MISSING>","(318) 687-4500","<MISSING>","32.44669919006546","-93.86474534869194","Monday
11:00 AM - 10:00 PM
Tuesday
11:00 AM - 10:00 PM
Wednesday
11:00 AM - 10:00 PM
Thursday
11:00 AM - 10:00 PM
Friday
11:00 AM - 11:00 PM
Saturday
11:00 AM - 11:00 PM
Sunday
11:00 AM - 10:00 PM"
"https://www.cicis.com/","CICIS GAUSE BLVD W","140 Gause Blvd W","Slidell,","LA","70460","US","<MISSING>","(985) 639-8100","<MISSING>","30.288500873097192","-89.78083804249763","Monday
11:00 AM - 10:00 PM
Tuesday
11:00 AM - 10:00 PM
Wednesday
11:00 AM - 10:00 PM
Thursday
11:00 AM - 10:00 PM
Friday
11:00 AM - 10:00 PM
Saturday
11:00 AM - 10:00 PM
Sunday
11:00 AM - 10:00 PM"
"https://www.cicis.com/","CICIS BUCKEYSTOWN PIKE","5010 Buckeystown Pike Suite 136-140","Frederick,","MD","21704","US","<MISSING>","(301) 846-9099","<MISSING>","39.3716131","-77.4124065","Monday
11:00 AM - 10:00 PM
Tuesday
11:00 AM - 10:00 PM
Wednesday
11:00 AM - 10:00 PM
Thursday
11:00 AM - 10:00 PM
Friday
11:00 AM - 11:00 PM
Saturday
11:00 AM - 11:00 PM
Sunday
11:00 AM - 10:00 PM"
"https://www.cicis.com/","CICIS MOUNTAIN RD
CLOSED","26 Mountain Rd Suite 136-140","Glen Burnie,","MD","21060","US","<MISSING>","(410) 760-9200","<MISSING>","39.13699515566264","-76.59505695104593","Monday Closed
Tuesday Closed
Wednesday Closed
Thursday Closed
Friday Closed
Saturday Closed
Sunday Closed"
"https://www.cicis.com/","CICIS WESEL BLVD","1580 Wesel Blvd Unit 6","Hagerstown,","MD","21740","US","<MISSING>","(301) 791-0911","<MISSING>","39.633168493927506","-77.76288002729416","Monday
11:00 AM - 10:00 PM
Tuesday
11:00 AM - 10:00 PM
Wednesday
11:00 AM - 10:00 PM
Thursday
11:00 AM - 10:00 PM
Friday
11:00 AM - 11:00 PM
Saturday
11:00 AM - 11:00 PM
Sunday
11:00 AM - 10:00 PM"
"https://www.cicis.com/","CICIS ROCKVILLE PIKE","12111 Rockville Pike Unit 1A","Rockville,","MD","20852","US","<MISSING>","(301) 881-1982","<MISSING>","39.05723280167233","-77.11822651326656","Monday
11:00 AM - 10:00 PM
Tuesday
11:00 AM - 10:00 PM
Wednesday
11:00 AM - 10:00 PM
Thursday
11:00 AM - 10:00 PM
Friday
11:00 AM - 11:00 PM
Saturday
11:00 AM - 11:00 PM
Sunday
11:00 AM - 10:00 PM"
"https://www.cicis.com/","CICIS D'IBERVILLE","3661 Sangani Blvd. Suite D","D'Iberville,","MS","39540","US","<MISSING>","(228) 207-3147","<MISSING>","30.4583883","-88.896557","Monday
11:00 AM - 10:00 PM
Tuesday
11:00 AM - 10:00 PM
Wednesday
11:00 AM - 10:00 AM
Thursday
11:00 AM - 10:00 PM
Friday
11:00 AM - 10:00 PM
Saturday
11:00 AM - 10:00 PM
Sunday
11:00 AM - 10:00 PM"
"https://www.cicis.com/","CICIS RIDGE WAY","361 Ridge Way","Flowood,","MS","39232","US","<MISSING>","(601) 992-4550","<MISSING>","32.33990671370124","-90.06581470370293","Monday
11:00 AM - 9:00 PM
Tuesday
11:00 AM - 9:00 PM
Wednesday
11:00 AM - 9:00 PM
Thursday
11:00 AM - 9:00 PM
Friday
11:00 AM - 10:00 PM
Saturday
11:00 AM - 10:00 PM
Sunday
11:00 AM - 9:00 PM"
"https://www.cicis.com/","CICIS HARDY ST","3720 Hardy St Ste 6","Hattiesburg,","MS","39402","US","<MISSING>","(601) 264-2393","<MISSING>","31.3232748","-89.3446796","Monday
11:00 AM - 10:00 PM
Tuesday
11:00 AM - 10:00 PM
Wednesday
11:00 AM - 10:00 PM
Thursday
11:00 AM - 10:00 PM
Friday
11:00 AM - 10:00 PM
Saturday
11:00 AM - 10:00 PM
Sunday
11:00 AM - 10:00 PM"
"https://www.cicis.com/","CICIS GOODMAN RD E","1055 Goodman Rd E Ste A","Southaven,","MS","38671","US","<MISSING>","(662) 349-9296","<MISSING>","34.961382766107945","-89.97164234519005","Monday
11:00 AM - 10:00 PM
Tuesday
11:00 AM - 10:00 PM
Wednesday
11:00 AM - 10:00 PM
Thursday
11:00 AM - 10:00 PM
Friday
11:00 AM - 10:00 PM
Saturday
11:00 AM - 10:00 PM
Sunday
11:00 AM - 10:00 PM"
"https://www.cicis.com/","CICIS W HIGHWAY 76","3460 W. Hwy 76 Ste D","Branson,","MO","65616","US","<MISSING>","(417) 239-0109","<MISSING>","36.6430522","-93.2855276","Monday
11:00 AM - 10:00 PM
Tuesday
11:00 AM - 10:00 PM
Wednesday
11:00 AM - 10:00 PM
Thursday
11:00 AM - 10:00 PM
Friday
11:00 AM - 10:00 PM
Saturday
11:00 AM - 10:00 PM
Sunday
11:00 AM - 10:00 PM"
"https://www.cicis.com/","CICIS S BROADVIEW ST","221 S Broadview St","Cape Girardeau,","MO","63703","US","<MISSING>","(573) 339-4555","<MISSING>","37.30171545992948","-89.55817312002182","Monday
11:00 AM - 9:00 PM
Tuesday
11:00 AM - 9:00 PM
Wednesday
11:00 AM - 9:00 PM
Thursday
11:00 AM - 9:00 PM
Friday
11:00 AM - 10:00 PM
Saturday
11:00 AM - 10:00 PM
Sunday
11:00 AM - 9:00 PM"
"https://www.cicis.com/","CICIS E BROADWAY","2609 E. Broadway Ste 216","Columbia,","MO","65201","US","<MISSING>","(573) 814-1230","<MISSING>","38.9477815","-92.2973885","Monday
11:00 AM - 10:00 PM
Tuesday
11:00 AM - 10:00 PM
Wednesday
11:00 AM - 10:00 PM
Thursday
11:00 AM - 10:00 PM
Friday
11:00 AM - 11:00 PM
Saturday
11:00 AM - 10:00 PM
Sunday
11:00 AM - 10:00 PM"
"https://www.cicis.com/","CICIS MARKET ST","798 Market St","Farmington,","MO","63640","US","<MISSING>","(573) 756-9998","<MISSING>","37.79105738695633","-90.43819785118109","Monday
11:00 AM - 9:00 PM
Tuesday
11:00 AM - 9:00 PM
Wednesday
11:00 AM - 9:00 PM
Thursday
11:00 AM - 9:00 PM
Friday
11:00 AM - 10:00 PM
Saturday
11:00 AM - 10:00 PM
Sunday
11:00 AM - 9:00 PM"
"https://www.cicis.com/","CICIS SOUTH RANGELINE ROAD","1602 South Rangeline Road Suite E","Joplin,","MO","64801","US","<MISSING>","(417) 553-4540","<MISSING>","37.07277801961466","-94.47858622453691","Monday
11:00 AM - 9:00 PM
Tuesday
11:00 AM - 9:00 PM
Wednesday
11:00 AM - 9:00 PM
Thursday
11:00 AM - 9:00 PM
Friday
11:00 AM - 10:00 PM
Saturday
11:00 AM - 10:00 PM
Sunday
11:00 AM - 9:00 PM"
"https://www.cicis.com/","CICIS N. 291 HWY","202 N. 291 Hwy. Ste A / B / C","Liberty,","MO","64068","US","<MISSING>","(816) 792-2428","<MISSING>","39.245899523590005","-94.44580688143105","Monday
11:00 AM - 10:00 PM
Tuesday
11:00 AM - 10:00 PM
Wednesday
11:00 AM - 10:00 PM
Thursday
11:00 AM - 10:00 PM
Friday
11:00 AM - 10:00 PM
Saturday
11:00 AM - 10:00 PM
Sunday
11:00 AM - 10:00 PM"
"https://www.cicis.com/","CICIS S LINDBERGH BLVD","7425 S Lindbergh Blvd","Saint Louis,","MO","63125","US","<MISSING>","(314) 487-2465","<MISSING>","38.50538870506483","-90.32390087842941","Monday
11:00 AM - 10:00 PM
Tuesday
11:00 AM - 10:00 PM
Wednesday
11:00 AM - 10:00 PM
Thursday
11:00 AM - 10:00 PM
Friday
11:00 AM - 10:00 PM
Saturday
11:00 AM - 10:00 PM
Sunday
11:00 AM - 10:00 PM"
"https://www.cicis.com/","CICIS MANCHESTER RD","9745 Manchester Rd","Saint Louis,","MO","63119","US","<MISSING>","(314) 963-7200","<MISSING>","38.60817274661757","-90.37178635597229","Monday
11:00 AM - 9:00 PM
Tuesday
11:00 AM - 9:00 PM
Wednesday
11:00 AM - 9:00 PM
Thursday
11:00 AM - 9:00 PM
Friday
11:00 AM - 10:00 PM
Saturday
11:00 AM - 10:00 PM
Sunday
11:00 AM - 9:00 PM"
"https://www.cicis.com/","CICIS E BATTLEFIELD ST","319 E Battlefield St Ste D","Springfield,","MO","65807","US","<MISSING>","(417) 886-9696","<MISSING>","37.16103370222606","-93.29165019784364","Monday
11:00 AM - 10:00 PM
Tuesday
11:00 AM - 10:00 PM
Wednesday
11:00 AM - 10:00 PM
Thursday
11:00 AM - 10:00 PM
Friday
11:00 AM - 10:00 PM
Saturday
11:00 AM - 10:00 PM
Sunday
11:00 AM - 10:00 PM"
"https://www.cicis.com/","CICIS NC 24 27 BYP E","636 Nc 24 27 Byp E Ste 14","Albemarle,","NC","28001","US","<MISSING>","(704) 982-2424","<MISSING>","35.341723","-80.17343","Monday
11:00 AM - 10:00 PM
Tuesday
11:00 AM - 10:00 PM
Wednesday
11:00 AM - 10:00 PM
Thursday
11:00 AM - 10:00 PM
Friday
11:00 AM - 10:00 PM
Saturday
11:00 AM - 10:00 PM
Sunday
11:00 AM - 10:00 PM"
"https://www.cicis.com/","CICIS BEAVER CREEK COMMONS DR","1007 Beaver Creek Commons Dr Ste 132","Apex,","NC","27502","US","<MISSING>","(919) 249-6448","<MISSING>","35.7433328245697","-78.87096092104906","Monday
11:00 AM - 10:00 PM
Tuesday
11:00 AM - 10:00 PM
Wednesday
11:00 AM - 10:00 PM
Thursday
11:00 AM - 10:00 PM
Friday
11:00 AM - 10:00 PM
Saturday
11:00 AM - 10:00 PM
Sunday
11:00 AM - 10:00 PM"
"https://www.cicis.com/","CICIS E DIXIE DR","1337 E Dixie Dr Ste 112","Asheboro,","NC","27203","US","<MISSING>","(336) 636-5666","<MISSING>","35.698725","-79.7887251","Monday
11:00 AM - 10:00 PM
Tuesday
11:00 AM - 10:00 PM
Wednesday
11:00 AM - 10:00 PM
Thursday
11:00 AM - 10:00 PM
Friday
11:00 AM - 10:00 PM
Saturday
11:00 AM - 10:00 PM
Sunday
11:00 AM - 10:00 PM"
"https://www.cicis.com/","CICIS S TUNNEL RD","148 S Tunnel Rd Ste D","Asheville,","NC","28805","US","<MISSING>","(828) 298-0010","<MISSING>","35.58090863371779","-82.52110943198204","Monday
11:00 AM - 10:00 PM
Tuesday
11:00 AM - 10:00 PM
Wednesday
11:00 AM - 10:00 PM
Thursday
11:00 AM - 10:00 PM
Friday
11:00 AM - 10:00 PM
Saturday
11:00 AM - 10:00 PM
Sunday
11:00 AM - 10:00 PM"
"https://www.cicis.com/","CICIS S CHURCH ST","3356 S Church St Ste 112","Burlington,","NC","27215","US","<MISSING>","(336) 584-9596","<MISSING>","36.07970931151367","-79.51004683971405","Monday
11:00 AM - 10:00 PM
Tuesday
11:00 AM - 10:00 PM
Wednesday
11:00 AM - 10:00 PM
Thursday
11:00 AM - 10:00 PM
Friday
11:00 AM - 10:00 PM
Saturday
11:00 AM - 10:00 PM
Sunday
11:00 AM - 10:00 PM"
"https://www.cicis.com/","CICIS PARK RD","10707 Park Rd. Suite R","Charlotte,","NC","28210","US","<MISSING>","(704) 341-9303","<MISSING>","35.0902612267625","-80.86916506290436","Monday
11:00 AM - 10:00 PM
Tuesday
11:00 AM - 10:00 PM
Wednesday
11:00 AM - 10:00 PM
Thursday
11:00 AM - 10:00 PM
Friday
11:00 AM - 10:00 PM
Saturday
11:00 AM - 10:00 PM
Sunday
11:00 AM - 10:00 PM"
"https://www.cicis.com/","CICIS S TRYON ST","10823 John Price Rd. Suite R","Charlotte,","NC","28273","US","<MISSING>","(704) 504-0004","<MISSING>","35.119010158866956","-80.9574144333601","Monday
11:00 AM - 10:00 PM
Tuesday
11:00 AM - 10:00 PM
Wednesday
11:00 AM - 10:00 PM
Thursday
11:00 AM - 10:00 PM
Friday
11:00 AM - 10:00 PM
Saturday
11:00 AM - 10:00 PM
Sunday
11:00 AM - 10:00 PM"
"https://www.cicis.com/","CICIS UNIVERSITY CITY BLVD","10900 University City Blvd Ste 13-15","Charlotte,","NC","28213","US","<MISSING>","(704) 510-5595","<MISSING>","35.3143508","-80.7021786","Monday
11:00 AM - 9:00 PM
Tuesday
11:00 AM - 9:00 PM
Wednesday
11:00 AM - 9:00 PM
Thursday
11:00 AM - 9:00 PM
Friday
11:00 AM - 10:00 PM
Saturday
11:00 AM - 10:00 PM
Sunday
11:00 AM - 9:00 PM"
"https://www.cicis.com/","CICIS GOOD MIDDLING DR","7760 Good Middling Dr Suite 100","Fayetteville,","NC","28304","US","<MISSING>","(910) 864-3040","<MISSING>","35.02862365045962","-79.05593812465662","Monday
11:00 AM - 10:00 PM
Tuesday
11:00 AM - 10:00 PM
Wednesday
11:00 AM - 10:00 PM
Thursday
11:00 AM - 10:00 PM
Friday
11:00 AM - 10:00 PM
Saturday
11:00 AM - 10:00 PM
Sunday
11:00 AM - 10:00 PM"
"https://www.cicis.com/","CICIS E FRANKLIN BLVD","3746 E Franklin Blvd Suite R","Gastonia,","NC","28056","US","<MISSING>","(704) 823-8636","<MISSING>","35.25937861970029","-81.11301975214957","Monday
11:00 AM - 10:00 PM
Tuesday
11:00 AM - 10:00 PM
Wednesday
11:00 AM - 10:00 PM
Thursday
11:00 AM - 10:00 PM
Friday
11:00 AM - 10:00 PM
Saturday
11:00 AM - 10:00 PM
Sunday
11:00 AM - 10:00 PM"
"https://www.cicis.com/","CICIS BATTLEGROUND AVE","3379 Battleground Ave Ste 112","Greensboro,","NC","27410","US","<MISSING>","(336) 545-6440","<MISSING>","36.1216436","-79.8459758","Monday
10:00 AM - 10:00 PM
Tuesday
10:00 AM - 10:00 PM
Wednesday
10:00 AM - 10:00 PM
Thursday
10:00 AM - 10:00 PM
Friday
10:00 AM - 10:00 PM
Saturday
10:00 AM - 10:00 PM
Sunday
10:00 AM - 10:00 PM"
"https://www.cicis.com/","CICIS GREENVILLE BLVD S.E.","425-D Greenville Blvd S.E.","Greenville,","NC","27858","US","<MISSING>","(252) 756-4333","<MISSING>","35.582712652974934","-77.37511038780218","Monday
11:00 AM - 10:00 PM
Tuesday
11:00 AM - 10:00 PM
Wednesday
11:00 AM - 10:00 PM
Thursday
11:00 AM - 10:00 PM
Friday
11:00 AM - 10:00 PM
Saturday
11:00 AM - 10:00 PM
Sunday
11:00 AM - 10:00 PM"
"https://www.cicis.com/","CICIS US HIGHWAY 70 SE","2025 Us Highway 70 Se","Hickory,","NC","28602","US","<MISSING>","(828) 345-1444","<MISSING>","35.70603","-81.301578","Monday
11:00 AM - 10:00 PM
Tuesday
11:00 AM - 10:00 PM
Wednesday
11:00 AM - 10:00 PM
Thursday
11:00 AM - 10:00 PM
Friday
11:00 AM - 10:00 PM
Saturday
11:00 AM - 10:00 PM
Sunday
11:00 AM - 10:00 PM"
"https://www.cicis.com/","CICIS N MAIN ST","2705 N Main St Ste 112","High Point,","NC","27265","US","<MISSING>","(336) 885-3333","<MISSING>","35.99291324828399","-80.03221459686756","Monday
11:00 AM - 10:00 PM
Tuesday
11:00 AM - 10:00 PM
Wednesday
11:00 AM - 10:00 PM
Thursday
11:00 AM - 10:00 PM
Friday
11:00 AM - 10:00 PM
Saturday
11:00 AM - 10:00 PM
Sunday
11:00 AM - 10:00 PM"
"https://www.cicis.com/","CICIS WESTERN BLVD","1315 Western Blvd Suite 8A","Jacksonville,","NC","28546","US","<MISSING>","(910) 478-0606","<MISSING>","34.784775","-77.403257","Monday
11:00 AM - 10:00 PM
Tuesday
11:00 AM - 10:00 PM
Wednesday
11:00 AM - 10:00 PM
Thursday
11:00 AM - 10:00 PM
Friday
11:00 AM - 10:00 PM
Saturday
11:00 AM - 10:00 PM
Sunday
11:00 AM - 10:00 PM"
"https://www.cicis.com/","CICIS CLOVERLEAF PLZ","1000 Cloverleaf Plz Ste 13-15","Kannapolis,","NC","28083","US","<MISSING>","(704) 795-7400","<MISSING>","35.45146639047197","-80.60601152479649","Monday
11:00 AM - 9:00 PM
Tuesday
11:00 AM - 9:00 PM
Wednesday
11:00 AM - 9:00 PM
Thursday
11:00 AM - 9:00 PM
Friday
11:00 AM - 10:00 PM
Saturday
11:00 AM - 10:00 PM
Sunday
11:00 AM - 9:00 PM"
"https://www.cicis.com/","CICIS WIDE WATERS PKWY","4001 Wide Waters Pkwy Ste G","Knightdale,","NC","27545","US","<MISSING>","(919) 861-2442","<MISSING>","35.79483361185347","-78.50565075874329","Monday
11:00 AM - 9:00 PM
Tuesday
11:00 AM - 9:00 PM
Wednesday
11:00 AM - 9:00 PM
Thursday
11:00 AM - 9:00 PM
Friday
11:00 AM - 10:00 PM
Saturday
11:00 AM - 10:00 PM
Sunday
11:00 AM - 9:00 PM"
"https://www.cicis.com/","CICIS FAYETTEVILLE RD","3221 Fayetteville Rd Suite 100","Lumberton,","NC","28358","US","<MISSING>","(910) 608-6400","<MISSING>","34.64049270259378","-78.99984642863274","Monday
11:00 AM - 10:00 PM
Tuesday
11:00 AM - 10:00 PM
Wednesday
11:00 AM - 10:00 PM
Thursday
11:00 AM - 10:00 PM
Friday
11:00 AM - 11:00 PM
Saturday
11:00 AM - 11:00 PM
Sunday
11:00 AM - 10:00 PM"
"https://www.cicis.com/","CICIS WINDSOR SQUARE DR","1804 Windsor Square Dr Ste. U-V","Matthews,","NC","28105","US","<MISSING>","(704) 845-5002","<MISSING>","35.13377072450542","-80.71017175912851","Monday
11:00 AM - 10:00 PM
Tuesday
11:00 AM - 10:00 PM
Wednesday
11:00 AM - 10:00 PM
Thursday
11:00 AM - 10:00 PM
Friday
11:00 AM - 10:00 PM
Saturday
11:00 AM - 10:00 PM
Sunday
11:00 AM - 10:00 PM"
"https://www.cicis.com/","CICIS DICKERSON BLVD","1951 Dickerson Blvd Ste. U-V","Monroe,","NC","28110","US","<MISSING>","(704) 225-0829","<MISSING>","35.00728095216448","-80.56270994246006","Monday
11:00 AM - 10:00 PM
Tuesday
11:00 AM - 10:00 PM
Wednesday
11:00 AM - 10:00 PM
Thursday
11:00 AM - 10:00 PM
Friday
11:00 AM - 10:00 PM
Saturday
11:00 AM - 10:00 PM
Sunday
11:00 AM - 10:00 PM"
"https://www.cicis.com/","CICIS NORMAN STATION BLVD","168-Z Norman Station Blvd Ste 13-15","Mooresville,","NC","28117","US","<MISSING>","(704) 799-8789","<MISSING>","35.590265315301316","-80.85812978446484","Monday
11:00 AM - 10:00 PM
Tuesday
11:00 AM - 10:00 PM
Wednesday
11:00 AM - 10:00 PM
Thursday
11:00 AM - 10:00 PM
Friday
11:00 AM - 10:00 PM
Saturday
11:00 AM - 10:00 PM
Sunday
11:00 AM - 10:00 PM"
"https://www.cicis.com/","CICIS CAPITAL BLVD","3501 Capital Blvd Ste 132","Raleigh,","NC","27604","US","<MISSING>","(919) 863-2424","<MISSING>","35.8270535","-78.5872922","Monday
11:00 AM - 9:00 PM
Tuesday
11:00 AM - 9:00 PM
Wednesday
11:00 AM - 9:00 PM
Thursday
11:00 AM - 9:00 PM
Friday
11:00 AM - 10:00 PM
Saturday
11:00 AM - 10:00 PM
Sunday
11:00 AM - 9:00 PM"
"https://www.cicis.com/","CICIS JAKE ALEXANDER BLVD S","803-805 Jake Alexander Blvd S Ste 13-15","Salisbury,","NC","28147","US","<MISSING>","(704) 638-2424","<MISSING>","35.642381606701385","-80.48622876405722","Monday
11:00 AM - 9:00 PM
Tuesday
11:00 AM - 9:00 PM
Wednesday
11:00 AM - 9:00 PM
Thursday
11:00 AM - 9:00 PM
Friday
11:00 AM - 9:00 PM
Saturday
11:00 AM - 9:00 PM
Sunday
11:00 AM - 9:00 PM"
"https://www.cicis.com/","CICIS INDUSTRIAL PARK DR","161 Industrial Park Dr Ste G","Smithfield,","NC","27577","US","<MISSING>","(919) 938-2424","<MISSING>","35.5060824284092","-78.32394652068615","Monday
11:00 AM - 10:00 PM
Tuesday
11:00 AM - 10:00 PM
Wednesday
11:00 AM - 10:00 PM
Thursday
11:00 AM - 10:00 PM
Friday
11:00 AM - 10:00 PM
Saturday
11:00 AM - 10:00 PM
Sunday
11:00 AM - 10:00 PM"
"https://www.cicis.com/","CICIS SKYLAND PLZ","237 Skyland Plaza Suite 100","Spring Lake,","NC","28390","US","<MISSING>","(910) 496-2000","<MISSING>","35.17067742489507","-78.9725804328919","Monday
11:00 AM - 10:00 PM
Tuesday
11:00 AM - 10:00 PM
Wednesday
11:00 AM - 10:00 PM
Thursday
11:00 AM - 10:00 PM
Friday
11:00 AM - 10:00 PM
Saturday
11:00 AM - 10:00 PM
Sunday
11:00 AM - 10:00 PM"
"https://www.cicis.com/","CICIS STATESVILLE","179 Turnersburg Highway","Statesville,","NC","28625","US","<MISSING>","(704) 380-9449","<MISSING>","35.812265","-80.876972","Monday
11:00 AM - 10:00 PM
Tuesday
11:00 AM - 10:00 PM
Wednesday
11:00 AM - 10:00 PM
Thursday
11:00 AM - 10:00 PM
Friday
11:00 AM - 10:00 PM
Saturday
11:00 AM - 10:00 PM
Sunday
11:00 AM - 10:00 PM"
"https://www.cicis.com/","CICIS WAKE FOREST","12516-101 Capital Blvd Ste 132","Wake Forest,","NC","27587","US","<MISSING>","(919) 556-1911","<MISSING>","35.9857173","-78.5338502","Monday
11:00 AM - 9:00 PM
Tuesday
11:00 AM - 9:00 PM
Wednesday
11:00 AM - 9:00 PM
Thursday
11:00 AM - 9:00 PM
Friday
11:00 AM - 10:00 PM
Saturday
11:00 AM - 10:00 PM
Sunday
11:00 AM - 9:00 PM"
"https://www.cicis.com/","CICIS S. COLLEGE RD","341 S. College Rd (Nc Hwy 132) Suite 8A","Wilmington,","NC","28403","US","<MISSING>","(910) 332-0281","<MISSING>","34.2345367","-77.8714449","Monday
11:00 AM - 10:00 PM
Tuesday
11:00 AM - 10:00 PM
Wednesday
11:00 AM - 10:00 PM
Thursday
11:00 AM - 10:00 PM
Friday
11:00 AM - 10:00 PM
Saturday
11:00 AM - 10:00 PM
Sunday
11:00 AM - 10:00 PM"
"https://www.cicis.com/","CICIS REYNOLDA RD","2857 Reynolda Rd Ste 112","Winston Salem,","NC","27106","US","<MISSING>","(336) 723-7273","<MISSING>","36.14590180166503","-80.30009955167776","Monday
11:00 AM - 10:00 PM
Tuesday
11:00 AM - 10:00 PM
Wednesday
11:00 AM - 10:00 PM
Thursday
11:00 AM - 10:00 PM
Friday
11:00 AM - 10:00 PM
Saturday
11:00 AM - 10:00 PM
Sunday
11:00 AM - 10:00 PM"
"https://www.cicis.com/","CICIS ARLINGTON RDG","790 Arlington Ridge Suite 227","Akron,","OH","44312","US","<MISSING>","(330) 644-8733","<MISSING>","40.982615437617916","-81.49468570947647","Monday
11:00 AM - 9:00 PM
Tuesday
11:00 AM - 9:00 PM
Wednesday
11:00 AM - 9:00 PM
Thursday
11:00 AM - 9:00 PM
Friday
11:00 AM - 10:00 PM
Saturday
11:00 AM - 10:00 PM
Sunday
11:00 AM - 9:00 PM"
"https://www.cicis.com/","CICIS BELDEN VILLAGE ST NW","4404 Belden Village St Nw Suite 227","Canton,","OH","44718","US","<MISSING>","(330) 491-1919","<MISSING>","40.85492522544556","-81.43065199255943","Monday
11:00 AM - 9:30 PM
Tuesday
11:00 AM - 9:30 PM
Wednesday
11:00 AM - 9:30 PM
Thursday
11:00 AM - 9:30 PM
Friday
11:00 AM - 10:00 PM
Saturday
11:00 AM - 10:00 PM
Sunday
11:00 AM - 9:30 PM"
"https://www.cicis.com/","CICIS EASTGATE SOUTH DRIVE","792 Eastgate South Drive","Cincinnati,","OH","45245","US","<MISSING>","(513) 843-5485","<MISSING>","39.0954205","-84.2681523","Monday
11:00 AM - 10:00 PM
Tuesday
11:00 AM - 10:00 PM
Wednesday
11:00 AM - 10:00 PM
Thursday
11:30 AM - 10:00 PM
Friday
11:00 AM - 10:00 PM
Saturday
11:00 AM - 10:00 PM
Sunday
11:00 AM - 10:00 PM"
"https://www.cicis.com/","CICIS RIDGE RD","4824 Ridge Rd Suite 227","Cleveland,","OH","44144","US","<MISSING>","(216) 661-3870","<MISSING>","41.4234189","-81.7352927","Monday
11:00 AM - 10:00 PM
Tuesday
11:00 AM - 10:00 PM
Wednesday
11:00 AM - 10:00 PM
Thursday
11:00 AM - 10:00 PM
Friday
11:00 AM - 11:00 PM
Saturday
11:00 AM - 11:00 PM
Sunday
11:00 AM - 10:00 PM"
"https://www.cicis.com/","CICIS OLD TROY PIKE","7631 Old Troy Pike","Dayton,","OH","45424","US","<MISSING>","(937) 236-2424","<MISSING>","39.86474968887572","-84.14064332842827","Monday
11:00 AM - 10:00 PM
Tuesday
11:00 AM - 10:00 PM
Wednesday
11:00 AM - 10:00 PM
Thursday
11:00 AM - 10:00 PM
Friday
11:00 AM - 10:00 PM
Saturday
11:00 AM - 10:00 PM
Sunday
11:00 AM - 10:00 PM"
"https://www.cicis.com/","CICIS DIXIE HWY","5478 Dixie Hwy","Fairfield,","OH","45014","US","<MISSING>","(513) 829-1572","<MISSING>","39.33492810045987","-84.52339589595789","Monday
11:00 AM - 10:00 PM
Tuesday
11:00 AM - 10:00 PM
Wednesday
11:00 AM - 10:00 PM
Thursday
11:00 AM - 10:00 PM
Friday
11:00 AM - 10:00 PM
Saturday
11:00 AM - 10:00 PM
Sunday
11:00 AM - 10:00 PM"
"https://www.cicis.com/","CICIS WALKER LAKE RD","2156 Walker Lake Rd","Mansfield,","OH","44903","US","<MISSING>","(419) 747-2424","<MISSING>","40.78791461913258","-82.5918473303318","Monday
11:00 AM - 9:00 PM
Tuesday
11:00 AM - 9:00 PM
Wednesday
11:00 AM - 9:00 PM
Thursday
11:00 AM - 9:00 PM
Friday
11:00 AM - 10:00 PM
Saturday
11:00 AM - 10:00 PM
Sunday
11:00 AM - 9:00 PM"
"https://www.cicis.com/","CICIS BROKEN ARROW","2435 W. Kenosha Avenue Ste H","Broken Arrow,","OK","74011","US","<MISSING>","(918) 449-8908","<MISSING>","36.06042829138156","-95.82057822453692","Monday
11:00 AM - 10:00 PM
Tuesday
11:00 AM - 10:00 PM
Wednesday
11:00 AM - 10:00 PM
Thursday
11:00 AM - 10:00 PM
Friday
11:00 AM - 10:00 PM
Saturday
11:00 AM - 10:00 PM
Sunday
11:00 AM - 10:00 PM"
"https://www.cicis.com/","CICIS E 2ND ST","1708 E. 2Nd St Ste 101","Edmond,","OK","73034","US","<MISSING>","(405) 341-1112","<MISSING>","35.65214322560127","-97.4577559102396","Monday
11:00 AM - 9:00 PM
Tuesday
11:00 AM - 9:00 PM
Wednesday
11:00 AM - 9:00 PM
Thursday
11:00 AM - 9:00 PM
Friday
11:00 AM - 10:00 PM
Saturday
11:00 AM - 10:00 PM
Sunday
11:00 AM - 9:00 PM"
"https://www.cicis.com/","CICIS NW SHERIDAN RD","1222 Nw Sheridan Rd","Lawton,","OK","73505","US","<MISSING>","(580) 355-3248","<MISSING>","34.620616","-98.423421","Monday
11:00 AM - 10:00 PM
Tuesday
11:00 AM - 10:00 PM
Wednesday
11:00 AM - 10:00 PM
Thursday
11:00 AM - 10:00 PM
Friday
11:00 AM - 10:00 PM
Saturday
11:00 AM - 10:00 PM
Sunday
11:00 AM - 10:00 PM"
"https://www.cicis.com/","CICIS W MAIN ST","540 W Main St Ste 101","Norman,","OK","73069","US","<MISSING>","(405) 360-1114","<MISSING>","35.21778812300386","-97.45086014270782","Monday
11:00 AM - 9:00 PM
Tuesday
11:00 AM - 9:00 PM
Wednesday
11:00 AM - 9:00 PM
Thursday
11:00 AM - 9:00 PM
Friday
11:00 AM - 10:00 PM
Saturday
11:00 AM - 10:00 PM
Sunday
11:00 AM - 9:00 PM"
"https://www.cicis.com/","CICIS S AIR DEPOT BLVD","2321 S Air Depot Blvd Ste 101","Oklahoma City,","OK","73110","US","<MISSING>","(405) 741-2424","<MISSING>","35.4407976817431","-97.40637972950935","Monday
10:30 AM - 10:00 PM
Tuesday
10:30 AM - 10:00 PM
Wednesday
10:30 AM - 10:00 PM
Thursday
10:30 AM - 10:00 PM
Friday
10:30 AM - 10:00 PM
Saturday
10:30 AM - 10:00 PM
Sunday
10:30 AM - 10:00 PM"
"https://www.cicis.com/","CICIS N MERIDIAN AVE","2500 N Meridian Ave Ste 101","Oklahoma City,","OK","73107","US","<MISSING>","(405) 947-8900","<MISSING>","35.494473210432936","-97.60030880570412","Monday
11:00 AM - 10:00 PM
Tuesday
11:00 AM - 10:00 PM
Wednesday
11:00 AM - 10:00 PM
Thursday
11:00 AM - 10:00 PM
Friday
11:00 AM - 10:00 PM
Saturday
11:00 AM - 10:00 PM
Sunday
11:00 AM - 10:00 PM"
"https://www.cicis.com/","CICIS TO GO SW 29TH ST","2630 Sw 29Th St Ste 101","Oklahoma City,","OK","73119","US","<MISSING>","(405) 604-0123","<MISSING>","35.43487001029989","-97.5604210048914","Monday
11:00 AM - 10:00 PM
Tuesday
11:00 AM - 10:00 PM
Wednesday
11:00 AM - 10:00 PM
Thursday
11:00 AM - 10:00 PM
Friday
11:00 AM - 10:00 PM
Saturday
11:00 AM - 10:00 PM
Sunday
11:00 AM - 10:00 PM"
"https://www.cicis.com/","CICIS S WESTERN AVE","7341 S Western Ave Ste 101","Oklahoma City,","OK","73139","US","<MISSING>","(405) 602-1900","<MISSING>","35.39303064684175","-97.53117352724075","Monday
11:00 AM - 10:00 PM
Tuesday
11:00 AM - 10:00 PM
Wednesday
11:00 AM - 10:00 PM
Thursday
11:00 AM - 10:00 PM
Friday
11:00 AM - 10:00 PM
Saturday
11:00 AM - 10:00 PM
Sunday
11:00 AM - 10:00 PM"
"https://www.cicis.com/","CICIS N GARNETT RD","9540 N. Garnett Rd. Ste 107-109","Owasso,","OK","74055","US","<MISSING>","(918) 609-5566","<MISSING>","36.29214219057146","-95.84981077546308","Monday
11:00 AM - 10:00 PM
Tuesday
11:00 AM - 10:00 PM
Wednesday
11:00 AM - 10:00 PM
Thursday
11:00 AM - 10:00 PM
Friday
11:00 AM - 10:00 PM
Saturday
11:00 AM - 10:00 PM
Sunday
11:00 AM - 10:00 PM"
"https://www.cicis.com/","CICIS S GARNETT RD","3126 S. Garnett Road Suite B","Tulsa,","OK","74146","US","<MISSING>","(918) 438-4242","<MISSING>","36.1175254","-95.85115449999999","Monday
10:30 AM - 10:00 PM
Tuesday
10:30 AM - 10:00 PM
Wednesday
10:30 AM - 10:00 PM
Thursday
10:30 AM - 10:00 PM
Friday
10:30 AM - 10:00 PM
Saturday
10:30 AM - 10:00 PM
Sunday
10:30 AM - 10:00 PM"
"https://www.cicis.com/","CICIS S PEORIA AVE","4949 S Peoria Ave Ste H","Tulsa,","OK","74105","US","<MISSING>","(918) 744-8338","<MISSING>","36.0912171","-95.9749599","Monday
10:00 AM - 10:00 PM
Tuesday
10:00 AM - 10:00 PM
Wednesday
10:00 AM - 10:00 PM
Thursday
10:00 AM - 10:00 PM
Friday
10:30 AM - 10:00 PM
Saturday
10:00 AM - 10:00 PM
Sunday
10:00 AM - 10:00 PM"
"https://www.cicis.com/","CICIS S MEMORIAL DR","8955-C S Memorial Dr Ste H","Tulsa,","OK","74133","US","<MISSING>","(918) 254-4775","<MISSING>","36.032694","-95.8857","Monday
11:00 AM - 9:30 PM
Tuesday
11:00 AM - 9:30 PM
Wednesday
11:00 AM - 9:30 PM
Thursday
11:00 AM - 9:30 PM
Friday
11:00 AM - 10:00 PM
Saturday
11:00 AM - 10:00 PM
Sunday
11:00 AM - 9:30 PM"
"https://www.cicis.com/","CICIS W. VANDAMENT AVE","1044 W. Vandament Ave Ste 101","Yukon,","OK","73099","US","<MISSING>","(405) 350-2322","<MISSING>","35.4931094","-97.7593715","Monday
11:00 AM - 10:00 PM
Tuesday
11:00 AM - 10:00 PM
Wednesday
11:00 AM - 10:00 PM
Thursday
11:00 AM - 10:00 PM
Friday
11:00 AM - 10:00 PM
Saturday
11:00 AM - 10:00 PM
Sunday
11:00 AM - 10:00 PM"
"https://www.cicis.com/","CICIS EASTON NAZARETH HWY","3812 Easton Nazareth Hwy Suite #18","Easton,","PA","18045","US","<MISSING>","(610) 746-2424","<MISSING>","40.71846090969279","-75.28892710804939","Monday
11:00 AM - 9:00 PM
Tuesday
11:00 AM - 9:00 PM
Wednesday
11:00 AM - 9:00 PM
Thursday
11:00 AM - 9:00 PM
Friday
11:00 AM - 10:00 PM
Saturday
11:00 AM - 10:00 PM
Sunday
11:00 AM - 9:00 PM"
"https://www.cicis.com/","CICIS BUFFALO RD","4045 Buffalo Rd Unit 33, 34","Erie,","PA","16510","US","<MISSING>","(814) 899-8060","<MISSING>","42.143346","-80.00688","Monday
11:00 AM - 9:00 PM
Tuesday
11:00 AM - 9:00 PM
Wednesday
11:00 AM - 9:00 PM
Thursday
11:00 AM - 9:00 PM
Friday
11:00 AM - 9:30 PM
Saturday
11:00 AM - 9:30 PM
Sunday
11:00 AM - 9:00 PM"
"https://www.cicis.com/","CICIS COVERED BRIDGE DRIVE","2405 Covered Bridge Dr","Lancaster,","PA","17602","US","<MISSING>","(717) 945-7695","<MISSING>","40.02518673162142","-76.20214216411114","Monday
11:00 AM - 9:00 PM
Tuesday
11:00 AM - 9:00 PM
Wednesday
11:00 AM - 9:00 PM
Thursday
11:00 AM - 9:00 PM
Friday
11:00 AM - 10:00 PM
Saturday
11:00 AM - 10:00 PM
Sunday
11:00 AM - 9:00 PM"
"https://www.cicis.com/","CICIS MACARTHUR RD
CLOSED","2180 Macarthur Rd Suite #18","Whitehall,","PA","18052","US","<MISSING>","(610) 439-2424","<MISSING>","40.63806568355377","-75.49008071422583","Monday Closed
Tuesday Closed
Wednesday Closed
Thursday Closed
Friday Closed
Saturday Closed
Sunday Closed"
"https://www.cicis.com/","CICIS N MAIN ST","3128 N Main St Ste.503","Anderson,","SC","29621","US","<MISSING>","(864) 222-2595","<MISSING>","34.5393201","-82.6662854","Monday
11:00 AM - 10:00 PM
Tuesday
11:00 AM - 10:00 PM
Wednesday
11:00 AM - 10:00 PM
Thursday
11:00 AM - 10:00 PM
Friday
11:00 AM - 10:00 PM
Saturday
11:00 AM - 10:00 PM
Sunday
11:00 AM - 10:00 PM"
"https://www.cicis.com/","CICIS ST. ANDREWS RD","6120 St. Andrews Rd Suite 4","Columbia,","SC","29212","US","<MISSING>","(803) 750-5900","<MISSING>","34.055548326542734","-81.16047978401184","Monday
11:00 AM - 10:00 PM
Tuesday
11:00 AM - 10:00 PM
Wednesday
11:00 AM - 10:00 PM
Thursday
11:00 AM - 10:00 PM
Friday
11:00 AM - 10:00 PM
Saturday
11:00 AM - 10:00 PM
Sunday
11:00 AM - 10:00 PM"
"https://www.cicis.com/","CICIS FASHION DR","715 Fashion Dr Suite 4","Columbia,","SC","29229","US","<MISSING>","(803) 419-8982","<MISSING>","34.12335817791019","-80.87605029344553","Monday
11:00 AM - 10:00 PM
Tuesday
11:00 AM - 10:00 PM
Wednesday
11:00 AM - 10:00 PM
Thursday
11:00 AM - 10:00 PM
Friday
11:00 AM - 10:00 PM
Saturday
11:00 AM - 10:00 PM
Sunday
11:00 AM - 10:00 PM"
"https://www.cicis.com/","CICIS CALHOUN MEMORIAL HWY","6020 Calhoun Memorial Hwy Ste.503","Easley,","SC","29640","US","<MISSING>","(864) 855-1221","<MISSING>","34.8254038","-82.5752706","Monday
11:00 AM - 10:00 PM
Tuesday
11:00 AM - 10:00 PM
Wednesday
11:00 AM - 10:00 PM
Thursday
11:00 AM - 10:00 PM
Friday
11:00 AM - 10:00 PM
Saturday
11:00 AM - 10:00 PM
Sunday
11:00 AM - 10:00 PM"
"https://www.cicis.com/","CICIS W PALMETTO ST","1945 W Palmetto St","Florence,","SC","29501","US","<MISSING>","(843) 413-0600","<MISSING>","34.1901966","-79.8076228","Monday
11:00 AM - 10:00 PM
Tuesday
11:00 AM - 10:00 PM
Wednesday
11:00 AM - 10:00 PM
Thursday
11:00 AM - 10:00 PM
Friday
11:00 AM - 10:00 PM
Saturday
11:00 AM - 10:00 PM
Sunday
11:00 AM - 10:00 PM"
"https://www.cicis.com/","CICIS GOOSE CREEK","431 Saint James Avenue Suite J And L","Goose Creek,","SC","29445","US","<MISSING>","(843) 800-8787","<MISSING>","33.0232437","-80.0559887","Monday
11:00 AM - 10:00 PM
Tuesday
11:00 AM - 10:00 PM
Wednesday
11:00 AM - 10:00 PM
Thursday
11:00 AM - 10:00 PM
Friday
11:00 AM - 10:00 PM
Saturday
11:00 AM - 10:00 PM
Sunday
11:00 AM - 10:00 PM"
"https://www.cicis.com/","CICIS HAYWOOD RD","583 Haywood Rd Ste.503","Greenville,","SC","29607","US","<MISSING>","(864) 675-9277","<MISSING>","34.84825055949676","-82.34106749296194","Monday
11:00 AM - 10:00 PM
Tuesday
11:00 AM - 10:00 PM
Wednesday
11:00 AM - 10:00 PM
Thursday
11:00 AM - 10:00 PM
Friday
11:00 AM - 10:00 PM
Saturday
11:00 AM - 10:00 PM
Sunday
11:00 AM - 10:00 PM"
"https://www.cicis.com/","CICIS NORTHGATE DR","3550 Northgate Dr","Myrtle Beach,","SC","29588","US","<MISSING>","(843) 294-2121","<MISSING>","33.68414609213222","-78.96170005202293","Monday
11:00 AM - 10:00 PM
Tuesday
11:00 AM - 10:00 PM
Wednesday
11:00 AM - 10:00 PM
Thursday
11:00 AM - 10:00 PM
Friday
11:00 AM - 11:00 PM
Saturday
11:00 AM - 11:00 PM
Sunday
11:00 AM - 10:00 PM"
"https://www.cicis.com/","CICIS CENTRE POINTE DR","4950 Centre Pointe Dr Ste 160","North Charleston,","SC","29418","US","<MISSING>","(843) 747-7227","<MISSING>","32.875994275215255","-80.02170637249947","Monday
11:00 AM - 10:00 PM
Tuesday
11:00 AM - 10:00 PM
Wednesday
11:00 AM - 10:00 PM
Thursday
11:00 AM - 10:00 PM
Friday
11:00 AM - 10:00 PM
Saturday
11:00 AM - 10:00 PM
Sunday
11:00 AM - 10:00 PM"
"https://www.cicis.com/","CICIS ORANGEBURG","2347 Chestnut Street Suite 4","Orangeburg,","SC","29115","US","<MISSING>","(803) 937-5174","<MISSING>","33.51914996299745","-80.8806100487709","Monday
11:00 AM - 10:00 PM
Tuesday
11:00 AM - 10:00 PM
Wednesday
11:00 AM - 10:00 PM
Thursday
11:00 AM - 10:00 PM
Friday
11:00 AM - 10:00 PM
Saturday
11:00 AM - 10:00 PM
Sunday
11:00 AM - 10:00 PM"
"https://www.cicis.com/","CICIS CHERRY RD","1807 Cherry Rd #163-165","Rock Hill,","SC","29732","US","<MISSING>","(803) 324-3433","<MISSING>","34.96105853488825","-81.00596643984318","Monday
11:00 AM - 10:00 PM
Tuesday
11:00 AM - 10:00 PM
Wednesday
11:00 AM - 10:00 PM
Thursday
11:00 AM - 10:00 PM
Friday
11:00 AM - 10:00 PM
Saturday
11:00 AM - 10:00 PM
Sunday
11:00 AM - 10:00 PM"
"https://www.cicis.com/","CICIS E BLACKSTOCK RD","150 E Blackstock Rd Ste D","Spartanburg,","SC","29301","US","<MISSING>","(864) 576-2277","<MISSING>","34.9313546145223","-81.99034586548805","Monday
11:00 AM - 10:00 PM
Tuesday
11:00 AM - 10:00 PM
Wednesday
11:00 AM - 10:00 PM
Thursday
11:00 AM - 10:00 PM
Friday
11:00 AM - 10:00 PM
Saturday
11:00 AM - 10:00 PM
Sunday
11:00 AM - 10:00 PM"
"https://www.cicis.com/","CICIS OLD TROLLEY ROAD","1525 Old Trolley Rd Suite J And L","Summerville,","SC","29485","US","<MISSING>","(843) 695-0230","<MISSING>","32.96800084231614","-80.16681924462313","Monday
11:00 AM - 10:00 PM
Tuesday
11:00 AM - 10:00 PM
Wednesday
11:00 AM - 10:00 PM
Thursday
11:00 AM - 10:00 PM
Friday
11:00 AM - 10:00 PM
Saturday
11:00 AM - 10:00 PM
Sunday
11:00 AM - 10:00 PM"
"https://www.cicis.com/","CICIS STAGE RD","6600 Stage Rd Ste 123","Bartlett,","TN","38134","US","<MISSING>","(901) 387-0999","<MISSING>","35.20652638840784","-89.84269567362662","Monday
11:00 AM - 10:00 PM
Tuesday
11:00 AM - 10:00 PM
Wednesday
11:00 AM - 10:00 PM
Thursday
11:00 AM - 10:00 PM
Friday
11:00 AM - 10:00 PM
Saturday
11:00 AM - 10:00 PM
Sunday
11:00 AM - 10:00 PM"
"https://www.cicis.com/","CICIS GUNBARREL RD","2260 Gunbarrel Rd Ste. 302-A","Chattanooga,","TN","37421","US","<MISSING>","(423) 485-0900","<MISSING>","35.03664878567279","-85.15022546052933","Monday
11:00 AM - 10:00 PM
Tuesday
11:00 AM - 10:00 PM
Wednesday
11:00 AM - 10:00 PM
Thursday
11:00 AM - 10:00 PM
Friday
11:00 AM - 11:00 PM
Saturday
11:00 AM - 10:00 PM
Sunday
11:00 AM - 10:00 PM"
"https://www.cicis.com/","CICIS MADISON ST","1604-G Madison Street","Clarksville,","TN","37043","US","<MISSING>","(931) 802-8961","<MISSING>","36.51404904371084","-87.31830328702927","Monday
11:00 AM - 10:00 PM
Tuesday
11:00 AM - 10:00 PM
Wednesday
11:00 AM - 10:00 PM
Thursday
11:00 AM - 10:00 PM
Friday
11:00 AM - 10:00 PM
Saturday
11:00 AM - 10:00 PM
Sunday
11:00 AM - 10:00 PM"
"https://www.cicis.com/","CICIS PAUL HUFF PKWY N.W.","355 Paul Huff Pkwy N.W. Ste. 302-A","Cleveland,","TN","37312","US","<MISSING>","(423) 473-9550","<MISSING>","35.2064776","-84.8531457","Monday
11:00 AM - 10:00 PM
Tuesday
11:00 AM - 10:00 PM
Wednesday
11:00 AM - 10:00 PM
Thursday
11:00 AM - 10:00 PM
Friday
11:00 AM - 11:00 PM
Saturday
11:00 AM - 11:00 PM
Sunday
11:00 AM - 10:00 PM"
"https://www.cicis.com/","CICIS S WILLOW AVE","541 S Willow Ave Ste A","Cookeville,","TN","38501","US","<MISSING>","(931) 528-2424","<MISSING>","36.15371094465744","-85.51532909274101","Monday
11:00 AM - 9:00 PM
Tuesday
11:00 AM - 9:00 PM
Wednesday
11:00 AM - 9:00 PM
Thursday
11:00 AM - 9:00 PM
Friday
11:00 AM - 10:00 PM
Saturday
11:00 AM - 10:00 PM
Sunday
11:00 AM - 9:00 PM"
"https://www.cicis.com/","CICIS N GERMANTOWN PKWY","1425 N Germantown Pkwy Ste 1","Cordova,","TN","38016","US","<MISSING>","(901) 752-5554","<MISSING>","35.16421793257635","-89.79497730731964","Monday
11:00 AM - 10:00 PM
Tuesday
11:00 AM - 10:00 PM
Wednesday
11:00 AM - 10:00 PM
Thursday
11:00 AM - 10:00 PM
Friday
11:00 AM - 10:00 PM
Saturday
11:00 AM - 10:00 PM
Sunday
11:00 AM - 10:00 PM"
"https://www.cicis.com/","CICIS GATLINBURG","849 River Road Ste. #105","Gatlinburg,","TN","37738","US","<MISSING>","(865) 217-1102","<MISSING>","35.70695239972947","-83.52301508188248","Monday
11:00 AM - 10:00 PM
Tuesday
11:00 AM - 10:00 PM
Wednesday
11:00 AM - 10:00 PM
Thursday
11:00 AM - 10:00 PM
Friday
11:00 AM - 11:00 PM
Saturday
11:00 AM - 11:00 PM
Sunday
11:00 AM - 10:00 PM"
"https://www.cicis.com/","CICIS LEBANON PIKE","4451 Lebanon Pike Suite 100","Hermitage,","TN","37076","US","<MISSING>","(615) 232-0950","<MISSING>","36.214415165813804","-86.60041742026806","Monday
10:30 AM - 9:00 PM
Tuesday
10:30 AM - 9:00 PM
Wednesday
10:30 AM - 9:00 PM
Thursday
10:30 AM - 9:00 PM
Friday
10:30 AM - 10:00 PM
Saturday
10:30 AM - 10:00 PM
Sunday
10:30 AM - 9:00 PM"
"https://www.cicis.com/","CICIS HIGHWAY 153","5425 Highway 153 #100","Hixson,","TN","37343","US","<MISSING>","(423) 876-1000","<MISSING>","35.137837444483154","-85.24852573871613","Monday
11:00 AM - 10:00 PM
Tuesday
11:00 AM - 10:00 PM
Wednesday
11:00 AM - 10:00 PM
Thursday
11:00 AM - 10:00 PM
Friday
11:00 AM - 11:00 PM
Saturday
11:00 AM - 10:00 PM
Sunday
11:00 AM - 10:00 PM"
"https://www.cicis.com/","CICIS KINGSTON PIKE","8414 Kingston Pike Ste. #105","Knoxville,","TN","37919","US","<MISSING>","(865) 200-8361","<MISSING>","35.922328033602355","-84.0603956580162","Monday
10:30 AM - 9:00 PM
Tuesday
10:30 AM - 9:00 PM
Wednesday
10:30 AM - 9:00 PM
Thursday
10:30 AM - 9:00 PM
Friday
10:30 AM - 10:00 PM
Saturday
10:30 AM - 10:00 PM
Sunday
10:30 AM - 9:00 PM"
"https://www.cicis.com/","CICIS LEGENDS DR","155 Legends Dr Ste A","Lebanon,","TN","37087","US","<MISSING>","(615) 444-2221","<MISSING>","36.1895299","-86.2934433","Monday
11:00 AM - 10:00 PM
Tuesday
11:00 AM - 10:00 PM
Wednesday
11:00 AM - 10:00 PM
Thursday
11:00 AM - 10:00 PM
Friday
11:00 AM - 10:00 PM
Saturday
11:00 AM - 10:00 PM
Sunday
11:00 AM - 10:00 PM"
"https://www.cicis.com/","CICIS GALLATIN PIKE N","1765 Gallatin Pike N Suite 100","Madison,","TN","37115","US","<MISSING>","(615) 860-4227","<MISSING>","36.29534679329677","-86.70229791534416","Monday
10:30 AM - 10:00 PM
Tuesday
10:30 AM - 10:00 PM
Wednesday
10:30 AM - 10:00 PM
Thursday
10:30 AM - 10:00 PM
Friday
10:30 AM - 10:00 PM
Saturday
10:30 AM - 10:00 PM
Sunday
10:30 AM - 10:00 PM"
"https://www.cicis.com/","CICIS PLAZA AVE","3474 Plaza Ave Ste 123","Memphis,","TN","38111","US","<MISSING>","(901) 343-0202","<MISSING>","35.13122727616178","-89.94602590799332","Monday
11:00 AM - 10:00 PM
Tuesday
11:00 AM - 10:00 PM
Wednesday
11:00 AM - 10:00 PM
Thursday
11:00 AM - 10:00 PM
Friday
11:00 AM - 10:00 PM
Saturday
11:00 AM - 10:00 PM
Sunday
11:00 AM - 10:00 PM"
"https://www.cicis.com/","CICIS MEMORIAL BLVD","710 Memorial Blvd. Suite 220","Murfreesboro,","TN","37129","US","<MISSING>","(615) 867-4424","<MISSING>","35.85261350351176","-86.39491260051727","Monday
10:30 AM - 9:00 PM
Tuesday
10:30 AM - 9:00 PM
Wednesday
10:30 AM - 9:00 PM
Thursday
10:30 AM - 9:00 PM
Friday
10:30 AM - 10:00 PM
Saturday
10:30 AM - 10:00 PM
Sunday
10:30 AM - 9:00 PM"
"https://www.cicis.com/","CICIS NOLENSVILLE PIKE","5735 Nolensville Pike Suite 100","Nashville,","TN","37211","US","<MISSING>","(615) 833-2350","<MISSING>","36.04777","-86.714994","Monday
10:30 AM - 10:00 PM
Tuesday
10:30 AM - 10:00 PM
Wednesday
10:30 AM - 10:00 PM
Thursday
10:30 AM - 10:00 PM
Friday
10:30 AM - 10:00 PM
Saturday
10:30 AM - 10:00 PM
Sunday
10:30 AM - 10:00 PM"
"https://www.cicis.com/","CICIS PIGEON FORGE PARKWAY","3189 Parkway Ste. #105","Pigeon Forge,","TN","37863","US","<MISSING>","(865) 366-1616","<MISSING>","35.79321034122139","-83.55966880917543","Monday
11:00 AM - 10:00 PM
Tuesday
11:00 AM - 10:00 PM
Wednesday
11:00 AM - 10:00 PM
Thursday
11:00 AM - 10:00 PM
Friday
11:00 AM - 11:00 PM
Saturday
11:00 AM - 11:00 PM
Sunday
11:00 AM - 10:00 PM"
"https://www.cicis.com/","CICIS PARKWAY","1811 Parkway Ste. #105","Sevierville,","TN","37862","US","<MISSING>","(865) 774-6696","<MISSING>","35.82879157126695","-83.57320994138718","Monday
11:00 AM - 10:00 PM
Tuesday
11:00 AM - 10:00 PM
Wednesday
11:00 AM - 10:00 PM
Thursday
11:00 AM - 10:00 PM
Friday
11:00 AM - 11:00 PM
Saturday
11:00 AM - 11:00 PM
Sunday
11:00 AM - 10:00 PM"
"https://www.cicis.com/","CICIS GRAMMER LN","900 Grammer Ln Suite 100","Smyrna,","TN","37167","US","<MISSING>","(615) 462-6157","<MISSING>","35.98093917339285","-86.56404331326485","Monday
10:30 AM - 10:00 PM
Tuesday
10:30 AM - 10:00 PM
Wednesday
10:30 AM - 10:00 PM
Thursday
10:30 AM - 10:00 PM
Friday
10:30 AM - 10:00 PM
Saturday
10:30 AM - 10:00 PM
Sunday
10:30 AM - 10:00 PM"
"https://www.cicis.com/","CICIS TURNER PLZ","3366 Turner Plz","Abilene,","TX","79606","US","<MISSING>","(325) 692-1660","<MISSING>","32.4046665214155","-99.76533830165863","Monday
11:00 AM - 9:00 PM
Tuesday
11:00 AM - 9:00 PM
Wednesday
11:00 AM - 9:00 PM
Thursday
11:00 AM - 9:00 PM
Friday
11:00 AM - 9:00 PM
Saturday
11:00 AM - 9:00 PM
Sunday
11:00 AM - 9:00 PM"
"https://www.cicis.com/","CICIS N GREENVILLE AVE","204 N Greenville Ave Ste 120","Allen,","TX","75002","US","<MISSING>","(972) 727-2424","<MISSING>","33.101441946851665","-96.66002690792078","Monday
11:00 AM - 10:00 PM
Tuesday
11:00 AM - 10:00 PM
Wednesday
11:00 AM - 10:00 PM
Thursday
11:00 AM - 10:00 PM
Friday
11:00 AM - 11:00 PM
Saturday
11:00 AM - 11:00 PM
Sunday
11:00 AM - 10:00 PM"
"https://www.cicis.com/","CICIS FAIRWAY DR","1701 Fairway Dr Ste 14","Alvin,","TX","77511","US","<MISSING>","(281) 585-2526","<MISSING>","29.405911114634588","-95.23215293884277","Monday
11:00 AM - 10:00 PM
Tuesday
11:00 AM - 10:00 PM
Wednesday
11:00 AM - 10:00 PM
Thursday
11:00 AM - 10:00 PM
Friday
11:00 AM - 11:00 PM
Saturday
11:00 AM - 11:00 PM
Sunday
11:00 AM - 10:00 PM"
"https://www.cicis.com/","CICIS I-40 WEST","6605 I-40 West Ste 1","Amarillo,","TX","79106","US","<MISSING>","(806) 359-8000","<MISSING>","35.1867077","-101.9136734","Monday
11:00 AM - 10:00 PM
Tuesday
11:00 AM - 10:00 PM
Wednesday
11:00 AM - 10:00 PM
Thursday
11:00 AM - 10:00 PM
Friday
11:00 AM - 11:00 PM
Saturday
11:00 AM - 11:00 PM
Sunday
11:00 AM - 10:00 PM"
"https://www.cicis.com/","CICIS ANDREWS","700 S. Main Street","Andrews,","TX","79714","US","<MISSING>","(432) 223-3148","<MISSING>","32.3119636","-102.5448284","Monday
11:00 AM - 10:00 PM
Tuesday
11:00 AM - 10:00 PM
Wednesday
11:00 AM - 10:00 PM
Thursday
11:00 AM - 10:00 PM
Friday
11:00 AM - 10:00 PM
Saturday
11:00 AM - 10:00 PM
Sunday
11:00 AM - 10:00 PM"
"https://www.cicis.com/","CICIS SE GREEN OAKS BLVD","2356 Se Green Oaks Blvd Ste 200","Arlington,","TX","76018","US","<MISSING>","(817) 419-6101","<MISSING>","32.65963483605364","-97.06521481275558","Monday
11:00 AM - 10:00 PM
Tuesday
11:00 AM - 10:00 PM
Wednesday
11:00 AM - 10:00 PM
Thursday
11:00 AM - 10:00 PM
Friday
11:00 AM - 11:00 PM
Saturday
11:00 AM - 11:00 PM
Sunday
11:00 AM - 10:00 PM"
"https://www.cicis.com/","CICIS TO GO E ARKANSAS LN","2596 E Arkansas Ln Ste 148","Arlington,","TX","76014","US","<MISSING>","(817) 548-8899","<MISSING>","32.70462686829153","-97.06442221999168","Monday
11:00 AM - 10:00 PM
Tuesday
11:00 AM - 10:00 PM
Wednesday
11:00 AM - 10:00 PM
Thursday
11:00 AM - 10:00 PM
Friday
11:00 AM - 11:00 PM
Saturday
11:00 AM - 11:00 PM
Sunday
11:00 AM - 10:00 PM"
"https://www.cicis.com/","CICIS S COOPER ST","3415 S. Cooper Street Suite 110","Arlington,","TX","76015","US","<MISSING>","(817) 465-6666","<MISSING>","32.690592924758974","-97.12763518095016","Monday
11:00 AM - 10:00 PM
Tuesday
11:00 AM - 10:00 PM
Wednesday
11:00 AM - 10:00 PM
Thursday
11:00 AM - 10:00 PM
Friday
11:00 AM - 11:00 PM
Saturday
11:00 AM - 11:00 PM
Sunday
11:00 AM - 10:00 PM"
"https://www.cicis.com/","CICIS LITTLE RD","4400 Little Rd. Suite 135","Arlington,","TX","76016","US","<MISSING>","(817) 561-6011","<MISSING>","32.67715893851954","-97.19895195337301","Monday
11:00 AM - 10:00 PM
Tuesday
11:00 AM - 10:00 PM
Wednesday
11:00 AM - 10:00 PM
Thursday
11:00 AM - 10:00 PM
Friday
11:00 AM - 10:00 PM
Saturday
11:00 AM - 10:00 PM
Sunday
11:00 AM - 10:00 PM"
"https://www.cicis.com/","CICIS S COOPER ST","5904 S Cooper St Ste 110","Arlington,","TX","76017","US","<MISSING>","(817) 465-2345","<MISSING>","32.651219010638336","-97.1360881626606","Monday
11:00 AM - 10:00 PM
Tuesday
11:00 AM - 10:00 PM
Wednesday
11:00 AM - 10:00 PM
Thursday
11:00 AM - 10:00 PM
Friday
11:00 AM - 11:00 PM
Saturday
11:00 AM - 11:00 PM
Sunday
11:00 AM - 10:00 PM"
"https://www.cicis.com/","CICIS N COLLINS ST","826 N. Collins Street Ste 148","Arlington,","TX","76011","US","<MISSING>","(817) 265-1994","<MISSING>","32.74774640784106","-97.09769904613495","Monday
11:00 AM - 10:00 PM
Tuesday
11:00 AM - 10:00 PM
Wednesday
11:00 AM - 10:00 PM
Thursday
11:00 AM - 10:00 PM
Friday
11:00 AM - 11:00 PM
Saturday
11:00 AM - 11:00 PM
Sunday
11:00 AM - 10:00 PM"
"https://www.cicis.com/","CICIS W WILLIAM CANNON DR","1901 W William Cannon Dr Ste 107","Austin,","TX","78745","US","<MISSING>","(512) 462-3100","<MISSING>","30.20181116450866","-97.8051146708666","Monday
11:00 AM - 9:00 PM
Tuesday
11:00 AM - 9:00 PM
Wednesday
11:00 AM - 9:00 PM
Thursday
11:00 AM - 9:00 PM
Friday
11:00 AM - 10:00 PM
Saturday
11:00 AM - 10:00 PM
Sunday
11:00 AM - 9:00 PM"
"https://www.cicis.com/","CICIS N. IH 35","5365 N. Ih 35 Ste B","Austin,","TX","78723","US","<MISSING>","(512) 453-4488","<MISSING>","30.313026239309593","-97.70607501268381","Monday
10:00 AM - 9:00 PM
Tuesday
10:00 AM - 9:00 PM
Wednesday
10:00 AM - 9:00 PM
Thursday
10:00 AM - 9:00 PM
Friday
10:00 AM - 10:00 PM
Saturday
10:00 AM - 10:00 PM
Sunday
10:00 AM - 9:00 PM"
"https://www.cicis.com/","CICIS N LAMAR BLVD","9717 N Lamar Blvd Ste B","Austin,","TX","78753","US","<MISSING>","(512) 873-8800","<MISSING>","30.365717463561218","-97.6946935937226","Monday
11:00 AM - 10:00 PM
Tuesday
11:00 AM - 10:00 PM
Wednesday
11:00 AM - 10:00 PM
Thursday
11:00 AM - 10:00 PM
Friday
11:00 AM - 10:00 PM
Saturday
11:00 AM - 10:00 PM
Sunday
11:00 AM - 10:00 PM"
"https://www.cicis.com/","CICIS BASTROP","57 Loop 150 West Ste B","Bastrop,","TX","78602","US","<MISSING>","(512) 412-6565","<MISSING>","30.106188384844522","-97.3274986522029","Monday
11:00 AM - 9:00 PM
Tuesday
11:00 AM - 9:00 PM
Wednesday
11:00 AM - 9:00 PM
Thursday
11:00 AM - 9:00 PM
Friday
11:00 AM - 10:00 PM
Saturday
11:00 AM - 10:00 PM
Sunday
11:00 AM - 9:00 PM"
"https://www.cicis.com/","CICIS GARTH RD","4508 Garth Rd Ste G","Baytown,","TX","77521","US","<MISSING>","(281) 420-0181","<MISSING>","29.770810342680775","-94.97663384769112","Monday
11:00 AM - 10:00 PM
Tuesday
11:00 AM - 10:00 PM
Wednesday
11:00 AM - 10:00 PM
Thursday
11:00 AM - 10:00 PM
Friday
11:00 AM - 11:00 PM
Saturday
11:00 AM - 11:00 PM
Sunday
11:00 AM - 10:00 PM"
"https://www.cicis.com/","CICIS EASTEX FREEWAY","5882-A Eastex Freeway","Beaumont,","TX","77708","US","<MISSING>","(409) 892-6866","<MISSING>","30.12738754352693","-94.1548041254282","Monday
11:00 AM - 10:00 PM
Tuesday
11:00 AM - 10:00 PM
Wednesday
11:00 AM - 10:00 PM
Thursday
11:00 AM - 10:00 PM
Friday
11:00 AM - 11:00 PM
Saturday
11:00 AM - 11:00 PM
Sunday
11:00 AM - 10:00 PM"
"https://www.cicis.com/","CICIS HARWOOD RD","2101 Harwood Road Suite 115","Bedford,","TX","76021","US","<MISSING>","(817) 545-7575","<MISSING>","32.852421705252915","-97.13419318199158","Monday
11:00 AM - 10:00 PM
Tuesday
11:00 AM - 10:00 PM
Wednesday
11:00 AM - 10:00 PM
Thursday
11:00 AM - 10:00 PM
Friday
11:00 AM - 11:00 PM
Saturday
11:00 AM - 11:00 PM
Sunday
11:00 AM - 10:00 PM"
"https://www.cicis.com/","CICIS N LOOP 340","901 N Loop 340 Ste 4","Bellmead,","TX","76705","US","<MISSING>","(254) 867-0003","<MISSING>","31.60267491563328","-97.10320259259032","Monday
11:00 AM - 10:00 PM
Tuesday
11:00 AM - 10:00 PM
Wednesday
11:00 AM - 10:00 PM
Thursday
11:00 AM - 10:00 PM
Friday
11:00 AM - 11:00 PM
Saturday
11:00 AM - 11:00 PM
Sunday
11:00 AM - 10:00 PM"
"https://www.cicis.com/","CICIS N. EXPWY 77","4365 N. Expwy 77 Ste 500","Brownsville,","TX","78520","US","<MISSING>","(956) 350-5100","<MISSING>","25.9690453","-97.5154599","Monday
11:00 AM - 10:00 PM
Tuesday
11:00 AM - 10:00 PM
Wednesday
11:00 AM - 10:00 PM
Thursday
11:00 AM - 10:00 PM
Friday
11:00 AM - 10:00 PM
Saturday
11:00 AM - 10:00 PM
Sunday
11:00 AM - 10:00 PM"
"https://www.cicis.com/","CICIS CLEMENTS","1107 Clements","Brownwood,","TX","76801","US","<MISSING>","(325) 646-3700","<MISSING>","31.72904774682506","-98.980513215065","Monday
11:00 AM - 10:00 PM
Tuesday
11:00 AM - 10:00 PM
Wednesday
11:00 AM - 10:00 PM
Thursday
11:00 AM - 10:00 PM
Friday
11:00 AM - 10:30 PM
Saturday
11:00 AM - 10:30 PM
Sunday
11:00 AM - 10:00 PM"
"https://www.cicis.com/","CICIS S. TEXAS AVENUE","2003 S. Texas Avenue","Bryan,","TX","77801","US","<MISSING>","(979) 775-2424","<MISSING>","30.651871","-96.360617","Monday
11:00 AM - 10:00 PM
Tuesday
11:00 AM - 10:00 PM
Wednesday
11:00 AM - 10:00 PM
Thursday
11:00 AM - 10:00 PM
Friday
11:00 AM - 11:00 PM
Saturday
11:00 AM - 10:00 PM
Sunday
11:00 AM - 10:00 PM"
"https://www.cicis.com/","CICIS NE WILSHIRE BLVD","105 Ne Wilshire Blvd Ste 70","Burleson,","TX","76028","US","<MISSING>","(817) 447-2979","<MISSING>","32.54599017524277","-97.32776686549187","Monday
11:00 AM - 10:00 PM
Tuesday
11:00 AM - 10:00 PM
Wednesday
11:00 AM - 10:00 PM
Thursday
11:00 AM - 10:00 PM
Friday
11:00 AM - 11:00 PM
Saturday
11:00 AM - 11:00 PM
Sunday
11:00 AM - 10:00 PM"
"https://www.cicis.com/","CICIS W HEBRON PKWY","1025 W Hebron Pkwy Ste 140","Carrollton,","TX","75010","US","<MISSING>","(972) 939-4888","<MISSING>","33.0194555","-96.9172431","Monday
11:00 AM - 9:00 PM
Tuesday
11:00 AM - 9:00 PM
Wednesday
11:00 AM - 9:00 PM
Thursday
11:00 AM - 9:00 PM
Friday
11:00 AM - 10:00 PM
Saturday
11:00 AM - 10:00 PM
Sunday
11:00 AM - 9:00 PM"
"https://www.cicis.com/","CICIS E BELT LINE RD","1927 E. Belt Line Road Suite 108","Carrollton,","TX","75006","US","<MISSING>","(972) 416-2626","<MISSING>","32.9551965","-96.8893179","Monday
11:00 AM - 10:00 PM
Tuesday
11:00 AM - 9:00 PM
Wednesday
11:00 AM - 9:00 PM
Thursday
11:00 AM - 9:00 PM
Friday
11:00 AM - 9:30 PM
Saturday
11:00 AM - 9:30 PM
Sunday
11:00 AM - 9:00 PM"
"https://www.cicis.com/","CICIS W FM 1382","140 W Fm 1382 Ste 140","Cedar Hill,","TX","75104","US","<MISSING>","(972) 291-7888","<MISSING>","32.59914397587529","-96.94390386343002","Monday
11:00 AM - 10:00 PM
Tuesday
11:00 AM - 10:00 PM
Wednesday
11:00 AM - 10:00 PM
Thursday
11:00 AM - 10:00 PM
Friday
11:00 AM - 11:00 PM
Saturday
11:00 AM - 11:00 PM
Sunday
11:00 AM - 10:00 PM"
"https://www.cicis.com/","CICIS W HENDERSON ST","1301 W. Henderson Street Suite E","Cleburne,","TX","76033","US","<MISSING>","(817) 641-2424","<MISSING>","32.34035314810957","-97.40252807736397","Monday
11:00 AM - 10:00 PM
Tuesday
11:00 AM - 10:00 PM
Wednesday
11:00 AM - 10:00 PM
Thursday
11:00 AM - 10:00 PM
Friday
11:00 AM - 11:00 PM
Saturday
11:00 AM - 11:00 PM
Sunday
11:00 AM - 10:00 PM"
"https://www.cicis.com/","CICIS TEXAS AVE S","1905 Texas Avenue S.","College Station,","TX","77840","US","<MISSING>","(979) 694-2424","<MISSING>","30.61509225685115","-96.31595313549042","Monday
11:00 AM - 10:00 PM
Tuesday
11:00 AM - 10:00 PM
Wednesday
11:00 AM - 10:00 PM
Thursday
11:00 AM - 10:00 PM
Friday
11:00 AM - 11:00 PM
Saturday
11:00 AM - 11:00 PM
Sunday
11:00 AM - 10:00 PM"
"https://www.cicis.com/","CICIS W DALLAS ST","1134 W Dallas St","Conroe,","TX","77301","US","<MISSING>","(936) 756-2522","<MISSING>","30.31610348997102","-95.47067910432816","Monday
11:00 AM - 10:00 PM
Tuesday
11:00 AM - 10:00 PM
Wednesday
11:00 AM - 10:00 PM
Thursday
11:00 AM - 10:00 PM
Friday
11:00 AM - 11:00 PM
Saturday
11:00 AM - 11:00 PM
Sunday
11:00 AM - 10:00 PM"
"https://www.cicis.com/","CICIS S DENTON TAP RD","120 S Denton Tap Rd Suite 400","Coppell,","TX","75019","US","<MISSING>","(972) 393-2424","<MISSING>","32.968356389833254","-96.99192613363266","Monday
11:00 AM - 10:00 PM
Tuesday
11:00 AM - 10:00 PM
Wednesday
11:00 AM - 10:00 PM
Thursday
11:00 AM - 10:00 PM
Friday
11:00 AM - 10:00 PM
Saturday
11:00 AM - 10:00 PM
Sunday
11:00 AM - 9:00 PM"
"https://www.cicis.com/","CICIS AIRLINE RD","1502 Airline Rd Suite 230","Corpus Christi,","TX","78412","US","<MISSING>","(361) 855-8008","<MISSING>","27.7025526","-97.3620402","Monday
11:00 AM - 10:00 PM
Tuesday
11:00 AM - 10:00 PM
Wednesday
11:00 AM - 10:00 PM
Thursday
11:00 AM - 10:00 PM
Friday
11:00 AM - 11:00 PM
Saturday
11:00 AM - 11:00 PM
Sunday
11:00 AM - 10:00 PM"
"https://www.cicis.com/","CICIS IH 69 ACCESS ROAD","4101 Ih 69 Access Road Ste N4-N7","Corpus Christi,","TX","78410","US","<MISSING>","(361) 241-2354","<MISSING>","27.8573051","-97.6307027","Monday
11:00 AM - 10:00 PM
Tuesday
11:00 AM - 10:00 PM
Wednesday
11:00 AM - 10:00 PM
Thursday
11:00 AM - 10:00 PM
Friday
11:00 AM - 11:00 PM
Saturday
11:00 AM - 11:00 PM
Sunday
11:00 AM - 10:00 PM"
"https://www.cicis.com/","CICIS AYERS ST","4918 Ayers St Ste 120","Corpus Christi,","TX","78415","US","<MISSING>","(361) 814-2424","<MISSING>","27.73735751365445","-97.42537379264832","Monday
11:00 AM - 10:00 PM
Tuesday
11:00 AM - 10:00 PM
Wednesday
11:00 AM - 10:00 PM
Thursday
11:00 AM - 10:00 PM
Friday
11:00 AM - 11:00 PM
Saturday
11:00 AM - 11:00 PM
Sunday
11:00 AM - 10:00 PM"
"https://www.cicis.com/","CICIS W. HWY 31","3731 W. Hwy 31 Ste 7","Corsicana,","TX","75110","US","<MISSING>","(903) 874-0011","<MISSING>","32.068898","-96.505455","Monday
11:00 AM - 10:00 PM
Tuesday
11:00 AM - 10:00 PM
Wednesday
11:00 AM - 10:00 PM
Thursday
11:00 AM - 10:00 PM
Friday
11:00 AM - 11:00 PM
Saturday
11:00 AM - 11:00 PM
Sunday
11:00 AM - 10:00 PM"
"https://www.cicis.com/","CICIS TO GO W 7TH AVE","604 W 7Th Ave Ste 7","Corsicana,","TX","75110","US","<MISSING>","(903) 874-0022","<MISSING>","32.08942843830121","-96.4686593413353","Monday
11:00 AM - 10:00 PM
Tuesday
11:00 AM - 10:00 PM
Wednesday
11:00 AM - 10:00 PM
Thursday
11:00 AM - 10:00 PM
Friday
11:00 AM - 11:00 PM
Saturday
11:00 AM - 11:00 PM
Sunday
11:00 AM - 10:00 PM"
"https://www.cicis.com/","CICIS S BUCKNER BLVD","1515 S Buckner Blvd Ste 115","Dallas,","TX","75217","US","<MISSING>","(214) 391-4242","<MISSING>","32.73809063480383","-96.68401390314102","Monday
11:00 AM - 10:00 PM
Tuesday
11:00 AM - 10:00 PM
Wednesday
11:00 AM - 10:00 PM
Thursday
11:00 AM - 10:00 PM
Friday
11:00 AM - 11:00 PM
Saturday
11:00 AM - 11:00 PM
Sunday
11:00 AM - 10:00 PM"
"https://www.cicis.com/","CICIS GUS THOMASSON RD","2441 Gus Thomasson Rd Ste 101","Dallas,","TX","75228","US","<MISSING>","(214) 320-2424","<MISSING>","32.8358954","-96.6734473","Monday
11:00 AM - 10:00 PM
Tuesday
11:00 AM - 10:00 PM
Wednesday
11:00 AM - 10:00 PM
Thursday
11:00 AM - 10:00 PM
Friday
11:00 AM - 11:00 PM
Saturday
11:00 AM - 11:00 PM
Sunday
11:00 AM - 10:00 PM"
"https://www.cicis.com/","CICIS MIDWAY RD","2661 Midway Road Suite 114","Dallas,","TX","75006","US","<MISSING>","(972) 662-3454","<MISSING>","32.98553573042002","-96.84382259845734","Monday
11:00 AM - 10:00 PM
Tuesday
11:00 AM - 10:00 PM
Wednesday
11:00 AM - 10:00 PM
Thursday
11:00 AM - 10:00 PM
Friday
11:00 AM - 11:00 PM
Saturday
11:00 AM - 11:00 PM
Sunday
11:00 AM - 10:00 PM"
"https://www.cicis.com/","CICIS FOREST LN","3128 Forest Ln Ste 211","Dallas,","TX","75234","US","<MISSING>","(972) 406-0404","<MISSING>","32.9085931","-96.8717497","Monday
11:00 AM - 10:00 PM
Tuesday
11:00 AM - 10:00 PM
Wednesday
11:00 AM - 10:00 PM
Thursday
11:00 AM - 10:00 PM
Friday
11:00 AM - 11:00 PM
Saturday
11:00 AM - 11:00 PM
Sunday
11:00 AM - 10:00 PM"
"https://www.cicis.com/","CICIS TO GO W ILLINOIS AVE","3420 W Illinois Ave Ste 500","Dallas,","TX","75211","US","<MISSING>","(214) 467-3800","<MISSING>","32.71931012830968","-96.8753705042991","Monday
11:00 AM - 10:00 PM
Tuesday
11:00 AM - 10:00 PM
Wednesday
11:00 AM - 10:00 PM
Thursday
11:00 AM - 10:00 PM
Friday
11:00 AM - 11:00 PM
Saturday
11:00 AM - 11:00 PM
Sunday
11:00 AM - 10:00 PM"
"https://www.cicis.com/","CICIS DALLAS FORT WORTH TPKE","4398 Dallas Fort Worth Tpke Ste 102","Dallas,","TX","75211","US","<MISSING>","(214) 337-6624","<MISSING>","32.76295956806365","-96.89868574355125","Monday
11:00 AM - 10:00 PM
Tuesday
11:00 AM - 10:00 PM
Wednesday
11:00 AM - 10:00 PM
Thursday
11:00 AM - 10:00 PM
Friday
11:00 AM - 11:00 PM
Saturday
11:00 AM - 11:00 PM
Sunday
11:00 AM - 10:00 PM"
"https://www.cicis.com/","CICIS COLUMBIA AVE","4800 Columbia Ave #300","Dallas,","TX","75226","US","<MISSING>","(214) 370-3404","<MISSING>","32.7942664","-96.7632493","Monday
11:00 AM - 9:30 PM
Tuesday
11:00 AM - 9:30 PM
Wednesday
11:00 AM - 9:30 PM
Thursday
11:00 AM - 9:30 PM
Friday
11:00 AM - 10:00 PM
Saturday
11:00 AM - 10:00 PM
Sunday
11:00 AM - 10:00 PM"
"https://www.cicis.com/","CICIS RETAIL RD","6186 Retail Rd Suite 100","Dallas,","TX","75231","US","<MISSING>","(214) 691-2424","<MISSING>","32.86116611816109","-96.75385728478432","Monday
11:00 AM - 10:00 PM
Tuesday
11:00 AM - 10:00 PM
Wednesday
11:00 AM - 10:00 PM
Thursday
11:00 AM - 10:00 PM
Friday
11:00 AM - 11:00 PM
Saturday
11:00 AM - 11:00 PM
Sunday
11:00 AM - 10:00 PM"
"https://www.cicis.com/","CICIS SAMUELL BLVD","6300 Samuell Blvd. Ste 101","Dallas,","TX","75228","US","<MISSING>","(214) 388-2334","<MISSING>","32.79206283611188","-96.6962961384969","Monday
11:00 AM - 10:00 PM
Tuesday
11:00 AM - 10:00 PM
Wednesday
11:00 AM - 10:00 PM
Thursday
11:00 AM - 10:00 PM
Friday
11:00 AM - 11:00 PM
Saturday
11:00 AM - 11:00 PM
Sunday
11:00 AM - 10:00 PM"
"https://www.cicis.com/","CICIS W ILLINOIS AVE BLDG 200","655 W Illinois Ave Bldg 200 Ste 220","Dallas,","TX","75224","US","<MISSING>","(214) 943-7700","<MISSING>","32.72250382947749","-96.8318130370701","Monday
11:00 AM - 10:00 PM
Tuesday
11:00 AM - 10:00 PM
Wednesday
11:00 AM - 10:00 PM
Thursday
11:00 AM - 10:00 PM
Friday
11:00 AM - 10:00 PM
Saturday
11:00 AM - 10:00 PM
Sunday
11:00 AM - 10:00 PM"
"https://www.cicis.com/","CICIS SPRING VALLEY RD","7879 Spring Valley Road Suite 139","Dallas,","TX","75254","US","<MISSING>","(972) 250-6242","<MISSING>","32.94126317098234","-96.76987141370773","Monday
11:00 AM - 10:00 PM
Tuesday
11:00 AM - 10:00 PM
Wednesday
11:00 AM - 10:00 PM
Thursday
11:00 AM - 10:00 PM
Friday
11:00 AM - 10:00 PM
Saturday
11:00 AM - 10:00 PM
Sunday
11:00 AM - 10:00 PM"
"https://www.cicis.com/","CICIS SKILLMAN","8694-A Skillman Suite 100","Dallas,","TX","75243","US","<MISSING>","(214) 343-8077","<MISSING>","32.89587390065897","-96.72087013721466","Monday
11:00 AM - 10:00 PM
Tuesday
11:00 AM - 10:00 PM
Wednesday
11:00 AM - 10:00 PM
Thursday
11:00 AM - 10:00 PM
Friday
11:00 AM - 11:00 PM
Saturday
11:00 AM - 11:00 PM
Sunday
11:00 AM - 10:00 PM"
"https://www.cicis.com/","CICIS S FM 51","1100 S. Fm 51 Ste 147","Decatur,","TX","76234","US","<MISSING>","(940) 627-0712","<MISSING>","33.2269655","-97.5944966","Monday
11:00 AM - 10:00 PM
Tuesday
11:00 AM - 10:00 PM
Wednesday
11:00 AM - 10:00 PM
Thursday
11:00 AM - 10:00 PM
Friday
11:00 AM - 11:00 PM
Saturday
11:00 AM - 11:00 PM
Sunday
11:00 AM - 10:00 PM"
"https://www.cicis.com/","CICIS S LOOP 288","2219 S Loop 288 #105","Denton,","TX","76205","US","<MISSING>","(940) 891-0861","<MISSING>","33.1870138531188","-97.10600048303598","Monday
11:00 AM - 10:00 PM
Tuesday
11:00 AM - 10:00 PM
Wednesday
11:00 AM - 10:00 PM
Thursday
11:00 AM - 10:00 PM
Friday
11:00 AM - 11:00 PM
Saturday
11:00 AM - 11:00 PM
Sunday
11:00 AM - 10:00 PM"
"https://www.cicis.com/","CICIS N ZARAGOZA RD STE 101","1700 N. Zaragoza Road Suite 101","El Paso,","TX","79936","US","<MISSING>","(915) 857-3355","<MISSING>","31.749355879715758","-106.27936272453042","Monday
11:00 AM - 10:00 PM
Tuesday
11:00 AM - 10:00 PM
Wednesday
11:00 AM - 10:00 PM
Thursday
11:00 AM - 10:00 PM
Friday
11:00 AM - 11:00 PM
Saturday
11:00 AM - 10:00 PM
Sunday
11:00 AM - 10:00 PM"
"https://www.cicis.com/","CICIS WOODROW BEAN TRANSMOUNTAIN RD","4654 Woodrow Bean Transmountain Rd Ste 222","El Paso,","TX","79924","US","<MISSING>","(915) 751-7788","<MISSING>","31.896932","-106.436058","Monday
11:00 AM - 10:00 PM
Tuesday
11:00 AM - 10:00 PM
Wednesday
11:00 AM - 10:00 PM
Thursday
11:00 AM - 10:00 PM
Friday
11:00 AM - 11:00 PM
Saturday
11:00 AM - 10:00 PM
Sunday
11:00 AM - 10:00 PM"
"https://www.cicis.com/","CICIS N ZARAGOZA RD","615 N Zaragoza Rd Ste 58-62","El Paso,","TX","79907","US","<MISSING>","(915) 860-8500","<MISSING>","31.70412419657198","-106.32126733660698","Monday
11:00 AM - 10:00 PM
Tuesday
11:00 AM - 10:00 PM
Wednesday
11:00 AM - 10:00 PM
Thursday
11:00 AM - 10:00 PM
Friday
11:00 AM - 11:00 PM
Saturday
11:00 AM - 10:00 PM
Sunday
11:00 AM - 10:00 PM"
"https://www.cicis.com/","CICIS N MESA ST","7500 N Mesa St Ste 222","El Paso,","TX","79912","US","<MISSING>","(915) 833-4900","<MISSING>","31.838837016814967","-106.56341314315796","Monday
11:00 AM - 10:00 PM
Tuesday
11:00 AM - 10:00 PM
Wednesday
11:00 AM - 10:00 PM
Thursday
11:00 AM - 10:00 PM
Friday
11:00 AM - 11:00 PM
Saturday
11:00 AM - 10:00 PM
Sunday
11:00 AM - 10:00 PM"
"https://www.cicis.com/","CICIS VISCOUNT BLVD","8855 Viscount Blvd Suite 101","El Paso,","TX","79925","US","<MISSING>","(915) 598-0700","<MISSING>","31.775533176374534","-106.3728341460228","Monday
11:00 AM - 10:00 PM
Tuesday
11:00 AM - 10:00 PM
Wednesday
11:00 AM - 10:00 PM
Thursday
11:00 AM - 10:00 PM
Friday
11:00 AM - 11:00 PM
Saturday
11:00 AM - 10:00 PM
Sunday
11:00 AM - 10:00 PM"
"https://www.cicis.com/","CICIS LONG PRAIRIE","1901 Long Prairie Suite 400","Flower Mound,","TX","75022","US","<MISSING>","(972) 691-9900","<MISSING>","33.01211247887784","-97.07236424088478","Monday
11:00 AM - 10:00 PM
Tuesday
11:00 AM - 10:00 PM
Wednesday
11:00 AM - 10:00 PM
Thursday
11:00 AM - 10:00 PM
Friday
11:00 AM - 10:00 PM
Saturday
11:00 AM - 10:00 PM
Sunday
11:00 AM - 10:00 PM"
"https://www.cicis.com/","CICIS TO GO W BROAD ST","100 W Broad St Suite 110","Forney,","TX","75126","US","<MISSING>","(972) 552-2979","<MISSING>","32.74949471279175","-96.47022776305676","Monday
11:00 AM - 10:00 PM
Tuesday
11:00 AM - 10:00 PM
Wednesday
11:00 AM - 10:00 PM
Thursday
11:00 AM - 10:00 PM
Friday
11:00 AM - 11:00 PM
Saturday
11:00 AM - 11:00 PM
Sunday
11:00 AM - 10:00 PM"
"https://www.cicis.com/","CICIS EASTCHASE PKWY","1408 Eastchase Pkwy Suite 102","Fort Worth,","TX","76120","US","<MISSING>","(817) 860-2424","<MISSING>","32.75911606734248","-97.16906386011885","Monday
11:00 AM - 10:00 PM
Tuesday
11:00 AM - 10:00 PM
Wednesday
11:00 AM - 10:00 PM
Thursday
11:00 AM - 10:00 PM
Friday
11:00 AM - 11:00 PM
Saturday
11:00 AM - 11:00 PM
Sunday
11:00 AM - 10:00 PM"
"https://www.cicis.com/","CICIS N SAGINAW BLVD","1453 N Saginaw Blvd Ste 147","Fort Worth,","TX","76179","US","<MISSING>","(817) 232-0909","<MISSING>","32.88409220516034","-97.38589704036713","Monday
11:00 AM - 10:00 PM
Tuesday
11:00 AM - 10:00 PM
Wednesday
11:00 AM - 10:00 PM
Thursday
11:00 AM - 10:00 PM
Friday
11:00 AM - 11:00 PM
Saturday
11:00 AM - 11:00 PM
Sunday
11:00 AM - 10:00 PM"
"https://www.cicis.com/","CICIS 8TH AVE","2724 8Th Ave Ste 107","Fort Worth,","TX","76110","US","<MISSING>","(817) 926-7401","<MISSING>","32.711711281095944","-97.3442604392767","Monday
11:00 AM - 10:00 PM
Tuesday
11:00 AM - 10:00 PM
Wednesday
11:00 AM - 10:00 PM
Thursday
11:00 AM - 10:00 PM
Friday
11:00 AM - 10:00 PM
Saturday
11:00 AM - 10:00 PM
Sunday
11:00 AM - 10:00 PM"
"https://www.cicis.com/","CICIS S HULEN STREET","5503 S. Hulen Street Ste 107","Fort Worth,","TX","76132","US","<MISSING>","(682) 707-5204","<MISSING>","32.66919177385115","-97.39904447475055","Monday
11:00 AM - 10:00 PM
Tuesday
11:00 AM - 10:00 PM
Wednesday
11:00 AM - 10:00 PM
Thursday
11:00 AM - 10:00 PM
Friday
11:00 AM - 11:00 PM
Saturday
11:00 AM - 11:00 PM
Sunday
11:00 AM - 10:00 PM"
"https://www.cicis.com/","CICIS N. TARRANT PARKWAY","5701 N. Tarrant Parkway Suite 117","Fort Worth,","TX","76244","US","<MISSING>","(817) 337-2600","<MISSING>","32.895715495710306","-97.2634760932541","Monday
11:00 AM - 10:00 PM
Tuesday
11:00 AM - 10:00 PM
Wednesday
11:00 AM - 10:00 PM
Thursday
11:00 AM - 10:00 PM
Friday
11:00 AM - 11:00 PM
Saturday
11:00 AM - 11:00 PM
Sunday
11:00 AM - 10:00 PM"
"https://www.cicis.com/","CICIS LAKE WORTH BLVD","6342-A Lake Worth Blvd Suite 130","Fort Worth,","TX","76135","US","<MISSING>","(817) 238-8878","<MISSING>","32.81103346746109","-97.42384822528015","Monday
11:00 AM - 10:00 PM
Tuesday
11:00 AM - 10:00 PM
Wednesday
11:00 AM - 9:00 PM
Thursday
11:00 AM - 10:00 PM
Friday
11:00 AM - 11:00 PM
Saturday
11:00 AM - 11:00 PM
Sunday
11:00 AM - 10:00 PM"
"https://www.cicis.com/","CICIS CAMP BOWIE BLVD","6550 Camp Bowie Blvd Ste 107","Fort Worth,","TX","76116","US","<MISSING>","(817) 377-0900","<MISSING>","32.723697530353334","-97.42864742875099","Monday
11:00 AM - 10:00 PM
Tuesday
11:00 AM - 10:00 PM
Wednesday
11:00 AM - 10:00 PM
Thursday
11:00 AM - 10:00 PM
Friday
11:00 AM - 11:00 PM
Saturday
11:00 AM - 11:00 PM
Sunday
11:00 AM - 10:00 PM"
"https://www.cicis.com/","CICIS FOREST HILL DR","6619 Forest Hill Dr Ste 70","Fort Worth,","TX","76140","US","<MISSING>","(817) 483-3950","<MISSING>","32.658609640017445","-97.26899564266199","Monday
11:00 AM - 10:00 PM
Tuesday
11:00 AM - 10:00 PM
Wednesday
11:00 AM - 10:00 PM
Thursday
11:00 AM - 10:00 PM
Friday
11:00 AM - 11:00 PM
Saturday
11:00 AM - 11:00 PM
Sunday
11:00 AM - 10:00 PM"
"https://www.cicis.com/","CICIS CLIFFORD ST","9324 Clifford Street Suite 130","Fort Worth,","TX","76108","US","<MISSING>","(817) 246-6888","<MISSING>","32.76587748231937","-97.47969388961792","Monday
11:00 AM - 10:00 PM
Tuesday
11:00 AM - 10:00 PM
Wednesday
11:00 AM - 10:00 PM
Thursday
11:00 AM - 10:00 PM
Friday
11:00 AM - 11:00 PM
Saturday
11:00 AM - 11:00 PM
Sunday
11:00 AM - 10:00 PM"
"https://www.cicis.com/","CICIS N BEACH ST","950 N Beach St Suite 102","Fort Worth,","TX","76111","US","<MISSING>","(817) 759-0033","<MISSING>","32.776714212977275","-97.28851675987244","Monday
11:00 AM - 10:00 PM
Tuesday
11:00 AM - 10:00 PM
Wednesday
11:00 AM - 10:00 PM
Thursday
11:00 AM - 10:00 PM
Friday
11:00 AM - 11:00 PM
Saturday
11:00 AM - 11:00 PM
Sunday
11:00 AM - 10:00 PM"
"https://www.cicis.com/","CICIS ELDORADO PKWY","15962 Eldorado Pkwy Suite 400","Frisco,","TX","75035","US","<MISSING>","(214) 544-8002","<MISSING>","33.17629651003175","-96.73509444047545","Monday
11:00 AM - 10:00 PM
Tuesday
11:00 AM - 10:00 PM
Wednesday
11:00 AM - 10:00 PM
Thursday
11:00 AM - 10:00 PM
Friday
11:00 AM - 11:00 PM
Saturday
11:00 AM - 11:00 PM
Sunday
11:00 AM - 10:00 PM"
"https://www.cicis.com/","CICIS PRESTON RD","5580 Preston Rd Ste B104","Frisco,","TX","75034","US","<MISSING>","(214) 436-4529","<MISSING>","33.12408103949845","-96.80341847240925","Monday
11:00 AM - 10:00 PM
Tuesday
11:00 AM - 10:00 PM
Wednesday
11:00 AM - 10:00 PM
Thursday
11:00 AM - 10:00 PM
Friday
11:00 AM - 11:00 PM
Saturday
11:00 AM - 11:00 PM
Sunday
11:00 AM - 10:00 PM"
"https://www.cicis.com/","CICIS E HIGHWAY 82","920 E Highway 82 Suite 106","Gainesville,","TX","76240","US","<MISSING>","(940) 665-5565","<MISSING>","33.64049047348111","-97.13621892035007","Monday
11:00 AM - 10:00 PM
Tuesday
11:00 AM - 10:00 PM
Wednesday
11:00 AM - 10:00 PM
Thursday
11:00 AM - 10:00 PM
Friday
11:00 AM - 11:00 PM
Saturday
11:00 AM - 11:00 PM
Sunday
11:00 AM - 10:00 PM"
"https://www.cicis.com/","CICIS STEWART RD","6105 Stewart Rd Ste A","Galveston,","TX","77551","US","<MISSING>","(409) 740-3300","<MISSING>","29.2741225","-94.8316086","Monday
11:00 AM - 10:00 PM
Tuesday
11:00 AM - 10:00 PM
Wednesday
11:00 AM - 10:00 PM
Thursday
11:00 AM - 10:00 PM
Friday
11:00 AM - 11:00 PM
Saturday
11:00 AM - 11:00 PM
Sunday
11:00 AM - 10:00 PM"
"https://www.cicis.com/","CICIS NORTHWEST HWY","1037 Northwest Hwy Suite 246","Garland,","TX","75041","US","<MISSING>","(972) 613-8080","<MISSING>","32.86295274733721","-96.6434682905674","Monday
11:00 AM - 10:00 PM
Tuesday
11:00 AM - 10:00 PM
Wednesday
11:00 AM - 10:00 PM
Thursday
11:00 AM - 10:00 PM
Friday
11:00 AM - 11:00 PM
Saturday
11:00 AM - 11:00 PM
Sunday
11:00 AM - 10:00 PM"
"https://www.cicis.com/","CICIS LAVON DR","2936 Lavon Drive Suite 300","Garland,","TX","75040","US","<MISSING>","(972) 495-2424","<MISSING>","32.9422271","-96.6209075","Monday
11:00 AM - 10:00 PM
Tuesday
11:00 AM - 10:00 PM
Wednesday
11:00 AM - 10:00 PM
Thursday
11:00 AM - 10:00 PM
Friday
11:00 AM - 11:00 PM
Saturday
11:00 AM - 11:00 PM
Sunday
11:00 AM - 10:00 PM"
"https://www.cicis.com/","CICIS N JUPITER RD","4750 N Jupiter Rd Ste 124","Garland,","TX","75044","US","<MISSING>","(972) 414-5600","<MISSING>","32.95925572322143","-96.68199151754374","Monday
11:00 AM - 10:00 PM
Tuesday
11:00 AM - 10:00 PM
Wednesday
11:00 AM - 10:00 PM
Thursday
11:00 AM - 10:00 PM
Friday
11:00 AM - 11:00 PM
Saturday
11:00 AM - 11:00 PM
Sunday
11:00 AM - 10:00 PM"
"https://www.cicis.com/","CICIS N. PLAZA DRIVE","1333 N. Plaza Drive Suite #355","Granbury,","TX","76048","US","<MISSING>","(682) 936-4970","<MISSING>","32.43608164038122","-97.76810109615326","Monday
11:00 AM - 10:00 PM
Tuesday
11:00 AM - 10:00 PM
Wednesday
11:00 AM - 10:00 PM
Thursday
11:00 AM - 10:00 PM
Friday
11:00 AM - 10:00 PM
Saturday
11:00 AM - 10:00 PM
Sunday
11:00 AM - 10:00 PM"
"https://www.cicis.com/","CICIS W. PIONEER PKWY","726 W. Pioneer Pkwy Ste 148","Grand Prairie,","TX","75051","US","<MISSING>","(972) 642-7774","<MISSING>","32.71053885977878","-97.01436817646032","Monday
11:00 AM - 10:00 PM
Tuesday
11:00 AM - 10:00 PM
Wednesday
11:00 AM - 10:00 PM
Thursday
11:00 AM - 10:00 PM
Friday
11:00 AM - 11:00 PM
Saturday
11:00 AM - 11:00 PM
Sunday
11:00 AM - 10:00 PM"
"https://www.cicis.com/","CICIS W NORTHWEST HWY","2150 W Northwest Hwy Ste 126","Grapevine,","TX","76051","US","<MISSING>","(817) 421-9868","<MISSING>","32.941864182242654","-97.10005402565002","Monday
11:00 AM - 10:00 PM
Tuesday
11:00 AM - 10:00 PM
Wednesday
11:00 AM - 10:00 PM
Thursday
11:00 AM - 10:00 PM
Friday
11:00 AM - 10:00 PM
Saturday
11:00 AM - 10:00 PM
Sunday
11:00 AM - 10:00 PM"
"https://www.cicis.com/","CICIS WESLEY ST","6506 Wesley St Unit 216","Greenville,","TX","75402","US","<MISSING>","(903) 454-2166","<MISSING>","33.103412455911226","-96.11027866601944","Monday
11:00 AM - 10:00 PM
Tuesday
11:00 AM - 10:00 PM
Wednesday
11:00 AM - 10:00 PM
Thursday
11:00 AM - 10:00 PM
Friday
11:00 AM - 11:00 PM
Saturday
11:00 AM - 10:00 PM
Sunday
11:00 AM - 10:00 PM"
"https://www.cicis.com/","CICIS W MAIN ST","1018 W Main St Suite 110","Gun Barrel City,","TX","75156","US","<MISSING>","(903) 887-2828","<MISSING>","32.332251267334236","-96.1314707994461","Monday
11:00 AM - 10:00 PM
Tuesday
11:00 AM - 10:00 PM
Wednesday
11:00 AM - 10:00 PM
Thursday
11:00 AM - 10:00 PM
Friday
11:00 AM - 11:00 PM
Saturday
11:00 AM - 11:00 PM
Sunday
11:00 AM - 10:00 PM"
"https://www.cicis.com/","CICIS W LINCOLN ST","2025 W Lincoln St Suite 700","Harlingen,","TX","78552","US","<MISSING>","(956) 425-4097","<MISSING>","26.18063391900304","-97.71835617721081","Monday
11:00 AM - 10:00 PM
Tuesday
11:00 AM - 10:00 PM
Wednesday
11:00 AM - 10:00 PM
Thursday
11:00 AM - 10:00 PM
Friday
11:00 AM - 10:00 PM
Saturday
11:00 AM - 10:00 PM
Sunday
11:00 AM - 10:00 PM"
"https://www.cicis.com/","CICIS LONG POINT RD STE A","10086 Long Point Rd Ste A","Houston,","TX","77055","US","<MISSING>","(713) 463-3821","<MISSING>","29.794906790202997","-95.54367542266851","Monday
11:00 AM - 10:00 PM
Tuesday
11:00 AM - 10:00 PM
Wednesday
11:00 AM - 10:00 PM
Thursday
11:00 AM - 10:00 PM
Friday
11:00 AM - 11:00 PM
Saturday
11:00 AM - 11:00 PM
Sunday
11:00 AM - 10:00 PM"
"https://www.cicis.com/","CICIS NORTH FWY","10822 North Fwy Ste 300-A","Houston,","TX","77037","US","<MISSING>","(281) 847-2424","<MISSING>","29.92194","-95.410552","Monday
11:00 AM - 10:00 PM
Tuesday
11:00 AM - 10:00 PM
Wednesday
11:00 AM - 10:00 PM
Thursday
11:00 AM - 10:00 PM
Friday
11:00 AM - 11:00 PM
Saturday
11:00 AM - 11:00 PM
Sunday
11:00 AM - 10:00 PM"
"https://www.cicis.com/","CICIS FM 1960 WEST","10922 Fm 1960 West Ste 117","Houston,","TX","77070","US","<MISSING>","(281) 955-0399","<MISSING>","29.9347672","-95.5843793","Monday
11:00 AM - 10:00 PM
Tuesday
11:00 AM - 10:00 PM
Wednesday
11:00 AM - 10:00 PM
Thursday
11:00 AM - 10:00 PM
Friday
11:00 AM - 11:00 PM
Saturday
11:00 AM - 11:00 PM
Sunday
11:00 AM - 10:00 PM"
"https://www.cicis.com/","CICIS FM 1960 RD W","111 Fm 1960 Rd W Unit A-16/A-17","Houston,","TX","77090","US","<MISSING>","(281) 397-8577","<MISSING>","30.020352133585977","-95.43044865131378","Monday
11:00 AM - 10:00 PM
Tuesday
11:00 AM - 10:00 PM
Wednesday
11:00 AM - 10:00 PM
Thursday
11:00 AM - 10:00 PM
Friday
11:00 AM - 11:00 PM
Saturday
11:00 AM - 11:00 PM
Sunday
11:00 AM - 10:00 PM"
"https://www.cicis.com/","CICIS FUQUA ST","11227 Fuqua St Suite A","Houston,","TX","77089","US","<MISSING>","(713) 947-2646","<MISSING>","29.613778128262474","-95.21981343626976","Monday
11:00 AM - 10:00 PM
Tuesday
11:00 AM - 10:00 PM
Wednesday
11:00 AM - 10:00 PM
Thursday
11:00 AM - 10:00 PM
Friday
11:00 AM - 11:00 PM
Saturday
11:00 AM - 11:00 PM
Sunday
11:00 AM - 10:00 PM"
"https://www.cicis.com/","CICIS I-10 EAST","11410 I-10 East Suite 150","Houston,","TX","77029","US","<MISSING>","(713) 455-8845","<MISSING>","29.771634","-95.230011","Monday
11:00 AM - 10:00 PM
Tuesday
11:00 AM - 10:00 PM
Wednesday
11:00 AM - 10:00 PM
Thursday
11:00 AM - 10:00 PM
Friday
11:00 AM - 11:00 PM
Saturday
11:00 AM - 11:00 PM
Sunday
11:00 AM - 10:00 PM"
"https://www.cicis.com/","CICIS EASTEX FWY","11741-A Eastex Fwy Ste 300-A","Houston,","TX","77039","US","<MISSING>","(281) 227-8111","<MISSING>","29.892279225086735","-95.31916379928595","Monday
11:00 AM - 10:00 PM
Tuesday
11:00 AM - 10:00 PM
Wednesday
11:00 AM - 10:00 PM
Thursday
11:00 AM - 10:00 PM
Friday
11:00 AM - 11:00 PM
Saturday
11:00 AM - 11:00 PM
Sunday
11:00 AM - 10:00 PM"
"https://www.cicis.com/","CICIS WILCREST DR","11803 Wilcrest Dr Ste 100","Houston,","TX","77031","US","<MISSING>","(281) 498-2525","<MISSING>","29.65102252286162","-95.56697577238083","Monday
11:00 AM - 10:00 PM
Tuesday
11:00 AM - 10:00 PM
Wednesday
11:00 AM - 10:00 PM
Thursday
11:00 AM - 10:00 PM
Friday
11:00 AM - 11:00 PM
Saturday
11:00 AM - 11:00 PM
Sunday
11:00 AM - 10:00 PM"
"https://www.cicis.com/","CICIS WESTHEIMER RD","11978-B Westheimer Rd Ste 100","Houston,","TX","77077","US","<MISSING>","(281) 920-3228","<MISSING>","29.737437","-95.5909051","Monday
11:00 AM - 10:00 PM
Tuesday
11:00 AM - 10:00 PM
Wednesday
11:00 AM - 10:00 PM
Thursday
11:00 AM - 10:00 PM
Friday
11:00 AM - 11:00 PM
Saturday
11:00 AM - 11:00 PM
Sunday
11:00 AM - 10:00 PM"
"https://www.cicis.com/","CICIS TOMBALL PARKWAY","22513 Tomball Parkway Ste 117","Houston,","TX","77070","US","<MISSING>","(281) 257-1650","<MISSING>","30.010507056508036","-95.59088364243507","Monday
11:00 AM - 10:00 PM
Tuesday
11:00 AM - 10:00 PM
Wednesday
11:00 AM - 10:00 PM
Thursday
11:00 AM - 10:00 PM
Friday
11:00 AM - 11:00 PM
Saturday
11:00 AM - 11:00 PM
Sunday
11:00 AM - 10:00 PM"
"https://www.cicis.com/","CICIS NORTH FWY","4400 North Fwy Ste 300-A","Houston,","TX","77022","US","<MISSING>","(713) 691-2444","<MISSING>","29.83281231730422","-95.38305938243872","Monday
11:00 AM - 10:00 PM
Tuesday
11:00 AM - 10:00 PM
Wednesday
11:00 AM - 10:00 PM
Thursday
11:00 AM - 10:00 PM
Friday
11:00 AM - 11:00 PM
Saturday
11:00 AM - 11:00 PM
Sunday
11:00 AM - 10:00 PM"
"https://www.cicis.com/","CICIS FM 1960 RD W","4515 Fm 1960 Road W Unit A-16/A-17","Houston,","TX","77069","US","<MISSING>","(281) 587-0299","<MISSING>","29.9862027","-95.4980623","Monday
11:00 AM - 10:00 PM
Tuesday
11:00 AM - 10:00 PM
Wednesday
11:00 AM - 10:00 PM
Thursday
11:00 AM - 10:00 PM
Friday
11:00 AM - 10:00 PM
Saturday
11:00 AM - 10:00 PM
Sunday
11:00 AM - 10:00 PM"
"https://www.cicis.com/","CICIS UVALDE RD","469 Uvalde Rd Suite 150","Houston,","TX","77015","US","<MISSING>","(713) 450-4400","<MISSING>","29.7893147","-95.1866879","Monday
11:00 AM - 10:00 PM
Tuesday
11:00 AM - 10:00 PM
Wednesday
11:00 AM - 10:00 PM
Thursday
11:00 AM - 10:00 PM
Friday
11:00 AM - 10:00 PM
Saturday
11:00 AM - 10:00 PM
Sunday
11:00 AM - 10:00 PM"
"https://www.cicis.com/","CICIS BELLAIRE BLVD","5901 Bellaire Blvd Ste 100","Houston,","TX","77081","US","<MISSING>","(713) 667-9700","<MISSING>","29.70479449213207","-95.48497393727303","Monday
11:00 AM - 10:00 PM
Tuesday
11:00 AM - 10:00 PM
Wednesday
11:00 AM - 10:00 PM
Thursday
11:00 AM - 10:00 PM
Friday
11:00 AM - 11:00 PM
Saturday
11:00 AM - 11:00 PM
Sunday
11:00 AM - 10:00 PM"
"https://www.cicis.com/","CICIS HIGHWAY 6 N","6182 Highway 6 N Suite A","Houston,","TX","77084","US","<MISSING>","(281) 856-0299","<MISSING>","29.87094070846578","-95.64484298229218","Monday
11:00 AM - 10:00 PM
Tuesday
11:00 AM - 10:00 PM
Wednesday
11:00 AM - 10:00 PM
Thursday
11:00 AM - 10:00 PM
Friday
11:00 AM - 11:00 PM
Saturday
11:00 AM - 11:00 PM
Sunday
11:00 AM - 10:00 PM"
"https://www.cicis.com/","CICIS W. TIDWELL","7444 W. Tidwell Ste 300-A","Houston,","TX","77040","US","<MISSING>","(713) 690-2229","<MISSING>","29.851802673152516","-95.50308001111262","Monday
11:00 AM - 10:00 PM
Tuesday
11:00 AM - 10:00 PM
Wednesday
11:00 AM - 10:00 PM
Thursday
11:00 AM - 10:00 PM
Friday
11:00 AM - 11:00 PM
Saturday
11:00 AM - 11:00 PM
Sunday
11:00 AM - 10:00 PM"
"https://www.cicis.com/","CICIS GULFGATE CENTER MALL","750 Gulfgate Center Mall Suite 150","Houston,","TX","77087","US","<MISSING>","(713) 923-7707","<MISSING>","29.6962506","-95.2973206","Monday
11:00 AM - 10:00 PM
Tuesday
11:00 AM - 10:00 PM
Wednesday
11:00 AM - 10:00 PM
Thursday
11:00 AM - 10:00 PM
Friday
11:00 AM - 11:00 PM
Saturday
11:00 AM - 11:00 PM
Sunday
11:00 AM - 10:00 PM"
"https://www.cicis.com/","CICIS S GESSNER RD","8000 S Gessner Rd Ste 100","Houston,","TX","77036","US","<MISSING>","(713) 771-1174","<MISSING>","29.689999553222787","-95.53597949445248","Monday
11:00 AM - 10:00 PM
Tuesday
11:00 AM - 10:00 PM
Wednesday
11:00 AM - 10:00 PM
Thursday
11:00 AM - 10:00 PM
Friday
11:00 AM - 11:00 PM
Saturday
11:00 AM - 11:00 PM
Sunday
11:00 AM - 10:00 PM"
"https://www.cicis.com/","CICIS WESTHEIMER RD","8366 Westheimer Rd Ste 100","Houston,","TX","77063","US","<MISSING>","(713) 789-0004","<MISSING>","29.73807979391967","-95.51298692822456","Monday
11:00 AM - 10:00 PM
Tuesday
11:00 AM - 10:00 PM
Wednesday
11:00 AM - 10:00 PM
Thursday
11:00 AM - 10:00 PM
Friday
11:00 AM - 11:00 PM
Saturday
11:00 AM - 11:00 PM
Sunday
11:00 AM - 10:00 PM"
"https://www.cicis.com/","CICIS N SHEPHERD DR STE 10","935 N Shepherd Dr Ste 10 Ste 300-A","Houston,","TX","77008","US","<MISSING>","(713) 868-1173","<MISSING>","29.788207558075456","-95.41084377238434","Monday
11:00 AM - 10:00 PM
Tuesday
11:00 AM - 10:00 PM
Wednesday
11:00 AM - 10:00 PM
Thursday
11:00 AM - 10:00 PM
Friday
11:00 AM - 11:00 PM
Saturday
11:00 AM - 11:00 PM
Sunday
11:00 AM - 10:00 PM"
"https://www.cicis.com/","CICIS HIGHWAY 59 N","19705 Highway 59 N","Humble,","TX","77338","US","<MISSING>","(281) 446-4442","<MISSING>","30.002571933393494","-95.27083518650818","Monday
11:00 AM - 10:00 PM
Tuesday
11:00 AM - 10:00 PM
Wednesday
11:00 AM - 10:00 PM
Thursday
11:00 AM - 10:00 PM
Friday
11:00 AM - 11:00 PM
Saturday
11:00 AM - 11:00 PM
Sunday
11:00 AM - 10:00 PM"
"https://www.cicis.com/","CICIS PRECINCT LINE RD","6120 Precinct Line Road Suite 115","Hurst,","TX","76054","US","<MISSING>","(817) 427-0123","<MISSING>","32.86043162965018","-97.18536972999573","Monday
11:00 AM - 10:00 PM
Tuesday
11:00 AM - 10:00 PM
Wednesday
11:00 AM - 10:00 PM
Thursday
11:00 AM - 10:00 PM
Friday
11:00 AM - 11:00 PM
Saturday
11:00 AM - 11:00 PM
Sunday
11:00 AM - 10:00 PM"
"https://www.cicis.com/","CICIS TO GO N O CONNOR RD","2301 N O Connor Rd Ste C","Irving,","TX","75062","US","<MISSING>","(214) 441-3086","<MISSING>","32.839464600588805","-96.95210538804531","Monday
11:00 AM - 9:00 PM
Tuesday
11:00 AM - 9:00 PM
Wednesday
11:00 AM - 9:00 PM
Thursday
11:00 AM - 9:00 PM
Friday
11:00 AM - 10:00 PM
Saturday
11:00 AM - 10:00 PM
Sunday
11:00 AM - 9:00 PM"
"https://www.cicis.com/","CICIS W. SHADY GROVE","2304 W. Shady Grove Ste C","Irving,","TX","75060","US","<MISSING>","(972) 313-7726","<MISSING>","32.799444506054144","-96.97602063417435","Monday
11:00 AM - 10:00 PM
Tuesday
11:00 AM - 10:00 PM
Wednesday
11:00 AM - 10:00 PM
Thursday
11:00 AM - 10:00 PM
Friday
11:00 AM - 11:00 PM
Saturday
11:00 AM - 11:00 PM
Sunday
11:00 AM - 10:00 PM"
"https://www.cicis.com/","CICIS N BELT LINE RD","3435 N. Belt Line Road Suite 114","Irving,","TX","75062","US","<MISSING>","(972) 570-4226","<MISSING>","32.8532413","-96.9939747","Monday
11:00 AM - 10:00 PM
Tuesday
11:00 AM - 10:00 PM
Wednesday
11:00 AM - 10:00 PM
Thursday
11:00 AM - 10:00 PM
Friday
11:00 AM - 11:00 PM
Saturday
11:00 AM - 11:00 PM
Sunday
11:00 AM - 10:00 PM"
"https://www.cicis.com/","CICIS TO GO B S. BROADWAY","443 B S. Broadway Suite E","Joshua,","TX","76058","US","<MISSING>","(817) 774-3400","<MISSING>","32.4576436241729","-97.38378345966339","Monday
11:00 AM - 10:00 PM
Tuesday
11:00 AM - 10:00 PM
Wednesday
11:00 AM - 10:00 PM
Thursday
11:00 AM - 10:00 PM
Friday
11:00 AM - 10:30 PM
Saturday
11:00 AM - 10:30 PM
Sunday
11:00 AM - 10:00 PM"
"https://www.cicis.com/","CICIS PIN OAK RD","1251 Pin Oak Rd Ste 101","Katy,","TX","77494","US","<MISSING>","(281) 693-7992","<MISSING>","29.77246343139985","-95.81763356924057","Monday
11:00 AM - 10:00 PM
Tuesday
11:00 AM - 10:00 PM
Wednesday
11:00 AM - 10:00 PM
Thursday
11:00 AM - 10:00 PM
Friday
11:00 AM - 10:00 PM
Saturday
11:00 AM - 10:00 PM
Sunday
11:00 AM - 10:00 PM"
"https://www.cicis.com/","CICIS KATY FWY","21931 Katy Fwy Suite A","Katy,","TX","77450","US","<MISSING>","(281) 492-2227","<MISSING>","29.782462416726855","-95.75256921350956","Monday
11:00 AM - 10:00 PM
Tuesday
11:00 AM - 10:00 PM
Wednesday
11:00 AM - 10:00 PM
Thursday
11:00 AM - 10:00 PM
Friday
11:00 AM - 10:00 PM
Saturday
11:00 AM - 10:00 PM
Sunday
11:00 AM - 10:00 PM"
"https://www.cicis.com/","CICIS N FRY RD","3154 N. Fry Road Suite A","Katy,","TX","77449","US","<MISSING>","(281) 579-1223","<MISSING>","29.81645615076787","-95.71965783834457","Monday
11:00 AM - 10:00 PM
Tuesday
11:00 AM - 10:00 PM
Wednesday
11:00 AM - 10:00 PM
Thursday
11:00 AM - 10:00 PM
Friday
11:00 AM - 10:00 PM
Saturday
11:00 AM - 10:00 PM
Sunday
11:00 AM - 10:00 PM"
"https://www.cicis.com/","CICIS JUNCTION HWY","1304 Junction Hwy Ste 200","Kerrville,","TX","78028","US","<MISSING>","(830) 895-1339","<MISSING>","30.063127031506966","-99.16950300335884","Monday
11:00 AM - 9:00 PM
Tuesday
11:00 AM - 9:00 PM
Wednesday
11:00 AM - 9:00 PM
Thursday
11:00 AM - 9:00 PM
Friday
11:00 AM - 9:00 PM
Saturday
11:00 AM - 9:00 PM
Sunday
11:00 AM - 9:00 PM"
"https://www.cicis.com/","CICIS S. FORT HOOD STREET","832 S Fort Hood St Ste 350","Killeen,","TX","76541","US","<MISSING>","(254) 242-3400","<MISSING>","31.113032973268794","-97.74543173611164","Monday
11:00 AM - 10:00 PM
Tuesday
11:00 AM - 10:00 PM
Wednesday
11:00 AM - 10:00 PM
Thursday
11:00 AM - 10:00 PM
Friday
11:00 AM - 11:00 PM
Saturday
11:00 AM - 11:00 PM
Sunday
11:00 AM - 10:00 PM"
"https://www.cicis.com/","CICIS KYLE PKWY","5695 Kyle Pkwy Suite 400","Kyle,","TX","78640","US","<MISSING>","(512) 268-1919","<MISSING>","30.01230706693353","-97.85826355218887","Monday
11:00 AM - 9:30 PM
Tuesday
11:00 AM - 9:30 PM
Wednesday
11:00 AM - 9:30 PM
Thursday
11:00 AM - 9:30 PM
Friday
11:00 AM - 10:00 PM
Saturday
11:00 AM - 10:00 PM
Sunday
11:00 AM - 9:30 PM"
"https://www.cicis.com/","CICIS HIGHWAY 332 W","120 Highway 332 W Ste A-2","Lake Jackson,","TX","77566","US","<MISSING>","(979) 299-6969","<MISSING>","29.04891514093909","-95.46274781227112","Monday
11:00 AM - 10:00 PM
Tuesday
11:00 AM - 10:00 PM
Wednesday
11:00 AM - 10:00 PM
Thursday
11:00 AM - 10:00 PM
Friday
11:00 AM - 11:00 PM
Saturday
11:00 AM - 11:00 PM
Sunday
11:00 AM - 10:00 PM"
"https://www.cicis.com/","CICIS W PLEASANT RUN RD","3250 W Pleasant Run Rd Ste 140","Lancaster,","TX","75146","US","<MISSING>","(972) 274-0555","<MISSING>","32.60376598095592","-96.82002387851833","Monday
11:00 AM - 10:00 PM
Tuesday
11:00 AM - 10:00 PM
Wednesday
11:00 AM - 10:00 PM
Thursday
11:00 AM - 10:00 PM
Friday
11:00 AM - 11:00 PM
Saturday
11:00 AM - 11:00 PM
Sunday
11:00 AM - 10:00 PM"
"https://www.cicis.com/","CICIS SAN DARIO AVE","5504 San Bernardo Avenue","Laredo,","TX","78041","US","<MISSING>","(956) 712-8646","<MISSING>","27.5508912","-99.5049138","Monday
11:00 AM - 10:00 PM
Tuesday
11:00 AM - 10:00 PM
Wednesday
11:00 AM - 10:00 PM
Thursday
11:00 AM - 10:00 PM
Friday
11:00 AM - 10:30 PM
Saturday
11:00 AM - 10:30 PM
Sunday
11:00 AM - 10:00 PM"
"https://www.cicis.com/","CICIS GULF FWY S","2980 Gulf Fwy S Ste A","League City,","TX","77573","US","<MISSING>","(281) 337-2424","<MISSING>","29.468137847556232","-95.08946813642979","Monday
11:00 AM - 10:00 PM
Tuesday
11:00 AM - 10:00 PM
Wednesday
11:00 AM - 10:00 PM
Thursday
11:00 AM - 10:00 PM
Friday
11:00 AM - 10:00 PM
Saturday
11:00 AM - 10:00 PM
Sunday
11:00 AM - 10:00 PM"
"https://www.cicis.com/","CICIS W MAIN ST","724 W. Main Street Suite 400","Lewisville,","TX","75067","US","<MISSING>","(972) 221-5187","<MISSING>","33.04468492273848","-97.01291039586067","Monday
11:00 AM - 10:00 PM
Tuesday
11:00 AM - 10:00 PM
Wednesday
11:00 AM - 10:00 PM
Thursday
11:00 AM - 10:00 PM
Friday
11:00 AM - 11:00 PM
Saturday
11:00 AM - 11:00 PM
Sunday
11:00 AM - 10:00 PM"
"https://www.cicis.com/","CICIS E ELDORADO PKWY","2700 East Eldorado Parkway Suite 402","Little Elm,","TX","75068","US","<MISSING>","(469) 362-4449","<MISSING>","33.1759354","-96.8883673","Monday
11:00 AM - 10:00 PM
Tuesday
11:00 AM - 10:00 PM
Wednesday
11:00 AM - 10:00 PM
Thursday
11:00 AM - 10:00 PM
Friday
11:00 AM - 10:00 PM
Saturday
11:00 AM - 10:00 PM
Sunday
11:00 AM - 10:00 PM"
"https://www.cicis.com/","CICIS JUDSON RD","2503 Judson Rd Ste 900A","Longview,","TX","75605","US","<MISSING>","(903) 236-6804","<MISSING>","32.538938","-94.746033","Monday
11:00 AM - 10:00 PM
Tuesday
11:00 AM - 10:00 PM
Wednesday
11:00 AM - 10:00 PM
Thursday
11:00 AM - 10:00 PM
Friday
11:00 AM - 11:00 PM
Saturday
11:00 AM - 11:00 PM
Sunday
11:00 AM - 10:00 PM"
"https://www.cicis.com/","CICIS 60TH ST","5102 60Th St Ste E","Lubbock,","TX","79414","US","<MISSING>","(806) 788-1010","<MISSING>","33.54025990720395","-101.92137032747269","Monday
11:00 AM - 10:00 PM
Tuesday
11:00 AM - 10:00 PM
Wednesday
11:00 AM - 10:00 PM
Thursday
11:00 AM - 10:00 PM
Friday
11:00 AM - 11:00 PM
Saturday
11:00 AM - 11:00 PM
Sunday
11:00 AM - 10:00 PM"
"https://www.cicis.com/","CICIS S JOHN REDDITT DR","3053 S John Redditt Dr Ste. 19","Lufkin,","TX","75904","US","<MISSING>","(936) 634-2424","<MISSING>","31.310583421106205","-94.72885251045227","Monday
11:00 AM - 10:00 PM
Tuesday
11:00 AM - 10:00 PM
Wednesday
11:00 AM - 10:00 PM
Thursday
11:00 AM - 10:00 PM
Friday
11:00 AM - 11:00 PM
Saturday
11:00 AM - 11:00 PM
Sunday
11:00 AM - 10:00 PM"
"https://www.cicis.com/","CICIS N. WALNUT CREEK","960 N. Walnut Creek Drive Suite 100","Mansfield,","TX","76063","US","<MISSING>","(817) 473-8880","<MISSING>","32.578341437353814","-97.13152170181274","Monday
11:00 AM - 10:00 PM
Tuesday
11:00 AM - 10:00 PM
Wednesday
11:00 AM - 10:00 PM
Thursday
11:00 AM - 10:00 PM
Friday
11:00 AM - 11:00 PM
Saturday
11:00 AM - 11:00 PM
Sunday
11:00 AM - 10:00 PM"
"https://www.cicis.com/","CICIS E END BLVD N","900 E End Blvd N Ste 900A","Marshall,","TX","75670","US","<MISSING>","(903) 935-7788","<MISSING>","32.552596558450134","-94.34922203421593","Monday
11:00 AM - 10:00 PM
Tuesday
11:00 AM - 10:00 PM
Wednesday
11:00 AM - 10:00 PM
Thursday
11:00 AM - 10:00 PM
Friday
11:00 AM - 11:00 PM
Saturday
11:00 AM - 11:00 PM
Sunday
11:00 AM - 10:00 PM"
"https://www.cicis.com/","CICIS TRENTON ROAD","601 Trenton Road Suite E","Mcallen,","TX","78504","US","<MISSING>","(956) 664-2299","<MISSING>","26.2668979","-98.2150911","Monday
11:00 AM - 10:00 PM
Tuesday
11:00 AM - 10:00 PM
Wednesday
11:00 AM - 10:00 PM
Thursday
11:00 AM - 10:00 PM
Friday
11:00 AM - 11:00 PM
Saturday
11:00 AM - 11:00 PM
Sunday
11:00 AM - 10:00 PM"
"https://www.cicis.com/","CICIS N CENTRAL EXPY","320 N Central Expy Suite 400","Mckinney,","TX","75070","US","<MISSING>","(972) 540-2442","<MISSING>","33.2005517727804","-96.63792550563812","Monday
11:00 AM - 10:00 PM
Tuesday
11:00 AM - 10:00 PM
Wednesday
11:00 AM - 10:00 PM
Thursday
11:00 AM - 10:00 PM
Friday
11:00 AM - 10:00 PM
Saturday
11:00 AM - 10:00 PM
Sunday
11:00 AM - 10:00 PM"
"https://www.cicis.com/","CICIS E DAVIS ST","1200 E. Davis Street Suite 122","Mesquite,","TX","75149","US","<MISSING>","(972) 216-0099","<MISSING>","32.7636919338984","-96.5842249989509","Monday
11:00 AM - 10:00 PM
Tuesday
11:00 AM - 10:00 PM
Wednesday
11:00 AM - 10:00 PM
Thursday
11:00 AM - 10:00 PM
Friday
11:00 AM - 11:00 PM
Saturday
11:00 AM - 11:00 PM
Sunday
11:00 AM - 10:00 PM"
"https://www.cicis.com/","CICIS TOWN EAST MALL","1220 N E Town Blvd Suite 246","Mesquite,","TX","75150","US","<MISSING>","(972) 686-1700","<MISSING>","32.81015031869939","-96.61162844907375","Monday
11:00 AM - 10:00 PM
Tuesday
11:00 AM - 10:00 PM
Wednesday
11:00 AM - 10:00 PM
Thursday
11:00 AM - 10:00 PM
Friday
11:00 AM - 11:00 PM
Saturday
11:00 AM - 11:00 PM
Sunday
11:00 AM - 10:00 PM"
"https://www.cicis.com/","CICIS RANKIN HWY","2106 Rankin Hwy","Midland,","TX","79701","US","<MISSING>","(432) 685-3020","<MISSING>","31.975964697789415","-102.07623437047005","Monday
11:00 AM - 10:00 PM
Tuesday
11:00 AM - 10:00 PM
Wednesday
11:00 AM - 10:00 PM
Thursday
11:00 AM - 10:00 PM
Friday
11:00 AM - 10:00 PM
Saturday
11:00 AM - 10:00 PM
Sunday
11:00 AM - 10:00 PM"
"https://www.cicis.com/","CICIS E EXPRESSWAY 83","2521 E. Expressway 83 Ste. 140","Mission,","TX","78572","US","<MISSING>","(956) 600-7719","<MISSING>","26.196471130375173","-98.28055456280714","Monday
11:00 AM - 10:00 PM
Tuesday
11:00 AM - 10:00 PM
Wednesday
11:00 AM - 10:00 PM
Thursday
11:00 AM - 10:00 PM
Friday
11:00 AM - 11:00 PM
Saturday
11:00 AM - 11:00 PM
Sunday
11:00 AM - 10:00 PM"
"https://www.cicis.com/","CICIS S JEFFERSON AVE","666 S Jefferson Ave 17A","Mount Pleasant,","TX","75455","US","<MISSING>","(903) 572-1414","<MISSING>","33.1493530037337","-94.97084945440292","Monday
11:00 AM - 10:00 PM
Tuesday
11:00 AM - 10:00 PM
Wednesday
11:00 AM - 10:00 PM
Thursday
11:00 AM - 10:00 PM
Friday
11:00 AM - 11:00 PM
Saturday
11:00 AM - 11:00 PM
Sunday
11:00 AM - 10:00 PM"
"https://www.cicis.com/","CICIS NORTH ST","3801 North St Ste. 19","Nacogdoches,","TX","75965","US","<MISSING>","(936) 560-3000","<MISSING>","31.639982620856433","-94.65443596243858","Monday
11:00 AM - 10:00 PM
Tuesday
11:00 AM - 10:00 PM
Wednesday
11:00 AM - 10:00 PM
Thursday
11:00 AM - 10:00 PM
Friday
11:00 AM - 11:00 PM
Saturday
11:00 AM - 11:00 PM
Sunday
11:00 AM - 10:00 PM"
"https://www.cicis.com/","CICIS IH-35","121 Ih-35 Ste 22A","New Braunfels,","TX","78130","US","<MISSING>","(830) 629-2424","<MISSING>","29.689207","-98.109373","Monday
11:00 AM - 10:00 PM
Tuesday
11:00 AM - 10:00 PM
Wednesday
11:00 AM - 10:00 PM
Thursday
11:00 AM - 10:00 PM
Friday
11:00 AM - 10:00 PM
Saturday
11:00 AM - 10:00 PM
Sunday
11:00 AM - 10:00 PM"
"https://www.cicis.com/","CICIS RUFE SNOW DR","5300 Rufe Snow Dr Suite 117","North Richland Hills,","TX","76180","US","<MISSING>","(817) 485-4647","<MISSING>","32.845890434243444","-97.238190472126","Monday
11:00 AM - 10:00 PM
Tuesday
11:00 AM - 10:00 PM
Wednesday
11:00 AM - 10:00 PM
Thursday
11:00 AM - 10:00 PM
Friday
11:00 AM - 10:30 PM
Saturday
11:00 AM - 10:30 PM
Sunday
11:00 AM - 10:00 PM"
"https://www.cicis.com/","CICIS E 8TH ST","1435 E 8Th St","Odessa,","TX","79761","US","<MISSING>","(432) 332-3010","<MISSING>","31.860081667424584","-102.35399186611176","Monday
11:00 AM - 10:00 PM
Tuesday
11:00 AM - 10:00 PM
Wednesday
11:00 AM - 10:00 PM
Thursday
11:00 AM - 10:00 PM
Friday
11:00 AM - 10:00 PM
Saturday
11:00 AM - 10:00 PM
Sunday
11:00 AM - 10:00 PM"
"https://www.cicis.com/","CICIS PALMHURST","4415 N. Conway Avenue Ste. 140","Palmhurst,","TX","78573","US","<MISSING>","(956) 599-9815","<MISSING>","26.26084767102868","-98.31891350013882","Monday
11:00 AM - 9:00 PM
Tuesday
11:00 AM - 9:00 PM
Wednesday
11:00 AM - 9:00 PM
Thursday
11:00 AM - 9:00 PM
Friday
11:00 AM - 10:00 PM
Saturday
11:00 AM - 10:00 PM
Sunday
11:00 AM - 9:00 PM"
"https://www.cicis.com/","CICIS SHAVER ST","1240 Shaver St Suite A","Pasadena,","TX","77506","US","<MISSING>","(713) 472-2424","<MISSING>","29.691255460216453","-95.21214365959162","Monday
11:00 AM - 10:00 PM
Tuesday
11:00 AM - 10:00 PM
Wednesday
11:00 AM - 10:00 PM
Thursday
11:00 AM - 10:00 PM
Friday
11:00 AM - 11:00 PM
Saturday
11:00 AM - 11:00 PM
Sunday
11:00 AM - 10:00 PM"
"https://www.cicis.com/","CICIS SPENCER HWY","3421 Spencer Hwy. Suite A","Pasadena,","TX","77504","US","<MISSING>","(713) 941-3333","<MISSING>","29.665827859389413","-95.19078254699707","Monday
11:00 AM - 10:00 PM
Tuesday
11:00 AM - 10:00 PM
Wednesday
11:00 AM - 10:00 PM
Thursday
11:00 AM - 10:00 PM
Friday
11:00 AM - 11:00 PM
Saturday
11:00 AM - 11:00 PM
Sunday
11:00 AM - 10:00 PM"
"https://www.cicis.com/","CICIS SPENCER HWY","7438 Spencer Hwy Ste A","Pasadena,","TX","77505","US","<MISSING>","(281) 930-8400","<MISSING>","29.662164021155416","-95.12335985898972","Monday
11:00 AM - 10:00 PM
Tuesday
11:00 AM - 10:00 PM
Wednesday
11:00 AM - 10:00 PM
Thursday
11:00 AM - 10:00 PM
Friday
11:00 AM - 11:00 PM
Saturday
11:00 AM - 11:00 PM
Sunday
11:00 AM - 10:00 PM"
"https://www.cicis.com/","CICIS BROADWAY ST","1635 Broadway St Ste 101","Pearland,","TX","77581","US","<MISSING>","(281) 482-0784","<MISSING>","29.548336900286618","-95.23247212171555","Monday
11:00 AM - 10:00 PM
Tuesday
11:00 AM - 10:00 PM
Wednesday
11:00 AM - 10:00 PM
Thursday
11:00 AM - 10:00 PM
Friday
11:00 AM - 11:00 PM
Saturday
11:00 AM - 11:00 PM
Sunday
11:00 AM - 10:00 PM"
"https://www.cicis.com/","CICIS N MURPHY RD","104 N Murphy Rd Unit 216","Plano,","TX","75094","US","<MISSING>","(214) 501-2546","<MISSING>","33.01354877119789","-96.61172702908522","Monday
11:00 AM - 10:00 PM
Tuesday
11:00 AM - 10:00 PM
Wednesday
11:00 AM - 10:00 PM
Thursday
11:00 AM - 10:00 PM
Friday
11:00 AM - 11:00 PM
Saturday
11:00 AM - 11:00 PM
Sunday
11:00 AM - 10:00 PM"
"https://www.cicis.com/","CICIS COIT RD","2220 Coit Rd Suite 300","Plano,","TX","75075","US","<MISSING>","(972) 964-0061","<MISSING>","33.0284012","-96.7688235","Monday
11:00 AM - 10:00 PM
Tuesday
11:00 AM - 10:00 PM
Wednesday
11:00 AM - 10:00 PM
Thursday
11:00 AM - 10:00 PM
Friday
11:00 AM - 11:00 PM
Saturday
11:00 AM - 11:00 PM
Sunday
11:00 AM - 10:00 PM"
"https://www.cicis.com/","CICIS W SPRING CREEK PKWY","832 W Spring Creek Pkwy Ste 500","Plano,","TX","75023","US","<MISSING>","(972) 509-5522","<MISSING>","33.055316727003664","-96.70890882611275","Monday
11:00 AM - 10:00 PM
Tuesday
11:00 AM - 10:00 PM
Wednesday
11:00 AM - 10:00 PM
Thursday
11:00 AM - 10:00 PM
Friday
11:00 AM - 11:00 PM
Saturday
11:00 AM - 11:00 PM
Sunday
11:00 AM - 10:00 PM"
"https://www.cicis.com/","CICIS HIGHWAY 59","23741 Highway 59","Porter,","TX","77365","US","<MISSING>","(281) 354-3901","<MISSING>","30.10160690262274","-95.23537024855614","Monday
11:00 AM - 10:00 PM
Tuesday
11:00 AM - 10:00 PM
Wednesday
11:00 AM - 10:00 PM
Thursday
11:00 AM - 10:00 PM
Friday
11:00 AM - 11:00 PM
Saturday
11:00 AM - 11:00 PM
Sunday
11:00 AM - 10:00 PM"
"https://www.cicis.com/","CICIS W CAMPBELL RD","635 W. Campbell Road Suite 300","Richardson,","TX","75080","US","<MISSING>","(972) 437-3482","<MISSING>","32.97765955771669","-96.74153205428411","Monday
11:00 AM - 10:00 PM
Tuesday
11:00 AM - 10:00 PM
Wednesday
11:00 AM - 10:00 PM
Thursday
11:00 AM - 10:00 PM
Friday
11:00 AM - 10:00 PM
Saturday
11:00 AM - 10:00 PM
Sunday
11:00 AM - 10:00 PM"
"https://www.cicis.com/","CICIS E. IH 30","479 E. Ih 30 Suite 300","Rockwall,","TX","75087","US","<MISSING>","(972) 771-4400","<MISSING>","32.893828933133996","-96.47193498909473","Monday
11:00 AM - 10:00 PM
Tuesday
11:00 AM - 10:00 PM
Wednesday
11:00 AM - 10:00 PM
Thursday
11:00 AM - 10:00 PM
Friday
11:00 AM - 11:00 PM
Saturday
11:00 AM - 11:00 PM
Sunday
11:00 AM - 10:00 PM"
"https://www.cicis.com/","CICIS AVENUE H","5145 Avenue H Ste 101","Rosenberg,","TX","77471","US","<MISSING>","(281) 239-8800","<MISSING>","29.572841217049785","-95.77506422996521","Monday
11:00 AM - 10:00 PM
Tuesday
11:00 AM - 10:00 PM
Wednesday
11:00 AM - 10:00 PM
Thursday
11:00 AM - 10:00 PM
Friday
11:00 AM - 11:00 PM
Saturday
11:00 AM - 11:00 PM
Sunday
11:00 AM - 10:00 PM"
"https://www.cicis.com/","CICIS S I H 35","1601 S I H 35 Ste 350","Round Rock,","TX","78664","US","<MISSING>","(512) 388-7844","<MISSING>","30.4947098","-97.6766699","Monday
11:00 AM - 10:00 PM
Tuesday
11:00 AM - 10:00 PM
Wednesday
11:00 AM - 10:00 PM
Thursday
11:00 AM - 10:00 PM
Friday
11:00 AM - 10:00 PM
Saturday
11:00 AM - 10:00 PM
Sunday
11:00 AM - 10:00 PM"
"https://www.cicis.com/","CICIS LAKEVIEW PKWY","3520 Lakeview Pkwy Suite 300","Rowlett,","TX","75088","US","<MISSING>","(972) 463-4444","<MISSING>","32.906176845909314","-96.56778573989868","Monday
11:00 AM - 10:00 PM
Tuesday
11:00 AM - 10:00 PM
Wednesday
11:00 AM - 10:00 PM
Thursday
11:00 AM - 10:00 PM
Friday
11:00 AM - 11:00 PM
Saturday
11:00 AM - 11:00 PM
Sunday
11:00 AM - 10:00 PM"
"https://www.cicis.com/","CICIS SUNSET DR","4415 Sunset Drive","San Angelo,","TX","76901","US","<MISSING>","(325) 947-8040","<MISSING>","31.435400814686723","-100.50329446792603","Monday
11:00 AM - 9:00 PM
Tuesday
11:00 AM - 9:00 PM
Wednesday
11:00 AM - 9:00 PM
Thursday
11:00 AM - 9:00 PM
Friday
11:00 AM - 9:00 PM
Saturday
11:00 AM - 9:00 PM
Sunday
11:00 AM - 9:00 PM"
"https://www.cicis.com/","CICIS IH 10 WEST","12822 Ih 10 West Bldg. 2, Suite 201","San Antonio,","TX","78249","US","<MISSING>","(210) 558-1006","<MISSING>","29.564616","-98.592972","Monday
11:00 AM - 10:00 PM
Tuesday
11:00 AM - 10:00 PM
Wednesday
11:00 AM - 10:00 PM
Thursday
11:00 AM - 10:00 PM
Friday
11:00 AM - 10:00 PM
Saturday
11:00 AM - 10:00 PM
Sunday
11:00 AM - 10:00 PM"
"https://www.cicis.com/","CICIS AUSTIN HWY","1455 Austin Hwy Ste 110","San Antonio,","TX","78209","US","<MISSING>","(210) 930-6666","<MISSING>","29.4937215149573","-98.43567408621311","Monday
11:00 AM - 9:00 PM
Tuesday
11:00 AM - 9:00 PM
Wednesday
11:00 AM - 9:00 PM
Thursday
11:00 AM - 9:00 PM
Friday
11:00 AM - 9:00 PM
Saturday
11:00 AM - 9:00 PM
Sunday
11:00 AM - 9:00 PM"
"https://www.cicis.com/","CICIS SW MILITARY DR","2335 Sw Military Dr Ste 155","San Antonio,","TX","78224","US","<MISSING>","(210) 932-9189","<MISSING>","29.35711150156941","-98.5312157124281","Monday
11:00 AM - 10:00 PM
Tuesday
11:00 AM - 10:00 PM
Wednesday
11:00 AM - 10:00 PM
Thursday
11:00 AM - 10:00 PM
Friday
11:00 AM - 10:00 PM
Saturday
11:00 AM - 10:00 PM
Sunday
11:00 AM - 10:00 PM"
"https://www.cicis.com/","CICIS W LOOP 1604 N","6511 W Loop 1604 N Suite 107","San Antonio,","TX","78254","US","<MISSING>","(210) 688-2370","<MISSING>","29.4980105","-98.7052387","Monday
11:00 AM - 9:30 PM
Tuesday
11:00 AM - 9:30 PM
Wednesday
11:00 AM - 9:30 PM
Thursday
11:00 AM - 9:30 PM
Friday
11:00 AM - 10:00 PM
Saturday
11:00 AM - 10:00 PM
Sunday
11:00 AM - 9:30 PM"
"https://www.cicis.com/","CICIS SAN PEDRO AVE","6900 San Pedro Ave Ste 155","San Antonio,","TX","78216","US","<MISSING>","(210) 821-1135","<MISSING>","29.507075102212553","-98.49838976981118","Monday
11:00 AM - 9:00 PM
Tuesday
11:00 AM - 9:00 PM
Wednesday
11:00 AM - 9:00 PM
Thursday
11:00 AM - 9:00 PM
Friday
11:00 AM - 10:00 PM
Saturday
11:00 AM - 10:00 PM
Sunday
11:00 AM - 9:00 PM"
"https://www.cicis.com/","CICIS BANDERA RD","7084 Bandera Rd Suite 107","San Antonio,","TX","78238","US","<MISSING>","(210) 520-0299","<MISSING>","29.5006028","-98.6263449","Monday
11:00 AM - 9:30 PM
Tuesday
11:00 AM - 9:30 PM
Wednesday
11:00 AM - 9:30 PM
Thursday
11:00 AM - 9:30 PM
Friday
11:00 AM - 10:00 PM
Saturday
11:00 AM - 10:00 PM
Sunday
11:00 AM - 9:30 PM"
"https://www.cicis.com/","CICIS SAN MARCOS","1101 Thorpe Lane Suite 107","San Marcos,","TX","78666","US","<MISSING>","(512) 667-6688","<MISSING>","29.887317466839754","-97.92461247792721","Monday
11:00 AM - 10:00 PM
Tuesday
11:00 AM - 10:00 PM
Wednesday
11:00 AM - 10:00 PM
Thursday
11:00 AM - 10:00 PM
Friday
11:00 AM - 10:00 PM
Saturday
11:00 AM - 10:00 PM
Sunday
11:00 AM - 10:00 PM"
"https://www.cicis.com/","CICIS AGORA PKWY","8327 Agora Pkwy Ste 115","Selma,","TX","78154","US","<MISSING>","(210) 658-6100","<MISSING>","29.572785229957347","-98.32474999129772","Monday
11:00 AM - 9:00 PM
Tuesday
11:00 AM - 9:00 PM
Wednesday
11:00 AM - 9:00 PM
Thursday
11:00 AM - 9:00 PM
Friday
11:00 AM - 10:00 PM
Saturday
11:00 AM - 10:00 PM
Sunday
11:00 AM - 9:00 PM"
"https://www.cicis.com/","CICIS N GRAND AVE","1900 N. Grand Avenue Suite 106","Sherman,","TX","75090","US","<MISSING>","(903) 870-0222","<MISSING>","33.6560586","-96.6022369","Monday
11:00 AM - 10:00 PM
Tuesday
11:00 AM - 10:00 PM
Wednesday
11:00 AM - 10:00 PM
Thursday
11:00 AM - 10:00 PM
Friday
11:00 AM - 11:00 PM
Saturday
11:00 AM - 11:00 PM
Sunday
11:00 AM - 10:00 PM"
"https://www.cicis.com/","CICIS SAWDUST RD","315 Sawdust Rd Unit A-16/A-17","Spring,","TX","77380","US","<MISSING>","(281) 292-2424","<MISSING>","30.1256618","-95.4465369","Monday
11:00 AM - 10:00 PM
Tuesday
11:00 AM - 10:00 PM
Wednesday
11:00 AM - 10:00 PM
Thursday
11:00 AM - 10:00 PM
Friday
11:00 AM - 10:00 PM
Saturday
11:00 AM - 10:00 PM
Sunday
11:00 AM - 10:00 PM"
"https://www.cicis.com/","CICIS W WASHINGTON ST","2900 W Washington St Ste 135","Stephenville,","TX","76401","US","<MISSING>","(254) 968-3600","<MISSING>","32.20148085799211","-98.24342608451843","Monday
11:00 AM - 10:00 PM
Tuesday
11:00 AM - 10:00 PM
Wednesday
11:00 AM - 10:00 PM
Thursday
11:00 AM - 10:00 PM
Friday
11:00 AM - 10:00 PM
Saturday
11:00 AM - 10:00 PM
Sunday
11:00 AM - 10:00 PM"
"https://www.cicis.com/","CICIS HIGHWAY 6","4127 Highway 6 Ste 100","Sugar Land,","TX","77478","US","<MISSING>","(281) 265-0099","<MISSING>","29.58650113960027","-95.58960825204855","Monday
11:00 AM - 10:00 PM
Tuesday
11:00 AM - 10:00 PM
Wednesday
11:00 AM - 10:00 PM
Thursday
11:00 AM - 10:00 PM
Friday
11:00 AM - 11:00 PM
Saturday
11:00 AM - 11:00 PM
Sunday
11:00 AM - 10:00 PM"
"https://www.cicis.com/","CICIS AZALEA DR","1617 Azalea Dr Ste 4","Temple,","TX","76502","US","<MISSING>","(254) 771-2424","<MISSING>","31.06878191088057","-97.37085990607738","Monday
11:00 AM - 10:00 PM
Tuesday
11:00 AM - 10:00 PM
Wednesday
11:00 AM - 10:00 PM
Thursday
11:00 AM - 10:00 PM
Friday
11:00 AM - 10:00 PM
Saturday
11:00 AM - 10:00 PM
Sunday
11:00 AM - 10:00 PM"
"https://www.cicis.com/","CICIS W MOORE AVE","1896 W Moore Ave Suite 110","Terrell,","TX","75160","US","<MISSING>","(972) 551-2222","<MISSING>","32.73782102519079","-96.3059552013874","Monday
11:00 AM - 10:00 PM
Tuesday
11:00 AM - 10:00 PM
Wednesday
11:00 AM - 10:00 PM
Thursday
11:00 AM - 10:00 PM
Friday
11:00 AM - 11:00 PM
Saturday
11:00 AM - 11:00 PM
Sunday
11:00 AM - 10:00 PM"
"https://www.cicis.com/","CICIS RICHMOND RD","2535 Richmond Rd","Texarkana,","TX","75503","US","<MISSING>","(903) 223-9000","<MISSING>","33.4575657","-94.0893665","Monday
11:00 AM - 9:00 PM
Tuesday
11:00 AM - 9:00 PM
Wednesday
11:00 AM - 9:00 PM
Thursday
11:00 AM - 9:00 PM
Friday
11:00 AM - 10:00 PM
Saturday
11:00 AM - 10:00 PM
Sunday
11:00 AM - 9:00 PM"
"https://www.cicis.com/","CICIS PALMER HWY","3506 Palmer Hwy Ste A","Texas City,","TX","77590","US","<MISSING>","(409) 945-2021","<MISSING>","29.396290705690088","-94.95032519102097","Monday
11:00 AM - 10:00 PM
Tuesday
11:00 AM - 10:00 PM
Wednesday
11:00 AM - 10:00 PM
Thursday
11:00 AM - 10:00 PM
Friday
11:00 AM - 11:00 PM
Saturday
11:00 AM - 11:00 PM
Sunday
11:00 AM - 10:00 PM"
"https://www.cicis.com/","CICIS MAIN ST","3805 Main St Ste 108","The Colony,","TX","75056","US","<MISSING>","(214) 407-7295","<MISSING>","33.0690722","-96.8917602","Monday
11:00 AM - 10:00 PM
Tuesday
11:00 AM - 10:00 PM
Wednesday
11:00 AM - 10:00 PM
Thursday
11:00 AM - 10:00 PM
Friday
11:00 AM - 11:00 PM
Saturday
11:00 AM - 11:00 PM
Sunday
11:00 AM - 10:00 PM"
"https://www.cicis.com/","CICIS TOMBALL PKWY","28145A Tomball Pkwy Ste 117","Tomball,","TX","77375","US","<MISSING>","(281) 255-4244","<MISSING>","30.083825791883154","-95.63218429684639","Monday
11:00 AM - 10:00 PM
Tuesday
11:00 AM - 10:00 PM
Wednesday
11:00 AM - 10:00 PM
Thursday
11:00 AM - 10:00 PM
Friday
11:00 AM - 10:00 PM
Saturday
11:00 AM - 10:00 PM
Sunday
11:00 AM - 10:00 PM"
"https://www.cicis.com/","CICIS E. SOUTHEAST LOOP 323","1938 E. Southeast Loop 323","Tyler,","TX","75701","US","<MISSING>","(903) 533-9494","<MISSING>","32.31191863519506","-95.27587160468096","Monday
11:00 AM - 10:00 PM
Tuesday
11:00 AM - 10:00 PM
Wednesday
11:00 AM - 10:00 PM
Thursday
11:00 AM - 10:00 PM
Friday
11:00 AM - 11:00 PM
Saturday
11:00 AM - 11:00 PM
Sunday
11:00 AM - 10:00 PM"
"https://www.cicis.com/","CICIS N NORTHWEST LOOP 323","211 N Northwest Loop 323","Tyler,","TX","75702","US","<MISSING>","(903) 526-9494","<MISSING>","32.355486424738174","-95.34273840487003","Monday
11:00 AM - 10:00 PM
Tuesday
11:00 AM - 10:00 PM
Wednesday
11:00 AM - 10:00 PM
Thursday
11:00 AM - 10:00 PM
Friday
11:00 AM - 11:00 PM
Saturday
11:00 AM - 11:00 PM
Sunday
11:00 AM - 10:00 PM"
"https://www.cicis.com/","CICIS N VALLEY MILLS DR","1609 N Valley Mills Dr Ste 4","Waco,","TX","76710","US","<MISSING>","(254) 776-7762","<MISSING>","31.53237884741568","-97.19570562243462","Monday
11:00 AM - 10:00 PM
Tuesday
11:00 AM - 10:00 PM
Wednesday
11:00 AM - 10:00 PM
Thursday
11:00 AM - 10:00 PM
Friday
11:00 AM - 11:00 PM
Saturday
11:00 AM - 11:00 PM
Sunday
11:00 AM - 10:00 PM"
"https://www.cicis.com/","CICIS N HIGHWAY 77","1440 N Highway 77 Ste 7","Waxahachie,","TX","75165","US","<MISSING>","(972) 937-1222","<MISSING>","32.42416336448011","-96.8385128196087","Monday
11:00 AM - 10:00 PM
Tuesday
11:00 AM - 10:00 PM
Wednesday
11:00 AM - 10:00 PM
Thursday
11:00 AM - 10:00 PM
Friday
11:00 AM - 10:00 PM
Saturday
11:00 AM - 10:00 PM
Sunday
11:00 AM - 10:00 PM"
"https://www.cicis.com/","CICIS ADAMS DR","325 Adams Dr Suite #355","Weatherford,","TX","76086","US","<MISSING>","(817) 341-8300","<MISSING>","32.7332783","-97.7862434","Monday
11:00 AM - 10:00 PM
Tuesday
11:00 AM - 10:00 PM
Wednesday
11:00 AM - 10:00 PM
Thursday
11:00 AM - 10:00 PM
Friday
11:00 AM - 10:00 PM
Saturday
11:00 AM - 10:00 PM
Sunday
11:00 AM - 10:00 PM"
"https://www.cicis.com/","CICIS W EXPRESSWAY 83","1901 W Expressway 83 Suite 700","Weslaco,","TX","78596","US","<MISSING>","(956) 447-2266","<MISSING>","26.170676438763344","-98.00899207486879","Monday
11:00 AM - 10:00 PM
Tuesday
11:00 AM - 10:00 PM
Wednesday
11:00 AM - 10:00 PM
Thursday
11:00 AM - 10:00 PM
Friday
11:00 AM - 11:00 PM
Saturday
11:00 AM - 11:00 PM
Sunday
11:00 AM - 10:00 PM"
"https://www.cicis.com/","CICIS SOUTHWEST PKWY","2710 Southwest Pkwy","Wichita Falls,","TX","76308","US","<MISSING>","(940) 691-6060","<MISSING>","33.8582661910239","-98.533044308424","Monday
11:00 AM - 10:00 PM
Tuesday
11:00 AM - 10:00 PM
Wednesday
11:00 AM - 10:00 PM
Thursday
11:00 AM - 10:00 PM
Friday
11:00 AM - 10:00 PM
Saturday
11:00 AM - 10:00 PM
Sunday
11:00 AM - 10:00 PM"
"https://www.cicis.com/","CICIS LAKERIDGE PKWY","10180 Lakeridge Pkwy Suite #114","Ashland,","VA","23005","US","<MISSING>","(804) 550-0671","<MISSING>","37.68532423730844","-77.45627537369722","Monday
7:00 AM - 9:00 PM
Tuesday
7:00 AM - 9:00 PM
Wednesday
7:00 AM - 9:00 PM
Thursday
7:00 AM - 9:00 PM
Friday
7:00 AM - 10:00 PM
Saturday
7:00 AM - 10:00 PM
Sunday
11:00 AM - 9:00 PM"
"https://www.cicis.com/","CICIS BERMUDA CROSSROAD LN","12100 Bermuda Crossroad Ln","Chester,","VA","23831","US","<MISSING>","(804) 796-7833","<MISSING>","37.36073796668988","-77.41794660687447","Monday
11:00 AM - 9:30 PM
Tuesday
11:00 AM - 9:30 PM
Wednesday
11:00 AM - 9:30 PM
Thursday
11:00 AM - 9:30 PM
Friday
11:00 AM - 10:00 PM
Saturday
11:00 AM - 10:00 PM
Sunday
11:00 AM - 9:30 PM"
"https://www.cicis.com/","CICIS TEMPLE AVE","1072 Temple Ave","Colonial Heights,","VA","23834","US","<MISSING>","(804) 524-0770","<MISSING>","37.2567253","-77.3897987","Monday
11:00 AM - 9:30 PM
Tuesday
11:00 AM - 9:30 PM
Wednesday
11:00 AM - 9:30 PM
Thursday
11:00 AM - 9:30 PM
Friday
11:00 AM - 10:30 PM
Saturday
11:00 AM - 10:30 PM
Sunday
11:00 AM - 9:30 PM"
"https://www.cicis.com/","CICIS S JEFFERSON ST
CLOSED","3520 S Jefferson St Bldg F","Falls Church,","VA","22041","US","<MISSING>","(703) 845-4900","<MISSING>","38.849047","-77.1200306","Monday Closed
Tuesday Closed
Wednesday Closed
Thursday Closed
Friday Closed
Saturday Closed
Sunday Closed"
"https://www.cicis.com/","CICIS CARL D SILVER PKWY","1859 Carl D Silver Pkwy Suite 123","Fredericksburg,","VA","22401","US","<MISSING>","(540) 548-3977","<MISSING>","38.308834857576294","-77.50980958342552","Monday
11:00 AM - 9:00 PM
Tuesday
11:00 AM - 9:00 PM
Wednesday
11:00 AM - 9:00 PM
Thursday
11:00 AM - 9:00 PM
Friday
11:00 AM - 10:00 PM
Saturday
11:00 AM - 10:00 PM
Sunday
11:00 AM - 9:00 PM"
"https://www.cicis.com/","CICIS W MERCURY BLVD","2065 W Mercury Blvd Ste 65A","Hampton,","VA","23666","US","<MISSING>","(757) 825-2644","<MISSING>","37.03897354001231","-76.39896601438517","Monday
11:00 AM - 10:00 PM
Tuesday
11:00 AM - 10:00 PM
Wednesday
11:00 AM - 10:00 PM
Thursday
11:00 AM - 10:00 PM
Friday
11:00 AM - 10:00 PM
Saturday
11:00 AM - 10:00 PM
Sunday
11:00 AM - 10:00 PM"
"https://www.cicis.com/","CICIS E MARKET ST","2035-91 E Market St","Harrisonburg,","VA","22801","US","<MISSING>","(540) 432-9099","<MISSING>","38.424052","-78.841412","Monday
11:00 AM - 10:00 PM
Tuesday
11:00 AM - 10:00 PM
Wednesday
11:00 AM - 10:00 PM
Thursday
11:00 AM - 10:00 PM
Friday
11:00 AM - 11:00 PM
Saturday
11:00 AM - 11:00 PM
Sunday
11:00 AM - 10:00 PM"
"https://www.cicis.com/","CICIS W BROAD ST","7516 W Broad St Suite #114","Henrico,","VA","23294","US","<MISSING>","(804) 755-7555","<MISSING>","37.61943882343041","-77.52084083855152","Monday
11:00 AM - 9:30 PM
Tuesday
11:00 AM - 9:30 PM
Wednesday
11:00 AM - 9:30 PM
Thursday
11:00 AM - 9:30 PM
Friday
11:00 AM - 10:30 PM
Saturday
11:00 AM - 10:30 PM
Sunday
11:00 AM - 9:30 PM"
"https://www.cicis.com/","CICIS FORT EVANS RD","500 Fort Evans Rd Unit 1A","Leesburg,","VA","20176","US","<MISSING>","(703) 443-8071","<MISSING>","39.10804372731482","-77.53094807267189","Monday
11:00 AM - 9:00 PM
Tuesday
11:00 AM - 9:00 PM
Wednesday
11:00 AM - 9:00 PM
Thursday
11:00 AM - 9:00 PM
Friday
11:00 AM - 10:00 PM
Saturday
11:00 AM - 10:00 PM
Sunday
11:00 AM - 9:00 PM"
"https://www.cicis.com/","CICIS CANDLERS MOUNTAIN RD","3700 Candlers Mountain Rd Ste 4B","Lynchburg,","VA","24502","US","<MISSING>","(434) 845-5339","<MISSING>","37.3611455275618","-79.16817627976229","Monday
11:00 AM - 10:00 PM
Tuesday
11:00 AM - 10:00 PM
Wednesday
11:00 AM - 10:00 PM
Thursday
11:00 AM - 10:00 PM
Friday
11:00 AM - 10:00 PM
Saturday
11:00 AM - 10:00 PM
Sunday
11:00 AM - 10:00 PM"
"https://www.cicis.com/","CICIS FESTIVAL LN","10338 Festival Ln Bldg F","Manassas,","VA","20109","US","<MISSING>","(571) 292-9019","<MISSING>","38.77832815975729","-77.50416420400143","Monday
11:00 AM - 9:00 PM
Tuesday
11:00 AM - 9:00 PM
Wednesday
11:00 AM - 9:00 PM
Thursday
11:00 AM - 9:00 PM
Friday
11:00 AM - 10:00 PM
Saturday
11:00 AM - 10:00 PM
Sunday
11:00 AM - 9:00 PM"
"https://www.cicis.com/","CICIS COMMONWEALTH CENTRE PKWY","4900 Commonwealth Centre Pkwy","Midlothian,","VA","23112","US","<MISSING>","(804) 763-4764","<MISSING>","37.41727281174347","-77.63107895851135","Monday
11:00 AM - 9:00 PM
Tuesday
11:00 AM - 9:00 PM
Wednesday
11:00 AM - 9:00 PM
Thursday
11:00 AM - 9:00 PM
Friday
11:00 AM - 10:00 PM
Saturday
11:00 AM - 10:00 PM
Sunday
11:00 AM - 9:00 PM"
"https://www.cicis.com/","CICIS E VIRGINIA BEACH BLVD","5900 E Virginia Beach Blvd Ste 65A","Norfolk,","VA","23502","US","<MISSING>","(757) 461-7022","<MISSING>","36.8568962","-76.2022542","Monday
11:00 AM - 10:00 PM
Tuesday
11:00 AM - 10:00 PM
Wednesday
11:00 AM - 10:00 PM
Thursday
11:00 AM - 10:00 PM
Friday
11:00 AM - 10:00 PM
Saturday
11:00 AM - 10:00 PM
Sunday
11:00 AM - 10:00 PM"
"https://www.cicis.com/","CICIS BUSY ST","11549 Busy St Suite #114","Richmond,","VA","23236","US","<MISSING>","(804) 379-2424","<MISSING>","37.502273333804624","-77.60915525257593","Monday
11:00 AM - 9:30 PM
Tuesday
11:00 AM - 9:30 PM
Wednesday
11:00 AM - 9:30 PM
Thursday
11:00 AM - 9:30 PM
Friday
11:00 AM - 10:30 PM
Saturday
11:00 AM - 10:30 PM
Sunday
11:00 AM - 9:30 PM"
"https://www.cicis.com/","CICIS TOWNE SQUARE BLVD NW","1413 Towne Square Blvd Nw Ste 4B","Roanoke,","VA","24012","US","<MISSING>","(540) 563-8181","<MISSING>","37.3200788","-79.9634865","Monday
11:00 AM - 10:00 PM
Tuesday
11:00 AM - 10:00 PM
Wednesday
11:00 AM - 10:00 PM
Thursday
11:00 AM - 10:00 PM
Friday
11:00 AM - 10:00 PM
Saturday
11:00 AM - 10:00 PM
Sunday
11:00 AM - 10:00 PM"
"https://www.cicis.com/","CICIS DUNN DR","50 Dunn Dr Suite 123","Stafford,","VA","22556","US","<MISSING>","(540) 659-3434","<MISSING>","38.47616943274547","-77.42039948701859","Monday
11:00 AM - 9:00 PM
Tuesday
11:00 AM - 9:00 PM
Wednesday
11:00 AM - 9:00 PM
Thursday
11:00 AM - 9:00 PM
Friday
11:00 AM - 10:00 PM
Saturday
11:00 AM - 10:00 PM
Sunday
11:00 AM - 9:00 PM"
"https://www.cicis.com/","CICIS STATLER BLVD","850 Statler Blvd","Staunton,","VA","24401","US","<MISSING>","(540) 885-4646","<MISSING>","38.14004587671411","-79.06683325767517","Monday
11:00 AM - 9:00 PM
Tuesday
11:00 AM - 9:00 PM
Wednesday
11:00 AM - 9:00 PM
Thursday
11:00 AM - 9:00 PM
Friday
11:00 AM - 10:00 PM
Saturday
11:00 AM - 10:00 PM
Sunday
11:00 AM - 9:00 PM"
"https://www.cicis.com/","CICIS N MALL DR","2720 N Mall Dr Unit 192","Virginia Beach,","VA","23452","US","<MISSING>","(757) 463-6700","<MISSING>","36.82080178300682","-76.073749512434","Monday
11:00 AM - 10:00 PM
Tuesday
11:00 AM - 10:00 PM
Wednesday
11:00 AM - 10:00 PM
Thursday
11:00 AM - 10:00 PM
Friday
11:00 AM - 10:00 PM
Saturday
11:00 AM - 10:00 PM
Sunday
11:00 AM - 10:00 PM"
"https://www.cicis.com/","CICIS RICHMOND RD","3044 Richmond Rd Suite 101","Williamsburg,","VA","23185","US","<MISSING>","(757) 253-2279","<MISSING>","37.3085644","-76.7312911","Monday
11:00 AM - 10:00 PM
Tuesday
11:00 AM - 10:00 PM
Wednesday
11:00 AM - 10:00 PM
Thursday
11:00 AM - 10:00 PM
Friday
11:00 AM - 10:00 PM
Saturday
11:00 AM - 10:00 PM
Sunday
11:00 AM - 9:00 PM"
"https://www.cicis.com/","CICIS S PLEASANT VALLEY RD","2059 S Pleasant Valley Rd Unit 8","Winchester,","VA","22601","US","<MISSING>","(540) 535-0002","<MISSING>","39.162453326782185","-78.16959295002096","Monday
11:00 AM - 10:00 PM
Tuesday
11:00 AM - 10:00 PM
Wednesday
11:00 AM - 10:00 PM
Thursday
11:00 AM - 10:00 PM
Friday
11:00 AM - 11:00 PM
Saturday
11:00 AM - 11:00 PM
Sunday
11:00 AM - 10:00 PM"
"https://www.cicis.com/","CICIS FOULGER SQUARE","13600 Foulger Sq Bldg F","Woodbridge,","VA","22192","US","<MISSING>","(703) 580-9383","<MISSING>","38.6554219","-77.3041506","Monday
11:00 AM - 9:00 PM
Tuesday
11:00 AM - 9:00 PM
Wednesday
11:00 AM - 9:00 PM
Thursday
11:00 AM - 9:00 PM
Friday
11:00 AM - 10:00 PM
Saturday
11:00 AM - 10:00 PM
Sunday
11:00 AM - 9:00 PM"
