"locator_domain","location_name","street_address","city","state","zip","country_code","store_number","phone","location_type","latitude","longitude","hours_of_operation"
"https://www.bannerhealth.com/","banner-md-anderson-cancer-center-at-north-colorado-medical-center","1801 16th St.","Greeley","CO","80631","US","<MISSING>","(970) 810-3894","<MISSING>","40.4146785","-104.7101695","<MISSING>"
"https://www.bannerhealth.com/","cardiovascular-institute-of-north-colorado-heart-failure-clinic-16th","1801 16th Street, 3rd Floor","Greeley","CO","80631","US","<MISSING>","(970) 810-6953","<MISSING>","40.4146785","-104.7101695","<MISSING>"
"https://www.bannerhealth.com/","banner-family-pharmacy-16th","1801 16th St","Greeley","CO","80631","US","<MISSING>","(970) 810-4500","<MISSING>","40.4146785","-104.7101695","<MISSING>"
"https://www.bannerhealth.com/","north-colorado-medical-center-er","1801 16th St","Greeley","CO","80631","US","<MISSING>","(970) 810-4121","<MISSING>","40.4146785","-104.7101695","<MISSING>"
"https://www.bannerhealth.com/","north-colorado-medical-center","1801 16th St.","Greeley","CO","80631","US","<MISSING>","(970) 810-4121","<MISSING>","40.4146785","-104.7101695","<MISSING>"
"https://www.bannerhealth.com/","banner-health-clinic-palliative-care-16th","1801 16th St.","Greeley","CO","80631","US","<MISSING>","(970) 810-4543","<MISSING>","40.4146785","-104.7101695","<MISSING>"
"https://www.bannerhealth.com/","banner-md-anderson-cancer-center-at-banner-university","925 E. McDowell Rd.","Phoenix","AZ","85006","US","<MISSING>","(602) 521-3700 ","<MISSING>","33.4654265","-112.0610041","<MISSING>"
"https://www.bannerhealth.com/","banner-md-anderson-cancer-center-at-banner-desert","1400 S. Dobson Rd. ","Mesa","AZ","85202","US","<MISSING>","(480) 412-3808","<MISSING>","33.3899517","-111.8773528","<MISSING>"
"https://www.bannerhealth.com/","banner-desert-medical-center-er","1400 S Dobson Rd","Mesa","AZ","85202","US","<MISSING>","(480) 412-3000","<MISSING>","33.3899517","-111.8773528","<MISSING>"
"https://www.bannerhealth.com/","banner-family-pharmacy-dobson","1400 S Dobson Rd","Mesa","AZ","85202","US","<MISSING>","(480) 412-4250","<MISSING>","33.3899517","-111.8773528","<MISSING>"
"https://www.bannerhealth.com/","banner-childrens-specialists-critical-care-clinic-dobson","1400 S Dobson Rd","Mesa","AZ","85202","US","<MISSING>","(480) 412-3000","<MISSING>","33.3899517","-111.8773528","<MISSING>"
"https://www.bannerhealth.com/","banner-desert-medical-center","1400 S Dobson Rd","Mesa","AZ","85202","US","<MISSING>","(480) 412-3000","<MISSING>","33.3899517","-111.8773528","<MISSING>"
"https://www.bannerhealth.com/","cardon-children-s-medical-center-er","1400 S Dobson Rd","Mesa","AZ","85202","US","<MISSING>","(480) 412-5437","<MISSING>","33.3899517","-111.8773528","<MISSING>"
"https://www.bannerhealth.com/","cardon-childrens-medical-center","1400 S Dobson Rd","Mesa","AZ","85202","US","<MISSING>","(480) 412-5437","<MISSING>","33.3899517","-111.8773528","<MISSING>"
"https://www.bannerhealth.com/","banner-md-anderson-cancer-center-at-banner-boswell-santa-fe","10424 W Santa Fe Dr.","Sun City","AZ","85351","US","<MISSING>","(623) 832-3400","<MISSING>","33.6015405","-112.2826904","<MISSING>"
"https://www.bannerhealth.com/","banner-md-anderson-cancer-center-at-banner-boswell-thoracic-surgery-clinic-103rd","13188 N 103rd Dr Ste 200","Sun City","AZ","85351","US","<MISSING>","(623) 832-3444","<MISSING>","33.6042614","-112.2830164","<MISSING>"
"https://www.bannerhealth.com/","banner-health-clinic-surgery-103rd","13188 N. 103rd Dr. Ste 206","Sun City","AZ","85351","US","<MISSING>","(623) 832-7857","<MISSING>","33.6042614","-112.2830164","<MISSING>"
"https://www.bannerhealth.com/","banner-md-anderson-cancer-center-at-banner-thunderbird","5555 W Thunderbird Rd","Glendale","AZ","85306","US","<MISSING>","(602) 865-5445","<MISSING>","33.6092249","-112.1796847","<MISSING>"
"https://www.bannerhealth.com/","banner-family-pharmacy-thunderbird","5555 W Thunderbird Rd","Glendale","AZ","85306","US","<MISSING>","(602) 865-2378","<MISSING>","33.6092249","-112.1796847","<MISSING>"
"https://www.bannerhealth.com/","banner-childrens-specialists-critical-care-clinic-thunderbird","5555 W Thunderbird Rd","Glendale","AZ","85306","US","<MISSING>","(602) 865-5561","<MISSING>","33.6092249","-112.1796847","<MISSING>"
"https://www.bannerhealth.com/","banner-thunderbird-medical-center","5555 W Thunderbird Road","Glendale","AZ","85306","US","<MISSING>","(602) 865-5555","<MISSING>","33.6092249","-112.1796847","<MISSING>"
"https://www.bannerhealth.com/","banner-thunderbird-medical-center-er","5555 W Thunderbird Road","Glendale","AZ","85306","US","<MISSING>","(602) 865-5555","<MISSING>","33.6092249","-112.1796847","<MISSING>"
"https://www.bannerhealth.com/","banner-thunderbird-surgery-center","5555 W Thunderbird Rd","Glendale","AZ","85306","US","<MISSING>","(623) 876-3800","<MISSING>","33.6092249","-112.1796847","<MISSING>"
"https://www.bannerhealth.com/","banner-md-anderson-cancer-center-gilbert","2946 E Banner Gateway Dr","Gilbert","AZ","85234","US","<MISSING>","(480) 256-6444","<MISSING>","33.3823359","-111.7209187","<MISSING>"
"https://www.bannerhealth.com/","banner-family-pharmacy-at-banner-md-anderson","2946 E Banner Gateway Dr","Gilbert","AZ","85234","US","<MISSING>","(480) 256-5450","<MISSING>","33.3823359","-111.7209187","<MISSING>"
"https://www.bannerhealth.com/","the-womens-imaging-center-at-banner-md-anderson-cancer-center","2940 E Banner Gateway Dr","Gilbert","AZ","85234","US","<MISSING>","(480) 543-6900","<MISSING>","33.3841942","-111.7257952","<MISSING>"
"https://www.bannerhealth.com/","banner-gateway-surgery-center","2940 E Banner Gateway Dr Ste 100","Gilbert","AZ","85234","US","<MISSING>","(480) 543-3200","<MISSING>","33.3841942","-111.7257952","<MISSING>"
"https://www.bannerhealth.com/","banner-physical-therapy-gateway","2940 E. Banner Gateway Dr., Suite 425","Gilbert","AZ","85234","US","<MISSING>","(480) 813-7900","<MISSING>","33.3841942","-111.7257952","<MISSING>"
"https://www.bannerhealth.com/","banner-md-anderson-cancer-center-at-mckee-medical-center","2000 Boise Ave.","Loveland","CO","80538","US","<MISSING>","(970) 810-3894","<MISSING>","40.4132365","-105.0513281","<MISSING>"
"https://www.bannerhealth.com/","mckee-breast-center-boise","2000 Boise Ave","Loveland","CO","80538","US","<MISSING>","(970) 810-6070","<MISSING>","40.4132365","-105.0513281","<MISSING>"
"https://www.bannerhealth.com/","banner-health-clinic-boise-palliative-care","2000 Boise Avenue","Loveland","CO","80538","US","<MISSING>","(970) 810-4543","<MISSING>","40.4132365","-105.0513281","<MISSING>"
"https://www.bannerhealth.com/","mckee-medical-center-er","2000 Boise Avenue","Loveland","CO","80538","US","<MISSING>","(970) 820-4640","<MISSING>","40.4132365","-105.0513281","<MISSING>"
"https://www.bannerhealth.com/","banner-childrens-banner-health-clinic-dobson","1450 S Dobson Rd Ste B220","Mesa","AZ","85202","US","<MISSING>","(480) 827-5044","<MISSING>","33.388151","-111.8768268","<MISSING>"
"https://www.bannerhealth.com/","banner-imaging-dobson","1450 S Dobson Rd, Ste A100","Mesa","AZ","85202","US","<MISSING>","(480) 610-7400","<MISSING>","33.388151","-111.8768268","<MISSING>"
"https://www.bannerhealth.com/","banner-family-pharmacy-baywood","6644 E Baywood Ave","Mesa","AZ","85206","US","<MISSING>","(480) 321-2222","<MISSING>","33.4113095","-111.6875079","<MISSING>"
"https://www.bannerhealth.com/","banner-baywood-sleep-center","6644 E Baywood Ave","Mesa","AZ","85206","US","<MISSING>","(480) 321-4553","<MISSING>","33.4113095","-111.6875079","<MISSING>"
"https://www.bannerhealth.com/","banner-baywood-wound-clinic","6644 E. Baywood Ave. 2nd floor","Mesa","AZ","85206","US","<MISSING>","(480) 321-4642","<MISSING>","33.4113095","-111.6875079","<MISSING>"
"https://www.bannerhealth.com/","banner-baywood-medical-center","6644 E Baywood Ave","Mesa","AZ","85206","US","<MISSING>","(480) 321-2000","<MISSING>","33.4113095","-111.6875079","<MISSING>"
"https://www.bannerhealth.com/","banner-baywood-medical-center-er","6644 E Baywood Ave","Mesa","AZ","85206","US","<MISSING>","(480) 321-2000","<MISSING>","33.4113095","-111.6875079","<MISSING>"
"https://www.bannerhealth.com/","banner-desert-medical-center-sleep-center","2225 W Southern Ave","Mesa","AZ","85202","US","<MISSING>","(480) 412-3684","<MISSING>","33.3921467","-111.8785638","<MISSING>"
"https://www.bannerhealth.com/","banner-physical-therapy-southern","2225 W Southern Ave.","Mesa","AZ","85202","US","<MISSING>","(623) 888-3502","<MISSING>","33.3921467","-111.8785638","<MISSING>"
"https://www.bannerhealth.com/","banner-childrens-physical-therapy-southern","2225 W Southern Ave","Mesa","AZ","85202","US","<MISSING>","(480) 462-3880","<MISSING>","33.3921467","-111.8785638","<MISSING>"
"https://www.bannerhealth.com/","banner-health-center-mesa","1917 S Crismon Rd","Mesa","AZ","85209","US","<MISSING>","(480) 610-7100","<MISSING>","33.3801425","-111.6171645","<MISSING>"
"https://www.bannerhealth.com/","banner-heart-hospital-er","6750 E Baywood Ave","Mesa","AZ","85206","US","<MISSING>","(480) 854-5000","<MISSING>","33.4112699","-111.6870044","<MISSING>"
"https://www.bannerhealth.com/","banner-heart-hospital","6750 E Baywood Ave","Mesa","AZ","85206","US","<MISSING>","(480) 854-5000","<MISSING>","33.4112699","-111.6870044","<MISSING>"
"https://www.bannerhealth.com/","banner-health-clinic-baywood-vascular-surgery","6750 E Baywood Ave Ste 503","Mesa","AZ","85206","US","<MISSING>","(480) 543-3030","<MISSING>","33.4112699","-111.6870044","<MISSING>"
"https://www.bannerhealth.com/","banner-physical-therapy-baseline","1255 W. Baseline Rd., Suite 140","Mesa","AZ","85202","US","<MISSING>","(480) 820-7675","<MISSING>","33.3772927","-111.8614232","<MISSING>"
"https://www.bannerhealth.com/","banner-physical-therapy-hampton","10165 E. Hampton Ave., Suite 111","Mesa","AZ","85209","US","<MISSING>","(480) 354-5424","<MISSING>","33.3881132","-111.6111372","<MISSING>"
"https://www.bannerhealth.com/","banner-physical-therapy-broadway","5151 E. Broadway Rd., Suite 102","Mesa","AZ","85206","US","<MISSING>","(480) 396-9922","<MISSING>","33.4079941","-111.7196477","<MISSING>"
"https://www.bannerhealth.com/","banner-physical-therapy-sossaman","2853 S. Sossaman Rd., Suite A 106","Mesa","AZ","85212","US","<MISSING>","(480) 373-9700","<MISSING>","33.3639667","-111.6695936","<MISSING>"
"https://www.bannerhealth.com/","banner-surgery-center-desert","1500 S Dobson Rd Ste 101","Mesa","AZ","85202","US","<MISSING>","(480) 306-6098","<MISSING>","33.3875555","-111.8763281","<MISSING>"
"https://www.bannerhealth.com/","banner-urgent-care-lindsay","407 N Lindsay Rd Ste 103","Mesa","AZ","85213","US","<MISSING>","(480) 827-5710","<MISSING>","33.423062","-111.7706421","<MISSING>"
"https://www.bannerhealth.com/","banner-childrens-specialists-hematology-and-oncology-clinic-dobson","1432 S Dobson Rd Ste 107","Mesa","AZ","85202","US","<MISSING>","(480) 412-4100","<MISSING>","33.3888915","-111.8768028","<MISSING>"
"https://www.bannerhealth.com/","banner-childrens-specialists-gastroenterology-clinic-dobson","1432 S Dobson Rd Ste 402","Mesa","AZ","85202","US","<MISSING>","(480) 412-5550","<MISSING>","33.3888915","-111.8768028","<MISSING>"
"https://www.bannerhealth.com/","banner-childrens-specialists-pediatric-surgery-clinic-dobson","1432 S Dobson Rd Ste 301","Mesa","AZ","85202","US","<MISSING>","(480) 412-9400","<MISSING>","33.3888915","-111.8768028","<MISSING>"
"https://www.bannerhealth.com/","banner-childrens-specialists-postinfectious-autoimmune-encephalopathy-clinic-dobson","1432 S. Dobson Rd., Ste. 403","Mesa","AZ","85202","US","<MISSING>","(480) 412-7735","<MISSING>","33.3888915","-111.8768028","<MISSING>"
"https://www.bannerhealth.com/","banner-childrens-specialists-urology-clinic-dobson","1432 S Dobson Rd Ste 501","Mesa","AZ","85202","US","<MISSING>","(480) 412-7474","<MISSING>","33.3888915","-111.8768028","<MISSING>"
"https://www.bannerhealth.com/","banner-childrens-specialists-neurology-and-neurosurgery-clinic-dobson","1432 S Dobson Rd Ste 403","Mesa","AZ","85202","US","<MISSING>","(480) 412-7473","<MISSING>","33.3888915","-111.8768028","<MISSING>"
"https://www.bannerhealth.com/","banner-childrens-specialists-orthopedics-clinic-dobson","1432 S Dobson Rd Ste 304","Mesa","AZ","85202","US","<MISSING>","(480) 412-7400","<MISSING>","33.3888915","-111.8768028","<MISSING>"
"https://www.bannerhealth.com/","banner-childrens-specialists-cardiology-clinic-dobson","1432 S Dobson Rd Ste 512","Mesa","AZ","85202","US","<MISSING>","(480) 412-6336","<MISSING>","33.3888915","-111.8768028","<MISSING>"
"https://www.bannerhealth.com/","banner-childrens-specialists-plastic-and-reconstructive-surgery-clinic-dobson","1432 S. Dobson Rd. Ste. 301","Mesa","AZ","85202","US","<MISSING>","(480) 412-7120","<MISSING>","33.3888915","-111.8768028","<MISSING>"
"https://www.bannerhealth.com/","banner-baywood-womens-center","6644 E Baywood Ave","Mesa","AZ","85206","US","<MISSING>","(480) 321-4444","<MISSING>","33.4113095","-111.6875079","<MISSING>"
"https://www.bannerhealth.com/","banner-childrens-specialists-pulmonology-and-sleep-medicine-clinic-dobson","1432 S Dobson Rd Ste 506","Mesa","AZ","85202","US","<MISSING>","(480) 412-6430","<MISSING>","33.3888915","-111.8768028","<MISSING>"
"https://www.bannerhealth.com/","banner-corporate-center-mesa","525 W Brown Rd","Mesa","AZ","85201","US","<MISSING>","(480) 684-5000","<MISSING>","33.4338602","-111.8429291","<MISSING>"
"https://www.bannerhealth.com/","banner-health-clinic-dobson-neurology","1520 S Dobson Rd Ste 203","Mesa","AZ","85202","US","<MISSING>","(480) 412-8080","<MISSING>","33.387516","-111.877446","<MISSING>"
"https://www.bannerhealth.com/","banner-desert-medical-center-cardiac-pulmonary-rehabilitation-dobson","1520 S Dobson Rd Ste 201","Mesa","AZ","85202","US","<MISSING>","(480) 412-3123","<MISSING>","33.387516","-111.877446","<MISSING>"
"https://www.bannerhealth.com/","banner-health-clinic-family-medicine-country-club","1950 S Country Club Dr Ste 101","Mesa","AZ","85210","US","<MISSING>","(480) 827-5500","<MISSING>","33.3799302","-111.8416741","<MISSING>"
"https://www.bannerhealth.com/","banner-childrens-banner-health-clinic-higley","1220 S Higley Rd Ste 101","Mesa","AZ","85206","US","<MISSING>","(480) 827-5045","<MISSING>","33.392455","-111.7200575","<MISSING>"
"https://www.bannerhealth.com/","banner-childrens-community-clinic","564 W. 9th Place, Suite 2","Mesa","AZ","85201","US","<MISSING>","(480) 412-6344","<MISSING>","33.4320885","-111.8444222","<MISSING>"
"https://www.bannerhealth.com/","banner-boswell-skilled-nursing-rehabilitation-center-santa-fe","10601 W. Santa Fe Drive","Sun City","AZ","85351","US","<MISSING>","(623) 832-7000","<MISSING>","33.6031198","-112.2873008","<MISSING>"
"https://www.bannerhealth.com/","banner-boswell-medical-center-cardiac-and-pulmonary-rehabilitation-thunderbird","10503 W Thunderbird Blvd Ste 301","Sun City","AZ","85351","US","<MISSING>","(623) 832-5390","<MISSING>","33.6044937","-112.2861831","<MISSING>"
"https://www.bannerhealth.com/","banner-physical-therapy-thunderbird","10503 W Thunderbird Blvd., Suite 263A","Sun City","AZ","85351","US","<MISSING>","(623) 888-3370 ","<MISSING>","33.6044937","-112.2861831","<MISSING>"
"https://www.bannerhealth.com/","banner-boswell-medical-center-wound-center-103rd","13203 N 103rd Ave Ste I-1","Sun City","AZ","85351","US","<MISSING>","(623) 832-6580","<MISSING>","33.6041427","-112.2799045","<MISSING>"
"https://www.bannerhealth.com/","banner-imaging-thunderbird","10474 W Thunderbird Blvd Ste 100","Sun City","AZ","85351","US","<MISSING>","(480) 610-7400","<MISSING>","33.6055805","-112.2839478","<MISSING>"
"https://www.bannerhealth.com/","banner-olive-branch-senior-center-107th","11250 N 107th Ave","Sun City","AZ","85351","US","<MISSING>","(623) 465-6000","<MISSING>","33.5864879","-112.2907004","<MISSING>"
"https://www.bannerhealth.com/","banner-sun-health-research-institute-santa-fe","10515 W Santa Fe Dr","Sun City","AZ","85351","US","<MISSING>","(623) 832-6530 ","<MISSING>","33.602928","-112.285657","<MISSING>"
"https://www.bannerhealth.com/","cleo-roberts-center-santa-fe","10515 W Santa Fe Dr Bldg B 1st Fl","Sun City","AZ","85351","US","<MISSING>","(623) 832-6530","<MISSING>","33.602928","-112.285657","<MISSING>"
"https://www.bannerhealth.com/","banner-health-clinic-edison","2400 Edison St","Brush","CO","80723","US","<MISSING>","(970) 542-4700","<MISSING>","40.2556786","-103.6494746","<MISSING>"
"https://www.bannerhealth.com/","banner-health-clinic-surgery-edison-brush","2400 W. Edison St.","Brush","CO","80723","US","<MISSING>","(970) 842-6720","<MISSING>","40.2556786","-103.6494746","<MISSING>"
"https://www.bannerhealth.com/","east-morgan-county-hospital-er","2400 Edison St","East Morgan County HospitalBrush","CO","80723","US","<MISSING>","(970) 842-6200","<MISSING>","40.2556786","-103.6494746","<MISSING>"
"https://www.bannerhealth.com/","east-morgan-county-hospital-physical-therapy-and-rehabilitation","2400 Edison St","Brush","CO","80723","US","<MISSING>","(970) 842-6239 ","<MISSING>","40.2556786","-103.6494746","<MISSING>"
"https://www.bannerhealth.com/","platte-county-memorial-hospital","201 14th St","Wheatland","WY","82201","US","<MISSING>","(307) 322-3636","<MISSING>","42.049908","-104.9606981","<MISSING>"
"https://www.bannerhealth.com/","platte-county-memorial-hospital-er","201 14th St","Wheatland","WY","82201","US","<MISSING>","(307) 322-3636","<MISSING>","42.049908","-104.9606981","<MISSING>"
"https://www.bannerhealth.com/","banner-health-clinic-brice","1551 Brice St","Wheatland","WY","82201","US","<MISSING>","(307) 322-3861","<MISSING>","42.0477905","-104.9621129","<MISSING>"
"https://www.bannerhealth.com/","banner-health-clinic-family-medicine-shiek","1356 Shiek St","Wheatland","WY","82201","US","<MISSING>","(307) 322-3861","<MISSING>","42.0500392","-104.9598539","<MISSING>"
"https://www.bannerhealth.com/","platte-county-memorial-hospital-physical-therapy-and-rehabilitation","201 14th St. Wheatland","Wheatland","WY","82201","US","<MISSING>","(307) 322-8239","<MISSING>","42.049908","-104.9606981","<MISSING>"
"https://www.bannerhealth.com/","banner-health-clinic-navajo-internal-medicine-and-pediatrics","601 N Navajo","Page","AZ","86040","US","<MISSING>","(928) 645-0766","<MISSING>","36.9177822","-111.461917","<MISSING>"
"https://www.bannerhealth.com/","banner-imaging-59th","18275 N 59th Ave, Ste K168","Glendale","AZ","85308","US","<MISSING>","(480) 610-7400","<MISSING>","33.6513496","-112.1852125","<MISSING>"
"https://www.bannerhealth.com/","banner-physical-therapy-union-hills","6320A W. Union Hills Dr., Suite 265","Glendale","AZ","85308","US","<MISSING>","(623) 374-2424","<MISSING>","33.6553881","-112.1986295","<MISSING>"
"https://www.bannerhealth.com/","banner-childrens-specialists-cardiology-clinic-thunderbird","5310 W Thunderbird Rd Ste 214","Glendale","AZ","85306","US","<MISSING>","(480) 412-6336","<MISSING>","33.6115395","-112.1750726","<MISSING>"
"https://www.bannerhealth.com/","banner-childrens-specialists-urology-clinic-thunderbird","5310 W Thunderbird Rd Ste 301","Glendale","AZ","85306","US","<MISSING>","(602) 865-4441","<MISSING>","33.6115395","-112.1750726","<MISSING>"
"https://www.bannerhealth.com/","banner-childrens-specialists-pulmonology-and-sleep-medicine-clinic-thunderbird","5310 W Thunderbird Rd Ste 311","Glendale","AZ","85306","US","<MISSING>","(602) 865-4230","<MISSING>","33.6115395","-112.1750726","<MISSING>"
"https://www.bannerhealth.com/","banner-childrens-specialists-endocrinology-clinic-thunderbird","5310 W Thunderbird Rd Ste 214","Glendale","AZ","85306","US","<MISSING>","(602) 865-4540","<MISSING>","33.6115395","-112.1750726","<MISSING>"
"https://www.bannerhealth.com/","banner-childrens-specialists-orthopedics-clinic-thunderbird","5310 W. Thunderbird Rd., Suite 110","Glendale","AZ","85306","US","<MISSING>","(602) 865-4510","<MISSING>","33.6115395","-112.1750726","<MISSING>"
"https://www.bannerhealth.com/","banner-imaging-thunderbird-100","5310 W Thunderbird Rd, Ste 100","Glendale","AZ","85306","US","<MISSING>","(480) 610-7400","<MISSING>","33.6115395","-112.1750726","<MISSING>"
"https://www.bannerhealth.com/","banner-thunderbird-outpatient-rehabilitation-clinic-eugie","5601 W Eugie Ave Ste 211 A & B","Glendale","AZ","85304","US","<MISSING>","(602) 865-6986","<MISSING>","33.6066445","-112.1813045","<MISSING>"
"https://www.bannerhealth.com/","banner-imaging-eugie-102","5601 W Eugie Ave, Ste 102","Glendale","AZ","85304","US","<MISSING>","(480) 610-7400","<MISSING>","33.6066445","-112.1813045","<MISSING>"
"https://www.bannerhealth.com/","banner-occupational-health-clinic-eugie","5601 W Eugie Ave Ste 213","Glendale","AZ","85304","US","<MISSING>","(602) 865-5618","<MISSING>","33.6066445","-112.1813045","<MISSING>"
"https://www.bannerhealth.com/","banner-surgery-center-union-hills","18301 N 79th Ave Ste E150","Glendale","AZ","85308","US","<MISSING>","(623) 234-2294","<MISSING>","33.6485887","-112.2292868","<MISSING>"
"https://www.bannerhealth.com/","banner-physical-therapy-eugie","5605 W Eugie Ave. Suites 206, 212 & 215","Glendale","AZ","85304","US","<MISSING>","(480) 210-6445","<MISSING>","33.6071081","-112.1814908","<MISSING>"
"https://www.bannerhealth.com/","banner-imaging-eugie-110","5605 W Eugie Ave, Ste 110","Glendale","AZ","85304","US","<MISSING>","(480) 610-7400","<MISSING>","33.6071081","-112.1814908","<MISSING>"
"https://www.bannerhealth.com/","banner-physical-therapy-bell","4344 W. Bell Rd., Suite 100","Glendale","AZ","85308","US","<MISSING>","(602) 548-9882","<MISSING>","33.6398635","-112.1548511","<MISSING>"
"https://www.bannerhealth.com/","banner-health-clinic-surgery-thunderbird","5757 W Thunderbird Rd Ste E456","Glendale","AZ","85306","US","<MISSING>","(602) 865-4570","<MISSING>","33.609487","-112.1829811","<MISSING>"
"https://www.bannerhealth.com/","banner-childrens-specialists-hematology-and-oncology-clinic","5757 W. Thunderbird Rd., Suite E250","Glendale","AZ","85306","US","<MISSING>","(602) 865-4470","<MISSING>","33.609487","-112.1829811","<MISSING>"
"https://www.bannerhealth.com/","banner-imaging-thunderbird-w101","5757 W Thunderbird Rd, Ste W101","Glendale","AZ","85306","US","<MISSING>","(480) 610-7400","<MISSING>","33.609487","-112.1829811","<MISSING>"
"https://www.bannerhealth.com/","banner-imaging-thunderbird-w100","5757 W Thunderbird Rd, Ste W100","Glendale","AZ","85306","US","<MISSING>","(480) 610-7400","<MISSING>","33.609487","-112.1829811","<MISSING>"
"https://www.bannerhealth.com/","banner-childrens-specialists-surgery-clinic-thunderbird","5310 W Thunderbird Rd Ste 301","Glendale","AZ","85306","US","<MISSING>","(602) 865-4510","<MISSING>","33.6115395","-112.1750726","<MISSING>"
"https://www.bannerhealth.com/","banner-childrens-specialists-neurology-clinic-thunderbird","5310 W Thunderbird Rd Ste 301","Glendale","AZ","85306","US","<MISSING>","(602) 865-4442","<MISSING>","33.6115395","-112.1750726","<MISSING>"
"https://www.bannerhealth.com/","banner-childrens-specialists-gastroenterology-clinic-thunderbird","5757 W Thunderbird Rd Ste W310","Glendale","AZ","85306","US","<MISSING>","(602) 865-4011","<MISSING>","33.609487","-112.1829811","<MISSING>"
"https://www.bannerhealth.com/","banner-health-clinic-family-medicine-thunderbird","20325 N 51st Ave Ste 170 Bldg 9","Glendale","AZ","85308","US","<MISSING>","(623) 249-4928","<MISSING>","33.6700937","-112.1683085","<MISSING>"
"https://www.bannerhealth.com/","banner-payson-medical-center-er","807 S Ponderosa St","Payson","AZ","85541","US","<MISSING>","(928) 474-3222","<MISSING>","34.2301338","-111.3206462","<MISSING>"
"https://www.bannerhealth.com/","banner-payson-medical-center","807 S Ponderosa St","Payson","AZ","85541","US","<MISSING>","(928) 471-3222","<MISSING>","34.2301338","-111.3206462","<MISSING>"
"https://www.bannerhealth.com/","banner-physical-therapy-main","126 E Main St Ste C","Payson","AZ","85541","US","<MISSING>","(928) 468-8907","<MISSING>","34.2301415","-111.3231148","<MISSING>"
"https://www.bannerhealth.com/","banner-health-clinic-main-orthopedics","126 E Main St Ste D","Payson","AZ","85541","US","<MISSING>","(928) 596-4800","<MISSING>","34.2301415","-111.3231148","<MISSING>"
"https://www.bannerhealth.com/","banner-health-clinic-main-obstetrics-and-gynecology","120 E Main Street Ste A","Payson","AZ","85541","US","<MISSING>","(928) 596-4700","<MISSING>","34.2301865","-111.3230635","<MISSING>"
"https://www.bannerhealth.com/","banner-health-clinic-main-surgery","122 E Main St","Payson","AZ","85541","US","<MISSING>","(928) 596-4600","<MISSING>","34.2302565","-111.3233943","<MISSING>"
"https://www.bannerhealth.com/","banner-health-clinic-ponderosa-pediatrics","803 S Ponderosa St Ste C","Payson","AZ","85541","US","<MISSING>","(928) 596-4550","<MISSING>","34.2318562","-111.3213032","<MISSING>"
"https://www.bannerhealth.com/","banner-home-care","708 E Route 260 Ste A1","Payson","AZ","85541","US","<MISSING>","(928) 596-4777","<MISSING>","34.2422128","-111.3118308","<MISSING>"
"https://www.bannerhealth.com/","banner-payson-imaging-center","127 E Main St Ste C","Payson","AZ","85541","US","<MISSING>","(928) 474-3222","<MISSING>","34.2293634","-111.3228354","<MISSING>"
"https://www.bannerhealth.com/","banner-health-clinic-main-family-medicine","117 E Main St Ste A100","Payson","AZ","85541","US","<MISSING>","(928) 596-4500","<MISSING>","34.2297728","-111.3242327","<MISSING>"
"https://www.bannerhealth.com/","banner-behavioral-health-outpatient-clinic-chandler","1600 W Chandler Blvd Ste 180","Chandler","AZ","85224","US","<MISSING>","(480) 543-6760","<MISSING>","33.3068985","-111.8694247","<MISSING>"
"https://www.bannerhealth.com/","banner-occupational-health-clinic","1979 W. Ray Rd.","Chandler","AZ","85224","US","<MISSING>","(480) 827-5685","<MISSING>","33.319999","-111.8750291","<MISSING>"
"https://www.bannerhealth.com/","banner-physical-therapy-arizona","4015 S. Arizona Ave., Suite 2","Chandler","AZ","85248","US","<MISSING>","(480) 426-8019","<MISSING>","33.2471203","-111.8406242","<MISSING>"
"https://www.bannerhealth.com/","banner-physical-therapy-dobson","655 S. Dobson Rd., Suite B-111","Chandler","AZ","85224","US","<MISSING>","(480) 732-0099","<MISSING>","33.2944926","-111.875033","<MISSING>"
"https://www.bannerhealth.com/","banner-physical-therapy-frye","2055 W. Frye Rd., Suite 2","Chandler","AZ","85224","US","<MISSING>","(480) 821-9840","<MISSING>","33.2981574","-111.8772131","<MISSING>"
"https://www.bannerhealth.com/","banner-imaging-chandler","1076 W Chandler Blvd, Ste 120","Chandler","AZ","85224","US","<MISSING>","(480) 610-7400","<MISSING>","33.307328","-111.8605532","<MISSING>"
"https://www.bannerhealth.com/","banner-university-medicine-primary-care-clinic-sunrise","6860 E Sunrise Dr., Ste 100","Tucson","AZ","85750","US","<MISSING>","(520) 694-1042 ","<MISSING>","32.3083456","-110.8458855","<MISSING>"
"https://www.bannerhealth.com/","banner-university-medicine-primary-care-clinic-houghton","7355 S. Houghton Rd., Suite 208","Tucson","AZ","85747","US","<MISSING>","(520) 694-1045","<MISSING>","32.1184273","-110.7709622","<MISSING>"
"https://www.bannerhealth.com/","banner-alzheimers-institute-campbell","3838 N. Campbell Ave. Building 2, 3rd Floor, Clinic H","Tucson","AZ","85719","US","<MISSING>","(520) 694-7021","<MISSING>","32.2765477","-110.9431659","<MISSING>"
"https://www.bannerhealth.com/","banner-university-medicine-north-campbell","3838 N Campbell Ave, Bldg 2","Tucson","AZ","85719","US","<MISSING>","(520) 694-8888","<MISSING>","32.2765477","-110.9431659","<MISSING>"
"https://www.bannerhealth.com/","university-of-arizona-cancer-center-tucson-campbell","3838 N Campbell Ave","Tucson","AZ","85719","US","<MISSING>","(520) 694-8888","<MISSING>","32.2765477","-110.9431659","<MISSING>"
"https://www.bannerhealth.com/","banner-university-medical-center-tucson","1625 N Campbell Ave","Tucson","AZ","85719","US","<MISSING>","(520) 694-0111","<MISSING>","32.2430048","-110.9462188","<MISSING>"
"https://www.bannerhealth.com/","banner-family-pharmacy-campbell","1625 N Campbell Ave.","Tucson","AZ","85719","US","<MISSING>","(520) 694-7049","<MISSING>","32.2430048","-110.9462188","<MISSING>"
"https://www.bannerhealth.com/","banner-university-medical-center-tucson-er","1625 N Campbell Ave","Tucson","AZ","85719","US","<MISSING>","520-694-0111","<MISSING>","32.2430048","-110.9462188","<MISSING>"
"https://www.bannerhealth.com/","banner-home-care-tucson","575 E. River Rd., Suite 102","Tucson","AZ","85704","US","<MISSING>","(520) 694-9180","<MISSING>","32.2969128","-110.9638428","<MISSING>"
"https://www.bannerhealth.com/","banner-home-infusion-tucson","575 E. River Rd. , Suite 103","Tucson","AZ","85704","US","<MISSING>","(520) 694-2491","<MISSING>","32.2969128","-110.9638428","<MISSING>"
"https://www.bannerhealth.com/","banner-home-medical-equipment-tucson","575 E. River Rd., Suite 104","Tucson","AZ","85704","US","<MISSING>","(520) 694-0118","<MISSING>","32.2969128","-110.9638428","<MISSING>"
"https://www.bannerhealth.com/","banner-university-medical-center-south-campus-multispecialty-services-ajo","2800 E Ajo Way Stes 100 -105","Tucson","AZ","85713","US","<MISSING>","(520) 874-2000","<MISSING>","32.1758345","-110.9307474","<MISSING>"
"https://www.bannerhealth.com/","banner-university-medicine-multispecialty-services-clinic-22nd","7901 E 22nd St","Tucson","AZ","85710","US","<MISSING>","(520) 694-5437","<MISSING>","32.2070801","-110.8232078","<MISSING>"
"https://www.bannerhealth.com/","banner-university-medicine-primary-care-and-pediatric-clinic-22nd","7901 E 22nd St","Tucson","AZ","85710","US","<MISSING>","(520) 694-5437","<MISSING>","32.2070801","-110.8232078","<MISSING>"
"https://www.bannerhealth.com/","banner-university-medicine-multispecialty-services-clinic-alvernon","707 N Alvernon Way 2nd Fl","Tucson","AZ","85711","US","<MISSING>","(520) 694-8888","<MISSING>","32.2309783","-110.9100838","<MISSING>"
"https://www.bannerhealth.com/","banner-university-medicine-ophthalmology-clinic-alvernon","707 N Alvernon Way Ste 301","Tucson","AZ","85711","US","<MISSING>","(520) 694-1460","<MISSING>","32.2309783","-110.9100838","<MISSING>"
"https://www.bannerhealth.com/","banner-university-medicine-orthopedics-clinic-alvernon","707 N Alvernon Way Ste 205","Tucson","AZ","85711","US","<MISSING>","(520) 694-8000","<MISSING>","32.2309783","-110.9100838","<MISSING>"
"https://www.bannerhealth.com/","banner-university-medicine-fracture-liaison-service-clinic-alvernon","707 N. Alvernon Way, Suite 201","Tucson","AZ","85711","US","<MISSING>","(520) 694-8000","<MISSING>","32.2309783","-110.9100838","<MISSING>"
"https://www.bannerhealth.com/","banner-physical-therapy-alvernon","707 N. Alvernon Way Ste. 203","Tucson","AZ","85711","US","<MISSING>","(520) 462-0235","<MISSING>","32.2309783","-110.9100838","<MISSING>"
"https://www.bannerhealth.com/","banner-university-medicine-family-medicine-clinic-alvernon","707 N Alvernon Way Ste 101","Tucson","AZ","85711","US","<MISSING>","(520) 694-8888","<MISSING>","32.2309783","-110.9100838","<MISSING>"
"https://www.bannerhealth.com/","banner-university-medicine-multispecialty-services-clinic-ina","265 W Ina Rd","Tucson","AZ","85704","US","<MISSING>","(520) 694-8888","<MISSING>","32.3360148","-110.9738554","<MISSING>"
"https://www.bannerhealth.com/","banner-physical-therapy-ina","265 W. Ina Rd.","Tucson","AZ","85704","US","<MISSING>","(520) 462-0510","<MISSING>","32.3360148","-110.9738554","<MISSING>"
"https://www.bannerhealth.com/","banner-university-medicine-orthopedics-clinic-ajo","2800 E Ajo Way Ste 200","Tucson","AZ","85713","US","<MISSING>","(520) 694-8000","<MISSING>","32.1763145","-110.9306077","<MISSING>"
"https://www.bannerhealth.com/","banner-university-medical-center-south-er","2800 E Ajo way","Tucson","AZ","85713","US","<MISSING>","(520) 874-2000","<MISSING>","32.1763145","-110.9306077","<MISSING>"
"https://www.bannerhealth.com/","banner-physical-therapy-ajo","2800 E. Ajo Way Ste. 201","Tucson","AZ","85713","US","<MISSING>","(520) 462-0248","<MISSING>","32.1763145","-110.9306077","<MISSING>"
"https://www.bannerhealth.com/","banner-university-medicine-behavioral-health-clinic-ajo","2800 E Ajo Way Ste P1241","Tucson","AZ","85713","US","<MISSING>","(520) 874-2783","<MISSING>","32.1763145","-110.9306077","<MISSING>"
"https://www.bannerhealth.com/","banner-university-medicine-clinic-south","2800 E Ajo Way","Tucson","AZ","85713","US","<MISSING>","(520) 694-8888","<MISSING>","32.1763145","-110.9306077","<MISSING>"
"https://www.bannerhealth.com/","banner-university-medical-center-south","2800 E Ajo way","Tucson","AZ","85713","US","<MISSING>","(520) 874-2000","<MISSING>","32.1763145","-110.9306077","<MISSING>"
"https://www.bannerhealth.com/","banner-university-medicine-pediatric-specialty-clinic-la-cholla","6261 N La Cholla Blvd Ste 131","Tucson","AZ","85741","US","<MISSING>","(520) 694-5437","<MISSING>","32.3207401","-111.0131611","<MISSING>"
"https://www.bannerhealth.com/","banner-university-medicine-pediatrics-clinic","1501 N Campbell Ave Ste 3401","Tucson","AZ","85724","US","<MISSING>","(520) 626-5437","<MISSING>","32.2410854","-110.946286","<MISSING>"
"https://www.bannerhealth.com/","banner-university-medical-center-tucson-sleep-center","1501 N Campbell Ave","Tucson","AZ","85724","US","<MISSING>","(520) 694-2522","<MISSING>","32.2410854","-110.946286","<MISSING>"
"https://www.bannerhealth.com/","banner-university-medicine-clinic-tucson","1501 N Campbell Ave","Tucson","AZ","85724","US","<MISSING>","(520) 694-8888","<MISSING>","32.2410854","-110.946286","<MISSING>"
"https://www.bannerhealth.com/","diamond-childrens-medical-center-er","1501 N Campbell Ave.","Tucson","AZ","85724","US","<MISSING>","(520) 694-5437","<MISSING>","32.2410854","-110.946286","<MISSING>"
"https://www.bannerhealth.com/","diamond-childrens-medical-center","1501 N Campbell Ave.","Tucson","AZ","85724","US","<MISSING>","(520) 694-5437","<MISSING>","32.2410854","-110.946286","<MISSING>"
"https://www.bannerhealth.com/","banner-university-medicine-whole-health-clinic-wilmot","535 N Wilmot Rd Ste 201","Tucson","AZ","85711","US","<MISSING>","(520) 694-1234","<MISSING>","32.2277127","-110.8587379","<MISSING>"
"https://www.bannerhealth.com/","diamond-childrens-multispecialty-services-clinic-wilmot","535 N Wilmot Rd Ste 101","Tucson","AZ","85711","US","<MISSING>","(520) 694-8888","<MISSING>","32.2277127","-110.8587379","<MISSING>"
"https://www.bannerhealth.com/","banner-urgent-care-broadway","5545 E Broadway Blvd Ste 101","Tucson","AZ","85711","US","<MISSING>","(520) 694-4920","<MISSING>","32.2219906","-110.8745241","<MISSING>"
"https://www.bannerhealth.com/","banner-urgent-care-golf-links","7066 E Golf Links Rd","Tucson","AZ","85730","US","<MISSING>","(520) 694-6420","<MISSING>","32.1911682","-110.8416961","<MISSING>"
"https://www.bannerhealth.com/","banner-urgent-care-oracle","6021 North Oracle Road, Suite 107","Tucson","AZ","85704","US","<MISSING>","(520) 694-6550","<MISSING>","32.3163811","-110.9770687","<MISSING>"
"https://www.bannerhealth.com/","banner-urgent-care-prince","3611 N Campbell Ave","Tucson","AZ","85719","US","<MISSING>","(520) 694-4650","<MISSING>","32.2725746","-110.9443573","<MISSING>"
"https://www.bannerhealth.com/","banner-urgent-care-thornydale","7089 N. Thornydale Road, Suite 101","Tucson","AZ","85741","US","<MISSING>","(520) 694-6600","<MISSING>","32.3359299","-111.047455","<MISSING>"
"https://www.bannerhealth.com/","banner-university-medicine-family-medicine-clinic-country-club","3950 S Country Club Rd Ste 130","Tucson","AZ","85714","US","<MISSING>","(520) 874-2250","<MISSING>","32.1759497","-110.9278985","<MISSING>"
"https://www.bannerhealth.com/","banner-university-medicine-endocrinology-and-diabetes-clinic-country-club","3950 S Country Club Rd Ste 140","Tucson","AZ","85714","US","<MISSING>","(520) 874-2048","<MISSING>","32.1759497","-110.9278985","<MISSING>"
"https://www.bannerhealth.com/","banner-family-pharmacy-ajo","2800 E Ajo Way","Tucson","AZ","85713","US","<MISSING>","(520) 874-4062","<MISSING>","32.1763145","-110.9306077","<MISSING>"
"https://www.bannerhealth.com/","banner-occupational-health-clinic-wilmot","1101 N Wilmot Rd #101","Tucson","AZ","85712","US","<MISSING>","(520) 694-2550","<MISSING>","32.2540946","-110.8850949","<MISSING>"
"https://www.bannerhealth.com/","banner-university-medical-group-cholla-pediatrics-orange-grove","2167 W Orange Grove Rd","Tucson","AZ","85741","US","<MISSING>","(520) 694-5437","<MISSING>","32.3216401","-111.0135802","<MISSING>"
"https://www.bannerhealth.com/","banner-university-medicine-breast-imaging-center-campbell","4291 N Campbell Ave","Tucson","AZ","85719","US","<MISSING>","(520) 694-4034","<MISSING>","32.2844204","-110.9451218","<MISSING>"
"https://www.bannerhealth.com/","banner-university-medicine-crisis-response-center-district","2802 E District St","Tucson","AZ","85714","US","<MISSING>","(520) 301-2400","<MISSING>","32.1744694","-110.9299731","<MISSING>"
"https://www.bannerhealth.com/","banner-university-medicine-dermatology-clinic-pima-canyon","7165 N Pima Canyon Dr","Tucson","AZ","85044","US","<MISSING>","(520) 694-2100","<MISSING>","32.3365298","-110.9468374","<MISSING>"
"https://www.bannerhealth.com/","university-of-arizona-cancer-center-tucson-orange-grove","1891 W Orange Grove Rd Bldg 1","Tucson","AZ","85704","US","<MISSING>","(520) 742-4183","<MISSING>","32.3223791","-111.0066411","<MISSING>"
"https://www.bannerhealth.com/","banner-home-medical-equipment-peoria","14131 Rio Vista Blvd., Suite 7","Peoria","AZ","85381","US","<MISSING>","(480) 657-1600","<MISSING>","33.612873","-112.2479393","<MISSING>"
"https://www.bannerhealth.com/","banner-family-pharmacy-plaza-del-rio","13640 N Plaza Del Rio Blvd","Peoria","AZ","85306","US","<MISSING>","(623) 465-6090","<MISSING>","33.6073016","-112.2590069","<MISSING>"
"https://www.bannerhealth.com/","banner-health-center-plaza-del-rio","13640 N Plaza Del Rio Blvd","Peoria","AZ","85306","US","<MISSING>","(623) 876-3800","<MISSING>","33.6073016","-112.2590069","<MISSING>"
"https://www.bannerhealth.com/","banner-surgery-center-plaza-del-rio","13640 N Plaza Del Rio Blvd Ste 135","Peoria","AZ","85306","US","<MISSING>","(623) 234-4766","<MISSING>","33.6073016","-112.2590069","<MISSING>"
"https://www.bannerhealth.com/","banner-health-center-thunderbird","9165 W Thunderbird Rd","Peoria","AZ","85381","US","<MISSING>","(623) 876-8420","<MISSING>","33.6090864","-112.2567972","<MISSING>"
"https://www.bannerhealth.com/","banner-health-clinic-deer-valley-family-medicine","8510 W Deer Valley Rd Ste C2 C3","Peoria","AZ","85382","US","<MISSING>","(623) 465-6060","<MISSING>","33.6819125","-112.242642","<MISSING>"
"https://www.bannerhealth.com/","banner-health-clinic-vistancia-pediatrics-and-internal-medicine","28471 N Vistancia Blvd Ste 102","Peoria","AZ","85383","US","<MISSING>","(623) 327-8800","<MISSING>","33.740895","-112.322321","<MISSING>"
"https://www.bannerhealth.com/","banner-physical-therapy-thunderbird","9401 W. Thunderbird Rd., Suite 190","Peoria","AZ","85381","US","<MISSING>","(623) 977-5451","<MISSING>","33.6092068","-112.2612215","<MISSING>"
"https://www.bannerhealth.com/","banner-urgent-care-cactus","7611 W Cactus Rd","Peoria","AZ","85381","US","<MISSING>","(623) 465-6315","<MISSING>","33.5954316","-112.2226211","<MISSING>"
"https://www.bannerhealth.com/","banner-urgent-care-deer-valley","21980 N 83rd Ave","Peoria","AZ","85383","US","<MISSING>","(623) 465-6375","<MISSING>","33.6832467","-112.238262","<MISSING>"
"https://www.bannerhealth.com/","banner-health-clinic-family-medicine-hunt-highway","2474 E Hunt Highway Ste 10","San Tan Valley","AZ","85143","US","<MISSING>","(480) 543-6680","<MISSING>","33.1381542","-111.5403557","<MISSING>"
"https://www.bannerhealth.com/","banner-health-clinic-orthopedics-ganzel","37100 N Gantzel Rd Ste 107","San Tan Valley","AZ","85140","US","<MISSING>","(480) 394-4480","<MISSING>","33.215898","-111.5642507","<MISSING>"
"https://www.bannerhealth.com/","banner-health-clinic-primary-care-gantzel","37100 N Gantzel Rd Ste 201","San Tan Valley","AZ","85140","US","<MISSING>","(480) 394-4469","<MISSING>","33.215898","-111.5642507","<MISSING>"
"https://www.bannerhealth.com/","banner-urgent-care-gary-empire","35945 N Gary Rd","San Tan Valley","AZ","85143","US","<MISSING>","(480) 827-5750","<MISSING>","33.2057297","-111.5822768","<MISSING>"
"https://www.bannerhealth.com/","banner-urgent-care-ironwood","40773 N Ironwood Rd","San Tan Valley","AZ","85140","US","<MISSING>","(480) 827-5760","<MISSING>","33.2495272","-111.5626204","<MISSING>"
"https://www.bannerhealth.com/","cardiovascular-institute-of-north-colorado-clinic-cardiology-clinic-boise","1900 N Boise Ave Ste 200","Loveland","CO","80538","US","<MISSING>","(970) 820-2400","<MISSING>","40.4124504","-105.052559","<MISSING>"
"https://www.bannerhealth.com/","cardiovascular-institute-of-north-colorado-cardiac-thoracic-and-vascular-surgery-clinic-boise","1900 Boise Ave.","Loveland","CO","80538","US","<MISSING>","(970) 810-4593","<MISSING>","40.4124504","-105.052559","<MISSING>"
"https://www.bannerhealth.com/","banner-health-clinic-boise-pulmonology","1900 N Boise Ave Ste 220","Loveland","CO","80538","US","<MISSING>","(970) 820-2120","<MISSING>","40.4124504","-105.052559","<MISSING>"
"https://www.bannerhealth.com/","banner-health-clinic-boise-surgery","1900 N Boise Ave Ste 420","Loveland","CO","80538","US","<MISSING>","(970) 820-3212","<MISSING>","40.4124504","-105.052559","<MISSING>"
"https://www.bannerhealth.com/","cardiovascular-institute-of-north-colorado-heart-failure-clinic-cheyenne","1813 Cheyenne Ave","Loveland","CO","80538","US","<MISSING>","(970) 820-2411","<MISSING>","40.4116441","-105.0502163","<MISSING>"
"https://www.bannerhealth.com/","banner-health-clinic-palliative-care-neurology-endocrinology-cheyenne","1813 Cheyenne Ave.","Loveland","CO","80538","US","<MISSING>","(970) 810-4676","<MISSING>","40.4116441","-105.0502163","<MISSING>"
"https://www.bannerhealth.com/","horizon-laboratory-ginnala","2923 Ginnala Dr","Loveland","CO","80738","US","<MISSING>","(970) 820-6890","<MISSING>","40.4223208","-105.0715418","<MISSING>"
"https://www.bannerhealth.com/","banner-health-clinic-ginnala-allergy","2923 Ginnala Drive","Loveland","CO","80738","US","<MISSING>","(970) 820-6660","<MISSING>","40.4223208","-105.0715418","<MISSING>"
"https://www.bannerhealth.com/","horizon-laboratory-13th","2555 E 13th St Ste 115","Loveland","CO","80537","US","<MISSING>","(970) 820-6890","<MISSING>","40.4064612","-105.0408559","<MISSING>"
"https://www.bannerhealth.com/","banner-urgent-care-13th","2555 E 13th St Ste 110","Loveland","CO","80537","US","<MISSING>","(970) 820-4264","<MISSING>","40.4064612","-105.0408559","<MISSING>"
"https://www.bannerhealth.com/","banner-health-clinic-13th-urology","2555 E 13th St Ste 230","Loveland","CO","80537","US","<MISSING>","(970) 820-2475","<MISSING>","40.4064612","-105.0408559","<MISSING>"
"https://www.bannerhealth.com/","banner-health-clinic-13th-orthopedics","2555 E 13th St Ste 105","Loveland","CO","80537","US","<MISSING>","(970) 820-6300","<MISSING>","40.4064612","-105.0408559","<MISSING>"
"https://www.bannerhealth.com/","banner-family-pharmacy-13th","2555 E 13th St Ste 125","Loveland","CO","80537","US","<MISSING>","(970) 820-4300","<MISSING>","40.4064612","-105.0408559","<MISSING>"
"https://www.bannerhealth.com/","banner-surgery-center-loveland","2555 E 13th St Ste 200","Loveland","CO","80537","US","<MISSING>","(970) 999-0240","<MISSING>","40.4064612","-105.0408559","<MISSING>"
"https://www.bannerhealth.com/","banner-health-clinic-13th-pediatrics","2555 E 13th St Ste 130","Loveland","CO","80537","US","<MISSING>","(970) 820-5437","<MISSING>","40.4064612","-105.0408559","<MISSING>"
"https://www.bannerhealth.com/","banner-physical-therapy-and-rehabilitation-center-hoffman","1632 Hoffman Dr.","Loveland","CO","80538","US","<MISSING>","(970) 820-3720","<MISSING>","40.4147232","-105.0529788","<MISSING>"
"https://www.bannerhealth.com/","banner-physical-therapy-and-rehabilitation-center-18th","1805 East 18th St., Suite 7 ","Loveland","CO","80538","US","<MISSING>","(970) 820-4171","<MISSING>","40.4113257","-105.0508555","<MISSING>"
"https://www.bannerhealth.com/","banner-health-center-loveland","1230 14th St SW","Loveland","CO","80537","US","<MISSING>","(970) 820-3999","<MISSING>","40.3774781","-105.0939994","<MISSING>"
"https://www.bannerhealth.com/","horizon-laboratory-14th","1230 14th St SW","Loveland","CO","80537","US","<MISSING>","(970) 820-6890","<MISSING>","40.3774781","-105.0939994","<MISSING>"
"https://www.bannerhealth.com/","banner-health-clinic-internal-medicine-cheyenne","1813 Cheyenne Ave.","Loveland","CO","80538","US","<MISSING>","(970) 820-4725","<MISSING>","40.4116441","-105.0502163","<MISSING>"
"https://www.bannerhealth.com/","banner-health-clinic-boise-obstetrics-and-gynecology","1900 N Boise Ave Ste 300","Loveland","CO","80538","US","<MISSING>","(970) 820-2009","<MISSING>","40.4124504","-105.052559","<MISSING>"
"https://www.bannerhealth.com/","banner-health-clinic-boise-cancer","2050 N Boise Ave","Loveland","CO","80538","US","<MISSING>","(970) 820-5941","<MISSING>","40.413461","-105.0512992","<MISSING>"
"https://www.bannerhealth.com/","banner-health-clinic-18th-obstetrics-and-midwifery","1647 E 18th St","Loveland","CO","80538","US","<MISSING>","(970) 820-6730","<MISSING>","40.4114311","-105.0524081","<MISSING>"
"https://www.bannerhealth.com/","stepping-stones-adult-day-program","302 3rd St SE Ste 100","Loveland","CO","80537","US","<MISSING>","(970) 820-6871","<MISSING>","40.3899593","-105.0724551","<MISSING>"
"https://www.bannerhealth.com/","banner-behavioral-health-hospital","7575 E Earll Dr.","Scottsdale","AZ","85251","US","<MISSING>","(480) 448-7500","<MISSING>","33.4832256","-111.9188068","<MISSING>"
"https://www.bannerhealth.com/","banner-behavioral-health-outpatient-clinic-san-alberto","8722 E San Alberto Dr Ste 100","Scottsdale","AZ","85258","US","<MISSING>","(480) 827-5320","<MISSING>","33.5556069","-111.8928632","<MISSING>"
"https://www.bannerhealth.com/","banner-childrens-specialists-endocrinology-clinic-chaparral","8840 E Chaparral Rd Ste 210","Scottsdale","AZ","85072","US","<MISSING>","(480) 827-5370","<MISSING>","33.5127193","-111.8908603","<MISSING>"
"https://www.bannerhealth.com/","banner-physical-therapy-95th","9917 N. 95th St.","Scottsdale","AZ","85258","US","<MISSING>","(480) 314-1553","<MISSING>","33.5770841","-111.8744184","<MISSING>"
"https://www.bannerhealth.com/","banner-physical-therapy-scottsdale","5111 N. Scottsdale Rd., Suite 100","Scottsdale","AZ","85250","US","<MISSING>","(480) 990-1379","<MISSING>","33.5118507","-111.9254673","<MISSING>"
"https://www.bannerhealth.com/","banner-urgent-care-greenway","6501 E Greenway Pkwy","Scottsdale","AZ","85254","US","<MISSING>","(602) 255-7640","<MISSING>","33.6246021","-111.9414679","<MISSING>"
"https://www.bannerhealth.com/","banner-urgent-care-scottsdale-shea","10330 N Scottsdale Rd Ste 25","Scottsdale","AZ","85253","US","<MISSING>","(602) 255-7625","<MISSING>","33.5801688","-111.9268456","<MISSING>"
"https://www.bannerhealth.com/","banner-university-medicine-multispecialty-clinic-canyon-de-flores","3533 Canyon de Flores Ste C","Sierra Vista","AZ","85650","US","<MISSING>","(520) 458-2000","<MISSING>","31.504743","-110.2559024","<MISSING>"
"https://www.bannerhealth.com/","banner-health-clinic-hardscrabble-mesa-family-medicine","6152 Hardscrabble Mesa Rd","Pine","AZ","85544","US","<MISSING>","(928) 596-4848","<MISSING>","34.3847035","-111.4561646","<MISSING>"
"https://www.bannerhealth.com/","banner-physical-therapy-rittenhouse","20851 E. Rittenhouse Rd., Ste. 103","Queen Creek","AZ","85142","US","<MISSING>","(480) 677-3294","<MISSING>","33.254803","-111.6335137","<MISSING>"
"https://www.bannerhealth.com/","banner-imaging-camino-del-sol","13909 W Camino Del Sol, Ste 101","Sun City West","AZ","85375","US","<MISSING>","(480) 610-7400","<MISSING>","33.6576924","-112.3623351","<MISSING>"
"https://www.bannerhealth.com/","banner-family-pharmacy-meeker","14502 W Meeker Blvd","Sun City West","AZ","85375","US","<MISSING>","(623) 524-6550","<MISSING>","33.6599234","-112.3728842","<MISSING>"
"https://www.bannerhealth.com/","banner-del-e-webb-medical-centers-louisa-kellam-center-for-womens-health-meeker","14502 W Meeker Blvd","Sun City West","AZ","85375","US","<MISSING>","(623) 524-4000","<MISSING>","33.6599234","-112.3728842","<MISSING>"
"https://www.bannerhealth.com/","banner-del-e-webb-medical-center","14502 W Meeker Blvd","Sun City West","AZ","85375","US","<MISSING>","(623) 524-4000","<MISSING>","33.6599234","-112.3728842","<MISSING>"
"https://www.bannerhealth.com/","banner-del-e-webb-medical-center-er","14502 W Meeker Blvd","Sun City West","AZ","85375","US","<MISSING>","(623) 524-4000","<MISSING>","33.6599234","-112.3728842","<MISSING>"
"https://www.bannerhealth.com/","banner-health-center-meeker","14420 W Meeker Blvd Bldg A Ste 104","Sun City West","AZ","85375","US","<MISSING>","(623) 583-5300","<MISSING>","33.6604413","-112.3701466","<MISSING>"
"https://www.bannerhealth.com/","banner-health-clinic-surgery-meeker","14416 W Meeker Blvd Bldg C Ste 100","Sun City West","AZ","85375","US","<MISSING>","(623) 524-8960","<MISSING>","33.6603189","-112.3692618","<MISSING>"
"https://www.bannerhealth.com/","banner-surgery-center-sun-city-west","14416 W Meeker Blvd Ste 103","Sun City West","AZ","85375","US","<MISSING>","(623) 234-3678","<MISSING>","33.6603189","-112.3692618","<MISSING>"
"https://www.bannerhealth.com/","banner-physical-therapy-meeker","14418 W Meeker Blvd., Bldg. B, Ste 103 & 301","Sun City West","AZ","85375","US","<MISSING>","(623) 888-3450","<MISSING>","33.6598809","-112.3698206","<MISSING>"
"https://www.bannerhealth.com/","banner-home-care-meeker","13950 W Meeker Blvd Ste 101","Sun City West","AZ","85375","US","<MISSING>","(970) 810-6339","<MISSING>","33.6595405","-112.3619972","<MISSING>"
"https://www.bannerhealth.com/","banner-urgent-care-meeker","13901 W Meeker Blvd","Sun City West","AZ","85375","US","<MISSING>","(623) 465-6435","<MISSING>","33.6597307","-112.3599017","<MISSING>"
"https://www.bannerhealth.com/","banner-imaging-meeker","14420 W Meeker Blvd, Ste A101","Sun City West","AZ","85375","US","<MISSING>","(480) 610-7400","<MISSING>","33.6599687","-112.3694633","<MISSING>"
"https://www.bannerhealth.com/","banner-lassen-medical-center-er","1800 Spring Ridge Dr","Susanville","CA","96130","US","<MISSING>","(530) 252-2000","<MISSING>","40.4367392","-120.6279894","<MISSING>"
"https://www.bannerhealth.com/","banner-lassen-medical-center","1800 Spring Ridge Dr","Susanville","CA","96130","US","<MISSING>","(530) 252-2000","<MISSING>","40.4367392","-120.6279894","<MISSING>"
"https://www.bannerhealth.com/","banner-lassen-outpatient-physical-therapy","2940 Riverside Dr Ste A","Susanville","CA","96130","US","<MISSING>","(530) 252-2662","<MISSING>","40.407082","-120.6372021","<MISSING>"
"https://www.bannerhealth.com/","banner-health-clinic-family-medicine-pediatrics-paul-bunyan","1680 Paul Bunyan Rd","Susanville","CA","96130","US","<MISSING>","(530) 257-5730","<MISSING>","40.4213744","-120.6469983","<MISSING>"
"https://www.bannerhealth.com/","banner-health-clinic-surgery-paul-bunyan","1345 A Paul Bunyan Rd","Susanville","CA","96130","US","<MISSING>","(530) 252-2500","<MISSING>","40.4231207","-120.649627","<MISSING>"
"https://www.bannerhealth.com/","banner-health-center-surprise","13995 W Statler Blvd., Suite 200","Surprise","AZ","85374","US","<MISSING>","(623) 478-3100","<MISSING>","33.6287718","-112.3613854","<MISSING>"
"https://www.bannerhealth.com/","banner-physical-therapy-grand","13951 W. Grand Ave., Unit 201","Surprise","AZ","85374","US","<MISSING>","(623) 537-9730","<MISSING>","33.6475245","-112.3628349","<MISSING>"
"https://www.bannerhealth.com/","banner-urgent-care-bell-reems","15521 W Bell Rd","Surprise","AZ","85374","US","<MISSING>","(623)-465-6390","<MISSING>","33.6376336","-112.3945477","<MISSING>"
"https://www.bannerhealth.com/","banner-physical-therapy-mcdowell","13055 W. McDowell Rd., Suite G107","Avondale","AZ","85392","US","<MISSING>","(623) 547-4787","<MISSING>","33.4629469","-112.3368505","<MISSING>"
"https://www.bannerhealth.com/","banner-physical-therapy-mcdowell-107th","10750 W. McDowell Rd., Suite B-210","Avondale","AZ","85392","US","<MISSING>","(623) 907-0746","<MISSING>","33.4650642","-112.2915788","<MISSING>"
"https://www.bannerhealth.com/","banner-health-clinic-10th","401 10th St","Berthoud","CO","80513","US","<MISSING>","(970) 532-4910","<MISSING>","40.3040999","-105.0888508","<MISSING>"
"https://www.bannerhealth.com/","associated-valley-radiologists-llc-mcdowell","13555 W McDowell Rd, Ste 106","Goodyear","AZ","85395","US","<MISSING>","(480) 610-7400","<MISSING>","33.4637021","-112.3504484","<MISSING>"
"https://www.bannerhealth.com/","banner-childrens-cardiology-clinic-mcdowell","14419 W. McDowell Rd, Suite E102","Goodyear","AZ","85395","US","<MISSING>","(480) 412-8013","<MISSING>","33.4635274","-112.3691623","<MISSING>"
"https://www.bannerhealth.com/","banner-childrens-urology-clinic-mcdowell","14419 W. McDowell Rd, Suite E102","Goodyear","AZ","85395","US","<MISSING>","(602) 865-4441","<MISSING>","33.4635274","-112.3691623","<MISSING>"
"https://www.bannerhealth.com/","banner-health-clinic-florence","3235 N Hunt Highway Ste 103","Florence","AZ","85132","US","<MISSING>","(520) 233-2770","<MISSING>","33.0614226","-111.4840885","<MISSING>"
"https://www.bannerhealth.com/","banner-health-clinic-behavioral-health-johnstown","222 Johnstown Center Drive","Johnstown","CO","80534","US","<MISSING>","(970) 810-5454","<MISSING>","40.3334457","-104.9086747","<MISSING>"
"https://www.bannerhealth.com/","banner-health-clinic-johnstown","222 Johnstown Center Dr","Johnstown","CO","80534","US","<MISSING>","(970) 587-4974","<MISSING>","40.3334457","-104.9086747","<MISSING>"
"https://www.bannerhealth.com/","banner-health-clinic-spruce-family-medicine","2601 N Spruce St","Ogallala","NE","69153","US","<MISSING>","(308) 284-3645","<MISSING>","41.1512006","-101.7186646","<MISSING>"
"https://www.bannerhealth.com/","ogallala-community-hospital-er","2601 N Spruce St","Ogallala Community HospitalOgallala","NE","69153","US","<MISSING>","(308) 284-4011","<MISSING>","41.1512006","-101.7186646","<MISSING>"
"https://www.bannerhealth.com/","ogallala-community-hospital","2601 N Spruce St","Ogallala","NE","69153","US","<MISSING>","(308) 284-4011","<MISSING>","41.1512006","-101.7186646","<MISSING>"
"https://www.bannerhealth.com/","banner-health-clinic-family-medicine-howell","1405 Howell Ave","Worland","WY","82401","US","<MISSING>","(307) 347-2555","<MISSING>","44.0118226","-107.9499337","<MISSING>"
"https://www.bannerhealth.com/","banner-health-clinic-surgery-15th","400 S. 15th St.","Worland","WY","82401","US","<MISSING>","(307) 347-2555","<MISSING>","44.0127469","-107.9494462","<MISSING>"
"https://www.bannerhealth.com/","washakie-medical-center","400 S 15th St","Worland","WY","82401","US","<MISSING>","(307) 347-3221","<MISSING>","44.0127469","-107.9494462","<MISSING>"
"https://www.bannerhealth.com/","washakie-medical-center-er","400 S 15th St","Worland","WY","82401","US","<MISSING>","(307) 347-3221","<MISSING>","44.0127469","-107.9494462","<MISSING>"
"https://www.bannerhealth.com/","banner-health-clinic-family-medicine-colland","303 Colland Dr","Fort Collins","CO","80525","US","<MISSING>","(970) 821-3031","<MISSING>","40.4796225","-105.0748299","<MISSING>"
"https://www.bannerhealth.com/","banner-health-clinic-behavior-health-colland","303 Colland Drive","Fort Collins","CO","80525","US","<MISSING>","(970) 821-3031","<MISSING>","40.4796225","-105.0748299","<MISSING>"
"https://www.bannerhealth.com/","banner-urgent-care-college-and-horsetooth","3617 S. College Ave. Suite C.","Fort Collins","CO","80525","US","<MISSING>","(970) 821-1500","<MISSING>","40.5375834","-105.0786889","<MISSING>"
"https://www.bannerhealth.com/","banner-health-clinic-obgyn-family-and-sports-medicine-main","1300 Main St","Windsor","CO","80550","US","<MISSING>","(970) 686-5646","<MISSING>","40.4807151","-104.923098","<MISSING>"
"https://www.bannerhealth.com/","horizon-laboratory-main","1300 Main St","Windsor","CO","80550","US","<MISSING>","(970) 820-6890","<MISSING>","40.4807151","-104.923098","<MISSING>"
"https://www.bannerhealth.com/","banner-health-center-buckeye","20751 W Market St","Buckeye","AZ","85396","US","<MISSING>","(623) 463-5000","<MISSING>","33.4636053","-112.505279","<MISSING>"
"https://www.bannerhealth.com/","banner-casa-grande-wound-center-florence","1800 E Florence Blvd.","Casa Grande","AZ","85122","US","<MISSING>","(520) 381-6150","<MISSING>","32.8814007","-111.7097636","<MISSING>"
"https://www.bannerhealth.com/","banner-casa-grande-medical-center","1800 E Florence Blvd","Casa Grande","AZ","85122","US","<MISSING>","(520) 381-6300","<MISSING>","32.8814007","-111.7097636","<MISSING>"
"https://www.bannerhealth.com/","banner-family-pharmacy-florence","1800 E Florence Blvd","Casa Grande","AZ","85122","US","<MISSING>","(520) 381-6400","<MISSING>","32.8814007","-111.7097636","<MISSING>"
"https://www.bannerhealth.com/","banner-casa-grande-breast-center","1800 E Florence Blvd","Casa Grande","AZ","85122","US","<MISSING>","(520) 381-6700","<MISSING>","32.8814007","-111.7097636","<MISSING>"
"https://www.bannerhealth.com/","banner-casa-grande-medical-center-er","1800 E Florence Blvd","Casa Grande","AZ","85122","US","<MISSING>","(520) 381-6300","<MISSING>","32.8814007","-111.7097636","<MISSING>"
"https://www.bannerhealth.com/","banner-health-clinic-mcmurray","1811 E McMurray Blvd","Casa Grande","AZ","85122","US","<MISSING>","(520) 374-6530","<MISSING>","32.8837834","-111.7093444","<MISSING>"
"https://www.bannerhealth.com/","banner-health-clinic-orthopedics-mcmurray","1811 E McMurray Blvd","Casa Grande","AZ","85122","US","<MISSING>","(520) 374-6520","<MISSING>","32.8837834","-111.7093444","<MISSING>"
"https://www.bannerhealth.com/","banner-health-clinic-surgery-florence","1828 E Florence Blvd Bldg A Ste 110","Casa Grande","AZ","85122","US","<MISSING>","(520) 876-4006","<MISSING>","32.8806528","-111.709487","<MISSING>"
"https://www.bannerhealth.com/","banner-physical-therapy-florence","1828 E Florence Blvd Bldg A Ste 102","Casa Grande","AZ","85122","US","<MISSING>","(520) 510-0360","<MISSING>","32.8806528","-111.709487","<MISSING>"
"https://www.bannerhealth.com/","banner-casa-grande-sleep-center","1828 E Florence Blvd Bldg C Ste 136","Casa Grande","AZ","85122","US","<MISSING>","(520) 381-6423","<MISSING>","32.8806528","-111.709487","<MISSING>"
"https://www.bannerhealth.com/","banner-health-clinic-gastroenterology-florence","1828 E Florence Blvd., Suite 112, Building A","Casa Grande","AZ","85122","US","<MISSING>","(520) 381-6912","<MISSING>","32.8806528","-111.709487","<MISSING>"
"https://www.bannerhealth.com/","banner-imaging","1828 E Florence Blvd Bldg B Ste 118 & 128","Casa Grande","AZ","85122","US","<MISSING>","(480) 610-7400","<MISSING>","32.8806528","-111.709487","<MISSING>"
"https://www.bannerhealth.com/","banner-occupational-health-clinic-florence","1676 E McMurray Blvd Ste 2","Casa Grande","AZ","85122","US","<MISSING>","(520) 381-6783","<MISSING>","32.8845639","-111.7147475","<MISSING>"
"https://www.bannerhealth.com/","banner-urgent-care-casa-grande","1676 E McMurray Blvd Ste 1","Casa Grande","AZ","85122","US","<MISSING>","(520) 316-0688","<MISSING>","32.8845639","-111.7147475","<MISSING>"
"https://www.bannerhealth.com/","banner-childrens-banner-health-clinic-florence","1760 E Florence Blvd Ste 100","Casa Grande","AZ","85122","US","<MISSING>","(520) 374-6505","<MISSING>","32.8803211","-111.7117772","<MISSING>"
"https://www.bannerhealth.com/","banner-churchill-community-hospital-er","801 E Williams","Fallon","NV","89406","US","<MISSING>","(775) 423-3151","<MISSING>","39.4766121","-118.7662421","<MISSING>"
"https://www.bannerhealth.com/","banner-health-clinic-williams","801 E Williams Ave","Fallon","NV","89406","US","<MISSING>","(775) 867-7740","<MISSING>","39.4766121","-118.7662421","<MISSING>"
"https://www.bannerhealth.com/","banner-health-clinic-pediatrics-williams","801 E Williams Ave Ste 2208","Fallon","NV","89406","US","<MISSING>","(775) 867-7712","<MISSING>","39.4766121","-118.7662421","<MISSING>"
"https://www.bannerhealth.com/","banner-churchill-community-hospital-physical-therapy-and-rehabilitation","801 E Williams Avenue ","Fallon","NV","89406","US","<MISSING>","(775) 867-7210","<MISSING>","39.4766121","-118.7662421","<MISSING>"
"https://www.bannerhealth.com/","banner-churchill-community-hospital","801 E Williams","Fallon","NV","89406","US","<MISSING>","(775) 423-3151","<MISSING>","39.4766121","-118.7662421","<MISSING>"
"https://www.bannerhealth.com/","banner-health-center-maricopa","17900 N Porter Rd","Maricopa","AZ","85138","US","<MISSING>","(520) 233-2500","<MISSING>","33.0422674","-112.0140094","<MISSING>"
"https://www.bannerhealth.com/","banner-academy","1410 W 10th Pl","Tempe","AZ","85281","US","<MISSING>","(480) 827-5348","<MISSING>","33.4181559","-111.9626357","<MISSING>"
"https://www.bannerhealth.com/","banner-childrens-urgent-care-elliot","931 E Elliott Rd., Ste 115","Tempe","AZ","85284","US","<MISSING>","(480) 827-5640","<MISSING>","33.3477685","-111.927377","<MISSING>"
"https://www.bannerhealth.com/","banner-health-clinic-family-medicine-internal-medicine-southern","2600 E Southern Ave Ste B2","Tempe","AZ","85282","US","<MISSING>","(480) 827-5265","<MISSING>","33.3933969","-111.8817311","<MISSING>"
"https://www.bannerhealth.com/","banner-physical-therapy-baseline","1972 E. Baseline Rd., Suite 103","Tempe","AZ","85283","US","<MISSING>","(480) 730-0501","<MISSING>","33.379093","-111.9016633","<MISSING>"
"https://www.bannerhealth.com/","banner-physical-therapy-broadway","1025 E. Broadway Rd., Suite 101","Tempe","AZ","85282","US","<MISSING>","(480) 829-0217","<MISSING>","33.4069328","-111.9230919","<MISSING>"
"https://www.bannerhealth.com/","banner-physical-therapy-greentree","1729 W. Greentree Dr., Suite 101","Tempe","AZ","85284","US","<MISSING>","(480) 785-1765","<MISSING>","33.3318464","-111.9689281","<MISSING>"
"https://www.bannerhealth.com/","banner-urgent-care-mcclintock","3141 S McClintock Dr Ste 1","Tempe","AZ","85282","US","<MISSING>","(480) 827-5650","<MISSING>","33.3947794","-111.9085598","<MISSING>"
"https://www.bannerhealth.com/","banner-urgent-care-rural","6323 S Rural Rd Ste 107","Tempe","AZ","85283","US","<MISSING>","(480) 827-5630","<MISSING>","33.3640113","-111.9281688","<MISSING>"
"https://www.bannerhealth.com/","banner-imaging-warner","1840 E Warner Rd, Ste 114","Tempe","AZ","85284","US","<MISSING>","(480) 610-7400","<MISSING>","33.3357209","-111.9099571","<MISSING>"
"https://www.bannerhealth.com/","banner-health-clinic-family-medicine-big-horn","443 Big Horn Ave.","Thermopolis","WY","82443","US","<MISSING>","(307) 864-3137","<MISSING>","43.6481821","-108.2098298","<MISSING>"
"https://www.bannerhealth.com/","banner-childrens-community-clinic","9401 W Garfield St. ","Tolleson","AZ","85353","US","<MISSING>","(480) 412-6344","<MISSING>","33.4557902","-112.2616188","<MISSING>"
"https://www.bannerhealth.com/","banner-university-medicine-multispecialty-services-la-canada","1141 S La Canada Dr","Green Valley","AZ","85614","US","<MISSING>","(520) 694-3030","<MISSING>","31.8535841","-110.9976529","<MISSING>"
"https://www.bannerhealth.com/","banner-health-clinic-primary-care-6th","7859 6th Street","Wellington ","CO","80549","US","<MISSING>","(970) 821-3200","<MISSING>","40.7000741","-105.0011828","<MISSING>"
"https://www.bannerhealth.com/","banner-physical-therapy-airway","2120 Airway Ave.","Kingman","AZ","86409","US","<MISSING>","(928) 757-1211","<MISSING>","35.2244214","-114.0284273","<MISSING>"
"https://www.bannerhealth.com/","banner-health-clinic-urology-railroad","909 E Railroad Ave","Fort Morgan","CO","80701-3301","US","<MISSING>","(970) 810-1000","<MISSING>","40.2490378","-103.7861735","<MISSING>"
"https://www.bannerhealth.com/","banner-health-clinic-primary-care-railroad","909 E Railroad Ave","Fort Morgan","CO","80701-3301","US","<MISSING>","(970) 542-4700","<MISSING>","40.2490378","-103.7861735","<MISSING>"
"https://www.bannerhealth.com/","banner-health-clinic-main","500 Main St","Fort Morgan","CO","80701","US","<MISSING>","(970) 542-0360","<MISSING>","40.2528712","-103.8011141","<MISSING>"
"https://www.bannerhealth.com/","banner-university-medicine-primary-care-clinic","8020 Cortaro Rd., Ste. 150 ","Marana","AZ","85743","US","<MISSING>","(520) 694-1040","<MISSING>","32.3526695","-111.0930791","<MISSING>"
"https://www.bannerhealth.com/","banner-goldfield-medical-center-er","2050 W Southern Ave","Apache Junction","AZ","85120","US","<MISSING>","(480) 733-3300","<MISSING>","33.394434","-111.5670454","<MISSING>"
"https://www.bannerhealth.com/","banner-goldfield-medical-center","2050 W Southern Ave","Apache Junction","AZ","85120","US","<MISSING>","(480) 733-3300","<MISSING>","33.394434","-111.5670454","<MISSING>"
"https://www.bannerhealth.com/","banner-imaging-40th","16641 N 40th St., Suite W103","Phoenix","AZ","85032","US","<MISSING>","(480) 610-7400","<MISSING>","33.6385409","-111.9955187","<MISSING>"
"https://www.bannerhealth.com/","banner-imaging-breast-40th","16641 N 40th St., Suite W101","Phoenix","AZ","85032","US","<MISSING>","(480) 610-7400","<MISSING>","33.6385409","-111.9955187","<MISSING>"
"https://www.bannerhealth.com/","banner-physical-therapy-19th-avenue","20045 N. 19th Avenue #8","Phoenix","AZ","85027","US","<MISSING>","(623) 594-9034","<MISSING>","33.4652121","-112.0626381","<MISSING>"
"https://www.bannerhealth.com/","banner-urgent-care-central","1 North Central Ave.","Phoenix","AZ","85004","US","<MISSING>","(602) 255-7650","<MISSING>","33.4486628","-112.0732068","<MISSING>"
"https://www.bannerhealth.com/","banner-imaging-thomas-100","9305 W Thomas Rd, Ste 100","Phoenix","AZ","85037","US","<MISSING>","(480) 610-7400","<MISSING>","33.4779888","-112.2604298","<MISSING>"
"https://www.bannerhealth.com/","banner-estrella-weight-loss-center","9305 W Thomas Rd Ste 380","Phoenix","AZ","85037","US","<MISSING>","(623) 327-4144","<MISSING>","33.4779888","-112.2604298","<MISSING>"
"https://www.bannerhealth.com/","banner-health-clinic-thomas-infectious-disease-and-pulmonology","9305 W Thomas Rd Ste 380","Phoenix","AZ","85037","US","<MISSING>","(623) 327-4144","<MISSING>","33.4779888","-112.2604298","<MISSING>"
"https://www.bannerhealth.com/","banner-health-clinic-thomas-surgery","9305 W Thomas Rd Ste 360","Phoenix","AZ","85037","US","<MISSING>","(623) 327-8200","<MISSING>","33.4779888","-112.2604298","<MISSING>"
"https://www.bannerhealth.com/","banner-imaging-thomas-200","9305 W Thomas Rd, Ste 200","Phoenix","AZ","85037","US","<MISSING>","(480) 610-7400","<MISSING>","33.4779888","-112.2604298","<MISSING>"
"https://www.bannerhealth.com/","banner-alzheimers-institute","901 E Willetta St 1st Floor and 3rd Floor","Phoenix","AZ","85006","US","<MISSING>","(602) 839-6900","<MISSING>","33.4631424","-112.0617334","<MISSING>"
"https://www.bannerhealth.com/","banner-university-medicine-diabetes-and-endocrinology-institute-12th","1441 N 12th St","Phoenix","AZ","85006","US","<MISSING>","(602) 521-5200","<MISSING>","33.4641908","-112.0549028","<MISSING>"
"https://www.bannerhealth.com/","banner-university-medicine-digestive-institute-12th","1441 N 12th St","Phoenix","AZ","85006","US","<MISSING>","(602) 521-4664","<MISSING>","33.4641908","-112.0549028","<MISSING>"
"https://www.bannerhealth.com/","banner-university-medicine-general-surgery-center-12th","1441 N 12th St","Phoenix","AZ","85006","US","<MISSING>","(602) 521-5969","<MISSING>","33.4641908","-112.0549028","<MISSING>"
"https://www.bannerhealth.com/","banner-university-medicine-obesity-and-bariatric-surgery-center-12th","1441 N. 12th Street","2nd floorPhoenix","AZ","85006","US","<MISSING>","(602) 521-3050","<MISSING>","33.4641908","-112.0549028","<MISSING>"
"https://www.bannerhealth.com/","banner-university-medicine-transplant-institute-12th","1441 N 12th St","Phoenix","AZ","85006","US","<MISSING>","(602) 521-5900","<MISSING>","33.4641908","-112.0549028","<MISSING>"
"https://www.bannerhealth.com/","banner-university-medicine-urology-institute-12th","1441 N 12th St","Phoenix","AZ","85006","US","<MISSING>","(602) 521-5770","<MISSING>","33.4641908","-112.0549028","<MISSING>"
"https://www.bannerhealth.com/","banner-cancer-specialists","1441 N. 12th St.","Phoenix","AZ","85006","US","<MISSING>","(602) 521-3700 ","<MISSING>","33.4641908","-112.0549028","<MISSING>"
"https://www.bannerhealth.com/","banner-family-pharmacy-12th","1441 N 12th St","Phoenix","AZ","85006","US","<MISSING>","(602) 521-5000","<MISSING>","33.4641908","-112.0549028","<MISSING>"
"https://www.bannerhealth.com/","banner-university-medical-center-oral-and-maxillofacial-surgery-clinic-mcdowell","1441 N 12th St","Phoenix","AZ","85006","US","<MISSING>","(602) 844-4664","<MISSING>","33.4641908","-112.0549028","<MISSING>"
"https://www.bannerhealth.com/","banner-university-medicine-womens-institute-12th","1441 N 12th St","Phoenix","AZ","85006","US","<MISSING>","(602) 521-5700","<MISSING>","33.4641908","-112.0549028","<MISSING>"
"https://www.bannerhealth.com/","banner-university-medicine-family-medicine-clinic-12th","1300 N 12th St Ste 605","Phoenix","AZ","85006","US","<MISSING>","(602) 839-4567","<MISSING>","33.4628408","-112.0572315","<MISSING>"
"https://www.bannerhealth.com/","banner-university-medicine-infectious-disease-clinic-12th","1300 N 12th St Ste 600","Phoenix","AZ","85006","US","<MISSING>","(602) 521-4675","<MISSING>","33.4628408","-112.0572315","<MISSING>"
"https://www.bannerhealth.com/","banner-university-medicine-behavioral-health-clinic-12th","1300 N 12th St Ste 320","Phoenix","AZ","85006","US","<MISSING>","(602) 521-3600","<MISSING>","33.4628408","-112.0572315","<MISSING>"
"https://www.bannerhealth.com/","banner-university-medicine-transitional-care-clinic-12th","1300 N 12th St Ste 608","Phoenix","AZ","85006","US","<MISSING>","(602) 839-4567","<MISSING>","33.4628408","-112.0572315","<MISSING>"
"https://www.bannerhealth.com/","banner-university-medicine-rheumatology-clinic-12th","1300 N 12th St Ste 614","Phoenix","AZ","85006","US","<MISSING>","(602) 521-3000","<MISSING>","33.4628408","-112.0572315","<MISSING>"
"https://www.bannerhealth.com/","banner-university-medical-center-phoenix-occupational-health-clinic-12th","1300 N 12th St Ste 520","Phoenix","AZ","85006","US","<MISSING>","(602) 839-4456","<MISSING>","33.4628408","-112.0572315","<MISSING>"
"https://www.bannerhealth.com/","banner-university-medicine-head-and-neck-institute-12th","1441 N 12th St","Phoenix","AZ","85006","US","<MISSING>","(602) 521-5150","<MISSING>","33.4641908","-112.0549028","<MISSING>"
"https://www.bannerhealth.com/","banner-university-medicine-trauma-and-critical-care-surgery-center-12th","1441 N 12th St","Phoenix","AZ","85006","US","<MISSING>","(602) 521-5968","<MISSING>","33.4641908","-112.0549028","<MISSING>"
"https://www.bannerhealth.com/","banner-university-medicine-heart-institute","755 E McDowell Rd","Floor 4Phoenix","AZ","85006","US","<MISSING>","(602) 521-3090","<MISSING>","33.4650324","-112.0624479","<MISSING>"
"https://www.bannerhealth.com/","banner-university-medicine-lung-institute","755 E. McDowell Road","Phoenix","AZ","85006","US","<MISSING>","(602) 521-3400","<MISSING>","33.4650324","-112.0624479","<MISSING>"
"https://www.bannerhealth.com/","banner-physical-therapy-mcdowell","755 E McDowell Rd., 1st Floor","Phoenix","AZ","85006","US","<MISSING>","(480) 210-6556","<MISSING>","33.4650324","-112.0624479","<MISSING>"
"https://www.bannerhealth.com/","banner-university-medicine-orthopedic-clinic-mcdowell","755 E McDowell Rd","Phoenix","AZ","85006","US","<MISSING>","(602) 521-3250","<MISSING>","33.4650324","-112.0624479","<MISSING>"
"https://www.bannerhealth.com/","banner-university-medicine-internal-medicine-clinic-12th","1300 N 12th St Ste 508","Phoenix","AZ","85006","US","<MISSING>","(602) 839-3927","<MISSING>","33.4628408","-112.0572315","<MISSING>"
"https://www.bannerhealth.com/","banner-university-medicine-transplant-center-and-advanced-liver-disease-clinic-12th","1300 N 12th St Ste 404","Phoenix","AZ","85006","US","<MISSING>","(602) 839-7000","<MISSING>","33.4628408","-112.0572315","<MISSING>"
"https://www.bannerhealth.com/","banner-university-medicine-neurosciences-clinic-mcdowell","755 E McDowell Rd","Phoenix","AZ","85006","US","<MISSING>","(602) 521-3300","<MISSING>","33.4650324","-112.0624479","<MISSING>"
"https://www.bannerhealth.com/","banner-university-medicine-rehabilitation-institute-wiletta","1012 E Willetta St 3rd Fl","Phoenix","AZ","85006","US","<MISSING>","(602) 839-4539","<MISSING>","33.4639852","-112.060026","<MISSING>"
"https://www.bannerhealth.com/","banner-university-medicine-toxicology-clinic-wiletta","1012 E Willetta St 2nd Floor","Phoenix","AZ","85006","US","<MISSING>","(602) 839-6690","<MISSING>","33.4639852","-112.060026","<MISSING>"
"https://www.bannerhealth.com/","banner-university-medical-center-wound-care-and-hyperbaric-medicine-clinic-willetta","1012 E Willetta St","Phoenix","AZ","85006","US","<MISSING>","(602) 839-6040","<MISSING>","33.4639852","-112.060026","<MISSING>"
"https://www.bannerhealth.com/","banner-health-clinic-family-medicine-70th","2001 70th Ave., Suite 200","Greeley","CO","80634","US","<MISSING>","(970) 810-3550","<MISSING>","40.4065333","-104.7935282","<MISSING>"
"https://www.bannerhealth.com/","horizon-laboratory-70th","2001 70th Ave","Greeley","CO","80634","US","<MISSING>","(970)820-6890","<MISSING>","40.4065333","-104.7935282","<MISSING>"
"https://www.bannerhealth.com/","banner-health-clinic-gynecology-70th","2001 70th Ave.","Suite 300Greeley","CO","80634","US","<MISSING>","(970) 810-6353","<MISSING>","40.4065333","-104.7935282","<MISSING>"
"https://www.bannerhealth.com/","banner-health-clinic-internal-medicine-70th","2001 70th Ave., Suite 300","Greeley","CO","80634","US","<MISSING>","(970) 810-2500","<MISSING>","40.4065333","-104.7935282","<MISSING>"
"https://www.bannerhealth.com/","north-colorado-medical-center-breast-center","2001 70th Ave","Greeley","CO","80634","US","<MISSING>","(970) 810-2500","<MISSING>","40.4065333","-104.7935282","<MISSING>"
"https://www.bannerhealth.com/","banner-health-clinic-pediatrics-70th","2001 70th Ave.","Suite 300Greeley","CO","80634","US","<MISSING>","(970) 810-5828","<MISSING>","40.4065333","-104.7935282","<MISSING>"
"https://www.bannerhealth.com/","banner-family-pharmacy-70th","2001 70th Ave","Greeley","CO","80634","US","<MISSING>","(970) 810-2000","<MISSING>","40.4065333","-104.7935282","<MISSING>"
"https://www.bannerhealth.com/","banner-urgent-care-7th-camelback","5018 N. 7th St. ","Phoenix","AZ","85014","US","<MISSING>","(602) 255-7680","<MISSING>","33.509911","-112.065289","<MISSING>"
"https://www.bannerhealth.com/","banner-urgent-care-7th-cave-creek","9111 N 7th St","Phoenix","AZ","85020","US","<MISSING>","(602) 255-7670","<MISSING>","33.5686348","-112.0649164","<MISSING>"
"https://www.bannerhealth.com/","banner-physical-therapy-and-rehabilitation-center","5890 W. 13th St., Suite 110","Greeley","CO","80634","US","<MISSING>","(970) 810-4567","<MISSING>","40.4164523","-104.774519","<MISSING>"
"https://www.bannerhealth.com/","banner-surgery-center-greeley","5890 W 13th St Ste 102","Greeley","CO","80634","US","<MISSING>","(970) 922-3844","<MISSING>","40.4164523","-104.774519","<MISSING>"
"https://www.bannerhealth.com/","banner-health-clinic-urology-13th","5890 W 13th St Ste 106","Greeley","CO","80634","US","<MISSING>","(970) 810-1000","<MISSING>","40.4164523","-104.774519","<MISSING>"
"https://www.bannerhealth.com/","banner-health-clinic-orthopedics-13th","5890 W 13th St Ste 101","Greeley","CO","80634","US","<MISSING>","(970) 810-0020","<MISSING>","40.4164523","-104.774519","<MISSING>"
"https://www.bannerhealth.com/","banner-health-clinic-behavioral-health-13th","5890 W 13th St Ste 114","Greeley","CO","80634","US","<MISSING>","(970) 810-5454","<MISSING>","40.4164523","-104.774519","<MISSING>"
"https://www.bannerhealth.com/","banner-urgent-care-bell-32nd","3247 E Bell Rd","Phoenix","AZ","85032","US","<MISSING>","(602) 255-7655","<MISSING>","33.6402763","-112.011634","<MISSING>"
"https://www.bannerhealth.com/","banner-urgent-care-glendale","1940 W. Glendale Ave.","Phoenix","AZ","85021","US","<MISSING>","(602) 255-7690","<MISSING>","33.5391963","-112.1002666","<MISSING>"
"https://www.bannerhealth.com/","banner-urgent-care-35th","2015 35th Ave.","Greeley","CO","80634","US","<MISSING>","(970) 810-4155","<MISSING>","40.4060351","-104.7356418","<MISSING>"
"https://www.bannerhealth.com/","banner-university-medical-center-phoenix-sleep-center-mcdowell","1111 E McDowell Rd","Phoenix","AZ","85006","US","<MISSING>","(480) 412-3684","<MISSING>","33.4649674","-112.0578836","<MISSING>"
"https://www.bannerhealth.com/","banner-family-pharmacy-mcdowell","1111 E McDowell Rd","Phoenix","AZ","85006","US","<MISSING>","(602) 839-2300","<MISSING>","33.4649674","-112.0578836","<MISSING>"
"https://www.bannerhealth.com/","banner-university-medical-center-phoenix-er","1111 E. McDowell Rd.","Phoenix","AZ","85006","US","<MISSING>","(602) 839-2000","<MISSING>","33.4649674","-112.0578836","<MISSING>"
"https://www.bannerhealth.com/","laura-dreier-breast-center-mcdowell","1111 E McDowell Rd","Phoenix","AZ","85006","US","<MISSING>","(602) 839-6300","<MISSING>","33.4649674","-112.0578836","<MISSING>"
"https://www.bannerhealth.com/","banner-corporate-center-phoenix","2901 N Central Ave Ste 160","Phoenix","AZ","85012","US","<MISSING>","(602) 747-4000","<MISSING>","33.4806593","-112.0728202","<MISSING>"
"https://www.bannerhealth.com/","hospitality-house-at-north-colorado-medical-center","1910 15th St","Greeley","CO","80631","US","<MISSING>","(970) 810-6577","<MISSING>","40.415491","-104.7102151","<MISSING>"
"https://www.bannerhealth.com/","banner-north-colorado-emergency-care","2000 70th Ave","Greeley","CO","80634","US","<MISSING>","(970) 810-2636","<MISSING>","40.4063761","-104.7923429","<MISSING>"
"https://www.bannerhealth.com/","banner-home-medical-equipment-59th","1990 59th Ave Ste 300","Greeley","CO","80631","US","<MISSING>","(970) 810-6420","<MISSING>","40.4073465","-104.7744129","<MISSING>"
"https://www.bannerhealth.com/","banner-family-pharmacy-thomas","9201 W Thomas Rd","Phoenix","AZ","85037","US","<MISSING>","(623) 327-6170","<MISSING>","33.4784822","-112.2575889","<MISSING>"
"https://www.bannerhealth.com/","banner-estrella-medical-center","9201 W Thomas Rd","Phoenix","AZ","85037","US","<MISSING>","(623) 327-4000","<MISSING>","33.4784822","-112.2575889","<MISSING>"
"https://www.bannerhealth.com/","banner-estrella-medical-center-er","9201 W Thomas Rd","Phoenix","AZ","85037","US","<MISSING>","(623) 327-4000","<MISSING>","33.4784822","-112.2575889","<MISSING>"
"https://www.bannerhealth.com/","banner-health-center-greenway","4720 E Greenway Rd","Phoenix","AZ","85032","US","<MISSING>","(602) 439-6000","<MISSING>","33.6267413","-111.9794033","<MISSING>"
"https://www.bannerhealth.com/","banner-health-center-irma-desert-ridge","4375 E. Irma Lane","Phoenix","AZ","85050","US","<MISSING>","(480) 890-5800","<MISSING>","33.6743289","-111.9856911","<MISSING>"
"https://www.bannerhealth.com/","banner-health-clinic-32nd-family-medicine-and-internal-medicine","4400 N 32nd St Ste 200","Phoenix","AZ","85018","US","<MISSING>","(602) 839-0444","<MISSING>","33.5010298","-112.0133457","<MISSING>"
"https://www.bannerhealth.com/","banner-health-clinic-ray-family-medicine","4530 E Ray Rd Ste 150","Phoenix","AZ","85044","US","<MISSING>","(480) 827-5420","<MISSING>","33.3211555","-111.9864363","<MISSING>"
"https://www.bannerhealth.com/","banner-health-clinic-neurology-16th","2410 W. 16th Street","Greeley","CO","80634","US","<MISSING>","(970) 810-5612","<MISSING>","40.4138279","-104.7182345","<MISSING>"
"https://www.bannerhealth.com/","banner-health-clinic-pain-management-16th","2410 W. 16th Street","Greeley","CO","80634","US","<MISSING>","(970) 810-3988","<MISSING>","40.4138279","-104.7182345","<MISSING>"
"https://www.bannerhealth.com/","banner-occupational-health-clinic-thomas","9305 W Thomas Rd Ste 235","Phoenix","AZ","85037","US","<MISSING>","(623) 327-4100","<MISSING>","33.4779888","-112.2604298","<MISSING>"
"https://www.bannerhealth.com/","banner-physical-therapy-7th-avenue","2942 N. 7th Ave.","Phoenix","AZ","85013","US","<MISSING>","(602) 277-0084","<MISSING>","33.4820684","-112.0833601","<MISSING>"
"https://www.bannerhealth.com/","banner-physical-therapy-7th-street","14001 N. 7th St., Suite A-102","Phoenix","AZ","85022","US","<MISSING>","(602) 548-5445","<MISSING>","33.6130942","-112.0642179","<MISSING>"
"https://www.bannerhealth.com/","banner-physical-therapy-bell","4045 E. Bell Rd., Suite 150","Phoenix","AZ","85032","US","<MISSING>","(602) 992-8352","<MISSING>","33.6396116","-111.9946803","<MISSING>"
"https://www.bannerhealth.com/","banner-physical-therapy-camelback","1661 E. Camelback Rd., Suite 152","Phoenix","AZ","85016","US","<MISSING>","(602) 955-8885","<MISSING>","33.506986","-112.0454946","<MISSING>"
"https://www.bannerhealth.com/","banner-health-clinic-pulmonology-16th","1801 16th St. First Floor","Greeley","CO","80631","US","<MISSING>","(970) 810-2026","<MISSING>","40.4148248","-104.7097371","<MISSING>"
"https://www.bannerhealth.com/","banner-corporate-center-colorado","7251 W 4th St","Greeley","CO","80634","US","<MISSING>","(970) 336-4331","<MISSING>","40.4302152","-104.7956709","<MISSING>"
"https://www.bannerhealth.com/","banner-physical-therapy-dunlap","2400 W. Dunlap Ave., Suite 145","Phoenix","AZ","85021","US","<MISSING>","(602) 870-1414","<MISSING>","33.5683767","-112.1114444","<MISSING>"
"https://www.bannerhealth.com/","banner-physical-therapy-lexington","219 Lexington Ave.","Phoenix","AZ","85012","US","<MISSING>","(602) 277-0084","<MISSING>","33.4858766","-112.0702027","<MISSING>"
"https://www.bannerhealth.com/","banner-surgery-center-estrella","9301 W Thomas Rd","Phoenix","AZ","85037","US","<MISSING>","(623) 213-7407","<MISSING>","33.4784711","-112.2607489","<MISSING>"
"https://www.bannerhealth.com/","banner-health-clinic-endocrinology-15th","1800 15th St Ste 200","Greeley","CO","80631","US","<MISSING>","(970) 810-4676","<MISSING>","40.4151886","-104.7074357","<MISSING>"
"https://www.bannerhealth.com/","cardiovascular-institute-of-north-colorado-vein-clinic-15th","1800 15th St Ste 340","Greeley","CO","80631","US","<MISSING>","(970) 810-4100","<MISSING>","40.4151886","-104.7074357","<MISSING>"
"https://www.bannerhealth.com/","cardiovascular-institute-of-north-colorado-cardiac-vascular-and-thoracic-surgery-clinic-15th","1800 15th St Ste 310","Greeley","CO","80631","US","<MISSING>","(970) 810-4593","<MISSING>","40.4151886","-104.7074357","<MISSING>"
"https://www.bannerhealth.com/","banner-health-clinic-neurosurgery-15th","1800 15th St Ste 100B","Greeley","CO","80631","US","<MISSING>","(970) 810-5996","<MISSING>","40.4151886","-104.7074357","<MISSING>"
"https://www.bannerhealth.com/","banner-surgery-center-university","1040 E McDowell Rd","Phoenix","AZ","85006","US","<MISSING>","(602) 368-3854","<MISSING>","33.4659274","-112.0591239","<MISSING>"
"https://www.bannerhealth.com/","banner-urgent-care-indian-school","3141 E Indian School Rd Ste 102 103 104","Phoenix","AZ","85016","US","<MISSING>","(602) 255-7700","<MISSING>","33.49421","-112.0136536","<MISSING>"
"https://www.bannerhealth.com/","banner-imaging-25th","18444 N 25th Ave, Ste 140","Phoenix","AZ","85023","US","<MISSING>","(480) 610-7400","<MISSING>","33.6537187","-112.1129637","<MISSING>"
"https://www.bannerhealth.com/","sterling-regional-medcenter","615 Fairhurst St","Sterling","CO","80751","US","<MISSING>","(970) 522-0122","<MISSING>","40.6123996","-103.2210843","<MISSING>"
"https://www.bannerhealth.com/","sterling-regional-medcenter-er","615 Fairhurst St","Sterling","CO","80751","US","<MISSING>","(970) 522-0122","<MISSING>","40.6123996","-103.2210843","<MISSING>"
"https://www.bannerhealth.com/","banner-health-clinic-family-care-clinic-fairhurst","615 Fairhurst St","Sterling","CO","80751","US","<MISSING>","(970) 521-3223","<MISSING>","40.6123996","-103.2210843","<MISSING>"
"https://www.bannerhealth.com/","david-walsh-cancer-center-fairhurst","615 Fairhurst St.","Sterling","CO","80751","US","<MISSING>","(970) 526-5555","<MISSING>","40.6123996","-103.2210843","<MISSING>"
"https://www.bannerhealth.com/","banner-health-center-hays-sterling","102 Hays Ave","Sterling","CO","80751","US","<MISSING>","(970) 521-3223","<MISSING>","40.6258866","-103.2310102","<MISSING>"
"https://www.bannerhealth.com/","horizon-laboratory-hays","102 Hays Ave","Sterling","CO","80751","US","<MISSING>","(970) 820-6890","<MISSING>","40.6258866","-103.2310102","<MISSING>"
"https://www.bannerhealth.com/","banner-health-clinic-obstetrics-gynecology-8th","1405 S 8th Ave Ste 105","Sterling","CO","80751","US","<MISSING>","(970) 526-8100","<MISSING>","40.6124043","-103.2217153","<MISSING>"
"https://www.bannerhealth.com/","banner-health-clinic-surgery-8th","1405 S 8th Ave Ste 101","Sterling","CO","80751","US","<MISSING>","(970) 522-2264","<MISSING>","40.6124043","-103.2217153","<MISSING>"
"https://www.bannerhealth.com/","cardiovascular-institute-of-north-colorado-cardiology-clinic-8th","1405 S 8th Ave Ste 104","Sterling","CO","80751","US","<MISSING>","(970) 810-0900","<MISSING>","40.6124043","-103.2217153","<MISSING>"
"https://www.bannerhealth.com/","banner-imaging-gilbert","665 N Gilbert Rd, Ste 154","Gilbert","AZ","85234","US","<MISSING>","(480) 610-7400","<MISSING>","33.3617594","-111.7880985","<MISSING>"
"https://www.bannerhealth.com/","banner-neuro-wellness-gilbert","207 N. Gilbert Rd. Suite 205","Gilbert","AZ","85234","US","<MISSING>","(480) 827-5800 ","<MISSING>","33.3538442","-111.7893201","<MISSING>"
"https://www.bannerhealth.com/","banner-childrens-banner-health-clinic-mercy","3493 S Mercy Rd Bldg 15","Gilbert","AZ","85297","US","<MISSING>","(480) 827-5042","<MISSING>","33.2857632","-111.7473527","<MISSING>"
"https://www.bannerhealth.com/","banner-physical-therapy-mercy","3507 S. Mercy Rd., Suite 105","Gilbert","AZ","85297","US","<MISSING>","(480) 926-0404","<MISSING>","33.2854409","-111.7486569","<MISSING>"
"https://www.bannerhealth.com/","banner-health-clinic-orthopedics-higley","1920 N Higley Rd Ste 206","Gilbert","AZ","85234","US","<MISSING>","(480) 543-6700","<MISSING>","33.3851528","-111.7207003","<MISSING>"
"https://www.bannerhealth.com/","banner-health-clinic-surgery-higley","1920 N Higley Rd Ste 308","Gilbert","AZ","85234","US","<MISSING>","(480) 412-7474","<MISSING>","33.3851528","-111.7207003","<MISSING>"
"https://www.bannerhealth.com/","banner-gateway-weight-loss-center","1920 N Higley Rd Ste 306","Gilbert","AZ","85234","US","<MISSING>","(480) 543-2606","<MISSING>","33.3851528","-111.7207003","<MISSING>"
"https://www.bannerhealth.com/","community-hospital","2000 Campbell Dr","Torrington","WY","82240","US","<MISSING>","(307) 532-4181","<MISSING>","42.0828261","-104.1936148","<MISSING>"
"https://www.bannerhealth.com/","banner-health-clinic-family-medicine-campbell","2000 Campbell Dr","Torrington","WY","82240","US","<MISSING>","(307) 532-8758","<MISSING>","42.0828261","-104.1936148","<MISSING>"
"https://www.bannerhealth.com/","community-hospital-physical-therapy-and-rehabilitation","2000 Campbell Dr., Suite B","Torrington","WY","82240","US","<MISSING>","(307) 534-7173","<MISSING>","42.0828261","-104.1936148","<MISSING>"
"https://www.bannerhealth.com/","banner-health-clinic-family-medicine-albany","625 Albany Ave","Torrington","WY","82240","US","<MISSING>","(307) 532-2107","<MISSING>","42.0839832","-104.1935004","<MISSING>"
"https://www.bannerhealth.com/","community-hospital-er","2000 Campbell Dr","Torrington","WY","82240","US","<MISSING>","(307) 532-4181","<MISSING>","42.0828261","-104.1936148","<MISSING>"
"https://www.bannerhealth.com/","banner-imaging-broadway","6424 E Broadway Rd, Ste 101","Mesa","AZ","85206","US","<MISSING>","(480) 610-7400","<MISSING>","33.4091216","-111.6929311","<MISSING>"
"https://www.bannerhealth.com/","banner-imaging-country-club","1940 S Country Club Dr, Ste 101","Mesa","AZ","85210","US","<MISSING>","(480) 610-7400","<MISSING>","33.3803964","-111.8418604","<MISSING>"
"https://www.bannerhealth.com/","banner-health-center-chandler","1435 S Alma School Rd","Chandler","AZ","85286","US","<MISSING>","(480) 668-1600","<MISSING>","33.2843151","-111.8569517","<MISSING>"
"https://www.bannerhealth.com/","banner-urgent-care-alma-school","2950 S Alma School Rd Ste 1","Chandler","AZ","85286","US","<MISSING>","(480) 827-5690","<MISSING>","33.2625263","-111.8594203","<MISSING>"
"https://www.bannerhealth.com/","banner-casa-grande-coumadin-clinic","1800 E Florence Blvd","Casa Grande","AZ","85122","US","<MISSING>","(520) 381-6787","<MISSING>","32.8814007","-111.7097636","<MISSING>"
"https://www.bannerhealth.com/","banner-urgent-care-arizona-elliot","3000 N Arizona Ave","Chandler","AZ","85225","US","<MISSING>","(480) 827-5660","<MISSING>","33.3500547","-111.8424972","<MISSING>"
"https://www.bannerhealth.com/","banner-urgent-care-gilbert-queen-creek","3200 S Gilbert Rd","Chandler","AZ","85286","US","<MISSING>","(480) 827-5690","<MISSING>","33.2599771","-111.7901267","<MISSING>"
"https://www.bannerhealth.com/","east-morgan-county-hospital","2400 Edison St","Brush","CO","80723","US","<MISSING>","(970) 842-6200","<MISSING>","40.2556786","-103.6494746","<MISSING>"
"https://www.bannerhealth.com/","banner-health-center-ellsworth","21772 S Ellsworth Loop Rd","Queen Creek","AZ","85142","US","<MISSING>","(480) 512-3700","<MISSING>","33.2509093","-111.6395224","<MISSING>"
"https://www.bannerhealth.com/","banner-urgent-care-van-buren","11685 W. Van Buren Street","Avondale","AZ","85323","US","<MISSING>","(623) 465-6420","<MISSING>","33.4490613","-112.3106322","<MISSING>"
"https://www.bannerhealth.com/","banner-childrens-banner-health-clinic-idaho","1075 S Idaho Rd Ste 206","Apache Junction","AZ","85119","US","<MISSING>","(480) 827-5005","<MISSING>","33.4063584","-111.545293","<MISSING>"
"https://www.bannerhealth.com/","banner-health-clinic-surgery-williams","801 E Williams Ave Ste 3306","Fallon","NV","89406","US","<MISSING>","(775) 867-7770","<MISSING>","39.4766121","-118.7662421","<MISSING>"
"https://www.bannerhealth.com/","banner-health-clinic-cherry","100 S Cherry Ave Unit 1","Eaton","CO","80615","US","<MISSING>","(970) 454-3838","<MISSING>","40.5241923","-104.7296955","<MISSING>"
"https://www.bannerhealth.com/","banner-health-center-fernley","1260 Nevada Pacific Blvd","Fernley","NV","89408","US","<MISSING>","(775) 575-7171","<MISSING>","39.5968053","-119.1992938","<MISSING>"
"https://www.bannerhealth.com/","banner-health-center-drake","702A W Drake Rd","Fort Collins","CO","80526","US","<MISSING>","(970) 821-4600","<MISSING>","40.5531212","-105.0890792","<MISSING>"
"https://www.bannerhealth.com/","banner-health-center-lady-moon","4700 Lady Moon Dr","Fort Collins","CO","80528","US","<MISSING>","(970) 821-4500","<MISSING>","40.52139","-105.0085323","<MISSING>"
"https://www.bannerhealth.com/","banner-fort-collins-medical-center-er","4700 Lady Moon Dr","Fort Collins","CO","80528","US","<MISSING>","(970) 821-4000","<MISSING>","40.52139","-105.0085323","<MISSING>"
"https://www.bannerhealth.com/","horizon-laboratory-lady-moon","4700 Lady Moon Dr","Fort Collins","CO","80528","US","<MISSING>","(970) 820-6890","<MISSING>","40.52139","-105.0085323","<MISSING>"
"https://www.bannerhealth.com/","banner-health-clinic-maternity-harmony","608 E Harmony Rd Ste 101","Fort Collins","CO","80525","US","<MISSING>","(970) 821-4565","<MISSING>","40.5237768","-105.0670309","<MISSING>"
"https://www.bannerhealth.com/","banner-health-center-gilbert","155 E Warner Rd","Gilbert","AZ","85296","US","<MISSING>","(480) 649-6600","<MISSING>","33.3340248","-111.7863391","<MISSING>"
"https://www.bannerhealth.com/","banner-health-clinic-family-medicine-chandler-heights","3336 E Chandler Heights Rd Bldg A Ste 101","Gilbert","AZ","85298","US","<MISSING>","(480) 412-5900","<MISSING>","33.2347522","-111.7176734","<MISSING>"
"https://www.bannerhealth.com/","banner-childrens-banner-health-clinic-power","7400 S Power Rd Ste 140","Gilbert","AZ","85297","US","<MISSING>","(480) 827-5046","<MISSING>","33.2819726","-111.6874674","<MISSING>"
"https://www.bannerhealth.com/","banner-urgent-care-val-vista","1641 E Guadalupe Rd","Gilbert","AZ","85234","US","<MISSING>","(480) 827-5670","<MISSING>","33.3642407","-111.7547122","<MISSING>"
"https://www.bannerhealth.com/","banner-childrens-urgent-care-higley-ray","1355 S Higley Rd Ste 104","Gilbert","AZ","85296","US","<MISSING>","(480) 827-5770","<MISSING>","33.32526","-111.7207862","<MISSING>"
"https://www.bannerhealth.com/","banner-urgent-care-cooper","641 W Warner Rd","Gilbert","AZ","85233","US","<MISSING>","(480) 827-5680","<MISSING>","33.3348955","-111.8037943","<MISSING>"
"https://www.bannerhealth.com/","banner-urgent-care-pecos-higley","3126 S Higley Rd STE 109","Gilbert","AZ","85295","US","<MISSING>","(480) 827-5780","<MISSING>","33.2937263","-111.7218586","<MISSING>"
"https://www.bannerhealth.com/","banner-urgent-care-higley-baseline","1660 N Higley Rd Ste 104","Gilbert","AZ","85234","US","<MISSING>","(480) 827-5600","<MISSING>","33.380426","-111.7228523","<MISSING>"
"https://www.bannerhealth.com/","banner-urgent-care-higley-queen-creek","3160 E Queen Creek Rd","Gilbert","AZ","85297","US","<MISSING>","(480) 827-5790","<MISSING>","33.2636134","-111.7213617","<MISSING>"
"https://www.bannerhealth.com/","banner-urgent-care-bell-43rd","4232 W Bell Rd","Glendale","AZ","85308","US","<MISSING>","(623) 465-6360","<MISSING>","33.6399444","-112.1497746","<MISSING>"
"https://www.bannerhealth.com/","banner-urgent-care-67th-bethany","6702 W Bethany Home Rd Ste 14","Glendale","AZ","85303","US","<MISSING>","(623) 465-6345","<MISSING>","33.5250161","-112.2036039","<MISSING>"
"https://www.bannerhealth.com/","banner-urgent-care-43rd-northern","7952 N 43rd Ave","Glendale","AZ","85301","US","<MISSING>","(623) 465-6330","<MISSING>","33.552255","-112.1519935","<MISSING>"
"https://www.bannerhealth.com/","banner-boswell-medical-center","10401 W Thunderbird Blvd","Sun City","AZ","85351","US","<MISSING>","(623) 832-4000","<MISSING>","33.6036764","-112.2842245","<MISSING>"
"https://www.bannerhealth.com/","banner-boswell-medical-center-er","10401 W Thunderbird Blvd","Sun City","AZ","85351","US","<MISSING>","(623)832-4000","<MISSING>","33.6036764","-112.2842245","<MISSING>"
"https://www.bannerhealth.com/","banner-gateway-medical-center","1900 N Higley Rd","Gilbert","AZ","85234","US","<MISSING>","(480) 543-2000","<MISSING>","33.3840468","-111.7225666","<MISSING>"
"https://www.bannerhealth.com/","banner-gateway-medical-center-er","1900 N Higley Rd","Gilbert","AZ","85234","US","<MISSING>","(480) 543-2000","<MISSING>","33.3840468","-111.7225666","<MISSING>"
"https://www.bannerhealth.com/","banner-family-pharmacy-at-banner-gateway","1900 N Higley Rd","Gilbert","AZ","85234","US","<MISSING>","(480) 543-3060","<MISSING>","33.3840468","-111.7225666","<MISSING>"
"https://www.bannerhealth.com/","banner-university-medical-center-phoenix","1111 E McDowell Rd","Phoenix","AZ","85006","US","<MISSING>","(602) 839-2000","<MISSING>","33.4646904","-112.0575067","<MISSING>"
"https://www.bannerhealth.com/","page-hospital-er","501 N Navajo Rd","Page","AZ","86040","US","<MISSING>","(928) 645-2424","<MISSING>","36.9176924","-111.4634541","<MISSING>"
"https://www.bannerhealth.com/","page-hospital","501 N Navajo Rd","Page","AZ","86040","US","<MISSING>","(928) 645-2424","<MISSING>","36.9176924","-111.4634541","<MISSING>"
"https://www.bannerhealth.com/","banner-ironwood-medical-center-er","37000 N Gantzel Rd","Queen Creek","AZ","85140","US","<MISSING>","(480) 394-4000","<MISSING>","33.2144943","-111.5656332","<MISSING>"
"https://www.bannerhealth.com/","banner-ironwood-medical-center","37000 N Gantzel Rd","Queen Creek","AZ","85140","US","<MISSING>","(480) 394-4000","<MISSING>","33.2144943","-111.5656332","<MISSING>"
"https://www.bannerhealth.com/","banner-health-clinic-family-medicine-litchfield","4860 N Litchfield Rd Ste 102","Litchfield Park","AZ","85340","US","<MISSING>","(623) 474-8370","<MISSING>","33.5069079","-112.3586909","<MISSING>"
"https://www.bannerhealth.com/","cardiovascular-institute-of-north-colorado-cardiology-clinic-15th","<MISSING>","<MISSING>","AZ","85254","US","<MISSING>","(970) 810-0900","<MISSING>","33.6071829","-111.9403254","<MISSING>"
"https://www.bannerhealth.com/","banner-rehabilitation-center-at-north-colorado-medical-center","1517 16th Ave","Greeley","CO","80631","US","<MISSING>","(970) 810-6900","<MISSING>","40.4148815","-104.7067978","<MISSING>"
"https://www.bannerhealth.com/","banner-occupational-health-clinic-16th","1517 16th Ave","Greeley","CO","80631","US","<MISSING>","(970) 810-6810","<MISSING>","40.4148815","-104.7067978","<MISSING>"
"https://www.bannerhealth.com/","cardiovascular-institute-of-north-colorado-peripheral-artery-disease-clinic-15th","1800 15th Street, Suite 310","Greeley","CO","80631","US","<MISSING>","(970) 810-8020","<MISSING>","40.4151886","-104.7074357","<MISSING>"
"https://www.bannerhealth.com/","banner-health-clinic-infectious-disease-15th","1800 15th St Ste 210","Greeley","CO","80631","US","<MISSING>","(970) 810-5120","<MISSING>","40.4151886","-104.7074357","<MISSING>"
"https://www.bannerhealth.com/","banner-health-clinic-whalen","1 E Whalen Street","Guernsey","WY","82214","US","<MISSING>","(307) 836-2422","<MISSING>","42.2699568","-104.7413757","<MISSING>"
"https://www.bannerhealth.com/","north-colorado-family-medicine","1600 23rd Ave","Greeley","CO","80634","US","<MISSING>","(970) 810-2424","<MISSING>","40.413436","-104.7155462","<MISSING>"
"https://www.bannerhealth.com/","horizon-laboratory-23rd","1600 23rd Ave","Greeley","CO","80634","US","<MISSING>","(970) 820-6890","<MISSING>","40.413436","-104.7155462","<MISSING>"
"https://www.bannerhealth.com/","banner-health-clinic-baywood-neurology","6553 E Baywood Ave Ste 212","Mesa","AZ","85206","US","<MISSING>","(480) 543-6880","<MISSING>","33.4099225","-111.6900335","<MISSING>"
"https://www.bannerhealth.com/","banner-health-clinic-baywood-surgery","6553 E Baywood Ave Ste 101","Mesa","AZ","85206","US","<MISSING>","(480) 543-6750","<MISSING>","33.4099225","-111.6900335","<MISSING>"
"https://www.bannerhealth.com/","banner-imaging-baywood","6553 E Baywood Ave Ste 102","Mesa","AZ","85206","US","<MISSING>","(480) 610-7400","<MISSING>","33.4099225","-111.6900335","<MISSING>"
"https://www.bannerhealth.com/","banner-urgent-care-gilbert-mckellips","1908 E McKellips Rd","Mesa","AZ","85203","US","<MISSING>","(480) 827-5610","<MISSING>","33.4521109","-111.789553","<MISSING>"
"https://www.bannerhealth.com/","banner-urgent-care-higley-southern","1215 S Higley Rd","Mesa","AZ","85206","US","<MISSING>","(480) 827-5740","<MISSING>","33.3933784","-111.7186602","<MISSING>"
"https://www.bannerhealth.com/","banner-urgent-care-southern-gilbert","1120 S Gilbert Rd","Mesa","AZ","85204","US","<MISSING>","(480) 827-5720","<MISSING>","33.3947427","-111.7886913","<MISSING>"
"https://www.bannerhealth.com/","banner-urgent-care-dobson-guadalupe","1955 W Guadalupe Rd Ste 1","Mesa","AZ","85202","US","<MISSING>","(480) 827-5620","<MISSING>","33.3634356","-111.8759555","<MISSING>"
"https://www.bannerhealth.com/","banner-urgent-care-crismon","1157 S Crismon Rd Ste 101","Mesa","AZ","85208","US","<MISSING>","(480) 827-5730","<MISSING>","33.3939101","-111.6146958","<MISSING>"
"https://www.bannerhealth.com/","banner-health-clinic-5th","222 S 5th St","Douglas","WY","82633","US","<MISSING>","(307) 358-4350","<MISSING>","42.7574764","-105.3816879","<MISSING>"
"https://www.bannerhealth.com/","banner-fort-collins-medical-center","4700 Lady Moon Dr","Fort Collins","CO","80528","US","<MISSING>","(970) 821-4000","<MISSING>","40.52139","-105.0085323","<MISSING>"
"https://www.bannerhealth.com/","horizon-laboratory-drake","702 W Drake Rd Bldg A","Fort Collins","CO","80526","US","<MISSING>","(970) 820-6890","<MISSING>","40.553728","-105.0894664","<MISSING>"
"https://www.bannerhealth.com/","Banner Home Care and Medical Equipment","275 E Germann Rd, Suite 110","Gilbert","AZ","85297","US","<MISSING>","(480) 657-1600","<MISSING>","33.2757779","-111.7852212","<MISSING>"
"https://www.bannerhealth.com/","banner-occupational-health-clinic-higley","1920 N Higley Rd Ste 108","Gilbert","AZ","85234","US","<MISSING>","(480) 543-3300","<MISSING>","33.3851528","-111.7207003","<MISSING>"
"https://www.bannerhealth.com/","banner-university-sports-medicine-and-concussion-specialists-10th","1320 N 10th St Ste B","Phoenix","AZ","85006","US","<MISSING>","(602) 839-7285","<MISSING>","33.4633276","-112.0610973","<MISSING>"
"https://www.bannerhealth.com/","banner-health-center-estrella","9780 S Estrella Pkwy","Goodyear","AZ","85338","US","<MISSING>","(623) 474-8101","<MISSING>","33.3580068","-112.425654","<MISSING>"
"https://www.bannerhealth.com/","banner-health-clinic-family-medicine-19th","5623 W 19th St","Greeley","CO","80634","US","<MISSING>","(970) 810-9011","<MISSING>","40.4082447","-104.772012","<MISSING>"
"https://www.bannerhealth.com/","banner-health-clinic-gastroenterology-16th","2010 16th St Ste A","Greeley","CO","80631","US","<MISSING>","(970) 810-4475","<MISSING>","40.4135211","-104.711582","<MISSING>"
"https://www.bannerhealth.com/","banner-urgent-care-litchfield","3328 N Litchfield Rd","Goodyear","AZ","85395","US","<MISSING>","(623) 465-6300","<MISSING>","33.4848839","-112.3630683","<MISSING>"
"https://www.bannerhealth.com/","banner-urgent-care-sarival","16430 W Yuma Rd","Goodyear","AZ","85338","US","<MISSING>","(623) 465-6405","<MISSING>","33.4361112","-112.4120567","<MISSING>"
"https://www.bannerhealth.com/","mckee-medical-center","2000 Boise Ave","Loveland","CO","80538","US","<MISSING>","(970) 820-4640","<MISSING>","40.4132365","-105.0513281","<MISSING>"
"https://www.bannerhealth.com/","banner-health-clinic-brown-pediatrics","6142 E Brown Rd Ste 102","Mesa","AZ","85205","US","<MISSING>","(480) 827-5430","<MISSING>","33.4376681","-111.69926","<MISSING>"
"https://www.bannerhealth.com/","banner-health-clinic-madison-square-family-medicine","2701 Madison Square Dr","Loveland","CO","80538","US","<MISSING>","(970) 820-5000","<MISSING>","40.4210263","-105.0598969","<MISSING>"
"https://www.bannerhealth.com/","banner-occupational-health-clinic-18th","1703 E 18th St Ste 4","Loveland","CO","80538","US","<MISSING>","(970) 820-4580","<MISSING>","40.4113931","-105.0518144","<MISSING>"
"https://www.bannerhealth.com/","banner-childrens-banner-health-clinic-baseline","8405 E Baseline Rd Ste 107","Mesa","AZ","85209","US","<MISSING>","(480) 827-5040","<MISSING>","33.3788019","-111.6527231","<MISSING>"
