"locator_domain","location_name","street_address","city","state","zip","country_code","store_number","phone","location_type","latitude","longitude","hours_of_operation","page_url"
"https://www.wyndhamhotels.com/en-ca/travelodge","Travelodge by Wyndham Montgomery East","5837 Monticello Drive ","Montgomery","AL","36117","US","<MISSING>","+1-334-277-4442","<MISSING>","-86.2098","32.36594","<MISSING>","https://www.wyndhamhotels.com/en-uk/travelodge/montgomery-alabama/travelodge-montgomery-east/overview"
"https://www.wyndhamhotels.com/en-ca/travelodge","Travelodge by Wyndham Pelham Birmingham","410 Oak Mountain Circle ","Pelham","AL","35124","US","<MISSING>","+1-205-987-2233","<MISSING>","33.334293","-86.78144","<MISSING>","https://www.wyndhamhotels.com/en-uk/travelodge/pelham-alabama/travelodge-pelham-birmingham/overview"
"https://www.wyndhamhotels.com/en-ca/travelodge","Travelodge by Wyndham Tuscaloosa","4122 McFarland Blvd. E ","Tuscaloosa","AL","35405","US","<MISSING>","+1-205-409-3080","<MISSING>","33.17018","-87.52737","<MISSING>","https://www.wyndhamhotels.com/en-uk/travelodge/tuscaloosa-alabama/travelodge-tuscaloosa/overview"
"https://www.wyndhamhotels.com/en-ca/travelodge","Travelodge by Wyndham Juneau","9200 Glacier Highway ","Juneau","AK","99801","US","<MISSING>","+1-907-789-9700","<MISSING>","58.363758","-134.586212","<MISSING>","https://www.wyndhamhotels.com/en-uk/travelodge/juneau-alaska/travelodge-hotel-juneau/overview"
"https://www.wyndhamhotels.com/en-ca/travelodge","Travelodge by Wyndham Flagstaff Near I-40","2918 East Route 66 ","Flagstaff","AZ","86004","US","<MISSING>","+1-928-220-9916","<MISSING>","35.210384","-111.606804","<MISSING>","https://www.wyndhamhotels.com/en-uk/travelodge/flagstaff-arizona/travelodge-flagstaff-near-i-40/overview"
"https://www.wyndhamhotels.com/en-ca/travelodge","Travelodge by Wyndham Globe AZ","2119 West Highway 60 ","Globe","AZ","85502","US","<MISSING>","+1-928-425-7008","<MISSING>","33.4165","-110.827397","<MISSING>","https://www.wyndhamhotels.com/en-uk/travelodge/globe-arizona/travelodge-globe-az/overview"
"https://www.wyndhamhotels.com/en-ca/travelodge","Travelodge by Wyndham Holbrook","2418 East Navajo Boulevard ","Holbrook","AZ","86025","US","<MISSING>","+1-928-524-6815","<MISSING>","34.930998","-110.138597","<MISSING>","https://www.wyndhamhotels.com/en-uk/travelodge/holbrook-arizona/travelodge-holbrook/overview"
"https://www.wyndhamhotels.com/en-ca/travelodge","Travelodge by Wyndham Kingman","3421 E Andy Devine Ave ","Kingman","AZ","86401","US","<MISSING>","+1-928-757-7878","<MISSING>","35.223372","-114.005026","<MISSING>","https://www.wyndhamhotels.com/en-uk/travelodge/kingman-arizona/travelodge-by-wyndham-kingman/overview"
"https://www.wyndhamhotels.com/en-ca/travelodge","Travelodge by Wyndham Lake Havasu","480 London Bridge Road ","Lake Havasu City","AZ","86403","US","<MISSING>","+1-928-680-9202","<MISSING>","34.485176","-114.352715","<MISSING>","https://www.wyndhamhotels.com/en-uk/travelodge/lake-havasu-city-arizona/lake-havasu-travelodge/overview"
"https://www.wyndhamhotels.com/en-ca/travelodge","Travelodge Suites by Wyndham Phoenix Mesa","4244 East Main Street ","Mesa","AZ","85205","US","<MISSING>","+1-480-832-5961","<MISSING>","33.41605","-111.739059","<MISSING>","https://www.wyndhamhotels.com/en-uk/travelodge/mesa-arizona/travelodge-suites-phoenix-mesa/overview"
"https://www.wyndhamhotels.com/en-ca/travelodge","Travelodge by Wyndham Page","207 North Lake Powell Blvd ","Page","AZ","86040","US","<MISSING>","+1-928-645-2451","<MISSING>","36.919643","-111.463165","<MISSING>","https://www.wyndhamhotels.com/en-uk/travelodge/page-arizona/travelodge-page-az/overview"
"https://www.wyndhamhotels.com/en-ca/travelodge","Travelodge by Wyndham Phoenix","1424 North 50th Avenue ","Phoenix","AZ","85043","US","<MISSING>","+1-602-842-0602","<MISSING>","33.464352","-112.166893","<MISSING>","https://www.wyndhamhotels.com/en-uk/travelodge/phoenix-arizona/travelodge-phoenix/overview"
"https://www.wyndhamhotels.com/en-ca/travelodge","Travelodge by Wyndham Phoenix Downtown","600 West Van Buren ","Phoenix","AZ","85003-1631","US","<MISSING>","+1-602-252-1706","<MISSING>","33.451672","-112.081512","<MISSING>","https://www.wyndhamhotels.com/en-uk/travelodge/phoenix-arizona/travelodge-phoenix-downtown/overview"
"https://www.wyndhamhotels.com/en-ca/travelodge","Travelodge by Wyndham Tucson Airport","5251 S Julian Dr ","Tucson","AZ","85706","US","<MISSING>","+1-520-294-5250","<MISSING>","32.15756","-110.9191","<MISSING>","https://www.wyndhamhotels.com/en-uk/travelodge/tucson-arizona/travelodge-tucson-airport/overview"
"https://www.wyndhamhotels.com/en-ca/travelodge","Travelodge by Wyndham Tucson AZ","4910 West Ina Road ","Tucson","AZ","85743","US","<MISSING>","+1-520-448-2248","<MISSING>","32.337745","-111.068338","<MISSING>","https://www.wyndhamhotels.com/en-uk/travelodge/tucson-arizona/tucson-az-travelodge/overview"
"https://www.wyndhamhotels.com/en-ca/travelodge","Travelodge by Wyndham Williams Grand Canyon","430 East Route 66 ","Williams","AZ","86046","US","<MISSING>","+1-928-635-2651","<MISSING>","35.251949","-112.183113","<MISSING>","https://www.wyndhamhotels.com/en-uk/travelodge/williams-arizona/williams-grand-canyon-travelodge/overview"
"https://www.wyndhamhotels.com/en-ca/travelodge","Travelodge by Wyndham Winslow","1706 N Park Dr ","Winslow","AZ","86047","US","<MISSING>","+1-928-224-8831","<MISSING>","35.037993","-110.69785","<MISSING>","https://www.wyndhamhotels.com/en-uk/travelodge/winslow-arizona/travelodge-winslow/overview"
"https://www.wyndhamhotels.com/en-ca/travelodge","Travelodge by Wyndham Texarkana AR","5100 N. Stateline Ave Building A","Texarkana","AR","71854","US","<MISSING>","+1-870-774-3524","<MISSING>","33.43034","-94.03894","<MISSING>","https://www.wyndhamhotels.com/en-uk/travelodge/texarkana-arkansas/travelodge-by-wyndham-texarkana-ar/overview"
"https://www.wyndhamhotels.com/en-ca/travelodge","Travelodge by Wyndham Anaheim Convention Center","2060 South Harbor Blvd ","Anaheim","CA","92802","US","<MISSING>","+1-714-971-9393","<MISSING>","33.796886","-117.914497","<MISSING>","https://www.wyndhamhotels.com/en-uk/travelodge/anaheim-california/travelodge-anaheim-convention-center/overview"
"https://www.wyndhamhotels.com/en-ca/travelodge","Travelodge Inn & Suites by Wyndham Anaheim on Disneyland Dr","1057 West Ball Road ","Anaheim","CA","92802","US","<MISSING>","+1-714-774-7600","<MISSING>","33.818684","-117.923141","<MISSING>","https://www.wyndhamhotels.com/en-uk/travelodge/anaheim-california/travelodge-anaheim-inn-and-suite-on-disneyland-drive/overview"
"https://www.wyndhamhotels.com/en-ca/travelodge","Travelodge by Wyndham Angels Camp CA","600 North Main St ","Angels Camp","CA","95221","US","<MISSING>","+1-209-736-5004","<MISSING>","38.08734","-120.570219","<MISSING>","https://www.wyndhamhotels.com/en-uk/travelodge/angels-camp-california/travelodge-angels-camp-ca/overview"
"https://www.wyndhamhotels.com/en-ca/travelodge","Travelodge by Wyndham Artesia","16905 Pioneer Blvd ","Artesia","CA","90701","US","<MISSING>","+1-562-402-2202","<MISSING>","33.86137","-118.082161","<MISSING>","https://www.wyndhamhotels.com/en-uk/travelodge/artesia-california/travelodge-artesia/overview"
"https://www.wyndhamhotels.com/en-ca/travelodge","Travelodge by Wyndham Bakersfield","1011 Oak Street ","Bakersfield","CA","93304","US","<MISSING>","+1-661-380-7310","<MISSING>","35.366915","-119.038965","<MISSING>","https://www.wyndhamhotels.com/en-uk/travelodge/bakersfield-california/travelodge-bakersfield/overview"
"https://www.wyndhamhotels.com/en-ca/travelodge","Travelodge by Wyndham Banning CA Near Casino/Outlet Mall","1700 West Ramsey Street ","Banning","CA","92220","US","<MISSING>","+1-951-381-0656","<MISSING>","33.924919","-116.895508","<MISSING>","https://www.wyndhamhotels.com/en-uk/travelodge/banning-california/travelodge-banning-casino-and-outlet-mall/overview"
"https://www.wyndhamhotels.com/en-ca/travelodge","Travelodge by Wyndham Barstow","1630 East Main St ","Barstow","CA","92311","US","<MISSING>","+1-760-256-8931","<MISSING>","34.890373","-116.999336","<MISSING>","https://www.wyndhamhotels.com/en-uk/travelodge/barstow-california/travelodge-barstow/overview"
"https://www.wyndhamhotels.com/en-ca/travelodge","Travelodge Inn & Suites by Wyndham Bell Los Angeles Area","6600 Atlantic Ave ","Bell","CA","90201-2524","US","<MISSING>","+1-323-771-8888","<MISSING>","33.976059","-118.186638","<MISSING>","https://www.wyndhamhotels.com/en-uk/travelodge/bell-california/travelodge-bell-los-angeles-area/overview"
"https://www.wyndhamhotels.com/en-ca/travelodge","Travelodge by Wyndham Berkeley","1820 University Ave ML King Way & University Ave","Berkeley","CA","94703","US","<MISSING>","+1-510-295-2297","<MISSING>","37.871156","-122.274674","<MISSING>","https://www.wyndhamhotels.com/en-uk/travelodge/berkeley-california/berkeley-travelodge/overview"
"https://www.wyndhamhotels.com/en-ca/travelodge","Travelodge by Wyndham Big Bear Lake CA","39471 Big Bear Blvd ","Big Bear Lake","CA","92315","US","<MISSING>","+1-909-366-3106","<MISSING>","34.238571","-116.935516","<MISSING>","https://www.wyndhamhotels.com/en-uk/travelodge/big-bear-lake-california/travelodge-big-bear-lake-ca/overview"
"https://www.wyndhamhotels.com/en-ca/travelodge","Travelodge by Wyndham Bishop","155 East Elm Street ","Bishop","CA","93514","US","<MISSING>","+1-760-582-5406","<MISSING>","37.366085","-118.393997","<MISSING>","https://www.wyndhamhotels.com/en-uk/travelodge/bishop-california/travelodge-limited-bishop/overview"
"https://www.wyndhamhotels.com/en-ca/travelodge","Travelodge by Wyndham Blythe","900 W Rice Street ","Blythe","CA","92225","US","<MISSING>","+1-760-278-4249","<MISSING>","33.60832","-114.606588","<MISSING>","https://www.wyndhamhotels.com/en-uk/travelodge/blythe-california/travelodge-blythe/overview"
"https://www.wyndhamhotels.com/en-ca/travelodge","Travelodge by Wyndham Brea","805 South Brea Blvd ","Brea","CA","92821","US","<MISSING>","+1-714-529-3078","<MISSING>","33.908058","-117.905357","<MISSING>","https://www.wyndhamhotels.com/en-uk/travelodge/brea-california/travelodge-brea/overview"
"https://www.wyndhamhotels.com/en-ca/travelodge","Travelodge by Wyndham Buena Park","6532 Auto Center Dr ","Buena Park","CA","90621-2926","US","<MISSING>","+1-714-670-8288","<MISSING>","33.86594","-117.99439","<MISSING>","https://www.wyndhamhotels.com/en-uk/travelodge/buena-park-california/travelodge-buena-park/overview"
"https://www.wyndhamhotels.com/en-ca/travelodge","Travelodge by Wyndham Burbank-Glendale","1112 North Hollywood Way ","Burbank","CA","91505","US","<MISSING>","+1-818-861-6697","<MISSING>","34.170212","-118.347763","<MISSING>","https://www.wyndhamhotels.com/en-uk/travelodge/burbank-california/travelodge-burbank-glendale/overview"
"https://www.wyndhamhotels.com/en-ca/travelodge","Travelodge by Wyndham Cathedral City","67495 East Palm Canyon Drive ","Cathedral City","CA","92234","US","<MISSING>","+1-760-328-7610","<MISSING>","33.788902","-116.484718","<MISSING>","https://www.wyndhamhotels.com/en-uk/travelodge/cathedral-city-california/cathedral-city-travelodge/overview"
"https://www.wyndhamhotels.com/en-ca/travelodge","Travelodge by Wyndham Chatsworth","21603 Devonshire St ","Chatsworth","CA","91311","US","<MISSING>","+1-818-998-8888","<MISSING>","34.257671","-118.600502","<MISSING>","https://www.wyndhamhotels.com/en-uk/travelodge/chatsworth-california/travelodge-chatsworth/overview"
"https://www.wyndhamhotels.com/en-ca/travelodge","Travelodge by Wyndham Clearlake","4775 Old Highway 53 ","Clearlake","CA","95422","US","<MISSING>","+1-707-701-3149","<MISSING>","38.94891","-122.631638","<MISSING>","https://www.wyndhamhotels.com/en-uk/travelodge/clearlake-california/travelodge-clearlake/overview"
"https://www.wyndhamhotels.com/en-ca/travelodge","Travelodge by Wyndham Commerce Los Angeles Area","7810 East Telegraph Rd ","Commerce","CA","90040-3237","US","<MISSING>","+1-562-367-8599","<MISSING>","33.973465","-118.122757","<MISSING>","https://www.wyndhamhotels.com/en-uk/travelodge/commerce-california/travelodge-commerce-la-area/overview"
"https://www.wyndhamhotels.com/en-ca/travelodge","Travelodge by Wyndham Costa Mesa Newport Beach Hacienda","1951 Newport Blvd. ","Costa Mesa","CA","92627","US","<MISSING>","+1-949-478-0751","<MISSING>","33.645611","-117.915749","<MISSING>","https://www.wyndhamhotels.com/en-uk/travelodge/costa-mesa-california/travelodge-costa-mesa-newport-beach-hacienda/overview"
"https://www.wyndhamhotels.com/en-ca/travelodge","Travelodge by Wyndham Orange County Airport/ Costa Mesa","1400 Bristol Street, Suite A ","Costa Mesa","CA","92626","US","<MISSING>","+1-714-486-0905","<MISSING>","33.666618","-117.883324","<MISSING>","https://www.wyndhamhotels.com/en-uk/travelodge/costa-mesa-california/travelodge-orange-county-airport-costa-mesa/overview"
"https://www.wyndhamhotels.com/en-ca/travelodge","Travelodge by Wyndham Crescent City","444 US Highway 101 S ","Crescent City","CA","95531","US","<MISSING>","+1-707-460-6260","<MISSING>","41.754768","-124.204369","<MISSING>","https://www.wyndhamhotels.com/en-uk/travelodge/crescent-city-california/travelodge-crescent-city/overview"
"https://www.wyndhamhotels.com/en-ca/travelodge","Travelodge by Wyndham Culver City","11180 Washington Place ","Culver City","CA","90232","US","<MISSING>","+1-310-839-1111","<MISSING>","34.00877","-118.413322","<MISSING>","https://www.wyndhamhotels.com/en-uk/travelodge/culver-city-california/travelodge-culver-city/overview"
"https://www.wyndhamhotels.com/en-ca/travelodge","Travelodge by Wyndham Dunsmuir","4000 Siskiyou Ave. ","Dunsmuir","CA","96025","US","<MISSING>","+1-530-235-6552","<MISSING>","41.2354","-122.267","<MISSING>","https://www.wyndhamhotels.com/en-uk/travelodge/dunsmuir-california/travelodge-dunsmuir/overview"
"https://www.wyndhamhotels.com/en-ca/travelodge","Travelodge by Wyndham El Cajon","425 West Main St ","El Cajon","CA","92020","US","<MISSING>","+1-619-441-8250","<MISSING>","32.79454","-116.96685","<MISSING>","https://www.wyndhamhotels.com/en-uk/travelodge/el-cajon-california/travelodge-el-cajon/overview"
"https://www.wyndhamhotels.com/en-ca/travelodge","Travelodge by Wyndham El Centro","2015 Cottonwood Cir ","El Centro","CA","92243-4210","US","<MISSING>","+1-760-352-9700","<MISSING>","32.775967","-115.570928","<MISSING>","https://www.wyndhamhotels.com/en-uk/travelodge/el-centro-california/travelodge-el-centro/overview"
"https://www.wyndhamhotels.com/en-ca/travelodge","Travelodge by Wyndham LAX South","1804 East Sycamore Ave. ","El Segundo","CA","90245","US","<MISSING>","+1-310-955-4694","<MISSING>","33.92775","-118.396767","<MISSING>","https://www.wyndhamhotels.com/en-uk/travelodge/el-segundo-california/lax-south-travelodge/overview"
"https://www.wyndhamhotels.com/en-ca/travelodge","Travelodge by Wyndham Eureka","4 4th Street ","Eureka","CA","95501","US","<MISSING>","+1-707-572-5021","<MISSING>","40.801911","-124.171308","<MISSING>","https://www.wyndhamhotels.com/en-uk/travelodge/eureka-california/travelodge-eureka/overview"
"https://www.wyndhamhotels.com/en-ca/travelodge","Travelodge by Wyndham Fairfield/Napa Valley","4625 Central Way ","Fairfield","CA","94534","US","<MISSING>","+1-707-639-8982","<MISSING>","38.218411","-122.1341","<MISSING>","https://www.wyndhamhotels.com/en-uk/travelodge/fairfield-california/travelodge-fairfield-napa-valley/overview"
"https://www.wyndhamhotels.com/en-ca/travelodge","Travelodge by Wyndham Fort Bragg","763 North Main Street ","Fort Bragg","CA","95437","US","<MISSING>","+1-707-969-7975","<MISSING>","39.450063","-123.806084","<MISSING>","https://www.wyndhamhotels.com/en-uk/travelodge/fort-bragg-california/fort-bragg-travelodge/overview"
"https://www.wyndhamhotels.com/en-ca/travelodge","Travelodge by Wyndham Fresno Convention Center Area","2127 Inyo St Van Ness to Inyo St-downtown","Fresno","CA","93721","US","<MISSING>","+1-559-268-0621","<MISSING>","36.733463","-119.786545","<MISSING>","https://www.wyndhamhotels.com/en-uk/travelodge/fresno-california/travelodge-fresno-convention-center-area/overview"
"https://www.wyndhamhotels.com/en-ca/travelodge","Travelodge by Wyndham Fresno Yosemite Area","3876 North Blackstone ","Fresno","CA","93726","US","<MISSING>","+1-559-229-9840","<MISSING>","36.788273","-119.789322","<MISSING>","https://www.wyndhamhotels.com/en-uk/travelodge/fresno-california/travelodge-fresno-yosemite-area/overview"
"https://www.wyndhamhotels.com/en-ca/travelodge","Travelodge by Wyndham Fullerton Near Anaheim","1415 South Euclid St ","Fullerton","CA","92832","US","<MISSING>","+1-714-888-5985","<MISSING>","33.857334","-117.942223","<MISSING>","https://www.wyndhamhotels.com/en-uk/travelodge/fullerton-california/travelodge-fullerton-near-anaheim/overview"
"https://www.wyndhamhotels.com/en-ca/travelodge","Travelodge Inn & Suites by Wyndham Gardena CA","1390 West 186th Street ","Gardena","CA","90248","US","<MISSING>","+1-310-660-7754","<MISSING>","33.861687","-118.298866","<MISSING>","https://www.wyndhamhotels.com/en-uk/travelodge/gardena-california/travelodge-inn-and-suites-gardena-ca/overview"
"https://www.wyndhamhotels.com/en-ca/travelodge","Travelodge by Wyndham Harbor City","1440 Pacific Coast Highway ","Harbor City","CA","90710","US","<MISSING>","+1-310-986-2002","<MISSING>","33.789284","-118.302443","<MISSING>","https://www.wyndhamhotels.com/en-uk/travelodge/harbor-city-california/travelodge-harbor-city/overview"
"https://www.wyndhamhotels.com/en-ca/travelodge","Travelodge by Wyndham Healdsburg - Sonoma Wine Country","178 Dry Creek Road ","Healdsburg","CA","95448","US","<MISSING>","+1-707-433-0101","<MISSING>","38.626133","-122.87532","<MISSING>","https://www.wyndhamhotels.com/en-uk/travelodge/healdsburg-california/travelodge-healdsburg-sonoma-wine-country/overview"
"https://www.wyndhamhotels.com/en-ca/travelodge","Travelodge by Wyndham Hemet CA","2625 West Florida Avenue ","Hemet","CA","92545","US","<MISSING>","+1-951-390-2309","<MISSING>","33.746704","-116.99958","<MISSING>","https://www.wyndhamhotels.com/en-uk/travelodge/hemet-california/travelodge-hemet-ca/overview"
"https://www.wyndhamhotels.com/en-ca/travelodge","Travelodge by Wyndham Hollywood-Vermont/Sunset","1401 North Vermont Avenue ","Hollywood","CA","90027","US","<MISSING>","+1-323-665-5735","<MISSING>","34.096935","-118.292442","<MISSING>","https://www.wyndhamhotels.com/en-uk/travelodge/hollywood-california/travelodge-hollywood-vermont-sunset/overview"
"https://www.wyndhamhotels.com/en-ca/travelodge","Travelodge by Wyndham Indio","80651 Highway 111 ","Indio","CA","92201","US","<MISSING>","+1-760-342-0882","<MISSING>","33.7073","-116.266097","<MISSING>","https://www.wyndhamhotels.com/en-uk/travelodge/indio-california/indio-travelodge/overview"
"https://www.wyndhamhotels.com/en-ca/travelodge","Travelodge by Wyndham Lemoore Near Naval Air Station","877 East D Street ","Lemoore","CA","93245","US","<MISSING>","+1-559-345-6136","<MISSING>","36.298996","-119.768654","<MISSING>","https://www.wyndhamhotels.com/en-uk/travelodge/lemoore-california/travelodge-lemoore-near-naval-air-station/overview"
"https://www.wyndhamhotels.com/en-ca/travelodge","Travelodge by Wyndham Long Beach Convention Center","80 Atlantic Avenue ","Long Beach","CA","90802","US","<MISSING>","+1-562-435-2471","<MISSING>","33.767804","-118.184894","<MISSING>","https://www.wyndhamhotels.com/en-uk/travelodge/long-beach-california/long-beach-convention-center-travelodge/overview"
"https://www.wyndhamhotels.com/en-ca/travelodge","Travelodge by Wyndham Los Banos CA","349 West Pacheco Blvd. ","Los Banos","CA","93635","US","<MISSING>","+1-209-710-0593","<MISSING>","37.05637","-120.858131","<MISSING>","https://www.wyndhamhotels.com/en-uk/travelodge/los-banos-california/travelodge-los-banos-ca/overview"
"https://www.wyndhamhotels.com/en-ca/travelodge","Travelodge by Wyndham Lynwood","11401 Long Beach Blvd. ","Lynwood","CA","90262","US","<MISSING>","+1-310-438-5339","<MISSING>","33.926933","-118.211174","<MISSING>","https://www.wyndhamhotels.com/en-uk/travelodge/lynwood-california/lynwood-century-freeway-travelodge/overview"
"https://www.wyndhamhotels.com/en-ca/travelodge","Travelodge by Wyndham Mammoth Lakes","54 Sierra Boulevard ","Mammoth Lakes","CA","93546","US","<MISSING>","+1-760-934-8892","<MISSING>","37.649859","-118.974185","<MISSING>","https://www.wyndhamhotels.com/en-uk/travelodge/mammoth-lakes-california/mammoth-lakes-travelodge/overview"
"https://www.wyndhamhotels.com/en-ca/travelodge","Travelodge by Wyndham Merced Yosemite","1260 Yosemite Parkway ","Merced","CA","95341","US","<MISSING>","+1-209-722-6224","<MISSING>","37.294769","-120.460274","<MISSING>","https://www.wyndhamhotels.com/en-uk/travelodge/merced-california/travelodge-merced-yosemite/overview"
"https://www.wyndhamhotels.com/en-ca/travelodge","Travelodge by Wyndham Mill Valley/Sausalito","707 Redwood Highway ","Mill Valley","CA","94941","US","<MISSING>","+1-415-569-3948","<MISSING>","37.89341","-122.517151","<MISSING>","https://www.wyndhamhotels.com/en-uk/travelodge/mill-valley-california/travelodge-mill-valley-sausalito/overview"
"https://www.wyndhamhotels.com/en-ca/travelodge","Travelodge by Wyndham Monterey Bay","2030 North Fremont Street ","Monterey","CA","93940","US","<MISSING>","+1-831-373-3381","<MISSING>","36.595043","-121.865746","<MISSING>","https://www.wyndhamhotels.com/en-uk/travelodge/monterey-california/monterey-bay-travelodge/overview"
"https://www.wyndhamhotels.com/en-ca/travelodge","Travelodge by Wyndham Oceanside","1403 Mission Avenue ","Oceanside","CA","92058-2634","US","<MISSING>","+1-760-721-6663","<MISSING>","33.200294","-117.370193","<MISSING>","https://www.wyndhamhotels.com/en-uk/travelodge/oceanside-california/travelodge-oceanside/overview"
"https://www.wyndhamhotels.com/en-ca/travelodge","Travelodge by Wyndham Ontario","1150 North Grove Ave ","Ontario","CA","91764","US","<MISSING>","+1-909-467-3788","<MISSING>","34.079502","-117.627838","<MISSING>","https://www.wyndhamhotels.com/en-uk/travelodge/ontario-california/travelodge-ontario/overview"
"https://www.wyndhamhotels.com/en-ca/travelodge","Travelodge by Wyndham Palm Springs","1269 E. Palm Canyon Dr. ","Palm Springs","CA","92264","US","<MISSING>","+1-760-507-4431","<MISSING>","33.801371","-116.533371","<MISSING>","https://www.wyndhamhotels.com/en-uk/travelodge/palm-springs-california/travelodge-by-wyndham-palm-springs/overview"
"https://www.wyndhamhotels.com/en-ca/travelodge","Travelodge by Wyndham Palo Alto Silicon Valley","3255 El Camino Real ","Palo Alto","CA","94306","US","<MISSING>","+1-650-600-8515","<MISSING>","37.420912","-122.137476","<MISSING>","https://www.wyndhamhotels.com/en-uk/travelodge/palo-alto-california/travelodge-palo-alto-silicon-valley/overview"
"https://www.wyndhamhotels.com/en-ca/travelodge","Travelodge by Wyndham Pasadena Central","2131 East Colorado Blvd. ","Pasadena","CA","91107","US","<MISSING>","+1-626-796-3121","<MISSING>","34.146488","-118.10672","<MISSING>","https://www.wyndhamhotels.com/en-uk/travelodge/pasadena-california/travelodge-pasadena-central/overview"
"https://www.wyndhamhotels.com/en-ca/travelodge","Travelodge by Wyndham Red Bluff","38 Antelope blvd ","Red Bluff","CA","96080-2801","US","<MISSING>","+1-530-727-5189","<MISSING>","40.179237","-122.230461","<MISSING>","https://www.wyndhamhotels.com/en-uk/travelodge/red-bluff-california/travelodge-red-bluff/overview"
"https://www.wyndhamhotels.com/en-ca/travelodge","Travelodge by Wyndham Redding CA","540 North Market Street ","Redding","CA","96003-3610","US","<MISSING>","+1-530-243-5291","<MISSING>","40.598946","-122.38549","<MISSING>","https://www.wyndhamhotels.com/en-uk/travelodge/redding-california/travelodge-redding-ca/overview"
"https://www.wyndhamhotels.com/en-ca/travelodge","Travelodge by Wyndham Rosemead","3327 Del Mar Ave ","Rosemead","CA","91770","US","<MISSING>","+1-626-572-7180","<MISSING>","34.0688","-118.09996","<MISSING>","https://www.wyndhamhotels.com/en-uk/travelodge/rosemead-california/travelodge-rosemead/overview"
"https://www.wyndhamhotels.com/en-ca/travelodge","Travelodge by Wyndham Sacramento / Rancho Cordova","9646 Micron Avenue ","Sacramento","CA","95827","US","<MISSING>","+1-916-245-1977","<MISSING>","38.563213","-121.337448","<MISSING>","https://www.wyndhamhotels.com/en-uk/travelodge/sacramento-california/travelodge-sacramento-rancho-cordova/overview"
"https://www.wyndhamhotels.com/en-ca/travelodge","Travelodge by Wyndham Sacramento Convention Center","623 16th Street ","Sacramento","CA","95814","US","<MISSING>","+1-916-288-9018","<MISSING>","38.581612","-121.483192","<MISSING>","https://www.wyndhamhotels.com/en-uk/travelodge/sacramento-california/travelodge-sacramento-convention-center/overview"
"https://www.wyndhamhotels.com/en-ca/travelodge","Travelodge by Wyndham San Clemente Beach","2441 South El Camino Real ","San Clemente","CA","92672","US","<MISSING>","+1-949-498-5954","<MISSING>","33.410976","-117.600266","<MISSING>","https://www.wyndhamhotels.com/en-uk/travelodge/san-clemente-california/travelodge-san-clemente-beach/overview"
"https://www.wyndhamhotels.com/en-ca/travelodge","Travelodge by Wyndham, San Diego Downtown Convention Center","1801 Logan Avenue ","San Diego","CA","92113","US","<MISSING>","+1-619-752-1100","<MISSING>","32.702208","-117.14597","<MISSING>","https://www.wyndhamhotels.com/en-uk/travelodge/san-diego-california/travelodge-san-diego-downtown-convention-center/overview"
"https://www.wyndhamhotels.com/en-ca/travelodge","Travelodge by Wyndham San Diego SeaWorld","3275 Rosecrans Street ","San Diego","CA","92110","US","<MISSING>","+1-619-436-4990","<MISSING>","32.748043","-117.20754","<MISSING>","https://www.wyndhamhotels.com/en-uk/travelodge/san-diego-california/travelodge-san-diego-seaworld/overview"
"https://www.wyndhamhotels.com/en-ca/travelodge","Travelodge by Wyndham by Fisherman's Wharf","1201 Columbus Avenue ","San Francisco","CA","94133","US","<MISSING>","+1-415-776-7070","<MISSING>","37.805246","-122.417369","<MISSING>","https://www.wyndhamhotels.com/en-uk/travelodge/san-francisco-california/travelodge-by-fishermans-wharf/overview"
"https://www.wyndhamhotels.com/en-ca/travelodge","Travelodge by Wyndham Presidio San Francisco","2755 Lombard Street ","San Francisco","CA","94123","US","<MISSING>","+1-415-906-3493","<MISSING>","37.798264","-122.446747","<MISSING>","https://www.wyndhamhotels.com/en-uk/travelodge/san-francisco-california/travelodge-at-the-presidio-san-francisco/overview"
"https://www.wyndhamhotels.com/en-ca/travelodge","Travelodge by Wyndham San Francisco Bay","1450 Lombard Street ","San Francisco","CA","94123","US","<MISSING>","+1-415-673-0691","<MISSING>","37.801544","-122.425575","<MISSING>","https://www.wyndhamhotels.com/en-uk/travelodge/san-francisco-california/travelodge-by-wyndham-san-francisco-bay/overview"
"https://www.wyndhamhotels.com/en-ca/travelodge","Travelodge by Wyndham San Francisco Central","1707 Market Street ","San Francisco","CA","94103","US","<MISSING>","+1-415-906-3134","<MISSING>","37.772259","-122.422642","<MISSING>","https://www.wyndhamhotels.com/en-uk/travelodge/san-francisco-california/san-francisco-central-travelodge/overview"
"https://www.wyndhamhotels.com/en-ca/travelodge","Travelodge by Wyndham San Rafael","865 Francisco Blvd East ","San Rafael","CA","94901","US","<MISSING>","+1-415-454-9470","<MISSING>","37.962421","-122.508369","<MISSING>","https://www.wyndhamhotels.com/en-uk/travelodge/san-rafael-california/travelodge-san-rafael/overview"
"https://www.wyndhamhotels.com/en-ca/travelodge","Travelodge by Wyndham San Ysidro","190 East Calle Primera ","San Ysidro","CA","92173","US","<MISSING>","+1-619-428-4486","<MISSING>","32.549686","-117.042701","<MISSING>","https://www.wyndhamhotels.com/en-uk/travelodge/san-ysidro-california/travelodge-san-ysidro/overview"
"https://www.wyndhamhotels.com/en-ca/travelodge","Travelodge by Wyndham Santa Clarita/Valencia","17843 Sierra Highway ","Santa Clarita","CA","91351","US","<MISSING>","+1-661-252-1716","<MISSING>","34.426476","-118.448471","<MISSING>","https://www.wyndhamhotels.com/en-uk/travelodge/santa-clarita-california/travelodge-of-santa-clarita/overview"
"https://www.wyndhamhotels.com/en-ca/travelodge","Travelodge by Wyndham Santa Maria","1514 South Broadway ","Santa Maria","CA","93454","US","<MISSING>","+1-805-922-2123","<MISSING>","34.933102","-120.435371","<MISSING>","https://www.wyndhamhotels.com/en-uk/travelodge/santa-maria-california/travelodge-santa-maria/overview"
"https://www.wyndhamhotels.com/en-ca/travelodge","Travelodge by Wyndham Santa Rosa Wine Country","1815 Santa Rosa Avenue ","Santa Rosa","CA","95407","US","<MISSING>","+1-707-542-3472","<MISSING>","38.420574","-122.714134","<MISSING>","https://www.wyndhamhotels.com/en-uk/travelodge/santa-rosa-california/travelodge-santa-rosa-ca/overview"
"https://www.wyndhamhotels.com/en-ca/travelodge","Travelodge by Wyndham San Francisco Airport North","326 South Airport Blvd ","South San Francisco","CA","94080","US","<MISSING>","+1-650-741-4222","<MISSING>","37.643997","-122.405548","<MISSING>","https://www.wyndhamhotels.com/en-uk/travelodge/south-san-francisco-california/travelodge-san-francisco-airport-north/overview"
"https://www.wyndhamhotels.com/en-ca/travelodge","Travelodge by Wyndham Sunset-Huntington Beach Ocean Front","17205 Pacific Coast Hwy ","Sunset Beach","CA","90742","US","<MISSING>","+1-714-421-4451","<MISSING>","33.712273","-118.063889","<MISSING>","https://www.wyndhamhotels.com/en-uk/travelodge/sunset-beach-california/travelodge-sunset-huntington-beach-ocean-front/overview"
"https://www.wyndhamhotels.com/en-ca/travelodge","Travelodge by Wyndham Sylmar CA","14955 Roxford Street ","Sylmar","CA","91342","US","<MISSING>","+1-818-639-3726","<MISSING>","34.322902","-118.460563","<MISSING>","https://www.wyndhamhotels.com/en-uk/travelodge/sylmar-california/travelodge-sylmar-ca/overview"
"https://www.wyndhamhotels.com/en-ca/travelodge","Travelodge by Wyndham Turlock","201 W Glenwood Ave ","Turlock","CA","95380","US","<MISSING>","+1-209-417-6130","<MISSING>","37.473194","-120.850349","<MISSING>","https://www.wyndhamhotels.com/en-uk/travelodge/turlock-california/travelodge-turlock/overview"
"https://www.wyndhamhotels.com/en-ca/travelodge","Travelodge by Wyndham Ukiah","1720 North State Street ","Ukiah","CA","95482","US","<MISSING>","+1-707-376-9304","<MISSING>","39.172916","-123.211952","<MISSING>","https://www.wyndhamhotels.com/en-uk/travelodge/ukiah-california/travelodge-ukiah/overview"
"https://www.wyndhamhotels.com/en-ca/travelodge","Travelodge by Wyndham Vallejo / I-80","44 Admiral Callaghan Ln ","Vallejo","CA","94591","US","<MISSING>","+1-707-643-1061","<MISSING>","38.1105","-122.22791","<MISSING>","https://www.wyndhamhotels.com/en-uk/travelodge/vallejo-california/travelodge-vallejo-i-80/overview"
"https://www.wyndhamhotels.com/en-ca/travelodge","Travelodge by Wyndham Victorville","12175 Mariposa Rd ","Victorville","CA","92395","US","<MISSING>","+1-760-552-8778","<MISSING>","34.471966","-117.342453","<MISSING>","https://www.wyndhamhotels.com/en-uk/travelodge/victorville-california/victorville-travelodge/overview"
"https://www.wyndhamhotels.com/en-ca/travelodge","Travelodge by Wyndham Whittier","11530 Whittier Blvd ","Whittier","CA","90601","US","<MISSING>","+1-562-205-1835","<MISSING>","33.98325","-118.054733","<MISSING>","https://www.wyndhamhotels.com/en-uk/travelodge/whittier-california/travelodge-whittier/overview"
"https://www.wyndhamhotels.com/en-ca/travelodge","Travelodge by Wyndham Yuba City","965 Gray Ave ","Yuba City","CA","95991","US","<MISSING>","+1-530-777-5184","<MISSING>","39.140259","-121.630041","<MISSING>","https://www.wyndhamhotels.com/en-uk/travelodge/yuba-city-california/travelodge-yuba-city/overview"
"https://www.wyndhamhotels.com/en-ca/travelodge","Travelodge Inn & Suites by Wyndham Yucca Valley/Joshua Tree","54850 29 Palm Highway ","Yucca Valley","CA","92284","US","<MISSING>","+1-760-365-3311","<MISSING>","34.1175","-116.46649","<MISSING>","https://www.wyndhamhotels.com/en-uk/travelodge/yucca-valley-california/travelodge-inn-and-suites-yucca-valley-joshua-tree-natl-park/overview"
"https://www.wyndhamhotels.com/en-ca/travelodge","Travelodge by Wyndham Colorado Springs","2625 Ore Mill Rd. ","Colorado Springs","CO","80904","US","<MISSING>","+1-719-623-7857","<MISSING>","38.846088","-104.867874","<MISSING>","https://www.wyndhamhotels.com/en-uk/travelodge/colorado-springs-colorado/travelodge-colorado-springs/overview"
"https://www.wyndhamhotels.com/en-ca/travelodge","Travelodge by Wyndham Colorado Springs Airport/Peterson AFB","6875 Space Village Ave ","Colorado Springs","CO","80915","US","<MISSING>","+1-719-596-5588","<MISSING>","38.838719","-104.698861","<MISSING>","https://www.wyndhamhotels.com/en-uk/travelodge/colorado-springs-colorado/travelodge-colorado-springs-airport-peterson-afb/overview"
"https://www.wyndhamhotels.com/en-ca/travelodge","Travelodge by Wyndham Cortez","1120 East Main St. ","Cortez","CO","81321","US","<MISSING>","+1-970-565-3761","<MISSING>","37.349678","-108.570641","<MISSING>","https://www.wyndhamhotels.com/en-uk/travelodge/cortez-colorado/travelodge-cortez/overview"
"https://www.wyndhamhotels.com/en-ca/travelodge","A Riverside Inn Travelodge by Wyndham","249 US Hwy 285 ","Fairplay","CO","80440","US","<MISSING>","+1-719-836-0600","<MISSING>","39.21733","-105.99345","<MISSING>","https://www.wyndhamhotels.com/en-uk/travelodge/fairplay-colorado/a-riverside-inn-travelodge/overview"
"https://www.wyndhamhotels.com/en-ca/travelodge","Travelodge by Wyndham Grand Junction","718 Horizon Dr ","Grand Junction","CO","81506","US","<MISSING>","+1-970-243-5080","<MISSING>","39.108173","-108.542091","<MISSING>","https://www.wyndhamhotels.com/en-uk/travelodge/grand-junction-colorado/travelodge-grand-junction/overview"
"https://www.wyndhamhotels.com/en-ca/travelodge","Travelodge by Wyndham Longmont","3820 State Highway 119 ","Longmont","CO","80504","US","<MISSING>","+1-303-848-4983","<MISSING>","40.160563","-104.982573","<MISSING>","https://www.wyndhamhotels.com/en-uk/travelodge/longmont-colorado/travelodge-longmont/overview"
"https://www.wyndhamhotels.com/en-ca/travelodge","Travelodge by Wyndham Loveland/Fort Collins Area","1655 East Eisenhower Blvd ","Loveland","CO","80537-4228","US","<MISSING>","+1-970-541-9997","<MISSING>","40.407917","-105.051659","<MISSING>","https://www.wyndhamhotels.com/en-uk/travelodge/loveland-colorado/travelodge-loveland-fort-collins-area/overview"
"https://www.wyndhamhotels.com/en-ca/travelodge","Travelodge by Wyndham Yampa","98 Moffat Ave ","Yampa","CO","80483","US","<MISSING>","+1-970-480-7910","<MISSING>","40.14984","-106.90794","<MISSING>","https://www.wyndhamhotels.com/en-uk/travelodge/yampa-colorado/travelodge-yampa/overview"
"https://www.wyndhamhotels.com/en-ca/travelodge","Travelodge by Wyndham Windsor Locks","383 South Center Street ","Windsor Locks","CT","06096","US","<MISSING>","+1-860-758-7930","<MISSING>","41.905132","-72.635398","<MISSING>","https://www.wyndhamhotels.com/en-uk/travelodge/windsor-locks-connecticut/travelodge-windsor-locks/overview"
"https://www.wyndhamhotels.com/en-ca/travelodge","Travelodge by Wyndham Alachua","15920 NW US Highway 441 ","Alachua","FL","<MISSING>","US","<MISSING>","+1-386-462-2414","<MISSING>","29.80023","-82.50928","<MISSING>","https://www.wyndhamhotels.com/en-uk/travelodge/alachua-florida/travelodge-alachua/overview"
"https://www.wyndhamhotels.com/en-ca/travelodge","Travelodge by Wyndham Deltona","481 Deltona Blvd ","Deltona","FL","32725-8015","US","<MISSING>","+1-386-320-5793","<MISSING>","28.874695","-81.280663","<MISSING>","https://www.wyndhamhotels.com/en-uk/travelodge/deltona-florida/travelodge-deltona/overview"
"https://www.wyndhamhotels.com/en-ca/travelodge","Travelodge by Wyndham Florida City/Homestead/Everglades","409 S.E. 1st Ave ","Florida City","FL","33034","US","<MISSING>","+1-305-482-1961","<MISSING>","25.443953","-80.473781","<MISSING>","https://www.wyndhamhotels.com/en-uk/travelodge/florida-city-florida/travelodge-florida-city-homestead-everglades/overview"
"https://www.wyndhamhotels.com/en-ca/travelodge","Travelodge by Wyndham Fort Lauderdale","1251 East Sunrise Boulevard ","Fort Lauderdale","FL","33304","US","<MISSING>","+1-954-763-6601","<MISSING>","26.137627","-80.13089","<MISSING>","https://www.wyndhamhotels.com/en-uk/travelodge/fort-lauderdale-florida/travelodge-fort-lauderdale/overview"
"https://www.wyndhamhotels.com/en-ca/travelodge","Travelodge by Wyndham Fort Myers","4760 South Cleveland Ave ","Fort Myers","FL","33907","US","<MISSING>","+1-239-275-1111","<MISSING>","26.592043","-81.873749","<MISSING>","https://www.wyndhamhotels.com/en-uk/travelodge/fort-myers-florida/travelodge-fort-myers/overview"
"https://www.wyndhamhotels.com/en-ca/travelodge","Travelodge by Wyndham Fort Myers Airport","13661 Indian Paint Lane ","Fort Myers","FL","33912","US","<MISSING>","+1-239-228-3666","<MISSING>","26.545933","-81.798882","<MISSING>","https://www.wyndhamhotels.com/en-uk/travelodge/fort-myers-florida/travelodge-fort-myers-airport/overview"
"https://www.wyndhamhotels.com/en-ca/travelodge","Travelodge Inn & Suites by Wyndham Jacksonville Airport","1153 Airport Road ","Jacksonville","FL","32218","US","<MISSING>","+1-904-515-4427","<MISSING>","30.4825","-81.6483","<MISSING>","https://www.wyndhamhotels.com/en-uk/travelodge/jacksonville-florida/travelodge-inn-and-suites-jacksonville-airport/overview"
"https://www.wyndhamhotels.com/en-ca/travelodge","A-P-T Suites, Travelodge by Wyndham Kissimmee East","2295 E. Irlo Bronson Memorial ","Kissimmee","FL","34744-4419","US","<MISSING>","+1-407-705-2622","<MISSING>","28.28384","-81.34968","<MISSING>","https://www.wyndhamhotels.com/en-uk/travelodge/kissimmee-florida/a-p-t-suites-travelodge-kissimmee-east/overview"
"https://www.wyndhamhotels.com/en-ca/travelodge","Travelodge Suites by Wyndham Kissimmee Orange","5399 West Irlo Bronson ","Kissimmee","FL","34746","US","<MISSING>","+1-407-966-4418","<MISSING>","28.334284","-81.499405","<MISSING>","https://www.wyndhamhotels.com/en-uk/travelodge/kissimmee-florida/travelodge-suites-by-wyndham-kissimmee-orange/overview"
"https://www.wyndhamhotels.com/en-ca/travelodge","Travelodge by Wyndham Lakeland","3425 Highway 98 North ","Lakeland","FL","33809","US","<MISSING>","+1-863-797-4597","<MISSING>","28.086785","-81.971269","<MISSING>","https://www.wyndhamhotels.com/en-uk/travelodge/lakeland-florida/travelodge-lakeland/overview"
"https://www.wyndhamhotels.com/en-ca/travelodge","Travelodge Suites by Wyndham MacClenny","1651 South 6th Street ","MacClenny","FL","32063","US","<MISSING>","+1-904-259-6408","<MISSING>","30.256","-82.121814","<MISSING>","https://www.wyndhamhotels.com/en-uk/travelodge/macclenny-florida/travelodge-suites-macclenny/overview"
"https://www.wyndhamhotels.com/en-ca/travelodge","Travelodge by Wyndham Miami Biscayne Bay","5255 Biscayne Blvd ","Miami","FL","33137","US","<MISSING>","+1-305-751-8696","<MISSING>","25.824782","-80.186473","<MISSING>","https://www.wyndhamhotels.com/en-uk/travelodge/miami-florida/travelodge-miami/overview"
"https://www.wyndhamhotels.com/en-ca/travelodge","Travelodge by Wyndham Fort Myers North","13353 North Cleveland Avenue ","North Fort Myers","FL","33903","US","<MISSING>","+1-239-800-9857","<MISSING>","26.661794","-81.886657","<MISSING>","https://www.wyndhamhotels.com/en-uk/travelodge/north-fort-myers-florida/travelodge-fort-myers-north/overview"
"https://www.wyndhamhotels.com/en-ca/travelodge","Travelodge Suites by Wyndham Lake Okeechobee","1527 US Highway 441 Southeast ","Okeechobee","FL","34974-7207","US","<MISSING>","+1-863-824-3431","<MISSING>","27.206635","-80.812592","<MISSING>","https://www.wyndhamhotels.com/en-uk/travelodge/okeechobee-florida/travelodge-suites-okeechobee/overview"
"https://www.wyndhamhotels.com/en-ca/travelodge","Travelodge by Wyndham Orlando / Heart of International Drive","7200 International Dr ","Orlando","FL","32819","US","<MISSING>","+1-321-754-1796","<MISSING>","28.462233","-81.461409","<MISSING>","https://www.wyndhamhotels.com/en-uk/travelodge/orlando-florida/travelodge-orlando-heart-of-international-drive/overview"
"https://www.wyndhamhotels.com/en-ca/travelodge","Travelodge by Wyndham Orlando Near Florida Mall","1850 West Landstreet Road ","Orlando","FL","32809-7981","US","<MISSING>","+1-407-917-6455","<MISSING>","28.435459","-81.403595","<MISSING>","https://www.wyndhamhotels.com/en-uk/travelodge/orlando-florida/travelodge-orlando-near-florida-mall/overview"
"https://www.wyndhamhotels.com/en-ca/travelodge","Travelodge by Wyndham Pompano Beach","1201 NW 31st Ave ","Pompano Beach","FL","33069","US","<MISSING>","+1-954-953-2400","<MISSING>","26.242791","-80.165849","<MISSING>","https://www.wyndhamhotels.com/en-uk/travelodge/pompano-beach-florida/travelodge-pompano-beach/overview"
"https://www.wyndhamhotels.com/en-ca/travelodge","Travelodge by Wyndham Riviera Beach/West Palm","3651 Blue Heron Boulevard West ","Riviera Beach","FL","33404","US","<MISSING>","+1-561-228-4939","<MISSING>","26.782295","-80.093781","<MISSING>","https://www.wyndhamhotels.com/en-uk/travelodge/riviera-beach-florida/travelodge-riviera-beach-west-palm/overview"
"https://www.wyndhamhotels.com/en-ca/travelodge","Travelodge by Wyndham Suites St Augustine","290 San Marco Avenue ","Saint Augustine","FL","32084","US","<MISSING>","+1-904-494-8232","<MISSING>","29.919443","-81.323853","<MISSING>","https://www.wyndhamhotels.com/en-uk/travelodge/saint-augustine-florida/travelodge-suites-st-augustine/overview"
"https://www.wyndhamhotels.com/en-ca/travelodge","Travelodge by Wyndham Winter Haven","2275 8TH ST NW ","Winter Haven","FL","33881","US","<MISSING>","+1-863-401-8211","<MISSING>","28.046673","-81.73513","<MISSING>","https://www.wyndhamhotels.com/en-uk/travelodge/winter-haven-florida/travelodge-by-wyndham-winter-haven/overview"
"https://www.wyndhamhotels.com/en-ca/travelodge","Travelodge by Wyndham College Park","2471 Old National Parkway ","College Park","GA","30349","US","<MISSING>","+1-404-477-1050","<MISSING>","33.619144","-84.470726","<MISSING>","https://www.wyndhamhotels.com/en-uk/travelodge/college-park-georgia/travelodge-college-park/overview"
"https://www.wyndhamhotels.com/en-ca/travelodge","Travelodge by Wyndham Commerce GA Near Tanger Outlets Mall","267 Steven B Tanger Blvd ","Commerce","GA","30529","US","<MISSING>","+1-706-459-3110","<MISSING>","34.254097","-83.467267","<MISSING>","https://www.wyndhamhotels.com/en-uk/travelodge/commerce-georgia/travelodge-commerce-ga-near-tanger-outlets-mall/overview"
"https://www.wyndhamhotels.com/en-ca/travelodge","Travelodge by Wyndham Cordele","1618 East 16th Avenue ","Cordele","GA","31015","US","<MISSING>","+1-229-273-2456","<MISSING>","31.961306","-83.759806","<MISSING>","https://www.wyndhamhotels.com/en-uk/travelodge/cordele-georgia/travelodge-cordele/overview"
"https://www.wyndhamhotels.com/en-ca/travelodge","Travelodge by Wyndham Covington","10225 Highway 142 N ","Covington","GA","30014","US","<MISSING>","+1-770-784-1849","<MISSING>","33.59684","-83.861641","<MISSING>","https://www.wyndhamhotels.com/en-uk/travelodge/covington-georgia/travelodge-covington/overview"
"https://www.wyndhamhotels.com/en-ca/travelodge","Travelodge by Wyndham Forest Park Atlanta South","6025 Old Dixie Highway ","Forest Park","GA","30297","US","<MISSING>","+1-404-361-3600","<MISSING>","33.59005","-84.377754","<MISSING>","https://www.wyndhamhotels.com/en-uk/travelodge/forest-park-georgia/travelodge-forest-park-atlanta-south/overview"
"https://www.wyndhamhotels.com/en-ca/travelodge","Travelodge by Wyndham Hinesville","738 East Oglethorpe Highway ","Hinesville","GA","31313","US","<MISSING>","+1-912-368-4146","<MISSING>","31.851565","-81.582794","<MISSING>","https://www.wyndhamhotels.com/en-uk/travelodge/hinesville-georgia/travelodge-hinesville/overview"
"https://www.wyndhamhotels.com/en-ca/travelodge","Travelodge by Wyndham Lake Park Valdosta","4912 Timber Drive ","Lake Park","GA","31636","US","<MISSING>","+1-229-947-4329","<MISSING>","30.681586","-83.227424","<MISSING>","https://www.wyndhamhotels.com/en-uk/travelodge/lake-park-georgia/travelodge-lake-park-valdasta/overview"
"https://www.wyndhamhotels.com/en-ca/travelodge","Travelodge by Wyndham Perry GA","100 Westview Lane I-75, Exit 135","Perry","GA","31069","US","<MISSING>","+1-478-987-7355","<MISSING>","32.448456","-83.751656","<MISSING>","https://www.wyndhamhotels.com/en-uk/travelodge/perry-georgia/travelodge-perry-ga/overview"
"https://www.wyndhamhotels.com/en-ca/travelodge","Travelodge by Wyndham Port Wentworth Savannah Area","110 Travelers Way ","Port Wentworth","GA","31407-9217","US","<MISSING>","+1-912-964-6060","<MISSING>","32.195724","-81.194175","<MISSING>","https://www.wyndhamhotels.com/en-uk/travelodge/port-wentworth-georgia/travelodge-port-wentworth-savannah-area/overview"
"https://www.wyndhamhotels.com/en-ca/travelodge","Travelodge by Wyndham Savannah Area/Richmond Hill","4120 Highway 17 ","Richmond Hill","GA","31324","US","<MISSING>","+1-912-756-3325","<MISSING>","31.929433","-81.329285","<MISSING>","https://www.wyndhamhotels.com/en-uk/travelodge/richmond-hill-georgia/travelodge-savannah-area-richmond-hill/overview"
"https://www.wyndhamhotels.com/en-ca/travelodge","Travelodge by Wyndham Savannah Gateway","17009 Abercorn ","Savannah","GA","31419","US","<MISSING>","+1-912-921-1940","<MISSING>","32.003554","-81.27461","<MISSING>","https://www.wyndhamhotels.com/en-uk/travelodge/savannah-georgia/travelodge-savannah-ga/overview"
"https://www.wyndhamhotels.com/en-ca/travelodge","Travelodge by Wyndham Stockbridge Atlanta South","619 Highway 138 W ","Stockbridge","GA","30281-4250","US","<MISSING>","+1-678-519-2151","<MISSING>","33.54643","-84.27475","<MISSING>","https://www.wyndhamhotels.com/en-uk/travelodge/stockbridge-georgia/travelodge-stockbridge-atlanta-south/overview"
"https://www.wyndhamhotels.com/en-ca/travelodge","Travelodge by Wyndham Unadilla","101 Robert St ","Unadilla","GA","31091","US","<MISSING>","+1-478-387-2273","<MISSING>","32.263355","-83.733047","<MISSING>","https://www.wyndhamhotels.com/en-uk/travelodge/unadilla-georgia/travelodge-unadilla/overview"
"https://www.wyndhamhotels.com/en-ca/travelodge","Travelodge by Wyndham Pocatello","133 West Burnside ","Pocatello","ID","83202","US","<MISSING>","+1-208-242-3196","<MISSING>","42.913948","-112.468445","<MISSING>","https://www.wyndhamhotels.com/en-uk/travelodge/pocatello-idaho/travelodge-pocatello/overview"
"https://www.wyndhamhotels.com/en-ca/travelodge","Travelodge by Wyndham Downtown Chicago","65 East Harrison ","Chicago","IL","60605","US","<MISSING>","+1-312-574-3335","<MISSING>","41.874274","-87.62535","<MISSING>","https://www.wyndhamhotels.com/en-uk/travelodge/chicago-illinois/travelodge-hotel-downtown-chicago/overview"
"https://www.wyndhamhotels.com/en-ca/travelodge","Travelodge by Wyndham Lansing IL","17301 Oak Ave ","Lansing","IL","60438","US","<MISSING>","+1-708-474-6900","<MISSING>","41.580707","-87.555188","<MISSING>","https://www.wyndhamhotels.com/en-uk/travelodge/lansing-illinois/travelodge-lansing-il/overview"
"https://www.wyndhamhotels.com/en-ca/travelodge","Travelodge by Wyndham Matteson","950 Lake Superior Drive ","Matteson","IL","60443","US","<MISSING>","+1-708-748-4740","<MISSING>","41.50756","-87.73967","<MISSING>","https://www.wyndhamhotels.com/en-uk/travelodge/matteson-illinois/travelodge-matteson/overview"
"https://www.wyndhamhotels.com/en-ca/travelodge","Travelodge by Wyndham Chicago - South Holland","17301A Halsted Street ","South Holland","IL","60473-2744","US","<MISSING>","+1-708-913-5335","<MISSING>","41.58047","-87.63456","<MISSING>","https://www.wyndhamhotels.com/en-uk/travelodge/south-holland-illinois/travelodge-chicago-south-holland/overview"
"https://www.wyndhamhotels.com/en-ca/travelodge","Starved Rock Motor Inn Travelodge by Wyndham","2110 N Bloomington Street ","Streator","IL","61364","US","<MISSING>","+1-815-672-8400","<MISSING>","41.14566","-88.83619","<MISSING>","https://www.wyndhamhotels.com/en-uk/travelodge/streator-illinois/starved-rock-motor-inn-travelodge/overview"
"https://www.wyndhamhotels.com/en-ca/travelodge","Travelodge by Wyndham Waukegan Gurnee","3633 North Lewis Ave ","Waukegan","IL","60087","US","<MISSING>","+1-847-693-4431","<MISSING>","42.418161","-87.854999","<MISSING>","https://www.wyndhamhotels.com/en-uk/travelodge/waukegan-illinois/travelodge-waukegan-gurnee/overview"
"https://www.wyndhamhotels.com/en-ca/travelodge","Travelodge by Wyndham Bloomington","2615 East Third Street ","Bloomington","IN","47401","US","<MISSING>","+1-812-727-6959","<MISSING>","39.164387","-86.499842","<MISSING>","https://www.wyndhamhotels.com/en-uk/travelodge/bloomington-indiana/bloomington-travelodge/overview"
"https://www.wyndhamhotels.com/en-ca/travelodge","Travelodge by Wyndham Fort Wayne North","5710 Challenger Pkwy ","Fort Wayne","IN","46818","US","<MISSING>","+1-260-489-0050","<MISSING>","41.13047","-85.16264","<MISSING>","https://www.wyndhamhotels.com/en-uk/travelodge/fort-wayne-indiana/travelodge-fort-wayne-north/overview"
"https://www.wyndhamhotels.com/en-ca/travelodge","Travelodge by Wyndham Lafayette East","4320 South Street ","Lafayette","IN","47905","US","<MISSING>","+1-765-447-4142","<MISSING>","40.418457","-86.823513","<MISSING>","https://www.wyndhamhotels.com/en-uk/travelodge/lafayette-indiana/travelodge-lafayette-east/overview"
"https://www.wyndhamhotels.com/en-ca/travelodge","Travelodge by Wyndham La Porte/Michigan City Area","438 Pine Lake Ave. ","LaPorte","IN","46350-2315","US","<MISSING>","+1-219-325-3808","<MISSING>","41.621582","-86.738571","<MISSING>","https://www.wyndhamhotels.com/en-uk/travelodge/laporte-indiana/travelodge-la-porte-michigan-city-area/overview"
"https://www.wyndhamhotels.com/en-ca/travelodge","Travelodge by Wyndham Sellersburg","7618 Old State Road 60 ","Sellersburg","IN","47172","US","<MISSING>","+1-812-246-4451","<MISSING>","38.372578","-85.757637","<MISSING>","https://www.wyndhamhotels.com/en-uk/travelodge/sellersburg-indiana/travelodge-sellersburg/overview"
"https://www.wyndhamhotels.com/en-ca/travelodge","Travelodge by Wyndham Seymour","306 South Commerce Drive ","Seymour","IN","47274","US","<MISSING>","+1-812-519-2578","<MISSING>","38.95771","-85.838632","<MISSING>","https://www.wyndhamhotels.com/en-uk/travelodge/seymour-indiana/travelodge-seymour/overview"
"https://www.wyndhamhotels.com/en-ca/travelodge","Travelodge by Wyndham Terre Haute","530 South 3rd Street ","Terre Haute","IN","47807","US","<MISSING>","+1-812-872-5275","<MISSING>","39.461038","-87.413646","<MISSING>","https://www.wyndhamhotels.com/en-uk/travelodge/terre-haute-indiana/days-inn-and-suites-huntsville-al/overview"
"https://www.wyndhamhotels.com/en-ca/travelodge","Travelodge by Wyndham Denison","502 Boyer Valley Rd ","Denison","IA","51442","US","<MISSING>","+1-712-314-2574","<MISSING>","42.009391","-95.368105","<MISSING>","https://www.wyndhamhotels.com/en-uk/travelodge/denison-iowa/travelodge-denison/overview"
"https://www.wyndhamhotels.com/en-ca/travelodge","Travelodge by Wyndham Iowa City","2216 North Dodge Street ","Iowa City","IA","52245","US","<MISSING>","+1-319-499-5992","<MISSING>","41.684563","-91.503952","<MISSING>","https://www.wyndhamhotels.com/en-uk/travelodge/iowa-city-iowa/iowa-city-travelodge/overview"
"https://www.wyndhamhotels.com/en-ca/travelodge","Travelodge by Wyndham Missouri Valley","128 Willow Rd ","Missouri Valley","IA","51555","US","<MISSING>","+1-712-215-6212","<MISSING>","41.5524","-95.9107","<MISSING>","https://www.wyndhamhotels.com/en-uk/travelodge/missouri-valley-iowa/travelodge-missouri-valley/overview"
"https://www.wyndhamhotels.com/en-ca/travelodge","Travelodge Inn & Suites by Wyndham Muscatine","2402 Park Avenue ","Muscatine","IA","52761","US","<MISSING>","+1-563-260-0589","<MISSING>","41.449402","-91.031944","<MISSING>","https://www.wyndhamhotels.com/en-uk/travelodge/muscatine-iowa/travelodge-muscatine/overview"
"https://www.wyndhamhotels.com/en-ca/travelodge","Travelodge by Wyndham Fort Scott","2505 US-69 ","Fort Scott","KS","66701","US","<MISSING>","+1-620-955-4283","<MISSING>","37.80773","-94.70358","<MISSING>","https://www.wyndhamhotels.com/en-uk/travelodge/fort-scott-kansas/travelodge-fort-scott/overview"
"https://www.wyndhamhotels.com/en-ca/travelodge","Travelodge by Wyndham Great Bend","3200 10th Street ","Great Bend","KS","67530","US","<MISSING>","+1-620-603-0963","<MISSING>","38.361937","-98.782394","<MISSING>","https://www.wyndhamhotels.com/en-uk/travelodge/great-bend-kansas/great-bend-travelodge/overview"
"https://www.wyndhamhotels.com/en-ca/travelodge","Travelodge by Wyndham Marysville","1127 Pony Express Hwy ","Marysville","KS","66508","US","<MISSING>","+1-785-859-4899","<MISSING>","39.84089","-96.61444","<MISSING>","https://www.wyndhamhotels.com/en-uk/travelodge/marysville-kansas/travelodge-marysville/overview"
"https://www.wyndhamhotels.com/en-ca/travelodge","Travelodge by Wyndham Sharon Springs","109 east Commerce Street ","Sharon Springs","KS","67758","US","<MISSING>","+1-785-258-6112","<MISSING>","38.893929","-101.751747","<MISSING>","https://www.wyndhamhotels.com/en-uk/travelodge/sharon-springs-kansas/travelodge-sharon-springs/overview"
"https://www.wyndhamhotels.com/en-ca/travelodge","Travelodge by Wyndham Wellington KS","1130A E 16th St ","Wellington","KS","67152","US","<MISSING>","+1-620-359-1642","<MISSING>","37.27438","-97.38412","<MISSING>","https://www.wyndhamhotels.com/en-uk/travelodge/wellington-kansas/travelodge-wellington-ks/overview"
"https://www.wyndhamhotels.com/en-ca/travelodge","Travelodge by Wyndham New Orleans West Harvey Hotel","2200 Westbank Expressway ","Harvey","LA","70058","US","<MISSING>","+1-504-521-7602","<MISSING>","29.899809","-90.072231","<MISSING>","https://www.wyndhamhotels.com/en-uk/travelodge/harvey-louisiana/travelodge-new-orleans-west-harvey-hotel/overview"
"https://www.wyndhamhotels.com/en-ca/travelodge","Travelodge by Wyndham Livonia","8233 Airline Highway ","Livonia","LA","70755","US","<MISSING>","+1-225-341-5721","<MISSING>","30.554634","-91.551245","<MISSING>","https://www.wyndhamhotels.com/en-uk/travelodge/livonia-louisiana/travelodge-livonia/overview"
"https://www.wyndhamhotels.com/en-ca/travelodge","Travelodge by Wyndham, Shreveport LA","2134 Greenwood Road ","Shreveport","LA","71103","US","<MISSING>","+1-318-425-7467","<MISSING>","32.486038","-93.771803","<MISSING>","https://www.wyndhamhotels.com/en-uk/travelodge/shreveport-louisiana/travelodge-shreveport-la/overview"
"https://www.wyndhamhotels.com/en-ca/travelodge","Travelodge by Wyndham Bangor","482 Odlin Rd ","Bangor","ME","04401","US","<MISSING>","+1-207-942-6301","<MISSING>","44.7846","-68.814735","<MISSING>","https://www.wyndhamhotels.com/en-uk/travelodge/bangor-maine/travelodge-bangor/overview"
"https://www.wyndhamhotels.com/en-ca/travelodge","Travelodge by Wyndham Aberdeen","820 West Bel Air Avenue ","Aberdeen","MD","21001","US","<MISSING>","+1-410-272-5500","<MISSING>","39.52343","-76.189949","<MISSING>","https://www.wyndhamhotels.com/en-uk/travelodge/aberdeen-maryland/travelodge-hotel-aberdeen/overview"
"https://www.wyndhamhotels.com/en-ca/travelodge","Travelodge by Wyndham Brunswick near Frederick","620 Souder Road ","Brunswick","MD","21712","US","<MISSING>","+1-240-367-9472","<MISSING>","39.31888","-77.61512","<MISSING>","https://www.wyndhamhotels.com/en-uk/travelodge/brunswick-maryland/travelodge-brunswick-near-frederick/overview"
"https://www.wyndhamhotels.com/en-ca/travelodge","Travelodge by Wyndham Hagerstown","11321 Massey Blvd ","Hagerstown","MD","21740","US","<MISSING>","+1-301-517-7977","<MISSING>","39.62609","-77.766312","<MISSING>","https://www.wyndhamhotels.com/en-uk/travelodge/hagerstown-maryland/travelodge-hagerstown/overview"
"https://www.wyndhamhotels.com/en-ca/travelodge","Travelodge by Wyndham Laurel","3380 Fort Meade Rd ","Laurel","MD","20724-2002","US","<MISSING>","+1-301-498-5553","<MISSING>","39.09911","-76.80642","<MISSING>","https://www.wyndhamhotels.com/en-uk/travelodge/laurel-maryland/travelodge-laurel/overview"
"https://www.wyndhamhotels.com/en-ca/travelodge","Travelodge by Wyndham Silver Spring","8040 13th Street ","Silver Spring","MD","20910","US","<MISSING>","+1-301-244-8907","<MISSING>","38.98737","-77.028264","<MISSING>","https://www.wyndhamhotels.com/en-uk/travelodge/silver-spring-maryland/travelodge-silver-spring/overview"
"https://www.wyndhamhotels.com/en-ca/travelodge","Travelodge by Wyndham Great Barrington Berkshires","400 Stockbridge Road ","Great Barrington","MA","01230","US","<MISSING>","+1-413-528-2340","<MISSING>","42.212292","-73.344688","<MISSING>","https://www.wyndhamhotels.com/en-uk/travelodge/great-barrington-massachusetts/travelodge-great-barrington-berkshires/overview"
"https://www.wyndhamhotels.com/en-ca/travelodge","Travelodge by Wyndham Cape Cod Area","99 Main Street ","West Dennis","MA","02670","US","<MISSING>","+1-508-394-8870","<MISSING>","41.664259","-70.176998","<MISSING>","https://www.wyndhamhotels.com/en-uk/travelodge/west-dennis-massachusetts/travelodge-cape-cod-area/overview"
"https://www.wyndhamhotels.com/en-ca/travelodge","Travelodge by Wyndham Adrian","1575 West Maumee Street ","Adrian","MI","49221","US","<MISSING>","+1-517-366-2825","<MISSING>","41.905505","-84.070752","<MISSING>","https://www.wyndhamhotels.com/en-uk/travelodge/adrian-michigan/travelodge-adrian/overview"
"https://www.wyndhamhotels.com/en-ca/travelodge","Travelodge by Wyndham Battle Creek","5395 Beckley Rd ","Battle Creek","MI","49015","US","<MISSING>","+1-269-979-1828","<MISSING>","42.261178","-85.191381","<MISSING>","https://www.wyndhamhotels.com/en-uk/travelodge/battle-creek-michigan/travelodge-battle-creek/overview"
"https://www.wyndhamhotels.com/en-ca/travelodge","Travelodge by Wyndham Benton Harbor MI","2063 Pipestone Rd ","Benton Harbor","MI","49022","US","<MISSING>","+1-269-605-0033","<MISSING>","42.082833","-86.416801","<MISSING>","https://www.wyndhamhotels.com/en-uk/travelodge/benton-harbor-michigan/travelodge-benton-harbor-mi/overview"
"https://www.wyndhamhotels.com/en-ca/travelodge","Travelodge by Wyndham Escanaba","921 N Lincoln Rd ","Escanaba","MI","49829","US","<MISSING>","+1-906-789-1066","<MISSING>","45.756489","-87.077084","<MISSING>","https://www.wyndhamhotels.com/en-uk/travelodge/escanaba-michigan/travelodge-escanaba/overview"
"https://www.wyndhamhotels.com/en-ca/travelodge","Travelodge by Wyndham Grand Rapids North","777 Three Mile Rd ","Grand Rapids","MI","49544","US","<MISSING>","+1-616-748-2900","<MISSING>","43.014186","-85.688118","<MISSING>","https://www.wyndhamhotels.com/en-uk/travelodge/grand-rapids-michigan/travelodge-grand-rapids-north/overview"
"https://www.wyndhamhotels.com/en-ca/travelodge","Travelodge by Wyndham Hudsonville","3005 Corporate Grove Drive 2","Hudsonville","MI","49426","US","<MISSING>","+1-616-896-6710","<MISSING>","42.846836","-85.859367","<MISSING>","https://www.wyndhamhotels.com/en-uk/travelodge/hudsonville-michigan/travelodge-hudsonville/overview"
"https://www.wyndhamhotels.com/en-ca/travelodge","Travelodge by Wyndham Jackson","901 Rosehill Drive ","Jackson","MI","49202","US","<MISSING>","+1-517-787-1111","<MISSING>","42.276197","-84.386521","<MISSING>","https://www.wyndhamhotels.com/en-uk/travelodge/jackson-michigan/jackson-travelodge/overview"
"https://www.wyndhamhotels.com/en-ca/travelodge","Travelodge by Wyndham Lansing","7326 W Saginaw Hwy ","Lansing","MI","48917","US","<MISSING>","+1-517-889-1338","<MISSING>","42.741041","-84.658255","<MISSING>","https://www.wyndhamhotels.com/en-uk/travelodge/lansing-michigan/travelodge-lansing/overview"
"https://www.wyndhamhotels.com/en-ca/travelodge","Travelodge by Wyndham Muskegon","3380 Hoyt Street ","Muskegon","MI","49444","US","<MISSING>","+1-231-733-0088","<MISSING>","43.191034","-86.240562","<MISSING>","https://www.wyndhamhotels.com/en-uk/travelodge/muskegon-michigan/travelodge-muskegon/overview"
"https://www.wyndhamhotels.com/en-ca/travelodge","Travelodge by Wyndham Romulus Detroit Airport","9095 Wickham Rd ","Romulus","MI","48174-1904","US","<MISSING>","+1-734-589-0508","<MISSING>","42.238787","-83.347285","<MISSING>","https://www.wyndhamhotels.com/en-uk/travelodge/romulus-michigan/travelodge-romulus-detroit-airport/overview"
"https://www.wyndhamhotels.com/en-ca/travelodge","Travelodge by Wyndham Sturgis","1301 South Centerville Road ","Sturgis","MI","49091","US","<MISSING>","+1-269-503-8484","<MISSING>","41.800251","-85.418694","<MISSING>","https://www.wyndhamhotels.com/en-uk/travelodge/sturgis-michigan/travelodge-sturgis/overview"
"https://www.wyndhamhotels.com/en-ca/travelodge","Travelodge by Wyndham Traverse City MI","704 Munson Ave ","Traverse City","MI","49686","US","<MISSING>","+1-231-922-9111","<MISSING>","44.755096","-85.575798","<MISSING>","https://www.wyndhamhotels.com/en-uk/travelodge/traverse-city-michigan/traverse-city-mi-travelodge/overview"
"https://www.wyndhamhotels.com/en-ca/travelodge","Travelodge by Wyndham Brooklyn Center","6415 James Cir N ","Brooklyn Center","MN","55430","US","<MISSING>","+1-763-561-8400","<MISSING>","45.07157","-93.30561","<MISSING>","https://www.wyndhamhotels.com/en-uk/travelodge/brooklyn-center-minnesota/travelodge-brooklyn-center/overview"
"https://www.wyndhamhotels.com/en-ca/travelodge","Travelodge & Suites by Wyndham Fargo/Moorhead","3027 South Frontage Road ","Moorhead","MN","56560","US","<MISSING>","+1-218-233-5333","<MISSING>","46.875034","-96.732399","<MISSING>","https://www.wyndhamhotels.com/en-uk/travelodge/moorhead-minnesota/travelodge-and-suites-fargo-moorhead/overview"
"https://www.wyndhamhotels.com/en-ca/travelodge","Travelodge by Wyndham Redwood Falls","1305 E. Bridge St. ","Redwood Falls","MN","56283","US","<MISSING>","+1-507-637-3456","<MISSING>","44.54136","-95.11865","<MISSING>","https://www.wyndhamhotels.com/en-uk/travelodge/redwood-falls-minnesota/travelodge-redwood-falls/overview"
"https://www.wyndhamhotels.com/en-ca/travelodge","Travelodge by Wyndham Motel of St Cloud","3820 Roosevelt Road ","Saint Cloud","MN","56301","US","<MISSING>","+1-320-253-3338","<MISSING>","45.504373","-94.154389","<MISSING>","https://www.wyndhamhotels.com/en-uk/travelodge/saint-cloud-minnesota/travelodge-motel-of-st-cloud/overview"
"https://www.wyndhamhotels.com/en-ca/travelodge","Travelodge by Wyndham Valleyfair Shakopee","1251 East First Ave ","Shakopee","MN","55379","US","<MISSING>","+1-952-466-6572","<MISSING>","44.801521","-93.509254","<MISSING>","https://www.wyndhamhotels.com/en-uk/travelodge/shakopee-minnesota/travelodge-valleyfair-shakopee/overview"
"https://www.wyndhamhotels.com/en-ca/travelodge","Travelodge by Wyndham Ocean Springs","500 Bienville Blvd ","Ocean Springs","MS","39564","US","<MISSING>","+1-228-215-1144","<MISSING>","30.415056","-88.83419","<MISSING>","https://www.wyndhamhotels.com/en-uk/travelodge/ocean-springs-mississippi/travelodge-ocean-springs/overview"
"https://www.wyndhamhotels.com/en-ca/travelodge","Travelodge by Wyndham St. Louis","9645 Natural Bridge Road I-70 & Natural Bridge Rd","Berkeley","MO","63134","US","<MISSING>","+1-314-656-8558","<MISSING>","38.728889","-90.343369","<MISSING>","https://www.wyndhamhotels.com/en-uk/travelodge/berkeley-missouri/st-louis-travelodge/overview"
"https://www.wyndhamhotels.com/en-ca/travelodge","Travelodge by Wyndham Jefferson City","1710 Jefferson Street ","Jefferson City","MO","65109","US","<MISSING>","+1-573-415-0241","<MISSING>","38.55707","-92.19484","<MISSING>","https://www.wyndhamhotels.com/en-uk/travelodge/jefferson-city-missouri/travelodge-jefferson-city/overview"
"https://www.wyndhamhotels.com/en-ca/travelodge","Travelodge by Wyndham Airport Platte City","504 Prairie View Rd ","Platte City","MO","64079","US","<MISSING>","+1-816-858-4588","<MISSING>","39.373047","-94.77575","<MISSING>","https://www.wyndhamhotels.com/en-uk/travelodge/platte-city-missouri/travelodge-airport-platte-city/overview"
"https://www.wyndhamhotels.com/en-ca/travelodge","Timbers Motel Travelodge by Wyndham Bigfork","8540 Hwy 35 South ","Bigfork","MT","59911","US","<MISSING>","+1-406-414-6095","<MISSING>","48.057769","-114.076782","<MISSING>","https://www.wyndhamhotels.com/en-uk/travelodge/bigfork-montana/timbers-motel-travelodge-bigfork/overview"
"https://www.wyndhamhotels.com/en-ca/travelodge","Western Heritage Inn Travelodge by Wyndham Bozeman","1200 E Main St ","Bozeman","MT","59715","US","<MISSING>","+1-406-404-8960","<MISSING>","45.67856","-111.0202","<MISSING>","https://www.wyndhamhotels.com/en-uk/travelodge/bozeman-montana/travelodge-bozeman/overview"
"https://www.wyndhamhotels.com/en-ca/travelodge","Travelodge by Wyndham Deer Lodge Montana","1150 North Main St ","Deer Lodge","MT","59722","US","<MISSING>","+1-406-545-2858","<MISSING>","46.411449","-112.727987","<MISSING>","https://www.wyndhamhotels.com/en-uk/travelodge/deer-lodge-montana/travelodge-deer-lodge-montana/overview"
"https://www.wyndhamhotels.com/en-ca/travelodge","Travelodge by Wyndham Gardiner Yellowstone Park North","109 Hellroaring St ","Gardiner","MT","59030","US","<MISSING>","+1-406-545-5779","<MISSING>","45.037451","-110.715747","<MISSING>","https://www.wyndhamhotels.com/en-uk/travelodge/gardiner-montana/travelodge-gardiner-at-yellowstone-park-north-/overview"
"https://www.wyndhamhotels.com/en-ca/travelodge","Travelodge by Wyndham Great Falls","220 Central Ave ","Great Falls","MT","59401","US","<MISSING>","+1-406-761-3410","<MISSING>","47.505341","-111.303116","<MISSING>","https://www.wyndhamhotels.com/en-uk/travelodge/great-falls-montana/travelodge-by-wyndham-great-falls/overview"
"https://www.wyndhamhotels.com/en-ca/travelodge","Travelodge by Wyndham Kalispell","350 North Main Street ","Kalispell","MT","59901","US","<MISSING>","+1-406-755-6123","<MISSING>","48.203644","-114.316833","<MISSING>","https://www.wyndhamhotels.com/en-uk/travelodge/kalispell-montana/travelodge-kalispell/overview"
"https://www.wyndhamhotels.com/en-ca/travelodge","Travelodge by Wyndham Livingston","102 Rogers Lane ","Livingston","MT","59047","US","<MISSING>","+1-406-333-0086","<MISSING>","45.646999","-110.574425","<MISSING>","https://www.wyndhamhotels.com/en-uk/travelodge/livingston-montana/travelodge-livingston/overview"
"https://www.wyndhamhotels.com/en-ca/travelodge","Travelodge by Wyndham Three Forks","10776 US Highway 287 ","Three Forks","MT","59752-9518","US","<MISSING>","+1-406-285-3233","<MISSING>","45.920575","-111.597379","<MISSING>","https://www.wyndhamhotels.com/en-uk/travelodge/three-forks-montana/travelodge-three-forks/overview"
"https://www.wyndhamhotels.com/en-ca/travelodge","Travelodge by Wyndham Chadron","755 Microtel Dr. ","Chadron","NE","69337","US","<MISSING>","+1-308-646-3838","<MISSING>","42.824514","-103.016899","<MISSING>","https://www.wyndhamhotels.com/en-uk/travelodge/chadron-nebraska/travelodge-chadron/overview"
"https://www.wyndhamhotels.com/en-ca/travelodge","Travelodge by Wyndham Grand Island","1311 South Locust ","Grand Island","NE","68801","US","<MISSING>","+1-308-382-5003","<MISSING>","40.908178","-98.339615","<MISSING>","https://www.wyndhamhotels.com/en-uk/travelodge/grand-island-nebraska/grand-island-travelodge/overview"
"https://www.wyndhamhotels.com/en-ca/travelodge","Travelodge by Wyndham Lincoln","1101 West Bond Street ","Lincoln","NE","68521","US","<MISSING>","+1-402-475-4971","<MISSING>","40.843857","-96.737465","<MISSING>","https://www.wyndhamhotels.com/en-uk/travelodge/lincoln-nebraska/travelodge-lincoln/overview"
"https://www.wyndhamhotels.com/en-ca/travelodge","Travelodge by Wyndham Morrill","707 E Webster St ","Morrill","NE","69358","US","<MISSING>","+1-308-217-4327","<MISSING>","41.963553","-103.91769","<MISSING>","https://www.wyndhamhotels.com/en-uk/travelodge/morrill-nebraska/travelodge-morrill/overview"
"https://www.wyndhamhotels.com/en-ca/travelodge","Travelodge by Wyndham Ogallala","201 Stagecoach Trail ","Ogallala","NE","69153-3110","US","<MISSING>","+1-308-225-4777","<MISSING>","41.1173","-101.71181","<MISSING>","https://www.wyndhamhotels.com/en-uk/travelodge/ogallala-nebraska/travelodge-ogallala/overview"
"https://www.wyndhamhotels.com/en-ca/travelodge","Travelodge by Wyndham Elko NV","1785 Idaho Street ","Elko","NV","89801","US","<MISSING>","+1-775-299-3582","<MISSING>","40.844181","-115.75132","<MISSING>","https://www.wyndhamhotels.com/en-uk/travelodge/elko-nevada/elko-nv-travelodge/overview"
"https://www.wyndhamhotels.com/en-ca/travelodge","Travelodge by Wyndham Hawthorne","540 F St. ","Hawthorne","NV","89415","US","<MISSING>","+1-775-945-3321","<MISSING>","38.52524","-118.6231","<MISSING>","https://www.wyndhamhotels.com/en-uk/travelodge/hawthorne-nevada/travelodge-hawthorne/overview"
"https://www.wyndhamhotels.com/en-ca/travelodge","Travelodge by Wyndham Las Vegas","2830 Las Vegas Blvd South ","Las Vegas","NV","89109","US","<MISSING>","+1-702-735-4222","<MISSING>","36.137177","-115.162232","<MISSING>","https://www.wyndhamhotels.com/en-uk/travelodge/las-vegas-nevada/travelodge-las-vegas/overview"
"https://www.wyndhamhotels.com/en-ca/travelodge","Travelodge by Wyndham Las Vegas Airport No/Near The Strip","5075 Koval Lane ","Las Vegas","NV","89119","US","<MISSING>","+1-702-736-3600","<MISSING>","36.098274","-115.164474","<MISSING>","https://www.wyndhamhotels.com/en-uk/travelodge/las-vegas-nevada/travelodge-ambassador-strip-inn-las-vegas/overview"
"https://www.wyndhamhotels.com/en-ca/travelodge","Travelodge by Wyndham Las Vegas Center Strip","3735 Las Vegas Boulevard South ","Las Vegas","NV","89109","US","<MISSING>","+1-702-625-8598","<MISSING>","36.107327","-115.170998","<MISSING>","https://www.wyndhamhotels.com/en-uk/travelodge/las-vegas-nevada/travelodge-las-vegas-center-strip/overview"
"https://www.wyndhamhotels.com/en-ca/travelodge","Travelodge by Wyndham Reno Downtown","636 North Virginia St. ","Reno","NV","89501","US","<MISSING>","+1-775-501-9668","<MISSING>","39.533025","-119.815172","<MISSING>","https://www.wyndhamhotels.com/en-uk/travelodge/reno-nevada/travelodge-reno-downtown/overview"
"https://www.wyndhamhotels.com/en-ca/travelodge","Travelodge by Wyndham Absecon Atlantic City","539 East Absecon Blvd ","Absecon","NJ","08201","US","<MISSING>","+1-609-910-0380","<MISSING>","39.40366","-74.494446","<MISSING>","https://www.wyndhamhotels.com/en-uk/travelodge/absecon-new-jersey/travelodge-absecon-atlantic-city/overview"
"https://www.wyndhamhotels.com/en-ca/travelodge","Travelodge by Wyndham Avenel Woodbridge","969 US 1 ","Avenel","NJ","07001","US","<MISSING>","+1-732-734-6066","<MISSING>","40.578857","-74.286674","<MISSING>","https://www.wyndhamhotels.com/en-uk/travelodge/avenel-new-jersey/travelodge-avenel-woodbridge/overview"
"https://www.wyndhamhotels.com/en-ca/travelodge","Travelodge by Wyndham Atlantic City","316 East White Horse Pike ","Galloway","NJ","08205","US","<MISSING>","+1-609-652-0904","<MISSING>","39.442598","-74.5236","<MISSING>","https://www.wyndhamhotels.com/en-uk/travelodge/galloway-new-jersey/travelodge-atlantic-city/overview"
"https://www.wyndhamhotels.com/en-ca/travelodge","Travelodge by Wyndham Jersey City","881 Tonnele Ave ","Jersey City","NJ","07307-3938","US","<MISSING>","+1-201-963-3361","<MISSING>","40.759565","-74.051619","<MISSING>","https://www.wyndhamhotels.com/en-uk/travelodge/jersey-city-new-jersey/travelodge-jersey-city/overview"
"https://www.wyndhamhotels.com/en-ca/travelodge","Travelodge by Wyndham Parsippany","625 Rt 46 East ","Parsippany","NJ","07054","US","<MISSING>","+1-973-567-3708","<MISSING>","40.860916","-74.370789","<MISSING>","https://www.wyndhamhotels.com/en-uk/travelodge/parsippany-new-jersey/travelodge-parsippany/overview"
"https://www.wyndhamhotels.com/en-ca/travelodge","Travelodge by Wyndham South Hackensack","636 Huyler Street ","South Hackensack","NJ","07606-1716","US","<MISSING>","+1-201-440-1690","<MISSING>","40.858173","-74.050339","<MISSING>","https://www.wyndhamhotels.com/en-uk/travelodge/south-hackensack-new-jersey/travelodge-south-hackensack/overview"
"https://www.wyndhamhotels.com/en-ca/travelodge","Travelodge by Wyndham Albuquerque East","601 Paisano St NE ","Albuquerque","NM","87123","US","<MISSING>","+1-505-273-3042","<MISSING>","35.078163","-106.514352","<MISSING>","https://www.wyndhamhotels.com/en-uk/travelodge/albuquerque-new-mexico/travelodge-by-wyndham-albuquerque-east/overview"
"https://www.wyndhamhotels.com/en-ca/travelodge","Travelodge by Wyndham Albuquerque West","6012 Iliff Rd NW 1521 Coors Blvd NW alternate","Albuquerque","NM","87121","US","<MISSING>","+1-505-836-3881","<MISSING>","35.191608","-106.654366","<MISSING>","https://www.wyndhamhotels.com/en-uk/travelodge/albuquerque-new-mexico/travelodge-albuquerque-west/overview"
"https://www.wyndhamhotels.com/en-ca/travelodge","Travelodge by Wyndham Belen","2111 Camino Del Llano ","Belen","NM","87002","US","<MISSING>","+1-307-222-0039","<MISSING>","34.65189","-106.7982","<MISSING>","https://www.wyndhamhotels.com/en-uk/travelodge/belen-new-mexico/travelodge-belen/overview"
"https://www.wyndhamhotels.com/en-ca/travelodge","Travelodge by Wyndham Clovis","1720 Mabry Drive ","Clovis","NM","88101","US","<MISSING>","+1-575-265-0317","<MISSING>","34.397095","-103.182716","<MISSING>","https://www.wyndhamhotels.com/en-uk/travelodge/clovis-new-mexico/travelodge-clovis/overview"
"https://www.wyndhamhotels.com/en-ca/travelodge","Travelodge by Wyndham Farmington","652 E Main St ","Farmington","NM","87401","US","<MISSING>","+1-505-675-0852","<MISSING>","36.732528","-108.194966","<MISSING>","https://www.wyndhamhotels.com/en-uk/travelodge/farmington-new-mexico/travelodge-by-wyndham-farmington/overview"
"https://www.wyndhamhotels.com/en-ca/travelodge","Travelodge by Wyndham Gallup","3275 West Highway 66 Historic ","Gallup","NM","87301","US","<MISSING>","+1-505-722-2100","<MISSING>","35.506609","-108.825165","<MISSING>","https://www.wyndhamhotels.com/en-uk/travelodge/gallup-new-mexico/gallup-travelodge/overview"
"https://www.wyndhamhotels.com/en-ca/travelodge","Travelodge by Wyndham Raton","1600 Cedar St ","Raton","NM","87740","US","<MISSING>","+1-575-445-9557","<MISSING>","36.89583","-104.429999","<MISSING>","https://www.wyndhamhotels.com/en-uk/travelodge/raton-new-mexico/travelodge-raton/overview"
"https://www.wyndhamhotels.com/en-ca/travelodge","Travelodge by Wyndham Ruidoso","159 West Highway 70 ","Ruidoso","NM","88345","US","<MISSING>","+1-575-224-2999","<MISSING>","33.3223","-105.62759","<MISSING>","https://www.wyndhamhotels.com/en-uk/travelodge/ruidoso-new-mexico/travelodge-ruidoso/overview"
"https://www.wyndhamhotels.com/en-ca/travelodge","Travelodge by Wyndham Santa Rosa","2533 Historic Route 66 ","Santa Rosa","NM","88435","US","<MISSING>","+1-575-219-4731","<MISSING>","34.94867","-104.64634","<MISSING>","https://www.wyndhamhotels.com/en-uk/travelodge/santa-rosa-new-mexico/travelodge-by-wyndham-santa-rosa/overview"
"https://www.wyndhamhotels.com/en-ca/travelodge","Travelodge by Wyndham Santa Teresa","2680 Airport Rd ","Santa Teresa","NM","88008","US","<MISSING>","+1-575-236-4077","<MISSING>","31.865193","-106.692908","<MISSING>","https://www.wyndhamhotels.com/en-uk/travelodge/santa-teresa-new-mexico/travelodge-santa-teresa/overview"
"https://www.wyndhamhotels.com/en-ca/travelodge","Travelodge by Wyndham Truth or Consequences","2270 N Date St ","Truth or Consequences","NM","87901-3705","US","<MISSING>","+1-575-894-6665","<MISSING>","33.155758","-107.249845","<MISSING>","https://www.wyndhamhotels.com/en-uk/travelodge/truth-or-consequences-new-mexico/travelodge-truth-or-consequences/overview"
"https://www.wyndhamhotels.com/en-ca/travelodge","Travelodge by Wyndham Vaughn","1005 Highway 285 ","Vaughn","NM","88353","US","<MISSING>","+1-575-415-3766","<MISSING>","34.597564","-105.193183","<MISSING>","https://www.wyndhamhotels.com/en-uk/travelodge/vaughn-new-mexico/travelodge-vaughn/overview"
"https://www.wyndhamhotels.com/en-ca/travelodge","Travelodge Inn & Suites by Wyndham Albany","42 Wolf Road ","Albany","NY","12205","US","<MISSING>","+1-518-650-1740","<MISSING>","42.713242","-73.818413","<MISSING>","https://www.wyndhamhotels.com/en-uk/travelodge/albany-new-york/travelodge-inn-and-suites-albany/overview"
"https://www.wyndhamhotels.com/en-ca/travelodge","Travelodge by Wyndham Bay Shore Long Island","501 East Main St ","Bay Shore","NY","11706-8505","US","<MISSING>","+1-631-894-4670","<MISSING>","40.728149","-73.231796","<MISSING>","https://www.wyndhamhotels.com/en-uk/travelodge/bay-shore-new-york/travelodge-bay-shore-long-island/overview"
"https://www.wyndhamhotels.com/en-ca/travelodge","Travelodge by Wyndham Lake George NY","2011 State Route 9 ","Lake George","NY","12845","US","<MISSING>","+1-518-668-5421","<MISSING>","43.403605","-73.707941","<MISSING>","https://www.wyndhamhotels.com/en-uk/travelodge/lake-george-new-york/lake-george-ny-travelodge/overview"
"https://www.wyndhamhotels.com/en-ca/travelodge","Travelodge by Wyndham Little Falls","20 Albany Street ","Little Falls","NY","13365","US","<MISSING>","+1-315-823-4954","<MISSING>","43.042525","-74.859916","<MISSING>","https://www.wyndhamhotels.com/en-uk/travelodge/little-falls-new-york/travelodge-little-falls/overview"
"https://www.wyndhamhotels.com/en-ca/travelodge","Travelodge by Wyndham Manhasset","1177 Northern Boulevard ","Manhasset","NY","11030-3017","US","<MISSING>","+1-516-708-4952","<MISSING>","40.791625","-73.702423","<MISSING>","https://www.wyndhamhotels.com/en-uk/travelodge/manhasset-new-york/travelodge-manhasset/overview"
"https://www.wyndhamhotels.com/en-ca/travelodge","Travelodge by Wyndham Niagara Falls","9401 Niagara Falls Blvd ","Niagara Falls","NY","14304","US","<MISSING>","+1-716-297-2660","<MISSING>","43.093922","-78.956093","<MISSING>","https://www.wyndhamhotels.com/en-uk/travelodge/niagara-falls-new-york/travelodge-niagara-falls/overview"
"https://www.wyndhamhotels.com/en-ca/travelodge","Travelodge by Wyndham Ozone Park","137-30 Redding St. ","Ozone Park","NY","11417","US","<MISSING>","+1-718-659-7777","<MISSING>","40.671872","-73.844253","<MISSING>","https://www.wyndhamhotels.com/en-uk/travelodge/ozone-park-new-york/travelodge-ozone-park/overview"
"https://www.wyndhamhotels.com/en-ca/travelodge","Travelodge by Wyndham Watertown","1190 Arsenal St ","Watertown","NY","13601","US","<MISSING>","+1-315-523-7578","<MISSING>","43.97686","-75.94181","<MISSING>","https://www.wyndhamhotels.com/en-uk/travelodge/watertown-new-york/travelodge-watertown/overview"
"https://www.wyndhamhotels.com/en-ca/travelodge","Travelodge by Wyndham Fayetteville","2076 Cedar Creek Rd ","Fayetteville","NC","28312","US","<MISSING>","+1-910-900-1250","<MISSING>","35.006533","-78.816843","<MISSING>","https://www.wyndhamhotels.com/en-uk/travelodge/fayetteville-north-carolina/travelodge-by-wyndham-fayetteville/overview"
"https://www.wyndhamhotels.com/en-ca/travelodge","Travelodge by Wyndham Henderson","197 Parham Rd ","Henderson","NC","27536-2740","US","<MISSING>","+1-252-572-1187","<MISSING>","36.346498","-78.393319","<MISSING>","https://www.wyndhamhotels.com/en-uk/travelodge/henderson-north-carolina/travelodge-henderson/overview"
"https://www.wyndhamhotels.com/en-ca/travelodge","Travelodge by Wyndham Outer Banks/Kill Devil Hills","804 North Virginia Dare Trail NC 12","Kill Devil Hills","NC","27948","US","<MISSING>","+1-252-441-0411","<MISSING>","36.019238","-75.661186","<MISSING>","https://www.wyndhamhotels.com/en-uk/travelodge/kill-devil-hills-north-carolina/travelodge-outer-banks-kill-devil-hills/overview"
"https://www.wyndhamhotels.com/en-ca/travelodge","Travelodge by Wyndham Wahpeton Event Center","995 21st Ave.N ","Wahpeton","ND","58075","US","<MISSING>","+1-701-484-0378","<MISSING>","46.28931","-96.615065","<MISSING>","https://www.wyndhamhotels.com/en-uk/travelodge/wahpeton-north-dakota/travelodge-by-wyndham-wahpeton-event-center/overview"
"https://www.wyndhamhotels.com/en-ca/travelodge","Travelodge  by Wyndham Columbus North","1100 Mediterranean Avenue ","Columbus","OH","43229","US","<MISSING>","+1-614-796-4632","<MISSING>","40.090887","-82.987983","<MISSING>","https://www.wyndhamhotels.com/en-uk/travelodge/columbus-ohio/travelodge-by-wyndham-columbus-north/overview"
"https://www.wyndhamhotels.com/en-ca/travelodge","Travelodge by Wyndham Grove City / So. Columbus","4029 Marlane Drive ","Grove City","OH","43123","US","<MISSING>","+1-614-594-3609","<MISSING>","39.880269","-83.050581","<MISSING>","https://www.wyndhamhotels.com/en-uk/travelodge/grove-city-ohio/travelodge-grove-city-so-columbus/overview"
"https://www.wyndhamhotels.com/en-ca/travelodge","Travelodge by Wyndham Hubbard OH","2375 North Main Street ","Hubbard","OH","44425","US","<MISSING>","+1-330-534-8191","<MISSING>","41.179349","-80.568204","<MISSING>","https://www.wyndhamhotels.com/en-uk/travelodge/hubbard-ohio/travelodge-hubbard-oh/overview"
"https://www.wyndhamhotels.com/en-ca/travelodge","Travelodge by Wyndham Cleveland Lakewood","11837 Edgewater Drive ","Lakewood","OH","44107","US","<MISSING>","+1-216-221-9000","<MISSING>","41.490158","-81.770943","<MISSING>","https://www.wyndhamhotels.com/en-uk/travelodge/lakewood-ohio/travelodge-cleveland-lakewood/overview"
"https://www.wyndhamhotels.com/en-ca/travelodge","Travelodge by Wyndham Lima OH","805 South Leonard Avenue ","Lima","OH","45804","US","<MISSING>","+1-419-549-5344","<MISSING>","40.729359","-84.078247","<MISSING>","https://www.wyndhamhotels.com/en-uk/travelodge/lima-ohio/travelodge-lima-oh/overview"
"https://www.wyndhamhotels.com/en-ca/travelodge","Travelodge by Wyndham Mansfield","90 West Hanley Road ","Mansfield","OH","44903","US","<MISSING>","+1-419-756-7600","<MISSING>","40.696835","-82.514824","<MISSING>","https://www.wyndhamhotels.com/en-uk/travelodge/mansfield-ohio/travelodge-mansfield/overview"
"https://www.wyndhamhotels.com/en-ca/travelodge","Travelodge by Wyndham New Philadelphia","1256 W High Ave Rear ","New Philadelphia","OH","44663","US","<MISSING>","+1-330-339-4116","<MISSING>","40.493363","-81.472897","<MISSING>","https://www.wyndhamhotels.com/en-uk/travelodge/new-philadelphia-ohio/travelodge-new-philadelphia/overview"
"https://www.wyndhamhotels.com/en-ca/travelodge","Travelodge by Wyndham Sunbury","7323 E State Route 37 ","Sunbury","OH","43074","US","<MISSING>","+1-740-524-9848","<MISSING>","40.2683","-82.92963","<MISSING>","https://www.wyndhamhotels.com/en-uk/travelodge/sunbury-ohio/travelodge-sunbury/overview"
"https://www.wyndhamhotels.com/en-ca/travelodge","Travelodge by Wyndham Zanesville","4645 East Pike ","Zanesville","OH","43701","US","<MISSING>","+1-740-331-4896","<MISSING>","39.96479","-81.90599","<MISSING>","https://www.wyndhamhotels.com/en-uk/travelodge/zanesville-ohio/travelodge-zanesville/overview"
"https://www.wyndhamhotels.com/en-ca/travelodge","Travelodge by Wyndham Guymon","620 E Highway 54 ","Guymon","OK","73942","US","<MISSING>","+1-580-338-8801","<MISSING>","36.68469","-101.47025","<MISSING>","https://www.wyndhamhotels.com/en-uk/travelodge/guymon-oklahoma/travelodge-guymon/overview"
"https://www.wyndhamhotels.com/en-ca/travelodge","Travelodge by Wyndham McAlester","2200 E South Ave ","McAlester","OK","74501","US","<MISSING>","+1-918-302-9312","<MISSING>","34.916204","-95.741617","<MISSING>","https://www.wyndhamhotels.com/en-uk/travelodge/mcalester-oklahoma/travelodge-mcalester/overview"
"https://www.wyndhamhotels.com/en-ca/travelodge","Travelodge by Wyndham Norman","225 North Interstate Dr ","Norman","OK","73069","US","<MISSING>","+1-405-329-7194","<MISSING>","35.220116","-97.483261","<MISSING>","https://www.wyndhamhotels.com/en-uk/travelodge/norman-oklahoma/norman-travelodge/overview"
"https://www.wyndhamhotels.com/en-ca/travelodge","Travelodge by Wyndham Tulsa","11525 East Skelly Dr ","Tulsa","OK","74128-2433","US","<MISSING>","+1-918-221-9048","<MISSING>","36.149075","-95.847771","<MISSING>","https://www.wyndhamhotels.com/en-uk/travelodge/tulsa-oklahoma/travelodge-tulsa/overview"
"https://www.wyndhamhotels.com/en-ca/travelodge","Travelodge by Wyndham Depoe Bay","50 Northeast Bechill Street ","Depoe Bay","OR","97341","US","<MISSING>","+1-541-937-5020","<MISSING>","44.814529","-124.062027","<MISSING>","https://www.wyndhamhotels.com/en-uk/travelodge/depoe-bay-oregon/travelodge-depoe-bay/overview"
"https://www.wyndhamhotels.com/en-ca/travelodge","Travelodge by Wyndham Eugene Downtown/University of Oregon","476 E Broadway ","Eugene","OR","97401-3339","US","<MISSING>","+1-541-505-5223","<MISSING>","44.049847","-123.085158","<MISSING>","https://www.wyndhamhotels.com/en-uk/travelodge/eugene-oregon/travelodge-eugene-downtown-university-of-oregon/overview"
"https://www.wyndhamhotels.com/en-ca/travelodge","Travelodge by Wyndham Grants Pass","1950 Northwest Vine Street ","Grants Pass","OR","97526","US","<MISSING>","+1-541-479-6611","<MISSING>","42.461304","-123.323677","<MISSING>","https://www.wyndhamhotels.com/en-uk/travelodge/grants-pass-oregon/grants-pass-travelodge/overview"
"https://www.wyndhamhotels.com/en-ca/travelodge","Travelodge by Wyndham Pioneer Villa","33180 Highway 228 ","Halsey","OR","97348","US","<MISSING>","+1-541-369-2804","<MISSING>","44.388721","-123.05769","<MISSING>","https://www.wyndhamhotels.com/en-uk/travelodge/halsey-oregon/travelodge-pioneer-villa/overview"
"https://www.wyndhamhotels.com/en-ca/travelodge","Travelodge by Wyndham Hermiston","1110 SE 4th St. ","Hermiston","OR","97838","US","<MISSING>","+1-541-371-5298","<MISSING>","45.83205","-119.28647","<MISSING>","https://www.wyndhamhotels.com/en-uk/travelodge/hermiston-oregon/travelodge-hermiston/overview"
"https://www.wyndhamhotels.com/en-ca/travelodge","Travelodge by Wyndham Klamath Falls","75 Main St ","Klamath Falls","OR","97601-3174","US","<MISSING>","+1-541-238-2469","<MISSING>","42.2211","-121.786949","<MISSING>","https://www.wyndhamhotels.com/en-uk/travelodge/klamath-falls-oregon/travelodge-klamath-falls/overview"
"https://www.wyndhamhotels.com/en-ca/travelodge","Travelodge by Wyndham La Grande","2215 Adams Avenue ","La Grande","OR","97850","US","<MISSING>","+1-541-963-7116","<MISSING>","45.319427","-118.079231","<MISSING>","https://www.wyndhamhotels.com/en-uk/travelodge/la-grande-oregon/la-grande-travelodge/overview"
"https://www.wyndhamhotels.com/en-ca/travelodge","Travelodge by Wyndham Lincoln City","1713 NW 21st St ","Lincoln City","OR","97367","US","<MISSING>","+1-541-994-5281","<MISSING>","44.97386","-124.01343","<MISSING>","https://www.wyndhamhotels.com/en-uk/travelodge/lincoln-city-oregon/travelodge-lincoln-city/overview"
"https://www.wyndhamhotels.com/en-ca/travelodge","Travelodge Suites by Wyndham Newberg","2816 Portland Road ","Newberg","OR","97132","US","<MISSING>","+1-503-537-5000","<MISSING>","45.304016","-122.951141","<MISSING>","https://www.wyndhamhotels.com/en-uk/travelodge/newberg-oregon/newberg-travelodge-suites/overview"
"https://www.wyndhamhotels.com/en-ca/travelodge","Travelodge by Wyndham Newport","1311 North Coast Highway ","Newport","OR","97365","US","<MISSING>","+1-541-265-8516","<MISSING>","44.646655","-124.053245","<MISSING>","https://www.wyndhamhotels.com/en-uk/travelodge/newport-oregon/travelodge-newport/overview"
"https://www.wyndhamhotels.com/en-ca/travelodge","Travelodge by Wyndham Pendleton OR","411 Southwest Dorion Avenue ","Pendleton","OR","97801","US","<MISSING>","+1-541-276-7531","<MISSING>","45.670559","-118.790941","<MISSING>","https://www.wyndhamhotels.com/en-uk/travelodge/pendleton-oregon/travelodge-pendleton-or/overview"
"https://www.wyndhamhotels.com/en-ca/travelodge","Travelodge by Wyndham East Portland/Gresham","23705 NE Sandy Blvd ","Troutdale","OR","97060","US","<MISSING>","+1-503-666-6623","<MISSING>","45.542953","-122.419356","<MISSING>","https://www.wyndhamhotels.com/en-uk/travelodge/troutdale-oregon/travelodge-east-portland-gresham/overview"
"https://www.wyndhamhotels.com/en-ca/travelodge","Travelodge by Wyndham Carlisle","1247 Harrisburg Pike ","Carlisle","PA","17013","US","<MISSING>","+1-717-243-2960","<MISSING>","40.234591","-77.134795","<MISSING>","https://www.wyndhamhotels.com/en-uk/travelodge/carlisle-pennsylvania/travelodge-carlisle/overview"
"https://www.wyndhamhotels.com/en-ca/travelodge","Travelodge by Wyndham Chambersburg","565 Lincoln Way East ","Chambersburg","PA","17201","US","<MISSING>","+1-717-264-4187","<MISSING>","39.934261","-77.649987","<MISSING>","https://www.wyndhamhotels.com/en-uk/travelodge/chambersburg-pennsylvania/chambersburg-travelodge/overview"
"https://www.wyndhamhotels.com/en-ca/travelodge","Travelodge by Wyndham Essington / Philadelphia Airport","43 Industrial Hwy ","Essington","PA","19029","US","<MISSING>","+1-610-227-6945","<MISSING>","39.86721","-75.30533","<MISSING>","https://www.wyndhamhotels.com/en-uk/travelodge/essington-pennsylvania/travelodge-essington-philadelphia-airport/overview"
"https://www.wyndhamhotels.com/en-ca/travelodge","Travelodge by Wyndham Hershey","1043 East Chocolate Avenue ","Hershey","PA","17033","US","<MISSING>","+1-717-312-8004","<MISSING>","40.295189","-76.625954","<MISSING>","https://www.wyndhamhotels.com/en-uk/travelodge/hershey-pennsylvania/travelodge-hershey/overview"
"https://www.wyndhamhotels.com/en-ca/travelodge","Travelodge by Wyndham Lancaster Amish Country","2101 Columbia Avenue ","Lancaster","PA","17603","US","<MISSING>","+1-717-397-4201","<MISSING>","40.039627","-76.360672","<MISSING>","https://www.wyndhamhotels.com/en-uk/travelodge/lancaster-pennsylvania/lancaster-amish-country-travelodge/overview"
"https://www.wyndhamhotels.com/en-ca/travelodge","Travelodge by Wyndham Florence","3783A West Palmetto Street ","Florence","SC","29502","US","<MISSING>","+1-843-536-1687","<MISSING>","34.156048","-79.869393","<MISSING>","https://www.wyndhamhotels.com/en-uk/travelodge/florence-south-carolina/travelodge-florence/overview"
"https://www.wyndhamhotels.com/en-ca/travelodge","Travelodge by Wyndham Hardeeville","18116 Whyte Hardee Blvd ","Hardeeville","SC","29927-6446","US","<MISSING>","+1-843-208-3101","<MISSING>","32.275531","-81.079627","<MISSING>","https://www.wyndhamhotels.com/en-uk/travelodge/hardeeville-south-carolina/travelodge-hardeeville-sc/overview"
"https://www.wyndhamhotels.com/en-ca/travelodge","Travelodge by Wyndham Orangeburg","3620 Saint Matthews Rd ","Orangeburg","SC","29118-8214","US","<MISSING>","+1-803-536-0528","<MISSING>","33.552448","-80.826363","<MISSING>","https://www.wyndhamhotels.com/en-uk/travelodge/orangeburg-south-carolina/travelodge-orangeburg/overview"
"https://www.wyndhamhotels.com/en-ca/travelodge","Travelodge by Wyndham Santee","9117 Old Number 6 Hwy ","Santee","SC","29142","US","<MISSING>","+1-803-854-3003","<MISSING>","33.48233","-80.464687","<MISSING>","https://www.wyndhamhotels.com/en-uk/travelodge/santee-south-carolina/travelodge-by-wyndham-santee/overview"
"https://www.wyndhamhotels.com/en-ca/travelodge","Travelodge by Wyndham Walterboro","1577 Bells Hwy ","Walterboro","SC","29488-2517","US","<MISSING>","+1-843-619-3905","<MISSING>","32.88098","-80.709108","<MISSING>","https://www.wyndhamhotels.com/en-uk/travelodge/walterboro-south-carolina/travelodge-walterboro/overview"
"https://www.wyndhamhotels.com/en-ca/travelodge","Travelodge Inn & Suites by Wyndham Deadwood","250 Main St ","Deadwood","SD","57732","US","<MISSING>","+1-605-566-0097","<MISSING>","44.38799","-103.716984","<MISSING>","https://www.wyndhamhotels.com/en-uk/travelodge/deadwood-south-dakota/travelodge-deadwood/overview"
"https://www.wyndhamhotels.com/en-ca/travelodge","Travelodge by Wyndham Edgemont","108 6th Ave ","Edgemont","SD","57735","US","<MISSING>","+1-605-646-3525","<MISSING>","43.303286","-103.830988","<MISSING>","https://www.wyndhamhotels.com/en-uk/travelodge/edgemont-south-dakota/travelodge-edgemont/overview"
"https://www.wyndhamhotels.com/en-ca/travelodge","Travelodge by Wyndham Rapid City","2505 Mount Rushmore Road ","Rapid City","SD","57701","US","<MISSING>","+1-605-389-3792","<MISSING>","44.061687","-103.234856","<MISSING>","https://www.wyndhamhotels.com/en-uk/travelodge/rapid-city-south-dakota/travelodge-rapid-city-sd/overview"
"https://www.wyndhamhotels.com/en-ca/travelodge","Travelodge by Wyndham Spearfish","2275 E Colorado Blvd ","Spearfish","SD","57783-3200","US","<MISSING>","+1-605-642-2350","<MISSING>","44.47664","-103.82157","<MISSING>","https://www.wyndhamhotels.com/en-uk/travelodge/spearfish-south-dakota/travelodge-spearfish-sd/overview"
"https://www.wyndhamhotels.com/en-ca/travelodge","Travelodge by Wyndham Wall","211 10th Ave ","Wall","SD","57790","US","<MISSING>","+1-605-550-4806","<MISSING>","43.98716","-102.240318","<MISSING>","https://www.wyndhamhotels.com/en-uk/travelodge/wall-south-dakota/travelodge-wall/overview"
"https://www.wyndhamhotels.com/en-ca/travelodge","Travelodge by Wyndham Yankton","1603 East Highway 50 ","Yankton","SD","57078-9301","US","<MISSING>","+1-605-653-2288","<MISSING>","42.877213","-97.369133","<MISSING>","https://www.wyndhamhotels.com/en-uk/travelodge/yankton-south-dakota/travelodge-yankton/overview"
"https://www.wyndhamhotels.com/en-ca/travelodge","Travelodge by Wyndham Chattanooga/Hamilton Place","2361 Shallowford Village Dr ","Chattanooga","TN","37421","US","<MISSING>","+1-423-855-2090","<MISSING>","35.046047","-85.155426","<MISSING>","https://www.wyndhamhotels.com/en-uk/travelodge/chattanooga-tennessee/travelodge-chattanooga-hamilton-place/overview"
"https://www.wyndhamhotels.com/en-ca/travelodge","Travelodge by Wyndham Clarksville","3100 Wilma Rudolph Blvd ","Clarksville","TN","37040","US","<MISSING>","+1-931-552-0098","<MISSING>","36.598552","-87.285841","<MISSING>","https://www.wyndhamhotels.com/en-uk/travelodge/clarksville-tennessee/travelodge-clarksville/overview"
"https://www.wyndhamhotels.com/en-ca/travelodge","Travelodge by Wyndham Downtown Gatlinburg","221 Bishop Lane ","Gatlinburg","TN","37738","US","<MISSING>","+1-865-436-4773","<MISSING>","35.711154","-83.511982","<MISSING>","https://www.wyndhamhotels.com/en-uk/travelodge/gatlinburg-tennessee/travelodge-downtown-gatlinburg/overview"
"https://www.wyndhamhotels.com/en-ca/travelodge","Travelodge by Wyndham Harriman","1845 B. South Roane Street ","Harriman","TN","33748","US","<MISSING>","+1-865-590-9115","<MISSING>","35.904834","-84.592605","<MISSING>","https://www.wyndhamhotels.com/en-uk/travelodge/harriman-tennessee/travelodge-harriman/overview"
"https://www.wyndhamhotels.com/en-ca/travelodge","Travelodge by Wyndham Jackson North","2659 N Highland Ave ","Jackson","TN","38305","US","<MISSING>","+1-713-664-8600","<MISSING>","35.679498","-88.830952","<MISSING>","https://www.wyndhamhotels.com/en-uk/travelodge/jackson-tennessee/travelodge-by-wyndham-jackson-north/overview"
"https://www.wyndhamhotels.com/en-ca/travelodge","Travelodge by Wyndham Knoxville East","7471 Crosswood Blvd ","Knoxville","TN","37924","US","<MISSING>","+1-865-342-0003","<MISSING>","36.003941","-83.779236","<MISSING>","https://www.wyndhamhotels.com/en-uk/travelodge/knoxville-tennessee/travelodge-knoxville-east/overview"
"https://www.wyndhamhotels.com/en-ca/travelodge","Travelodge by Wyndham Memphis Airport/Graceland","1471 EAST BROOKS ROAD ","Memphis","TN","38116","US","<MISSING>","+1-901-522-5494","<MISSING>","35.061261","-90.014849","<MISSING>","https://www.wyndhamhotels.com/en-uk/travelodge/memphis-tennessee/travelodge-by-wyndham-memphis-airport-graceland/overview"
"https://www.wyndhamhotels.com/en-ca/travelodge","Travelodge by Wyndham Pigeon Forge","3229 Parkway ","Pigeon Forge","TN","37863","US","<MISSING>","+1-865-453-5568","<MISSING>","35.792104","-83.559102","<MISSING>","https://www.wyndhamhotels.com/en-uk/travelodge/pigeon-forge-tennessee/travelodge-by-wyndham-pigeon-forge/overview"
"https://www.wyndhamhotels.com/en-ca/travelodge","Travelodge by Wyndham Alpine","2407 E Holland Ave ","Alpine","TX","79830","US","<MISSING>","+1-432-294-5112","<MISSING>","30.301826","-103.801903","<MISSING>","https://www.wyndhamhotels.com/en-uk/travelodge/alpine-texas/travelodge-alpine/overview"
"https://www.wyndhamhotels.com/en-ca/travelodge","Travelodge by Wyndham Austin South","2915 S IH 35 ","Austin","TX","78741","US","<MISSING>","+1-512-444-3222","<MISSING>","30.22673","-97.74387","<MISSING>","https://www.wyndhamhotels.com/en-uk/travelodge/austin-texas/traveldoge-austin-south/overview"
"https://www.wyndhamhotels.com/en-ca/travelodge","Travelodge by Wyndham Houston Hobby Airport","8850 Airport Blvd. ","Houston","TX","77061","US","<MISSING>","+1-832-548-9392","<MISSING>","29.652539","-95.260096","<MISSING>","https://www.wyndhamhotels.com/en-uk/travelodge/houston-texas/travelodge-houston-hobby-airport/overview"
"https://www.wyndhamhotels.com/en-ca/travelodge","Travelodge by Wyndham Killeen/Fort Hood","810 E Central Texas Expressway ","Killeen","TX","76541","US","<MISSING>","+1-254-634-6644","<MISSING>","31.094213","-97.734543","<MISSING>","https://www.wyndhamhotels.com/en-uk/travelodge/killeen-texas/travelodge-killeen-fort-hood/overview"
"https://www.wyndhamhotels.com/en-ca/travelodge","Travelodge by Wyndham Memphis","1600 North Boykin Drive ","Memphis","TX","79245","US","<MISSING>","+1-806-259-3583","<MISSING>","34.738997","-100.547923","<MISSING>","https://www.wyndhamhotels.com/en-uk/travelodge/memphis-texas/travelodge-memphis/overview"
"https://www.wyndhamhotels.com/en-ca/travelodge","Travelodge by Wyndham New Braunfels","375 Hwy 46 South ","New Braunfels","TX","78130","US","<MISSING>","+1-830-214-7747","<MISSING>","29.699223","-98.091423","<MISSING>","https://www.wyndhamhotels.com/en-uk/travelodge/new-braunfels-texas/travelodge-new-braunfels/overview"
"https://www.wyndhamhotels.com/en-ca/travelodge","Travelodge by Wyndham North Richland Hills/Dallas/Ft Worth","7920 Bedford Euless Road ","North Richland Hills","TX","76180","US","<MISSING>","+1-817-485-2750","<MISSING>","32.834","-97.210197","<MISSING>","https://www.wyndhamhotels.com/en-uk/travelodge/north-richland-hills-texas/travelodge-north-richland-hills-dallas-fort-worth/overview"
"https://www.wyndhamhotels.com/en-ca/travelodge","Travelodge by Wyndham Odessa","3075 East Business Loop 20 ","Odessa","TX","79761","US","<MISSING>","+1-432-335-8000","<MISSING>","31.871164","-102.318298","<MISSING>","https://www.wyndhamhotels.com/en-uk/travelodge/odessa-texas/travelodge-odessa-/overview"
"https://www.wyndhamhotels.com/en-ca/travelodge","Travelodge by Wyndham Ozona","8 11th Street ","Ozona","TX","76943","US","<MISSING>","+1-325-307-3265","<MISSING>","30.710235","-101.193849","<MISSING>","https://www.wyndhamhotels.com/en-uk/travelodge/ozona-texas/travelodge-ozona/overview"
"https://www.wyndhamhotels.com/en-ca/travelodge","Travelodge by Wyndham Pecos","22 N Frontage Rd ","Pecos","TX","79772","US","<MISSING>","+1-432-203-0178","<MISSING>","31.42867","-103.49542","<MISSING>","https://www.wyndhamhotels.com/en-uk/travelodge/pecos-texas/travelodge-pecos-tx/overview"
"https://www.wyndhamhotels.com/en-ca/travelodge","Travelodge by Wyndham San Antonio Lackland A F B","Rustleaf and S.W. Military Dr ","San Antonio","TX","78242","US","<MISSING>","+1-210-645-1561","<MISSING>","29.36981","-98.602959","<MISSING>","https://www.wyndhamhotels.com/en-uk/travelodge/san-antonio-texas/travelodge-san-antonio-lackland-a-f-b/overview"
"https://www.wyndhamhotels.com/en-ca/travelodge","Travelodge Inn & Suites by Wyndham San Antonio Airport","2383 Northeast Loop 410 ","San Antonio","TX","78217","US","<MISSING>","+1-210-599-4204","<MISSING>","29.517904","-98.42025","<MISSING>","https://www.wyndhamhotels.com/en-uk/travelodge/san-antonio-texas/travelodge-inn-suites-san-antonio-airport/overview"
"https://www.wyndhamhotels.com/en-ca/travelodge","Travelodge by Wyndham Temple","4001 South General Bruce DR ","Temple","TX","76502","US","<MISSING>","+1-254-773-7221","<MISSING>","31.088884","-97.391031","<MISSING>","https://www.wyndhamhotels.com/en-uk/travelodge/temple-texas/temple-travelodge/overview"
"https://www.wyndhamhotels.com/en-ca/travelodge","Travelodge by Wyndham Cedar City","2555 North Freeway Drive ","Cedar City","UT","84721","US","<MISSING>","+1-435-238-4203","<MISSING>","37.723669","-113.058409","<MISSING>","https://www.wyndhamhotels.com/en-uk/travelodge/cedar-city-utah/cedar-city-travelodge/overview"
"https://www.wyndhamhotels.com/en-ca/travelodge","Travelodge by Wyndham Kanab","386 East 300 South ","Kanab","UT","84741-3727","US","<MISSING>","+1-435-644-5373","<MISSING>","37.042221","-112.520042","<MISSING>","https://www.wyndhamhotels.com/en-uk/travelodge/kanab-utah/travelodge-kanab/overview"
"https://www.wyndhamhotels.com/en-ca/travelodge","Travelodge by Wyndham Milford","777 W Hwy 21 ","Milford","UT","84751","US","<MISSING>","+1-435-631-9603","<MISSING>","38.390906","-113.012531","<MISSING>","https://www.wyndhamhotels.com/en-uk/travelodge/milford-utah/travelodge-milford/overview"
"https://www.wyndhamhotels.com/en-ca/travelodge","Travelodge by Wyndham Salina","60 N State St ","Salina","UT","84654","US","<MISSING>","+1-435-529-2120","<MISSING>","38.958165","-111.859957","<MISSING>","https://www.wyndhamhotels.com/en-uk/travelodge/salina-utah/travelodge-salina/overview"
"https://www.wyndhamhotels.com/en-ca/travelodge","Travelodge by Wyndham South Burlington","1016 Shelburne Road ","South Burlington","VT","05403","US","<MISSING>","+1-802-448-2530","<MISSING>","44.440986","-73.209935","<MISSING>","https://www.wyndhamhotels.com/en-uk/travelodge/south-burlington-vermont/travelodge-south-burlington/overview"
"https://www.wyndhamhotels.com/en-ca/travelodge","Travelodge by Wyndham Doswell / Kings Dominion Area","16102 Theme Park Way ","Doswell","VA","23047","US","<MISSING>","+1-804-876-3321","<MISSING>","37.843222","-77.44984","<MISSING>","https://www.wyndhamhotels.com/en-uk/travelodge/doswell-virginia/travelodge-doswell-kings-dominion-area/overview"
"https://www.wyndhamhotels.com/en-ca/travelodge","Travelodge by Wyndham Glen Allen","8901 Brook Rd ","Glen Allen","VA","23060","US","<MISSING>","+1-804-553-8395","<MISSING>","37.645237","-77.459636","<MISSING>","https://www.wyndhamhotels.com/en-uk/travelodge/glen-allen-virginia/travelodge-by-wyndham-glen-allen/overview"
"https://www.wyndhamhotels.com/en-ca/travelodge","Travelodge by Wyndham Low Moor Near Covington","123 Westvaco Rd ","Low Moor","VA","24457","US","<MISSING>","+1-540-929-0977","<MISSING>","37.79141","-79.88477","<MISSING>","https://www.wyndhamhotels.com/en-uk/travelodge/low-moor-virginia/travelodge-low-moor-near-covington/overview"
"https://www.wyndhamhotels.com/en-ca/travelodge","Travelodge by Wyndham Lynchburg","1500 Main St ","Lynchburg","VA","24504","US","<MISSING>","+1-434-509-1574","<MISSING>","37.40968","-79.13701","<MISSING>","https://www.wyndhamhotels.com/en-uk/travelodge/lynchburg-virginia/travelodge-lynchburg/overview"
"https://www.wyndhamhotels.com/en-ca/travelodge","Travelodge by Wyndham Ridgeway Martinsville Area","3841 Greensboro Road ","Ridgeway","VA","24148","US","<MISSING>","+1-276-325-2172","<MISSING>","36.641239","-79.861626","<MISSING>","https://www.wyndhamhotels.com/en-uk/travelodge/ridgeway-virginia/travelodge-ridgeway-martinsville-area/overview"
"https://www.wyndhamhotels.com/en-ca/travelodge","Travelodge by Wyndham Suffolk","2864 Pruden Blvd ","Suffolk","VA","23434","US","<MISSING>","+1-757-934-2311","<MISSING>","36.76891","-76.60513","<MISSING>","https://www.wyndhamhotels.com/en-uk/travelodge/suffolk-virginia/travelodge-suffolk/overview"
"https://www.wyndhamhotels.com/en-ca/travelodge","Travelodge by Wyndham Suites Virginia Beach Oceanfront","1909 Atlantic Ave ","Virginia Beach","VA","23451","US","<MISSING>","+1-757-425-0650","<MISSING>","36.847893","-75.974564","<MISSING>","https://www.wyndhamhotels.com/en-uk/travelodge/virginia-beach-virginia/travelodge-suites-virginia-beach-oceanfront/overview"
"https://www.wyndhamhotels.com/en-ca/travelodge","Travelodge by Wyndham Virginia Beach","2802 Atlantic Avenue ","Virginia Beach","VA","23451","US","<MISSING>","+1-757-428-3434","<MISSING>","36.856655","-75.977936","<MISSING>","https://www.wyndhamhotels.com/en-uk/travelodge/virginia-beach-virginia/travelodge-virginia-beach/overview"
"https://www.wyndhamhotels.com/en-ca/travelodge","Travelodge by Wyndham Virginia Beach Bay Beach","2968 Shore Drive ","Virginia Beach","VA","23451","US","<MISSING>","+1-757-481-7992","<MISSING>","36.9112","-76.074692","<MISSING>","https://www.wyndhamhotels.com/en-uk/travelodge/virginia-beach-virginia/travelodge-virginia-beach-bay-beach/overview"
"https://www.wyndhamhotels.com/en-ca/travelodge","Travelodge by Wyndham Williamsburg Colonial Area","834 Capitol Landing Road ","Williamsburg","VA","23185","US","<MISSING>","+1-757-229-4933","<MISSING>","37.280865","-76.687523","<MISSING>","https://www.wyndhamhotels.com/en-uk/travelodge/williamsburg-virginia/travelodge-williamsburg-colonial-area/overview"
"https://www.wyndhamhotels.com/en-ca/travelodge","Travelodge Inn & Suites by Wyndham Historic Area","120 Bypass Road ","Williamsburg","VA","23185","US","<MISSING>","+1-757-229-2000","<MISSING>","37.284565","-76.718025","<MISSING>","https://www.wyndhamhotels.com/en-uk/travelodge/williamsburg-virginia/travelodge-inn-and-suites-historic-area/overview"
"https://www.wyndhamhotels.com/en-ca/travelodge","Travelodge by Wyndham Winchester","160 Front Royal Pike ","Winchester","VA","22602","US","<MISSING>","+1-540-665-0685","<MISSING>","39.160866","-78.157349","<MISSING>","https://www.wyndhamhotels.com/en-uk/travelodge/winchester-virginia/travelodge-winchester/overview"
"https://www.wyndhamhotels.com/en-ca/travelodge","Travelodge by Wyndham Wytheville","140 Lithia Road ","Wytheville","VA","24382-5120","US","<MISSING>","+1-276-200-2667","<MISSING>","36.948289","-81.056939","<MISSING>","https://www.wyndhamhotels.com/en-uk/travelodge/wytheville-virginia/travelodge-wytheville/overview"
"https://www.wyndhamhotels.com/en-ca/travelodge","Travelodge by Wyndham Aberdeen","521 West Wishkah Street ","Aberdeen","WA","98520-6029","US","<MISSING>","+1-360-532-5210","<MISSING>","46.971226","-123.823059","<MISSING>","https://www.wyndhamhotels.com/en-uk/travelodge/aberdeen-washington/travelodge-aberdeen/overview"
"https://www.wyndhamhotels.com/en-ca/travelodge","Travelodge by Wyndham Seattle North/Edmonds","23825 Highway 99 ","Edmonds","WA","98026","US","<MISSING>","+1-425-771-8008","<MISSING>","47.782662","-122.343744","<MISSING>","https://www.wyndhamhotels.com/en-uk/travelodge/edmonds-washington/travelodge-seattle-north-edmonds/overview"
"https://www.wyndhamhotels.com/en-ca/travelodge","Travelodge by Wyndham Everett City Center","3030 Broadway ","Everett","WA","98201","US","<MISSING>","+1-425-367-0869","<MISSING>","47.976978","-122.201965","<MISSING>","https://www.wyndhamhotels.com/en-uk/travelodge/everett-washington/travelodge-everett-city-center/overview"
"https://www.wyndhamhotels.com/en-ca/travelodge","Travelodge by Wyndham Moses Lake","3015 W Marina Drive Building A","Moses Lake","WA","98837","US","<MISSING>","+1-509-707-8726","<MISSING>","47.10296","-119.29489","<MISSING>","https://www.wyndhamhotels.com/en-uk/travelodge/moses-lake-washington/tavelodge-by-wyndham-moses-lake/overview"
"https://www.wyndhamhotels.com/en-ca/travelodge","Travelodge by Wyndham Seattle By The Space Needle","200 6th Avenue North ","Seattle","WA","98109","US","<MISSING>","+1-206-962-8678","<MISSING>","47.620148","-122.344597","<MISSING>","https://www.wyndhamhotels.com/en-uk/travelodge/seattle-washington/travelodge-seattle-by-the-space-needle/overview"
"https://www.wyndhamhotels.com/en-ca/travelodge","Travelodge by Wyndham Seattle North of Downtown","8512 Aurora Avenue North ","Seattle","WA","98103","US","<MISSING>","+1-206-522-5000","<MISSING>","47.691101","-122.343956","<MISSING>","https://www.wyndhamhotels.com/en-uk/travelodge/seattle-washington/travelodge-seattle-north-of-downtown/overview"
"https://www.wyndhamhotels.com/en-ca/travelodge","Travelodge by Wyndham Port of Tacoma WA","3518 Pacific Highway East ","Tacoma","WA","98424","US","<MISSING>","+1-253-242-5996","<MISSING>","47.242809","-122.380585","<MISSING>","https://www.wyndhamhotels.com/en-uk/travelodge/tacoma-washington/travelodge-port-of-tacoma-wa/overview"
"https://www.wyndhamhotels.com/en-ca/travelodge","Travelodge by Wyndham Tacoma Near McChord AFB","8702 S Hosmer St ","Tacoma","WA","98444-1837","US","<MISSING>","+1-253-948-4587","<MISSING>","47.178005","-122.464249","<MISSING>","https://www.wyndhamhotels.com/en-uk/travelodge/tacoma-washington/travelodge-tacoma-near-mcchord-afb/overview"
"https://www.wyndhamhotels.com/en-ca/travelodge","Travelodge by Wyndham Walla Walla","421 East Main Street ","Walla Walla","WA","99362","US","<MISSING>","+1-509-529-4940","<MISSING>","46.070728","-118.334458","<MISSING>","https://www.wyndhamhotels.com/en-uk/travelodge/walla-walla-washington/travelodge-walla-walla/overview"
"https://www.wyndhamhotels.com/en-ca/travelodge","Travelodge by Wyndham Wenatchee","1004 North Wenatchee Ave ","Wenatchee","WA","98801","US","<MISSING>","+1-509-293-9275","<MISSING>","47.436241","-120.321831","<MISSING>","https://www.wyndhamhotels.com/en-uk/travelodge/wenatchee-washington/travelodge-wenatchee/overview"
"https://www.wyndhamhotels.com/en-ca/travelodge","Travelodge by Wyndham Beckley","1939 Harper Rd. ","Beckley","WV","25801","US","<MISSING>","+1-304-252-0671","<MISSING>","37.791246","-81.21363","<MISSING>","https://www.wyndhamhotels.com/en-uk/travelodge/beckley-west-virginia/travelodge-beckley/overview"
"https://www.wyndhamhotels.com/en-ca/travelodge","Travelodge by Wyndham Parkersburg","3604 East 7th Street ","Parkersburg","WV","26104","US","<MISSING>","+1-304-424-5100","<MISSING>","39.26532","-81.506538","<MISSING>","https://www.wyndhamhotels.com/en-uk/travelodge/parkersburg-west-virginia/travelodge-parkersburg/overview"
"https://www.wyndhamhotels.com/en-ca/travelodge","Travelodge by Wyndham Milwaukee","1716 W Layton Ave ","Milwaukee","WI","53221-2824","US","<MISSING>","+1-414-282-7000","<MISSING>","42.96002","-87.93687","<MISSING>","https://www.wyndhamhotels.com/en-uk/travelodge/milwaukee-wisconsin/travelodge-milwaukee/overview"
"https://www.wyndhamhotels.com/en-ca/travelodge","Travelodge by Wyndham Casper","2325 E Yellowstone Hwy ","Casper","WY","82609","US","<MISSING>","+1-307-439-2538","<MISSING>","42.854546","-106.295398","<MISSING>","https://www.wyndhamhotels.com/en-uk/travelodge/casper-wyoming/travelodge-by-wyndham-casper/overview"
"https://www.wyndhamhotels.com/en-ca/travelodge","Travelodge by Wyndham Cheyenne","1625 Stillwater Avenue ","Cheyenne","WY","82009","US","<MISSING>","+1-307-274-3666","<MISSING>","41.15874","-104.80236","<MISSING>","https://www.wyndhamhotels.com/en-uk/travelodge/cheyenne-wyoming/travelodge-cheyenne/overview"
"https://www.wyndhamhotels.com/en-ca/travelodge","Travelodge by Wyndham Bill WY Thunder Basin Ntl Grassland","3522 N Hwy 59 ","Douglas","WY","82633","US","<MISSING>","+1-307-298-9191","<MISSING>","43.23086","-105.25727","<MISSING>","https://www.wyndhamhotels.com/en-uk/travelodge/douglas-wyoming/travelodge-douglas/overview"
"https://www.wyndhamhotels.com/en-ca/travelodge","Travelodge by Wyndham Evanston","230 Bear River Dr ","Evanston","WY","82930","US","<MISSING>","+1-307-789-2902","<MISSING>","41.27159","-110.94664","<MISSING>","https://www.wyndhamhotels.com/en-uk/travelodge/evanston-wyoming/travelodge-evanston/overview"
"https://www.wyndhamhotels.com/en-ca/travelodge","Travelodge by Wyndham Gillette","2307 Wyoming Ave ","Gillette","WY","82718","US","<MISSING>","+1-307-228-4744","<MISSING>","44.27354","-105.49063","<MISSING>","https://www.wyndhamhotels.com/en-uk/travelodge/gillette-wyoming/travelodge-gillette/overview"
"https://www.wyndhamhotels.com/en-ca/travelodge","Travelodge by Wyndham Green River","1170 W. Flaming Gorge Way ","Green River","WY","82935","US","<MISSING>","+1-307-466-0122","<MISSING>","41.53835","-109.47909","<MISSING>","https://www.wyndhamhotels.com/en-uk/travelodge/green-river-wyoming/travelodge-green-river/overview"
"https://www.wyndhamhotels.com/en-ca/travelodge","Travelodge by Wyndham Guernsey","800 W Laramie St ","Guernsey","WY","82214","US","<MISSING>","+1-307-392-2000","<MISSING>","42.267148","-104.751685","<MISSING>","https://www.wyndhamhotels.com/en-uk/travelodge/guernsey-wyoming/travelodge-guernsey/overview"
"https://www.wyndhamhotels.com/en-ca/travelodge","Inn at Lander, Travelodge by Wyndham","260 Grandview Dr ","Lander","WY","82520","US","<MISSING>","+1-307-332-2847","<MISSING>","42.83012","-108.72157","<MISSING>","https://www.wyndhamhotels.com/en-uk/travelodge/lander-wyoming/inn-at-lander-travelodge/overview"
"https://www.wyndhamhotels.com/en-ca/travelodge","Travelodge by Wyndham Laramie","421 Boswell Dr ","Laramie","WY","82070","US","<MISSING>","+1-307-742-3721","<MISSING>","41.298969","-105.592963","<MISSING>","https://www.wyndhamhotels.com/en-uk/travelodge/laramie-wyoming/travelodge-laramie/overview"
"https://www.wyndhamhotels.com/en-ca/travelodge","Travelodge by Wyndham Torrington","1555 Main St ","Torrington","WY","82240","US","<MISSING>","+1-307-264-5674","<MISSING>","42.06077","-104.18371","<MISSING>","https://www.wyndhamhotels.com/en-uk/travelodge/torrington-wyoming/travelodge-torrington/overview"
"https://www.wyndhamhotels.com/en-ca/travelodge","Travelodge by Wyndham Worland","2500 Big Horn Ave ","Worland","WY","82401","US","<MISSING>","+1-307-347-9236","<MISSING>","44.01722","-107.936406","<MISSING>","https://www.wyndhamhotels.com/en-uk/travelodge/worland-wyoming/travelodge-worland/overview"
"https://www.wyndhamhotels.com/en-ca/travelodge","Travelodge by Wyndham Blairmore","11373 20th Ave ","Blairmore","AB","T0K 0E0","CA","<MISSING>","+1-403-562-8888","<MISSING>","49.61158","-114.4561","<MISSING>","https://www.wyndhamhotels.com/en-uk/travelodge/blairmore-alberta/travelodge-blairmore/overview"
"https://www.wyndhamhotels.com/en-ca/travelodge","Travelodge by Wyndham Brooks","1240 Cassils Place East ","Brooks","AB","T1R 1C3","CA","<MISSING>","+1-403-362-8000","<MISSING>","50.5722","-111.8671","<MISSING>","https://www.wyndhamhotels.com/en-uk/travelodge/brooks-alberta/travelodge-by-wyndham-brooks/overview"
"https://www.wyndhamhotels.com/en-ca/travelodge","Travelodge by Wyndham Calgary South","7012 Macleod Trail South ","Calgary","AB","T2H 0L3","CA","<MISSING>","+1-403-253-1111","<MISSING>","50.991665","-114.071304","<MISSING>","https://www.wyndhamhotels.com/en-uk/travelodge/calgary-alberta/travelodge-calgary-south/overview"
"https://www.wyndhamhotels.com/en-ca/travelodge","Travelodge by Wyndham Drumheller","101 Grove Place ","Drumheller","AB","T0J 0Y0","CA","<MISSING>","+1-403-823-5302","<MISSING>","51.4232","-112.688397","<MISSING>","https://www.wyndhamhotels.com/en-uk/travelodge/drumheller-alberta/travelodge-by-wyndham-drumheller/overview"
"https://www.wyndhamhotels.com/en-ca/travelodge","Thriftlodge Edmonton","21640 Stony Plain Road ","Edmonton","AB","T5S 2C3","CA","<MISSING>","+1-780-851-1601","<MISSING>","53.54217","-113.69212","<MISSING>","https://www.wyndhamhotels.com/en-uk/travelodge/edmonton-alberta/thriftlodge-edmonton/overview"
"https://www.wyndhamhotels.com/en-ca/travelodge","Travelodge by Wyndham Edmonton East","3414 118th Ave ","Edmonton","AB","T5W 0Z4","CA","<MISSING>","+1-780-809-3215","<MISSING>","53.570661","-113.395311","<MISSING>","https://www.wyndhamhotels.com/en-uk/travelodge/edmonton-alberta/travelodge-edmonton-east/overview"
"https://www.wyndhamhotels.com/en-ca/travelodge","Travelodge by Wyndham Edmonton South","10320 45th Ave NW ","Edmonton","AB","T6H 5K3","CA","<MISSING>","+1-780-436-9770","<MISSING>","53.48382","-113.49358","<MISSING>","https://www.wyndhamhotels.com/en-uk/travelodge/edmonton-alberta/travelodge-edmonton-south/overview"
"https://www.wyndhamhotels.com/en-ca/travelodge","Travelodge by Wyndham Edmonton West","18320 Stony Plain Road ","Edmonton","AB","T5S 1A7","CA","<MISSING>","+1-780-800-7183","<MISSING>","53.541585","-113.638322","<MISSING>","https://www.wyndhamhotels.com/en-uk/travelodge/edmonton-alberta/travelodge-edmonton-west/overview"
"https://www.wyndhamhotels.com/en-ca/travelodge","Travelodge by Wyndham Edson","5142 2nd Avenue ","Edson","AB","T7E 1V9","CA","<MISSING>","+1-877-723-5591","<MISSING>","53.58042","-116.43438","<MISSING>","https://www.wyndhamhotels.com/en-uk/travelodge/edson-alberta/travelodge-edson/overview"
"https://www.wyndhamhotels.com/en-ca/travelodge","Thriftlodge Grande Prairie","10923 100 Avenue ","Grande Prairie","AB","T8V 3J9","CA","<MISSING>","+1-780-532-8819","<MISSING>","55.17016","-118.82225","<MISSING>","https://www.wyndhamhotels.com/en-uk/travelodge/grande-prairie-alberta/thriftlodge-grande-prairie/overview"
"https://www.wyndhamhotels.com/en-ca/travelodge","Travelodge by Wyndham Edmonton Airport","5704 50th Street ","Leduc","AB","T9E 6J4","CA","<MISSING>","+1-780-986-2264","<MISSING>","53.27281","-113.550396","<MISSING>","https://www.wyndhamhotels.com/en-uk/travelodge/leduc-alberta/travelodge-edmonton-airport/overview"
"https://www.wyndhamhotels.com/en-ca/travelodge","Travelodge by Wyndham Lethbridge","1009 Mayor Magrath Drive South ","Lethbridge","AB","T1K 2P7","CA","<MISSING>","+1-403-328-2366","<MISSING>","49.683406","-112.804761","<MISSING>","https://www.wyndhamhotels.com/en-uk/travelodge/lethbridge-alberta/travelodge-lethbridge/overview"
"https://www.wyndhamhotels.com/en-ca/travelodge","Travelodge by Wyndham Lloydminster","5621 44st ","Lloydminster","AB","T9V 0B2","CA","<MISSING>","+1-780-875-7000","<MISSING>","53.2777","-110.02165","<MISSING>","https://www.wyndhamhotels.com/en-uk/travelodge/lloydminster-alberta/travelodge-lloydminster/overview"
"https://www.wyndhamhotels.com/en-ca/travelodge","Travelodge Hotel by Wyndham Medicine Hat","1100 Redcliff Drive Southwest ","Medicine Hat","AB","T1A 5E5","CA","<MISSING>","+1-403-908-0680","<MISSING>","50.028683","-110.705603","<MISSING>","https://www.wyndhamhotels.com/en-uk/travelodge/medicine-hat-alberta/travelodge-hotel-medicine-hat/overview"
"https://www.wyndhamhotels.com/en-ca/travelodge","Travelodge by Wyndham Pincher Creek","1225 McEachern Street ","Pincher Creek","AB","T0K 1W0","CA","<MISSING>","+1-403-904-8040","<MISSING>","49.497586","-113.943005","<MISSING>","https://www.wyndhamhotels.com/en-uk/travelodge/pincher-creek-alberta/travelodge-by-wyndham-pincher-creek/overview"
"https://www.wyndhamhotels.com/en-ca/travelodge","Travelodge by Wyndham Red Deer","2807-50 Avenue ","Red Deer","AB","T4R 1H1","CA","<MISSING>","+1-403-346-2011","<MISSING>","52.245235","-113.813511","<MISSING>","https://www.wyndhamhotels.com/en-uk/travelodge/red-deer-alberta/travelodge-red-deer/overview"
"https://www.wyndhamhotels.com/en-ca/travelodge","Travelodge by Wyndham Spruce Grove","20 Nelson Drive ","Spruce Grove","AB","T7X 3X3","CA","<MISSING>","+1-780-851-1503","<MISSING>","53.542475","-113.921903","<MISSING>","https://www.wyndhamhotels.com/en-uk/travelodge/spruce-grove-alberta/travelodge-spruce-grove/overview"
"https://www.wyndhamhotels.com/en-ca/travelodge","Travelodge by Wyndham Stony Plain","74 Boulder Blvd ","Stony Plain","AB","T7Z 1V7","CA","<MISSING>","+1-780-963-1161","<MISSING>","53.5417","-113.978897","<MISSING>","https://www.wyndhamhotels.com/en-uk/travelodge/stony-plain-alberta/travelodge-stony-plain/overview"
"https://www.wyndhamhotels.com/en-ca/travelodge","Travelodge by Wyndham Strathmore","350 Ridge Road ","Strathmore","AB","T1P 1B5","CA","<MISSING>","+1-403-901-0000","<MISSING>","51.037966","-113.396542","<MISSING>","https://www.wyndhamhotels.com/en-uk/travelodge/strathmore-alberta/travelodge-strathmore/overview"
"https://www.wyndhamhotels.com/en-ca/travelodge","Travelodge by Wyndham Wetaskiwin","4814 56th Street ","Wetaskiwin","AB","T9A 1V8","CA","<MISSING>","+1-780-352-2222","<MISSING>","52.96801","-113.366112","<MISSING>","https://www.wyndhamhotels.com/en-uk/travelodge/wetaskiwin-alberta/travelodge-wetaskiwin/overview"
"https://www.wyndhamhotels.com/en-ca/travelodge","Travelodge by Wyndham Conference Centre & Suit","5003 50th St ","Whitecourt","AB","T7S 1N3","CA","<MISSING>","+1-780-778-2216","<MISSING>","54.14067","-115.68405","<MISSING>","https://www.wyndhamhotels.com/en-uk/travelodge/whitecourt-alberta/travelodge-by-wyndham-whitecourt-conference-centre-and-suites/overview"
"https://www.wyndhamhotels.com/en-ca/travelodge","Travelodge by Wyndham Abbotsford Bakerview","1821 Sumas Way ","Abbotsford","BC","V2S 4L5","CA","<MISSING>","+1-604-859-1341","<MISSING>","49.0353","-122.26767","<MISSING>","https://www.wyndhamhotels.com/en-uk/travelodge/abbotsford-british-columbia/travelodge-abbotsford-bakerview/overview"
"https://www.wyndhamhotels.com/en-ca/travelodge","Travelodge Hotel by Wyndham Chilliwack","45466 Yale Road West ","Chilliwack","BC","V2R 3Z8","CA","<MISSING>","+1-604-426-0272","<MISSING>","49.147671","-121.96505","<MISSING>","https://www.wyndhamhotels.com/en-uk/travelodge/chilliwack-british-columbia/chilliwack-travelodge-hotel/overview"
"https://www.wyndhamhotels.com/en-ca/travelodge","Travelodge by Wyndham Courtenay","2605 Cliffe Avenue ","Courtenay","BC","V9N 2L8","CA","<MISSING>","+1-250-334-4491","<MISSING>","49.676038","-124.982736","<MISSING>","https://www.wyndhamhotels.com/en-uk/travelodge/courtenay-british-columbia/travelodge-by-wyndham-courtenay/overview"
"https://www.wyndhamhotels.com/en-ca/travelodge","Travelodge by Wyndham Cranbrook","1417 Cranbrook St North ","Cranbrook","BC","V1C 3S7","CA","<MISSING>","+1-250-426-7236","<MISSING>","49.52599","-115.75298","<MISSING>","https://www.wyndhamhotels.com/en-uk/travelodge/cranbrook-british-columbia/travelodge-cranbrook/overview"
"https://www.wyndhamhotels.com/en-ca/travelodge","Travelodge by Wyndham Dawson Creek","10600 8th Street ","Dawson Creek","BC","V1G 3R3","CA","<MISSING>","+1-250-782-8136","<MISSING>","55.75265","-120.22379","<MISSING>","https://www.wyndhamhotels.com/en-uk/travelodge/dawson-creek-british-columbia/travelodge-dawson-creek/overview"
"https://www.wyndhamhotels.com/en-ca/travelodge","Travelodge by Wyndham Golden Sportsman Lodge","1200-12th Street North ","Golden","BC","V0A 1H2","CA","<MISSING>","+1-250-800-4932","<MISSING>","51.312897","-116.97374","<MISSING>","https://www.wyndhamhotels.com/en-uk/travelodge/golden-british-columbia/travelodge-golden-sportsman-lodge/overview"
"https://www.wyndhamhotels.com/en-ca/travelodge","Travelodge by Wyndham Hope","350 Old Hope Princeton Way ","Hope","BC","V0X 1L0","CA","<MISSING>","+1-604-426-0131","<MISSING>","49.375015","-121.437029","<MISSING>","https://www.wyndhamhotels.com/en-uk/travelodge/hope-british-columbia/travelodge-hope/overview"
"https://www.wyndhamhotels.com/en-ca/travelodge","Travelodge by Wyndham Kamloops","430 Columbia Street ","Kamloops","BC","V2C 2J5","CA","<MISSING>","+1-250-372-8202","<MISSING>","50.671407","-120.331163","<MISSING>","https://www.wyndhamhotels.com/en-uk/travelodge/kamloops-british-columbia/travelodge-kamloops/overview"
"https://www.wyndhamhotels.com/en-ca/travelodge","Travelodge by Wyndham Kamloops Mountview","1225 Rogers Way ","Kamloops","BC","V1S 1R9","CA","<MISSING>","+1-250-374-4788","<MISSING>","50.651222","-120.37076","<MISSING>","https://www.wyndhamhotels.com/en-uk/travelodge/kamloops-british-columbia/travelodge-by-wyndham-kamloops-mountview/overview"
"https://www.wyndhamhotels.com/en-ca/travelodge","Travelodge by Wyndham Langley","21653 Fraser Highway ","Langley","BC","V3A-4H1","CA","<MISSING>","+1-604-533-4431","<MISSING>","49.095577","-122.623012","<MISSING>","https://www.wyndhamhotels.com/en-uk/travelodge/langley-british-columbia/travelodge-langley-city/overview"
"https://www.wyndhamhotels.com/en-ca/travelodge","Travelodge by Wyndham McBride","868 NW Frontage Rd ","McBride","BC","V0J 2E0","CA","<MISSING>","+1-250-569-0001","<MISSING>","53.30566","-120.16378","<MISSING>","https://www.wyndhamhotels.com/en-uk/travelodge/mcbride-british-columbia/travelodge-mcbride/overview"
"https://www.wyndhamhotels.com/en-ca/travelodge","Travelodge by Wyndham Nanaimo","96 Terminal Avenue North ","Nanaimo","BC","V9S 4J2","CA","<MISSING>","+1-250-754-6355","<MISSING>","49.172393","-123.942662","<MISSING>","https://www.wyndhamhotels.com/en-uk/travelodge/nanaimo-british-columbia/travelodge-nanaimo/overview"
"https://www.wyndhamhotels.com/en-ca/travelodge","Travelodge by Wyndham Vancouver Lions Gate","2060 Marine Drive ","North Vancouver","BC","V7P 1V7","CA","<MISSING>","+1-604-985-5311","<MISSING>","49.324663","-123.123467","<MISSING>","https://www.wyndhamhotels.com/en-uk/travelodge/north-vancouver-british-columbia/travelodge-vancouver-lions-gate/overview"
"https://www.wyndhamhotels.com/en-ca/travelodge","Travelodge by Wyndham Parksville","424 West Island Highway ","Parksville","BC","V9P 1K8","CA","<MISSING>","+1-250-248-2232","<MISSING>","49.323636","-124.324639","<MISSING>","https://www.wyndhamhotels.com/en-uk/travelodge/parksville-british-columbia/travelodge-parksville/overview"
"https://www.wyndhamhotels.com/en-ca/travelodge","Travelodge by Wyndham Prince George","1458 7th Avenue ","Prince George","BC","V2L3P2","CA","<MISSING>","+1-250-563-0666","<MISSING>","53.914604","-122.750947","<MISSING>","https://www.wyndhamhotels.com/en-uk/travelodge/prince-george-british-columbia/travelodge-prince-george/overview"
"https://www.wyndhamhotels.com/en-ca/travelodge","Travelodge by Wyndham Quesnel","524 Front Street ","Quesnel","BC","V2J 2K6","CA","<MISSING>","+1-250-992-7071","<MISSING>","52.980885","-122.498678","<MISSING>","https://www.wyndhamhotels.com/en-uk/travelodge/quesnel-british-columbia/travelodge-by-wyndham-quesnel/overview"
"https://www.wyndhamhotels.com/en-ca/travelodge","Travelodge Hotel by Wyndham Vancouver Airport","3071 St Edwards Drive ","Richmond","BC","V6X 3K4","CA","<MISSING>","+1-604-332-8945","<MISSING>","49.191627","-123.11234","<MISSING>","https://www.wyndhamhotels.com/en-uk/travelodge/richmond-british-columbia/travelodge-hotel-vancouver-airport/overview"
"https://www.wyndhamhotels.com/en-ca/travelodge","Travelodge by Wyndham Salmon Arm","2401 Trans Canada Highway SW ","Salmon Arm","BC","V1E 4P7","CA","<MISSING>","+1-250-832-9721","<MISSING>","50.6927","-119.3158","<MISSING>","https://www.wyndhamhotels.com/en-uk/travelodge/salmon-arm-british-columbia/travelodge-by-wyndham-salmon-arm/overview"
"https://www.wyndhamhotels.com/en-ca/travelodge","Travelodge by Wyndham Victoria Airport Sidney","2280 Beacon Avenue ","Sidney","BC","V8L 1X1","CA","<MISSING>","+1-250-656-1176","<MISSING>","48.64888","-123.404989","<MISSING>","https://www.wyndhamhotels.com/en-uk/travelodge/sidney-british-columbia/victoria-airport-sidney-travelodge/overview"
"https://www.wyndhamhotels.com/en-ca/travelodge","Travelodge by Wyndham Surrey","13939 104 Avenue ","Surrey","BC","V3T 3X1","CA","<MISSING>","+1-604-930-4850","<MISSING>","49.19168","-122.83576","<MISSING>","https://www.wyndhamhotels.com/en-uk/travelodge/surrey-british-columbia/travelodge-surrey/overview"
"https://www.wyndhamhotels.com/en-ca/travelodge","Travelodge by Wyndham Victoria","123 Gorge Road East ","Victoria","BC","V9A 1L1","CA","<MISSING>","+1-250-386-1422","<MISSING>","48.443436","-123.385893","<MISSING>","https://www.wyndhamhotels.com/en-uk/travelodge/victoria-british-columbia/travelodge-victoria/overview"
"https://www.wyndhamhotels.com/en-ca/travelodge","Travelodge by Wyndham Brandon","210 18th Street North ","Brandon","MB","R7A 6P3","CA","<MISSING>","+1-204-727-3800","<MISSING>","49.854632","-99.962034","<MISSING>","https://www.wyndhamhotels.com/en-uk/travelodge/brandon-manitoba/travelodge-by-wyndham-brandon/overview"
"https://www.wyndhamhotels.com/en-ca/travelodge","Travelodge by Wyndham Winnipeg East","20 Alpine Ave ","Winnipeg","MB","R2M 0Y5","CA","<MISSING>","+1-204-900-6183","<MISSING>","49.856276","-97.100865","<MISSING>","https://www.wyndhamhotels.com/en-uk/travelodge/winnipeg-manitoba/travelodge-winnipeg-east/overview"
"https://www.wyndhamhotels.com/en-ca/travelodge","Travelodge by Wyndham Edmundston","919 Canada Road ","Edmundston","NB","E3V 3X2","CA","<MISSING>","+1-506-799-0126","<MISSING>","47.39522","-68.35423","<MISSING>","https://www.wyndhamhotels.com/en-uk/travelodge/edmundston-new-brunswick/travelodge-edmundston/overview"
"https://www.wyndhamhotels.com/en-ca/travelodge","Thriftlodge by Wyndham Moncton","1062 Mountain Road ","Moncton","NB","E1C 2T1","CA","<MISSING>","+1-506-384-1734","<MISSING>","46.104542","-64.819527","<MISSING>","https://www.wyndhamhotels.com/en-uk/travelodge/moncton-new-brunswick/thriftlodge-moncton/overview"
"https://www.wyndhamhotels.com/en-ca/travelodge","Travelodge Suites by Wyndham Moncton","2475 Mountain Road ","Moncton","NB","E1G 2J5","CA","<MISSING>","+1-506-802-7593","<MISSING>","46.1313","-64.873409","<MISSING>","https://www.wyndhamhotels.com/en-uk/travelodge/moncton-new-brunswick/travelodge-suites-moncton/overview"
"https://www.wyndhamhotels.com/en-ca/travelodge","Travelodge Suites by Wyndham Saint John","1011 Fairville Boulevard ","Saint John","NB","E2M 5T9","CA","<MISSING>","+1-506-799-0135","<MISSING>","45.247519","-66.105123","<MISSING>","https://www.wyndhamhotels.com/en-uk/travelodge/saint-john-new-brunswick/travelodge-suites-saint-john/overview"
"https://www.wyndhamhotels.com/en-ca/travelodge","Travelodge by Wyndham Fredericton","42 Chaparral Rd ","Waasis","NB","E3B 0G9","CA","<MISSING>","+1-506-446-9077","<MISSING>","45.851589","-66.563011","<MISSING>","https://www.wyndhamhotels.com/en-uk/travelodge/waasis-new-brunswick/travelodge-fredericton/overview"
"https://www.wyndhamhotels.com/en-ca/travelodge","Travelodge Suites by Wyndham Halifax Dartmouth","101 Yorkshire Ave Extension ","Dartmouth","NS","B3A 0C5","CA","<MISSING>","+1-902-708-4346","<MISSING>","44.686198","-63.597435","<MISSING>","https://www.wyndhamhotels.com/en-uk/travelodge/dartmouth-nova-scotia/travelodge-suites-dartmouth/overview"
"https://www.wyndhamhotels.com/en-ca/travelodge","Travelodge Suites by Wyndham New Glasgow","700 Westville Road ","New Glasgow","NS","B2H 2J8","CA","<MISSING>","+1-902-938-1333","<MISSING>","45.577419","-62.665852","<MISSING>","https://www.wyndhamhotels.com/en-uk/travelodge/new-glasgow-nova-scotia/travelodge-suites-by-wyndham-new-glasgow/overview"
"https://www.wyndhamhotels.com/en-ca/travelodge","Thriftlodge Port Hastings","21 Old Victoria Road ","Port Hastings","NS","B9A1L9","CA","<MISSING>","+1-902-708-4348","<MISSING>","45.647545","-61.402535","<MISSING>","https://www.wyndhamhotels.com/en-uk/travelodge/port-hastings-nova-scotia/thriftlodge-port-hastings/overview"
"https://www.wyndhamhotels.com/en-ca/travelodge","Travelodge by Wyndham Sydney","480 Kings Road ","Sydney","NS","B1S 1A8","CA","<MISSING>","+1-902-707-4603","<MISSING>","46.122096","-60.203066","<MISSING>","https://www.wyndhamhotels.com/en-uk/travelodge/sydney-nova-scotia/travelodge-sydney/overview"
"https://www.wyndhamhotels.com/en-ca/travelodge","Travelodge by Wyndham Barrie on Bayfield","300 Bayfield Street ","Barrie","ON","L4M 3B9","CA","<MISSING>","+1-705-996-0702","<MISSING>","44.40026","-79.699645","<MISSING>","https://www.wyndhamhotels.com/en-uk/travelodge/barrie-ontario/travelodge-barrie-on-bayfield/overview"
"https://www.wyndhamhotels.com/en-ca/travelodge","Travelodge by Wyndham Bracebridge","320 Taylor Road ","Bracebridge","ON","P1L 1K1","CA","<MISSING>","+1-705-645-2235","<MISSING>","45.0498","-79.2978","<MISSING>","https://www.wyndhamhotels.com/en-uk/travelodge/bracebridge-ontario/travelodge-bracebridge/overview"
"https://www.wyndhamhotels.com/en-ca/travelodge","Travelodge by Wyndham Brockville","7789 Kent Blvd ","Brockville","ON","K6V-6N7","CA","<MISSING>","+1-613-345-3900","<MISSING>","44.59738","-75.706332","<MISSING>","https://www.wyndhamhotels.com/en-uk/travelodge/brockville-ontario/travelodge-brockville/overview"
"https://www.wyndhamhotels.com/en-ca/travelodge","Travelodge by Wyndham Cambridge - Waterloo","605 Hespeler Rd ","Cambridge","ON","N1R 6J3","CA","<MISSING>","+1-519-622-1180","<MISSING>","43.404471","-80.326897","<MISSING>","https://www.wyndhamhotels.com/en-uk/travelodge/cambridge-ontario/travelodge-cambridge-waterloo/overview"
"https://www.wyndhamhotels.com/en-ca/travelodge","Travelodge by Wyndham Chatham","555 Bloomfield RD ","Chatham","ON","N7M 5J5","CA","<MISSING>","+1-519-436-1200","<MISSING>","42.377936","-82.214871","<MISSING>","https://www.wyndhamhotels.com/en-uk/travelodge/chatham-ontario/travelodge-chatham/overview"
"https://www.wyndhamhotels.com/en-ca/travelodge","Thriftlodge Cochrane South","50/Highway 11 South ","Cochrane","ON","P0L 1C0","CA","<MISSING>","+1-705-272-4281","<MISSING>","49.0722","-81.010698","<MISSING>","https://www.wyndhamhotels.com/en-uk/travelodge/cochrane-ontario/thriftlodge-cochrane-south/overview"
"https://www.wyndhamhotels.com/en-ca/travelodge","Travelodge by Wyndham Cochrane","91 Highway 11 S ","Cochrane","ON","P0L 1C0","CA","<MISSING>","+1-705-272-6222","<MISSING>","49.056715","-81.0325","<MISSING>","https://www.wyndhamhotels.com/en-uk/travelodge/cochrane-ontario/travelodge-cochrane-ontario/overview"
"https://www.wyndhamhotels.com/en-ca/travelodge","Travelodge by Wyndham Gananoque","785 King Street East ","Gananoque","ON","K7G 1H4","CA","<MISSING>","+1-613-382-4728","<MISSING>","44.338387","-76.14605","<MISSING>","https://www.wyndhamhotels.com/en-uk/travelodge/gananoque-ontario/travelodge-gananoque/overview"
"https://www.wyndhamhotels.com/en-ca/travelodge","Travelodge by Wyndham Kapuskasing","25 Kolb Avenue ","Kapuskasing","ON","P5N 1A7","CA","<MISSING>","+1-705-335-6171","<MISSING>","49.415466","-82.422432","<MISSING>","https://www.wyndhamhotels.com/en-uk/travelodge/kapuskasing-ontario/travelodge-kapuskasing/overview"
"https://www.wyndhamhotels.com/en-ca/travelodge","Travelodge by Wyndham Kenora","800 Highway 17 East ","Kenora","ON","P9N 1L9","CA","<MISSING>","+1-807-468-3155","<MISSING>","49.756899","-94.469398","<MISSING>","https://www.wyndhamhotels.com/en-uk/travelodge/kenora-ontario/travelodge-kenora/overview"
"https://www.wyndhamhotels.com/en-ca/travelodge","Thriftlodge Kingston","1187 Princess Street ","Kingston","ON","K7M 3E1","CA","<MISSING>","+1-613-546-4411","<MISSING>","44.24616","-76.52141","<MISSING>","https://www.wyndhamhotels.com/en-uk/travelodge/kingston-ontario/thriftlodge-kingston/overview"
"https://www.wyndhamhotels.com/en-ca/travelodge","Travelodge Hotel by Wyndham Kingston Lasalle","2360 Princess Street ","Kingston","ON","K7M 3G4","CA","<MISSING>","+1-613-777-3586","<MISSING>","44.25817","-76.553351","<MISSING>","https://www.wyndhamhotels.com/en-uk/travelodge/kingston-ontario/travelodge-kingston-lasalle-hotel/overview"
"https://www.wyndhamhotels.com/en-ca/travelodge","Thriftlodge Niagara Falls at the Falls","4945 Clifton Hill ","Niagara Falls","ON","L2G 3N5","CA","<MISSING>","+1-905-357-2200","<MISSING>","43.091616","-79.075361","<MISSING>","https://www.wyndhamhotels.com/en-uk/travelodge/niagara-falls-ontario/thriftlodge-niagara-falls-at-the-falls/overview"
"https://www.wyndhamhotels.com/en-ca/travelodge","Travelodge by Wyndham Niagara Falls At the Falls","4943 Clifton Hill ","Niagara Falls","ON","L2G 3N5","CA","<MISSING>","+1-905-357-4330","<MISSING>","43.091605","-79.075333","<MISSING>","https://www.wyndhamhotels.com/en-uk/travelodge/niagara-falls-ontario/travelodge-niagara-falls-at-the-falls/overview"
"https://www.wyndhamhotels.com/en-ca/travelodge","Travelodge by Wyndham Niagara Falls Bonaventure","7737 Lundys Ln. ","Niagara Falls","ON","L2H 1H3","CA","<MISSING>","+1-905-374-7171","<MISSING>","43.088987","-79.125723","<MISSING>","https://www.wyndhamhotels.com/en-uk/travelodge/niagara-falls-ontario/travelodge-niagara-falls-bonaventure/overview"
"https://www.wyndhamhotels.com/en-ca/travelodge","Travelodge by Wyndham Niagara Falls Fallsview","5599 River Road ","Niagara Falls","ON","L2E 3H3","CA","<MISSING>","+1-905-354-2727","<MISSING>","43.09357","-79.068","<MISSING>","https://www.wyndhamhotels.com/en-uk/travelodge/niagara-falls-ontario/travelodge-hotel-niagara-falls-fallsview/overview"
"https://www.wyndhamhotels.com/en-ca/travelodge","Travelodge Hotel by Wyndham Niagara Falls By the Falls","5257 Ferry St. ","Niagara Falls","ON","L2G 1R6","CA","<MISSING>","+1-289-271-4029","<MISSING>","43.089568","-79.081988","<MISSING>","https://www.wyndhamhotels.com/en-uk/travelodge/niagara-falls-ontario/travelodge-hotel-niagara-falls-by-the-falls/overview"
"https://www.wyndhamhotels.com/en-ca/travelodge","Travelodge by Wyndham North Bay","718 Lakeshore Drive ","North Bay","ON","P1A 2G4","CA","<MISSING>","+1-705-980-0264","<MISSING>","46.265589","-79.4354","<MISSING>","https://www.wyndhamhotels.com/en-uk/travelodge/north-bay-ontario/travelodge-north-bay/overview"
"https://www.wyndhamhotels.com/en-ca/travelodge","Travelodge by Wyndham Oshawa Whitby","940 Champlain Avenue ","Oshawa","ON","L1J 7A6","CA","<MISSING>","+1-905-436-9500","<MISSING>","43.8768","-78.875398","<MISSING>","https://www.wyndhamhotels.com/en-uk/travelodge/oshawa-ontario/travelodge-oshawa-whitby/overview"
"https://www.wyndhamhotels.com/en-ca/travelodge","Travelodge by Wyndham Ottawa East","1486 Innes Road ","Ottawa","ON","K1B 3V5","CA","<MISSING>","+1-613-702-0719","<MISSING>","45.415047","-75.605844","<MISSING>","https://www.wyndhamhotels.com/en-uk/travelodge/ottawa-ontario/travelodge-ottawa-east/overview"
"https://www.wyndhamhotels.com/en-ca/travelodge","Travelodge by Wyndham Ottawa West","1376 Carling Avenue ","Ottawa","ON","K1Z 7L5","CA","<MISSING>","+1-613-722-7600","<MISSING>","45.3848","-75.737099","<MISSING>","https://www.wyndhamhotels.com/en-uk/travelodge/ottawa-ontario/travelodge-ottawa-hotel-conference-centre/overview"
"https://www.wyndhamhotels.com/en-ca/travelodge","Travelodge by Wyndham Owen Sound","880 10th Street East ","Owen Sound","ON","N4K 1T4","CA","<MISSING>","+1-226-909-0235","<MISSING>","44.569329","-80.929372","<MISSING>","https://www.wyndhamhotels.com/en-uk/travelodge/owen-sound-ontario/travelodge-by-wyndham-owen-sound/overview"
"https://www.wyndhamhotels.com/en-ca/travelodge","Travelodge by Wyndham Port Elgin","235 Goderich St ","Port Elgin","ON","N0H 2C1","CA","<MISSING>","+1-519-832-2021","<MISSING>","44.42717","-81.39509","<MISSING>","https://www.wyndhamhotels.com/en-uk/travelodge/port-elgin-ontario/travelodge-port-elgin/overview"
"https://www.wyndhamhotels.com/en-ca/travelodge","Travelodge by Wyndham Richmond Hill","10711 Yonge Street ","Richmond Hill","ON","L4C 3E1","CA","<MISSING>","+1-905-884-1007","<MISSING>","43.888668","-79.441295","<MISSING>","https://www.wyndhamhotels.com/en-uk/travelodge/richmond-hill-ontario/travelodge-richmond-hill/overview"
"https://www.wyndhamhotels.com/en-ca/travelodge","Travelodge by Wyndham Simcoe","385 Queensway West ","Simcoe","ON","N3Y 2M9","CA","<MISSING>","+1-519-426-4751","<MISSING>","42.843933","-80.319111","<MISSING>","https://www.wyndhamhotels.com/en-uk/travelodge/simcoe-ontario/travelodge-simcoe/overview"
"https://www.wyndhamhotels.com/en-ca/travelodge","Travelodge Hotel by Wyndham Sudbury","1401 Paris Street ","Sudbury","ON","P3E 3B6","CA","<MISSING>","+1-705-532-1616","<MISSING>","46.464715","-80.999589","<MISSING>","https://www.wyndhamhotels.com/en-uk/travelodge/sudbury-ontario/travelodge-hotel-sudbury/overview"
"https://www.wyndhamhotels.com/en-ca/travelodge","Travelodge by Wyndham Thunder Bay","450 Memorial Avenue ","Thunder Bay","ON","P7B 3Y7","CA","<MISSING>","+1-807-788-0993","<MISSING>","48.423265","-89.236667","<MISSING>","https://www.wyndhamhotels.com/en-uk/travelodge/thunder-bay-ontario/travelodge-by-wyndham-thunder-bay/overview"
"https://www.wyndhamhotels.com/en-ca/travelodge","Travelodge by Wyndham Timmins","1136 Riverside Drive ","Timmins","ON","P4R 1A2","CA","<MISSING>","+1-705-910-0912","<MISSING>","48.472665","-81.37069","<MISSING>","https://www.wyndhamhotels.com/en-uk/travelodge/timmins-ontario/travelodge-timmins/overview"
"https://www.wyndhamhotels.com/en-ca/travelodge","Travelodge by Wyndham Toronto East","20 Milner Business Court ","Toronto","ON","M1B 3M6","CA","<MISSING>","+1-416-299-9500","<MISSING>","43.789371","-79.23531","<MISSING>","https://www.wyndhamhotels.com/en-uk/travelodge/toronto-ontario/travelodge-toronto-east/overview"
"https://www.wyndhamhotels.com/en-ca/travelodge","Travelodge by Wyndham Trenton","598 Old Hwy 2 ","Trenton","ON","K8V 5P5","CA","<MISSING>","+1-613-965-6789","<MISSING>","44.1163","-77.512894","<MISSING>","https://www.wyndhamhotels.com/en-uk/travelodge/trenton-ontario/travelodge-trenton/overview"
"https://www.wyndhamhotels.com/en-ca/travelodge","Travelodge by Wyndham Welland","870 Niagara Street ","Welland","ON","L3C 1M3","CA","<MISSING>","+1-289-820-7970","<MISSING>","43.01921","-79.24869","<MISSING>","https://www.wyndhamhotels.com/en-uk/travelodge/welland-ontario/travelodge-welland/overview"
"https://www.wyndhamhotels.com/en-ca/travelodge","Travelodge by Wyndham Windsor","2225 Division Road ","Windsor","ON","N8W 1Z7","CA","<MISSING>","+1-519-969-7800","<MISSING>","42.26224","-82.97083","<MISSING>","https://www.wyndhamhotels.com/en-uk/travelodge/windsor-ontario/travelodge-windsor/overview"
"https://www.wyndhamhotels.com/en-ca/travelodge","Travelodge by Wyndham Alma","450 Rue Sacre-Coeur Ouest ","Alma","QC","G8B 1L9","CA","<MISSING>","+1-418-478-1902","<MISSING>","48.549089","-71.648569","<MISSING>","https://www.wyndhamhotels.com/en-uk/travelodge/alma-quebec/travelodge-alma/overview"
"https://www.wyndhamhotels.com/en-ca/travelodge","Travelodge by Wyndham Baie-Comeau","285 Boulevard la Salle ","Baie-Comeau","QC","G4Z2L5","CA","<MISSING>","+1-418-296-9686","<MISSING>","49.21449","-68.1867","<MISSING>","https://www.wyndhamhotels.com/en-uk/travelodge/baie-comeau-quebec/travelodge-baie-comeau/overview"
"https://www.wyndhamhotels.com/en-ca/travelodge","Travelodge Hotel by Wyndham Montreal Centre","50 Boul Rene Levesque West ","Montreal","QC","H2Z 1A2","CA","<MISSING>","+1-514-874-9090","<MISSING>","45.508372","-73.56182","<MISSING>","https://www.wyndhamhotels.com/en-uk/travelodge/montreal-quebec/travelodge-hotel-by-wyndham-montreal-centre/overview"
"https://www.wyndhamhotels.com/en-ca/travelodge","Travelodge by Wyndham Hotel & Convention Centre Quebec City","3125 Hochelaga Blvd ","Quebec City","QC","G1W 2P9","CA","<MISSING>","+1-800-463-5241","<MISSING>","46.76359","-71.30193","<MISSING>","https://www.wyndhamhotels.com/en-uk/travelodge/quebec-city-quebec/travelodge-by-wyndham-hotel-and-convention-centre-quebec-city/overview"
"https://www.wyndhamhotels.com/en-ca/travelodge","Travelodge by Wyndham Rigaud","50 Rue Saint Jean Baptiste Ouest","Rigaud","QC","J0P 1P0","CA","<MISSING>","+1-450-451-4726","<MISSING>","45.485506","-74.309508","<MISSING>","https://www.wyndhamhotels.com/en-uk/travelodge/rigaud-quebec/travelodge-riguad/overview"
"https://www.wyndhamhotels.com/en-ca/travelodge","Travelodge Hotel by Wyndham Montreal Airport","7300 Cote de Liesse ","Saint Laurent","QC","H4T 1E7","CA","<MISSING>","+1-514-733-8818","<MISSING>","45.479324","-73.699616","<MISSING>","https://www.wyndhamhotels.com/en-uk/travelodge/saint-laurent-quebec/travelodge-montreal-airport/overview"
"https://www.wyndhamhotels.com/en-ca/travelodge","Travelodge by Wyndham Kindersley","215 11th Ave. W ","Kindersley","SK","S0L 1S0","CA","<MISSING>","+1-306-463-2664","<MISSING>","51.474527","-109.178717","<MISSING>","https://www.wyndhamhotels.com/en-uk/travelodge/kindersley-saskatchewan/travelodge-kindersley/overview"
"https://www.wyndhamhotels.com/en-ca/travelodge","Travelodge by Wyndham Meadow Lake","101 1st Street East ","Meadow Lake","SK","S9X 1V9","CA","<MISSING>","+1-306-236-8686","<MISSING>","54.1329","-108.431855","<MISSING>","https://www.wyndhamhotels.com/en-uk/travelodge/meadow-lake-saskatchewan/travelodge-meadow-lake/overview"
"https://www.wyndhamhotels.com/en-ca/travelodge","Thriftlodge Moose Jaw","Highway 1 East ","Moose Jaw","SK","S6H 4P6","CA","<MISSING>","+1-306-693-3601","<MISSING>","50.393059","-105.456218","<MISSING>","https://www.wyndhamhotels.com/en-uk/travelodge/moose-jaw-saskatchewan/thriftlodge-moose-jaw/overview"
"https://www.wyndhamhotels.com/en-ca/travelodge","Travelodge by Wyndham Moose Jaw","45 Athabasca Street East ","Moose Jaw","SK","S6H 0L3","CA","<MISSING>","+1-306-692-1884","<MISSING>","50.39534","-105.532645","<MISSING>","https://www.wyndhamhotels.com/en-uk/travelodge/moose-jaw-saskatchewan/moose-jaw-travelodge/overview"
"https://www.wyndhamhotels.com/en-ca/travelodge","Travelodge by Wyndham North Battleford","992 101st Street ","North Battleford","SK","S9A 0Z3","CA","<MISSING>","+1-306-445-9425","<MISSING>","52.772471","-108.29757","<MISSING>","https://www.wyndhamhotels.com/en-uk/travelodge/north-battleford-saskatchewan/travelodge-north-battleford/overview"
"https://www.wyndhamhotels.com/en-ca/travelodge","Travelodge by Wyndham Regina","1110 Victoria Ave. East ","Regina","SK","S4N 7A9","CA","<MISSING>","+1-306-565-0455","<MISSING>","50.448127","-104.567379","<MISSING>","https://www.wyndhamhotels.com/en-uk/travelodge/regina-saskatchewan/travelodge-regina/overview"
"https://www.wyndhamhotels.com/en-ca/travelodge","Travelodge by Wyndham Rosetown","501 Colwell Road ","Rosetown","SK","S0L 2V0","CA","<MISSING>","+1-306-882-4200","<MISSING>","51.55308","-107.97846","<MISSING>","https://www.wyndhamhotels.com/en-uk/travelodge/rosetown-saskatchewan/travelodge-rosetown/overview"
"https://www.wyndhamhotels.com/en-ca/travelodge","Thriftlodge Saskatoon","1825 Idylwyld Drive North ","Saskatoon","SK","S7L 1B6","CA","<MISSING>","+1-306-700-4709","<MISSING>","52.154064","-106.670323","<MISSING>","https://www.wyndhamhotels.com/en-uk/travelodge/saskatoon-saskatchewan/thriftlodge-saskatooon/overview"
"https://www.wyndhamhotels.com/en-ca/travelodge","Travelodge Hotel by Wyndham Saskatoon","106 Circle Drive West ","Saskatoon","SK","S7L 4L6","CA","<MISSING>","+1-306-500-2932","<MISSING>","52.157962","-106.6721","<MISSING>","https://www.wyndhamhotels.com/en-uk/travelodge/saskatoon-saskatchewan/travelodge-hotel-saskatoon/overview"
"https://www.wyndhamhotels.com/en-ca/travelodge","Travelodge by Wyndham Swift Current","1150 South Service Road East ","Swift Current","SK","S9H 3X6","CA","<MISSING>","+1-306-778-7730","<MISSING>","50.301689","-107.784508","<MISSING>","https://www.wyndhamhotels.com/en-uk/travelodge/swift-current-saskatchewan/travelodge-swift-current/overview"
"https://www.wyndhamhotels.com/en-ca/travelodge","Travelodge Hotel by Wyndham Weyburn","53 Government Rd South ","Weyburn","SK","S4H 2A2","CA","<MISSING>","+1-306-842-1411","<MISSING>","49.658626","-103.85824","<MISSING>","https://www.wyndhamhotels.com/en-uk/travelodge/weyburn-saskatchewan/travelodge-by-wyndham-weyburn/overview"
