"locator_domain","page_url","location_name","street_address","city","state","zip","country_code","store_number","phone","location_type","latitude","longitude","hours_of_operation"
"myvue.com","https://www.myvue.com/cinema/aberdeen/getting-here","Vue Aberdeen","Lighthouse Cinema 10 Ship Row","Aberdeen","<MISSING>","AB11 5BW","GB","10002","<MISSING>","<MISSING>","57.147407","-2.094701","Temporarily Closed"
"myvue.com","https://www.myvue.com/cinema/accrington/getting-here","Vue Accrington","The Viaduct Hyndburn Road","Accrington","<MISSING>","BB5 1QF","GB","10051","<MISSING>","<MISSING>","53.75265","-2.37008","Temporarily Closed"
"myvue.com","https://www.myvue.com/cinema/altrincham/getting-here","Vue Altrincham","Vue Altrincham Denmark Street","Altrincham","<MISSING>","WA14 2WG","GB","10077","<MISSING>","<MISSING>","53.3853645","-2.349406","Temporarily Closed"
"myvue.com","https://www.myvue.com/cinema/ashbourne/getting-here","Vue Ashbourne","Ashbourne Retail Park Rath","Ashbourne","<MISSING>","A84 YX83","GB","10094","<MISSING>","<MISSING>","53.522018","-6.414302","Temporarily Closed"
"myvue.com","https://www.myvue.com/cinema/barrow/getting-here","Vue Barrow","Hollywood Park Hindpool Road","Barrow-in-Furness","<MISSING>","LA14 2NA","GB","10078","<MISSING>","<MISSING>","54.1147728","-3.2385211","Temporarily Closed"
"myvue.com","https://www.myvue.com/cinema/basingstoke-festival-place/getting-here","Vue Basingstoke","Festival Place New Market Square","Basingstoke","<MISSING>","RG21 7BB","GB","10029","<MISSING>","<MISSING>","51.26551","-1.08446","Temporarily Closed"
"myvue.com","https://www.myvue.com/cinema/bedford/getting-here","Vue Bedford","Riverside Square Unit 4","Bedford","<MISSING>","MK40 1AS","GB","10092","<MISSING>","<MISSING>","52.134855","-0.469561","Temporarily Closed"
"myvue.com","https://www.myvue.com/cinema/bicester/getting-here","Vue Bicester","Pioneer Centre Bure Place","Bicester","<MISSING>","OX26 6FA","GB","10087","<MISSING>","<MISSING>","51.904814","-1.14932","Temporarily Closed"
"myvue.com","https://www.myvue.com/cinema/birkenhead/getting-here","Vue Birkenhead","Europa Boulevard Conway Park","Birkenhead","<MISSING>","CH41 4PE","GB","10055","<MISSING>","<MISSING>","53.3925","-3.02214","Temporarily Closed"
"myvue.com","https://www.myvue.com/cinema/birmingham/getting-here","Vue Birmingham","Star City, Unit 29 Watson Road","Birmingham","<MISSING>","B7 5SA","GB","10015","<MISSING>","<MISSING>","52.50581","-1.85671","Temporarily Closed"
"myvue.com","https://www.myvue.com/cinema/blackburn/getting-here","Vue Blackburn","Peel Leisure and Retail Park Lower Audley Street","Blackburn","<MISSING>","BB1 1DG","GB","10007","<MISSING>","<MISSING>","53.74393","-2.4787","Temporarily Closed"
"myvue.com","https://www.myvue.com/cinema/bolton/getting-here","Vue Bolton","Middlebrook Leisure Park The Link Way (Off Mansel Way)","Bolton","<MISSING>","BL6 6JA","GB","10040","<MISSING>","<MISSING>","53.58333","-2.53475","Temporarily Closed"
"myvue.com","https://www.myvue.com/cinema/bristol-cribbs-causeway/getting-here","Vue Bristol Cribbs Causeway","The Venue, Cribbs Causeway Merlin Road","Bristol","<MISSING>","BS10 7SR","GB","10018","<MISSING>","<MISSING>","51.52305","-2.60355","Temporarily Closed"
"myvue.com","https://www.myvue.com/cinema/bristol-longwell-green/getting-here","Vue Bristol Longwell Green","Aspects Leisure Park - Unit 2 Avon Ring Road","Bristol","<MISSING>","BS15 9LA","GB","10019","<MISSING>","<MISSING>","51.44968","-2.49918","Temporarily Closed"
"myvue.com","https://www.myvue.com/cinema/bromley/getting-here","Vue Bromley","6 St Mark's Square","Bromley","<MISSING>","BR2 9UY","GB","10093","<MISSING>","<MISSING>","51.39964","0.01535","Temporarily Closed"
"myvue.com","https://www.myvue.com/cinema/bury-the-rock/getting-here","Vue Bury","Vue Bury The Rock 9 Rock PLace","Bury","<MISSING>","BL9 0YB","GB","10073","<MISSING>","<MISSING>","53.594033","-2.296314","Temporarily Closed"
"myvue.com","https://www.myvue.com/cinema/camberley/getting-here","Vue Camberley","The Atrium Park Street","Camberley","<MISSING>","GU15 3PL","GB","10068","<MISSING>","<MISSING>","51.33841","-0.74847","Temporarily Closed"
"myvue.com","https://www.myvue.com/cinema/cambridge/getting-here","Vue Cambridge","The Grafton Centre East Road","Cambridge","<MISSING>","CB1 1PS","GB","10016","<MISSING>","<MISSING>","52.2066","0.13327","Temporarily Closed"
"myvue.com","https://www.myvue.com/cinema/cardiff/getting-here","Vue Cardiff","Stadium Plaza Wood Street","Cardiff","<MISSING>","CF10 1LA","GB","10009","<MISSING>","<MISSING>","51.47683","-3.18145","<MISSING>"
"myvue.com","https://www.myvue.com/cinema/carlisle/getting-here","Vue Carlisle","50 Botchergate","Carlisle","<MISSING>","CA1 1QS","GB","10056","<MISSING>","<MISSING>","54.89089","-2.93145","Temporarily Closed"
"myvue.com","https://www.myvue.com/cinema/carmarthen/getting-here","Vue Carmarthen","Unit B St Catherine's Walk","Carmarthen","<MISSING>","SA31 1GA","GB","10075","<MISSING>","<MISSING>","51.858487","-4.308998","<MISSING>"
"myvue.com","https://www.myvue.com/cinema/cheshire-oaks/getting-here","Vue Cheshire Oaks","Stanney Lane Ellesmere Port","South Wirral","<MISSING>","CH65 9HD","GB","10034","<MISSING>","<MISSING>","53.26471","-2.88613","Temporarily Closed"
"myvue.com","https://www.myvue.com/cinema/cleveleys/getting-here","Vue Cleveleys","North Prominade Thornton-Cleveleys","Lancashire","<MISSING>","FY5 1DB","GB","10060","<MISSING>","<MISSING>","53.8831","-3.0465","Temporarily Closed"
"myvue.com","https://www.myvue.com/cinema/cramlington/getting-here","Vue Cramlington","Manor Walks","Cramlington","<MISSING>","NE23 6UT","GB","10085","<MISSING>","<MISSING>","55.085303","-1.587936","Temporarily Closed"
"myvue.com","https://www.myvue.com/cinema/croydon-grants/getting-here","Vue Croydon Grant's","14 High Street Croydon","Surrey","<MISSING>","CR0 1GT","GB","10028","<MISSING>","<MISSING>","51.37296","-0.10106","Temporarily Closed"
"myvue.com","https://www.myvue.com/cinema/croydon-purley-way/getting-here","Vue Croydon Purley Way","Valley Park Leisure Complex 21 Hesterman Way","Croydon","<MISSING>","CR0 4YA","GB","10025","<MISSING>","<MISSING>","51.37868","-0.12492","Temporarily Closed"
"myvue.com","https://www.myvue.com/cinema/cwmbran/getting-here","Vue Cwmbran","Glyndwr Road Cwmbran","Gwent","<MISSING>","NP44 1QS","GB","10067","<MISSING>","<MISSING>","51.65529","-3.01955","<MISSING>"
"myvue.com","https://www.myvue.com/cinema/dagenham/getting-here","Vue Dagenham","Dagenham Leisure Park Cook Road","Essex","<MISSING>","RM9 6UQ","GB","10044","<MISSING>","<MISSING>","51.53256","0.13581","Temporarily Closed"
"myvue.com","https://www.myvue.com/cinema/darlington/getting-here","Vue Darlington","DL1","Darlington","<MISSING>","DL1 5AD","GB","10090","<MISSING>","<MISSING>","54.5212689","-1.5495055","Temporarily Closed"
"myvue.com","https://www.myvue.com/cinema/doncaster/getting-here","Vue Doncaster","Doncaster Leisure Park Herten Way","Doncaster","<MISSING>","DN4 7NW","GB","10041","<MISSING>","<MISSING>","53.51548","-1.09941","Temporarily Closed"
"myvue.com","https://www.myvue.com/cinema/dublin/getting-here","Vue Dublin","Liffey Valley Shopping Centre Fonthill Road","Dublin","<MISSING>","22","GB","10011","<MISSING>","<MISSING>","53.3521","-6.3944","<MISSING>"
"myvue.com","https://www.myvue.com/cinema/eastleigh/getting-here","Vue Eastleigh","Swan Centre Wells Place","Eastleigh","<MISSING>","SO50 5SF","GB","10069","<MISSING>","<MISSING>","50.96678","-1.35387","Temporarily Closed"
"myvue.com","https://www.myvue.com/cinema/edinburgh-ocean-terminal/getting-here","Vue Edinburgh Ocean Terminal","Ocean Terminal, Ocean Drive Victoria Dock. Leith","Edinburgh","<MISSING>","EH6 6JJ","GB","10010","<MISSING>","<MISSING>","55.98144","-3.17697","Temporarily Closed"
"myvue.com","https://www.myvue.com/cinema/edinburgh-omni-centre/getting-here","Vue Edinburgh Omni Centre","Omni Leisure Building, Greenside Place 61/11 Leith Street","Edinburgh","<MISSING>","EH1 3AU","GB","10038","<MISSING>","<MISSING>","55.95703","-3.18502","Temporarily Closed"
"myvue.com","https://www.myvue.com/cinema/eltham/getting-here","Vue Eltham","174 Eltham High Street","Eltham","<MISSING>","SE9 1BJ","GB","10096","<MISSING>","<MISSING>","51.45071","0.05667","Temporarily Closed"
"myvue.com","https://www.myvue.com/cinema/exeter/getting-here","Vue Exeter","Summerland Gate Cheeke Street","Exeter","<MISSING>","EX1 2DD","GB","10059","<MISSING>","<MISSING>","50.7261","-3.5237","Temporarily Closed"
"myvue.com","https://www.myvue.com/cinema/farnborough/getting-here","Vue Farnborough","Kingsmead Shopping Centre Queensmead","Farnborough","<MISSING>","GU14 7SR","GB","10089","<MISSING>","<MISSING>","51.292463","-0.75448","Temporarily Closed"
"myvue.com","https://www.myvue.com/cinema/gateshead/getting-here","Vue Gateshead","Trinity Square","Gateshead Tyne and Wear","<MISSING>","NE8 1AG","GB","10088","<MISSING>","<MISSING>","54.9626999","-1.6022","Temporarily Closed"
"myvue.com","https://www.myvue.com/cinema/glasgow-fort/getting-here","Vue Glasgow Fort","Glasgow Fort Shopping Park Junction 10 M8","Glasgow","<MISSING>","G34 9DL","GB","10086","<MISSING>","<MISSING>","55.871338","-4.134936","Temporarily Closed"
"myvue.com","https://www.myvue.com/cinema/halifax/getting-here","Vue Halifax","6 Broad Street","Halifax","<MISSING>","HX1 1UX","GB","10076","<MISSING>","<MISSING>","53.724082","-1.862244","Temporarily Closed"
"myvue.com","https://www.myvue.com/cinema/hamilton/getting-here","Vue Hamilton","Palace Towers Palace Grounds Road","Hamilton","<MISSING>","ML3 6AD","GB","10003","<MISSING>","<MISSING>","55.77845","-4.02934","Temporarily Closed"
"myvue.com","https://www.myvue.com/cinema/harrow/getting-here","Vue Harrow","St George's Shopping & Leisure Centre St Anne's Road","London","<MISSING>","HA1 1HS","GB","10006","<MISSING>","<MISSING>","51.58145","-0.33882","Temporarily Closed"
"myvue.com","https://www.myvue.com/cinema/hartlepool/getting-here","Vue Hartlepool","The Lanyard Marina Way","Hartlepool","<MISSING>","TS24 0XS","GB","10035","<MISSING>","<MISSING>","54.68729","-1.20735","Temporarily Closed"
"myvue.com","https://www.myvue.com/cinema/hull-princes-quay/getting-here","Vue Hull","Princes Quay Shopping Centre Princess Quay","Hull","<MISSING>","HU1 2PQ","GB","10065","<MISSING>","<MISSING>","53.74212","-0.33917","Temporarily Closed"
"myvue.com","https://www.myvue.com/cinema/inverness/getting-here","Vue Inverness","Inverness Retail & Business Park Eastfield Way","Inverness","<MISSING>","IV2 7GD","GB","10049","<MISSING>","<MISSING>","57.48148","-4.17696","Temporarily Closed"
"myvue.com","https://www.myvue.com/cinema/lancaster/getting-here","Vue Lancaster","Church Street","Lancaster","<MISSING>","LA1 1LP","GB","10061","<MISSING>","<MISSING>","54.04942","-2.80012","Temporarily Closed"
"myvue.com","https://www.myvue.com/cinema/leamington-spa/getting-here","Vue Leamington Spa","Portland Place","Leamington Spa","<MISSING>","CV32 5ET","GB","10079","<MISSING>","<MISSING>","52.2890549","-1.5394059","Temporarily Closed"
"myvue.com","https://www.myvue.com/cinema/leeds-kirkstall-road/getting-here","Vue Kirkstall Road","Cardigan Fields Kirkstall Road","Leeds","<MISSING>","LS4 2DG","GB","10037","<MISSING>","<MISSING>","53.80438","-1.58334","Temporarily Closed"
"myvue.com","https://www.myvue.com/cinema/leeds-the-light/getting-here","Vue The Light","No. 22, The Light The Headrow","Leeds","<MISSING>","LS1 8TL","GB","10012","<MISSING>","<MISSING>","53.80006","-1.54564","Temporarily Closed"
"myvue.com","https://www.myvue.com/cinema/leicester/getting-here","Vue Leicester","Meridian Leisure Park Lubbesthorpe Way","Leicester","<MISSING>","LE19 1JZ","GB","10026","<MISSING>","<MISSING>","52.61442","-1.1868","Temporarily Closed"
"myvue.com","https://www.myvue.com/cinema/limerick/getting-here","Vue Limerick","7-9 Ennis Road Retail Park Ennis Road","Limerick","<MISSING>","V94 K240","GB","10095","<MISSING>","<MISSING>","52.668328","-8.659877","<MISSING>"
"myvue.com","https://www.myvue.com/cinema/livingston/getting-here","Vue Livingston","McArthur Glen Designer Outlet Almondvale Avenue","Livingston","<MISSING>","EH54 6QX","GB","10001","<MISSING>","<MISSING>","55.88248","-3.51984","Temporarily Closed"
"myvue.com","https://www.myvue.com/cinema/acton/getting-here","Vue Acton (Park Royal)","Royale Leisure Park Western Avenue","London","<MISSING>","W3 0PA","GB","10036","<MISSING>","<MISSING>","51.52571","-0.28137","<MISSING>"
"myvue.com","https://www.myvue.com/cinema/north-finchley/getting-here","Vue Finchley North","Great North Leisure Park Chaplin Square","London","<MISSING>","N12 0GL","GB","10022","<MISSING>","<MISSING>","51.60393","-0.17309","Temporarily Closed"
"myvue.com","https://www.myvue.com/cinema/finchley-road/getting-here","Vue Finchley Road (O2 Centre)","O2 Centre 255 Finchley Road","London","<MISSING>","NW3 6LU","GB","10031","<MISSING>","<MISSING>","51.547954","-0.181415","Temporarily Closed"
"myvue.com","https://www.myvue.com/cinema/fulham-broadway/getting-here","Vue Fulham Broadway","Fulham Broadway Retail Centre Fulham Road","London","<MISSING>","SW6 1BW","GB","10046","<MISSING>","<MISSING>","51.48055","-0.1944","Temporarily Closed"
"myvue.com","https://www.myvue.com/cinema/islington/getting-here","Vue Islington","Angel Central 36 Parkfield Street","Islington","<MISSING>","N1 0PS","GB","10032","<MISSING>","<MISSING>","51.53446","-0.10657","Temporarily Closed"
"myvue.com","https://www.myvue.com/cinema/piccadilly/getting-here","Vue Piccadilly","19 Lower Regent Street","London","<MISSING>","SW1Y 4LR","GB","10080","<MISSING>","<MISSING>","51.5084496","-0.13411","Temporarily Closed"
"myvue.com","https://www.myvue.com/cinema/shepherds-bush/getting-here","Vue Shepherd's Bush","West 12 Shopping Centre Shepherd's Bush Green","London","<MISSING>","W12 8PP","GB","10033","<MISSING>","<MISSING>","51.50376","-0.21877","Temporarily Closed"
"myvue.com","https://www.myvue.com/cinema/leicester-square/getting-here","Vue West End (Leicester Square)","3 Cranbourn Street Leicester Square","London","<MISSING>","WC2H 7AL","GB","10030","<MISSING>","<MISSING>","51.51152","-0.12953","Temporarily Closed"
"myvue.com","https://www.myvue.com/cinema/westfield/getting-here","Vue Westfield (Shepherds Bush)","Westfield London Ariel Way","London","<MISSING>","W12 7GF","GB","10072","<MISSING>","<MISSING>","51.507447","-0.220016","Temporarily Closed"
"myvue.com","https://www.myvue.com/cinema/westfield-stratford-city/getting-here","Vue Westfield Stratford","2 Stratford Place Stratford","London","<MISSING>","E20 1EJ","GB","10074","<MISSING>","<MISSING>","51.542872","-0.007671","Temporarily Closed"
"myvue.com","https://www.myvue.com/cinema/wood-green/getting-here","Vue Wood Green","Hollywood Green, 180 High Road Wood Green","London","<MISSING>","N22 6EJ","GB","10071","<MISSING>","<MISSING>","51.59696","-0.10866","Temporarily Closed"
"myvue.com","https://www.myvue.com/cinema/manchester-printworks/getting-here","Vue Manchester Printworks","The Printworks 27 Withy Grove","Manchester","<MISSING>","M4 2BS","GB","10091","<MISSING>","<MISSING>","53.4854422","-2.2401776","Temporarily Closed"
"myvue.com","https://www.myvue.com/cinema/manchester/getting-here","Vue Manchester Quayside","Vue Manchester Quayside MCUK The Quays","Salford","<MISSING>","M50 3AH","GB","10057","<MISSING>","<MISSING>","<MISSING>","<MISSING>","Temporarily Closed"
"myvue.com","https://www.myvue.com/cinema/merthyr-tydfil/getting-here","Vue Merthyr Tydfil","Merthyr Tydfil Leisure Village","Merthyr Tydfil","<MISSING>","CF48 1UT","GB","10066","<MISSING>","<MISSING>","51.74072","-3.37708","<MISSING>"
"myvue.com","https://www.myvue.com/cinema/newbury/getting-here","Vue Newbury","The Kennet Centre","Newbury","<MISSING>","RG14 5EN","GB","10070","<MISSING>","<MISSING>","51.40002","-1.32405","Temporarily Closed"
"myvue.com","https://www.myvue.com/cinema/newcastle-under-lyme/getting-here","Vue Newcastle Under Lyme","The Square, Market Arcade High Street","Newcastle-under-Lyme","<MISSING>","ST5 1PT","GB","10053","<MISSING>","<MISSING>","53.00948","-2.22575","Temporarily Closed"
"myvue.com","https://www.myvue.com/cinema/northampton/getting-here","Vue Northampton","Sol Central Doddridge Street","Northampton","<MISSING>","NN1 2RN","GB","10005","<MISSING>","<MISSING>","52.23794","-0.90266","Temporarily Closed"
"myvue.com","https://www.myvue.com/cinema/norwich/getting-here","Vue Norwich","Castle Mall","Norwich","<MISSING>","NR1 3DF","GB","10014","<MISSING>","<MISSING>","52.62664","1.29592","Temporarily Closed"
"myvue.com","https://www.myvue.com/cinema/oxford/getting-here","Vue Oxford","Ozone Leisure Park Grenoble Road","Oxford","<MISSING>","OX4 4XP","GB","10008","<MISSING>","<MISSING>","51.71592","-1.20806","Temporarily Closed"
"myvue.com","https://www.myvue.com/cinema/plymouth/getting-here","Vue Plymouth","Barbican Leisure Park Shapters Road","Plymouth","<MISSING>","PL4 0LG","GB","10027","<MISSING>","<MISSING>","50.36705","-4.12537","Temporarily Closed"
"myvue.com","https://www.myvue.com/cinema/portsmouth/getting-here","Vue Portsmouth","Gunwharf Quays","Portsmouth","<MISSING>","PO1 3TA","GB","10021","<MISSING>","<MISSING>","50.79453","-1.10397","<MISSING>"
"myvue.com","https://www.myvue.com/cinema/preston/getting-here","Vue Preston","The Capitol Centre, London Way Walton-Le-Dale","Preston","<MISSING>","PR5 4AW","GB","10043","<MISSING>","<MISSING>","53.74874","-2.67922","Temporarily Closed"
"myvue.com","https://www.myvue.com/cinema/reading/getting-here","Vue Reading","The Oracle Centre Off Mill Lane North","Reading","<MISSING>","RG1 2AG","GB","10020","<MISSING>","<MISSING>","51.45364","-0.9713","Temporarily Closed"
"myvue.com","https://www.myvue.com/cinema/redditch/getting-here","Vue Redditch","Unit 1 Leisure Level Kingfisher Centre","Redditch","<MISSING>","B97 4EQ","GB","10081","<MISSING>","<MISSING>","52.3060608","-1.9436513","Temporarily Closed"
"myvue.com","https://www.myvue.com/cinema/rhyl/getting-here","Vue Rhyl","The Village West Parade","Rhyl","<MISSING>","LL18 1HB","GB","10082","<MISSING>","<MISSING>","53.3216591","-3.4953051","<MISSING>"
"myvue.com","https://www.myvue.com/cinema/romford/getting-here","Vue Romford","1-15 The Brewery Romford","Essex","<MISSING>","RM1 1AU","GB","10013","<MISSING>","<MISSING>","51.57623","0.18058","Temporarily Closed"
"myvue.com","https://www.myvue.com/cinema/scunthorpe/getting-here","Vue Scunthorpe","1 Fenton Street","Scunthorpe","<MISSING>","DN15 6QX","GB","10050","<MISSING>","<MISSING>","53.59094","-0.64482","Temporarily Closed"
"myvue.com","https://www.myvue.com/cinema/sheffield/getting-here","Vue Sheffield","Meadowhall Centre","Sheffield","<MISSING>","S9 1EP","GB","10042","<MISSING>","<MISSING>","53.41306","-1.41246","Temporarily Closed"
"myvue.com","https://www.myvue.com/cinema/southport/getting-here","Vue Southport","Ocean Plaza Marine Drive","Southport","<MISSING>","PR8 1SQ","GB","10004","<MISSING>","<MISSING>","53.65409","-3.01146","Temporarily Closed"
"myvue.com","https://www.myvue.com/cinema/staines/getting-here","Vue Staines","Two Rivers Mustard Mill Road","Staines","<MISSING>","TW18 4BL","GB","10024","<MISSING>","<MISSING>","51.43433","-0.51236","Temporarily Closed"
"myvue.com","https://www.myvue.com/cinema/stirling/getting-here","Vue Stirling","Forthside Way","Stirling","<MISSING>","FK8 1QZ","GB","10064","<MISSING>","<MISSING>","56.11772","-3.93023","Temporarily Closed"
"myvue.com","https://www.myvue.com/cinema/stroud/getting-here","Vue Stroud","Merrywalks Centre 19-20 Merrywalks","Stroud","<MISSING>","GL5 1RY","GB","10083","<MISSING>","<MISSING>","51.7463951","-2.217932","Temporarily Closed"
"myvue.com","https://www.myvue.com/cinema/swansea/getting-here","Vue Swansea","Vue Swansea York Street","Swansea","<MISSING>","SA1 3LZ","GB","10058","<MISSING>","<MISSING>","51.61809","-3.93933","<MISSING>"
"myvue.com","https://www.myvue.com/cinema/thanet/getting-here","Vue Thanet (Westwood Cross)","Westwood Cross Thanet","Kent","<MISSING>","CT10 2BF","GB","10063","<MISSING>","<MISSING>","51.35695","1.39335","Temporarily Closed"
"myvue.com","https://www.myvue.com/cinema/thurrock/getting-here","Vue Thurrock","Lakeside Shopping Centre West Thurrock","Essex","<MISSING>","RM20 2ZW","GB","10045","<MISSING>","<MISSING>","<MISSING>","<MISSING>","Temporarily Closed"
"myvue.com","https://www.myvue.com/cinema/torbay/getting-here","Vue Torbay","The Esplanade","Paignton","<MISSING>","TQ4 6AG","GB","10084","<MISSING>","<MISSING>","50.4353027","-3.55932","Temporarily Closed"
"myvue.com","https://www.myvue.com/cinema/watford/getting-here","Vue Watford","Woodside Leisure Park North Orbital Road","Hertfordshire","<MISSING>","WD25 7JZ","GB","10023","<MISSING>","<MISSING>","51.69264","-0.39449","Temporarily Closed"
"myvue.com","https://www.myvue.com/cinema/worcester/getting-here","Vue Worcester","49 - 55 Friar Street","Worcester","<MISSING>","WR1 2NA","GB","10017","<MISSING>","<MISSING>","52.18938","-2.21859","Temporarily Closed"
"myvue.com","https://www.myvue.com/cinema/york/getting-here","Vue York","Clifton Moor Centre Stirling Road","York","<MISSING>","YO30 4XY","GB","10048","<MISSING>","<MISSING>","53.99051","-1.10202","Temporarily Closed"
