"locator_domain","location_name","street_address","city","state","zip","country_code","store_number","phone","location_type","latitude","longitude","hours_of_operation"
"https://www.biglots.com","Big Lots - Anniston","3124 Mcclellan Blvd","Anniston","AL","36201","US","<MISSING>","(256) 236-9480","<MISSING>","33.6891054351673","-85.82492306749384","Mo 09:00-21:00,Tu 09:00-21:00,We 09:00-21:00,Th 09:00-21:00,Fr 09:00-21:00,Sa 09:00-21:00,Su 09:00-20:00,"
"https://www.biglots.com","Big Lots - Athens","603 Us Hwy 72 W","Athens","AL","35611","US","<MISSING>","(256) 230-3601","<MISSING>","34.78838488748658","-86.9747841826491","Mo 09:00-21:00,Tu 09:00-21:00,We 09:00-21:00,Th 09:00-21:00,Fr 09:00-21:00,Sa 09:00-21:00,Su 09:00-20:00,"
"https://www.biglots.com","Big Lots - Auburn","1716 Opelika Rd","Auburn","AL","36830","US","<MISSING>","(334) 826-0050","<MISSING>","32.62447188371114","-85.44379127146198","Mo 09:00-21:00,Tu 09:00-21:00,We 09:00-21:00,Th 09:00-21:00,Fr 09:00-21:00,Sa 09:00-21:00,Su 09:00-20:00,"
"https://www.biglots.com","Big Lots - Bessemer","710 Academy Dr","Bessemer","AL","35022","US","<MISSING>","(205) 426-5513","<MISSING>","33.35874611106895","-86.99994507509115","Mo 09:00-21:00,Tu 09:00-21:00,We 09:00-21:00,Th 09:00-21:00,Fr 09:00-21:00,Sa 09:00-21:00,Su 09:00-20:00,"
"https://www.biglots.com","Big Lots - Birmingham: Trussville","5903 Trussville Crossing Pkwy","Birmingham","AL","35235","US","<MISSING>","(205) 655-6183","<MISSING>","33.6413199478034","-86.62984084662048","Mo 09:00-21:00,Tu 09:00-21:00,We 09:00-21:00,Th 09:00-21:00,Fr 09:00-21:00,Sa 09:00-21:00,Su 09:00-20:00,"
"https://www.biglots.com","Big Lots - Cullman","1619 Town Sq Sw","Cullman","AL","35055","US","<MISSING>","(256) 737-0267","<MISSING>","34.16181929385682","-86.83800083634952","Mo 09:00-21:00,Tu 09:00-21:00,We 09:00-21:00,Th 09:00-21:00,Fr 09:00-21:00,Sa 09:00-21:00,Su 09:00-20:00,"
"https://www.biglots.com","Big Lots - Decatur","1820 6th Ave Se","Decatur","AL","35601","US","<MISSING>","(256) 308-0490","<MISSING>","34.57784579727866","-86.97532731202006","Mo 09:00-21:00,Tu 09:00-21:00,We 09:00-21:00,Th 09:00-21:00,Fr 09:00-21:00,Sa 09:00-21:00,Su 09:00-20:00,"
"https://www.biglots.com","Big Lots - Dothan","2821 Montgomery Highway","Dothan","AL","36303","US","<MISSING>","(334) 792-4331","<MISSING>","31.24733924854824","-85.42368439468504","Mo 09:00-21:00,Tu 09:00-21:00,We 09:00-21:00,Th 09:00-21:00,Fr 09:00-21:00,Sa 09:00-21:00,Su 09:00-20:00,"
"https://www.biglots.com","Big Lots - Enterprise","630 Boll Weevil Cir","Enterprise","AL","36330","US","<MISSING>","(334) 308-2727","<MISSING>","31.318551203640084","-85.82865014843856","Mo 09:00-21:00,Tu 09:00-21:00,We 09:00-21:00,Th 09:00-21:00,Fr 09:00-21:00,Sa 09:00-21:00,Su 10:00-20:00,"
"https://www.biglots.com","Big Lots - Florence","1700 Darby Dr","Florence","AL","35630","US","<MISSING>","(256) 764-8704","<MISSING>","34.82184750157013","-87.65398823363239","Mo 09:00-21:00,Tu 09:00-21:00,We 09:00-21:00,Th 09:00-21:00,Fr 09:00-21:00,Sa 09:00-21:00,Su 09:00-20:00,"
"https://www.biglots.com","Big Lots - Foley","3161 South Mckenzie St","Foley","AL","36535","US","<MISSING>","(251) 943-8762","<MISSING>","30.36781241831797","-87.68012895362921","Mo 09:00-21:00,Tu 09:00-21:00,We 09:00-21:00,Th 09:00-21:00,Fr 09:00-21:00,Sa 09:00-21:00,Su 09:00-20:00,"
"https://www.biglots.com","Big Lots - Fort Payne","110 Dekalb Plaza Blvd Sw","Fort Payne","AL","35967","US","<MISSING>","(256) 845-8186","<MISSING>","34.43101812030771","-85.73372142942418","Mo 09:00-21:00,Tu 09:00-21:00,We 09:00-21:00,Th 09:00-21:00,Fr 09:00-21:00,Sa 09:00-21:00,Su 09:00-20:00,"
"https://www.biglots.com","Big Lots - Guntersville","14228 Us Highway 431","Guntersville","AL","35976","US","<MISSING>","(256) 571-0280","<MISSING>","34.322085836274645","-86.31048727485143","Mo 09:00-21:00,Tu 09:00-21:00,We 09:00-21:00,Th 09:00-21:00,Fr 09:00-21:00,Sa 09:00-21:00,Su 09:00-20:00,"
"https://www.biglots.com","Big Lots - Homewood","142 Green Springs Hwy","Homewood","AL","35209","US","<MISSING>","(205) 941-1278","<MISSING>","33.46768278291537","-86.82530414185095","Mo 09:00-21:00,Tu 09:00-21:00,We 09:00-21:00,Th 09:00-21:00,Fr 09:00-21:00,Sa 09:00-21:00,Su 09:00-20:00,"
"https://www.biglots.com","Big Lots - Hoover","1773 Montgomery Hwy","Hoover","AL","35244","US","<MISSING>","(205) 666-0941","<MISSING>","33.37982821989476","-86.8023418024294","Mo 09:00-21:00,Tu 09:00-21:00,We 09:00-21:00,Th 09:00-21:00,Fr 09:00-21:00,Sa 09:00-21:00,Su 09:00-20:00,"
"https://www.biglots.com","Big Lots - Huntsville","3240 Memorial Pkwy Nw","Huntsville","AL","35810","US","<MISSING>","(256) 852-3506","<MISSING>","34.76769238221416","-86.58519997943245","Mo 09:00-21:00,Tu 09:00-21:00,We 09:00-21:00,Th 09:00-21:00,Fr 09:00-21:00,Sa 09:00-21:00,Su 09:00-20:00,"
"https://www.biglots.com","Big Lots - Huntsville: Northwest Westside Centre","6275 University Dr Nw","Huntsville","AL","35806","US","<MISSING>","(256) 922-8590","<MISSING>","34.744058594260935","-86.68055828590195","Mo 09:00-21:00,Tu 09:00-21:00,We 09:00-21:00,Th 09:00-21:00,Fr 09:00-21:00,Sa 09:00-21:00,Su 09:00-20:00,"
"https://www.biglots.com","Big Lots - Jasper","1100 Hwy 78 W","Jasper","AL","35501","US","<MISSING>","(205) 221-9711","<MISSING>","33.849700598329775","-87.28822709479988","Mo 09:00-21:00,Tu 09:00-21:00,We 09:00-21:00,Th 09:00-21:00,Fr 09:00-21:00,Sa 09:00-21:00,Su 09:00-20:00,"
"https://www.biglots.com","Big Lots - Mobile","3250 Airport Blvd","Mobile","AL","36606","US","<MISSING>","(251) 476-1820","<MISSING>","30.677885180569664","-88.12180790674591","Mo 09:00-21:00,Tu 09:00-21:00,We 09:00-21:00,Th 09:00-21:00,Fr 09:00-21:00,Sa 09:00-21:00,Su 10:00-20:00,"
"https://www.biglots.com","Big Lots - Tillmans Corner","5363 Hwy 90 W","Mobile","AL","36619","US","<MISSING>","(251) 660-0770","<MISSING>","30.59411638291425","-88.16720566501237","Mo 09:00-21:00,Tu 09:00-21:00,We 09:00-21:00,Th 09:00-21:00,Fr 09:00-21:00,Sa 09:00-21:00,Su 10:00-20:00,"
"https://www.biglots.com","Big Lots - Montgomery","5484 Atlanta Hwy","Montgomery","AL","36109","US","<MISSING>","(334) 409-1013","<MISSING>","32.380120171318374","-86.21174658531953","Mo 09:00-21:00,Tu 09:00-21:00,We 09:00-21:00,Th 09:00-21:00,Fr 09:00-21:00,Sa 09:00-21:00,Su 09:00-20:00,"
"https://www.biglots.com","Big Lots - Northport","5510 Mcfarland Blvd","Northport","AL","35476","US","<MISSING>","(205) 333-0096","<MISSING>","33.23774295732039","-87.60942928829161","Mo 09:00-21:00,Tu 09:00-21:00,We 09:00-21:00,Th 09:00-21:00,Fr 09:00-21:00,Sa 09:00-21:00,Su 09:00-20:00,"
"https://www.biglots.com","Big Lots - Pelham","3550 Pelham Pkwy","Pelham","AL","35124","US","<MISSING>","(205) 620-5051","<MISSING>","33.26489119456114","-86.81253063794315","Mo 09:00-21:00,Tu 09:00-21:00,We 09:00-21:00,Th 09:00-21:00,Fr 09:00-21:00,Sa 09:00-21:00,Su 09:00-20:00,"
"https://www.biglots.com","Big Lots - Phenix City","1109 280 Byp","Phenix City","AL","36867","US","<MISSING>","(334) 291-5325","<MISSING>","32.46723601351695","-85.02946517302325","Mo 09:00-21:00,Tu 09:00-21:00,We 09:00-21:00,Th 09:00-21:00,Fr 09:00-21:00,Sa 09:00-21:00,Su 09:00-20:00,"
"https://www.biglots.com","Big Lots - Prattville","1957 Cobbs Ford Rd.","Prattville","AL","36066","US","<MISSING>","(334) 358-9460","<MISSING>","32.46152694537097","-86.4129884474678","Mo 09:00-21:00,Tu 09:00-21:00,We 09:00-21:00,Th 09:00-21:00,Fr 09:00-21:00,Sa 09:00-21:00,Su 09:00-20:00,"
"https://www.biglots.com","Big Lots - Rainbow City","3225 Rainbow Dr","Rainbow City","AL","35906","US","<MISSING>","(256) 459-2355","<MISSING>","33.96167886568998","-86.03585106663508","Mo 09:00-21:00,Tu 09:00-21:00,We 09:00-21:00,Th 09:00-21:00,Fr 09:00-21:00,Sa 09:00-21:00,Su 09:00-20:00,"
"https://www.biglots.com","Big Lots - Saraland","8 Saraland Blvd S","Saraland","AL","36571","US","<MISSING>","(251) 679-4080","<MISSING>","30.821814012762154","-88.06876141840269","Mo 09:00-21:00,Tu 09:00-21:00,We 09:00-21:00,Th 09:00-21:00,Fr 09:00-21:00,Sa 09:00-21:00,Su 12:00-20:00,"
"https://www.biglots.com","Big Lots - Sylacauga","1391 W Fort Williams St","Sylacauga","AL","35150","US","<MISSING>","(256) 249-2681","<MISSING>","33.16326864692105","-86.27297516128283","Mo 09:00-21:00,Tu 09:00-21:00,We 09:00-21:00,Th 09:00-21:00,Fr 09:00-21:00,Sa 09:00-21:00,Su 09:00-20:00,"
"https://www.biglots.com","Big Lots - Benton","1426 Military Plaza","Benton","AR","72015","US","<MISSING>","(501) 776-4056","<MISSING>","34.57916748913071","-92.57656810274898","Mo 09:00-21:00,Tu 09:00-21:00,We 09:00-21:00,Th 09:00-21:00,Fr 09:00-21:00,Sa 09:00-21:00,Su 10:00-20:00,"
"https://www.biglots.com","Big Lots - Conway","150 E Oak St","Conway","AR","72032","US","<MISSING>","(501) 327-1875","<MISSING>","35.09275207040809","-92.42726879073723","Mo 09:00-21:00,Tu 09:00-21:00,We 09:00-21:00,Th 09:00-21:00,Fr 09:00-21:00,Sa 09:00-21:00,Su 10:00-20:00,"
"https://www.biglots.com","Big Lots - Fayetteville","2999 N College Ave","Fayetteville","AR","72703","US","<MISSING>","(479) 444-1443","<MISSING>","36.10643698945608","-94.14908414436388","Mo 09:00-21:00,Tu 09:00-21:00,We 09:00-21:00,Th 09:00-21:00,Fr 09:00-21:00,Sa 09:00-21:00,Su 10:00-20:00,"
"https://www.biglots.com","Big Lots - Fort Smith","4900 Rogers Ave","Fort Smith","AR","72903","US","<MISSING>","(479) 484-1015","<MISSING>","35.36481203298534","-94.37881222771682","Mo 09:00-21:00,Tu 09:00-21:00,We 09:00-21:00,Th 09:00-21:00,Fr 09:00-21:00,Sa 09:00-21:00,Su 10:00-20:00,"
"https://www.biglots.com","Big Lots - Harrison","617 Hwy 62 65 N","Harrison","AR","72601","US","<MISSING>","(870) 743-1860","<MISSING>","36.2494428034436","-93.115164","Mo 09:00-21:00,Tu 09:00-21:00,We 09:00-21:00,Th 09:00-21:00,Fr 09:00-21:00,Sa 09:00-21:00,Su 10:00-20:00,"
"https://www.biglots.com","Big Lots - Hot Springs","207 Airport Rd","Hot Springs National Park","AR","71913","US","<MISSING>","(501) 318-0956","<MISSING>","34.48947153417008","-93.08648361260691","Mo 09:00-21:00,Tu 09:00-21:00,We 09:00-21:00,Th 09:00-21:00,Fr 09:00-21:00,Sa 09:00-21:00,Su 10:00-20:00,"
"https://www.biglots.com","Big Lots - Jonesboro","1907 Woodsprings Rd","Jonesboro","AR","72401","US","<MISSING>","(870) 931-1163","<MISSING>","35.81686876478017","-90.73051890381925","Mo 09:00-21:00,Tu 09:00-21:00,We 09:00-21:00,Th 09:00-21:00,Fr 09:00-21:00,Sa 09:00-21:00,Su 09:00-20:00,"
"https://www.biglots.com","Big Lots - Little Rock","5820 Asher Ave","Little Rock","AR","72204","US","<MISSING>","(501) 568-2843","<MISSING>","34.71922877646721","-92.34133894983336","Mo 09:00-20:00,Tu 09:00-20:00,We 09:00-20:00,Th 09:00-20:00,Fr 09:00-20:00,Sa 09:00-20:00,Su 10:00-20:00,"
"https://www.biglots.com","Big Lots - Mountain Home","759 Hwy 62 E","Mountain Home","AR","72653","US","<MISSING>","(870) 425-3017","<MISSING>","36.34949059439399","-92.37628652132821","Mo 09:00-21:00,Tu 09:00-21:00,We 09:00-21:00,Th 09:00-21:00,Fr 09:00-21:00,Sa 09:00-21:00,Su 10:00-20:00,"
"https://www.biglots.com","Big Lots - North Little Rock","4213 E. Mccain Boulevard","North Little Rock","AR","72117","US","<MISSING>","(501) 945-1600","<MISSING>","34.79124663119486","-92.22229124662704","Mo 09:00-21:00,Tu 09:00-21:00,We 09:00-21:00,Th 09:00-21:00,Fr 09:00-21:00,Sa 09:00-21:00,Su 10:00-20:00,"
"https://www.biglots.com","Big Lots - Searcy","103 N Poplar St","Searcy","AR","72143","US","<MISSING>","(501) 368-0712","<MISSING>","35.247204263863104","-91.69288969203069","Mo 09:00-21:00,Tu 09:00-21:00,We 09:00-21:00,Th 09:00-21:00,Fr 09:00-21:00,Sa 09:00-21:00,Su 10:00-20:00,"
"https://www.biglots.com","Big Lots - Apache Junction","10603 E Apache Trail","Apache Junction","AZ","85120","US","<MISSING>","(480) 984-7161","<MISSING>","33.41326723054113","-111.60219319842724","Mo 09:00-21:00,Tu 09:00-21:00,We 09:00-21:00,Th 09:00-21:00,Fr 09:00-21:00,Sa 09:00-21:00,Su 09:00-20:00,"
"https://www.biglots.com","Big Lots - Bullhead City","2350 Miracle Mile","Bullhead City","AZ","86442","US","<MISSING>","(928) 704-1818","<MISSING>","35.1018243","-114.5955406","Mo 09:00-21:00,Tu 09:00-21:00,We 09:00-21:00,Th 09:00-21:00,Fr 09:00-21:00,Sa 09:00-21:00,Su 09:00-20:00,"
"https://www.biglots.com","Big Lots - Casa Grande","1346 E Florence Blvd","Casa Grande","AZ","85122","US","<MISSING>","(520) 316-0535","<MISSING>","32.88093711846275","-111.72871616544023","Mo 09:00-21:00,Tu 09:00-21:00,We 09:00-21:00,Th 09:00-21:00,Fr 09:00-21:00,Sa 09:00-21:00,Su 09:00-20:00,"
"https://www.biglots.com","Big Lots - Chandler","1988 N Alma School Rd","Chandler","AZ","85224","US","<MISSING>","(480) 786-8151","<MISSING>","33.334065880003486","-111.86082905276874","Mo 09:00-21:00,Tu 09:00-21:00,We 09:00-21:00,Th 09:00-21:00,Fr 09:00-21:00,Sa 09:00-21:00,Su 09:00-20:00,"
"https://www.biglots.com","Big Lots - Flagstaff","2560 E 7th Ave","Flagstaff","AZ","86004","US","<MISSING>","(928) 526-9118","<MISSING>","35.21350312634861","-111.61224041775006","Mo 09:00-21:00,Tu 09:00-21:00,We 09:00-21:00,Th 09:00-21:00,Fr 09:00-21:00,Sa 09:00-21:00,Su 09:00-20:00,"
"https://www.biglots.com","Big Lots - Gilbert","2817 S. Market St.","Gilbert","AZ","85295","US","<MISSING>","(480) 726-0370","<MISSING>","33.29831878119698","-111.74231720485255","Mo 09:00-21:00,Tu 09:00-21:00,We 09:00-21:00,Th 09:00-21:00,Fr 09:00-21:00,Sa 09:00-21:00,Su 09:00-20:00,"
"https://www.biglots.com","Big Lots - Glendale","17510 N 75th Ave","Glendale","AZ","85308","US","<MISSING>","(623) 334-8983","<MISSING>","33.64116131754658","-112.22093340105693","Mo 09:00-21:00,Tu 09:00-21:00,We 09:00-21:00,Th 09:00-21:00,Fr 09:00-21:00,Sa 09:00-21:00,Su 09:00-20:00,"
"https://www.biglots.com","Big Lots - Glendale: Cactus Crossings","6660 W Cactus Rd","Glendale","AZ","85304","US","<MISSING>","(623) 979-0509","<MISSING>","33.5976321955934","-112.20155729572787","Mo 09:00-21:00,Tu 09:00-21:00,We 09:00-21:00,Th 09:00-21:00,Fr 09:00-21:00,Sa 09:00-21:00,Su 09:00-20:00,"
"https://www.biglots.com","Big Lots - Goodyear","409 N Litchfield Rd","Goodyear","AZ","85338","US","<MISSING>","(623) 882-3282","<MISSING>","33.45115255525544","-112.35666369670076","Mo 09:00-21:00,Tu 09:00-21:00,We 09:00-21:00,Th 09:00-21:00,Fr 09:00-21:00,Sa 09:00-21:00,Su 09:00-20:00,"
"https://www.biglots.com","Big Lots - Sahuarita","18705 S I-19 Frontage Rd","Green Valley","AZ","85614","US","<MISSING>","(520) 625-2876","<MISSING>","31.910252723943103","-110.98313433366047","Mo 09:00-21:00,Tu 09:00-21:00,We 09:00-21:00,Th 09:00-21:00,Fr 09:00-21:00,Sa 09:00-21:00,Su 09:00-20:00,"
"https://www.biglots.com","Big Lots - Kingman","3320 N Stockton Hills Rd","Kingman","AZ","86409","US","<MISSING>","(928) 757-5440","<MISSING>","35.22068167877685","-114.03300656744074","Mo 09:00-21:00,Tu 09:00-21:00,We 09:00-21:00,Th 09:00-21:00,Fr 09:00-21:00,Sa 09:00-21:00,Su 09:00-20:00,"
"https://www.biglots.com","Big Lots - Lake Havasu City","1799 Kiowa Ave","Lake Havasu City","AZ","86403","US","<MISSING>","(928) 453-4967","<MISSING>","34.50519060341346","-114.35147529525563","Mo 09:00-21:00,Tu 09:00-21:00,We 09:00-21:00,Th 09:00-21:00,Fr 09:00-21:00,Sa 09:00-21:00,Su 09:00-20:00,"
"https://www.biglots.com","Big Lots - Laveen","3630 W. Baseline Rd.","Laveen","AZ","85339","US","<MISSING>","(602) 237-1943","<MISSING>","33.37877848577682","-112.13750114265241","Mo 09:00-21:00,Tu 09:00-21:00,We 09:00-21:00,Th 09:00-21:00,Fr 09:00-21:00,Sa 09:00-21:00,Su 09:00-20:00,"
"https://www.biglots.com","Big Lots - Mesa: Fiesta","1110 W Southern Ave","Mesa","AZ","85210","US","<MISSING>","(480) 461-9645","<MISSING>","33.39455525238628","-111.85610117067887","Mo 09:00-21:00,Tu 09:00-21:00,We 09:00-21:00,Th 09:00-21:00,Fr 09:00-21:00,Sa 09:00-21:00,Su 09:00-20:00,"
"https://www.biglots.com","Big Lots - Mesa","2840 E Main St.,","Mesa","AZ","85213","US","<MISSING>","(480) 401-0809","<MISSING>","33.41692259890697","-111.76983732591316","Mo 09:00-21:00,Tu 09:00-21:00,We 09:00-21:00,Th 09:00-21:00,Fr 09:00-21:00,Sa 09:00-21:00,Su 09:00-20:00,"
"https://www.biglots.com","Big Lots - East Mesa: Sunvalley Square","6839 E Main St","Mesa","AZ","85207","US","<MISSING>","(480) 832-6697","<MISSING>","33.41377794396879","-111.68319538832588","Mo 09:00-21:00,Tu 09:00-21:00,We 09:00-21:00,Th 09:00-21:00,Fr 09:00-21:00,Sa 09:00-21:00,Su 09:00-20:00,"
"https://www.biglots.com","Big Lots - Oro Valley","11955 N. Oracle Rd.","Oro Valley","AZ","85737","US","<MISSING>","(520) 219-6881","<MISSING>","32.423218726036865","-110.93793935903562","Mo 09:00-21:00,Tu 09:00-21:00,We 09:00-21:00,Th 09:00-21:00,Fr 09:00-21:00,Sa 09:00-21:00,Su 09:00-20:00,"
"https://www.biglots.com","Big Lots - Payson","400 E State Hwy 260","Payson","AZ","85541","US","<MISSING>","(928) 468-9764","<MISSING>","34.242152356036726","-111.31788008989889","Mo 09:00-21:00,Tu 09:00-21:00,We 09:00-21:00,Th 09:00-21:00,Fr 09:00-21:00,Sa 09:00-21:00,Su 09:00-20:00,"
"https://www.biglots.com","Big Lots - Phoenix","2020 N 75th Ave","Phoenix","AZ","85035","US","<MISSING>","(623) 247-4264","<MISSING>","33.46843838216844","-112.22310039942045","Mo 09:00-21:00,Tu 09:00-21:00,We 09:00-21:00,Th 09:00-21:00,Fr 09:00-21:00,Sa 09:00-21:00,Su 09:00-20:00,"
"https://www.biglots.com","Big Lots - North Phoenix","230 E. Bell Rd.","Phoenix","AZ","85022","US","<MISSING>","(602) 863-4900","<MISSING>","33.641711349175814","-112.07029442110377","Mo 09:00-21:00,Tu 09:00-21:00,We 09:00-21:00,Th 09:00-21:00,Fr 09:00-21:00,Sa 09:00-21:00,Su 09:00-20:00,"
"https://www.biglots.com","Big Lots - Phoenix","2330 W Bethany Home Rd","Phoenix","AZ","85015","US","<MISSING>","(602) 242-4728","<MISSING>","33.52522799567105","-112.1096294098702","Mo 09:00-21:00,Tu 09:00-21:00,We 09:00-21:00,Th 09:00-21:00,Fr 09:00-21:00,Sa 09:00-21:00,Su 09:00-20:00,"
"https://www.biglots.com","Big Lots - Phoenix: North Mountain","3543 W Thunderbird Rd","Phoenix","AZ","85053","US","<MISSING>","(602) 843-5378","<MISSING>","33.60987118440558","-112.13556528661445","Mo 09:00-21:00,Tu 09:00-21:00,We 09:00-21:00,Th 09:00-21:00,Fr 09:00-21:00,Sa 09:00-21:00,Su 09:00-20:00,"
"https://www.biglots.com","Big Lots - Northeast Phoenix","4727 East Bell Rd.","Phoenix","AZ","85032","US","<MISSING>","(602) 404-9938","<MISSING>","33.63838826753623","-111.9792577050041","Mo 09:00-21:00,Tu 09:00-21:00,We 09:00-21:00,Th 09:00-21:00,Fr 09:00-21:00,Sa 09:00-21:00,Su 09:00-20:00,"
"https://www.biglots.com","Big Lots - Scottsdale","10220 N 90th St","Scottsdale","AZ","85258","US","<MISSING>","(480) 451-2693","<MISSING>","33.578911061827","-111.88888979447125","Mo 09:00-21:00,Tu 09:00-21:00,We 09:00-21:00,Th 09:00-21:00,Fr 09:00-21:00,Sa 09:00-21:00,Su 09:00-20:00,"
"https://www.biglots.com","Big Lots - Show Low","4421 S White Mountain Rd","Show Low","AZ","85901","US","<MISSING>","(928) 532-0654","<MISSING>","34.21172870840204","-110.02362093155551","Mo 09:00-21:00,Tu 09:00-21:00,We 09:00-21:00,Th 09:00-21:00,Fr 09:00-21:00,Sa 09:00-21:00,Su 09:00-20:00,"
"https://www.biglots.com","Big Lots - Sierra Vista","135 S Highway 92","Sierra Vista","AZ","85635","US","<MISSING>","(520) 458-3200","<MISSING>","31.552876694484972","-110.2555724421374","Mo 09:00-21:00,Tu 09:00-21:00,We 09:00-21:00,Th 09:00-21:00,Fr 09:00-21:00,Sa 09:00-21:00,Su 09:00-20:00,"
"https://www.biglots.com","Big Lots - Surprise","14537 W Grand Ave","Surprise","AZ","85374","US","<MISSING>","(623) 214-0754","<MISSING>","33.654431781794344","-112.37374787655472","Mo 09:00-21:00,Tu 09:00-21:00,We 09:00-21:00,Th 09:00-21:00,Fr 09:00-21:00,Sa 09:00-21:00,Su 09:00-20:00,"
"https://www.biglots.com","Big Lots - Tempe: Baseline","940 E Baseline Rd","Tempe","AZ","85283","US","<MISSING>","(480) 491-2202","<MISSING>","33.379131282263934","-111.92594684293954","Mo 09:00-21:00,Tu 09:00-21:00,We 09:00-21:00,Th 09:00-21:00,Fr 09:00-21:00,Sa 09:00-21:00,Su 09:00-20:00,"
"https://www.biglots.com","Big Lots - Northeast Tucson","7025 E Tanque Verde Rd","Tucson","AZ","85715","US","<MISSING>","(520) 296-9005","<MISSING>","32.252229831338276","-110.84262282222392","Mo 09:00-21:00,Tu 09:00-21:00,We 09:00-21:00,Th 09:00-21:00,Fr 09:00-21:00,Sa 09:00-21:00,Su 09:00-20:00,"
"https://www.biglots.com","Big Lots - Alhambra","2500 W Commonwealth Ave","Alhambra","CA","91803","US","<MISSING>","(626) 349-3437","<MISSING>","34.086192187739925","-118.15062396734209","Mo 09:00-21:00,Tu 09:00-21:00,We 09:00-21:00,Th 09:00-21:00,Fr 09:00-21:00,Sa 09:00-21:00,Su 09:00-20:00,"
"https://www.biglots.com","Big Lots - West Anaheim","1670 W Katella Ave","Anaheim","CA","92802","US","<MISSING>","(714) 534-6696","<MISSING>","33.801764669138976","-117.94015962055096","Mo 09:00-21:00,Tu 09:00-21:00,We 09:00-21:00,Th 09:00-21:00,Fr 09:00-21:00,Sa 09:00-21:00,Su 09:00-20:00,"
"https://www.biglots.com","Big Lots - Anaheim Hills","6336 E Santa Ana Canyon Rd","Anaheim","CA","92807","US","<MISSING>","(714) 637-7230","<MISSING>","33.8561466254822","-117.77094862956085","Mo 09:00-21:00,Tu 09:00-21:00,We 09:00-21:00,Th 09:00-21:00,Fr 09:00-21:00,Sa 09:00-21:00,Su 09:00-20:00,"
"https://www.biglots.com","Big Lots - Antioch","2521 Somersville Rd","Antioch","CA","94509","US","<MISSING>","(925) 779-1747","<MISSING>","37.99989641280691","-121.83893824859513","Mo 09:00-21:00,Tu 09:00-21:00,We 09:00-21:00,Th 09:00-21:00,Fr 09:00-21:00,Sa 09:00-21:00,Su 09:00-20:00,"
"https://www.biglots.com","Big Lots - Apple Valley","21640 Bear Valley Rd","Apple Valley","CA","92308","US","<MISSING>","(760) 961-0051","<MISSING>","34.472957490331794","-117.19119169814758","Mo 09:00-21:00,Tu 09:00-21:00,We 09:00-21:00,Th 09:00-21:00,Fr 09:00-21:00,Sa 09:00-21:00,Su 09:00-20:00,"
"https://www.biglots.com","Big Lots - Arcadia","610 Las Tunas Dr","Arcadia","CA","91007","US","<MISSING>","(626) 445-6956","<MISSING>","34.1067603232324","-118.05147541513662","Mo 09:00-21:00,Tu 09:00-21:00,We 09:00-21:00,Th 09:00-21:00,Fr 09:00-21:00,Sa 09:00-21:00,Su 09:00-20:00,"
"https://www.biglots.com","Big Lots - Bakersfield: Venola","4751 White Lane","Bakersfield","CA","93309","US","<MISSING>","(661) 834-1348","<MISSING>","35.316213172922765","-119.05476687886733","Mo 09:00-21:00,Tu 09:00-21:00,We 09:00-21:00,Th 09:00-21:00,Fr 09:00-21:00,Sa 09:00-21:00,Su 09:00-20:00,"
"https://www.biglots.com","Big Lots - Buena Park","8932 Valley View St","Buena Park","CA","90620","US","<MISSING>","(714) 821-1861","<MISSING>","33.832499475767385","-118.02696799164067","Mo 09:00-21:00,Tu 09:00-21:00,We 09:00-21:00,Th 09:00-21:00,Fr 09:00-21:00,Sa 09:00-21:00,Su 09:00-20:00,"
"https://www.biglots.com","Big Lots - Camarillo","353 Carmen Dr","Camarillo","CA","93010","US","<MISSING>","(805) 987-9801","<MISSING>","34.21946874532555","-119.05322988769063","Mo 09:00-21:00,Tu 09:00-21:00,We 09:00-21:00,Th 09:00-21:00,Fr 09:00-21:00,Sa 09:00-21:00,Su 09:00-20:00,"
"https://www.biglots.com","Big Lots - Campbell","1581 W Campbell Ave","Campbell","CA","95008","US","<MISSING>","(408) 379-1857","<MISSING>","37.28656591765071","-121.97796892261624","Mo 09:00-21:00,Tu 09:00-21:00,We 09:00-21:00,Th 09:00-21:00,Fr 09:00-21:00,Sa 09:00-21:00,Su 09:00-20:00,"
"https://www.biglots.com","Big Lots - Canoga Park","21910 Sherman Way","Canoga Park","CA","91303","US","<MISSING>","(818) 348-7288","<MISSING>","34.19998914845477","-118.60480639862391","Mo 09:00-21:00,Tu 09:00-21:00,We 09:00-21:00,Th 09:00-21:00,Fr 09:00-21:00,Sa 09:00-21:00,Su 09:00-20:00,"
"https://www.biglots.com","Big Lots - Cathedral City","69026 E Palm Canyon Dr","Cathedral City","CA","92234","US","<MISSING>","(760) 321-2968","<MISSING>","33.77935885255953","-116.45746817909577","Mo 09:00-21:00,Tu 09:00-21:00,We 09:00-21:00,Th 09:00-21:00,Fr 09:00-21:00,Sa 09:00-21:00,Su 09:00-20:00,"
"https://www.biglots.com","Big Lots - Chico","1927 E 20th St","Chico","CA","95928","US","<MISSING>","(530) 899-8240","<MISSING>","39.7256641508962","-121.80488773405926","Mo 09:00-21:00,Tu 09:00-21:00,We 09:00-21:00,Th 09:00-21:00,Fr 09:00-21:00,Sa 09:00-21:00,Su 09:00-20:00,"
"https://www.biglots.com","Big Lots - Clovis","1155 Shaw Ave","Clovis","CA","93612","US","<MISSING>","(559) 472-0774","<MISSING>","36.809998424869605","-119.69478062545261","Mo 09:00-21:00,Tu 09:00-21:00,We 09:00-21:00,Th 09:00-21:00,Fr 09:00-21:00,Sa 09:00-21:00,Su 09:00-20:00,"
"https://www.biglots.com","Big Lots - Folsom","9500 Greenback Ln","Folsom","CA","95630","US","<MISSING>","(916) 989-3126","<MISSING>","38.676731102810955","-121.19946797201402","Mo 09:00-21:00,Tu 09:00-21:00,We 09:00-21:00,Th 09:00-21:00,Fr 09:00-21:00,Sa 09:00-21:00,Su 09:00-20:00,"
"https://www.biglots.com","Big Lots - Fontana: Foothill Blvd","17575 Foothill Blvd","Fontana","CA","92335","US","<MISSING>","(909) 355-0763","<MISSING>","34.106032162580924","-117.42108581805076","Mo 09:00-21:00,Tu 09:00-21:00,We 09:00-21:00,Th 09:00-21:00,Fr 09:00-21:00,Sa 09:00-21:00,Su 09:00-20:00,"
"https://www.biglots.com","Big Lots - Gardena","2900 W Rosecrans Ave","Gardena","CA","90249","US","<MISSING>","(310) 538-8879","<MISSING>","33.901113416339875","-118.3255636093213","Mo 09:00-21:00,Tu 09:00-21:00,We 09:00-21:00,Th 09:00-21:00,Fr 09:00-21:00,Sa 09:00-21:00,Su 09:00-20:00,"
"https://www.biglots.com","Big Lots - Hercules","1551 Sycamore Ave","Hercules","CA","94547","US","<MISSING>","(510) 245-0103","<MISSING>","38.01095933496801","-122.27025802707414","Mo 09:00-21:00,Tu 09:00-21:00,We 09:00-21:00,Th 09:00-21:00,Fr 09:00-21:00,Sa 09:00-21:00,Su 09:00-20:00,"
"https://www.biglots.com","Big Lots - Highland","26545 Highland Ave","Highland","CA","92346","US","<MISSING>","(909) 862-2199","<MISSING>","34.13440756637749","-117.22447010043516","Mo 09:00-21:00,Tu 09:00-21:00,We 09:00-21:00,Th 09:00-21:00,Fr 09:00-21:00,Sa 09:00-21:00,Su 09:00-20:00,"
"https://www.biglots.com","Big Lots - North Huntington Beach","6911 Warner Ave","Huntington Beach","CA","92647","US","<MISSING>","(714) 841-0530","<MISSING>","33.716966088660435","-118.00790361749426","Mo 09:00-21:00,Tu 09:00-21:00,We 09:00-21:00,Th 09:00-21:00,Fr 09:00-21:00,Sa 09:00-21:00,Su 09:00-20:00,"
"https://www.biglots.com","Big Lots - Inglewood","3003 W Manchester Blvd","Inglewood","CA","90305","US","<MISSING>","(323) 751-3918","<MISSING>","33.96060564515964","-118.32563170700661","Mo 09:00-21:00,Tu 09:00-21:00,We 09:00-21:00,Th 09:00-21:00,Fr 09:00-21:00,Sa 09:00-21:00,Su 09:00-20:00,"
"https://www.biglots.com","Big Lots - La Canada","2243 Foothill Blvd","La Canada Flintridge","CA","91011","US","<MISSING>","(818) 248-5755","<MISSING>","34.21770076641701","-118.22671372481886","Mo 09:00-21:00,Tu 09:00-21:00,We 09:00-21:00,Th 09:00-21:00,Fr 09:00-21:00,Sa 09:00-21:00,Su 09:00-20:00,"
"https://www.biglots.com","Big Lots - La Habra","1020 W Imperial Hwy","La Habra","CA","90631","US","<MISSING>","(714) 447-9267","<MISSING>","33.91573158839548","-117.9580951207003","Mo 09:00-21:00,Tu 09:00-21:00,We 09:00-21:00,Th 09:00-21:00,Fr 09:00-21:00,Sa 09:00-21:00,Su 09:00-20:00,"
"https://www.biglots.com","Big Lots - La Mirada","13942 Imperial Hwy","La Mirada","CA","90638","US","<MISSING>","(562) 921-1171","<MISSING>","33.91638337667732","-118.03468558400937","Mo 09:00-21:00,Tu 09:00-21:00,We 09:00-21:00,Th 09:00-21:00,Fr 09:00-21:00,Sa 09:00-21:00,Su 09:00-20:00,"
"https://www.biglots.com","Big Lots - La Puente","785 N Hacienda Blvd","La Puente","CA","91744","US","<MISSING>","(626) 336-2629","<MISSING>","34.033622617297716","-117.95197237853893","Mo 09:00-21:00,Tu 09:00-21:00,We 09:00-21:00,Th 09:00-21:00,Fr 09:00-21:00,Sa 09:00-21:00,Su 09:00-20:00,"
"https://www.biglots.com","Big Lots - Lake Elsinore","32241 Mission Trl","Lake Elsinore","CA","92530","US","<MISSING>","(951) 674-2680","<MISSING>","33.655473997145116","-117.29890820320315","Mo 09:00-21:00,Tu 09:00-21:00,We 09:00-21:00,Th 09:00-21:00,Fr 09:00-21:00,Sa 09:00-21:00,Su 09:00-20:00,"
"https://www.biglots.com","Big Lots - Lakewood","5227 Lakewood Blvd","Lakewood","CA","90712","US","<MISSING>","(562) 529-7947","<MISSING>","33.85279434575936","-118.14320250789365","Mo 09:00-21:00,Tu 09:00-21:00,We 09:00-21:00,Th 09:00-21:00,Fr 09:00-21:00,Sa 09:00-21:00,Su 09:00-20:00,"
"https://www.biglots.com","Big Lots - Lancaster","1070 W Avenue K","Lancaster","CA","93534","US","<MISSING>","(661) 945-1881","<MISSING>","34.67329840690205","-118.15112008801037","Mo 09:00-21:00,Tu 09:00-21:00,We 09:00-21:00,Th 09:00-21:00,Fr 09:00-21:00,Sa 09:00-21:00,Su 09:00-20:00,"
"https://www.biglots.com","Big Lots - Livermore","4484 Las Positas Road","Livermore","CA","94551","US","<MISSING>","(925) 454-0318","<MISSING>","37.70111996314179","-121.74361694318543","Mo 09:00-21:00,Tu 09:00-21:00,We 09:00-21:00,Th 09:00-21:00,Fr 09:00-21:00,Sa 09:00-21:00,Su 09:00-20:00,"
"https://www.biglots.com","Big Lots - South Los Angeles","1815 W Slauson Ave","Los Angeles","CA","90047","US","<MISSING>","(323) 294-9725","<MISSING>","33.9894872602808","-118.30984729443651","Mo 09:00-21:00,Tu 09:00-21:00,We 09:00-21:00,Th 09:00-21:00,Fr 09:00-21:00,Sa 09:00-21:00,Su 09:00-20:00,"
"https://www.biglots.com","Big Lots - Merced","665 Fairfield Dr","Merced","CA","95348","US","<MISSING>","(209) 385-3113","<MISSING>","37.321755664270206","-120.4801257052855","Mo 09:00-21:00,Tu 09:00-21:00,We 09:00-21:00,Th 09:00-21:00,Fr 09:00-21:00,Sa 09:00-21:00,Su 09:00-20:00,"
"https://www.biglots.com","Big Lots - Milpitas","200 Serra Way","Milpitas","CA","95035","US","<MISSING>","(408) 946-9605","<MISSING>","37.42666303236718","-121.90903942091046","Mo 09:00-21:00,Tu 09:00-21:00,We 09:00-21:00,Th 09:00-21:00,Fr 09:00-21:00,Sa 09:00-21:00,Su 09:00-20:00,"
"https://www.biglots.com","Big Lots - Mission Viejo","27142 La Paz Rd","Mission Viejo","CA","92692","US","<MISSING>","(949) 380-1725","<MISSING>","33.59584506097513","-117.65667362439558","Mo 09:00-21:00,Tu 09:00-21:00,We 09:00-21:00,Th 09:00-21:00,Fr 09:00-21:00,Sa 09:00-21:00,Su 09:00-20:00,"
"https://www.biglots.com","Big Lots - Modesto","1717 Oakdale Rd","Modesto","CA","95355","US","<MISSING>","(209) 574-0218","<MISSING>","37.668193977590455","-120.95926060254453","Mo 09:00-21:00,Tu 09:00-21:00,We 09:00-21:00,Th 09:00-21:00,Fr 09:00-21:00,Sa 09:00-21:00,Su 09:00-20:00,"
"https://www.biglots.com","Big Lots - Montebello","1445 N Montebello Blvd","Montebello","CA","90640","US","<MISSING>","(323) 430-8481","<MISSING>","34.03435988862393","-118.09426506994055","Mo 09:00-21:00,Tu 09:00-21:00,We 09:00-21:00,Th 09:00-21:00,Fr 09:00-21:00,Sa 09:00-21:00,Su 09:00-20:00,"
"https://www.biglots.com","Big Lots - Murrieta","25260 Madison Ave","Murrieta","CA","92562","US","<MISSING>","(951) 698-1417","<MISSING>","33.55594812361219","-117.1963915980001","Mo 09:00-21:00,Tu 09:00-21:00,We 09:00-21:00,Th 09:00-21:00,Fr 09:00-21:00,Sa 09:00-21:00,Su 09:00-20:00,"
"https://www.biglots.com","Big Lots - National City","1410 E Plaza Blvd","National City","CA","91950","US","<MISSING>","(619) 477-4225","<MISSING>","32.674957891269905","-117.09202801644818","Mo 09:00-21:00,Tu 09:00-21:00,We 09:00-21:00,Th 09:00-21:00,Fr 09:00-21:00,Sa 09:00-21:00,Su 09:00-20:00,"
"https://www.biglots.com","Big Lots - North Highlands","3615 Elkhorn Blvd","North Highlands","CA","95660","US","<MISSING>","(916) 339-3913","<MISSING>","38.69163441581341","-121.38147777789248","Mo 09:00-21:00,Tu 09:00-21:00,We 09:00-21:00,Th 09:00-21:00,Fr 09:00-21:00,Sa 09:00-21:00,Su 09:00-20:00,"
"https://www.biglots.com","Big Lots - North Hollywood: Valley Glen","13005 Sherman Way","North Hollywood","CA","91605","US","<MISSING>","(818) 982-1687","<MISSING>","34.20265716291341","-118.41647671655062","Mo 09:00-21:00,Tu 09:00-21:00,We 09:00-21:00,Th 09:00-21:00,Fr 09:00-21:00,Sa 09:00-21:00,Su 09:00-20:00,"
"https://www.biglots.com","Big Lots - Oceanside","449 College Blvd","Oceanside","CA","92057","US","<MISSING>","(760) 945-8284","<MISSING>","33.24613333795586","-117.29339263676445","Mo 09:00-21:00,Tu 09:00-21:00,We 09:00-21:00,Th 09:00-21:00,Fr 09:00-21:00,Sa 09:00-21:00,Su 09:00-20:00,"
"https://www.biglots.com","Big Lots - Oroville","1875 Oro Dam Blvd E","Oroville","CA","95966","US","<MISSING>","(530) 532-9235","<MISSING>","39.50291909421154","-121.55032195337355","Mo 09:00-21:00,Tu 09:00-21:00,We 09:00-21:00,Th 09:00-21:00,Fr 09:00-21:00,Sa 09:00-21:00,Su 09:00-20:00,"
"https://www.biglots.com","Big Lots - Pasadena","1260 N Lake Ave","Pasadena","CA","91104","US","<MISSING>","(626) 794-7602","<MISSING>","34.16763746522221","-118.1319506093418","Mo 09:00-21:00,Tu 09:00-21:00,We 09:00-21:00,Th 09:00-21:00,Fr 09:00-21:00,Sa 09:00-21:00,Su 09:00-20:00,"
"https://www.biglots.com","Big Lots - Placentia","1257 E Yorba Linda Blvd","Placentia","CA","92870","US","<MISSING>","(714) 577-8784","<MISSING>","33.889658800557164","-117.84066760485257","Mo 09:00-21:00,Tu 09:00-21:00,We 09:00-21:00,Th 09:00-21:00,Fr 09:00-21:00,Sa 09:00-21:00,Su 09:00-20:00,"
"https://www.biglots.com","Big Lots - Redlands","810 Tri City Ctr","Redlands","CA","92374","US","<MISSING>","(909) 798-5985","<MISSING>","34.063862926321384","-117.20398659412399","Mo 09:00-21:00,Tu 09:00-21:00,We 09:00-21:00,Th 09:00-21:00,Fr 09:00-21:00,Sa 09:00-21:00,Su 09:00-20:00,"
"https://www.biglots.com","Big Lots - Redondo Beach","1207 Aviation Blvd","Redondo Beach","CA","90278","US","<MISSING>","(310) 374-4044","<MISSING>","33.86617478822945","-118.38676200657301","Mo 09:00-21:00,Tu 09:00-21:00,We 09:00-21:00,Th 09:00-21:00,Fr 09:00-21:00,Sa 09:00-21:00,Su 09:00-20:00,"
"https://www.biglots.com","Big Lots - Rialto","155 E Base Line Rd","Rialto","CA","92376","US","<MISSING>","(909) 875-1730","<MISSING>","34.120650428289665","-117.36923389155078","Mo 09:00-21:00,Tu 09:00-21:00,We 09:00-21:00,Th 09:00-21:00,Fr 09:00-21:00,Sa 09:00-21:00,Su 09:00-20:00,"
"https://www.biglots.com","Big Lots - Ridgecrest","840 N. China Lake Blvd","Ridgecrest","CA","93555","US","<MISSING>","(760) 375-1571","<MISSING>","35.635840968837556","-117.66808012279887","Mo 09:00-21:00,Tu 09:00-21:00,We 09:00-21:00,Th 09:00-21:00,Fr 09:00-21:00,Sa 09:00-21:00,Su 09:00-20:00,"
"https://www.biglots.com","Big Lots - Rohnert Park","565 Rohnert Park Expressway","Rohnert Park","CA","94928","US","<MISSING>","(707) 206-9770","<MISSING>","38.34667200100458","-122.7233937961634","Mo 09:00-21:00,Tu 09:00-21:00,We 09:00-21:00,Th 09:00-21:00,Fr 09:00-21:00,Sa 09:00-21:00,Su 09:00-20:00,"
"https://www.biglots.com","Big Lots - Salinas","335 E Alisal St","Salinas","CA","93901","US","<MISSING>","(831) 424-7076","<MISSING>","36.67530121452796","-121.64371105891286","Mo 09:00-21:00,Tu 09:00-21:00,We 09:00-21:00,Th 09:00-21:00,Fr 09:00-21:00,Sa 09:00-21:00,Su 09:00-20:00,"
"https://www.biglots.com","Big Lots - Salinas","370 Northridge Cir","Salinas","CA","93906","US","<MISSING>","(831) 754-7020","<MISSING>","36.71490533","-121.66031533","Mo 09:00-21:00,Tu 09:00-21:00,We 09:00-21:00,Th 09:00-21:00,Fr 09:00-21:00,Sa 09:00-21:00,Su 09:00-21:00,"
"https://www.biglots.com","Big Lots - San Bernardino","499 W Orange Show Rd","San Bernardino","CA","92408","US","<MISSING>","(909) 885-4546","<MISSING>","34.07840369442642","-117.2914829036153","Mo 09:00-21:00,Tu 09:00-21:00,We 09:00-21:00,Th 09:00-21:00,Fr 09:00-21:00,Sa 09:00-21:00,Su 09:00-20:00,"
"https://www.biglots.com","Big Lots - San Diego: Oak Park","1655 Euclid Ave","San Diego","CA","92105","US","<MISSING>","(619) 264-6644","<MISSING>","32.72244466751117","-117.08335720122341","Mo 09:00-21:00,Tu 09:00-21:00,We 09:00-21:00,Th 09:00-21:00,Fr 09:00-21:00,Sa 09:00-21:00,Su 09:00-20:00,"
"https://www.biglots.com","Big Lots - San Diego: Midway District","3705 Rosecrans St","San Diego","CA","92110","US","<MISSING>","(619) 260-0109","<MISSING>","32.751016302795925","-117.20350768704463","Mo 09:00-21:00,Tu 09:00-21:00,We 09:00-21:00,Th 09:00-21:00,Fr 09:00-21:00,Sa 09:00-21:00,Su 09:00-20:00,"
"https://www.biglots.com","Big Lots - San Diego: Clairemont","4829 Clairemont Dr","San Diego","CA","92117","US","<MISSING>","(858) 270-1606","<MISSING>","32.83114510599854","-117.20476022624086","Mo 09:00-21:00,Tu 09:00-21:00,We 09:00-21:00,Th 09:00-21:00,Fr 09:00-21:00,Sa 09:00-21:00,Su 09:00-20:00,"
"https://www.biglots.com","Big Lots - San Francisco","3333 Mission St","San Francisco","CA","94110","US","<MISSING>","(415) 648-5256","<MISSING>","37.74359895681941","-122.42090748507718","Mo 09:00-21:00,Tu 09:00-21:00,We 09:00-21:00,Th 09:00-21:00,Fr 09:00-21:00,Sa 09:00-21:00,Su 09:00-20:00,"
"https://www.biglots.com","Big Lots - San Jose: Cambrian Park","1832 Hillsdale Ave","San Jose","CA","95124","US","<MISSING>","(408) 267-7283","<MISSING>","37.261673624367305","-121.91866848435677","Mo 09:00-21:00,Tu 09:00-21:00,We 09:00-21:00,Th 09:00-21:00,Fr 09:00-21:00,Sa 09:00-21:00,Su 09:00-20:00,"
"https://www.biglots.com","Big Lots - San Pablo","2415 San Pablo Dam Rd,","San Pablo","CA","94806","US","<MISSING>","(510) 621-0035","<MISSING>","37.9558119376762","-122.33365317808341","Mo 09:00-21:00,Tu 09:00-21:00,We 09:00-21:00,Th 09:00-21:00,Fr 09:00-21:00,Sa 09:00-21:00,Su 09:00-20:00,"
"https://www.biglots.com","Big Lots - North Santa Ana","2727 N Grand Ave","Santa Ana","CA","92705","US","<MISSING>","(714) 633-0430","<MISSING>","33.77411321367703","-117.8518232392521","Mo 09:00-21:00,Tu 09:00-21:00,We 09:00-21:00,Th 09:00-21:00,Fr 09:00-21:00,Sa 09:00-21:00,Su 09:00-20:00,"
"https://www.biglots.com","Big Lots - Santa Ana","3321 S Bristol St","Santa Ana","CA","92704","US","<MISSING>","(714) 751-0346","<MISSING>","33.7021265078798","-117.88426239856904","Mo 08:00-21:00,Tu 08:00-21:00,We 08:00-21:00,Th 08:00-21:00,Fr 08:00-21:00,Sa 08:00-21:00,Su 08:00-20:00,"
"https://www.biglots.com","Big Lots - Santa Clara","3735 El Camino Real","Santa Clara","CA","95051","US","<MISSING>","(408) 247-0389","<MISSING>","37.35366692106178","-121.99871106026592","Mo 09:00-21:00,Tu 09:00-21:00,We 09:00-21:00,Th 09:00-21:00,Fr 09:00-21:00,Sa 09:00-21:00,Su 09:00-20:00,"
"https://www.biglots.com","Big Lots - Simi Valley","2495 Sycamore Dr","Simi Valley","CA","93065","US","<MISSING>","(805) 522-3754","<MISSING>","34.28068466661003","-118.74533398583822","Mo 09:00-21:00,Tu 09:00-21:00,We 09:00-21:00,Th 09:00-21:00,Fr 09:00-21:00,Sa 09:00-21:00,Su 09:00-20:00,"
"https://www.biglots.com","Big Lots - Sonora","1141 Sanguinetti Rd.","Sonora","CA","95370","US","<MISSING>","(209) 533-1810","<MISSING>","37.97204725393552","-120.36405463157189","Mo 09:00-21:00,Tu 09:00-21:00,We 09:00-21:00,Th 09:00-21:00,Fr 09:00-21:00,Sa 09:00-21:00,Su 09:00-20:00,"
"https://www.biglots.com","Big Lots - Spring Valley","633 Sweetwater Rd","Spring Valley","CA","91977","US","<MISSING>","(619) 466-4280","<MISSING>","32.708581563169076","-117.00989937282759","Mo 09:00-21:00,Tu 09:00-21:00,We 09:00-21:00,Th 09:00-21:00,Fr 09:00-21:00,Sa 09:00-21:00,Su 09:00-20:00,"
"https://www.biglots.com","Big Lots - Stockton: Lincoln Village","8001 West Ln","Stockton","CA","95210","US","<MISSING>","(209) 473-2823","<MISSING>","38.02215500647683","-121.29650906947825","Mo 09:00-21:00,Tu 09:00-21:00,We 09:00-21:00,Th 09:00-21:00,Fr 09:00-21:00,Sa 09:00-21:00,Su 09:00-20:00,"
"https://www.biglots.com","Big Lots - Sylmar","12717a Glenoaks Blvd","Sylmar","CA","91342","US","<MISSING>","(818) 367-8556","<MISSING>","34.30023202435247","-118.44262048959808","Mo 09:00-21:00,Tu 09:00-21:00,We 09:00-21:00,Th 09:00-21:00,Fr 09:00-21:00,Sa 09:00-21:00,Su 09:00-20:00,"
"https://www.biglots.com","Big Lots - Torrance: West Carson","955 Sepulveda Blvd","Torrance","CA","90502","US","<MISSING>","(310) 784-1888","<MISSING>","33.81177163749561","-118.29145987162883","Mo 08:00-21:00,Tu 08:00-21:00,We 08:00-21:00,Th 08:00-21:00,Fr 08:00-21:00,Sa 08:00-21:00,Su 08:00-20:00,"
"https://www.biglots.com","Big Lots - Tracy","2681 N Tracy Blvd","Tracy","CA","95376","US","<MISSING>","(209) 830-6312","<MISSING>","37.75605001488731","-121.43621825211488","Mo 09:00-21:00,Tu 09:00-21:00,We 09:00-21:00,Th 09:00-21:00,Fr 09:00-21:00,Sa 09:00-21:00,Su 09:00-20:00,"
"https://www.biglots.com","Big Lots - Tulare","1675 Hillman Street","Tulare","CA","93274","US","<MISSING>","(559) 684-7927","<MISSING>","36.228289722828876","-119.33286086533508","Mo 09:00-21:00,Tu 09:00-21:00,We 09:00-21:00,Th 09:00-21:00,Fr 09:00-21:00,Sa 09:00-21:00,Su 09:00-20:00,"
"https://www.biglots.com","Big Lots - Tustin","13852 Red Hill Ave","Tustin","CA","92780","US","<MISSING>","(714) 508-2196","<MISSING>","33.73418090241983","-117.8131046938658","Mo 09:00-21:00,Tu 09:00-21:00,We 09:00-21:00,Th 09:00-21:00,Fr 09:00-21:00,Sa 09:00-21:00,Su 09:00-20:00,"
"https://www.biglots.com","Big Lots - Ukiah","225 Orchard Plz","Ukiah","CA","95482","US","<MISSING>","(707) 467-1824","<MISSING>","39.14959911113657","-123.19754443431765","Mo 09:00-21:00,Tu 09:00-21:00,We 09:00-21:00,Th 09:00-21:00,Fr 09:00-21:00,Sa 09:00-21:00,Su 09:00-20:00,"
"https://www.biglots.com","Big Lots - Visalia","2525 S Mooney Blvd","Visalia","CA","93277","US","<MISSING>","(559) 739-7074","<MISSING>","36.30763486150396","-119.31565713456376","Mo 09:00-21:00,Tu 09:00-21:00,We 09:00-21:00,Th 09:00-21:00,Fr 09:00-21:00,Sa 09:00-21:00,Su 09:00-20:00,"
"https://www.biglots.com","Big Lots - West Covina","635 N Azusa Ave","West Covina","CA","91791","US","<MISSING>","(626) 339-7011","<MISSING>","34.082223024214585","-117.90932979013735","Mo 09:00-21:00,Tu 09:00-21:00,We 09:00-21:00,Th 09:00-21:00,Fr 09:00-21:00,Sa 09:00-21:00,Su 09:00-20:00,"
"https://www.biglots.com","Big Lots - South Whittier","13241 Whittier Blvd","Whittier","CA","90602","US","<MISSING>","(562) 693-0717","<MISSING>","33.96485199245493","-118.03368370190259","Mo 09:00-21:00,Tu 09:00-21:00,We 09:00-21:00,Th 09:00-21:00,Fr 09:00-21:00,Sa 09:00-21:00,Su 09:00-20:00,"
"https://www.biglots.com","Big Lots - Yucaipa","34601 Yucaipa Blvd","Yucaipa","CA","92399","US","<MISSING>","(909) 790-9844","<MISSING>","34.03320522339752","-117.0493392331515","Mo 09:00-21:00,Tu 09:00-21:00,We 09:00-21:00,Th 09:00-21:00,Fr 09:00-21:00,Sa 09:00-21:00,Su 09:00-20:00,"
"https://www.biglots.com","Big Lots - Yucca Valley","56865 29 Palms Hwy","Yucca Valley","CA","92284","US","<MISSING>","(760) 365-1459","<MISSING>","34.119289621426674","-116.42361468526929","Mo 09:00-21:00,Tu 09:00-21:00,We 09:00-21:00,Th 09:00-21:00,Fr 09:00-21:00,Sa 09:00-21:00,Su 09:00-20:00,"
"https://www.biglots.com","Big Lots - Aurora: Seville","15351 E Hampden Ave","Aurora","CO","80013","US","<MISSING>","(303) 680-0310","<MISSING>","39.654597786911935","-104.80918390980435","Mo 09:00-21:00,Tu 09:00-21:00,We 09:00-21:00,Th 09:00-21:00,Fr 09:00-21:00,Sa 09:00-21:00,Su 09:00-20:00,"
"https://www.biglots.com","Big Lots - Aurora","6626 South Parker Road","Aurora","CO","80016","US","<MISSING>","(303) 400-4428","<MISSING>","39.596968973310624","-104.79934475191635","Mo 09:00-21:00,Tu 09:00-21:00,We 09:00-21:00,Th 09:00-21:00,Fr 09:00-21:00,Sa 09:00-21:00,Su 09:00-20:00,"
"https://www.biglots.com","Big Lots - Brighton","893 S Kuner Rd.","Brighton","CO","80601","US","<MISSING>","(303) 637-9540","<MISSING>","39.97319864847839","-104.82943414714327","Mo 09:00-21:00,Tu 09:00-21:00,We 09:00-21:00,Th 09:00-21:00,Fr 09:00-21:00,Sa 09:00-21:00,Su 09:00-20:00,"
"https://www.biglots.com","Big Lots - North Colorado Springs","5085 N Academy Blvd","Colorado Springs","CO","80918","US","<MISSING>","(719) 598-5554","<MISSING>","38.90524586806237","-104.77427124922292","Mo 09:00-21:00,Tu 09:00-21:00,We 09:00-21:00,Th 09:00-21:00,Fr 09:00-21:00,Sa 09:00-21:00,Su 09:00-20:00,"
"https://www.biglots.com","Big Lots - Englewood","139 W Hampden Ave","Englewood","CO","80110","US","<MISSING>","(303) 783-1065","<MISSING>","39.654395480069134","-104.98940492467068","Mo 09:00-21:00,Tu 09:00-21:00,We 09:00-21:00,Th 09:00-21:00,Fr 09:00-21:00,Sa 09:00-21:00,Su 09:00-20:00,"
"https://www.biglots.com","Big Lots - Fort Collins","126 W Troutman Pkwy","Fort Collins","CO","80525","US","<MISSING>","(970) 229-9138","<MISSING>","40.529333307519444","-105.07883305742536","Mo 09:00-21:00,Tu 09:00-21:00,We 09:00-21:00,Th 09:00-21:00,Fr 09:00-21:00,Sa 09:00-21:00,Su 09:00-20:00,"
"https://www.biglots.com","Big Lots - Pueblo","755 Desert Flower Blvd","Pueblo","CO","81001","US","<MISSING>","(719) 546-0970","<MISSING>","38.31008982609623","-104.59644624416296","Mo 09:00-21:00,Tu 09:00-21:00,We 09:00-21:00,Th 09:00-21:00,Fr 09:00-21:00,Sa 09:00-21:00,Su 09:00-20:00,"
"https://www.biglots.com","Big Lots - Westminster","4830 W 120th Ave","Westminster","CO","80020","US","<MISSING>","(303) 460-8235","<MISSING>","39.912200738706325","-105.04868257790986","Mo 09:00-21:00,Tu 09:00-21:00,We 09:00-21:00,Th 09:00-21:00,Fr 09:00-21:00,Sa 09:00-21:00,Su 09:00-20:00,"
"https://www.biglots.com","Big Lots - Wheat Ridge","4260 Wadsworth Blvd","Wheat Ridge","CO","80033","US","<MISSING>","(303) 940-2505","<MISSING>","39.773814573325346","-105.07971548412814","Mo 09:00-21:00,Tu 09:00-21:00,We 09:00-21:00,Th 09:00-21:00,Fr 09:00-21:00,Sa 09:00-21:00,Su 09:00-20:00,"
"https://www.biglots.com","Big Lots - Manchester","1470 Pleasant Valley Road","Manchester","CT","06042","US","<MISSING>","(860) 648-9206","<MISSING>","41.8059879305816","-72.56120283467101","Mo 09:00-21:00,Tu 09:00-21:00,We 09:00-21:00,Th 09:00-21:00,Fr 09:00-21:00,Sa 09:00-21:00,Su 10:00-20:00,"
"https://www.biglots.com","Big Lots - Middletown","820 Washington St","Middletown","CT","06457","US","<MISSING>","(860) 344-1905","<MISSING>","41.55635170427342","-72.68092489522093","Mo 09:00-21:00,Tu 09:00-21:00,We 09:00-21:00,Th 09:00-21:00,Fr 09:00-21:00,Sa 09:00-21:00,Su 10:00-20:00,"
"https://www.biglots.com","Big Lots - Milford","56 Turnpike Square","Milford","CT","06460","US","<MISSING>","(203) 874-6326","<MISSING>","41.241182391091634","-73.03515538478018","Mo 09:00-21:00,Tu 09:00-21:00,We 09:00-21:00,Th 09:00-21:00,Fr 09:00-21:00,Sa 09:00-21:00,Su 10:00-20:00,"
"https://www.biglots.com","Big Lots - Norwich","42 Town St","Norwich","CT","06360","US","<MISSING>","(860) 859-9473","<MISSING>","41.54605474753359","-72.09432004299163","Mo 09:00-21:00,Tu 09:00-21:00,We 09:00-21:00,Th 09:00-21:00,Fr 09:00-21:00,Sa 09:00-21:00,Su 10:00-20:00,"
"https://www.biglots.com","Big Lots - Wallingford","968 N Colony Rd","Wallingford","CT","06492","US","<MISSING>","(203) 679-0609","<MISSING>","41.48782542573153","-72.80747528321155","Mo 09:00-21:00,Tu 09:00-21:00,We 09:00-21:00,Th 09:00-21:00,Fr 09:00-21:00,Sa 09:00-21:00,Su 10:00-20:00,"
"https://www.biglots.com","Big Lots - Dover","515 Dupont Hwy","Dover","DE","19901","US","<MISSING>","(302) 480-1841","<MISSING>","39.17571404343473","-75.52174270304107","Mo 09:00-21:00,Tu 09:00-21:00,We 09:00-21:00,Th 09:00-21:00,Fr 09:00-21:00,Sa 09:00-21:00,Su 10:00-20:00,"
"https://www.biglots.com","Big Lots - Milford","631 N Dupont Blvd","Milford","DE","19963","US","<MISSING>","(302) 424-7904","<MISSING>","38.917793940143206","-75.44279337441162","Mo 09:00-21:00,Tu 09:00-21:00,We 09:00-21:00,Th 09:00-21:00,Fr 09:00-21:00,Sa 09:00-21:00,Su 10:00-20:00,"
"https://www.biglots.com","Big Lots - New Castle","26 Penn Mart Center","New Castle","DE","19720","US","<MISSING>","(302) 326-1038","<MISSING>","39.676445962210394","-75.59012018103886","Mo 09:00-21:00,Tu 09:00-21:00,We 09:00-21:00,Th 09:00-21:00,Fr 09:00-21:00,Sa 09:00-21:00,Su 10:00-20:00,"
"https://www.biglots.com","Big Lots - Seaford","900 Norman Eskridge Hwy","Seaford","DE","19973","US","<MISSING>","(302) 629-5128","<MISSING>","38.65140469506424","-75.60327140888865","Mo 09:00-21:00,Tu 09:00-21:00,We 09:00-21:00,Th 09:00-21:00,Fr 09:00-21:00,Sa 09:00-21:00,Su 10:00-20:00,"
"https://www.biglots.com","Big Lots - Wilmington","4439 Governor Printz Blvd","Wilmington","DE","19802","US","<MISSING>","(302) 761-9096","<MISSING>","39.75433653440478","-75.50810246449771","Mo 09:00-21:00,Tu 09:00-21:00,We 09:00-21:00,Th 09:00-21:00,Fr 09:00-21:00,Sa 09:00-21:00,Su 10:00-20:00,"
"https://www.biglots.com","Big Lots - Milwaukee: Greendale","5667 S 27th St","Milwaukee","WI","53221","US","<MISSING>","(414) 281-3550","<MISSING>","42.94193803410245","-87.95062336854272","Mo 09:00-21:00,Tu 09:00-21:00,We 09:00-21:00,Th 09:00-21:00,Fr 09:00-21:00,Sa 09:00-21:00,Su 10:00-20:00,"
"https://www.biglots.com","Big Lots - Mount Pleasant","5415 Washington Ave","Mount Pleasant","WI","53406","US","<MISSING>","(262) 634-3705","<MISSING>","42.71724205179732","-87.84503881676278","Mo 09:00-21:00,Tu 09:00-21:00,We 09:00-21:00,Th 09:00-21:00,Fr 09:00-21:00,Sa 09:00-21:00,Su 10:00-20:00,"
"https://www.biglots.com","Big Lots - Sheboygan","3426 Kohler Memorial Dr","Sheboygan","WI","53081","US","<MISSING>","(920) 453-9408","<MISSING>","43.758067347677716","-87.753659952264","Mo 09:00-21:00,Tu 09:00-21:00,We 09:00-21:00,Th 09:00-21:00,Fr 09:00-21:00,Sa 09:00-21:00,Su 10:00-20:00,"
"https://www.biglots.com","Big Lots - Beckley","4522 Robert C Byrd Dr","Beckley","WV","25801","US","<MISSING>","(304) 252-4895","<MISSING>","37.81267933542508","-81.18725366657361","Mo 09:00-21:00,Tu 09:00-21:00,We 09:00-21:00,Th 09:00-21:00,Fr 09:00-21:00,Sa 09:00-21:00,Su 10:00-20:00,"
"https://www.biglots.com","Big Lots - Bridgeport","104 Thompson Dr","Bridgeport","WV","26330","US","<MISSING>","(304) 842-6297","<MISSING>","39.28455809444375","-80.27680340627916","Mo 09:00-21:00,Tu 09:00-21:00,We 09:00-21:00,Th 09:00-21:00,Fr 09:00-21:00,Sa 09:00-21:00,Su 10:00-20:00,"
"https://www.biglots.com","Big Lots - Charleston West Side","118 Hills Plz","Charleston","WV","25312","US","<MISSING>","(304) 342-0174","<MISSING>","38.36909588471148","-81.67108081904405","Mo 09:00-21:00,Tu 09:00-21:00,We 09:00-21:00,Th 09:00-21:00,Fr 09:00-21:00,Sa 09:00-21:00,Su 09:00-20:00,"
"https://www.biglots.com","Big Lots - Charleston: Kanawha City","7200 Mccorkle Ave Se","Charleston","WV","25304","US","<MISSING>","(304) 925-4644","<MISSING>","38.292872383867376","-81.56662673782142","Mo 09:00-21:00,Tu 09:00-21:00,We 09:00-21:00,Th 09:00-21:00,Fr 09:00-21:00,Sa 09:00-21:00,Su 09:00-20:00,"
"https://www.biglots.com","Big Lots - Elkins","710 Beverly Pike","Elkins","WV","26241","US","<MISSING>","(304) 636-1364","<MISSING>","38.89567831083025","-79.847956539145","Mo 09:00-21:00,Tu 09:00-21:00,We 09:00-21:00,Th 09:00-21:00,Fr 09:00-21:00,Sa 09:00-21:00,Su 10:00-20:00,"
"https://www.biglots.com","Big Lots - Fairmont","1228 Country Club Rd","Fairmont","WV","26554","US","<MISSING>","(304) 363-2478","<MISSING>","39.4713826637335","-80.17291024421502","Mo 09:00-21:00,Tu 09:00-21:00,We 09:00-21:00,Th 09:00-21:00,Fr 09:00-21:00,Sa 09:00-21:00,Su 10:00-20:00,"
"https://www.biglots.com","Big Lots - Huntington","5636 Us Route 60","Huntington","WV","25705","US","<MISSING>","(681) 378-2814","<MISSING>","38.40947937547789","-82.32415865641406","Mo 09:00-21:00,Tu 09:00-21:00,We 09:00-21:00,Th 09:00-21:00,Fr 09:00-21:00,Sa 09:00-21:00,Su 10:00-20:00,"
"https://www.biglots.com","Big Lots - Martinsburg","110 Eagle School Rd","Martinsburg","WV","25404","US","<MISSING>","(304) 267-1505","<MISSING>","39.473232784055575","-77.95187195799753","Mo 09:00-21:00,Tu 09:00-21:00,We 09:00-21:00,Th 09:00-21:00,Fr 09:00-21:00,Sa 09:00-21:00,Su 10:00-20:00,"
"https://www.biglots.com","Big Lots - Westover","902 Fairmont Rd","Morgantown","WV","26501","US","<MISSING>","(304) 296-9811","<MISSING>","39.62772100119632","-79.98500242264356","Mo 09:00-21:00,Tu 09:00-21:00,We 09:00-21:00,Th 09:00-21:00,Fr 09:00-21:00,Sa 09:00-21:00,Su 10:00-20:00,"
"https://www.biglots.com","Big Lots - Moundsville","1230 Lafayette Ave","Moundsville","WV","26041","US","<MISSING>","(304) 843-5374","<MISSING>","39.91190133618857","-80.74621695930807","Mo 09:00-21:00,Tu 09:00-21:00,We 09:00-21:00,Th 09:00-21:00,Fr 09:00-21:00,Sa 09:00-21:00,Su 09:00-20:00,"
"https://www.biglots.com","Big Lots - Oak Hill","291 Mall Rd","Oak Hill","WV","25901","US","<MISSING>","(304) 469-2294","<MISSING>","38.01118738526676","-81.12926429642084","Mo 09:00-21:00,Tu 09:00-21:00,We 09:00-21:00,Th 09:00-21:00,Fr 09:00-21:00,Sa 09:00-21:00,Su 10:00-20:00,"
"https://www.biglots.com","Big Lots - South Parkersburg","2107 Pike St","Parkersburg","WV","26101","US","<MISSING>","(304) 422-1322","<MISSING>","39.23499502515929","-81.54071459934949","Mo 09:00-21:00,Tu 09:00-21:00,We 09:00-21:00,Th 09:00-21:00,Fr 09:00-21:00,Sa 09:00-21:00,Su 10:00-20:00,"
"https://www.biglots.com","Big Lots - Princeton","1350 Stafford Dr","Princeton","WV","24740","US","<MISSING>","(304) 487-6139","<MISSING>","37.361315926240856","-81.1031181018115","Mo 09:00-21:00,Tu 09:00-21:00,We 09:00-21:00,Th 09:00-21:00,Fr 09:00-21:00,Sa 09:00-21:00,Su 10:00-20:00,"
"https://www.biglots.com","Big Lots - Teays Valley","34 Great Teays Blvd","Scott Depot","WV","25560","US","<MISSING>","(304) 757-3073","<MISSING>","38.45700538119267","-81.92859300429916","Mo 09:00-21:00,Tu 09:00-21:00,We 09:00-21:00,Th 09:00-21:00,Fr 09:00-21:00,Sa 09:00-21:00,Su 09:00-20:00,"
"https://www.biglots.com","Big Lots - Summersville","197 Merchants Walk","Summersville","WV","26651","US","<MISSING>","(304) 618-6021","<MISSING>","38.297556","-80.835563","Mo 09:00-21:00,Tu 09:00-21:00,We 09:00-21:00,Th 09:00-21:00,Fr 09:00-21:00,Sa 09:00-21:00,Su 09:00-21:00,"
"https://www.biglots.com","Big Lots - Vienna","113 Grand Central Ave","Vienna","WV","26105","US","<MISSING>","(681) 229-7276","<MISSING>","39.30006905839398","-81.54881672883607","Mo 09:00-21:00,Tu 09:00-21:00,We 09:00-21:00,Th 09:00-21:00,Fr 09:00-21:00,Sa 09:00-21:00,Su 10:00-20:00,"
"https://www.biglots.com","Big Lots - Casper","2141 E 12th St","Casper","WY","82601","US","<MISSING>","(307) 472-4060","<MISSING>","42.837558786822996","-106.2988258894598","Mo 09:00-21:00,Tu 09:00-21:00,We 09:00-21:00,Th 09:00-21:00,Fr 09:00-21:00,Sa 09:00-21:00,Su 09:00-20:00,"
"https://www.biglots.com","Big Lots - Cheyenne","3741 E Lincolnway","Cheyenne","WY","82001","US","<MISSING>","(307) 638-7141","<MISSING>","41.138068735488645","-104.76386251460258","Mo 09:00-21:00,Tu 09:00-21:00,We 09:00-21:00,Th 09:00-21:00,Fr 09:00-21:00,Sa 09:00-21:00,Su 09:00-20:00,"
